{"type":"FeatureCollection","features":[{"type":"Feature","geometry":{"type":"Point","coordinates":[126.9973,37.57936]},"properties":{"name":"서울대학교병원","addr":"서울특별시 종로구 대학로 101, (연건동)","sgg":"11110","cap":48,"type":"FTL_2","src":"safekorea","asof":"2026-04-07","tel":"1588-5700"}},{"type":"Feature","geometry":{"type":"Point","coordinates":[126.9678,37.56886]},"properties":{"name":"강북삼성병원","addr":"서울특별시 종로구 새문안로 29, (평동)","sgg":"11110","cap":20,"type":"ESB","src":"safekorea","asof":"2026-04-07","tel":"02-2001-2001"}},{"type":"Feature","geometry":{"type":"Point","coordinates":[126.96705,37.56746]},"properties":{"name":"서울적십자병원","addr":"서울특별시 종로구 새문안로 9, 적십자병원 (평동)","sgg":"11110","cap":11,"type":"ESB","src":"safekorea","asof":"2026-04-07","tel":"02-2002-8000"}},{"type":"Feature","geometry":{"type":"Point","coordinates":[126.9577,37.57533]},"properties":{"name":"세란병원","addr":"서울특별시 종로구 통일로 256, (무악동)","sgg":"11110","cap":10,"type":"ESB","src":"safekorea","asof":"2026-04-07","tel":"02-737-0181"}},{"type":"Feature","geometry":{"type":"Point","coordinates":[126.98866,37.56482]},"properties":{"name":"인제대학교 서울백병원","addr":"서울특별시 중구 마른내로 9-9, (저동2가)","sgg":"11140","cap":10,"type":"FTL_2","src":"safekorea","asof":"2026-04-07","tel":"02-2270-0114"}},{"type":"Feature","geometry":{"type":"Point","coordinates":[126.99962,37.56172]},"properties":{"name":"의료법인 제일의료재단 제일병원","addr":"서울특별시 중구 서애로1길 17, (묵정동)","sgg":"11140","cap":12,"type":"FTL_2","src":"safekorea","asof":"2026-04-07","tel":"02-2000-7114"}},{"type":"Feature","geometry":{"type":"Point","coordinates":[127.00548,37.56773]},"properties":{"name":"국립중앙의료원","addr":"서울특별시 중구 을지로 245, 국립중앙의료원 (을지로6가)","sgg":"11140","cap":31,"type":"ESB","src":"safekorea","asof":"2026-04-07","tel":"02-2260-7114"}},{"type":"Feature","geometry":{"type":"Point","coordinates":[127.00511,37.53449]},"properties":{"name":"순천향대학교 부속 서울병원","addr":"서울특별시 용산구 대사관로 59, (한남동)","sgg":"11170","cap":27,"type":"ESB","src":"safekorea","asof":"2026-04-07","tel":"02-709-9114"}},{"type":"Feature","geometry":{"type":"Point","coordinates":[127.04562,37.55863]},"properties":{"name":"한양대학교병원","addr":"서울특별시 성동구 왕십리로 222-1, (사근동)","sgg":"11200","cap":34,"type":"ESB","src":"safekorea","asof":"2026-04-07","tel":"02-2290-8114"}},{"type":"Feature","geometry":{"type":"Point","coordinates":[127.02801,37.56511]},"properties":{"name":"재단법인베스티안재단베스티안서울병원","addr":"서울특별시 성동구 왕십리로 382, (하왕십리동)","sgg":"11200","cap":4,"type":"FTL_2","src":"safekorea","asof":"2026-04-07","tel":"02-3452-7575"}},{"type":"Feature","geometry":{"type":"Point","coordinates":[127.07205,37.54123]},"properties":{"name":"건국대학교병원","addr":"서울특별시 광진구 능동로 120-1, (화양동)","sgg":"11215","cap":27,"type":"ESB","src":"safekorea","asof":"2026-04-07","tel":"1588-1533"}},{"type":"Feature","geometry":{"type":"Point","coordinates":[127.08339,37.53543]},"properties":{"name":"혜민병원","addr":"서울특별시 광진구 자양로 85, (자양동)","sgg":"11215","cap":10,"type":"ESB","src":"safekorea","asof":"2026-04-07","tel":"02-2049-9000"}},{"type":"Feature","geometry":{"type":"Point","coordinates":[127.0315,37.57535]},"properties":{"name":"서울특별시 동부병원","addr":"서울특별시 동대문구 무학로 124, (용두동)","sgg":"11230","cap":10,"type":"ESB","src":"safekorea","asof":"2026-04-07","tel":"02-920-9114"}},{"type":"Feature","geometry":{"type":"Point","coordinates":[127.06404,37.58811]},"properties":{"name":"삼육서울병원","addr":"서울특별시 동대문구 망우로 82, (휘경동)","sgg":"11230","cap":20,"type":"ESB","src":"safekorea","asof":"2026-04-07","tel":"02-2244-0191"}},{"type":"Feature","geometry":{"type":"Point","coordinates":[127.05122,37.59426]},"properties":{"name":"경희대학교병원","addr":"서울특별시 동대문구 경희대로 23, (회기동)","sgg":"11230","cap":27,"type":"ESB","src":"safekorea","asof":"2026-04-07","tel":"02-958-8114"}},{"type":"Feature","geometry":{"type":"Point","coordinates":[127.04982,37.58418]},"properties":{"name":"서울성심병원","addr":"서울특별시 동대문구 왕산로 259, 서울성심병원 (청량리동)","sgg":"11230","cap":20,"type":"ESB","src":"safekorea","asof":"2026-04-07","tel":"02-966-1616"}},{"type":"Feature","geometry":{"type":"Point","coordinates":[127.10954,37.60088]},"properties":{"name":"의료법인풍산의료재단동부제일병원","addr":"서울특별시 중랑구 망우로 511, 동부제일병원 지하1~6층 (망우동)","sgg":"11260","cap":8,"type":"ESB","src":"safekorea","asof":"2026-04-07","tel":"02-437-5011"}},{"type":"Feature","geometry":{"type":"Point","coordinates":[127.08605,37.58356]},"properties":{"name":"녹색병원","addr":"서울특별시 중랑구 사가정로49길 53, (면목동)","sgg":"11260","cap":10,"type":"ESB","src":"safekorea","asof":"2026-04-07","tel":"02-490-2000"}},{"type":"Feature","geometry":{"type":"Point","coordinates":[127.09918,37.61309]},"properties":{"name":"서울특별시서울의료원","addr":"서울특별시 중랑구 신내로 156, (신내동)","sgg":"11260","cap":27,"type":"ESB","src":"safekorea","asof":"2026-04-07","tel":"02-2276-7000"}},{"type":"Feature","geometry":{"type":"Point","coordinates":[127.02681,37.58816]},"properties":{"name":"학교법인 고려중앙학원 고려대학교의과대학부속병원(안암병원)","addr":"서울특별시 성북구 고려대로 73, 고려대병원 (안암동5가)","sgg":"11290","cap":43,"type":"ESB","src":"safekorea","asof":"2026-04-07","tel":"1577-0083"}},{"type":"Feature","geometry":{"type":"Point","coordinates":[127.02267,37.63547]},"properties":{"name":"의료법인성화의료재단  대한병원","addr":"서울특별시 강북구 도봉로 301, (수유동, 대한병원)","sgg":"11305","cap":7,"type":"FTL_2","src":"safekorea","asof":"2026-04-07","tel":"02-903-3232"}},{"type":"Feature","geometry":{"type":"Point","coordinates":[127.0285,37.64025]},"properties":{"name":"서울현대병원","addr":"서울특별시 강북구 도봉로 374, (번동, 서울현대병원)","sgg":"11305","cap":9,"type":"FTL_2","src":"safekorea","asof":"2026-04-07","tel":"1588-6853"}},{"type":"Feature","geometry":{"type":"Point","coordinates":[127.02929,37.64538]},"properties":{"name":"의료법인한전의료재단 한일병원","addr":"서울특별시 도봉구 우이천로 308, 한일병원 (쌍문동)","sgg":"11320","cap":27,"type":"ESB","src":"safekorea","asof":"2026-04-07","tel":"02-901-3114"}},{"type":"Feature","geometry":{"type":"Point","coordinates":[127.06311,37.64858]},"properties":{"name":"인제대학교 상계백병원","addr":"서울특별시 노원구 동일로 1342, 상계백병원 (상계동)","sgg":"11350","cap":23,"type":"ESB","src":"safekorea","asof":"2026-04-07","tel":"02-950-1114"}},{"type":"Feature","geometry":{"type":"Point","coordinates":[127.06968,37.63611]},"properties":{"name":"노원을지대학교병원","addr":"서울특별시 노원구 한글비석로 68, 을지병원 (하계동)","sgg":"11350","cap":22,"type":"ESB","src":"safekorea","asof":"2026-04-07","tel":"02-970-8000"}},{"type":"Feature","geometry":{"type":"Point","coordinates":[127.08244,37.63062]},"properties":{"name":"한국원자력의학원원자력병원","addr":"서울특별시 노원구 노원로 75, 한국원자력의학원 (공릉동)","sgg":"11350","cap":12,"type":"ESB","src":"safekorea","asof":"2026-04-07","tel":"02-970-2114"}},{"type":"Feature","geometry":{"type":"Point","coordinates":[126.91615,37.6336]},"properties":{"name":"가톨릭대학교 은평성모병원","addr":"서울특별시 은평구 통일로 1021, (진관동)","sgg":"11380","cap":36,"type":"ESB","src":"safekorea","asof":"2026-04-07","tel":"02-1811-7755"}},{"type":"Feature","geometry":{"type":"Point","coordinates":[126.91954,37.62078]},"properties":{"name":"의료법인 청구성심병원","addr":"서울특별시 은평구 통일로 873, (갈현동)","sgg":"11380","cap":11,"type":"ESB","src":"safekorea","asof":"2026-04-07","tel":"02-350-3300"}},{"type":"Feature","geometry":{"type":"Point","coordinates":[126.94137,37.56367]},"properties":{"name":"연세대학교의과대학세브란스병원","addr":"서울특별시 서대문구 연세로 50-1, (신촌동)","sgg":"11410","cap":57,"type":"FTL_2","src":"safekorea","asof":"2026-04-07","tel":"02-2228-0114"}},{"type":"Feature","geometry":{"type":"Point","coordinates":[126.93658,37.58117]},"properties":{"name":"의료법인동신의료재단 동신병원","addr":"서울특별시 서대문구 연희로 272, 동신병원 본관동 (홍은동)","sgg":"11410","cap":10,"type":"ESB","src":"safekorea","asof":"2026-04-07","tel":"02-396-9161"}},{"type":"Feature","geometry":{"type":"Point","coordinates":[126.88637,37.53583]},"properties":{"name":"이화여자대학교의과대학부속목동병원","addr":"서울특별시 양천구 안양천로 1071, (목동)","sgg":"11470","cap":33,"type":"ESB","src":"safekorea","asof":"2026-04-07","tel":"02-2650-5114"}},{"type":"Feature","geometry":{"type":"Point","coordinates":[126.86364,37.52848]},"properties":{"name":"홍익병원","addr":"서울특별시 양천구 목동로 225, 홍익병원본관 (신정동)","sgg":"11470","cap":10,"type":"ESB","src":"safekorea","asof":"2026-04-07","tel":"02-2693-5555"}},{"type":"Feature","geometry":{"type":"Point","coordinates":[126.83313,37.51201]},"properties":{"name":"서울특별시서남병원","addr":"서울특별시 양천구 신정이펜1로 20, (신정동)","sgg":"11470","cap":20,"type":"ESB","src":"safekorea","asof":"2026-04-07","tel":"1566-6688"}},{"type":"Feature","geometry":{"type":"Point","coordinates":[126.83585,37.55217]},"properties":{"name":"미즈메디병원","addr":"서울특별시 강서구 강서로 295, (내발산동)","sgg":"11500","cap":5,"type":"FTL_2","src":"safekorea","asof":"2026-04-07","tel":"02-2007-1000"}},{"type":"Feature","geometry":{"type":"Point","coordinates":[126.8509,37.55686]},"properties":{"name":"부민병원","addr":"서울특별시 강서구 공항대로 389, 부민병원 (등촌동)","sgg":"11500","cap":11,"type":"ESB","src":"safekorea","asof":"2026-04-07","tel":"1577-7582"}},{"type":"Feature","geometry":{"type":"Point","coordinates":[126.79636,37.562]},"properties":{"name":"우리들병원","addr":"서울특별시 강서구 하늘길 70, (과해동)","sgg":"11500","cap":1,"type":"FTL_2","src":"safekorea","asof":"2026-04-07","tel":"02-2660-7500"}},{"type":"Feature","geometry":{"type":"Point","coordinates":[126.83627,37.55726]},"properties":{"name":"이화여자대학교의과대학부속서울병원","addr":"서울특별시 강서구 공항대로 260, 이화의대부속서울병원 (마곡동)","sgg":"11500","cap":31,"type":"ESB","src":"safekorea","asof":"2026-04-07","tel":"1522-7000"}},{"type":"Feature","geometry":{"type":"Point","coordinates":[126.88551,37.49237]},"properties":{"name":"고려대학교의과대학부속구로병원","addr":"서울특별시 구로구 구로동로 148, 고려대부속구로병원 (구로동)","sgg":"11530","cap":38,"type":"ESB","src":"safekorea","asof":"2026-04-07","tel":"02-2626-1114"}},{"type":"Feature","geometry":{"type":"Point","coordinates":[126.86635,37.49964]},"properties":{"name":"구로성심병원","addr":"서울특별시 구로구 경인로 427, 구로성심병원 (고척동)","sgg":"11530","cap":10,"type":"ESB","src":"safekorea","asof":"2026-04-07","tel":"02-2067-1500"}},{"type":"Feature","geometry":{"type":"Point","coordinates":[126.90056,37.45567]},"properties":{"name":"희명병원","addr":"서울특별시 금천구 시흥대로 244, (시흥동)","sgg":"11545","cap":10,"type":"ESB","src":"safekorea","asof":"2026-04-07","tel":"02-804-0002"}},{"type":"Feature","geometry":{"type":"Point","coordinates":[126.93672,37.51827]},"properties":{"name":"가톨릭대학교 여의도성모병원","addr":"서울특별시 영등포구 63로 10, 여의도성모병원 (여의도동)","sgg":"11560","cap":20,"type":"ESB","src":"safekorea","asof":"2026-04-07","tel":"1661-7575"}},{"type":"Feature","geometry":{"type":"Point","coordinates":[126.90969,37.52317]},"properties":{"name":"한림대학교 한강성심병원","addr":"서울특별시 영등포구 버드나루로7길 12, (영등포동7가, 한강성심병원)","sgg":"11560","cap":7,"type":"FTL_2","src":"safekorea","asof":"2026-04-07","tel":"02-2639-5114"}},{"type":"Feature","geometry":{"type":"Point","coordinates":[126.90867,37.49324]},"properties":{"name":"한림대학교 강남성심병원","addr":"서울특별시 영등포구 신길로 1, (대림동, 강남성심병원)","sgg":"11560","cap":27,"type":"ESB","src":"safekorea","asof":"2026-04-07","tel":"02-829-5114"}},{"type":"Feature","geometry":{"type":"Point","coordinates":[126.92237,37.51204]},"properties":{"name":"성애의료재단 성애병원","addr":"서울특별시 영등포구 여의대방로53길 22, (신길동, 성애병원)","sgg":"11560","cap":20,"type":"ESB","src":"safekorea","asof":"2026-04-07","tel":"02-840-7114"}},{"type":"Feature","geometry":{"type":"Point","coordinates":[126.90716,37.49069]},"properties":{"name":"대림성모병원","addr":"서울특별시 영등포구 시흥대로 657, (대림동, 대림성모병원)","sgg":"11560","cap":10,"type":"ESB","src":"safekorea","asof":"2026-04-07","tel":"02-829-9000"}},{"type":"Feature","geometry":{"type":"Point","coordinates":[126.89925,37.49385]},"properties":{"name":"명지성모병원","addr":"서울특별시 영등포구 도림로 156, 명지성모병원 (대림동)","sgg":"11560","cap":10,"type":"ESB","src":"safekorea","asof":"2026-04-07","tel":"02-1899-1475"}},{"type":"Feature","geometry":{"type":"Point","coordinates":[126.90387,37.51881]},"properties":{"name":"씨엠병원","addr":"서울특별시 영등포구 영등포로36길 13, (영등포동4가, 충무병원)","sgg":"11560","cap":10,"type":"ESB","src":"safekorea","asof":"2026-04-07","tel":"02-2678-0001"}},{"type":"Feature","geometry":{"type":"Point","coordinates":[126.96042,37.50603]},"properties":{"name":"중앙대학교병원","addr":"서울특별시 동작구 흑석로 102, (흑석동)","sgg":"11590","cap":31,"type":"ESB","src":"safekorea","asof":"2026-04-07","tel":"1800-1114"}},{"type":"Feature","geometry":{"type":"Point","coordinates":[126.92432,37.49301]},"properties":{"name":"서울특별시보라매병원","addr":"서울특별시 동작구 보라매로5길 20, (신대방동)","sgg":"11590","cap":43,"type":"ESB","src":"safekorea","asof":"2026-04-07","tel":"02-870-2114"}},{"type":"Feature","geometry":{"type":"Point","coordinates":[126.95678,37.48562]},"properties":{"name":"강남고려병원","addr":"서울특별시 관악구 관악로 242, (봉천동)","sgg":"11620","cap":10,"type":"FTL_2","src":"safekorea","asof":"2026-04-07","tel":"02-874-8001"}},{"type":"Feature","geometry":{"type":"Point","coordinates":[126.93256,37.48437]},"properties":{"name":"의료법인서울효천의료재단 에이치플러스양지병원","addr":"서울특별시 관악구 남부순환로 1636, 양지병원 (신림동)","sgg":"11620","cap":21,"type":"ESB","src":"safekorea","asof":"2026-04-07","tel":"02-1877-8875"}},{"type":"Feature","geometry":{"type":"Point","coordinates":[127.00586,37.50239]},"properties":{"name":"학교법인가톨릭학원가톨릭대학교서울성모병원","addr":"서울특별시 서초구 반포대로 222, (반포동)","sgg":"11650","cap":43,"type":"ESB","src":"safekorea","asof":"2026-04-07","tel":"02-1588-1511"}},{"type":"Feature","geometry":{"type":"Point","coordinates":[127.01806,37.48271]},"properties":{"name":"기쁨병원","addr":"서울특별시 서초구 서초중앙로 4, 기쁨병원 (서초동)","sgg":"11650","cap":5,"type":"ESB","src":"safekorea","asof":"2026-04-07","tel":"02-570-1234"}},{"type":"Feature","geometry":{"type":"Point","coordinates":[127.04631,37.49209]},"properties":{"name":"연세대학교의과대학 강남세브란스병원","addr":"서울특별시 강남구 언주로 211, 강남세브란스병원 (도곡동)","sgg":"11680","cap":28,"type":"ESB","src":"safekorea","asof":"2026-04-07","tel":"02-2019-3114"}},{"type":"Feature","geometry":{"type":"Point","coordinates":[127.03477,37.50679]},"properties":{"name":"차의과학대학교 강남차병원","addr":"서울특별시 강남구 논현로 566, 강남차병원(역삼동650-9, 606-4, 605외2필지(지하7층~지하1층, 지상2층~7층","sgg":"11680","cap":6,"type":"FTL_2","src":"safekorea","asof":"2026-04-07","tel":"02-3468-3000"}},{"type":"Feature","geometry":{"type":"Point","coordinates":[127.08959,37.49034]},"properties":{"name":"삼성서울병원","addr":"서울특별시 강남구 일원로 81, (일원동, 삼성의료원)","sgg":"11680","cap":63,"type":"ESB","src":"safekorea","asof":"2026-04-07","tel":"02-3410-2114"}},{"type":"Feature","geometry":{"type":"Point","coordinates":[127.03959,37.48561]},"properties":{"name":"강남베드로병원","addr":"서울특별시 강남구 남부순환로 2649, 베드로병원 (도곡동)","sgg":"11680","cap":6,"type":"FTL_2","src":"safekorea","asof":"2026-04-07","tel":"1544-7522"}},{"type":"Feature","geometry":{"type":"Point","coordinates":[127.12348,37.49641]},"properties":{"name":"경찰병원","addr":"서울특별시 송파구 송이로 123, 국립경찰병원 (가락동)","sgg":"11710","cap":5,"type":"ESB","src":"safekorea","asof":"2026-04-07","tel":"02-3400-1114"}},{"type":"Feature","geometry":{"type":"Point","coordinates":[127.10662,37.52582]},"properties":{"name":"재단법인아산사회복지재단 서울아산병원","addr":"서울특별시 송파구 올림픽로43길 88, 서울아산병원 (풍납동)","sgg":"11710","cap":93,"type":"FTL_2","src":"safekorea","asof":"2026-04-07","tel":"02-3010-3114"}},{"type":"Feature","geometry":{"type":"Point","coordinates":[127.14809,37.52987]},"properties":{"name":"한국보훈복지의료공단 중앙보훈병원","addr":"서울특별시 강동구 진황도로61길 53, (둔촌동)","sgg":"11740","cap":25,"type":"ESB","src":"safekorea","asof":"2026-04-07","tel":"02-2225-1111"}},{"type":"Feature","geometry":{"type":"Point","coordinates":[127.13533,37.53615]},"properties":{"name":"성심의료재단강동성심병원","addr":"서울특별시 강동구 성안로 150, (길동)","sgg":"11740","cap":22,"type":"ESB","src":"safekorea","asof":"2026-04-07","tel":"02-2224-2114"}},{"type":"Feature","geometry":{"type":"Point","coordinates":[127.15708,37.55203]},"properties":{"name":"강동경희대학교병원","addr":"서울특별시 강동구 동남로 892, (상일동)","sgg":"11740","cap":23,"type":"ESB","src":"safekorea","asof":"2026-04-07","tel":"02-440-7114"}},{"type":"Feature","geometry":{"type":"Point","coordinates":[129.03298,35.10765]},"properties":{"name":"재단법인천주교부산교구유지재단 메리놀병원","addr":"부산광역시 중구 중구로 121, (대청동4가)","sgg":"26110","cap":10,"type":"ESB","src":"safekorea","asof":"2026-04-07","tel":"051-465-8801"}},{"type":"Feature","geometry":{"type":"Point","coordinates":[129.01924,35.10112]},"properties":{"name":"부산대학교병원","addr":"부산광역시 서구 구덕로 179, (아미동1가)","sgg":"26140","cap":37,"type":"ESB","src":"safekorea","asof":"2026-04-07","tel":"240-7000"}},{"type":"Feature","geometry":{"type":"Point","coordinates":[129.0145,35.08108]},"properties":{"name":"고신대학교복음병원","addr":"부산광역시 서구 감천로 262, (암남동)","sgg":"26140","cap":29,"type":"ESB","src":"safekorea","asof":"2026-04-07","tel":"990-6114"}},{"type":"Feature","geometry":{"type":"Point","coordinates":[129.01097,35.11206]},"properties":{"name":"삼육부산병원","addr":"부산광역시 서구 대티로 170, (서대신동2가)","sgg":"26140","cap":10,"type":"ESB","src":"safekorea","asof":"2026-04-07","tel":"242-9751"}},{"type":"Feature","geometry":{"type":"Point","coordinates":[129.01874,35.1205]},"properties":{"name":"동아대학교병원","addr":"부산광역시 서구 대신공원로 26, (동대신동3가)","sgg":"26140","cap":39,"type":"ESB","src":"safekorea","asof":"2026-04-07","tel":"051-240-2400"}},{"type":"Feature","geometry":{"type":"Point","coordinates":[129.05441,35.13577]},"properties":{"name":"재단법인일신기독교선교회 일신기독병원","addr":"부산광역시 동구 정공단로 27, (좌천동)","sgg":"26170","cap":5,"type":"FTL_2","src":"safekorea","asof":"2026-04-07","tel":"051-630-0300"}},{"type":"Feature","geometry":{"type":"Point","coordinates":[129.05054,35.13086]},"properties":{"name":"의료법인정화의료재단 봉생기념병원","addr":"부산광역시 동구 중앙대로 401, (좌천동, 봉생병원)","sgg":"26170","cap":11,"type":"ESB","src":"safekorea","asof":"2026-04-07","tel":"051-664-4000"}},{"type":"Feature","geometry":{"type":"Point","coordinates":[129.05904,35.14078]},"properties":{"name":"좋은문화병원","addr":"부산광역시 동구 범일로 119, (범일동)","sgg":"26170","cap":12,"type":"ESB","src":"safekorea","asof":"2026-04-07","tel":"051-644-2002"}},{"type":"Feature","geometry":{"type":"Point","coordinates":[129.04052,35.09223]},"properties":{"name":"영도병원","addr":"부산광역시 영도구 태종로 85, (대교동2가)","sgg":"26200","cap":9,"type":"ESB","src":"safekorea","asof":"2026-04-07","tel":"051-414-8101"}},{"type":"Feature","geometry":{"type":"Point","coordinates":[129.04386,35.09193]},"properties":{"name":"의료법인 행도의료재단 해동병원","addr":"부산광역시 영도구 태종로 133, (봉래동3가)","sgg":"26200","cap":7,"type":"ESB","src":"safekorea","asof":"2026-04-07","tel":"051-412-6161"}},{"type":"Feature","geometry":{"type":"Point","coordinates":[129.02057,35.14645]},"properties":{"name":"인제대학교부산백병원","addr":"부산광역시 부산진구 복지로 75, 진사로83번길 75, 진사로83번길 81, 1층(일부), 3층 (개금동)","sgg":"26230","cap":35,"type":"ESB","src":"safekorea","asof":"2026-04-07","tel":"051-890-6114"}},{"type":"Feature","geometry":{"type":"Point","coordinates":[129.05838,35.14694]},"properties":{"name":"춘해보건대학교병원","addr":"부산광역시 부산진구 중앙대로 605, 지상1층~지상9층 (범천동)","sgg":"26230","cap":10,"type":"ESB","src":"safekorea","asof":"2026-04-07","tel":"051-638-8000"}},{"type":"Feature","geometry":{"type":"Point","coordinates":[129.07591,35.16995]},"properties":{"name":"학교법인)동의병원","addr":"부산광역시 부산진구 양정로 62, 지상2ㆍ3ㆍ10층 각 일부/ 지하1ㆍ지상1ㆍ지상4~지상8층 전층 (양정동)","sgg":"26230","cap":15,"type":"ESB","src":"safekorea","asof":"2026-04-07","tel":"051-867-5101"}},{"type":"Feature","geometry":{"type":"Point","coordinates":[129.05005,35.15767]},"properties":{"name":"의료법인 온그룹의료재단 온병원","addr":"부산광역시 부산진구 가야대로 719, ,767,721,본관 지하3~11층 전부,12층 일부,13~14층 전부,15층 일부,신","sgg":"26230","cap":27,"type":"ESB","src":"safekorea","asof":"2026-04-07","tel":"051-607-0114"}},{"type":"Feature","geometry":{"type":"Point","coordinates":[129.08019,35.20431]},"properties":{"name":"대동병원","addr":"부산광역시 동래구 충렬대로 187, (명륜동)","sgg":"26260","cap":21,"type":"ESB","src":"safekorea","asof":"2026-04-07","tel":"051-554-1233"}},{"type":"Feature","geometry":{"type":"Point","coordinates":[129.07114,35.20697]},"properties":{"name":"의료법인 광혜의료재단 광혜병원","addr":"부산광역시 동래구 충렬대로 96, (온천동, 광혜병원)","sgg":"26260","cap":10,"type":"ESB","src":"safekorea","asof":"2026-04-07","tel":"051-503-2111"}},{"type":"Feature","geometry":{"type":"Point","coordinates":[129.09611,35.1969]},"properties":{"name":"동래봉생병원","addr":"부산광역시 동래구 안연로109번길 27, (안락동)","sgg":"26260","cap":10,"type":"ESB","src":"safekorea","asof":"2026-04-07","tel":"051-520-5500"}},{"type":"Feature","geometry":{"type":"Point","coordinates":[129.10822,35.19601]},"properties":{"name":"빌리브세웅병원","addr":"부산광역시 동래구 충렬대로 455, (안락동)","sgg":"26260","cap":10,"type":"FTL_2","src":"safekorea","asof":"2026-04-07","tel":"051-500-1100"}},{"type":"Feature","geometry":{"type":"Point","coordinates":[129.10918,35.1105]},"properties":{"name":"부산성모병원(재단법인 천주교부산교구유지재단)","addr":"부산광역시 남구 용호로232번길 25-14, (용호동)","sgg":"26290","cap":19,"type":"ESB","src":"safekorea","asof":"2026-04-07","tel":"051-933-7114"}},{"type":"Feature","geometry":{"type":"Point","coordinates":[129.01121,35.21196]},"properties":{"name":"의료법인 인당의료재단 부민병원","addr":"부산광역시 북구 만덕대로 59, (덕천동)","sgg":"26320","cap":20,"type":"ESB","src":"safekorea","asof":"2026-04-07","tel":"051-330-3000"}},{"type":"Feature","geometry":{"type":"Point","coordinates":[129.00456,35.20967]},"properties":{"name":"구포성심병원","addr":"부산광역시 북구 낙동대로 1786, (구포동)","sgg":"26320","cap":10,"type":"ESB","src":"safekorea","asof":"2026-04-07","tel":"051-330-2001"}},{"type":"Feature","geometry":{"type":"Point","coordinates":[129.18216,35.17325]},"properties":{"name":"인제대학교 해운대백병원","addr":"부산광역시 해운대구 해운대로 875, (좌동)","sgg":"26350","cap":37,"type":"ESB","src":"safekorea","asof":"2026-04-07","tel":"051-797-0100"}},{"type":"Feature","geometry":{"type":"Point","coordinates":[129.15565,35.16142]},"properties":{"name":"의료법인 인당의료재단 해운대부민병원","addr":"부산광역시 해운대구 해운대로 584, 해운대 부민병원 지하4~지상13층 (우동)","sgg":"26350","cap":10,"type":"ESB","src":"safekorea","asof":"2026-04-07","tel":"602-8000"}},{"type":"Feature","geometry":{"type":"Point","coordinates":[129.09358,35.26726]},"properties":{"name":"의료법인기독교한국침례회의료재단왈레스기념 침례병원","addr":"부산광역시 금정구 금단로 200, (남산동)","sgg":"26410","cap":21,"type":"FTL_2","src":"safekorea","asof":"2026-04-07","tel":"051-580-2000"}},{"type":"Feature","geometry":{"type":"Point","coordinates":[129.06017,35.18743]},"properties":{"name":"부산광역시의료원","addr":"부산광역시 연제구 월드컵대로 359, (거제동, 1동, 5동일부)","sgg":"26470","cap":20,"type":"ESB","src":"safekorea","asof":"2026-04-07","tel":"051-507-3000"}},{"type":"Feature","geometry":{"type":"Point","coordinates":[129.11287,35.16104]},"properties":{"name":"비에이치에스한서병원","addr":"부산광역시 수영구 수영로 615, (광안동)","sgg":"26500","cap":20,"type":"ESB","src":"safekorea","asof":"2026-04-07","tel":"051-756-0081"}},{"type":"Feature","geometry":{"type":"Point","coordinates":[129.11059,35.15017]},"properties":{"name":"의료법인 은성의료재단 좋은강안병원","addr":"부산광역시 수영구 수영로 493, (남천동)","sgg":"26500","cap":16,"type":"ESB","src":"safekorea","asof":"2026-04-07","tel":"051-625-0900"}},{"type":"Feature","geometry":{"type":"Point","coordinates":[129.11441,35.16683]},"properties":{"name":"의료법인 센텀의료재단 센텀종합병원","addr":"부산광역시 수영구 수영로679번길 8, (광안동)","sgg":"26500","cap":10,"type":"ESB","src":"safekorea","asof":"2026-04-07","tel":"051-750-5000"}},{"type":"Feature","geometry":{"type":"Point","coordinates":[129.00825,35.15289]},"properties":{"name":"한국보훈복지의료공단 부산보훈병원","addr":"부산광역시 사상구 백양대로 420, (주례동)","sgg":"26530","cap":13,"type":"ESB","src":"safekorea","asof":"2026-04-07","tel":"051-601-6000"}},{"type":"Feature","geometry":{"type":"Point","coordinates":[129.00767,35.15015]},"properties":{"name":"의료법인 은성의료재단 좋은삼선병원","addr":"부산광역시 사상구 가야대로 326, 좋은삼선병원 (주례동)","sgg":"26530","cap":20,"type":"ESB","src":"safekorea","asof":"2026-04-07","tel":"051-322-0900"}},{"type":"Feature","geometry":{"type":"Point","coordinates":[129.24433,35.32184]},"properties":{"name":"동남권원자력의학원원자력병원","addr":"부산광역시 기장군 장안읍 좌동길 40,","sgg":"26710","cap":10,"type":"ESB","src":"safekorea","asof":"2026-04-07","tel":"051-720-5114"}},{"type":"Feature","geometry":{"type":"Point","coordinates":[128.6043,35.86623]},"properties":{"name":"경북대학교병원","addr":"대구광역시 중구 동덕로 130, (삼덕동2가, 경북대학교병원)","sgg":"27110","cap":34,"type":"ESB","src":"safekorea","asof":"2026-04-07","tel":"053-200-5114"}},{"type":"Feature","geometry":{"type":"Point","coordinates":[128.58867,35.87083]},"properties":{"name":"곽병원","addr":"대구광역시 중구 국채보상로 531, (수동)","sgg":"27110","cap":12,"type":"ESB","src":"safekorea","asof":"2026-04-07","tel":"053-252-2401"}},{"type":"Feature","geometry":{"type":"Point","coordinates":[128.58251,35.87017]},"properties":{"name":"계명대학교대구동산병원","addr":"대구광역시 중구 달성로 56, 계명대학교대구동산병원 (동산동)","sgg":"27110","cap":14,"type":"ESB","src":"safekorea","asof":"2026-04-07","tel":"053-250-8114"}},{"type":"Feature","geometry":{"type":"Point","coordinates":[128.62298,35.88384]},"properties":{"name":"대구파티마병원","addr":"대구광역시 동구 아양로 99, (신암동)","sgg":"27140","cap":37,"type":"ESB","src":"safekorea","asof":"2026-04-07","tel":"053-1688-7770"}},{"type":"Feature","geometry":{"type":"Point","coordinates":[128.66303,35.88304]},"properties":{"name":"강남종합병원","addr":"대구광역시 동구 동촌로 207, 강남병원 (방촌동)","sgg":"27140","cap":11,"type":"ESB","src":"safekorea","asof":"2026-04-07","tel":"053-980-9000"}},{"type":"Feature","geometry":{"type":"Point","coordinates":[128.54113,35.8599]},"properties":{"name":"대구의료원","addr":"대구광역시 서구 평리로 157, (중리동)","sgg":"27170","cap":20,"type":"ESB","src":"safekorea","asof":"2026-04-07","tel":"053-560-7575"}},{"type":"Feature","geometry":{"type":"Point","coordinates":[128.57137,35.8661]},"properties":{"name":"대구굿모닝병원","addr":"대구광역시 서구 달서로 42, 지하2층~11층 (내당동)","sgg":"27170","cap":19,"type":"ESB","src":"safekorea","asof":"2026-04-07","tel":"053-620-9100"}},{"type":"Feature","geometry":{"type":"Point","coordinates":[128.56582,35.84419]},"properties":{"name":"대구가톨릭대학교병원","addr":"대구광역시 남구 두류공원로17길 33, (대명동)","sgg":"27200","cap":28,"type":"ESB","src":"safekorea","asof":"2026-04-07","tel":"053-650-3000"}},{"type":"Feature","geometry":{"type":"Point","coordinates":[128.58417,35.84767]},"properties":{"name":"영남대학교병원","addr":"대구광역시 남구 현충로 170, (대명동)","sgg":"27200","cap":36,"type":"ESB","src":"safekorea","asof":"2026-04-07","tel":"053-623-8001"}},{"type":"Feature","geometry":{"type":"Point","coordinates":[128.57446,35.83961]},"properties":{"name":"드림종합병원","addr":"대구광역시 남구 대명로 153, (대명동)","sgg":"27200","cap":10,"type":"ESB","src":"safekorea","asof":"2026-04-07","tel":"053-640-8800"}},{"type":"Feature","geometry":{"type":"Point","coordinates":[128.54929,35.93491]},"properties":{"name":"대구가톨릭대학교 칠곡가톨릭병원","addr":"대구광역시 북구 칠곡중앙대로 440, (읍내동)","sgg":"27230","cap":10,"type":"ESB","src":"safekorea","asof":"2026-04-07","tel":"053-320-2500"}},{"type":"Feature","geometry":{"type":"Point","coordinates":[128.56527,35.95614]},"properties":{"name":"칠곡경북대학교병원","addr":"대구광역시 북구 호국로 807, 칠곡경북대학교병원(임상실습동 1~11층 포함) (학정동)","sgg":"27230","cap":36,"type":"FTL_2","src":"safekorea","asof":"2026-04-07","tel":"053-200-2000"}},{"type":"Feature","geometry":{"type":"Point","coordinates":[128.70572,35.84022]},"properties":{"name":"(재)미리내천주성삼성직수도회천주성삼병원","addr":"대구광역시 수성구 달구벌대로 3190, (신매동, 천주성삼병원)","sgg":"27260","cap":10,"type":"ESB","src":"safekorea","asof":"2026-04-07","tel":"053-790-1000"}},{"type":"Feature","geometry":{"type":"Point","coordinates":[128.48019,35.854]},"properties":{"name":"계명대학교동산병원","addr":"대구광역시 달서구 달구벌대로 1035, (신당동)","sgg":"27290","cap":40,"type":"ESB","src":"safekorea","asof":"2026-04-07","tel":"1577-6622"}},{"type":"Feature","geometry":{"type":"Point","coordinates":[128.55171,35.80282]},"properties":{"name":"한국보훈복지의료공단 대구보훈병원","addr":"대구광역시 달서구 월곡로 60, (도원동)","sgg":"27290","cap":14,"type":"ESB","src":"safekorea","asof":"2026-04-07","tel":"053-630-7000"}},{"type":"Feature","geometry":{"type":"Point","coordinates":[128.54138,35.85068]},"properties":{"name":"의료법인구의료재단 구병원","addr":"대구광역시 달서구 감삼북길 141, (감삼동)","sgg":"27290","cap":11,"type":"ESB","src":"safekorea","asof":"2026-04-07","tel":"053-560-9114"}},{"type":"Feature","geometry":{"type":"Point","coordinates":[128.55355,35.8325]},"properties":{"name":"삼일병원","addr":"대구광역시 달서구 월배로 436, 지하1,지상1~11층 (송현동)","sgg":"27290","cap":15,"type":"ESB","src":"safekorea","asof":"2026-04-07","tel":"053-659-3100"}},{"type":"Feature","geometry":{"type":"Point","coordinates":[128.54496,35.85264]},"properties":{"name":"더블유병원","addr":"대구광역시 달서구 달구벌대로 1632, 더블유병원 (감삼동)","sgg":"27290","cap":10,"type":"ESB","src":"safekorea","asof":"2026-04-07","tel":"053-550-5000"}},{"type":"Feature","geometry":{"type":"Point","coordinates":[128.52509,35.8147]},"properties":{"name":"나사렛종합병원","addr":"대구광역시 달서구 월배로 97, 나사렛병원 (진천동)","sgg":"27290","cap":11,"type":"ESB","src":"safekorea","asof":"2026-04-07","tel":"053-643-1400"}},{"type":"Feature","geometry":{"type":"Point","coordinates":[126.68068,37.46219]},"properties":{"name":"의료법인 인천사랑병원","addr":"인천광역시 미추홀구 미추홀대로 726-0, 인천사랑병원","sgg":"28177","cap":21,"type":"ESB","src":"safekorea","asof":"2026-04-07","tel":"032-457-2000"}},{"type":"Feature","geometry":{"type":"Point","coordinates":[126.643,37.46161]},"properties":{"name":"현대유비스병원","addr":"인천광역시 미추홀구 독배로 503-0, 현대유비스병원","sgg":"28177","cap":20,"type":"ESB","src":"safekorea","asof":"2026-04-07","tel":"032-888-7575"}},{"type":"Feature","geometry":{"type":"Point","coordinates":[126.67048,37.40794]},"properties":{"name":"(의)나사렛의료재단 나사렛국제병원","addr":"인천광역시 연수구 먼우금로 98,  (동춘동)","sgg":"28185","cap":20,"type":"ESB","src":"safekorea","asof":"2026-04-07","tel":"032-899-9999"}},{"type":"Feature","geometry":{"type":"Point","coordinates":[126.68753,37.41856]},"properties":{"name":"인천적십자병원","addr":"인천광역시 연수구 원인재로 263, (연수동)","sgg":"28185","cap":10,"type":"ESB","src":"safekorea","asof":"2026-04-07","tel":"032-899-4000"}},{"type":"Feature","geometry":{"type":"Point","coordinates":[126.70969,37.4521]},"properties":{"name":"의료법인 길의료재단 길병원","addr":"인천광역시 남동구 남동대로774번길 21-0, 의료법인길의료재단길병원","sgg":"28200","cap":47,"type":"FTL_2","src":"safekorea","asof":"2026-04-07","tel":"010-1577-2299"}},{"type":"Feature","geometry":{"type":"Point","coordinates":[126.71469,37.40106]},"properties":{"name":"인천힘찬종합병원","addr":"인천광역시 남동구 논현로 72-0, 인천힘찬종합병원","sgg":"28200","cap":20,"type":"ESB","src":"safekorea","asof":"2026-04-07","tel":"032-1899-2220"}},{"type":"Feature","geometry":{"type":"Point","coordinates":[126.7252,37.48413]},"properties":{"name":"가톨릭대학교인천성모병원","addr":"인천광역시 부평구 동수로 56, (부평동)","sgg":"28237","cap":33,"type":"ESB","src":"safekorea","asof":"2026-04-07","tel":"032-1544-9004"}},{"type":"Feature","geometry":{"type":"Point","coordinates":[126.71993,37.50674]},"properties":{"name":"부평세림병원","addr":"인천광역시 부평구 부평대로 175,  (청천동)","sgg":"28237","cap":20,"type":"ESB","src":"safekorea","asof":"2026-04-07","tel":"032-524-0591"}},{"type":"Feature","geometry":{"type":"Point","coordinates":[126.75371,37.47672]},"properties":{"name":"근로복지공단인천병원","addr":"인천광역시 부평구 무네미로 446, (구산동)","sgg":"28237","cap":6,"type":"FTL_2","src":"safekorea","asof":"2026-04-07","tel":"032-500-0114"}},{"type":"Feature","geometry":{"type":"Point","coordinates":[126.73433,37.53224]},"properties":{"name":"한림병원","addr":"인천광역시 계양구 장제로 722, (작전동)","sgg":"28245","cap":21,"type":"ESB","src":"safekorea","asof":"2026-04-07","tel":"032-540-9114"}},{"type":"Feature","geometry":{"type":"Point","coordinates":[126.73685,37.53253]},"properties":{"name":"인천세종병원","addr":"인천광역시 계양구 계양문화로 20-0, 인천세종병원","sgg":"28245","cap":21,"type":"ESB","src":"safekorea","asof":"2026-04-07","tel":"032-240-8000"}},{"type":"Feature","geometry":{"type":"Point","coordinates":[126.48573,37.73606]},"properties":{"name":"비에스종합병원","addr":"인천광역시 강화군 강화읍 충렬사로 31-0,","sgg":"28710","cap":13,"type":"ESB","src":"safekorea","asof":"2026-04-07","tel":"032-290-0001"}},{"type":"Feature","geometry":{"type":"Point","coordinates":[127.43583,36.34817]},"properties":{"name":"대전한국병원","addr":"대전광역시 동구 동서대로 1672,  (성남동)","sgg":"30110","cap":10,"type":"ESB","src":"safekorea","asof":"2026-04-07","tel":"042-606-1000"}},{"type":"Feature","geometry":{"type":"Point","coordinates":[127.4153,36.31684]},"properties":{"name":"충남대학교병원","addr":"대전광역시 중구 문화로 282- , (대사동)","sgg":"30140","cap":39,"type":"ESB","src":"safekorea","asof":"2026-04-07","tel":"042-1599-7123"}},{"type":"Feature","geometry":{"type":"Point","coordinates":[127.42021,36.32199]},"properties":{"name":"학교법인 가톨릭학원 가톨릭대학교 대전성모병원","addr":"대전광역시 중구 대흥로 64, (대흥동)","sgg":"30140","cap":22,"type":"ESB","src":"safekorea","asof":"2026-04-07","tel":"042-220-9114"}},{"type":"Feature","geometry":{"type":"Point","coordinates":[127.41041,36.33593]},"properties":{"name":"의료법인 영훈의료재단 대전선병원","addr":"대전광역시 중구 목중로 29, (목동)","sgg":"30140","cap":21,"type":"ESB","src":"safekorea","asof":"2026-04-07","tel":"042-220-8114"}},{"type":"Feature","geometry":{"type":"Point","coordinates":[127.38198,36.3553]},"properties":{"name":"학교법인 을지학원 대전을지대학교병원","addr":"대전광역시 서구 둔산서로 95, (둔산동)","sgg":"30170","cap":33,"type":"ESB","src":"safekorea","asof":"2026-04-07","tel":"042-611-3000"}},{"type":"Feature","geometry":{"type":"Point","coordinates":[127.34264,36.30778]},"properties":{"name":"학교법인 건양교육재단 건양대학교병원","addr":"대전광역시 서구 관저동로 158, (관저동)","sgg":"30170","cap":34,"type":"ESB","src":"safekorea","asof":"2026-04-07","tel":"042-600-9999"}},{"type":"Feature","geometry":{"type":"Point","coordinates":[127.37051,36.30822]},"properties":{"name":"대청병원","addr":"대전광역시 서구 계백로 1322, (정림동)","sgg":"30170","cap":10,"type":"ESB","src":"safekorea","asof":"2026-04-07","tel":"042-1899-6075"}},{"type":"Feature","geometry":{"type":"Point","coordinates":[127.32493,36.37511]},"properties":{"name":"의료법인영훈의료재단 유성선병원","addr":"대전광역시 유성구 북유성대로 93-0,  0동 0호 (지족동,유선성병원)","sgg":"30200","cap":20,"type":"ESB","src":"safekorea","asof":"2026-04-07","tel":"042-609-1000"}},{"type":"Feature","geometry":{"type":"Point","coordinates":[127.43969,36.44731]},"properties":{"name":"대전보훈병원","addr":"대전광역시 대덕구 대청로82번길 147, 147","sgg":"30230","cap":9,"type":"ESB","src":"safekorea","asof":"2026-04-07","tel":"042-939-0111"}},{"type":"Feature","geometry":{"type":"Point","coordinates":[127.42811,36.36927]},"properties":{"name":"근로복지공단 대전병원","addr":"대전광역시 대덕구 계족로 637,  (법동)","sgg":"30230","cap":6,"type":"FTL_2","src":"safekorea","asof":"2026-04-07","tel":"042-670-5419"}},{"type":"Feature","geometry":{"type":"Point","coordinates":[129.30209,35.55342]},"properties":{"name":"의료법인 동강의료재단 동강병원","addr":"울산광역시 중구 태화로 239, (태화동)","sgg":"31110","cap":27,"type":"ESB","src":"safekorea","asof":"2026-04-07","tel":"052-241-1114"}},{"type":"Feature","geometry":{"type":"Point","coordinates":[129.35047,35.56855]},"properties":{"name":"의료법인 동강의료재단 동천동강병원","addr":"울산광역시 중구 외솔큰길 215, (남외동, 동천동강병원)","sgg":"31110","cap":8,"type":"FTL_2","src":"safekorea","asof":"2026-04-07","tel":"052-702-3114"}},{"type":"Feature","geometry":{"type":"Point","coordinates":[129.3231,35.54622]},"properties":{"name":"울산병원","addr":"울산광역시 남구 월평로171번길 13, (신정동)","sgg":"31140","cap":22,"type":"ESB","src":"safekorea","asof":"2026-04-07","tel":"052-259-5000"}},{"type":"Feature","geometry":{"type":"Point","coordinates":[129.26892,35.55282]},"properties":{"name":"의료법인 은성의료재단 좋은삼정병원","addr":"울산광역시 남구 북부순환도로 51, (무거동)","sgg":"31140","cap":11,"type":"ESB","src":"safekorea","asof":"2026-04-07","tel":"052-220-7500"}},{"type":"Feature","geometry":{"type":"Point","coordinates":[129.3055,35.53219]},"properties":{"name":"의료법인 정안의료재단 중앙병원","addr":"울산광역시 남구 문수로 472, 중앙병원 (신정동)","sgg":"31140","cap":20,"type":"ESB","src":"safekorea","asof":"2026-04-07","tel":"052-226-1100"}},{"type":"Feature","geometry":{"type":"Point","coordinates":[129.4288,35.52005]},"properties":{"name":"학교법인 울산공업학원 울산대학교병원","addr":"울산광역시 동구 대학병원로 25, 울산대학교병원 (전하동)","sgg":"31170","cap":37,"type":"ESB","src":"safekorea","asof":"2026-04-07","tel":"052-250-7000"}},{"type":"Feature","geometry":{"type":"Point","coordinates":[129.35901,35.58281]},"properties":{"name":"의료법인 송은의료재단 울산시티병원","addr":"울산광역시 북구 산업로 1007, (연암동)","sgg":"31200","cap":20,"type":"ESB","src":"safekorea","asof":"2026-04-07","tel":"052-280-9000"}},{"type":"Feature","geometry":{"type":"Point","coordinates":[129.35058,35.6289]},"properties":{"name":"울산엘리야병원","addr":"울산광역시 북구 호계로 285, (호계동)","sgg":"31200","cap":10,"type":"FTL_2","src":"safekorea","asof":"2026-04-07","tel":"052-290-2100"}},{"type":"Feature","geometry":{"type":"Point","coordinates":[129.12085,35.56029]},"properties":{"name":"서울산보람병원","addr":"울산광역시 울주군 삼남읍 중평로 53, 서울산보람병원","sgg":"31710","cap":11,"type":"ESB","src":"safekorea","asof":"2026-04-07","tel":"052-255-7114"}},{"type":"Feature","geometry":{"type":"Point","coordinates":[127.26225,36.47962]},"properties":{"name":"의료법인 영제 의료재단 엔케이세종병원","addr":"세종특별자치시 한누리대로 161, 세종시 NK리움힐 상가 1~8층 (나성동)","sgg":"36110","cap":11,"type":"ESB","src":"safekorea","asof":"2026-04-07","tel":"044-850-7700"}},{"type":"Feature","geometry":{"type":"Point","coordinates":[127.25793,36.51951]},"properties":{"name":"세종충남대학교병원","addr":"세종특별자치시 보듬7로 20, 세종충남대학교병원 (도담동)","sgg":"36110","cap":28,"type":"ESB","src":"safekorea","asof":"2026-04-07","tel":"1800-3114"}},{"type":"Feature","geometry":{"type":"Point","coordinates":[126.99637,37.29185]},"properties":{"name":"경기도의료원 수원병원","addr":"경기도 수원시 장안구 수성로245번길 69, (정자동)","sgg":"41111","cap":13,"type":"ESB","src":"safekorea","asof":"2026-04-07","tel":"031-888-0114"}},{"type":"Feature","geometry":{"type":"Point","coordinates":[126.96389,37.26014]},"properties":{"name":"의료법인 명인의료재단 화홍병원","addr":"경기도 수원시 권선구 호매실로90번길 98, (호매실동)","sgg":"41113","cap":20,"type":"ESB","src":"safekorea","asof":"2026-04-07","tel":"031-278-0119"}},{"type":"Feature","geometry":{"type":"Point","coordinates":[126.97439,37.2586]},"properties":{"name":"의료법인 덕산의료재단 수원덕산병원","addr":"경기도 수원시 권선구 서부로 1674, (고색동)","sgg":"41113","cap":30,"type":"ESB","src":"safekorea","asof":"2026-04-07","tel":"031-686-2000"}},{"type":"Feature","geometry":{"type":"Point","coordinates":[127.02716,37.27846]},"properties":{"name":"가톨릭대학교 성빈센트병원","addr":"경기도 수원시 팔달구 중부대로 93, (지동)","sgg":"41115","cap":45,"type":"ESB","src":"safekorea","asof":"2026-04-07","tel":"031-1577-8588"}},{"type":"Feature","geometry":{"type":"Point","coordinates":[127.03435,37.27816]},"properties":{"name":"의료법인 녹산의료재단동수원병원","addr":"경기도 수원시 팔달구 중부대로 165, (우만동)","sgg":"41115","cap":20,"type":"ESB","src":"safekorea","asof":"2026-04-07","tel":"031-210-0114"}},{"type":"Feature","geometry":{"type":"Point","coordinates":[127.02554,37.26532]},"properties":{"name":"의료법인 토마스의료재단 윌스기념병원","addr":"경기도 수원시 팔달구 경수대로 437, (인계동)","sgg":"41115","cap":21,"type":"ESB","src":"safekorea","asof":"2026-04-07","tel":"031-223-2233"}},{"type":"Feature","geometry":{"type":"Point","coordinates":[127.04867,37.27972]},"properties":{"name":"아주대학교병원","addr":"경기도 수원시 영통구 월드컵로 164, (원천동)","sgg":"41117","cap":52,"type":"ESB","src":"safekorea","asof":"2026-04-07","tel":"031-219-5114"}},{"type":"Feature","geometry":{"type":"Point","coordinates":[127.129,37.43985]},"properties":{"name":"순천의료재단 성남정병원","addr":"경기도 성남시 수정구 수정로 76, 지하3~9층 (수진동)","sgg":"41131","cap":11,"type":"ESB","src":"safekorea","asof":"2026-04-07","tel":"031-750-6000"}},{"type":"Feature","geometry":{"type":"Point","coordinates":[127.13905,37.44498]},"properties":{"name":"성남시의료원","addr":"경기도 성남시 수정구 수정로171번길 10, 성남시의료원 (태평동)","sgg":"41131","cap":29,"type":"ESB","src":"safekorea","asof":"2026-04-07","tel":"031-738-7000"}},{"type":"Feature","geometry":{"type":"Point","coordinates":[127.16224,37.45244]},"properties":{"name":"성남중앙병원","addr":"경기도 성남시 중원구 산성대로476번길 12, (금광동)","sgg":"41133","cap":10,"type":"ESB","src":"safekorea","asof":"2026-04-07","tel":"031-743-3000"}},{"type":"Feature","geometry":{"type":"Point","coordinates":[127.12583,37.41046]},"properties":{"name":"차의과학대학교분당차병원","addr":"경기도 성남시 분당구 야탑로 59, (야탑동)","sgg":"41135","cap":40,"type":"FTL_2","src":"safekorea","asof":"2026-04-07","tel":"031-780-5000"}},{"type":"Feature","geometry":{"type":"Point","coordinates":[127.12178,37.3882]},"properties":{"name":"대진의료재단 분당제생병원","addr":"경기도 성남시 분당구 서현로180번길 20, (서현동)","sgg":"41135","cap":30,"type":"ESB","src":"safekorea","asof":"2026-04-07","tel":"031-779-0114"}},{"type":"Feature","geometry":{"type":"Point","coordinates":[127.14985,37.39075]},"properties":{"name":"국군수도병원","addr":"경기도 성남시 분당구 새마을로177번길 81, (율동)","sgg":"41135","cap":28,"type":"ESB","src":"safekorea","asof":"2026-04-07","tel":"031-725-6075"}},{"type":"Feature","geometry":{"type":"Point","coordinates":[127.12545,37.3486]},"properties":{"name":"분당서울대학교병원","addr":"경기도 성남시 분당구 구미로173번길 82, (구미동, 분당서울대학교병원)","sgg":"41135","cap":42,"type":"ESB","src":"safekorea","asof":"2026-04-07","tel":"031-787-2114"}},{"type":"Feature","geometry":{"type":"Point","coordinates":[127.04255,37.74109]},"properties":{"name":"경기도의료원의정부병원","addr":"경기도 의정부시 흥선로 142, (의정부동)","sgg":"41150","cap":11,"type":"ESB","src":"safekorea","asof":"2026-04-07","tel":"031-828-5000"}},{"type":"Feature","geometry":{"type":"Point","coordinates":[127.07794,37.75865]},"properties":{"name":"가톨릭대학교의정부성모병원","addr":"경기도 의정부시 천보로 271, 의정부성모병원 (금오동)","sgg":"41150","cap":59,"type":"ESB","src":"safekorea","asof":"2026-04-07","tel":"1661-7500"}},{"type":"Feature","geometry":{"type":"Point","coordinates":[127.06214,37.74532]},"properties":{"name":"의료법인 영동의료재단 의정부백병원","addr":"경기도 의정부시 금신로 322, (신곡동)","sgg":"41150","cap":10,"type":"ESB","src":"safekorea","asof":"2026-04-07","tel":"031-856-8111"}},{"type":"Feature","geometry":{"type":"Point","coordinates":[127.04518,37.74978]},"properties":{"name":"추병원","addr":"경기도 의정부시 평화로 650, (의정부동)","sgg":"41150","cap":14,"type":"ESB","src":"safekorea","asof":"2026-04-07","tel":"031-845-7777"}},{"type":"Feature","geometry":{"type":"Point","coordinates":[127.05069,37.75182]},"properties":{"name":"학교법인 을지학원 의정부을지대학교병원","addr":"경기도 의정부시 동일로 712, 을지대학교 의정부캠퍼스 및 부속병원 (금오동)","sgg":"41150","cap":48,"type":"ESB","src":"safekorea","asof":"2026-04-07","tel":"031-951-1000"}},{"type":"Feature","geometry":{"type":"Point","coordinates":[126.93564,37.37828]},"properties":{"name":"인산의료재단 메트로병원","addr":"경기도 안양시 만안구 명학로33번길 8, (안양동, 메트로병원)","sgg":"41171","cap":4,"type":"FTL_2","src":"safekorea","asof":"2026-04-07","tel":"031-467-9000"}},{"type":"Feature","geometry":{"type":"Point","coordinates":[126.92482,37.39288]},"properties":{"name":"효산의료재단 안양샘병원","addr":"경기도 안양시 만안구 삼덕로 9, (안양동, 안양샘병원)","sgg":"41171","cap":20,"type":"ESB","src":"safekorea","asof":"2026-04-07","tel":"031-467-9114"}},{"type":"Feature","geometry":{"type":"Point","coordinates":[126.96196,37.39164]},"properties":{"name":"한림대학교성심병원","addr":"경기도 안양시 동안구 관평로170번길 22, (평촌동)","sgg":"41173","cap":44,"type":"ESB","src":"safekorea","asof":"2026-04-07","tel":"031-380-1500"}},{"type":"Feature","geometry":{"type":"Point","coordinates":[126.79303,37.48749]},"properties":{"name":"가톨릭대학교부천성모병원","addr":"경기도 부천시 원미구 소사로 327, 가톨릭대학교 부천성모병원 (소사동)","sgg":"41192","cap":37,"type":"ESB","src":"safekorea","asof":"2026-04-07","tel":"032-1577-0675"}},{"type":"Feature","geometry":{"type":"Point","coordinates":[126.78418,37.49255]},"properties":{"name":"부천대성병원","addr":"경기도 부천시 부천로 91, (심곡동, 부천대성병원)","sgg":"41192","cap":10,"type":"FTL_2","src":"safekorea","asof":"2026-04-07","tel":"032-652-0141"}},{"type":"Feature","geometry":{"type":"Point","coordinates":[126.7621,37.49837]},"properties":{"name":"순천향대학교부속부천병원","addr":"경기도 부천시 원미구 조마루로 170, 부흥로 173(1층일부) (중동)","sgg":"41192","cap":34,"type":"ESB","src":"safekorea","asof":"2026-04-07","tel":"032-621-5114"}},{"type":"Feature","geometry":{"type":"Point","coordinates":[126.76946,37.5123]},"properties":{"name":"의료법인대인의료재단 다니엘종합병원","addr":"경기도 부천시 원미구 중동로 361, 다니엘종합병원 (약대동)","sgg":"41192","cap":10,"type":"ESB","src":"safekorea","asof":"2026-04-07","tel":"032-670-0001"}},{"type":"Feature","geometry":{"type":"Point","coordinates":[126.78418,37.49255]},"properties":{"name":"뉴대성병원","addr":"경기도 부천시 원미구 부천로 91, ,부흥로373번길18, 부흥로377(기존디에스병원A동) (심곡동)","sgg":"41192","cap":7,"type":"FTL_2","src":"safekorea","asof":"2026-04-07","tel":"032-610-1111"}},{"type":"Feature","geometry":{"type":"Point","coordinates":[126.79116,37.48052]},"properties":{"name":"부천세종병원","addr":"경기도 부천시 소사구 호현로489번길 28, (소사본동, 세종병원)","sgg":"41194","cap":20,"type":"ESB","src":"safekorea","asof":"2026-04-07","tel":"1599-6677"}},{"type":"Feature","geometry":{"type":"Point","coordinates":[126.8052,37.52087]},"properties":{"name":"부천우리병원","addr":"경기도 부천시 오정구 소사로 726, (원종동)","sgg":"41196","cap":10,"type":"FTL_2","src":"safekorea","asof":"2026-04-07","tel":"032-672-4100"}},{"type":"Feature","geometry":{"type":"Point","coordinates":[126.87133,37.47365]},"properties":{"name":"광명성애병원","addr":"경기도 광명시 디지털로 36, 광명성애병원 (철산동)","sgg":"41210","cap":20,"type":"ESB","src":"safekorea","asof":"2026-04-07","tel":"02-2680-7114"}},{"type":"Feature","geometry":{"type":"Point","coordinates":[126.8859,37.42459]},"properties":{"name":"중앙대학교광명병원","addr":"경기도 광명시 덕안로 110, (일직동)","sgg":"41210","cap":24,"type":"ESB","src":"safekorea","asof":"2026-04-07","tel":"1811-7800"}},{"type":"Feature","geometry":{"type":"Point","coordinates":[127.08907,36.99306]},"properties":{"name":"의료법인 박애의료재단 박애병원","addr":"경기도 평택시 평택2로20번길 3, (평택동)","sgg":"41220","cap":11,"type":"ESB","src":"safekorea","asof":"2026-04-07","tel":"031-652-2121"}},{"type":"Feature","geometry":{"type":"Point","coordinates":[127.12045,36.99057]},"properties":{"name":"의료법인백송의료재단 굿모닝병원","addr":"경기도 평택시 중앙로 338, (합정동)","sgg":"41220","cap":28,"type":"ESB","src":"safekorea","asof":"2026-04-07","tel":"031-5182-7700"}},{"type":"Feature","geometry":{"type":"Point","coordinates":[127.07433,37.0084]},"properties":{"name":"의료법인 양진의료재단 평택성모병원","addr":"경기도 평택시 평택로 284, (세교동)","sgg":"41220","cap":20,"type":"ESB","src":"safekorea","asof":"2026-04-07","tel":"031-1800-8800"}},{"type":"Feature","geometry":{"type":"Point","coordinates":[127.057,37.04826]},"properties":{"name":"의료법인 갈렌의료재단 박병원","addr":"경기도 평택시 송탄로 33, (장당동)","sgg":"41220","cap":10,"type":"ESB","src":"safekorea","asof":"2026-04-07","tel":"031-666-2600"}},{"type":"Feature","geometry":{"type":"Point","coordinates":[126.87398,37.31679]},"properties":{"name":"근로복지공단안산병원","addr":"경기도 안산시 상록구 구룡로 87, 근로복지공단안산병원 (일동)","sgg":"41271","cap":8,"type":"ESB","src":"safekorea","asof":"2026-04-07","tel":"031-500-1114"}},{"type":"Feature","geometry":{"type":"Point","coordinates":[126.84492,37.32692]},"properties":{"name":"의료법인칠석의료재단사랑의병원","addr":"경기도 안산시 상록구 예술광장로 69, 사랑의병원(593-4번지/593-5번지) (성포동)","sgg":"41271","cap":14,"type":"ESB","src":"safekorea","asof":"2026-04-07","tel":"031-439-3000"}},{"type":"Feature","geometry":{"type":"Point","coordinates":[126.82518,37.31918]},"properties":{"name":"고려대학교의과대학부속안산병원","addr":"경기도 안산시 단원구 적금로 123, (고잔동)","sgg":"41273","cap":34,"type":"ESB","src":"safekorea","asof":"2026-04-07","tel":"031-1577-7516"}},{"type":"Feature","geometry":{"type":"Point","coordinates":[126.80761,37.33405]},"properties":{"name":"대아의료재단한도병원","addr":"경기도 안산시 단원구 선부광장로 103, (선부동)","sgg":"41273","cap":20,"type":"ESB","src":"safekorea","asof":"2026-04-07","tel":"031-8040-1114"}},{"type":"Feature","geometry":{"type":"Point","coordinates":[126.81327,37.30022]},"properties":{"name":"단원병원","addr":"경기도 안산시 단원구 원포공원1로 20, (초지동)","sgg":"41273","cap":15,"type":"FTL_2","src":"safekorea","asof":"2026-04-07","tel":"031-8040-6600"}},{"type":"Feature","geometry":{"type":"Point","coordinates":[126.81327,37.30022]},"properties":{"name":"의료법인 플러스의료재단 단원병원","addr":"경기도 안산시 단원구 원포공원1로 20, (초지동)","sgg":"41273","cap":20,"type":"ESB","src":"safekorea","asof":"2026-04-07","tel":"031-8040-6600"}},{"type":"Feature","geometry":{"type":"Point","coordinates":[126.83176,37.64248]},"properties":{"name":"의료법인명지의료재단명지병원","addr":"경기도 고양시 덕양구 화수로14번길 55, (화정동)","sgg":"41281","cap":26,"type":"ESB","src":"safekorea","asof":"2026-04-07","tel":"031-810-5114"}},{"type":"Feature","geometry":{"type":"Point","coordinates":[126.83532,37.62318]},"properties":{"name":"의료법인자인의료재단(더자인병원)","addr":"경기도 고양시 덕양구 중앙로 555, /중앙로557번길 555, /중앙로557번길 14, 지하1(일부),1-6층 (행신동)","sgg":"41281","cap":20,"type":"ESB","src":"safekorea","asof":"2026-04-07","tel":"031-930-3114"}},{"type":"Feature","geometry":{"type":"Point","coordinates":[126.79303,37.64547]},"properties":{"name":"국민건강보험공단일산병원","addr":"경기도 고양시 일산동구 일산로 100, (백석동,백석1동 1241외1필지 4층)","sgg":"41285","cap":33,"type":"ESB","src":"safekorea","asof":"2026-04-07","tel":"1577-0013"}},{"type":"Feature","geometry":{"type":"Point","coordinates":[126.7834,37.66322]},"properties":{"name":"국립암센터","addr":"경기도 고양시 일산동구 일산로 323, (마두동)","sgg":"41285","cap":25,"type":"ESB","src":"safekorea","asof":"2026-04-07","tel":"031-920-0114"}},{"type":"Feature","geometry":{"type":"Point","coordinates":[126.80556,37.67643]},"properties":{"name":"동국대학교일산불교병원","addr":"경기도 고양시 일산동구 동국로 27, (식사동, 동국대학교일산병원)","sgg":"41285","cap":29,"type":"ESB","src":"safekorea","asof":"2026-04-07","tel":"031-1577-7000"}},{"type":"Feature","geometry":{"type":"Point","coordinates":[126.77573,37.65413]},"properties":{"name":"의료법인성광의료재단일산차병원","addr":"경기도 고양시 일산동구 중앙로 1205, 지하1층2층4층(일부), 1층2층6층(일부),지하2층,4~5층, 7~10층(장항","sgg":"41285","cap":10,"type":"ESB","src":"safekorea","asof":"2026-04-07","tel":"031-782-8300"}},{"type":"Feature","geometry":{"type":"Point","coordinates":[126.75037,37.67427]},"properties":{"name":"인제대학교일산백병원","addr":"경기도 고양시 일산서구 주화로 170, (대화동)","sgg":"41287","cap":40,"type":"ESB","src":"safekorea","asof":"2026-04-07","tel":"031-910-7114"}},{"type":"Feature","geometry":{"type":"Point","coordinates":[127.13251,37.60127]},"properties":{"name":"한양대학교구리병원","addr":"경기도 구리시 경춘로 153, (교문동)","sgg":"41310","cap":23,"type":"ESB","src":"safekorea","asof":"2026-04-07","tel":"1644-9118"}},{"type":"Feature","geometry":{"type":"Point","coordinates":[127.20437,37.68231]},"properties":{"name":"남양주 한양병원","addr":"경기도 남양주시 오남읍 양지로 47-55, 47","sgg":"41360","cap":20,"type":"ESB","src":"safekorea","asof":"2026-04-07","tel":"031-510-0114"}},{"type":"Feature","geometry":{"type":"Point","coordinates":[127.17989,37.71544]},"properties":{"name":"현대병원","addr":"경기도 남양주시 진접읍 봉현로 21,","sgg":"41360","cap":20,"type":"ESB","src":"safekorea","asof":"2026-04-07","tel":"031-574-9118"}},{"type":"Feature","geometry":{"type":"Point","coordinates":[127.20156,37.69811]},"properties":{"name":"남양주나눔병원","addr":"경기도 남양주시 오남읍 진건오남로797번길 9,","sgg":"41360","cap":12,"type":"FTL_2","src":"safekorea","asof":"2026-04-07","tel":"031-570-1000"}},{"type":"Feature","geometry":{"type":"Point","coordinates":[127.07549,37.14134]},"properties":{"name":"오산한국병원","addr":"경기도 오산시 밀머리로1번길 16, (원동)","sgg":"41370","cap":20,"type":"ESB","src":"safekorea","asof":"2026-04-07","tel":"031-379-8300"}},{"type":"Feature","geometry":{"type":"Point","coordinates":[127.06819,37.15419]},"properties":{"name":"조은오산병원","addr":"경기도 오산시 오산로 307, (오산동)","sgg":"41370","cap":10,"type":"FTL_2","src":"safekorea","asof":"2026-04-07","tel":"1544-5355"}},{"type":"Feature","geometry":{"type":"Point","coordinates":[127.06147,37.19093]},"properties":{"name":"삼성본병원","addr":"경기도 오산시 북삼미로 175, A동 (외삼미동)","sgg":"41370","cap":5,"type":"FTL_2","src":"safekorea","asof":"2026-04-07","tel":"031-1522-7525"}},{"type":"Feature","geometry":{"type":"Point","coordinates":[126.78938,37.44453]},"properties":{"name":"의료법인 록향의료재단 신천연합병원","addr":"경기도 시흥시 복지로 57, 복지로 61, 2층 (대야동)","sgg":"41390","cap":11,"type":"ESB","src":"safekorea","asof":"2026-04-07","tel":"031-310-6300"}},{"type":"Feature","geometry":{"type":"Point","coordinates":[126.72798,37.33684]},"properties":{"name":"의료법인 석경의료재단 센트럴병원","addr":"경기도 시흥시 공단1대로 237, (정왕동, 센트럴 병원)","sgg":"41390","cap":21,"type":"ESB","src":"safekorea","asof":"2026-04-07","tel":"031-8041-3000"}},{"type":"Feature","geometry":{"type":"Point","coordinates":[126.73696,37.34995]},"properties":{"name":"의료법인 남촌의료재단 시화병원","addr":"경기도 시흥시 군자천로 381, 시화병원 (정왕동)","sgg":"41390","cap":27,"type":"ESB","src":"safekorea","asof":"2026-04-07","tel":"031-1811-7000"}},{"type":"Feature","geometry":{"type":"Point","coordinates":[126.9336,37.35941]},"properties":{"name":"원광대학교 산본병원","addr":"경기도 군포시 산본로 321, (산본동)","sgg":"41410","cap":20,"type":"ESB","src":"safekorea","asof":"2026-04-07","tel":"031-390-2300"}},{"type":"Feature","geometry":{"type":"Point","coordinates":[126.94731,37.35867]},"properties":{"name":"효산의료재단 지샘병원","addr":"경기도 군포시 군포로 591, (당동, (G샘병원)군포샘병원)","sgg":"41410","cap":21,"type":"ESB","src":"safekorea","asof":"2026-04-07","tel":"031-389-3000"}},{"type":"Feature","geometry":{"type":"Point","coordinates":[127.21139,37.23154]},"properties":{"name":"(의)영문의료재단 다보스병원","addr":"경기도 용인시 처인구 백옥대로1082번길 18, 다보스종합병원 (김량장동)","sgg":"41461","cap":20,"type":"ESB","src":"safekorea","asof":"2026-04-07","tel":"031-8021-2114"}},{"type":"Feature","geometry":{"type":"Point","coordinates":[127.20107,37.23539]},"properties":{"name":"메디필드한강병원","addr":"경기도 용인시 처인구 금령로39번길 8-6, (김량장동)","sgg":"41461","cap":20,"type":"ESB","src":"safekorea","asof":"2026-04-07","tel":"1551-0077"}},{"type":"Feature","geometry":{"type":"Point","coordinates":[127.14828,37.27069]},"properties":{"name":"연세대학교 의과대학 용인세브란스병원","addr":"경기도 용인시 기흥구 동백죽전대로 363, (중동)","sgg":"41463","cap":28,"type":"ESB","src":"safekorea","asof":"2026-04-07","tel":"1899-1004"}},{"type":"Feature","geometry":{"type":"Point","coordinates":[127.11143,37.27367]},"properties":{"name":"강남병원","addr":"경기도 용인시 기흥구 중부대로 411, 강남병원 (신갈동)","sgg":"41463","cap":20,"type":"ESB","src":"safekorea","asof":"2026-04-07","tel":"031-300-0114"}},{"type":"Feature","geometry":{"type":"Point","coordinates":[126.78025,37.75497]},"properties":{"name":"경기도의료원파주병원","addr":"경기도 파주시 중앙로 207, 경기도립의료원파주병원 (금촌동)","sgg":"41480","cap":20,"type":"ESB","src":"safekorea","asof":"2026-04-07","tel":"031-940-9100"}},{"type":"Feature","geometry":{"type":"Point","coordinates":[126.76666,37.76107]},"properties":{"name":"메디인병원","addr":"경기도 파주시 금릉역로 190, (금촌동)","sgg":"41480","cap":14,"type":"ESB","src":"safekorea","asof":"2026-04-07","tel":"031-943-1191"}},{"type":"Feature","geometry":{"type":"Point","coordinates":[127.43323,37.28282]},"properties":{"name":"경기도의료원 이천병원","addr":"경기도 이천시 경충대로 2742, (관고동)","sgg":"41500","cap":20,"type":"ESB","src":"safekorea","asof":"2026-04-07","tel":"031-630-4200"}},{"type":"Feature","geometry":{"type":"Point","coordinates":[127.25921,37.0167]},"properties":{"name":"경기도의료원 안성병원","addr":"경기도 안성시 남파로 95, 경기도의료원 안성병원 (당왕동)","sgg":"41550","cap":15,"type":"ESB","src":"safekorea","asof":"2026-04-07","tel":"031-8046-5000"}},{"type":"Feature","geometry":{"type":"Point","coordinates":[127.2707,37.00579]},"properties":{"name":"안성성모병원","addr":"경기도 안성시 시장길 58, (서인동)","sgg":"41550","cap":10,"type":"ESB","src":"safekorea","asof":"2026-04-07","tel":"031-675-6007"}},{"type":"Feature","geometry":{"type":"Point","coordinates":[126.71055,37.63299]},"properties":{"name":"의료법인우리의료재단김포우리병원","addr":"경기도 김포시 감암로 11, 김포우리병원 (걸포동)","sgg":"41570","cap":25,"type":"ESB","src":"safekorea","asof":"2026-04-07","tel":"031-999-1000"}},{"type":"Feature","geometry":{"type":"Point","coordinates":[126.66022,37.64095]},"properties":{"name":"의료법인인봉의료재단뉴고려병원","addr":"경기도 김포시 김포한강3로 283, 뉴고려병원 (장기동)","sgg":"41570","cap":20,"type":"ESB","src":"safekorea","asof":"2026-04-07","tel":"031-998-8129"}},{"type":"Feature","geometry":{"type":"Point","coordinates":[126.91071,37.13126]},"properties":{"name":"의료법인 은혜와감사의료재단 화성중앙종합병원","addr":"경기도 화성시 만세구 향남읍 발안로 5,","sgg":"41591","cap":10,"type":"ESB","src":"safekorea","asof":"2026-04-07","tel":"031-352-8114"}},{"type":"Feature","geometry":{"type":"Point","coordinates":[126.83252,37.21788]},"properties":{"name":"화성유일병원","addr":"경기도 화성시 만세구 남양읍 남양로920번길 6,","sgg":"41591","cap":10,"type":"FTL_2","src":"safekorea","asof":"2026-04-07","tel":"031-355-0119"}},{"type":"Feature","geometry":{"type":"Point","coordinates":[127.00814,37.20977]},"properties":{"name":"재단법인 원불교 원광종합병원","addr":"경기도 화성시 화산북로 21, (송산동)","sgg":"41595","cap":7,"type":"FTL_2","src":"safekorea","asof":"2026-04-07","tel":"031-8077-7200"}},{"type":"Feature","geometry":{"type":"Point","coordinates":[127.00814,37.20977]},"properties":{"name":"의료법인 원광의료재단 원광종합병원","addr":"경기도 화성시 병점구 화산북로 21, (송산동)","sgg":"41595","cap":10,"type":"ESB","src":"safekorea","asof":"2026-04-07","tel":"031-8077-7200"}},{"type":"Feature","geometry":{"type":"Point","coordinates":[127.08046,37.21678]},"properties":{"name":"한림대학교동탄성심병원","addr":"경기도 화성시 동탄구 큰재봉길 7, (석우동)","sgg":"41597","cap":44,"type":"ESB","src":"safekorea","asof":"2026-04-07","tel":"031-8086-3000"}},{"type":"Feature","geometry":{"type":"Point","coordinates":[127.26024,37.41092]},"properties":{"name":"참조은병원","addr":"경기도 광주시 광주대로 45, (경안동)","sgg":"41610","cap":20,"type":"ESB","src":"safekorea","asof":"2026-04-07","tel":"1600-9955"}},{"type":"Feature","geometry":{"type":"Point","coordinates":[127.19747,37.90315]},"properties":{"name":"경기도의료원포천병원","addr":"경기도 포천시 포천로 1648, (신읍동)","sgg":"41650","cap":20,"type":"ESB","src":"safekorea","asof":"2026-04-07","tel":"031-539-9114"}},{"type":"Feature","geometry":{"type":"Point","coordinates":[127.14814,37.82748]},"properties":{"name":"의료법인 일심의료재단 포천우리병원","addr":"경기도 포천시 소흘읍 호국로 661, 661","sgg":"41650","cap":22,"type":"ESB","src":"safekorea","asof":"2026-04-07","tel":"031-542-0222"}},{"type":"Feature","geometry":{"type":"Point","coordinates":[127.62532,37.30147]},"properties":{"name":"세종여주병원","addr":"경기도 여주시 청심로 39, 세종여주병원 (하동)","sgg":"41670","cap":18,"type":"ESB","src":"safekorea","asof":"2026-04-07","tel":"031-880-7700"}},{"type":"Feature","geometry":{"type":"Point","coordinates":[127.49628,36.61985]},"properties":{"name":"의료법인 인화재단 한국병원","addr":"충청북도 청주시 상당구 단재로 106-0, 한국병원","sgg":"43111","cap":20,"type":"ESB","src":"safekorea","asof":"2026-04-07","tel":"043-222-7000"}},{"type":"Feature","geometry":{"type":"Point","coordinates":[127.49567,36.6243]},"properties":{"name":"의료법인 정산의료재단 효성병원","addr":"충청북도 청주시 상당구 쇠내로 16-0, 효성병원","sgg":"43111","cap":23,"type":"ESB","src":"safekorea","asof":"2026-04-07","tel":"043-221-5000"}},{"type":"Feature","geometry":{"type":"Point","coordinates":[127.47309,36.64014]},"properties":{"name":"충청북도 청주의료원","addr":"충청북도 청주시 서원구 흥덕로 48-0, 청주의료원","sgg":"43112","cap":16,"type":"ESB","src":"safekorea","asof":"2026-04-07","tel":"043-279-2300"}},{"type":"Feature","geometry":{"type":"Point","coordinates":[127.46157,36.62416]},"properties":{"name":"충북대학교병원","addr":"충청북도 청주시 서원구 1순환로 776-0, 충북대학교병원","sgg":"43112","cap":49,"type":"ESB","src":"safekorea","asof":"2026-04-07","tel":"043-269-6114"}},{"type":"Feature","geometry":{"type":"Point","coordinates":[127.43094,36.62352]},"properties":{"name":"의료법인한마음의료재단하나병원","addr":"충청북도 청주시 흥덕구 2순환로 1262-0, 하나병원","sgg":"43113","cap":23,"type":"ESB","src":"safekorea","asof":"2026-04-07","tel":"043-230-6114"}},{"type":"Feature","geometry":{"type":"Point","coordinates":[127.32164,36.63643]},"properties":{"name":"재단법인베스티안재단베스티안병원","addr":"충청북도 청주시 흥덕구 오송읍 오송생명1로 191-0,","sgg":"43113","cap":30,"type":"FTL_2","src":"safekorea","asof":"2026-04-07","tel":"043-910-7575"}},{"type":"Feature","geometry":{"type":"Point","coordinates":[127.48556,36.67357]},"properties":{"name":"청주성모병원","addr":"충청북도 청주시 청원구 주성로 173-19, 청주성모병원","sgg":"43114","cap":22,"type":"ESB","src":"safekorea","asof":"2026-04-07","tel":"043-219-8000"}},{"type":"Feature","geometry":{"type":"Point","coordinates":[127.9704,36.97931]},"properties":{"name":"충청북도 충주의료원","addr":"충청북도 충주시 안림로 239-50, 충청북도충주의료원","sgg":"43130","cap":21,"type":"ESB","src":"safekorea","asof":"2026-04-07","tel":"043-871-0114"}},{"type":"Feature","geometry":{"type":"Point","coordinates":[127.92907,36.97931]},"properties":{"name":"건국대학교 충주병원","addr":"충청북도 충주시 국원대로 82-0, 건국대학교충주병원","sgg":"43130","cap":23,"type":"ESB","src":"safekorea","asof":"2026-04-07","tel":"043-840-8200"}},{"type":"Feature","geometry":{"type":"Point","coordinates":[128.20644,37.13873]},"properties":{"name":"의료법인 자산의료재단 제천서울병원","addr":"충청북도 제천시 숭문로 57-0, 서울병원","sgg":"43150","cap":20,"type":"ESB","src":"safekorea","asof":"2026-04-07","tel":"043-640-7600"}},{"type":"Feature","geometry":{"type":"Point","coordinates":[128.23395,37.16342]},"properties":{"name":"의료법인 명지의료재단 명지병원","addr":"충청북도 제천시 내토로 991-0, 의료법인명지의료재단명지병원","sgg":"43150","cap":27,"type":"ESB","src":"safekorea","asof":"2026-04-07","tel":"043-640-8114"}},{"type":"Feature","geometry":{"type":"Point","coordinates":[127.57201,36.31332]},"properties":{"name":"의료법인 힐링의료재단 옥천성모병원","addr":"충청북도 옥천군 옥천읍 성왕로 1195-0,","sgg":"43730","cap":10,"type":"ESB","src":"safekorea","asof":"2026-04-07","tel":"043-730-7000"}},{"type":"Feature","geometry":{"type":"Point","coordinates":[127.44052,36.85844]},"properties":{"name":"의료법인 건명의료재단 중앙제일병원","addr":"충청북도 진천군 진천읍 중앙북로 36-0, 진천성모병원","sgg":"43750","cap":20,"type":"ESB","src":"safekorea","asof":"2026-04-07","tel":"043-533-1711"}},{"type":"Feature","geometry":{"type":"Point","coordinates":[127.55263,36.90434]},"properties":{"name":"국립소방병원","addr":"충청북도 음성군 맹동면 용두4길 19-0, 국립소방병원","sgg":"43770","cap":30,"type":"FTL_2","src":"safekorea","asof":"2026-04-07","tel":"043-931-3362"}},{"type":"Feature","geometry":{"type":"Point","coordinates":[127.17927,36.77548]},"properties":{"name":"충청남도 천안의료원","addr":"충청남도 천안시 동남구 충절로 537,  (삼룡동)","sgg":"44131","cap":13,"type":"ESB","src":"safekorea","asof":"2026-04-07","tel":"041-570-7200"}},{"type":"Feature","geometry":{"type":"Point","coordinates":[127.17327,36.84295]},"properties":{"name":"단국대학교의과대학부속병원","addr":"충청남도 천안시 동남구 망향로 201,  (안서동)","sgg":"44131","cap":34,"type":"ESB","src":"safekorea","asof":"2026-04-07","tel":"041-1588-0063"}},{"type":"Feature","geometry":{"type":"Point","coordinates":[127.13814,36.80282]},"properties":{"name":"순천향대학교부속 천안병원","addr":"충청남도 천안시 동남구 순천향6길 31,  5동 (봉명동,순천향대학교병원)","sgg":"44131","cap":47,"type":"FTL_2","src":"safekorea","asof":"2026-04-07","tel":"041-570-2114"}},{"type":"Feature","geometry":{"type":"Point","coordinates":[127.13148,36.79742]},"properties":{"name":"의료법인 영서의료재단 천안충무병원","addr":"충청남도 천안시 서북구 다가말3길 8,  (쌍용동)","sgg":"44133","cap":21,"type":"ESB","src":"safekorea","asof":"2026-04-07","tel":"041-570-7555"}},{"type":"Feature","geometry":{"type":"Point","coordinates":[127.10949,36.45887]},"properties":{"name":"충청남도 공주의료원","addr":"충청남도 공주시 무령로 77,  (웅진동)","sgg":"44150","cap":15,"type":"ESB","src":"safekorea","asof":"2026-04-07","tel":"041-962-1111"}},{"type":"Feature","geometry":{"type":"Point","coordinates":[126.62273,36.38119]},"properties":{"name":"재단법인 아산사회복지재단 부속 보령아산병원","addr":"충청남도 보령시 죽성로 136,  (죽정동)","sgg":"44180","cap":20,"type":"ESB","src":"safekorea","asof":"2026-04-07","tel":"041-930-5114"}},{"type":"Feature","geometry":{"type":"Point","coordinates":[127.01994,36.77929]},"properties":{"name":"아산충무병원","addr":"충청남도 아산시 문화로 381,  (모종동)","sgg":"44200","cap":21,"type":"ESB","src":"safekorea","asof":"2026-04-07","tel":"041-536-6666"}},{"type":"Feature","geometry":{"type":"Point","coordinates":[126.46497,36.77575]},"properties":{"name":"충청남도 서산의료원","addr":"충청남도 서산시 중앙로 149,  (석림동)","sgg":"44210","cap":20,"type":"ESB","src":"safekorea","asof":"2026-04-07","tel":"041-689-7000"}},{"type":"Feature","geometry":{"type":"Point","coordinates":[126.50408,36.7817]},"properties":{"name":"서산중앙병원","addr":"충청남도 서산시 수석산업로 5, (수석동)","sgg":"44210","cap":20,"type":"ESB","src":"safekorea","asof":"2026-04-07","tel":"041-661-1000"}},{"type":"Feature","geometry":{"type":"Point","coordinates":[127.09436,36.19278]},"properties":{"name":"의료법인 백제병원","addr":"충청남도 논산시 시민로294번길 14,  (취암동)","sgg":"44230","cap":23,"type":"ESB","src":"safekorea","asof":"2026-04-07","tel":"041-733-2191"}},{"type":"Feature","geometry":{"type":"Point","coordinates":[126.68431,36.9044]},"properties":{"name":"당진종합병원","addr":"충청남도 당진시 반촌로 5-15,  (시곡동)","sgg":"44270","cap":20,"type":"ESB","src":"safekorea","asof":"2026-04-07","tel":"041-357-0100"}},{"type":"Feature","geometry":{"type":"Point","coordinates":[126.67391,36.59844]},"properties":{"name":"충청남도 홍성의료원","addr":"충청남도 홍성군 홍성읍 조양로 224,","sgg":"44800","cap":22,"type":"ESB","src":"safekorea","asof":"2026-04-07","tel":"041-630-6114"}},{"type":"Feature","geometry":{"type":"Point","coordinates":[126.83755,36.69122]},"properties":{"name":"의료법인 예당의료재단 예산종합병원","addr":"충청남도 예산군 예산읍 금오대로 94,","sgg":"44810","cap":12,"type":"ESB","src":"safekorea","asof":"2026-04-07","tel":"041-330-4000"}},{"type":"Feature","geometry":{"type":"Point","coordinates":[129.33986,36.01581]},"properties":{"name":"포항성모병원","addr":"경상북도 포항시 남구 대잠동길 17,  (대잠동)","sgg":"47111","cap":36,"type":"ESB","src":"safekorea","asof":"2026-04-07","tel":"054-272-0151"}},{"type":"Feature","geometry":{"type":"Point","coordinates":[129.36156,36.01809]},"properties":{"name":"의료법인한성재단포항세명기독병원","addr":"경상북도 포항시 남구 포스코대로 351,  (대도동)","sgg":"47111","cap":25,"type":"ESB","src":"safekorea","asof":"2026-04-07","tel":"054-275-0005"}},{"type":"Feature","geometry":{"type":"Point","coordinates":[129.3314,36.03482]},"properties":{"name":"에스포항병원","addr":"경상북도 포항시 남구 희망대로 352,  (이동)","sgg":"47111","cap":7,"type":"ESB","src":"safekorea","asof":"2026-04-07","tel":"054-289-9000"}},{"type":"Feature","geometry":{"type":"Point","coordinates":[129.35378,36.03507]},"properties":{"name":"경상북도포항의료원","addr":"경상북도 포항시 북구 용흥로 36,  (용흥동)","sgg":"47113","cap":10,"type":"ESB","src":"safekorea","asof":"2026-04-07","tel":"054-247-0551"}},{"type":"Feature","geometry":{"type":"Point","coordinates":[129.36702,36.0477]},"properties":{"name":"의료법인은성의료재단좋은선린병원","addr":"경상북도 포항시 북구 대신로 43,  (대신동)","sgg":"47113","cap":12,"type":"ESB","src":"safekorea","asof":"2026-04-07","tel":"054-245-5000"}},{"type":"Feature","geometry":{"type":"Point","coordinates":[129.19459,35.85831]},"properties":{"name":"동국대학교의과대학경주병원","addr":"경상북도 경주시 동대로 87,  (석장동)","sgg":"47130","cap":28,"type":"ESB","src":"safekorea","asof":"2026-04-07","tel":"054-748-9300"}},{"type":"Feature","geometry":{"type":"Point","coordinates":[128.12599,36.12266]},"properties":{"name":"경상북도김천의료원","addr":"경상북도 김천시 모암길 24,  (모암동)","sgg":"47150","cap":10,"type":"ESB","src":"safekorea","asof":"2026-04-07","tel":"054-432-8901"}},{"type":"Feature","geometry":{"type":"Point","coordinates":[128.11881,36.13545]},"properties":{"name":"의료법인덕산의료재단김천제일병원","addr":"경상북도 김천시 신음1길 12,  (신음동)","sgg":"47150","cap":20,"type":"ESB","src":"safekorea","asof":"2026-04-07","tel":"054-420-9300"}},{"type":"Feature","geometry":{"type":"Point","coordinates":[128.7228,36.56716]},"properties":{"name":"안동성소병원","addr":"경상북도 안동시 서동문로 99,  (금곡동)","sgg":"47170","cap":20,"type":"ESB","src":"safekorea","asof":"2026-04-07","tel":"054-850-8114"}},{"type":"Feature","geometry":{"type":"Point","coordinates":[128.70108,36.54672]},"properties":{"name":"의료법인안동병원","addr":"경상북도 안동시 앙실로 11,  (수상동)","sgg":"47170","cap":23,"type":"ESB","src":"safekorea","asof":"2026-04-07","tel":"054-840-1004"}},{"type":"Feature","geometry":{"type":"Point","coordinates":[128.7326,36.5676]},"properties":{"name":"경상북도안동의료원","addr":"경상북도 안동시 태사2길 55,  (북문동)","sgg":"47170","cap":8,"type":"ESB","src":"safekorea","asof":"2026-04-07","tel":"054-850-6000"}},{"type":"Feature","geometry":{"type":"Point","coordinates":[128.34071,36.11459]},"properties":{"name":"차의과학대학교부속구미차병원","addr":"경상북도 구미시 신시로10길 12,  (형곡동)","sgg":"47190","cap":31,"type":"ESB","src":"safekorea","asof":"2026-04-07","tel":"054-450-9700"}},{"type":"Feature","geometry":{"type":"Point","coordinates":[128.42278,36.0962]},"properties":{"name":"구미강동병원","addr":"경상북도 구미시 인동20길 46,  (진평동)","sgg":"47190","cap":10,"type":"ESB","src":"safekorea","asof":"2026-04-07","tel":"054-453-7575"}},{"type":"Feature","geometry":{"type":"Point","coordinates":[128.38218,36.1034]},"properties":{"name":"순천향대학교 부속 구미병원","addr":"경상북도 구미시 1공단로 179,  (공단동)","sgg":"47190","cap":20,"type":"ESB","src":"safekorea","asof":"2026-04-07","tel":"054-468-9114"}},{"type":"Feature","geometry":{"type":"Point","coordinates":[128.604,36.82525]},"properties":{"name":"영주적십자병원","addr":"경상북도 영주시 대학로 327-0, 영주적십자병원","sgg":"47210","cap":10,"type":"ESB","src":"safekorea","asof":"2026-04-07","tel":"054-630-0100"}},{"type":"Feature","geometry":{"type":"Point","coordinates":[128.91277,35.95709]},"properties":{"name":"영남대학교의과대학부속영천병원","addr":"경상북도 영천시 오수1길 10, (오수동)","sgg":"47230","cap":13,"type":"ESB","src":"safekorea","asof":"2026-04-07","tel":"054-338-9000"}},{"type":"Feature","geometry":{"type":"Point","coordinates":[128.15516,36.41442]},"properties":{"name":"상주적십자병원","addr":"경상북도 상주시 상서문로 53,  (남성동)","sgg":"47250","cap":10,"type":"ESB","src":"safekorea","asof":"2026-04-07","tel":"054-534-3501"}},{"type":"Feature","geometry":{"type":"Point","coordinates":[128.15997,36.42081]},"properties":{"name":"의료법인삼백의료재단상주성모병원","addr":"경상북도 상주시 냉림서성길 7,  (냉림동)","sgg":"47250","cap":10,"type":"ESB","src":"safekorea","asof":"2026-04-07","tel":"054-532-5001"}},{"type":"Feature","geometry":{"type":"Point","coordinates":[128.18976,36.58482]},"properties":{"name":"의료법인동춘의료재단문경제일병원","addr":"경상북도 문경시 당교3길 25,  (모전동)","sgg":"47280","cap":20,"type":"ESB","src":"safekorea","asof":"2026-04-07","tel":"054-550-7700"}},{"type":"Feature","geometry":{"type":"Point","coordinates":[128.74009,35.80945]},"properties":{"name":"의료법인 근원의료재단 경산중앙병원","addr":"경상북도 경산시 경안로 11,  (백천동)","sgg":"47290","cap":12,"type":"ESB","src":"safekorea","asof":"2026-04-07","tel":"053-715-0100"}},{"type":"Feature","geometry":{"type":"Point","coordinates":[128.73729,35.82665]},"properties":{"name":"의료법인 서명의료재단 세명종합병원","addr":"경상북도 경산시 경안로 208, (중방동)","sgg":"47290","cap":16,"type":"ESB","src":"safekorea","asof":"2026-04-07","tel":"053-819-8800"}},{"type":"Feature","geometry":{"type":"Point","coordinates":[128.64448,35.23723]},"properties":{"name":"창원파티마병원","addr":"경상남도 창원시 의창구 창이대로 45-45, (명서동)","sgg":"48121","cap":20,"type":"ESB","src":"safekorea","asof":"2026-04-07","tel":"055-270-1000"}},{"type":"Feature","geometry":{"type":"Point","coordinates":[128.69901,35.23795]},"properties":{"name":"창원한마음병원","addr":"경상남도 창원시 의창구 용동로57번길 8, (사림동)","sgg":"48121","cap":27,"type":"ESB","src":"safekorea","asof":"2026-04-07","tel":"055-225-0000"}},{"type":"Feature","geometry":{"type":"Point","coordinates":[128.6717,35.21926]},"properties":{"name":"근로복지공단 창원병원","addr":"경상남도 창원시 성산구 창원대로 721, (중앙동)","sgg":"48123","cap":6,"type":"FTL_2","src":"safekorea","asof":"2026-04-07","tel":"055-280-7619"}},{"type":"Feature","geometry":{"type":"Point","coordinates":[128.7078,35.19921]},"properties":{"name":"창원경상국립대학교병원","addr":"경상남도 창원시 성산구 삼정자로 11, (성주동, 창원경상대학교병원)","sgg":"48123","cap":21,"type":"ESB","src":"safekorea","asof":"2026-04-07","tel":"055-214-2000"}},{"type":"Feature","geometry":{"type":"Point","coordinates":[128.56555,35.19917]},"properties":{"name":"경상남도마산의료원","addr":"경상남도 창원시 마산합포구 3·15대로 231, (중앙동3가)","sgg":"48125","cap":15,"type":"ESB","src":"safekorea","asof":"2026-04-07","tel":"055-249-1000"}},{"type":"Feature","geometry":{"type":"Point","coordinates":[128.56772,35.19906]},"properties":{"name":"의료법인석영의료재단창원제일종합병원","addr":"경상남도 창원시 마산합포구 3·15대로 238, (중앙동3가)","sgg":"48125","cap":9,"type":"FTL_2","src":"safekorea","asof":"2026-04-07","tel":"055-223-9000"}},{"type":"Feature","geometry":{"type":"Point","coordinates":[128.56159,35.18631]},"properties":{"name":"의료법인합포의료재단에스엠지연세병원","addr":"경상남도 창원시 마산합포구 3·15대로 76, (월남동2가, 합포의료재단)","sgg":"48125","cap":20,"type":"ESB","src":"safekorea","asof":"2026-04-07","tel":"055-243-0100"}},{"type":"Feature","geometry":{"type":"Point","coordinates":[128.50961,35.24797]},"properties":{"name":"의료법인청아의료재단청아병원","addr":"경상남도 창원시 마산회원구 내서읍 광려천서로 67, (청아병원)","sgg":"48127","cap":10,"type":"ESB","src":"safekorea","asof":"2026-04-07","tel":"055-230-1500"}},{"type":"Feature","geometry":{"type":"Point","coordinates":[128.59252,35.24321]},"properties":{"name":"학교법인성균관대학삼성창원병원","addr":"경상남도 창원시 마산회원구 팔용로 158-158, (합성동, 삼성창원병원)","sgg":"48127","cap":40,"type":"ESB","src":"safekorea","asof":"2026-04-07","tel":"055-233-8899"}},{"type":"Feature","geometry":{"type":"Point","coordinates":[128.5783,35.23387]},"properties":{"name":"동마산병원","addr":"경상남도 창원시 마산회원구 3·15대로 681, (석전동, 동마산병원)","sgg":"48127","cap":9,"type":"FTL_2","src":"safekorea","asof":"2026-04-07","tel":"055-290-5114"}},{"type":"Feature","geometry":{"type":"Point","coordinates":[128.69833,35.15473]},"properties":{"name":"연세에스병원","addr":"경상남도 창원시 진해구 해원로32번길 13, (이동)","sgg":"48129","cap":10,"type":"ESB","src":"safekorea","asof":"2026-04-07","tel":"055-548-7700"}},{"type":"Feature","geometry":{"type":"Point","coordinates":[128.095,35.17545]},"properties":{"name":"경상국립대학교병원","addr":"경상남도 진주시 강남로 79, (칠암동)","sgg":"48170","cap":44,"type":"ESB","src":"safekorea","asof":"2026-04-07","tel":"055-750-8000"}},{"type":"Feature","geometry":{"type":"Point","coordinates":[128.08995,35.17913]},"properties":{"name":"제일병원","addr":"경상남도 진주시 진주대로 885, (강남동)","sgg":"48170","cap":20,"type":"ESB","src":"safekorea","asof":"2026-04-07","tel":"055-750-7123"}},{"type":"Feature","geometry":{"type":"Point","coordinates":[128.12854,35.16696]},"properties":{"name":"한일병원","addr":"경상남도 진주시 범골로 17, 한일병원 지하1 1~7층 (충무공동)","sgg":"48170","cap":20,"type":"ESB","src":"safekorea","asof":"2026-04-07","tel":"055-759-7777"}},{"type":"Feature","geometry":{"type":"Point","coordinates":[128.09197,35.1785]},"properties":{"name":"의료법인 문병욱의료재단 진주고려병원","addr":"경상남도 진주시 동진로 2, (칠암동, 진주고려병원)","sgg":"48170","cap":11,"type":"ESB","src":"safekorea","asof":"2026-04-07","tel":"055-751-2500"}},{"type":"Feature","geometry":{"type":"Point","coordinates":[128.42067,34.8654]},"properties":{"name":"새통영병원","addr":"경상남도 통영시 무전7길 192, (무전동)","sgg":"48220","cap":10,"type":"ESB","src":"safekorea","asof":"2026-04-07","tel":"055-646-6000"}},{"type":"Feature","geometry":{"type":"Point","coordinates":[128.86154,35.26216]},"properties":{"name":"의료법인환명의료재단 조은금강병원","addr":"경상남도 김해시 김해대로 1814-37, (삼계동)","sgg":"48250","cap":10,"type":"ESB","src":"safekorea","asof":"2026-04-07","tel":"055-330-0300"}},{"type":"Feature","geometry":{"type":"Point","coordinates":[128.85707,35.23073]},"properties":{"name":"의료법인보원의료재단 경희대학교 교육협력 중앙병원","addr":"경상남도 김해시 분성로 94-8, (외동)","sgg":"48250","cap":21,"type":"FTL_2","src":"safekorea","asof":"2026-04-07","tel":"055-330-6000"}},{"type":"Feature","geometry":{"type":"Point","coordinates":[128.80561,35.20866]},"properties":{"name":"의료법인갑을의료재단 갑을장유병원","addr":"경상남도 김해시 장유로 167-13, (부곡동)","sgg":"48250","cap":10,"type":"ESB","src":"safekorea","asof":"2026-04-07","tel":"055-310-6000"}},{"type":"Feature","geometry":{"type":"Point","coordinates":[128.89312,35.23065]},"properties":{"name":"김해복음병원","addr":"경상남도 김해시 활천로 33, 김해복음병원 (삼정동)","sgg":"48250","cap":11,"type":"FTL_2","src":"safekorea","asof":"2026-04-07","tel":"055-330-8888"}},{"type":"Feature","geometry":{"type":"Point","coordinates":[128.8696,35.2567]},"properties":{"name":"강일병원","addr":"경상남도 김해시 가락로 359, (구산동)","sgg":"48250","cap":11,"type":"ESB","src":"safekorea","asof":"2026-04-07","tel":"055-822-0100"}},{"type":"Feature","geometry":{"type":"Point","coordinates":[128.89312,35.23065]},"properties":{"name":"의료법인숭인의료재단 김해복음병원","addr":"경상남도 김해시 활천로 33, (삼정동)","sgg":"48250","cap":20,"type":"ESB","src":"safekorea","asof":"2026-04-07","tel":"055-330-8888"}},{"type":"Feature","geometry":{"type":"Point","coordinates":[128.62643,34.87404]},"properties":{"name":"의료법인 거붕 백병원","addr":"경상남도 거제시 계룡로5길 14, (상동동)","sgg":"48310","cap":10,"type":"ESB","src":"safekorea","asof":"2026-04-07","tel":"055-733-0000"}},{"type":"Feature","geometry":{"type":"Point","coordinates":[128.72212,34.87195]},"properties":{"name":"의료법인 대우의료재단대우병원","addr":"경상남도 거제시 두모길 16-16, (두모동)","sgg":"48310","cap":10,"type":"ESB","src":"safekorea","asof":"2026-04-07","tel":"055-680-8114"}},{"type":"Feature","geometry":{"type":"Point","coordinates":[128.64365,34.89773]},"properties":{"name":"의료법인 성념의료재단맑은샘병원","addr":"경상남도 거제시 연초면 거제대로 4477,","sgg":"48310","cap":10,"type":"ESB","src":"safekorea","asof":"2026-04-07","tel":"055-731-1240"}},{"type":"Feature","geometry":{"type":"Point","coordinates":[129.04358,35.3532]},"properties":{"name":"베데스다복음병원","addr":"경상남도 양산시 신기로 28, (신기동)","sgg":"48330","cap":10,"type":"ESB","src":"safekorea","asof":"2026-04-07","tel":"055-384-9901"}},{"type":"Feature","geometry":{"type":"Point","coordinates":[129.00928,35.32394]},"properties":{"name":"양산부산대학교병원","addr":"경상남도 양산시 물금읍 금오로 20,","sgg":"48330","cap":45,"type":"FTL_2","src":"safekorea","asof":"2026-04-07","tel":"055-360-1000"}},{"type":"Feature","geometry":{"type":"Point","coordinates":[129.16454,35.40637]},"properties":{"name":"양산성모병원","addr":"경상남도 양산시 서창로 59, (명동)","sgg":"48330","cap":14,"type":"ESB","src":"safekorea","asof":"2026-04-07","tel":"1600-7582"}},{"type":"Feature","geometry":{"type":"Point","coordinates":[126.48492,33.49026]},"properties":{"name":"제주한라병원","addr":"제주특별자치도 제주시 도령로 65,  (연동)","sgg":"50110","cap":31,"type":"ESB","src":"safekorea","asof":"2026-04-07","tel":"064-740-5000"}},{"type":"Feature","geometry":{"type":"Point","coordinates":[126.5452,33.46721]},"properties":{"name":"제주대학교병원","addr":"제주특별자치도 제주시 아란13길 15-0,  0동 0층 0호 (아라일동,제주대학교병원)","sgg":"50110","cap":28,"type":"ESB","src":"safekorea","asof":"2026-04-07","tel":"064-717-1114"}},{"type":"Feature","geometry":{"type":"Point","coordinates":[126.51673,33.50039]},"properties":{"name":"의료법인 혜인의료재단 한국병원","addr":"제주특별자치도 제주시 서광로 193, (삼도일동)","sgg":"50110","cap":10,"type":"ESB","src":"safekorea","asof":"2026-04-07","tel":"064-750-0000"}},{"type":"Feature","geometry":{"type":"Point","coordinates":[126.47048,33.49232]},"properties":{"name":"의료법인 중앙의료재단 중앙병원","addr":"제주특별자치도 제주시 월랑로 91-0, 중앙병원","sgg":"50110","cap":20,"type":"ESB","src":"safekorea","asof":"2026-04-07","tel":"064-786-7000"}},{"type":"Feature","geometry":{"type":"Point","coordinates":[126.54625,33.49634]},"properties":{"name":"한마음병원","addr":"제주특별자치도 제주시 연신로 52, (이도이동)","sgg":"50110","cap":20,"type":"ESB","src":"safekorea","asof":"2026-04-07","tel":"064-750-9000"}},{"type":"Feature","geometry":{"type":"Point","coordinates":[126.56294,33.25598]},"properties":{"name":"제주특별자치도 서귀포의료원","addr":"제주특별자치도 서귀포시 장수로 47-0, 서귀포의료원","sgg":"50130","cap":25,"type":"ESB","src":"safekorea","asof":"2026-04-07","tel":"064-730-3000"}},{"type":"Feature","geometry":{"type":"Point","coordinates":[127.74015,37.8843]},"properties":{"name":"한림대학교춘천성심병원","addr":"강원특별자치도 춘천시 삭주로 77, 77","sgg":"51110","cap":30,"type":"ESB","src":"safekorea","asof":"2026-04-07","tel":"033-240-5000"}},{"type":"Feature","geometry":{"type":"Point","coordinates":[127.745,37.87577]},"properties":{"name":"강원대학교병원","addr":"강원특별자치도 춘천시 백령로 156, (효자동)","sgg":"51110","cap":31,"type":"ESB","src":"safekorea","asof":"2026-04-07","tel":"033-258-2000"}},{"type":"Feature","geometry":{"type":"Point","coordinates":[127.94672,37.34911]},"properties":{"name":"연세대학교 원주세브란스기독병원","addr":"강원특별자치도 원주시 일산로 20-0,  (일산동)","sgg":"51130","cap":43,"type":"ESB","src":"safekorea","asof":"2026-04-07","tel":"033-741-0114"}},{"type":"Feature","geometry":{"type":"Point","coordinates":[127.94905,37.33277]},"properties":{"name":"강원특별자치도원주의료원","addr":"강원특별자치도 원주시 서원대로 387,  (개운동)","sgg":"51130","cap":20,"type":"ESB","src":"safekorea","asof":"2026-04-07","tel":"033-760-4500"}},{"type":"Feature","geometry":{"type":"Point","coordinates":[128.90718,37.77443]},"properties":{"name":"의료법인 강릉동인병원","addr":"강원특별자치도 강릉시 강릉대로419번길 42-0,  (포남동)","sgg":"51150","cap":20,"type":"ESB","src":"safekorea","asof":"2026-04-07","tel":"033-650-6161"}},{"type":"Feature","geometry":{"type":"Point","coordinates":[128.88903,37.7499]},"properties":{"name":"강원특별자치도강릉의료원","addr":"강원특별자치도 강릉시 경강로 2007-0, 강릉의료원","sgg":"51150","cap":6,"type":"ESB","src":"safekorea","asof":"2026-04-07","tel":"033-610-1200"}},{"type":"Feature","geometry":{"type":"Point","coordinates":[128.89986,37.759]},"properties":{"name":"의산의료재단 강릉고려병원","addr":"강원특별자치도 강릉시 옥가로 30, (옥천동)","sgg":"51150","cap":8,"type":"FTL_2","src":"safekorea","asof":"2026-04-07","tel":"033-649-0100"}},{"type":"Feature","geometry":{"type":"Point","coordinates":[128.85782,37.8184]},"properties":{"name":"강릉아산병원","addr":"강원특별자치도 강릉시 사천면 방동길 38-0, 강릉아산병원","sgg":"51150","cap":31,"type":"ESB","src":"safekorea","asof":"2026-04-07","tel":"033-610-3114"}},{"type":"Feature","geometry":{"type":"Point","coordinates":[129.10713,37.53059]},"properties":{"name":"의료법인 동해동인병원","addr":"강원특별자치도 동해시 하평로 26, (평릉동)","sgg":"51170","cap":11,"type":"ESB","src":"safekorea","asof":"2026-04-07","tel":"033-530-0114"}},{"type":"Feature","geometry":{"type":"Point","coordinates":[129.10596,37.53225]},"properties":{"name":"근로복지공단 동해병원","addr":"강원특별자치도 동해시 하평로 11, (평릉동)","sgg":"51170","cap":8,"type":"ESB","src":"safekorea","asof":"2026-04-07","tel":"033-530-3100"}},{"type":"Feature","geometry":{"type":"Point","coordinates":[129.00347,37.10425]},"properties":{"name":"근로복지공단 태백병원","addr":"강원특별자치도 태백시 보드미길 8,  (장성동)","sgg":"51190","cap":10,"type":"ESB","src":"safekorea","asof":"2026-04-07","tel":"033-580-3114"}},{"type":"Feature","geometry":{"type":"Point","coordinates":[128.5879,38.216]},"properties":{"name":"강원특별자치도속초의료원","addr":"강원특별자치도 속초시 영랑호반길 3, (영랑동)","sgg":"51210","cap":20,"type":"ESB","src":"safekorea","asof":"2026-04-07","tel":"033-630-6000"}},{"type":"Feature","geometry":{"type":"Point","coordinates":[128.57872,38.19809]},"properties":{"name":"온재병원","addr":"강원특별자치도 속초시 중앙로 11-0, 속초보광병원","sgg":"51210","cap":10,"type":"ESB","src":"safekorea","asof":"2026-04-07","tel":"033-639-8500"}},{"type":"Feature","geometry":{"type":"Point","coordinates":[129.17027,37.43984]},"properties":{"name":"강원특별자치도삼척의료원","addr":"강원특별자치도 삼척시 오십천로 473-0, 강원특별자치도삼척의료원","sgg":"51230","cap":20,"type":"ESB","src":"safekorea","asof":"2026-04-07","tel":"033-572-1141"}},{"type":"Feature","geometry":{"type":"Point","coordinates":[127.89543,37.6911]},"properties":{"name":"홍천아산병원","addr":"강원특별자치도 홍천군 홍천읍 산림공원1길 17, 17","sgg":"51720","cap":10,"type":"ESB","src":"safekorea","asof":"2026-04-07","tel":"033-430-5151"}},{"type":"Feature","geometry":{"type":"Point","coordinates":[128.4657,37.18649]},"properties":{"name":"강원특별자치도영월의료원","addr":"강원특별자치도 영월군 영월읍 중앙1로 59,","sgg":"51750","cap":10,"type":"ESB","src":"safekorea","asof":"2026-04-07","tel":"033-370-9101"}},{"type":"Feature","geometry":{"type":"Point","coordinates":[127.1326,35.81433]},"properties":{"name":"재단법인예수병원유지재단예수병원","addr":"전북특별자치도 전주시 완산구 서원로 365, (중화산동1가, 예수병원)","sgg":"52111","cap":53,"type":"FTL_2","src":"safekorea","asof":"2026-04-07","tel":"063-230-8114"}},{"type":"Feature","geometry":{"type":"Point","coordinates":[127.12475,35.81516]},"properties":{"name":"의료법인영경의료재단전주병원","addr":"전북특별자치도 전주시 완산구 한두평3길 13, (중화산동2가, 전주병원)","sgg":"52111","cap":20,"type":"ESB","src":"safekorea","asof":"2026-04-07","tel":"063-220-7200"}},{"type":"Feature","geometry":{"type":"Point","coordinates":[127.14525,35.82652]},"properties":{"name":"전주열린병원","addr":"전라북도 전주시 완산구 기린대로 227-0,  1동 (서노송동,전주열린병원)","sgg":"52111","cap":null,"type":"FTL_2","src":"safekorea","asof":"2026-04-07","tel":"063-220-0000"}},{"type":"Feature","geometry":{"type":"Point","coordinates":[127.14525,35.82652]},"properties":{"name":"의료법인 인산의료재단 자인플러스병원","addr":"전북특별자치도 전주시 완산구 기린대로 227-0,  1동 (서노송동,전주열린병원)","sgg":"52111","cap":null,"type":"FTL_2","src":"safekorea","asof":"2026-04-07","tel":"063-281-8888"}},{"type":"Feature","geometry":{"type":"Point","coordinates":[127.1411,35.84788]},"properties":{"name":"전북대학교병원","addr":"전북특별자치도 전주시 덕진구 건지로 20,  (금암동)","sgg":"52113","cap":48,"type":"ESB","src":"safekorea","asof":"2026-04-07","tel":"063-250-1129"}},{"type":"Feature","geometry":{"type":"Point","coordinates":[127.16712,35.8399]},"properties":{"name":"전주고려병원","addr":"전북특별자치도 전주시 덕진구 안덕원로 367, (산정동)","sgg":"52113","cap":10,"type":"FTL_2","src":"safekorea","asof":"2026-04-07","tel":"063-240-7300"}},{"type":"Feature","geometry":{"type":"Point","coordinates":[127.15331,35.84599]},"properties":{"name":"대자인병원","addr":"전북특별자치도 전주시 덕진구 견훤로 390, (우아동3가)","sgg":"52113","cap":33,"type":"ESB","src":"safekorea","asof":"2026-04-07","tel":"063-240-2000"}},{"type":"Feature","geometry":{"type":"Point","coordinates":[126.71191,35.95493]},"properties":{"name":"전북특별자치도 군산의료원","addr":"전북특별자치도 군산시 의료원로 27, (지곡동, 군산의료원)","sgg":"52130","cap":20,"type":"ESB","src":"safekorea","asof":"2026-04-07","tel":"063-472-5000"}},{"type":"Feature","geometry":{"type":"Point","coordinates":[126.73697,35.97755]},"properties":{"name":"의료법인 오성의료재단 동군산병원","addr":"전북특별자치도 군산시 조촌로 149,  (조촌동)","sgg":"52130","cap":23,"type":"ESB","src":"safekorea","asof":"2026-04-07","tel":"063-440-0300"}},{"type":"Feature","geometry":{"type":"Point","coordinates":[126.95967,35.96437]},"properties":{"name":"원광대학교병원","addr":"전북특별자치도 익산시 무왕로 895, (신동)","sgg":"52140","cap":38,"type":"ESB","src":"safekorea","asof":"2026-04-07","tel":"063-859-1114"}},{"type":"Feature","geometry":{"type":"Point","coordinates":[126.96655,35.96172]},"properties":{"name":"익산병원","addr":"전북특별자치도 익산시 무왕로 969, (신동)","sgg":"52140","cap":20,"type":"ESB","src":"safekorea","asof":"2026-04-07","tel":"063-840-9114"}},{"type":"Feature","geometry":{"type":"Point","coordinates":[126.82447,35.58844]},"properties":{"name":"재단법인 아산사회복지재단 정읍아산병원","addr":"전북특별자치도 정읍시 충정로 606-22, (용계동)","sgg":"52180","cap":20,"type":"ESB","src":"safekorea","asof":"2026-04-07","tel":"063-530-6000"}},{"type":"Feature","geometry":{"type":"Point","coordinates":[126.85155,35.58433]},"properties":{"name":"정읍한국병원","addr":"전북특별자치도 정읍시 서부산업도로 425-12,  1동 (농소동,한국병원)","sgg":"52180","cap":16,"type":"FTL_2","src":"safekorea","asof":"2026-04-07","tel":"063-701-8000"}},{"type":"Feature","geometry":{"type":"Point","coordinates":[127.40857,35.43137]},"properties":{"name":"전북특별자치도 남원의료원","addr":"전북특별자치도 남원시 충정로 365, (고죽동)","sgg":"52190","cap":20,"type":"ESB","src":"safekorea","asof":"2026-04-07","tel":"063-620-1114"}},{"type":"Feature","geometry":{"type":"Point","coordinates":[126.69332,35.43638]},"properties":{"name":"의료법인석천재단고창병원","addr":"전북특별자치도 고창군 고창읍 화신1길 9,","sgg":"52790","cap":10,"type":"ESB","src":"safekorea","asof":"2026-04-07","tel":"063-560-5600"}},{"type":"Feature","geometry":{"type":"Point","coordinates":[126.7345,35.7248]},"properties":{"name":"부안성모병원","addr":"전북특별자치도 부안군 부안읍 오정2길 24,","sgg":"52800","cap":12,"type":"ESB","src":"safekorea","asof":"2026-04-07","tel":"063-581-5100"}}]}