{"type":"FeatureCollection","features":[{"type":"Feature","geometry":{"type":"Point","coordinates":[127.26376,36.48348]},"properties":{"name":"세종가로수길 지하주차장 1~2층","addr":"세종특별자치시 나성로 38, 세종가로수길 (나성동)","sgg":"36110","cap":10317,"type":"공공용시설 / 지하","src":"localdata","asof":"2026-03-24"}},{"type":"Feature","geometry":{"type":"Point","coordinates":[127.25184,36.48503]},"properties":{"name":"새롬동복합커뮤니티센터 지하주차장 1층","addr":"세종특별자치시 새롬중앙로 44, 새롬동복합커뮤니티센터 (새롬동)","sgg":"36110","cap":3385,"type":"공공용시설 / 지하","src":"localdata","asof":"2026-02-05"}},{"type":"Feature","geometry":{"type":"Point","coordinates":[127.22971,36.51379]},"properties":{"name":"가락마을13단지아파트 지하주차장 1층","addr":"세종특별자치시 마음로 182 (고운동, 가락마을13단지)","sgg":"36110","cap":13475,"type":"공공용시설 / 지하","src":"localdata","asof":"2026-02-21"}},{"type":"Feature","geometry":{"type":"Point","coordinates":[127.29995,36.48407]},"properties":{"name":"소담동 복합커뮤니티센터 지하주차장 1층","addr":"세종특별자치시 한누리대로 2023, 소담동행정복지센터 (소담동)","sgg":"36110","cap":3228,"type":"공공용시설 / 지하","src":"localdata","asof":"2026-02-14"}},{"type":"Feature","geometry":{"type":"Point","coordinates":[127.2431,36.50531]},"properties":{"name":"가재마을 4단지 아파트 지하주차장 1층","addr":"세종특별자치시 도움3로 160 (종촌동, 가재마을4단지)","sgg":"36110","cap":49345,"type":"공공용시설 / 지하","src":"localdata","asof":"2026-02-21"}},{"type":"Feature","geometry":{"type":"Point","coordinates":[127.2966,36.47958]},"properties":{"name":"호려울마을8단지아파트 지하주차장 1층","addr":"세종특별자치시 보람동로 14 (보람동, 호려울마을8단지)","sgg":"36110","cap":40146,"type":"공공용시설 / 지하","src":"localdata","asof":"2026-02-21"}},{"type":"Feature","geometry":{"type":"Point","coordinates":[127.25084,36.48443]},"properties":{"name":"새뜸마을 6단지 지하주차장 1층","addr":"세종특별자치시 새롬중앙1로 13(새롬동, 새뜸마을6단지)","sgg":"36110","cap":19022,"type":"공공용시설 / 지하","src":"localdata","asof":"2026-02-14"}},{"type":"Feature","geometry":{"type":"Point","coordinates":[127.29383,36.60268]},"properties":{"name":"욱일아파트 지하1층주차장","addr":"세종특별자치시 조치원읍 충현로 159 (욱일아파트)","sgg":"36110","cap":7584,"type":"공공용시설 / 지하","src":"localdata","asof":"2026-08-15"}},{"type":"Feature","geometry":{"type":"Point","coordinates":[127.23689,36.51715]},"properties":{"name":"가락마을15단지아파트 지하주차장 1층","addr":"세종특별자치시 마음안로 190(고운동, 가락마을15단지)","sgg":"36110","cap":14567,"type":"공공용시설 / 지하","src":"localdata","asof":"2026-02-21"}},{"type":"Feature","geometry":{"type":"Point","coordinates":[127.31389,36.50117]},"properties":{"name":"수루배마을4단지 아파트 지하주차장 1층","addr":"세종특별자치시 시청대로 500 (반곡동, 수루배마을 4단지)","sgg":"36110","cap":48343,"type":"공공용시설 / 지하","src":"localdata","asof":"2026-02-14"}},{"type":"Feature","geometry":{"type":"Point","coordinates":[127.29816,36.60285]},"properties":{"name":"행복코아(메가박스) 지하1,2층주차장","addr":"세종특별자치시 조치원읍 새내로 122, 메가박스","sgg":"36110","cap":1800,"type":"공공용시설 / 지하","src":"localdata","asof":"2026-08-15"}},{"type":"Feature","geometry":{"type":"Point","coordinates":[127.29543,36.48496]},"properties":{"name":"새샘마을 3단지아파트 지하주차장 1층","addr":"세종특별자치시 시청대로 236 (소담동, 새샘마을3단지)","sgg":"36110","cap":47443,"type":"공공용시설 / 지하","src":"localdata","asof":"2026-02-21"}},{"type":"Feature","geometry":{"type":"Point","coordinates":[127.25046,36.49568]},"properties":{"name":"가온마을8단지 아파트 지하주차장 1~2층","addr":"세종특별자치시 다정북로 180 (다정동, 가온마을8단지)","sgg":"36110","cap":18225,"type":"공공용시설 / 지하","src":"localdata","asof":"2026-02-21"}},{"type":"Feature","geometry":{"type":"Point","coordinates":[127.25624,36.48625]},"properties":{"name":"새롬종합복지센터 지하주차장 1층","addr":"세종특별자치시 새롬로 14, 새롬종합복지센터 (새롬동)","sgg":"36110","cap":2163,"type":"공공용시설 / 지하","src":"localdata","asof":"2026-02-05"}},{"type":"Feature","geometry":{"type":"Point","coordinates":[127.22981,36.51112]},"properties":{"name":"가락마을11단지아파트 지하주차장 1층","addr":"세종특별자치시 마음로 152(고운동, 가락마을11단지)","sgg":"36110","cap":15000,"type":"공공용시설 / 지하","src":"localdata","asof":"2026-02-21"}},{"type":"Feature","geometry":{"type":"Point","coordinates":[127.24906,36.49217]},"properties":{"name":"가온마을4단지 아파트 지하주차장 1층","addr":"세종특별자치시 다정중앙로 19 (다정동, 가온마을4단지)","sgg":"36110","cap":42199,"type":"공공용시설 / 지하","src":"localdata","asof":"2026-02-21"}},{"type":"Feature","geometry":{"type":"Point","coordinates":[127.2795,36.47091]},"properties":{"name":"대평동행정복지센터 지하1층","addr":"세종특별자치시 대평1길 10, 대평동행정복지센터 (대평동)","sgg":"36110","cap":2427,"type":"공공용시설 / 지하","src":"localdata","asof":"2026-02-14"}},{"type":"Feature","geometry":{"type":"Point","coordinates":[127.25399,36.49163]},"properties":{"name":"가온마을10단지 아파트 지하주차장 1층","addr":"세종특별자치시 가온로 9 (다정동, 가온마을 10단지)","sgg":"36110","cap":15115,"type":"공공용시설 / 지하","src":"localdata","asof":"2026-02-21"}},{"type":"Feature","geometry":{"type":"Point","coordinates":[127.25958,36.50985]},"properties":{"name":"도램마을7단지아파트 지하주차장 1층","addr":"세종특별자치시 보듬1로 12 (도담동, 도램마을7단지)","sgg":"36110","cap":9151,"type":"공공용시설 / 지하","src":"localdata","asof":"2026-02-21"}},{"type":"Feature","geometry":{"type":"Point","coordinates":[127.26578,36.50691]},"properties":{"name":"한뜰마을1단지아파트 어진동 지하주차장1~2층","addr":"세종특별자치시 갈매로 479 (어진동, 한뜰마을1단지)","sgg":"36110","cap":22566,"type":"공공용시설 / 지하","src":"localdata","asof":"2026-02-21"}},{"type":"Feature","geometry":{"type":"Point","coordinates":[127.32182,36.48861]},"properties":{"name":"새나루마을2단지 아파트 지하주차장 1층","addr":"세종특별자치시 집현서로 15(집현동, 새나루마을2단지)","sgg":"36110","cap":12053,"type":"공공용시설 / 지하","src":"localdata","asof":"2026-07-21"}},{"type":"Feature","geometry":{"type":"Point","coordinates":[127.28714,36.47601]},"properties":{"name":"호려울마을7단지아파트 지하주차장 1~2층","addr":"세종특별자치시 남세종로 480 (보람동, 호려울마을 7단지)","sgg":"36110","cap":38915,"type":"공공용시설 / 지하","src":"localdata","asof":"2026-02-14"}},{"type":"Feature","geometry":{"type":"Point","coordinates":[127.29324,36.48176]},"properties":{"name":"호려울마을10단지아파트 지하주차장 1층","addr":"세종특별자치시 시청대로 210 (보람동, 호려울마을10단지)","sgg":"36110","cap":34838,"type":"공공용시설 / 지하","src":"localdata","asof":"2026-02-21"}},{"type":"Feature","geometry":{"type":"Point","coordinates":[127.24972,36.49458]},"properties":{"name":"다정동 복합커뮤니티센터 지하주차장 1층","addr":"세종특별자치시 다정남3로 10, 다정동 복합커뮤니티센터 (다정동)","sgg":"36110","cap":2920,"type":"공공용시설 / 지하","src":"localdata","asof":"2026-02-21"}},{"type":"Feature","geometry":{"type":"Point","coordinates":[127.24689,36.5049]},"properties":{"name":"종촌동주민센터 지하주차장 1층","addr":"세종특별자치시 도움3로 125 (종촌동)","sgg":"36110","cap":2710,"type":"공공용시설 / 지하","src":"localdata","asof":"2026-02-21"}},{"type":"Feature","geometry":{"type":"Point","coordinates":[127.15214,36.69807]},"properties":{"name":"신창무궁화아파트 지하주차장 1층","addr":"세종특별자치시 소정면 세종로 4283 (신창무궁화아파트)","sgg":"36110","cap":3252,"type":"공공용시설 / 지하","src":"localdata","asof":"2026-02-14"}},{"type":"Feature","geometry":{"type":"Point","coordinates":[127.26908,36.53079]},"properties":{"name":"해밀마을2단지 전체 동의 지하주차장 1,2층","addr":"세종특별자치시 해밀3로 90(해밀동, 해밀마을2단지)","sgg":"36110","cap":60480,"type":"공공용시설 / 지하","src":"localdata","asof":"2026-02-21"}},{"type":"Feature","geometry":{"type":"Point","coordinates":[127.24789,36.50193]},"properties":{"name":"가재마을 5단지 아파트 지하주차장 1층","addr":"세종특별자치시 도움1로 105 (종촌동, 가재마을5단지)","sgg":"36110","cap":58012,"type":"공공용시설 / 지하","src":"localdata","asof":"2026-02-21"}},{"type":"Feature","geometry":{"type":"Point","coordinates":[127.24268,36.49601]},"properties":{"name":"가온마을2단지 아파트 지하주차장 1~2층","addr":"세종특별자치시 다정북로 110 (다정동, 가온마을2단지)","sgg":"36110","cap":42380,"type":"공공용시설 / 지하","src":"localdata","asof":"2026-02-21"}},{"type":"Feature","geometry":{"type":"Point","coordinates":[127.30984,36.49669]},"properties":{"name":"수루배마을2단지 아파트 지하주차장 1~2층","addr":"세종특별자치시 반곡1길 9 (반곡동, 수루배마을2단지)","sgg":"36110","cap":30773,"type":"공공용시설 / 지하","src":"localdata","asof":"2026-02-14"}},{"type":"Feature","geometry":{"type":"Point","coordinates":[127.25596,36.49789]},"properties":{"name":"한뜰마을5단지아파트 어진동 지하주차장1~3층","addr":"세종특별자치시 다솜로 7 (어진동, 한뜰마을5단지)","sgg":"36110","cap":28493,"type":"공공용시설 / 지하","src":"localdata","asof":"2026-02-21"}},{"type":"Feature","geometry":{"type":"Point","coordinates":[127.29105,36.47728]},"properties":{"name":"호려울마을5단지아파트 지하주차장 1층","addr":"세종특별자치시 남세종로 441 (보람동, 호려울마을5단지)","sgg":"36110","cap":25907,"type":"공공용시설 / 지하","src":"localdata","asof":"2026-02-21"}},{"type":"Feature","geometry":{"type":"Point","coordinates":[127.26195,36.49015]},"properties":{"name":"나릿재마을4단지아파트 지하주차장 1~2층","addr":"세종특별자치시 나성북로 47 (나성동, 나릿재마을4단지)","sgg":"36110","cap":26798,"type":"공공용시설 / 지하","src":"localdata","asof":"2026-02-06"}},{"type":"Feature","geometry":{"type":"Point","coordinates":[127.24647,36.48655]},"properties":{"name":"새뜸마을 4단지 지하주차장 1층","addr":"세종특별자치시 새롬북로 13(새롬동, 새뜸마을4단지)","sgg":"36110","cap":61229,"type":"공공용시설 / 지하","src":"localdata","asof":"2026-02-14"}},{"type":"Feature","geometry":{"type":"Point","coordinates":[127.27857,36.55882]},"properties":{"name":"대원네스트빌아파트 지하1층","addr":"세종특별자치시 연서면 당산로 290 (대원네스트빌아파트)","sgg":"36110","cap":2260,"type":"공공용시설 / 지하","src":"localdata","asof":"2026-02-21"}},{"type":"Feature","geometry":{"type":"Point","coordinates":[127.29526,36.593]},"properties":{"name":"죽림우방유쉘아파트 지하1층주차장","addr":"세종특별자치시 조치원읍 산막길 17, 지하층 (우방유쉘아파트)","sgg":"36110","cap":16537,"type":"공공용시설 / 지하","src":"localdata","asof":"2026-02-21"}},{"type":"Feature","geometry":{"type":"Point","coordinates":[127.26715,36.49576]},"properties":{"name":"세종 푸르지오시티2차 어진동 지하주차장 1~3층","addr":"세종특별자치시 가름로 255-21 (어진동, 세종시2차푸르지오시티)","sgg":"36110","cap":11511,"type":"공공용시설 / 지하","src":"localdata","asof":"2026-02-21"}},{"type":"Feature","geometry":{"type":"Point","coordinates":[127.2487,36.49744]},"properties":{"name":"가온마을6단지 아파트 지하주차장 1~2층","addr":"세종특별자치시 다정중앙로 77 (다정동, 가온마을6단지)","sgg":"36110","cap":69345,"type":"공공용시설 / 지하","src":"localdata","asof":"2026-02-21"}},{"type":"Feature","geometry":{"type":"Point","coordinates":[127.28734,36.61557]},"properties":{"name":"세종e편한세상 아파트 지하1층주차장","addr":"세종특별자치시 조치원읍 섭골길 59","sgg":"36110","cap":28097,"type":"공공용시설 / 지하","src":"localdata","asof":"2026-02-21"}},{"type":"Feature","geometry":{"type":"Point","coordinates":[127.33519,36.53976]},"properties":{"name":"삼성전기 세종사업소 기숙사","addr":"세종특별자치시 연동면 삼성길 25, 삼성전기 세종사업소 기숙사","sgg":"36110","cap":1061,"type":"공공용시설 / 지하","src":"localdata","asof":"2026-02-14"}},{"type":"Feature","geometry":{"type":"Point","coordinates":[127.29932,36.48113]},"properties":{"name":"새샘마을 2단지아파트 지하주차장 1층","addr":"세종특별자치시 남세종로 358(소담동, 새샘마을2단지)","sgg":"36110","cap":60314,"type":"공공용시설 / 지하","src":"localdata","asof":"2026-02-21"}},{"type":"Feature","geometry":{"type":"Point","coordinates":[127.24573,36.51775]},"properties":{"name":"범지기마을9단지아파트 지하주차장 1~2층","addr":"세종특별자치시 달빛1로 206 (아름동, 범지기마을9단지)","sgg":"36110","cap":25680,"type":"공공용시설 / 지하","src":"localdata","asof":"2026-02-21"}},{"type":"Feature","geometry":{"type":"Point","coordinates":[127.25423,36.49283]},"properties":{"name":"가온마을12단지 아파트 지하주차장 1층","addr":"세종특별자치시 다정남로 123 (다정동, 가온마을12단지)","sgg":"36110","cap":36190,"type":"공공용시설 / 지하","src":"localdata","asof":"2026-02-21"}},{"type":"Feature","geometry":{"type":"Point","coordinates":[127.25939,36.48204]},"properties":{"name":"첫마을1단지아파트 지하주차장 1층~2층","addr":"세종특별자치시 노을3로 14 (한솔동, 첫마을1단지)","sgg":"36110","cap":41085,"type":"공공용시설 / 지하","src":"localdata","asof":"2026-02-21"}},{"type":"Feature","geometry":{"type":"Point","coordinates":[127.26066,36.47949]},"properties":{"name":"첫마을3단지아파트 지하주차장 1층~2층","addr":"세종특별자치시 나리1로 15 (한솔동, 첫마을3단지)","sgg":"36110","cap":45874,"type":"공공용시설 / 지하","src":"localdata","asof":"2026-02-21"}},{"type":"Feature","geometry":{"type":"Point","coordinates":[127.32361,36.49748]},"properties":{"name":"새나루마을11단지 아파트 지하주차장 1~2층","addr":"세종특별자치시 집현서2로 84(집현동, 새나루마을 11단지)","sgg":"36110","cap":24578,"type":"공공용시설 / 지하","src":"localdata","asof":"2026-07-21"}},{"type":"Feature","geometry":{"type":"Point","coordinates":[127.29308,36.61026]},"properties":{"name":"고려대 학술정보관 지하1층","addr":"세종특별자치시 조치원읍 세종로 2511, 고려대학교세종캠퍼스","sgg":"36110","cap":859,"type":"공공용시설 / 지하","src":"localdata","asof":"2026-08-15"}},{"type":"Feature","geometry":{"type":"Point","coordinates":[127.24339,36.50159]},"properties":{"name":"가재마을 1단지 아파트 지하주차장 1층","addr":"세종특별자치시 도움1로 145 (종촌동, 가재마을1단지)","sgg":"36110","cap":35591,"type":"공공용시설 / 지하","src":"localdata","asof":"2026-02-21"}},{"type":"Feature","geometry":{"type":"Point","coordinates":[127.29524,36.47786]},"properties":{"name":"호려울마을6단지아파트 지하주차장 1층","addr":"세종특별자치시 보람동로 13 (보람동, 호려울마을6단지)","sgg":"36110","cap":28284,"type":"공공용시설 / 지하","src":"localdata","asof":"2026-02-21"}},{"type":"Feature","geometry":{"type":"Point","coordinates":[127.24792,36.48289]},"properties":{"name":"새뜸마을 2단지 지하주차장 1층","addr":"세종특별자치시 새롬남로 17(새롬동, 새뜸마을2단지)","sgg":"36110","cap":31586,"type":"공공용시설 / 지하","src":"localdata","asof":"2026-02-14"}},{"type":"Feature","geometry":{"type":"Point","coordinates":[127.2771,36.47449]},"properties":{"name":"해들마을6단지 아파트 지하1~2층","addr":"세종특별자치시 대평로 80 (대평동, 해들마을 6단지)","sgg":"36110","cap":39120,"type":"공공용시설 / 지하","src":"localdata","asof":"2026-02-21"}},{"type":"Feature","geometry":{"type":"Point","coordinates":[127.25297,36.48322]},"properties":{"name":"새뜸마을 5단지 지하주차장 1층","addr":"세종특별자치시 새롬중앙로 19(새롬동, 새뜸마을5단지)","sgg":"36110","cap":45973,"type":"공공용시설 / 지하","src":"localdata","asof":"2026-02-14"}},{"type":"Feature","geometry":{"type":"Point","coordinates":[127.25863,36.49696]},"properties":{"name":"세종시모닝시티1차 어진동 지하주차장 1~4층","addr":"세종특별자치시 가름로 170-14 (어진동, 모닝시티1차)","sgg":"36110","cap":1837,"type":"공공용시설 / 지하","src":"localdata","asof":"2026-04-04"}},{"type":"Feature","geometry":{"type":"Point","coordinates":[127.22563,36.49774]},"properties":{"name":"남양유업 세종 중앙연구소","addr":"세종특별자치시 장군면 장기로 836-11, 남양유업㈜ 세종연구소 지하 1층","sgg":"36110","cap":1061,"type":"공공용시설 / 지하","src":"localdata","asof":"2026-02-14"}},{"type":"Feature","geometry":{"type":"Point","coordinates":[127.23949,36.50749]},"properties":{"name":"가락마을8단지아파트 지하주차장 1층","addr":"세종특별자치시 만남로 92 (고운동, 가락마을8단지)","sgg":"36110","cap":31732,"type":"공공용시설 / 지하","src":"localdata","asof":"2026-02-21"}},{"type":"Feature","geometry":{"type":"Point","coordinates":[127.22948,36.51108]},"properties":{"name":"가락마을9단지아파트 지하주차장 1층","addr":"세종특별자치시 마음로 151 (고운동, 가락마을9단지)","sgg":"36110","cap":21876,"type":"공공용시설 / 지하","src":"localdata","asof":"2026-02-21"}},{"type":"Feature","geometry":{"type":"Point","coordinates":[127.24683,36.50245]},"properties":{"name":"종촌종합복지센터 지하주차장 1층","addr":"세종특별자치시 도움1로 116 (종촌동)","sgg":"36110","cap":2234,"type":"공공용시설 / 지하","src":"localdata","asof":"2026-02-21"}},{"type":"Feature","geometry":{"type":"Point","coordinates":[127.29002,36.59159]},"properties":{"name":"신흥푸르지오아파트 지하1층주차장","addr":"세종특별자치시 조치원읍 도원1로 16(푸르지오1차)","sgg":"36110","cap":21545,"type":"공공용시설 / 지하","src":"localdata","asof":"2026-02-14"}},{"type":"Feature","geometry":{"type":"Point","coordinates":[127.24935,36.50591]},"properties":{"name":"가재마을 7단지 아파트 지하주차장 1층~2층","addr":"세종특별자치시 달빛로 77 (종촌동, 가재마을7단지)","sgg":"36110","cap":34928,"type":"공공용시설 / 지하","src":"localdata","asof":"2026-02-21"}},{"type":"Feature","geometry":{"type":"Point","coordinates":[127.25706,36.48386]},"properties":{"name":"새뜸마을 9단지 지하주차장 1층","addr":"세종특별자치시 새롬남로 98(새롬동, 새뜸마을9단지)","sgg":"36110","cap":11312,"type":"공공용시설 / 지하","src":"localdata","asof":"2026-02-14"}},{"type":"Feature","geometry":{"type":"Point","coordinates":[127.24497,36.4951]},"properties":{"name":"가온마을5단지 아파트 지하주차장 1층","addr":"세종특별자치시 다정서로 60 (다정동, 가온마을5단지)","sgg":"36110","cap":22199,"type":"공공용시설 / 지하","src":"localdata","asof":"2026-02-21"}},{"type":"Feature","geometry":{"type":"Point","coordinates":[127.32158,36.49124]},"properties":{"name":"새나루마을3단지 아파트 지하주차장 1층","addr":"세종특별자치시 집현서로 45 (집현동, 새나루마을 3단지)","sgg":"36110","cap":22838,"type":"공공용시설 / 지하","src":"localdata","asof":"2026-07-21"}},{"type":"Feature","geometry":{"type":"Point","coordinates":[127.25463,36.47921]},"properties":{"name":"한솔동주민센터 지하주차장 1층","addr":"세종특별자치시 노을3로 85 (한솔동)","sgg":"36110","cap":450,"type":"공공용시설 / 지하","src":"localdata","asof":"2026-02-21"}},{"type":"Feature","geometry":{"type":"Point","coordinates":[127.24627,36.5135]},"properties":{"name":"범지기마을7단지아파트 지하주차장 1~2층","addr":"세종특별자치시 달빛1로 158 (아름동, 범지기마을7단지)","sgg":"36110","cap":21187,"type":"공공용시설 / 지하","src":"localdata","asof":"2026-02-21"}},{"type":"Feature","geometry":{"type":"Point","coordinates":[127.26873,36.50555]},"properties":{"name":"한뜰마을2단지아파트 어진동 지하주차장1~2층","addr":"세종특별자치시 갈매로 480 (어진동, 한뜰마을2단지)","sgg":"36110","cap":23074,"type":"공공용시설 / 지하","src":"localdata","asof":"2026-02-21"}},{"type":"Feature","geometry":{"type":"Point","coordinates":[127.26548,36.51374]},"properties":{"name":"도램마을16단지아파트 지하주차장 1층","addr":"세종특별자치시 보듬4로 55 (도담동, 도램마을16단지)","sgg":"36110","cap":6738,"type":"공공용시설 / 지하","src":"localdata","asof":"2026-02-21"}},{"type":"Feature","geometry":{"type":"Point","coordinates":[127.28496,36.47475]},"properties":{"name":"호려울마을1단지아파트 지하주차장 1층","addr":"세종특별자치시 남세종로 503 (보람동, 호려울마을1단지)","sgg":"36110","cap":37483,"type":"공공용시설 / 지하","src":"localdata","asof":"2026-02-21"}},{"type":"Feature","geometry":{"type":"Point","coordinates":[127.26222,36.51682]},"properties":{"name":"도램마을13단지아파트 지하주차장 1층~2층","addr":"세종특별자치시 보람로 95 (도담동, 도램마을13단지)","sgg":"36110","cap":41041,"type":"공공용시설 / 지하","src":"localdata","asof":"2026-02-21"}},{"type":"Feature","geometry":{"type":"Point","coordinates":[127.28861,36.5945]},"properties":{"name":"신흥주공2단지아파트 지하1층주차장","addr":"세종특별자치시 조치원읍 이화로 5 (신흥주공2단지)","sgg":"36110","cap":7273,"type":"공공용시설 / 지하","src":"localdata","asof":"2026-08-15"}},{"type":"Feature","geometry":{"type":"Point","coordinates":[127.27245,36.50487]},"properties":{"name":"한뜰마을3단지아파트 어진동 지하주차장1~2층","addr":"세종특별자치시 다솜로 290 (어진동, 한뜰마을3단지)","sgg":"36110","cap":21742,"type":"공공용시설 / 지하","src":"localdata","asof":"2026-04-04"}},{"type":"Feature","geometry":{"type":"Point","coordinates":[127.23979,36.50523]},"properties":{"name":"가락마을7단지아파트 지하주차장 1층","addr":"세종특별자치시 마음안로 13 (고운동, 가락마을7단지)","sgg":"36110","cap":35434,"type":"공공용시설 / 지하","src":"localdata","asof":"2026-02-21"}},{"type":"Feature","geometry":{"type":"Point","coordinates":[127.27715,36.47083]},"properties":{"name":"해들마을2단지 아파트 지하1~2층","addr":"세종특별자치시 대평1길 37 (대평동, 해들마을2단지)","sgg":"36110","cap":24225,"type":"공공용시설 / 지하","src":"localdata","asof":"2026-02-21"}},{"type":"Feature","geometry":{"type":"Point","coordinates":[127.3256,36.50186]},"properties":{"name":"새나루마을12단지 아파트 지하주차장 1층","addr":"세종특별자치시 집현북로 52(집현동, 새나루마을 12단지)","sgg":"36110","cap":25218,"type":"공공용시설 / 지하","src":"localdata","asof":"2026-07-21"}},{"type":"Feature","geometry":{"type":"Point","coordinates":[127.25222,36.5041]},"properties":{"name":"가재마을 11단지 아파트 지하주차장 1층","addr":"세종특별자치시 도움3로 75 (종촌동)","sgg":"36110","cap":23215,"type":"공공용시설 / 지하","src":"localdata","asof":"2026-02-25"}},{"type":"Feature","geometry":{"type":"Point","coordinates":[127.30785,36.49853]},"properties":{"name":"수루배마을1단지 아파트 지하주차장 1~2층","addr":"세종특별자치시 반곡로 14 (반곡동, 수루배마을1단지)","sgg":"36110","cap":58982,"type":"공공용시설 / 지하","src":"localdata","asof":"2026-02-14"}},{"type":"Feature","geometry":{"type":"Point","coordinates":[127.24321,36.49277]},"properties":{"name":"가온마을1단지 아파트 지하주차장 1~2층","addr":"세종특별자치시 다정남로 22 (다정동, 가온마을1단지)","sgg":"36110","cap":84066,"type":"공공용시설 / 지하","src":"localdata","asof":"2026-02-21"}},{"type":"Feature","geometry":{"type":"Point","coordinates":[127.31178,36.4969]},"properties":{"name":"수루배마을5단지 아파트 지하주차장 1~2층","addr":"세종특별자치시 반곡2길 9 (반곡동, 수루배마을5단지)","sgg":"36110","cap":18627,"type":"공공용시설 / 지하","src":"localdata","asof":"2026-02-14"}},{"type":"Feature","geometry":{"type":"Point","coordinates":[127.25875,36.49559]},"properties":{"name":"한뜰마을6단지아파트 어진동 지하주차장1~3층","addr":"세종특별자치시 다솜로 50 (어진동, 한뜰마을6단지)","sgg":"36110","cap":43622,"type":"공공용시설 / 지하","src":"localdata","asof":"2026-04-04"}},{"type":"Feature","geometry":{"type":"Point","coordinates":[127.2342,36.50464]},"properties":{"name":"가락마을1단지아파트 지하주차장 1층","addr":"세종특별자치시 마음로 67 (고운동, 가락마을1단지)","sgg":"36110","cap":60458,"type":"공공용시설 / 지하","src":"localdata","asof":"2026-02-13"}},{"type":"Feature","geometry":{"type":"Point","coordinates":[127.3007,36.49154]},"properties":{"name":"국토연구원 지하주차장 1층","addr":"세종특별자치시 국책연구원로 5, 국토연구원 (반곡동)","sgg":"36110","cap":1919,"type":"공공용시설 / 지하","src":"localdata","asof":"2026-02-14"}},{"type":"Feature","geometry":{"type":"Point","coordinates":[127.25633,36.51749]},"properties":{"name":"도램마을5단지아파트 지하주차장 1층~2층","addr":"세종특별자치시 다솜1로 220 (도담동, 도램마을5단지)","sgg":"36110","cap":19022,"type":"공공용시설 / 지하","src":"localdata","asof":"2026-02-21"}},{"type":"Feature","geometry":{"type":"Point","coordinates":[127.36557,36.52872]},"properties":{"name":"부강면 대신하나로아파트 지하주차장 1층","addr":"세종특별자치시 부강면 부강로 29-12 (대신하나로아파트)","sgg":"36110","cap":621,"type":"공공용시설 / 지하","src":"localdata","asof":"2026-02-21"}},{"type":"Feature","geometry":{"type":"Point","coordinates":[127.24906,36.51099]},"properties":{"name":"범지기마을6단지아파트 지하주차장 1~2층","addr":"세종특별자치시 달빛로 135 (아름동, 범지기마을6단지)","sgg":"36110","cap":20579,"type":"공공용시설 / 지하","src":"localdata","asof":"2026-02-21"}},{"type":"Feature","geometry":{"type":"Point","coordinates":[127.32037,36.48571]},"properties":{"name":"새나루마을1단지 아파트 지하주차장 1층","addr":"세종특별자치시 남세종로 160 (집현동, 새나루마을1단지)","sgg":"36110","cap":56176,"type":"공공용시설 / 지하","src":"localdata","asof":"2026-07-21"}},{"type":"Feature","geometry":{"type":"Point","coordinates":[127.23671,36.50704]},"properties":{"name":"가락마을4단지아파트 지하주차장 1층","addr":"세종특별자치시 마음안로 48 (고운동, 가락마을4단지)","sgg":"36110","cap":2780,"type":"공공용시설 / 지하","src":"localdata","asof":"2026-02-21"}},{"type":"Feature","geometry":{"type":"Point","coordinates":[127.25095,36.49599]},"properties":{"name":"가온마을9단지 아파트 지하주차장 1층","addr":"세종특별자치시 다정북로 183 (다정동, 가온마을9단지)","sgg":"36110","cap":35172,"type":"공공용시설 / 지하","src":"localdata","asof":"2026-02-21"}},{"type":"Feature","geometry":{"type":"Point","coordinates":[127.26049,36.48009]},"properties":{"name":"첫마을2단지아파트 지하주차장 1층~3층","addr":"세종특별자치시 노을1로 16 (한솔동)","sgg":"36110","cap":21280,"type":"공공용시설 / 지하","src":"localdata","asof":"2026-02-21"}},{"type":"Feature","geometry":{"type":"Point","coordinates":[127.20514,36.68326]},"properties":{"name":"성호늘푸른아파트 지하주차장 1층","addr":"세종특별자치시 전의면 동교동촌2길 16 (성호늘푸른아파트)","sgg":"36110","cap":1036,"type":"공공용시설 / 지하","src":"localdata","asof":"2026-02-21"}},{"type":"Feature","geometry":{"type":"Point","coordinates":[127.25456,36.48993]},"properties":{"name":"새뜸마을 14단지 지하주차장 1층","addr":"세종특별자치시 새롬로 56(새롬동, 새뜸마을14단지)","sgg":"36110","cap":14307,"type":"공공용시설 / 지하","src":"localdata","asof":"2026-02-14"}},{"type":"Feature","geometry":{"type":"Point","coordinates":[127.26801,36.6551]},"properties":{"name":"조치원농협 전동지점 지하 1층","addr":"세종특별자치시 전동면 전동로 21, 조치원농협 전동지점","sgg":"36110","cap":258,"type":"공공용시설 / 지하","src":"localdata","asof":"2026-02-14"}},{"type":"Feature","geometry":{"type":"Point","coordinates":[127.26268,36.52856]},"properties":{"name":"산울마을6단지 전체 동의 지하주차장 1,2,3층","addr":"세종특별자치시 산울2로 10 (산울동, 산울마을6단지)","sgg":"36110","cap":29246,"type":"공공용시설 / 지하","src":"localdata","asof":"2026-02-21"}},{"type":"Feature","geometry":{"type":"Point","coordinates":[127.25579,36.51249]},"properties":{"name":"도램마을2단지아파트 지하주차장 1층~2층","addr":"세종특별자치시 다솜1로 164-0 (도담동, 도램마을2단지)","sgg":"36110","cap":12896,"type":"공공용시설 / 지하","src":"localdata","asof":"2026-02-21"}},{"type":"Feature","geometry":{"type":"Point","coordinates":[127.27735,36.47092]},"properties":{"name":"해들마을3단지 아파트 지하1층","addr":"세종특별자치시 대평1길 38 (대평동, 해들마을3단지)","sgg":"36110","cap":16997,"type":"공공용시설 / 지하","src":"localdata","asof":"2026-02-21"}},{"type":"Feature","geometry":{"type":"Point","coordinates":[127.30536,36.48192]},"properties":{"name":"새샘마을 6단지아파트 지하주차장 1~2층","addr":"세종특별자치시 남세종로 302 (소담동, 새샘마을6단지)","sgg":"36110","cap":55870,"type":"공공용시설 / 지하","src":"localdata","asof":"2026-02-21"}},{"type":"Feature","geometry":{"type":"Point","coordinates":[127.25014,36.50608]},"properties":{"name":"가재마을 12단지 아파트 지하주차장 1층~2층","addr":"세종특별자치시 달빛로 80 (종촌동, 가재마을12단지)","sgg":"36110","cap":56318,"type":"공공용시설 / 지하","src":"localdata","asof":"2026-02-21"}},{"type":"Feature","geometry":{"type":"Point","coordinates":[127.25728,36.49222]},"properties":{"name":"나릿재마을5단지아파트 지하주차장 1~2층","addr":"세종특별자치시 나성북1로 23 (나성동, 나릿재마을 5단지)","sgg":"36110","cap":42168,"type":"공공용시설 / 지하","src":"localdata","asof":"2026-02-11"}},{"type":"Feature","geometry":{"type":"Point","coordinates":[127.26162,36.51534]},"properties":{"name":"도담동행정복지센터 지하주차장 1층","addr":"세종특별자치시 보람로 77 (도담동, 도담동복합커뮤니티센터)","sgg":"36110","cap":1547,"type":"공공용시설 / 지하","src":"localdata","asof":"2026-02-21"}},{"type":"Feature","geometry":{"type":"Point","coordinates":[127.26418,36.52751]},"properties":{"name":"해밀마을1단지 전체 동의 지하주차장 1층","addr":"세종특별자치시 해밀3로 32(해밀동, 해밀마을1단지)","sgg":"36110","cap":92156,"type":"공공용시설 / 지하","src":"localdata","asof":"2026-02-21"}},{"type":"Feature","geometry":{"type":"Point","coordinates":[127.24657,36.48632]},"properties":{"name":"새뜸마을3단지 지하주차장 1층","addr":"세종특별자치시 새롬북로 14(새롬동, 새뜸마을3단지)","sgg":"36110","cap":34854,"type":"공공용시설 / 지하","src":"localdata","asof":"2026-02-14"}},{"type":"Feature","geometry":{"type":"Point","coordinates":[127.3085,36.49892]},"properties":{"name":"수루배마을3단지 아파트 지하주차장 1~2층","addr":"세종특별자치시 반곡로 15 (반곡동, 수루배마을 3단지)","sgg":"36110","cap":42417,"type":"공공용시설 / 지하","src":"localdata","asof":"2026-02-14"}},{"type":"Feature","geometry":{"type":"Point","coordinates":[127.29633,36.4799]},"properties":{"name":"호려울마을9단지아파트 지하주차장 1층","addr":"세종특별자치시 남세종로 384 (보람동, 호려울마을9단지)","sgg":"36110","cap":35599,"type":"공공용시설 / 지하","src":"localdata","asof":"2026-02-21"}},{"type":"Feature","geometry":{"type":"Point","coordinates":[127.2542,36.48977]},"properties":{"name":"새뜸마을 11단지 지하주차장 1층","addr":"세종특별자치시 새롬로 55(새롬동, 새뜸마을11단지)","sgg":"36110","cap":25952,"type":"공공용시설 / 지하","src":"localdata","asof":"2026-02-14"}},{"type":"Feature","geometry":{"type":"Point","coordinates":[127.31884,36.49397]},"properties":{"name":"수루배마을6단지 아파트 지하주차장 1층","addr":"세종특별자치시 시청대로 598 (반곡동, 수루배마을 6단지)","sgg":"36110","cap":34481,"type":"공공용시설 / 지하","src":"localdata","asof":"2026-06-25"}},{"type":"Feature","geometry":{"type":"Point","coordinates":[127.26167,36.51264]},"properties":{"name":"도램마을10단지아파트 지하주차장 1층","addr":"세종특별자치시 보듬4로 20 (도담동, 도램마을10단지)","sgg":"36110","cap":24649,"type":"공공용시설 / 지하","src":"localdata","asof":"2026-02-21"}},{"type":"Feature","geometry":{"type":"Point","coordinates":[127.26295,36.48816]},"properties":{"name":"나릿재마을3단지아파트 지하주차장 1~2층","addr":"세종특별자치시 국세청로 45 (나성동, 나릿재마을3단지)","sgg":"36110","cap":48926,"type":"공공용시설 / 지하","src":"localdata","asof":"2026-02-06"}},{"type":"Feature","geometry":{"type":"Point","coordinates":[127.25143,36.51139]},"properties":{"name":"범지기마을11단지아파트 지하주차장 1~2층","addr":"세종특별자치시 보듬3로 73 (아름동, 범지기마을11단지)","sgg":"36110","cap":22687,"type":"공공용시설 / 지하","src":"localdata","asof":"2026-02-21"}},{"type":"Feature","geometry":{"type":"Point","coordinates":[127.26522,36.51148]},"properties":{"name":"도램마을15단지아파트 지하주차장 1층~2층","addr":"세종특별자치시 보듬2로 43 (도담동, 도램마을15단지)","sgg":"36110","cap":32444,"type":"공공용시설 / 지하","src":"localdata","asof":"2026-02-21"}},{"type":"Feature","geometry":{"type":"Point","coordinates":[127.24268,36.49627]},"properties":{"name":"가온마을3단지 아파트 지하주차장 1층","addr":"세종특별자치시 다정북로 109 (다정동, 가온마을3단지)","sgg":"36110","cap":74351,"type":"공공용시설 / 지하","src":"localdata","asof":"2026-02-21"}},{"type":"Feature","geometry":{"type":"Point","coordinates":[127.25344,36.50136]},"properties":{"name":"가재마을 9단지 아파트 지하주차장 1층","addr":"세종특별자치시 도움1로 55 (종촌동, 가재마을9단지)","sgg":"36110","cap":41293,"type":"공공용시설 / 지하","src":"localdata","asof":"2026-02-21"}},{"type":"Feature","geometry":{"type":"Point","coordinates":[127.25884,36.51223]},"properties":{"name":"도램마을8단지아파트 지하주차장 1층","addr":"세종특별자치시 보듬3로 7 (도담동)","sgg":"36110","cap":8720,"type":"공공용시설 / 지하","src":"localdata","asof":"2026-02-21"}},{"type":"Feature","geometry":{"type":"Point","coordinates":[127.2454,36.51739]},"properties":{"name":"범지기마을3단지아파트 지하주차장 1~2층","addr":"세종특별자치시 달빛1로 201 (아름동, 범지기마을3단지)","sgg":"36110","cap":44814,"type":"공공용시설 / 지하","src":"localdata","asof":"2026-02-21"}},{"type":"Feature","geometry":{"type":"Point","coordinates":[127.22935,36.5138]},"properties":{"name":"가락마을10단지아파트 지하주차장 1층","addr":"세종특별자치시 마음로 181 (고운동, 가락마을10단지)","sgg":"36110","cap":53157,"type":"공공용시설 / 지하","src":"localdata","asof":"2026-02-21"}},{"type":"Feature","geometry":{"type":"Point","coordinates":[127.24041,36.51754]},"properties":{"name":"가락마을21단지아파트 지하주차장 1층","addr":"세종특별자치시 마음안로 221 (고운동, 가락마을21단지)","sgg":"36110","cap":15625,"type":"공공용시설 / 지하","src":"localdata","asof":"2026-02-21"}},{"type":"Feature","geometry":{"type":"Point","coordinates":[127.23444,36.52193]},"properties":{"name":"가락마을18단지아파트 지하주차장 1층","addr":"세종특별자치시 마음안1로 139 (고운동, 가락마을18단지)","sgg":"36110","cap":31544,"type":"공공용시설 / 지하","src":"localdata","asof":"2026-02-13"}},{"type":"Feature","geometry":{"type":"Point","coordinates":[127.29029,36.5885]},"properties":{"name":"자이아파트 지하1층주차장","addr":"세종특별자치시 조치원읍 도원로 16(자이아파트)","sgg":"36110","cap":43185,"type":"공공용시설 / 지하","src":"localdata","asof":"2026-02-21"}},{"type":"Feature","geometry":{"type":"Point","coordinates":[127.29165,36.61483]},"properties":{"name":"일신유니빌아파트 지하1층주차장","addr":"세종특별자치시 조치원읍 신안새동네길 26-10 (일신유니-빌 아파트)","sgg":"36110","cap":2952,"type":"공공용시설 / 지하","src":"localdata","asof":"2026-07-04"}},{"type":"Feature","geometry":{"type":"Point","coordinates":[127.25159,36.51172]},"properties":{"name":"범지기마을12단지아파트 지하주차장 1층","addr":"세종특별자치시 보듬3로 74 (아름동, 범지기마을12단지)","sgg":"36110","cap":18405,"type":"공공용시설 / 지하","src":"localdata","asof":"2026-02-21"}},{"type":"Feature","geometry":{"type":"Point","coordinates":[127.26281,36.48777]},"properties":{"name":"나릿재마을1단지아파트 지하주차창 1~2층","addr":"세종특별자치시 국세청로 46 (나성동, 나릿재마을1단지)","sgg":"36110","cap":23286,"type":"공공용시설 / 지하","src":"localdata","asof":"2026-02-06"}},{"type":"Feature","geometry":{"type":"Point","coordinates":[127.26599,36.53149]},"properties":{"name":"산울마을8단지 전체동의 지하주차장 1,2층","addr":"세종특별자치시 산울7로 10 (산울동, 산울마을8단지)","sgg":"36110","cap":49341,"type":"공공용시설 / 지하","src":"localdata","asof":"2026-02-25"}},{"type":"Feature","geometry":{"type":"Point","coordinates":[127.26197,36.48642]},"properties":{"name":"마크원애비뉴 지하주차장 1~2층","addr":"세종특별자치시 국세청로 32, 마크원애비뉴 (나성동)","sgg":"36110","cap":25674,"type":"공공용시설 / 지하","src":"localdata","asof":"2026-03-24"}},{"type":"Feature","geometry":{"type":"Point","coordinates":[127.28071,36.60325]},"properties":{"name":"엘리프세종 지하1,2층 주차장","addr":"세종특별자치시 조치원읍 서북부4로 10 (엘리프세종아파트)","sgg":"36110","cap":40766,"type":"공공용시설 / 지하","src":"localdata","asof":"2026-02-21"}},{"type":"Feature","geometry":{"type":"Point","coordinates":[127.25588,36.49991]},"properties":{"name":"한뜰마을4단지아파트 어진동 지하주차장1~3층","addr":"세종특별자치시 다솜1로 9 (어진동, 한뜰마을4단지)","sgg":"36110","cap":43000,"type":"공공용시설 / 지하","src":"localdata","asof":"2026-02-21"}},{"type":"Feature","geometry":{"type":"Point","coordinates":[127.24318,36.50502]},"properties":{"name":"가재마을 3단지 아파트 지하주차장 1층","addr":"세종특별자치시 도움3로 159 (종촌동, 가재마을3단지)","sgg":"36110","cap":22666,"type":"공공용시설 / 지하","src":"localdata","asof":"2026-02-21"}},{"type":"Feature","geometry":{"type":"Point","coordinates":[127.25337,36.48089]},"properties":{"name":"첫마을4단지아파트 지하주차장 1층","addr":"세종특별자치시 누리로 119 (한솔동, 첫마을4단지)","sgg":"36110","cap":10122,"type":"공공용시설 / 지하","src":"localdata","asof":"2026-02-21"}},{"type":"Feature","geometry":{"type":"Point","coordinates":[127.31069,36.49842]},"properties":{"name":"반곡동 복합커뮤니티센터 지하주차장 1층","addr":"세종특별자치시 반곡로 39, 반곡동 복합커뮤니티센터 (반곡동)","sgg":"36110","cap":2751,"type":"공공용시설 / 지하","src":"localdata","asof":"2026-02-21"}},{"type":"Feature","geometry":{"type":"Point","coordinates":[127.31727,36.49831]},"properties":{"name":"수루배마을8단지 아파트 지하주차장 1층","addr":"세종특별자치시 시청대로 546 (반곡동, 수루배마을8단지)","sgg":"36110","cap":26538,"type":"공공용시설 / 지하","src":"localdata","asof":"2026-02-21"}},{"type":"Feature","geometry":{"type":"Point","coordinates":[127.31419,36.49876]},"properties":{"name":"수루배마을7단지 아파트 지하주차장 1~2층","addr":"세종특별자치시 반곡로 72 (반곡동, 수루배마을7단지)","sgg":"36110","cap":8931,"type":"공공용시설 / 지하","src":"localdata","asof":"2026-02-21"}},{"type":"Feature","geometry":{"type":"Point","coordinates":[127.29999,36.59888]},"properties":{"name":"풍산아파트 지하1층주차장","addr":"세종특별자치시 조치원읍 새내8길 22-13 (풍산아파트)","sgg":"36110","cap":1094,"type":"공공용시설 / 지하","src":"localdata","asof":"2026-08-15"}},{"type":"Feature","geometry":{"type":"Point","coordinates":[127.322,36.49236]},"properties":{"name":"새나루마을4단지 아파트 지하주차장 1층","addr":"세종특별자치시 집현서로 57(집현동, 새나루마을 4단지)","sgg":"36110","cap":13864,"type":"공공용시설 / 지하","src":"localdata","asof":"2026-07-21"}},{"type":"Feature","geometry":{"type":"Point","coordinates":[127.27981,36.46336]},"properties":{"name":"두진리버빌아파트 지하주차장1층","addr":"세종특별자치시 금남면 용포2길 70 (금남두진리버빌아파트)","sgg":"36110","cap":3588,"type":"공공용시설 / 지하","src":"localdata","asof":"2026-02-21"}},{"type":"Feature","geometry":{"type":"Point","coordinates":[127.28095,36.47706]},"properties":{"name":"호려울마을3단지아파트 지하주차장1~2층","addr":"세종특별자치시 시청대로 78 (보람동, 호려울마을3단지)","sgg":"36110","cap":31211,"type":"공공용시설 / 지하","src":"localdata","asof":"2026-02-14"}},{"type":"Feature","geometry":{"type":"Point","coordinates":[127.25019,36.51376]},"properties":{"name":"범지기마을8단지아파트 지하주차장 1~2층","addr":"세종특별자치시 달빛로 165 (아름동, 범지기마을8단지)","sgg":"36110","cap":23086,"type":"공공용시설 / 지하","src":"localdata","asof":"2026-02-21"}},{"type":"Feature","geometry":{"type":"Point","coordinates":[127.26363,36.49613]},"properties":{"name":"푸르지오1차오피스텔 어진동 지하주차장 1~4층","addr":"세종특별자치시 갈매로 364 (어진동)","sgg":"36110","cap":18601,"type":"공공용시설 / 지하","src":"localdata","asof":"2026-04-04"}},{"type":"Feature","geometry":{"type":"Point","coordinates":[127.32201,36.4889]},"properties":{"name":"새나루마을8단지 아파트 지하주차장 1층","addr":"세종특별자치시 집현서로 16 (집현동, 새나루마을8단지)","sgg":"36110","cap":19517,"type":"공공용시설 / 지하","src":"localdata","asof":"2026-07-21"}},{"type":"Feature","geometry":{"type":"Point","coordinates":[127.25049,36.48891]},"properties":{"name":"새뜸마을 10단지 지하주차장 1층","addr":"세종특별자치시 새롬중앙로 90(새롬동, 새뜸마을10단지)","sgg":"36110","cap":49625,"type":"공공용시설 / 지하","src":"localdata","asof":"2026-02-14"}},{"type":"Feature","geometry":{"type":"Point","coordinates":[127.28896,36.4798]},"properties":{"name":"세종시청 지하주차장 1층","addr":"세종특별자치시 한누리대로 2130 (보람동)","sgg":"36110","cap":4000,"type":"공공용시설 / 지하","src":"localdata","asof":"2026-02-21"}},{"type":"Feature","geometry":{"type":"Point","coordinates":[127.28843,36.47616]},"properties":{"name":"호려울마을4단지아파트 지하주차장 1층","addr":"세종특별자치시 남세종로 469 (보람동, 호려울마을4단지)","sgg":"36110","cap":32701,"type":"공공용시설 / 지하","src":"localdata","asof":"2026-02-21"}},{"type":"Feature","geometry":{"type":"Point","coordinates":[127.25155,36.50209]},"properties":{"name":"가재마을 10단지 아파트 지하주차장 1층","addr":"세종특별자치시 도움1로 74 (종촌동, 가재마을10단지)","sgg":"36110","cap":15477,"type":"공공용시설 / 지하","src":"localdata","asof":"2026-02-21"}},{"type":"Feature","geometry":{"type":"Point","coordinates":[127.26516,36.51117]},"properties":{"name":"도램마을14단지아파트 지하주차장 1층~2층","addr":"세종특별자치시 보듬2로 42 (도담동, 도램마을14단지)","sgg":"36110","cap":45372,"type":"공공용시설 / 지하","src":"localdata","asof":"2026-02-21"}},{"type":"Feature","geometry":{"type":"Point","coordinates":[127.30555,36.48166]},"properties":{"name":"새샘마을 5단지아파트 지하주차장 1층","addr":"세종특별자치시 남세종로 301 (소담동, 새샘마을5단지)","sgg":"36110","cap":29388,"type":"공공용시설 / 지하","src":"localdata","asof":"2026-02-21"}},{"type":"Feature","geometry":{"type":"Point","coordinates":[127.23947,36.51619]},"properties":{"name":"가락마을20단지아파트 지하주차장 1층","addr":"세종특별자치시 만남로 190 (고운동, 가락마을20단지)","sgg":"36110","cap":25483,"type":"공공용시설 / 지하","src":"localdata","asof":"2026-02-21"}},{"type":"Feature","geometry":{"type":"Point","coordinates":[127.24798,36.48264]},"properties":{"name":"새뜸마을 1단지 지하주차장 1층","addr":"세종특별자치시 새롬남로 18(새롬동, 새뜸마을1단지)","sgg":"36110","cap":48614,"type":"공공용시설 / 지하","src":"localdata","asof":"2026-02-14"}},{"type":"Feature","geometry":{"type":"Point","coordinates":[127.25846,36.53009]},"properties":{"name":"산울마을2단지 전체 동의 지하주차장 1층","addr":"세종특별자치시 산울3로 45 (산울동, 산울마을2단지)","sgg":"36110","cap":68485,"type":"공공용시설 / 지하","src":"localdata","asof":"2026-02-21"}},{"type":"Feature","geometry":{"type":"Point","coordinates":[127.26527,36.53144]},"properties":{"name":"산울마을7단지 전체 동의 지하주차장 2,3층","addr":"세종특별자치시 산울7로 11 (산울동, 산울마을7단지)","sgg":"36110","cap":55544,"type":"공공용시설 / 지하","src":"localdata","asof":"2026-04-03"}},{"type":"Feature","geometry":{"type":"Point","coordinates":[127.28058,36.47131]},"properties":{"name":"해들마을4단지 아파트 지하1층","addr":"세종특별자치시 대평로 34 (대평동, 해들마을4단지)","sgg":"36110","cap":52031,"type":"공공용시설 / 지하","src":"localdata","asof":"2026-02-21"}},{"type":"Feature","geometry":{"type":"Point","coordinates":[127.25228,36.47544]},"properties":{"name":"첫마을6단지아파트 지하주차장 1층","addr":"세종특별자치시 누리로 27 (한솔동, 첫마을6단지)","sgg":"36110","cap":41456,"type":"공공용시설 / 지하","src":"localdata","asof":"2026-02-21"}},{"type":"Feature","geometry":{"type":"Point","coordinates":[127.24982,36.47753]},"properties":{"name":"첫마을5단지아파트 지하주차장 1층","addr":"세종특별자치시 누리로 59 (한솔동, 첫마을5단지)","sgg":"36110","cap":39550,"type":"공공용시설 / 지하","src":"localdata","asof":"2026-02-21"}},{"type":"Feature","geometry":{"type":"Point","coordinates":[127.23907,36.51603]},"properties":{"name":"가락마을16단지아파트 지하주차장 1층","addr":"세종특별자치시 만남로 187 (고운동, 가락마을16단지)","sgg":"36110","cap":26259,"type":"공공용시설 / 지하","src":"localdata","asof":"2026-02-21"}},{"type":"Feature","geometry":{"type":"Point","coordinates":[127.26777,36.52707]},"properties":{"name":"해밀동 복합커뮤니티센터 지하주차장 1층","addr":"세종특별자치시 해밀1로 45, 해밀동 복합커뮤니티센터 (해밀동)","sgg":"36110","cap":2158,"type":"공공용시설 / 지하","src":"localdata","asof":"2026-02-21"}},{"type":"Feature","geometry":{"type":"Point","coordinates":[127.25647,36.50172]},"properties":{"name":"어진동 복합커뮤니티센터 어진동 지하주차장 1층","addr":"세종특별자치시 다솜1로 31 (어진동, 복합커뮤니티센터,새만금개발청)","sgg":"36110","cap":463,"type":"공공용시설 / 지하","src":"localdata","asof":"2026-02-21"}},{"type":"Feature","geometry":{"type":"Point","coordinates":[127.25538,36.47424]},"properties":{"name":"첫마을7단지아파트 지하주차장 1층~2층","addr":"세종특별자치시 나리로 38 (한솔동)","sgg":"36110","cap":44970,"type":"공공용시설 / 지하","src":"localdata","asof":"2026-02-21"}},{"type":"Feature","geometry":{"type":"Point","coordinates":[127.25431,36.49169]},"properties":{"name":"가온마을11단지 아파트 지하주차장 1~2층","addr":"세종특별자치시 가온로 10 (다정동, 가온마을11단지)","sgg":"36110","cap":11595,"type":"공공용시설 / 지하","src":"localdata","asof":"2026-02-21"}},{"type":"Feature","geometry":{"type":"Point","coordinates":[127.2789,36.47275]},"properties":{"name":"해들마을5단지 아파트 지하1층","addr":"세종특별자치시 대평로 56 (대평동, 해들마을 5단지)","sgg":"36110","cap":40880,"type":"공공용시설 / 지하","src":"localdata","asof":"2026-02-21"}},{"type":"Feature","geometry":{"type":"Point","coordinates":[127.29053,36.62144]},"properties":{"name":"홍익대 교사A동 지하1층","addr":"세종특별자치시 조치원읍 세종로 2639, 홍익대학교세종캠퍼스","sgg":"36110","cap":377,"type":"공공용시설 / 지하","src":"localdata","asof":"2026-08-15"}},{"type":"Feature","geometry":{"type":"Point","coordinates":[127.23792,36.5063]},"properties":{"name":"가락마을5단지아파트 지하주차장 1층","addr":"세종특별자치시 마음안로 34 (고운동, 가락마을5단지)","sgg":"36110","cap":33016,"type":"공공용시설 / 지하","src":"localdata","asof":"2026-02-21"}},{"type":"Feature","geometry":{"type":"Point","coordinates":[127.26518,36.48874]},"properties":{"name":"나릿재마을2단지아파트 지하주차장 1~2층","addr":"세종특별자치시 중앙공원서로 10 (나성동, 나릿재마을2단지)","sgg":"36110","cap":46779,"type":"공공용시설 / 지하","src":"localdata","asof":"2026-02-11"}},{"type":"Feature","geometry":{"type":"Point","coordinates":[127.26178,36.49179]},"properties":{"name":"나릿재마을6단지아파트 지하주차장 1~2층","addr":"세종특별자치시 나성북1로 51 (나성동, 나릿재마을 6단지)","sgg":"36110","cap":22037,"type":"공공용시설 / 지하","src":"localdata","asof":"2026-02-06"}},{"type":"Feature","geometry":{"type":"Point","coordinates":[127.25181,36.51786]},"properties":{"name":"범지기마을10단지아파트 지하주차장 1~2층","addr":"세종특별자치시 달빛로 211 (아름동, 범지기마을10단지)","sgg":"36110","cap":69542,"type":"공공용시설 / 지하","src":"localdata","asof":"2026-02-21"}},{"type":"Feature","geometry":{"type":"Point","coordinates":[127.24701,36.51223]},"properties":{"name":"아름동주민센터 지하주차장 1층","addr":"세종특별자치시 보듬3로 114 (아름동, 아름동주민복합센터)","sgg":"36110","cap":1763,"type":"공공용시설 / 지하","src":"localdata","asof":"2026-02-21"}},{"type":"Feature","geometry":{"type":"Point","coordinates":[127.23288,36.51372]},"properties":{"name":"가락마을14단지아파트 지하주차장 1층","addr":"세종특별자치시 마음안로 131 (고운동, 가락마을 14단지)","sgg":"36110","cap":15928,"type":"공공용시설 / 지하","src":"localdata","asof":"2026-02-13"}},{"type":"Feature","geometry":{"type":"Point","coordinates":[127.23582,36.50367]},"properties":{"name":"가락마을2단지아파트 지하주차장 1층","addr":"세종특별자치시 마음로 49 (고운동, 가락마을2단지)","sgg":"36110","cap":22215,"type":"공공용시설 / 지하","src":"localdata","asof":"2026-02-13"}},{"type":"Feature","geometry":{"type":"Point","coordinates":[127.27858,36.46516]},"properties":{"name":"신성미소지움아파트 지하주차장1층","addr":"세종특별자치시 금남면 용포2길 57-15 (신성미소지움아파트)","sgg":"36110","cap":6064,"type":"공공용시설 / 지하","src":"localdata","asof":"2026-02-21"}},{"type":"Feature","geometry":{"type":"Point","coordinates":[127.23631,36.50677]},"properties":{"name":"가락마을3단지아파트 지하주차장 1층","addr":"세종특별자치시 마음안로 47(고운동, 가락마을3단지)","sgg":"36110","cap":13000,"type":"공공용시설 / 지하","src":"localdata","asof":"2026-02-21"}},{"type":"Feature","geometry":{"type":"Point","coordinates":[127.25981,36.52966]},"properties":{"name":"산울마을5단지 전체 동의 지하주차장 1층","addr":"세종특별자치시 산울2로 40 (산울동, 산울마을5단지)","sgg":"36110","cap":45790,"type":"공공용시설 / 지하","src":"localdata","asof":"2026-02-21"}},{"type":"Feature","geometry":{"type":"Point","coordinates":[127.32374,36.49285]},"properties":{"name":"새나루마을9단지 아파트 지하주차장 1층","addr":"세종특별자치시 시청대로 642(집현동, 새나루마을 9단지)","sgg":"36110","cap":23998,"type":"공공용시설 / 지하","src":"localdata","asof":"2026-07-21"}},{"type":"Feature","geometry":{"type":"Point","coordinates":[127.32385,36.49318]},"properties":{"name":"새나루마을10단지 아파트 지하주차장 1층","addr":"세종특별자치시 시청대로 643 (집현동, 새나루마을 10단지)","sgg":"36110","cap":24831,"type":"공공용시설 / 지하","src":"localdata","asof":"2026-07-21"}},{"type":"Feature","geometry":{"type":"Point","coordinates":[127.31765,36.49852]},"properties":{"name":"수루배마을9단지 아파트 지하주차장 1~2층","addr":"세종특별자치시 시청대로 547 (반곡동)","sgg":"36110","cap":17703,"type":"공공용시설 / 지하","src":"localdata","asof":"2026-06-24"}},{"type":"Feature","geometry":{"type":"Point","coordinates":[127.2429,36.50915]},"properties":{"name":"범지기마을1단지아파트 지하주차장 1~2층","addr":"세종특별자치시 절재로 13 (아름동, 범지기마을1단지)","sgg":"36110","cap":29844,"type":"공공용시설 / 지하","src":"localdata","asof":"2026-02-21"}},{"type":"Feature","geometry":{"type":"Point","coordinates":[127.23948,36.50246]},"properties":{"name":"가락마을6단지아파트 지하주차장 1층","addr":"세종특별자치시 마음로 14 (고운동, 가락마을6단지)","sgg":"36110","cap":47372,"type":"공공용시설 / 지하","src":"localdata","asof":"2026-02-21"}},{"type":"Feature","geometry":{"type":"Point","coordinates":[127.24088,36.52]},"properties":{"name":"가락마을22단지아파트 지하주차장 1층","addr":"세종특별자치시 마음로 322 (고운동, 가락마을22단지)","sgg":"36110","cap":27839,"type":"공공용시설 / 지하","src":"localdata","asof":"2026-02-21"}},{"type":"Feature","geometry":{"type":"Point","coordinates":[127.23526,36.51805]},"properties":{"name":"가락마을17단지아파트 지하주차장 1층","addr":"세종특별자치시 마음안1로 167(고운동, 가락마을17단지)","sgg":"36110","cap":18000,"type":"공공용시설 / 지하","src":"localdata","asof":"2026-02-21"}},{"type":"Feature","geometry":{"type":"Point","coordinates":[127.27768,36.47004]},"properties":{"name":"해들마을1단지 아파트 지하1~2층","addr":"세종특별자치시 대평1길 27 (대평동, 해들마을1단지)","sgg":"36110","cap":19224,"type":"공공용시설 / 지하","src":"localdata","asof":"2026-02-21"}},{"type":"Feature","geometry":{"type":"Point","coordinates":[127.24642,36.5102]},"properties":{"name":"범지기마을5단지아파트 지하주차장 1층","addr":"세종특별자치시 달빛1로 122 (아름동, 범지기마을5단지)","sgg":"36110","cap":16873,"type":"공공용시설 / 지하","src":"localdata","asof":"2026-02-21"}},{"type":"Feature","geometry":{"type":"Point","coordinates":[127.29695,36.5896]},"properties":{"name":"신동아파밀리에아파트 지하1층주차장","addr":"세종특별자치시 조치원읍 도장말길 30 (조치원 신동아파밀리에)","sgg":"36110","cap":6880,"type":"공공용시설 / 지하","src":"localdata","asof":"2026-08-15"}},{"type":"Feature","geometry":{"type":"Point","coordinates":[127.2496,36.50878]},"properties":{"name":"범지기마을4단지아파트 지하주차장 1층","addr":"세종특별자치시 달빛로 109 (아름동, 범지기마을4단지)","sgg":"36110","cap":17577,"type":"공공용시설 / 지하","src":"localdata","asof":"2026-02-21"}},{"type":"Feature","geometry":{"type":"Point","coordinates":[127.23426,36.52211]},"properties":{"name":"가락마을19단지아파트 지하주차장 1층","addr":"세종특별자치시 밝은뜰로 15 (고운동, 가락마을19단지)","sgg":"36110","cap":52461,"type":"공공용시설 / 지하","src":"localdata","asof":"2026-02-13"}},{"type":"Feature","geometry":{"type":"Point","coordinates":[127.26431,36.4891]},"properties":{"name":"나성동행정복지센터 지하주차장 1층","addr":"세종특별자치시 갈매로 280, 나성동주민센터 (나성동)","sgg":"36110","cap":2656,"type":"공공용시설 / 지하","src":"localdata","asof":"2026-03-24"}},{"type":"Feature","geometry":{"type":"Point","coordinates":[127.24471,36.50299]},"properties":{"name":"가재마을 2단지 아파트 지하주차장 1층","addr":"세종특별자치시 달빛1로 39 (종촌동, 가재마을2단지)","sgg":"36110","cap":20875,"type":"공공용시설 / 지하","src":"localdata","asof":"2026-02-21"}}]}