{"type":"FeatureCollection","name":"grid_12210_h3r8","meta":{"sgg_code":"12210","h3_res":8,"n_cells":118,"dem":"Copernicus GLO-30 (bbox-mean)","crs":"EPSG:4326","jumin_basis":"2026-07","flood_src":"행안부 침수흔적도(전국, 재난안전데이터공유플랫폼)","landslide_src":"행안부 산사태 발생이력"},"features":[{"type":"Feature","properties":{"h3":"8830c62251fffff","emd_code":"1221074000","emd_name":"지원2동","area_km2":0.5385,"edge":true,"slope_mean":26.2,"elev_mean":281.1,"flood_hist_n":0,"flood_depth_max_m":null,"flood_risk_100y":null,"semi_basement_r":null,"elderly_alone_r":0.1321,"bldg_age30_r":null,"shelter_min_walk":53,"pop":17994,"hh":8584,"elderly65_r":0.2019,"single_hh_r":0.4028,"source_level":"emd","flood_years":[],"landslide_hist_n":0},"geometry":{"type":"Polygon","coordinates":[[[126.92688,35.07401],[126.92605,35.07015],[126.93021,35.06808],[126.93519,35.06986],[126.93602,35.07372],[126.93186,35.0758],[126.92688,35.07401]]]}},{"type":"Feature","properties":{"h3":"8830c62253fffff","emd_code":"1221074000","emd_name":"지원2동","area_km2":0.5386,"edge":true,"slope_mean":24.98,"elev_mean":270.4,"flood_hist_n":0,"flood_depth_max_m":null,"flood_risk_100y":null,"semi_basement_r":null,"elderly_alone_r":0.1321,"bldg_age30_r":null,"shelter_min_walk":43,"pop":17994,"hh":8584,"elderly65_r":0.2019,"single_hh_r":0.4028,"source_level":"emd","flood_years":[],"landslide_hist_n":0},"geometry":{"type":"Polygon","coordinates":[[[126.93602,35.07372],[126.93519,35.06986],[126.93934,35.06779],[126.94433,35.06957],[126.94515,35.07343],[126.941,35.0755],[126.93602,35.07372]]]}},{"type":"Feature","properties":{"h3":"8830c62259fffff","emd_code":"1221074000","emd_name":"지원2동","area_km2":0.5384,"edge":true,"slope_mean":24.79,"elev_mean":262.3,"flood_hist_n":0,"flood_depth_max_m":null,"flood_risk_100y":null,"semi_basement_r":null,"elderly_alone_r":0.1321,"bldg_age30_r":null,"shelter_min_walk":47,"pop":17994,"hh":8584,"elderly65_r":0.2019,"single_hh_r":0.4028,"source_level":"emd","flood_years":[],"landslide_hist_n":0},"geometry":{"type":"Polygon","coordinates":[[[126.92355,35.07995],[126.92272,35.07609],[126.92688,35.07401],[126.93186,35.0758],[126.93269,35.07965],[126.92853,35.08173],[126.92355,35.07995]]]}},{"type":"Feature","properties":{"h3":"8830c6225bfffff","emd_code":"1221074000","emd_name":"지원2동","area_km2":0.5385,"edge":false,"slope_mean":25.53,"elev_mean":267.6,"flood_hist_n":0,"flood_depth_max_m":null,"flood_risk_100y":null,"semi_basement_r":null,"elderly_alone_r":0.1321,"bldg_age30_r":null,"shelter_min_walk":46,"pop":17994,"hh":8584,"elderly65_r":0.2019,"single_hh_r":0.4028,"source_level":"emd","flood_years":[],"landslide_hist_n":0},"geometry":{"type":"Polygon","coordinates":[[[126.93269,35.07965],[126.93186,35.0758],[126.93602,35.07372],[126.941,35.0755],[126.94183,35.07936],[126.93767,35.08144],[126.93269,35.07965]]]}},{"type":"Feature","properties":{"h3":"8830c63091fffff","emd_code":"1221074000","emd_name":"지원2동","area_km2":0.538,"edge":false,"slope_mean":21.55,"elev_mean":239.0,"flood_hist_n":0,"flood_depth_max_m":null,"flood_risk_100y":null,"semi_basement_r":null,"elderly_alone_r":0.1321,"bldg_age30_r":null,"shelter_min_walk":19,"pop":17994,"hh":8584,"elderly65_r":0.2019,"single_hh_r":0.4028,"source_level":"emd","flood_years":[],"landslide_hist_n":0},"geometry":{"type":"Polygon","coordinates":[[[126.91937,35.10338],[126.91854,35.09952],[126.9227,35.09745],[126.92768,35.09923],[126.92851,35.10309],[126.92435,35.10516],[126.91937,35.10338]]]}},{"type":"Feature","properties":{"h3":"8830c63093fffff","emd_code":"1221074000","emd_name":"지원2동","area_km2":0.538,"edge":false,"slope_mean":20.07,"elev_mean":158.4,"flood_hist_n":0,"flood_depth_max_m":null,"flood_risk_100y":null,"semi_basement_r":null,"elderly_alone_r":0.1321,"bldg_age30_r":null,"shelter_min_walk":9,"pop":17994,"hh":8584,"elderly65_r":0.2019,"single_hh_r":0.4028,"source_level":"emd","flood_years":[],"landslide_hist_n":0},"geometry":{"type":"Polygon","coordinates":[[[126.92851,35.10309],[126.92768,35.09923],[126.93184,35.09716],[126.93682,35.09894],[126.93765,35.1028],[126.93349,35.10487],[126.92851,35.10309]]]}},{"type":"Feature","properties":{"h3":"8830c63095fffff","emd_code":"1221074000","emd_name":"지원2동","area_km2":0.5381,"edge":true,"slope_mean":23.55,"elev_mean":270.0,"flood_hist_n":0,"flood_depth_max_m":null,"flood_risk_100y":null,"semi_basement_r":null,"elderly_alone_r":0.1321,"bldg_age30_r":null,"shelter_min_walk":22,"pop":17994,"hh":8584,"elderly65_r":0.2019,"single_hh_r":0.4028,"source_level":"emd","flood_years":[],"landslide_hist_n":0},"geometry":{"type":"Polygon","coordinates":[[[126.91356,35.09774],[126.91274,35.09388],[126.91689,35.09181],[126.92187,35.09359],[126.9227,35.09745],[126.91854,35.09952],[126.91356,35.09774]]]}},{"type":"Feature","properties":{"h3":"8830c63097fffff","emd_code":"1221074000","emd_name":"지원2동","area_km2":0.5381,"edge":false,"slope_mean":24.69,"elev_mean":251.8,"flood_hist_n":0,"flood_depth_max_m":null,"flood_risk_100y":null,"semi_basement_r":null,"elderly_alone_r":0.1321,"bldg_age30_r":null,"shelter_min_walk":21,"pop":17994,"hh":8584,"elderly65_r":0.2019,"single_hh_r":0.4028,"source_level":"emd","flood_years":[],"landslide_hist_n":0},"geometry":{"type":"Polygon","coordinates":[[[126.9227,35.09745],[126.92187,35.09359],[126.92603,35.09152],[126.93101,35.0933],[126.93184,35.09716],[126.92768,35.09923],[126.9227,35.09745]]]}},{"type":"Feature","properties":{"h3":"8830c63099fffff","emd_code":"1221074000","emd_name":"지원2동","area_km2":0.5379,"edge":false,"slope_mean":21.37,"elev_mean":190.3,"flood_hist_n":0,"flood_depth_max_m":null,"flood_risk_100y":null,"semi_basement_r":null,"elderly_alone_r":0.1321,"bldg_age30_r":null,"shelter_min_walk":19,"pop":17994,"hh":8584,"elderly65_r":0.2019,"single_hh_r":0.4028,"source_level":"emd","flood_years":[],"landslide_hist_n":0},"geometry":{"type":"Polygon","coordinates":[[[126.91604,35.10931],[126.91522,35.10545],[126.91937,35.10338],[126.92435,35.10516],[126.92518,35.10902],[126.92102,35.11109],[126.91604,35.10931]]]}},{"type":"Feature","properties":{"h3":"8830c6309bfffff","emd_code":"1221074000","emd_name":"지원2동","area_km2":0.5379,"edge":false,"slope_mean":18.78,"elev_mean":144.8,"flood_hist_n":0,"flood_depth_max_m":null,"flood_risk_100y":null,"semi_basement_r":null,"elderly_alone_r":0.1321,"bldg_age30_r":null,"shelter_min_walk":10,"pop":17994,"hh":8584,"elderly65_r":0.2019,"single_hh_r":0.4028,"source_level":"emd","flood_years":[],"landslide_hist_n":0},"geometry":{"type":"Polygon","coordinates":[[[126.92518,35.10902],[126.92435,35.10516],[126.92851,35.10309],[126.93349,35.10487],[126.93432,35.10873],[126.93016,35.1108],[126.92518,35.10902]]]}},{"type":"Feature","properties":{"h3":"8830c6309dfffff","emd_code":"1221074000","emd_name":"지원2동","area_km2":0.5379,"edge":true,"slope_mean":20.51,"elev_mean":229.0,"flood_hist_n":0,"flood_depth_max_m":null,"flood_risk_100y":null,"semi_basement_r":null,"elderly_alone_r":0.1321,"bldg_age30_r":null,"shelter_min_walk":12,"pop":17994,"hh":8584,"elderly65_r":0.2019,"single_hh_r":0.4028,"source_level":"emd","flood_years":[],"landslide_hist_n":0},"geometry":{"type":"Polygon","coordinates":[[[126.91023,35.10367],[126.90941,35.09981],[126.91356,35.09774],[126.91854,35.09952],[126.91937,35.10338],[126.91522,35.10545],[126.91023,35.10367]]]}},{"type":"Feature","properties":{"h3":"8830c630b3fffff","emd_code":"1221074000","emd_name":"지원2동","area_km2":0.5383,"edge":true,"slope_mean":23.18,"elev_mean":238.5,"flood_hist_n":0,"flood_depth_max_m":null,"flood_risk_100y":null,"semi_basement_r":null,"elderly_alone_r":0.1321,"bldg_age30_r":null,"shelter_min_walk":40,"pop":17994,"hh":8584,"elderly65_r":0.2019,"single_hh_r":0.4028,"source_level":"emd","flood_years":[],"landslide_hist_n":0},"geometry":{"type":"Polygon","coordinates":[[[126.92022,35.08588],[126.91939,35.08202],[126.92355,35.07995],[126.92853,35.08173],[126.92936,35.08559],[126.9252,35.08766],[126.92022,35.08588]]]}},{"type":"Feature","properties":{"h3":"8830c630bbfffff","emd_code":"1221074000","emd_name":"지원2동","area_km2":0.5382,"edge":true,"slope_mean":21.87,"elev_mean":236.6,"flood_hist_n":0,"flood_depth_max_m":null,"flood_risk_100y":null,"semi_basement_r":null,"elderly_alone_r":0.1321,"bldg_age30_r":null,"shelter_min_walk":32,"pop":17994,"hh":8584,"elderly65_r":0.2019,"single_hh_r":0.4028,"source_level":"emd","flood_years":[],"landslide_hist_n":0},"geometry":{"type":"Polygon","coordinates":[[[126.91689,35.09181],[126.91606,35.08795],[126.92022,35.08588],[126.9252,35.08766],[126.92603,35.09152],[126.92187,35.09359],[126.91689,35.09181]]]}},{"type":"Feature","properties":{"h3":"8830c630d1fffff","emd_code":"1221074000","emd_name":"지원2동","area_km2":0.5377,"edge":true,"slope_mean":13.23,"elev_mean":112.3,"flood_hist_n":0,"flood_depth_max_m":null,"flood_risk_100y":null,"semi_basement_r":null,"elderly_alone_r":0.1321,"bldg_age30_r":null,"shelter_min_walk":3,"pop":17994,"hh":8584,"elderly65_r":0.2019,"single_hh_r":0.4028,"source_level":"emd","flood_years":[],"landslide_hist_n":0},"geometry":{"type":"Polygon","coordinates":[[[126.90358,35.11553],[126.90275,35.11167],[126.9069,35.1096],[126.91189,35.11138],[126.91271,35.11524],[126.90856,35.11731],[126.90358,35.11553]]]}},{"type":"Feature","properties":{"h3":"8830c630d3fffff","emd_code":"1221074000","emd_name":"지원2동","area_km2":0.5378,"edge":false,"slope_mean":17.58,"elev_mean":140.0,"flood_hist_n":1,"flood_depth_max_m":0.672,"flood_risk_100y":null,"semi_basement_r":null,"elderly_alone_r":0.1321,"bldg_age30_r":null,"shelter_min_walk":11,"pop":17994,"hh":8584,"elderly65_r":0.2019,"single_hh_r":0.4028,"source_level":"emd","flood_years":[2020],"landslide_hist_n":0},"geometry":{"type":"Polygon","coordinates":[[[126.91271,35.11524],[126.91189,35.11138],[126.91604,35.10931],[126.92102,35.11109],[126.92185,35.11495],[126.9177,35.11702],[126.91271,35.11524]]]}},{"type":"Feature","properties":{"h3":"8830c630d7fffff","emd_code":"1221074000","emd_name":"지원2동","area_km2":0.5378,"edge":true,"slope_mean":16.52,"elev_mean":158.2,"flood_hist_n":0,"flood_depth_max_m":null,"flood_risk_100y":null,"semi_basement_r":null,"elderly_alone_r":0.1321,"bldg_age30_r":null,"shelter_min_walk":6,"pop":17994,"hh":8584,"elderly65_r":0.2019,"single_hh_r":0.4028,"source_level":"emd","flood_years":[],"landslide_hist_n":0},"geometry":{"type":"Polygon","coordinates":[[[126.9069,35.1096],[126.90608,35.10574],[126.91023,35.10367],[126.91522,35.10545],[126.91604,35.10931],[126.91189,35.11138],[126.9069,35.1096]]]}},{"type":"Feature","properties":{"h3":"8830c630dbfffff","emd_code":"1221074000","emd_name":"지원2동","area_km2":0.5377,"edge":true,"slope_mean":13.04,"elev_mean":102.3,"flood_hist_n":0,"flood_depth_max_m":null,"flood_risk_100y":null,"semi_basement_r":null,"elderly_alone_r":0.1321,"bldg_age30_r":null,"shelter_min_walk":2,"pop":17994,"hh":8584,"elderly65_r":0.2019,"single_hh_r":0.4028,"source_level":"emd","flood_years":[],"landslide_hist_n":0},"geometry":{"type":"Polygon","coordinates":[[[126.90938,35.12116],[126.90856,35.11731],[126.91271,35.11524],[126.9177,35.11702],[126.91852,35.12088],[126.91437,35.12295],[126.90938,35.12116]]]}},{"type":"Feature","properties":{"h3":"8830c63293fffff","emd_code":"1221052500","emd_name":"충장동","area_km2":0.5372,"edge":true,"slope_mean":7.9,"elev_mean":66.2,"flood_hist_n":0,"flood_depth_max_m":null,"flood_risk_100y":null,"semi_basement_r":null,"elderly_alone_r":0.1329,"bldg_age30_r":null,"shelter_min_walk":2,"pop":5909,"hh":4621,"elderly65_r":0.1999,"single_hh_r":0.8078,"source_level":"emd","flood_years":[],"landslide_hist_n":0},"geometry":{"type":"Polygon","coordinates":[[[126.90521,35.14458],[126.90438,35.14072],[126.90854,35.13865],[126.91352,35.14044],[126.91435,35.14429],[126.91019,35.14636],[126.90521,35.14458]]]}},{"type":"Feature","properties":{"h3":"8830c6329bfffff","emd_code":"1221052500","emd_name":"충장동","area_km2":0.5371,"edge":true,"slope_mean":4.81,"elev_mean":50.1,"flood_hist_n":1,"flood_depth_max_m":0.658,"flood_risk_100y":null,"semi_basement_r":null,"elderly_alone_r":0.1329,"bldg_age30_r":null,"shelter_min_walk":2,"pop":5909,"hh":4621,"elderly65_r":0.1999,"single_hh_r":0.8078,"source_level":"emd","flood_years":[2020],"landslide_hist_n":0},"geometry":{"type":"Polygon","coordinates":[[[126.90188,35.1505],[126.90105,35.14665],[126.90521,35.14458],[126.91019,35.14636],[126.91102,35.15021],[126.90686,35.15228],[126.90188,35.1505]]]}},{"type":"Feature","properties":{"h3":"8830c63421fffff","emd_code":"1221074000","emd_name":"지원2동","area_km2":0.5381,"edge":false,"slope_mean":21.24,"elev_mean":821.4,"flood_hist_n":0,"flood_depth_max_m":null,"flood_risk_100y":null,"semi_basement_r":null,"elderly_alone_r":0.1321,"bldg_age30_r":null,"shelter_min_walk":73,"pop":17994,"hh":8584,"elderly65_r":0.2019,"single_hh_r":0.4028,"source_level":"emd","flood_years":[],"landslide_hist_n":0},"geometry":{"type":"Polygon","coordinates":[[[126.99165,35.11854],[126.99082,35.11469],[126.99498,35.11261],[126.99996,35.11439],[127.00079,35.11825],[126.99663,35.12032],[126.99165,35.11854]]]}},{"type":"Feature","properties":{"h3":"8830c63425fffff","emd_code":"1221074000","emd_name":"지원2동","area_km2":0.5382,"edge":true,"slope_mean":24.86,"elev_mean":547.3,"flood_hist_n":0,"flood_depth_max_m":null,"flood_risk_100y":null,"semi_basement_r":null,"elderly_alone_r":0.1321,"bldg_age30_r":null,"shelter_min_walk":70,"pop":17994,"hh":8584,"elderly65_r":0.2019,"single_hh_r":0.4028,"source_level":"emd","flood_years":[],"landslide_hist_n":0},"geometry":{"type":"Polygon","coordinates":[[[126.98584,35.1129],[126.98501,35.10905],[126.98917,35.10697],[126.99415,35.10875],[126.99498,35.11261],[126.99082,35.11469],[126.98584,35.1129]]]}},{"type":"Feature","properties":{"h3":"8830c63427fffff","emd_code":"1221074000","emd_name":"지원2동","area_km2":0.5382,"edge":true,"slope_mean":23.0,"elev_mean":798.9,"flood_hist_n":0,"flood_depth_max_m":null,"flood_risk_100y":null,"semi_basement_r":null,"elderly_alone_r":0.1321,"bldg_age30_r":null,"shelter_min_walk":78,"pop":17994,"hh":8584,"elderly65_r":0.2019,"single_hh_r":0.4028,"source_level":"emd","flood_years":[],"landslide_hist_n":0},"geometry":{"type":"Polygon","coordinates":[[[126.99498,35.11261],[126.99415,35.10875],[126.99831,35.10668],[127.00329,35.10846],[127.00412,35.11231],[126.99996,35.11439],[126.99498,35.11261]]]}},{"type":"Feature","properties":{"h3":"8830c63429fffff","emd_code":"1221071000","emd_name":"학운동","area_km2":0.538,"edge":false,"slope_mean":21.01,"elev_mean":816.1,"flood_hist_n":0,"flood_depth_max_m":null,"flood_risk_100y":null,"semi_basement_r":null,"elderly_alone_r":0.2121,"bldg_age30_r":null,"shelter_min_walk":66,"pop":10304,"hh":4979,"elderly65_r":0.3744,"single_hh_r":0.3985,"source_level":"emd","flood_years":[],"landslide_hist_n":0},"geometry":{"type":"Polygon","coordinates":[[[126.98832,35.12447],[126.98749,35.12062],[126.99165,35.11854],[126.99663,35.12032],[126.99746,35.12418],[126.9933,35.12625],[126.98832,35.12447]]]}},{"type":"Feature","properties":{"h3":"8830c6342dfffff","emd_code":"1221074000","emd_name":"지원2동","area_km2":0.5381,"edge":false,"slope_mean":23.7,"elev_mean":571.1,"flood_hist_n":0,"flood_depth_max_m":null,"flood_risk_100y":null,"semi_basement_r":null,"elderly_alone_r":0.1321,"bldg_age30_r":null,"shelter_min_walk":62,"pop":17994,"hh":8584,"elderly65_r":0.2019,"single_hh_r":0.4028,"source_level":"emd","flood_years":[],"landslide_hist_n":0},"geometry":{"type":"Polygon","coordinates":[[[126.98251,35.11884],[126.98168,35.11498],[126.98584,35.1129],[126.99082,35.11469],[126.99165,35.11854],[126.98749,35.12062],[126.98251,35.11884]]]}},{"type":"Feature","properties":{"h3":"8830c63445fffff","emd_code":"1221071000","emd_name":"학운동","area_km2":0.5377,"edge":true,"slope_mean":20.88,"elev_mean":519.4,"flood_hist_n":0,"flood_depth_max_m":null,"flood_risk_100y":null,"semi_basement_r":null,"elderly_alone_r":0.2121,"bldg_age30_r":null,"shelter_min_walk":52,"pop":10304,"hh":4979,"elderly65_r":0.3744,"single_hh_r":0.3985,"source_level":"emd","flood_years":[],"landslide_hist_n":0},"geometry":{"type":"Polygon","coordinates":[[[126.97833,35.14226],[126.9775,35.1384],[126.98166,35.13633],[126.98665,35.13811],[126.98747,35.14196],[126.98332,35.14404],[126.97833,35.14226]]]}},{"type":"Feature","properties":{"h3":"8830c63461fffff","emd_code":"1221071000","emd_name":"학운동","area_km2":0.5378,"edge":false,"slope_mean":23.41,"elev_mean":533.1,"flood_hist_n":0,"flood_depth_max_m":null,"flood_risk_100y":null,"semi_basement_r":null,"elderly_alone_r":0.2121,"bldg_age30_r":null,"shelter_min_walk":47,"pop":10304,"hh":4979,"elderly65_r":0.3744,"single_hh_r":0.3985,"source_level":"emd","flood_years":[],"landslide_hist_n":0},"geometry":{"type":"Polygon","coordinates":[[[126.97585,35.13069],[126.97502,35.12684],[126.97918,35.12477],[126.98416,35.12655],[126.98499,35.1304],[126.98083,35.13247],[126.97585,35.13069]]]}},{"type":"Feature","properties":{"h3":"8830c63463fffff","emd_code":"1221071000","emd_name":"학운동","area_km2":0.5379,"edge":true,"slope_mean":22.58,"elev_mean":785.0,"flood_hist_n":0,"flood_depth_max_m":null,"flood_risk_100y":null,"semi_basement_r":null,"elderly_alone_r":0.2121,"bldg_age30_r":null,"shelter_min_walk":60,"pop":10304,"hh":4979,"elderly65_r":0.3744,"single_hh_r":0.3985,"source_level":"emd","flood_years":[],"landslide_hist_n":0},"geometry":{"type":"Polygon","coordinates":[[[126.98499,35.1304],[126.98416,35.12655],[126.98832,35.12447],[126.9933,35.12625],[126.99413,35.13011],[126.98997,35.13218],[126.98499,35.1304]]]}},{"type":"Feature","properties":{"h3":"8830c63465fffff","emd_code":"1221071000","emd_name":"학운동","area_km2":0.5379,"edge":false,"slope_mean":21.52,"elev_mean":386.4,"flood_hist_n":0,"flood_depth_max_m":null,"flood_risk_100y":null,"semi_basement_r":null,"elderly_alone_r":0.2121,"bldg_age30_r":null,"shelter_min_walk":42,"pop":10304,"hh":4979,"elderly65_r":0.3744,"single_hh_r":0.3985,"source_level":"emd","flood_years":[],"landslide_hist_n":0},"geometry":{"type":"Polygon","coordinates":[[[126.97003,35.12506],[126.96921,35.1212],[126.97336,35.11913],[126.97835,35.12091],[126.97918,35.12477],[126.97502,35.12684],[126.97003,35.12506]]]}},{"type":"Feature","properties":{"h3":"8830c63467fffff","emd_code":"1221071000","emd_name":"학운동","area_km2":0.5379,"edge":false,"slope_mean":22.35,"elev_mean":584.5,"flood_hist_n":0,"flood_depth_max_m":null,"flood_risk_100y":null,"semi_basement_r":null,"elderly_alone_r":0.2121,"bldg_age30_r":null,"shelter_min_walk":54,"pop":10304,"hh":4979,"elderly65_r":0.3744,"single_hh_r":0.3985,"source_level":"emd","flood_years":[],"landslide_hist_n":0},"geometry":{"type":"Polygon","coordinates":[[[126.97918,35.12477],[126.97835,35.12091],[126.98251,35.11884],[126.98749,35.12062],[126.98832,35.12447],[126.98416,35.12655],[126.97918,35.12477]]]}},{"type":"Feature","properties":{"h3":"8830c63469fffff","emd_code":"1221071000","emd_name":"학운동","area_km2":0.5377,"edge":false,"slope_mean":23.86,"elev_mean":449.1,"flood_hist_n":0,"flood_depth_max_m":null,"flood_risk_100y":null,"semi_basement_r":null,"elderly_alone_r":0.2121,"bldg_age30_r":null,"shelter_min_walk":43,"pop":10304,"hh":4979,"elderly65_r":0.3744,"single_hh_r":0.3985,"source_level":"emd","flood_years":[],"landslide_hist_n":0},"geometry":{"type":"Polygon","coordinates":[[[126.97252,35.13662],[126.97169,35.13277],[126.97585,35.13069],[126.98083,35.13247],[126.98166,35.13633],[126.9775,35.1384],[126.97252,35.13662]]]}},{"type":"Feature","properties":{"h3":"8830c6346bfffff","emd_code":"1221071000","emd_name":"학운동","area_km2":0.5378,"edge":true,"slope_mean":24.18,"elev_mean":682.1,"flood_hist_n":0,"flood_depth_max_m":null,"flood_risk_100y":null,"semi_basement_r":null,"elderly_alone_r":0.2121,"bldg_age30_r":null,"shelter_min_walk":55,"pop":10304,"hh":4979,"elderly65_r":0.3744,"single_hh_r":0.3985,"source_level":"emd","flood_years":[],"landslide_hist_n":0},"geometry":{"type":"Polygon","coordinates":[[[126.98166,35.13633],[126.98083,35.13247],[126.98499,35.1304],[126.98997,35.13218],[126.9908,35.13604],[126.98665,35.13811],[126.98166,35.13633]]]}},{"type":"Feature","properties":{"h3":"8830c6346dfffff","emd_code":"1221071000","emd_name":"학운동","area_km2":0.5378,"edge":false,"slope_mean":22.19,"elev_mean":300.6,"flood_hist_n":0,"flood_depth_max_m":null,"flood_risk_100y":null,"semi_basement_r":null,"elderly_alone_r":0.2121,"bldg_age30_r":null,"shelter_min_walk":35,"pop":10304,"hh":4979,"elderly65_r":0.3744,"single_hh_r":0.3985,"source_level":"emd","flood_years":[],"landslide_hist_n":1},"geometry":{"type":"Polygon","coordinates":[[[126.96671,35.13099],[126.96588,35.12713],[126.97003,35.12506],[126.97502,35.12684],[126.97585,35.13069],[126.97169,35.13277],[126.96671,35.13099]]]}},{"type":"Feature","properties":{"h3":"8830c63501fffff","emd_code":"1221074000","emd_name":"지원2동","area_km2":0.5383,"edge":false,"slope_mean":22.96,"elev_mean":200.5,"flood_hist_n":1,"flood_depth_max_m":1.184,"flood_risk_100y":null,"semi_basement_r":null,"elderly_alone_r":0.1321,"bldg_age30_r":null,"shelter_min_walk":41,"pop":17994,"hh":8584,"elderly65_r":0.2019,"single_hh_r":0.4028,"source_level":"emd","flood_years":[2020],"landslide_hist_n":0},"geometry":{"type":"Polygon","coordinates":[[[126.95926,35.09628],[126.95843,35.09243],[126.96259,35.09035],[126.96757,35.09213],[126.9684,35.09599],[126.96424,35.09807],[126.95926,35.09628]]]}},{"type":"Feature","properties":{"h3":"8830c63503fffff","emd_code":"1221074000","emd_name":"지원2동","area_km2":0.5384,"edge":false,"slope_mean":27.45,"elev_mean":294.9,"flood_hist_n":0,"flood_depth_max_m":null,"flood_risk_100y":null,"semi_basement_r":null,"elderly_alone_r":0.1321,"bldg_age30_r":null,"shelter_min_walk":52,"pop":17994,"hh":8584,"elderly65_r":0.2019,"single_hh_r":0.4028,"source_level":"emd","flood_years":[],"landslide_hist_n":0},"geometry":{"type":"Polygon","coordinates":[[[126.9684,35.09599],[126.96757,35.09213],[126.97173,35.09006],[126.97671,35.09184],[126.97754,35.0957],[126.97338,35.09777],[126.9684,35.09599]]]}},{"type":"Feature","properties":{"h3":"8830c63505fffff","emd_code":"1221074000","emd_name":"지원2동","area_km2":0.5384,"edge":false,"slope_mean":20.31,"elev_mean":189.4,"flood_hist_n":0,"flood_depth_max_m":null,"flood_risk_100y":null,"semi_basement_r":null,"elderly_alone_r":0.1321,"bldg_age30_r":null,"shelter_min_walk":40,"pop":17994,"hh":8584,"elderly65_r":0.2019,"single_hh_r":0.4028,"source_level":"emd","flood_years":[],"landslide_hist_n":0},"geometry":{"type":"Polygon","coordinates":[[[126.95345,35.09064],[126.95262,35.08679],[126.95678,35.08471],[126.96176,35.08649],[126.96259,35.09035],[126.95843,35.09243],[126.95345,35.09064]]]}},{"type":"Feature","properties":{"h3":"8830c63507fffff","emd_code":"1221074000","emd_name":"지원2동","area_km2":0.5384,"edge":true,"slope_mean":25.44,"elev_mean":265.7,"flood_hist_n":0,"flood_depth_max_m":null,"flood_risk_100y":null,"semi_basement_r":null,"elderly_alone_r":0.1321,"bldg_age30_r":null,"shelter_min_walk":48,"pop":17994,"hh":8584,"elderly65_r":0.2019,"single_hh_r":0.4028,"source_level":"emd","flood_years":[],"landslide_hist_n":0},"geometry":{"type":"Polygon","coordinates":[[[126.96259,35.09035],[126.96176,35.08649],[126.96592,35.08442],[126.9709,35.0862],[126.97173,35.09006],[126.96757,35.09213],[126.96259,35.09035]]]}},{"type":"Feature","properties":{"h3":"8830c63509fffff","emd_code":"1221074000","emd_name":"지원2동","area_km2":0.5382,"edge":false,"slope_mean":25.88,"elev_mean":255.2,"flood_hist_n":0,"flood_depth_max_m":null,"flood_risk_100y":null,"semi_basement_r":null,"elderly_alone_r":0.1321,"bldg_age30_r":null,"shelter_min_walk":33,"pop":17994,"hh":8584,"elderly65_r":0.2019,"single_hh_r":0.4028,"source_level":"emd","flood_years":[],"landslide_hist_n":0},"geometry":{"type":"Polygon","coordinates":[[[126.95593,35.10222],[126.9551,35.09836],[126.95926,35.09628],[126.96424,35.09807],[126.96507,35.10192],[126.96091,35.104],[126.95593,35.10222]]]}},{"type":"Feature","properties":{"h3":"8830c6350bfffff","emd_code":"1221074000","emd_name":"지원2동","area_km2":0.5383,"edge":false,"slope_mean":27.6,"elev_mean":262.2,"flood_hist_n":0,"flood_depth_max_m":null,"flood_risk_100y":null,"semi_basement_r":null,"elderly_alone_r":0.1321,"bldg_age30_r":null,"shelter_min_walk":45,"pop":17994,"hh":8584,"elderly65_r":0.2019,"single_hh_r":0.4028,"source_level":"emd","flood_years":[],"landslide_hist_n":0},"geometry":{"type":"Polygon","coordinates":[[[126.96507,35.10192],[126.96424,35.09807],[126.9684,35.09599],[126.97338,35.09777],[126.97421,35.10163],[126.97005,35.1037],[126.96507,35.10192]]]}},{"type":"Feature","properties":{"h3":"8830c6350dfffff","emd_code":"1221074000","emd_name":"지원2동","area_km2":0.5383,"edge":false,"slope_mean":22.54,"elev_mean":214.5,"flood_hist_n":0,"flood_depth_max_m":null,"flood_risk_100y":null,"semi_basement_r":null,"elderly_alone_r":0.1321,"bldg_age30_r":null,"shelter_min_walk":30,"pop":17994,"hh":8584,"elderly65_r":0.2019,"single_hh_r":0.4028,"source_level":"emd","flood_years":[],"landslide_hist_n":0},"geometry":{"type":"Polygon","coordinates":[[[126.95012,35.09658],[126.94929,35.09272],[126.95345,35.09064],[126.95843,35.09243],[126.95926,35.09628],[126.9551,35.09836],[126.95012,35.09658]]]}},{"type":"Feature","properties":{"h3":"8830c63511fffff","emd_code":"1221074000","emd_name":"지원2동","area_km2":0.5384,"edge":false,"slope_mean":24.68,"elev_mean":467.7,"flood_hist_n":0,"flood_depth_max_m":null,"flood_risk_100y":null,"semi_basement_r":null,"elderly_alone_r":0.1321,"bldg_age30_r":null,"shelter_min_walk":59,"pop":17994,"hh":8584,"elderly65_r":0.2019,"single_hh_r":0.4028,"source_level":"emd","flood_years":[],"landslide_hist_n":0},"geometry":{"type":"Polygon","coordinates":[[[126.98335,35.10133],[126.98253,35.09748],[126.98668,35.0954],[126.99167,35.09718],[126.9925,35.10104],[126.98834,35.10312],[126.98335,35.10133]]]}},{"type":"Feature","properties":{"h3":"8830c63515fffff","emd_code":"1221074000","emd_name":"지원2동","area_km2":0.5384,"edge":false,"slope_mean":28.91,"elev_mean":435.9,"flood_hist_n":0,"flood_depth_max_m":null,"flood_risk_100y":null,"semi_basement_r":null,"elderly_alone_r":0.1321,"bldg_age30_r":null,"shelter_min_walk":50,"pop":17994,"hh":8584,"elderly65_r":0.2019,"single_hh_r":0.4028,"source_level":"emd","flood_years":[],"landslide_hist_n":0},"geometry":{"type":"Polygon","coordinates":[[[126.97754,35.0957],[126.97671,35.09184],[126.98087,35.08976],[126.98585,35.09154],[126.98668,35.0954],[126.98253,35.09748],[126.97754,35.0957]]]}},{"type":"Feature","properties":{"h3":"8830c63517fffff","emd_code":"1221074000","emd_name":"지원2동","area_km2":0.5385,"edge":true,"slope_mean":26.39,"elev_mean":540.4,"flood_hist_n":0,"flood_depth_max_m":null,"flood_risk_100y":null,"semi_basement_r":null,"elderly_alone_r":0.1321,"bldg_age30_r":null,"shelter_min_walk":49,"pop":17994,"hh":8584,"elderly65_r":0.2019,"single_hh_r":0.4028,"source_level":"emd","flood_years":[],"landslide_hist_n":0},"geometry":{"type":"Polygon","coordinates":[[[126.98668,35.0954],[126.98585,35.09154],[126.99001,35.08947],[126.995,35.09125],[126.99582,35.09511],[126.99167,35.09718],[126.98668,35.0954]]]}},{"type":"Feature","properties":{"h3":"8830c63519fffff","emd_code":"1221074000","emd_name":"지원2동","area_km2":0.5382,"edge":false,"slope_mean":25.11,"elev_mean":444.4,"flood_hist_n":0,"flood_depth_max_m":null,"flood_risk_100y":null,"semi_basement_r":null,"elderly_alone_r":0.1321,"bldg_age30_r":null,"shelter_min_walk":64,"pop":17994,"hh":8584,"elderly65_r":0.2019,"single_hh_r":0.4028,"source_level":"emd","flood_years":[],"landslide_hist_n":0},"geometry":{"type":"Polygon","coordinates":[[[126.98002,35.10727],[126.9792,35.10341],[126.98335,35.10133],[126.98834,35.10312],[126.98917,35.10697],[126.98501,35.10905],[126.98002,35.10727]]]}},{"type":"Feature","properties":{"h3":"8830c6351dfffff","emd_code":"1221074000","emd_name":"지원2동","area_km2":0.5383,"edge":false,"slope_mean":28.15,"elev_mean":332.3,"flood_hist_n":0,"flood_depth_max_m":null,"flood_risk_100y":null,"semi_basement_r":null,"elderly_alone_r":0.1321,"bldg_age30_r":null,"shelter_min_walk":57,"pop":17994,"hh":8584,"elderly65_r":0.2019,"single_hh_r":0.4028,"source_level":"emd","flood_years":[],"landslide_hist_n":0},"geometry":{"type":"Polygon","coordinates":[[[126.97421,35.10163],[126.97338,35.09777],[126.97754,35.0957],[126.98253,35.09748],[126.98335,35.10133],[126.9792,35.10341],[126.97421,35.10163]]]}},{"type":"Feature","properties":{"h3":"8830c63521fffff","emd_code":"1221074000","emd_name":"지원2동","area_km2":0.5386,"edge":false,"slope_mean":20.92,"elev_mean":242.7,"flood_hist_n":0,"flood_depth_max_m":null,"flood_risk_100y":null,"semi_basement_r":null,"elderly_alone_r":0.1321,"bldg_age30_r":null,"shelter_min_walk":42,"pop":17994,"hh":8584,"elderly65_r":0.2019,"single_hh_r":0.4028,"source_level":"emd","flood_years":[],"landslide_hist_n":0},"geometry":{"type":"Polygon","coordinates":[[[126.95097,35.07907],[126.95014,35.07521],[126.95429,35.07314],[126.95928,35.07492],[126.96011,35.07878],[126.95595,35.08085],[126.95097,35.07907]]]}},{"type":"Feature","properties":{"h3":"8830c63525fffff","emd_code":"1221074000","emd_name":"지원2동","area_km2":0.5386,"edge":true,"slope_mean":23.47,"elev_mean":276.1,"flood_hist_n":0,"flood_depth_max_m":null,"flood_risk_100y":null,"semi_basement_r":null,"elderly_alone_r":0.1321,"bldg_age30_r":null,"shelter_min_walk":36,"pop":17994,"hh":8584,"elderly65_r":0.2019,"single_hh_r":0.4028,"source_level":"emd","flood_years":[],"landslide_hist_n":0},"geometry":{"type":"Polygon","coordinates":[[[126.94515,35.07343],[126.94433,35.06957],[126.94848,35.06749],[126.95347,35.06928],[126.95429,35.07314],[126.95014,35.07521],[126.94515,35.07343]]]}},{"type":"Feature","properties":{"h3":"8830c63529fffff","emd_code":"1221074000","emd_name":"지원2동","area_km2":0.5384,"edge":false,"slope_mean":22.41,"elev_mean":189.8,"flood_hist_n":0,"flood_depth_max_m":null,"flood_risk_100y":null,"semi_basement_r":null,"elderly_alone_r":0.1321,"bldg_age30_r":null,"shelter_min_walk":42,"pop":17994,"hh":8584,"elderly65_r":0.2019,"single_hh_r":0.4028,"source_level":"emd","flood_years":[],"landslide_hist_n":0},"geometry":{"type":"Polygon","coordinates":[[[126.94764,35.085],[126.94681,35.08115],[126.95097,35.07907],[126.95595,35.08085],[126.95678,35.08471],[126.95262,35.08679],[126.94764,35.085]]]}},{"type":"Feature","properties":{"h3":"8830c6352bfffff","emd_code":"1221074000","emd_name":"지원2동","area_km2":0.5385,"edge":true,"slope_mean":22.76,"elev_mean":245.4,"flood_hist_n":0,"flood_depth_max_m":null,"flood_risk_100y":null,"semi_basement_r":null,"elderly_alone_r":0.1321,"bldg_age30_r":null,"shelter_min_walk":46,"pop":17994,"hh":8584,"elderly65_r":0.2019,"single_hh_r":0.4028,"source_level":"emd","flood_years":[],"landslide_hist_n":0},"geometry":{"type":"Polygon","coordinates":[[[126.95678,35.08471],[126.95595,35.08085],[126.96011,35.07878],[126.96509,35.08056],[126.96592,35.08442],[126.96176,35.08649],[126.95678,35.08471]]]}},{"type":"Feature","properties":{"h3":"8830c6352dfffff","emd_code":"1221074000","emd_name":"지원2동","area_km2":0.5385,"edge":false,"slope_mean":23.98,"elev_mean":253.3,"flood_hist_n":0,"flood_depth_max_m":null,"flood_risk_100y":null,"semi_basement_r":null,"elderly_alone_r":0.1321,"bldg_age30_r":null,"shelter_min_walk":46,"pop":17994,"hh":8584,"elderly65_r":0.2019,"single_hh_r":0.4028,"source_level":"emd","flood_years":[],"landslide_hist_n":0},"geometry":{"type":"Polygon","coordinates":[[[126.94183,35.07936],[126.941,35.0755],[126.94515,35.07343],[126.95014,35.07521],[126.95097,35.07907],[126.94681,35.08115],[126.94183,35.07936]]]}},{"type":"Feature","properties":{"h3":"8830c63541fffff","emd_code":"1221074000","emd_name":"지원2동","area_km2":0.538,"edge":false,"slope_mean":25.68,"elev_mean":229.7,"flood_hist_n":0,"flood_depth_max_m":null,"flood_risk_100y":null,"semi_basement_r":null,"elderly_alone_r":0.1321,"bldg_age30_r":null,"shelter_min_walk":15,"pop":17994,"hh":8584,"elderly65_r":0.2019,"single_hh_r":0.4028,"source_level":"emd","flood_years":[],"landslide_hist_n":0},"geometry":{"type":"Polygon","coordinates":[[[126.94346,35.10844],[126.94263,35.10458],[126.94679,35.10251],[126.95177,35.10429],[126.9526,35.10815],[126.94844,35.11022],[126.94346,35.10844]]]}},{"type":"Feature","properties":{"h3":"8830c63543fffff","emd_code":"1221074000","emd_name":"지원2동","area_km2":0.5381,"edge":false,"slope_mean":28.17,"elev_mean":310.3,"flood_hist_n":0,"flood_depth_max_m":null,"flood_risk_100y":null,"semi_basement_r":null,"elderly_alone_r":0.1321,"bldg_age30_r":null,"shelter_min_walk":27,"pop":17994,"hh":8584,"elderly65_r":0.2019,"single_hh_r":0.4028,"source_level":"emd","flood_years":[],"landslide_hist_n":0},"geometry":{"type":"Polygon","coordinates":[[[126.9526,35.10815],[126.95177,35.10429],[126.95593,35.10222],[126.96091,35.104],[126.96174,35.10785],[126.95758,35.10993],[126.9526,35.10815]]]}},{"type":"Feature","properties":{"h3":"8830c63545fffff","emd_code":"1221074000","emd_name":"지원2동","area_km2":0.5381,"edge":false,"slope_mean":18.73,"elev_mean":128.0,"flood_hist_n":0,"flood_depth_max_m":null,"flood_risk_100y":null,"semi_basement_r":null,"elderly_alone_r":0.1321,"bldg_age30_r":null,"shelter_min_walk":10,"pop":17994,"hh":8584,"elderly65_r":0.2019,"single_hh_r":0.4028,"source_level":"emd","flood_years":[],"landslide_hist_n":0},"geometry":{"type":"Polygon","coordinates":[[[126.93765,35.1028],[126.93682,35.09894],[126.94098,35.09687],[126.94596,35.09865],[126.94679,35.10251],[126.94263,35.10458],[126.93765,35.1028]]]}},{"type":"Feature","properties":{"h3":"8830c63547fffff","emd_code":"1221074000","emd_name":"지원2동","area_km2":0.5381,"edge":false,"slope_mean":23.68,"elev_mean":195.1,"flood_hist_n":0,"flood_depth_max_m":null,"flood_risk_100y":null,"semi_basement_r":null,"elderly_alone_r":0.1321,"bldg_age30_r":null,"shelter_min_walk":21,"pop":17994,"hh":8584,"elderly65_r":0.2019,"single_hh_r":0.4028,"source_level":"emd","flood_years":[],"landslide_hist_n":0},"geometry":{"type":"Polygon","coordinates":[[[126.94679,35.10251],[126.94596,35.09865],[126.95012,35.09658],[126.9551,35.09836],[126.95593,35.10222],[126.95177,35.10429],[126.94679,35.10251]]]}},{"type":"Feature","properties":{"h3":"8830c63549fffff","emd_code":"1221074000","emd_name":"지원2동","area_km2":0.5379,"edge":false,"slope_mean":26.99,"elev_mean":223.4,"flood_hist_n":0,"flood_depth_max_m":null,"flood_risk_100y":null,"semi_basement_r":null,"elderly_alone_r":0.1321,"bldg_age30_r":null,"shelter_min_walk":15,"pop":17994,"hh":8584,"elderly65_r":0.2019,"single_hh_r":0.4028,"source_level":"emd","flood_years":[],"landslide_hist_n":0},"geometry":{"type":"Polygon","coordinates":[[[126.94013,35.11437],[126.9393,35.11051],[126.94346,35.10844],[126.94844,35.11022],[126.94927,35.11408],[126.94511,35.11615],[126.94013,35.11437]]]}},{"type":"Feature","properties":{"h3":"8830c6354bfffff","emd_code":"1221074000","emd_name":"지원2동","area_km2":0.538,"edge":false,"slope_mean":25.13,"elev_mean":217.6,"flood_hist_n":0,"flood_depth_max_m":null,"flood_risk_100y":null,"semi_basement_r":null,"elderly_alone_r":0.1321,"bldg_age30_r":null,"shelter_min_walk":25,"pop":17994,"hh":8584,"elderly65_r":0.2019,"single_hh_r":0.4028,"source_level":"emd","flood_years":[],"landslide_hist_n":0},"geometry":{"type":"Polygon","coordinates":[[[126.94927,35.11408],[126.94844,35.11022],[126.9526,35.10815],[126.95758,35.10993],[126.95841,35.11378],[126.95425,35.11586],[126.94927,35.11408]]]}},{"type":"Feature","properties":{"h3":"8830c6354dfffff","emd_code":"1221074000","emd_name":"지원2동","area_km2":0.538,"edge":false,"slope_mean":15.28,"elev_mean":120.2,"flood_hist_n":0,"flood_depth_max_m":null,"flood_risk_100y":null,"semi_basement_r":null,"elderly_alone_r":0.1321,"bldg_age30_r":null,"shelter_min_walk":3,"pop":17994,"hh":8584,"elderly65_r":0.2019,"single_hh_r":0.4028,"source_level":"emd","flood_years":[],"landslide_hist_n":0},"geometry":{"type":"Polygon","coordinates":[[[126.93432,35.10873],[126.93349,35.10487],[126.93765,35.1028],[126.94263,35.10458],[126.94346,35.10844],[126.9393,35.11051],[126.93432,35.10873]]]}},{"type":"Feature","properties":{"h3":"8830c63551fffff","emd_code":"1221074000","emd_name":"지원2동","area_km2":0.5381,"edge":false,"slope_mean":27.31,"elev_mean":345.1,"flood_hist_n":0,"flood_depth_max_m":null,"flood_risk_100y":null,"semi_basement_r":null,"elderly_alone_r":0.1321,"bldg_age30_r":null,"shelter_min_walk":48,"pop":17994,"hh":8584,"elderly65_r":0.2019,"single_hh_r":0.4028,"source_level":"emd","flood_years":[],"landslide_hist_n":0},"geometry":{"type":"Polygon","coordinates":[[[126.96755,35.11349],[126.96672,35.10964],[126.97088,35.10756],[126.97587,35.10934],[126.97669,35.1132],[126.97254,35.11527],[126.96755,35.11349]]]}},{"type":"Feature","properties":{"h3":"8830c63553fffff","emd_code":"1221074000","emd_name":"지원2동","area_km2":0.5381,"edge":false,"slope_mean":26.36,"elev_mean":381.3,"flood_hist_n":0,"flood_depth_max_m":null,"flood_risk_100y":null,"semi_basement_r":null,"elderly_alone_r":0.1321,"bldg_age30_r":null,"shelter_min_walk":60,"pop":17994,"hh":8584,"elderly65_r":0.2019,"single_hh_r":0.4028,"source_level":"emd","flood_years":[],"landslide_hist_n":0},"geometry":{"type":"Polygon","coordinates":[[[126.97669,35.1132],[126.97587,35.10934],[126.98002,35.10727],[126.98501,35.10905],[126.98584,35.1129],[126.98168,35.11498],[126.97669,35.1132]]]}},{"type":"Feature","properties":{"h3":"8830c63555fffff","emd_code":"1221074000","emd_name":"지원2동","area_km2":0.5381,"edge":false,"slope_mean":26.72,"elev_mean":279.5,"flood_hist_n":0,"flood_depth_max_m":null,"flood_risk_100y":null,"semi_basement_r":null,"elderly_alone_r":0.1321,"bldg_age30_r":null,"shelter_min_walk":39,"pop":17994,"hh":8584,"elderly65_r":0.2019,"single_hh_r":0.4028,"source_level":"emd","flood_years":[],"landslide_hist_n":0},"geometry":{"type":"Polygon","coordinates":[[[126.96174,35.10785],[126.96091,35.104],[126.96507,35.10192],[126.97005,35.1037],[126.97088,35.10756],[126.96672,35.10964],[126.96174,35.10785]]]}},{"type":"Feature","properties":{"h3":"8830c63557fffff","emd_code":"1221074000","emd_name":"지원2동","area_km2":0.5382,"edge":false,"slope_mean":29.54,"elev_mean":347.9,"flood_hist_n":0,"flood_depth_max_m":null,"flood_risk_100y":null,"semi_basement_r":null,"elderly_alone_r":0.1321,"bldg_age30_r":null,"shelter_min_walk":52,"pop":17994,"hh":8584,"elderly65_r":0.2019,"single_hh_r":0.4028,"source_level":"emd","flood_years":[],"landslide_hist_n":0},"geometry":{"type":"Polygon","coordinates":[[[126.97088,35.10756],[126.97005,35.1037],[126.97421,35.10163],[126.9792,35.10341],[126.98002,35.10727],[126.97587,35.10934],[126.97088,35.10756]]]}},{"type":"Feature","properties":{"h3":"8830c63559fffff","emd_code":"1221071000","emd_name":"학운동","area_km2":0.538,"edge":false,"slope_mean":28.35,"elev_mean":323.0,"flood_hist_n":0,"flood_depth_max_m":null,"flood_risk_100y":null,"semi_basement_r":null,"elderly_alone_r":0.2121,"bldg_age30_r":null,"shelter_min_walk":40,"pop":10304,"hh":4979,"elderly65_r":0.3744,"single_hh_r":0.3985,"source_level":"emd","flood_years":[],"landslide_hist_n":0},"geometry":{"type":"Polygon","coordinates":[[[126.96422,35.11942],[126.9634,35.11557],[126.96755,35.11349],[126.97254,35.11527],[126.97336,35.11913],[126.96921,35.1212],[126.96422,35.11942]]]}},{"type":"Feature","properties":{"h3":"8830c6355bfffff","emd_code":"1221071000","emd_name":"학운동","area_km2":0.538,"edge":false,"slope_mean":25.92,"elev_mean":462.7,"flood_hist_n":0,"flood_depth_max_m":null,"flood_risk_100y":null,"semi_basement_r":null,"elderly_alone_r":0.2121,"bldg_age30_r":null,"shelter_min_walk":51,"pop":10304,"hh":4979,"elderly65_r":0.3744,"single_hh_r":0.3985,"source_level":"emd","flood_years":[],"landslide_hist_n":0},"geometry":{"type":"Polygon","coordinates":[[[126.97336,35.11913],[126.97254,35.11527],[126.97669,35.1132],[126.98168,35.11498],[126.98251,35.11884],[126.97835,35.12091],[126.97336,35.11913]]]}},{"type":"Feature","properties":{"h3":"8830c6355dfffff","emd_code":"1221074000","emd_name":"지원2동","area_km2":0.538,"edge":false,"slope_mean":29.35,"elev_mean":312.7,"flood_hist_n":0,"flood_depth_max_m":null,"flood_risk_100y":null,"semi_basement_r":null,"elderly_alone_r":0.1321,"bldg_age30_r":null,"shelter_min_walk":37,"pop":17994,"hh":8584,"elderly65_r":0.2019,"single_hh_r":0.4028,"source_level":"emd","flood_years":[],"landslide_hist_n":0},"geometry":{"type":"Polygon","coordinates":[[[126.95841,35.11378],[126.95758,35.10993],[126.96174,35.10785],[126.96672,35.10964],[126.96755,35.11349],[126.9634,35.11557],[126.95841,35.11378]]]}},{"type":"Feature","properties":{"h3":"8830c63561fffff","emd_code":"1221074000","emd_name":"지원2동","area_km2":0.5383,"edge":false,"slope_mean":19.9,"elev_mean":146.1,"flood_hist_n":1,"flood_depth_max_m":0.629,"flood_risk_100y":null,"semi_basement_r":null,"elderly_alone_r":0.1321,"bldg_age30_r":null,"shelter_min_walk":27,"pop":17994,"hh":8584,"elderly65_r":0.2019,"single_hh_r":0.4028,"source_level":"emd","flood_years":[2020],"landslide_hist_n":0},"geometry":{"type":"Polygon","coordinates":[[[126.93517,35.09123],[126.93434,35.08737],[126.9385,35.0853],[126.94348,35.08708],[126.94431,35.09094],[126.94015,35.09301],[126.93517,35.09123]]]}},{"type":"Feature","properties":{"h3":"8830c63563fffff","emd_code":"1221074000","emd_name":"지원2동","area_km2":0.5383,"edge":false,"slope_mean":19.42,"elev_mean":155.4,"flood_hist_n":0,"flood_depth_max_m":null,"flood_risk_100y":null,"semi_basement_r":null,"elderly_alone_r":0.1321,"bldg_age30_r":null,"shelter_min_walk":32,"pop":17994,"hh":8584,"elderly65_r":0.2019,"single_hh_r":0.4028,"source_level":"emd","flood_years":[],"landslide_hist_n":0},"geometry":{"type":"Polygon","coordinates":[[[126.94431,35.09094],[126.94348,35.08708],[126.94764,35.085],[126.95262,35.08679],[126.95345,35.09064],[126.94929,35.09272],[126.94431,35.09094]]]}},{"type":"Feature","properties":{"h3":"8830c63565fffff","emd_code":"1221074000","emd_name":"지원2동","area_km2":0.5383,"edge":false,"slope_mean":24.02,"elev_mean":203.1,"flood_hist_n":0,"flood_depth_max_m":null,"flood_risk_100y":null,"semi_basement_r":null,"elderly_alone_r":0.1321,"bldg_age30_r":null,"shelter_min_walk":37,"pop":17994,"hh":8584,"elderly65_r":0.2019,"single_hh_r":0.4028,"source_level":"emd","flood_years":[],"landslide_hist_n":0},"geometry":{"type":"Polygon","coordinates":[[[126.92936,35.08559],[126.92853,35.08173],[126.93269,35.07965],[126.93767,35.08144],[126.9385,35.0853],[126.93434,35.08737],[126.92936,35.08559]]]}},{"type":"Feature","properties":{"h3":"8830c63567fffff","emd_code":"1221074000","emd_name":"지원2동","area_km2":0.5384,"edge":false,"slope_mean":25.34,"elev_mean":210.7,"flood_hist_n":0,"flood_depth_max_m":null,"flood_risk_100y":null,"semi_basement_r":null,"elderly_alone_r":0.1321,"bldg_age30_r":null,"shelter_min_walk":38,"pop":17994,"hh":8584,"elderly65_r":0.2019,"single_hh_r":0.4028,"source_level":"emd","flood_years":[],"landslide_hist_n":0},"geometry":{"type":"Polygon","coordinates":[[[126.9385,35.0853],[126.93767,35.08144],[126.94183,35.07936],[126.94681,35.08115],[126.94764,35.085],[126.94348,35.08708],[126.9385,35.0853]]]}},{"type":"Feature","properties":{"h3":"8830c63569fffff","emd_code":"1221074000","emd_name":"지원2동","area_km2":0.5382,"edge":false,"slope_mean":16.66,"elev_mean":135.4,"flood_hist_n":0,"flood_depth_max_m":null,"flood_risk_100y":null,"semi_basement_r":null,"elderly_alone_r":0.1321,"bldg_age30_r":null,"shelter_min_walk":17,"pop":17994,"hh":8584,"elderly65_r":0.2019,"single_hh_r":0.4028,"source_level":"emd","flood_years":[],"landslide_hist_n":0},"geometry":{"type":"Polygon","coordinates":[[[126.93184,35.09716],[126.93101,35.0933],[126.93517,35.09123],[126.94015,35.09301],[126.94098,35.09687],[126.93682,35.09894],[126.93184,35.09716]]]}},{"type":"Feature","properties":{"h3":"8830c6356bfffff","emd_code":"1221074000","emd_name":"지원2동","area_km2":0.5382,"edge":false,"slope_mean":21.02,"elev_mean":167.9,"flood_hist_n":0,"flood_depth_max_m":null,"flood_risk_100y":null,"semi_basement_r":null,"elderly_alone_r":0.1321,"bldg_age30_r":null,"shelter_min_walk":21,"pop":17994,"hh":8584,"elderly65_r":0.2019,"single_hh_r":0.4028,"source_level":"emd","flood_years":[],"landslide_hist_n":0},"geometry":{"type":"Polygon","coordinates":[[[126.94098,35.09687],[126.94015,35.09301],[126.94431,35.09094],[126.94929,35.09272],[126.95012,35.09658],[126.94596,35.09865],[126.94098,35.09687]]]}},{"type":"Feature","properties":{"h3":"8830c6356dfffff","emd_code":"1221074000","emd_name":"지원2동","area_km2":0.5382,"edge":false,"slope_mean":21.85,"elev_mean":188.5,"flood_hist_n":0,"flood_depth_max_m":null,"flood_risk_100y":null,"semi_basement_r":null,"elderly_alone_r":0.1321,"bldg_age30_r":null,"shelter_min_walk":28,"pop":17994,"hh":8584,"elderly65_r":0.2019,"single_hh_r":0.4028,"source_level":"emd","flood_years":[],"landslide_hist_n":0},"geometry":{"type":"Polygon","coordinates":[[[126.92603,35.09152],[126.9252,35.08766],[126.92936,35.08559],[126.93434,35.08737],[126.93517,35.09123],[126.93101,35.0933],[126.92603,35.09152]]]}},{"type":"Feature","properties":{"h3":"8830c63701fffff","emd_code":"1221071000","emd_name":"학운동","area_km2":0.5375,"edge":false,"slope_mean":14.46,"elev_mean":111.6,"flood_hist_n":0,"flood_depth_max_m":null,"flood_risk_100y":null,"semi_basement_r":null,"elderly_alone_r":0.2121,"bldg_age30_r":null,"shelter_min_walk":3,"pop":10304,"hh":4979,"elderly65_r":0.3744,"single_hh_r":0.3985,"source_level":"emd","flood_years":[],"landslide_hist_n":0},"geometry":{"type":"Polygon","coordinates":[[[126.93595,35.13779],[126.93513,35.13393],[126.93928,35.13186],[126.94427,35.13364],[126.94509,35.1375],[126.94094,35.13957],[126.93595,35.13779]]]}},{"type":"Feature","properties":{"h3":"8830c63703fffff","emd_code":"1221071000","emd_name":"학운동","area_km2":0.5376,"edge":false,"slope_mean":20.87,"elev_mean":157.7,"flood_hist_n":0,"flood_depth_max_m":null,"flood_risk_100y":null,"semi_basement_r":null,"elderly_alone_r":0.2121,"bldg_age30_r":null,"shelter_min_walk":7,"pop":10304,"hh":4979,"elderly65_r":0.3744,"single_hh_r":0.3985,"source_level":"emd","flood_years":[],"landslide_hist_n":0},"geometry":{"type":"Polygon","coordinates":[[[126.94509,35.1375],[126.94427,35.13364],[126.94842,35.13157],[126.95341,35.13335],[126.95423,35.13721],[126.95008,35.13928],[126.94509,35.1375]]]}},{"type":"Feature","properties":{"h3":"8830c63705fffff","emd_code":"1221073000","emd_name":"지원1동","area_km2":0.5376,"edge":false,"slope_mean":7.46,"elev_mean":77.6,"flood_hist_n":1,"flood_depth_max_m":0.573,"flood_risk_100y":null,"semi_basement_r":null,"elderly_alone_r":0.1665,"bldg_age30_r":null,"shelter_min_walk":3,"pop":8658,"hh":4090,"elderly65_r":0.2683,"single_hh_r":0.389,"source_level":"emd","flood_years":[2020],"landslide_hist_n":0},"geometry":{"type":"Polygon","coordinates":[[[126.93014,35.13215],[126.92932,35.1283],[126.93347,35.12622],[126.93846,35.12801],[126.93928,35.13186],[126.93513,35.13393],[126.93014,35.13215]]]}},{"type":"Feature","properties":{"h3":"8830c63707fffff","emd_code":"1221073000","emd_name":"지원1동","area_km2":0.5376,"edge":false,"slope_mean":17.23,"elev_mean":136.4,"flood_hist_n":1,"flood_depth_max_m":0.271,"flood_risk_100y":null,"semi_basement_r":null,"elderly_alone_r":0.1665,"bldg_age30_r":null,"shelter_min_walk":5,"pop":8658,"hh":4090,"elderly65_r":0.2683,"single_hh_r":0.389,"source_level":"emd","flood_years":[2020],"landslide_hist_n":0},"geometry":{"type":"Polygon","coordinates":[[[126.93928,35.13186],[126.93846,35.12801],[126.94261,35.12593],[126.9476,35.12772],[126.94842,35.13157],[126.94427,35.13364],[126.93928,35.13186]]]}},{"type":"Feature","properties":{"h3":"8830c63709fffff","emd_code":"1221065500","emd_name":"서남동","area_km2":0.5374,"edge":false,"slope_mean":18.34,"elev_mean":134.9,"flood_hist_n":0,"flood_depth_max_m":null,"flood_risk_100y":null,"semi_basement_r":null,"elderly_alone_r":0.123,"bldg_age30_r":null,"shelter_min_walk":10,"pop":3495,"hh":2846,"elderly65_r":0.1994,"single_hh_r":0.851,"source_level":"emd","flood_years":[],"landslide_hist_n":0},"geometry":{"type":"Polygon","coordinates":[[[126.93262,35.14371],[126.9318,35.13986],[126.93595,35.13779],[126.94094,35.13957],[126.94176,35.14342],[126.93761,35.14549],[126.93262,35.14371]]]}},{"type":"Feature","properties":{"h3":"8830c6370bfffff","emd_code":"1221071000","emd_name":"학운동","area_km2":0.5374,"edge":false,"slope_mean":23.8,"elev_mean":221.5,"flood_hist_n":0,"flood_depth_max_m":null,"flood_risk_100y":null,"semi_basement_r":null,"elderly_alone_r":0.2121,"bldg_age30_r":null,"shelter_min_walk":11,"pop":10304,"hh":4979,"elderly65_r":0.3744,"single_hh_r":0.3985,"source_level":"emd","flood_years":[],"landslide_hist_n":0},"geometry":{"type":"Polygon","coordinates":[[[126.94176,35.14342],[126.94094,35.13957],[126.94509,35.1375],[126.95008,35.13928],[126.9509,35.14313],[126.94675,35.1452],[126.94176,35.14342]]]}},{"type":"Feature","properties":{"h3":"8830c6370dfffff","emd_code":"1221071000","emd_name":"학운동","area_km2":0.5375,"edge":false,"slope_mean":10.47,"elev_mean":87.1,"flood_hist_n":0,"flood_depth_max_m":null,"flood_risk_100y":null,"semi_basement_r":null,"elderly_alone_r":0.2121,"bldg_age30_r":null,"shelter_min_walk":4,"pop":10304,"hh":4979,"elderly65_r":0.3744,"single_hh_r":0.3985,"source_level":"emd","flood_years":[],"landslide_hist_n":0},"geometry":{"type":"Polygon","coordinates":[[[126.92681,35.13808],[126.92599,35.13422],[126.93014,35.13215],[126.93513,35.13393],[126.93595,35.13779],[126.9318,35.13986],[126.92681,35.13808]]]}},{"type":"Feature","properties":{"h3":"8830c63711fffff","emd_code":"1221071000","emd_name":"학운동","area_km2":0.5376,"edge":true,"slope_mean":24.16,"elev_mean":329.0,"flood_hist_n":0,"flood_depth_max_m":null,"flood_risk_100y":null,"semi_basement_r":null,"elderly_alone_r":0.2121,"bldg_age30_r":null,"shelter_min_walk":29,"pop":10304,"hh":4979,"elderly65_r":0.3744,"single_hh_r":0.3985,"source_level":"emd","flood_years":[],"landslide_hist_n":0},"geometry":{"type":"Polygon","coordinates":[[[126.96005,35.14284],[126.95922,35.13899],[126.96338,35.13691],[126.96836,35.1387],[126.96919,35.14255],[126.96503,35.14462],[126.96005,35.14284]]]}},{"type":"Feature","properties":{"h3":"8830c63713fffff","emd_code":"1221071000","emd_name":"학운동","area_km2":0.5376,"edge":true,"slope_mean":23.18,"elev_mean":440.2,"flood_hist_n":0,"flood_depth_max_m":null,"flood_risk_100y":null,"semi_basement_r":null,"elderly_alone_r":0.2121,"bldg_age30_r":null,"shelter_min_walk":40,"pop":10304,"hh":4979,"elderly65_r":0.3744,"single_hh_r":0.3985,"source_level":"emd","flood_years":[],"landslide_hist_n":0},"geometry":{"type":"Polygon","coordinates":[[[126.96919,35.14255],[126.96836,35.1387],[126.97252,35.13662],[126.9775,35.1384],[126.97833,35.14226],[126.97417,35.14433],[126.96919,35.14255]]]}},{"type":"Feature","properties":{"h3":"8830c63715fffff","emd_code":"1221071000","emd_name":"학운동","area_km2":0.5376,"edge":false,"slope_mean":20.55,"elev_mean":176.9,"flood_hist_n":0,"flood_depth_max_m":null,"flood_risk_100y":null,"semi_basement_r":null,"elderly_alone_r":0.2121,"bldg_age30_r":null,"shelter_min_walk":18,"pop":10304,"hh":4979,"elderly65_r":0.3744,"single_hh_r":0.3985,"source_level":"emd","flood_years":[],"landslide_hist_n":0},"geometry":{"type":"Polygon","coordinates":[[[126.95423,35.13721],[126.95341,35.13335],[126.95756,35.13128],[126.96255,35.13306],[126.96338,35.13691],[126.95922,35.13899],[126.95423,35.13721]]]}},{"type":"Feature","properties":{"h3":"8830c63717fffff","emd_code":"1221071000","emd_name":"학운동","area_km2":0.5377,"edge":false,"slope_mean":25.12,"elev_mean":308.3,"flood_hist_n":0,"flood_depth_max_m":null,"flood_risk_100y":null,"semi_basement_r":null,"elderly_alone_r":0.2121,"bldg_age30_r":null,"shelter_min_walk":30,"pop":10304,"hh":4979,"elderly65_r":0.3744,"single_hh_r":0.3985,"source_level":"emd","flood_years":[],"landslide_hist_n":0},"geometry":{"type":"Polygon","coordinates":[[[126.96338,35.13691],[126.96255,35.13306],[126.96671,35.13099],[126.97169,35.13277],[126.97252,35.13662],[126.96836,35.1387],[126.96338,35.13691]]]}},{"type":"Feature","properties":{"h3":"8830c63719fffff","emd_code":"1221063000","emd_name":"지산2동","area_km2":0.5374,"edge":true,"slope_mean":20.24,"elev_mean":275.0,"flood_hist_n":0,"flood_depth_max_m":null,"flood_risk_100y":null,"semi_basement_r":null,"elderly_alone_r":0.1553,"bldg_age30_r":null,"shelter_min_walk":31,"pop":4016,"hh":2351,"elderly65_r":0.2869,"single_hh_r":0.5985,"source_level":"emd","flood_years":[],"landslide_hist_n":0},"geometry":{"type":"Polygon","coordinates":[[[126.95672,35.14877],[126.95589,35.14491],[126.96005,35.14284],[126.96503,35.14462],[126.96586,35.14848],[126.9617,35.15055],[126.95672,35.14877]]]}},{"type":"Feature","properties":{"h3":"8830c6371dfffff","emd_code":"1221071000","emd_name":"학운동","area_km2":0.5375,"edge":false,"slope_mean":23.42,"elev_mean":260.4,"flood_hist_n":0,"flood_depth_max_m":null,"flood_risk_100y":null,"semi_basement_r":null,"elderly_alone_r":0.2121,"bldg_age30_r":null,"shelter_min_walk":20,"pop":10304,"hh":4979,"elderly65_r":0.3744,"single_hh_r":0.3985,"source_level":"emd","flood_years":[],"landslide_hist_n":0},"geometry":{"type":"Polygon","coordinates":[[[126.9509,35.14313],[126.95008,35.13928],[126.95423,35.13721],[126.95922,35.13899],[126.96005,35.14284],[126.95589,35.14491],[126.9509,35.14313]]]}},{"type":"Feature","properties":{"h3":"8830c63721fffff","emd_code":"1221074000","emd_name":"지원2동","area_km2":0.5378,"edge":false,"slope_mean":15.18,"elev_mean":97.1,"flood_hist_n":1,"flood_depth_max_m":0.702,"flood_risk_100y":null,"semi_basement_r":null,"elderly_alone_r":0.1321,"bldg_age30_r":null,"shelter_min_walk":1,"pop":17994,"hh":8584,"elderly65_r":0.2019,"single_hh_r":0.4028,"source_level":"emd","flood_years":[2020],"landslide_hist_n":0},"geometry":{"type":"Polygon","coordinates":[[[126.92766,35.12059],[126.92683,35.11673],[126.93099,35.11466],[126.93597,35.11644],[126.9368,35.1203],[126.93264,35.12237],[126.92766,35.12059]]]}},{"type":"Feature","properties":{"h3":"8830c63723fffff","emd_code":"1221074000","emd_name":"지원2동","area_km2":0.5378,"edge":false,"slope_mean":24.94,"elev_mean":164.8,"flood_hist_n":0,"flood_depth_max_m":null,"flood_risk_100y":null,"semi_basement_r":null,"elderly_alone_r":0.1321,"bldg_age30_r":null,"shelter_min_walk":10,"pop":17994,"hh":8584,"elderly65_r":0.2019,"single_hh_r":0.4028,"source_level":"emd","flood_years":[],"landslide_hist_n":0},"geometry":{"type":"Polygon","coordinates":[[[126.9368,35.1203],[126.93597,35.11644],[126.94013,35.11437],[126.94511,35.11615],[126.94594,35.12001],[126.94178,35.12208],[126.9368,35.1203]]]}},{"type":"Feature","properties":{"h3":"8830c63725fffff","emd_code":"1221074000","emd_name":"지원2동","area_km2":0.5378,"edge":false,"slope_mean":21.7,"elev_mean":158.8,"flood_hist_n":1,"flood_depth_max_m":0.672,"flood_risk_100y":null,"semi_basement_r":null,"elderly_alone_r":0.1321,"bldg_age30_r":null,"shelter_min_walk":11,"pop":17994,"hh":8584,"elderly65_r":0.2019,"single_hh_r":0.4028,"source_level":"emd","flood_years":[2020],"landslide_hist_n":0},"geometry":{"type":"Polygon","coordinates":[[[126.92185,35.11495],[126.92102,35.11109],[126.92518,35.10902],[126.93016,35.1108],[126.93099,35.11466],[126.92683,35.11673],[126.92185,35.11495]]]}},{"type":"Feature","properties":{"h3":"8830c63727fffff","emd_code":"1221074000","emd_name":"지원2동","area_km2":0.5379,"edge":false,"slope_mean":19.03,"elev_mean":120.0,"flood_hist_n":1,"flood_depth_max_m":0.525,"flood_risk_100y":null,"semi_basement_r":null,"elderly_alone_r":0.1321,"bldg_age30_r":null,"shelter_min_walk":11,"pop":17994,"hh":8584,"elderly65_r":0.2019,"single_hh_r":0.4028,"source_level":"emd","flood_years":[2020],"landslide_hist_n":0},"geometry":{"type":"Polygon","coordinates":[[[126.93099,35.11466],[126.93016,35.1108],[126.93432,35.10873],[126.9393,35.11051],[126.94013,35.11437],[126.93597,35.11644],[126.93099,35.11466]]]}},{"type":"Feature","properties":{"h3":"8830c63729fffff","emd_code":"1221074000","emd_name":"지원2동","area_km2":0.5376,"edge":false,"slope_mean":14.01,"elev_mean":105.9,"flood_hist_n":1,"flood_depth_max_m":0.573,"flood_risk_100y":null,"semi_basement_r":null,"elderly_alone_r":0.1321,"bldg_age30_r":null,"shelter_min_walk":5,"pop":17994,"hh":8584,"elderly65_r":0.2019,"single_hh_r":0.4028,"source_level":"emd","flood_years":[2020],"landslide_hist_n":2},"geometry":{"type":"Polygon","coordinates":[[[126.92433,35.12651],[126.92351,35.12266],[126.92766,35.12059],[126.93264,35.12237],[126.93347,35.12622],[126.92932,35.1283],[126.92433,35.12651]]]}},{"type":"Feature","properties":{"h3":"8830c6372bfffff","emd_code":"1221074000","emd_name":"지원2동","area_km2":0.5377,"edge":false,"slope_mean":13.97,"elev_mean":107.4,"flood_hist_n":1,"flood_depth_max_m":0.679,"flood_risk_100y":null,"semi_basement_r":null,"elderly_alone_r":0.1321,"bldg_age30_r":null,"shelter_min_walk":5,"pop":17994,"hh":8584,"elderly65_r":0.2019,"single_hh_r":0.4028,"source_level":"emd","flood_years":[2020],"landslide_hist_n":0},"geometry":{"type":"Polygon","coordinates":[[[126.93347,35.12622],[126.93264,35.12237],[126.9368,35.1203],[126.94178,35.12208],[126.94261,35.12593],[126.93846,35.12801],[126.93347,35.12622]]]}},{"type":"Feature","properties":{"h3":"8830c6372dfffff","emd_code":"1221074000","emd_name":"지원2동","area_km2":0.5377,"edge":false,"slope_mean":15.43,"elev_mean":111.4,"flood_hist_n":1,"flood_depth_max_m":1.129,"flood_risk_100y":null,"semi_basement_r":null,"elderly_alone_r":0.1321,"bldg_age30_r":null,"shelter_min_walk":9,"pop":17994,"hh":8584,"elderly65_r":0.2019,"single_hh_r":0.4028,"source_level":"emd","flood_years":[2020],"landslide_hist_n":0},"geometry":{"type":"Polygon","coordinates":[[[126.91852,35.12088],[126.9177,35.11702],[126.92185,35.11495],[126.92683,35.11673],[126.92766,35.12059],[126.92351,35.12266],[126.91852,35.12088]]]}},{"type":"Feature","properties":{"h3":"8830c63731fffff","emd_code":"1221071000","emd_name":"학운동","area_km2":0.5378,"edge":false,"slope_mean":23.77,"elev_mean":195.9,"flood_hist_n":0,"flood_depth_max_m":null,"flood_risk_100y":null,"semi_basement_r":null,"elderly_alone_r":0.2121,"bldg_age30_r":null,"shelter_min_walk":20,"pop":10304,"hh":4979,"elderly65_r":0.3744,"single_hh_r":0.3985,"source_level":"emd","flood_years":[],"landslide_hist_n":0},"geometry":{"type":"Polygon","coordinates":[[[126.95175,35.12564],[126.95092,35.12179],[126.95508,35.11971],[126.96007,35.1215],[126.96089,35.12535],[126.95674,35.12742],[126.95175,35.12564]]]}},{"type":"Feature","properties":{"h3":"8830c63733fffff","emd_code":"1221071000","emd_name":"학운동","area_km2":0.5378,"edge":false,"slope_mean":27.45,"elev_mean":336.3,"flood_hist_n":0,"flood_depth_max_m":null,"flood_risk_100y":null,"semi_basement_r":null,"elderly_alone_r":0.2121,"bldg_age30_r":null,"shelter_min_walk":31,"pop":10304,"hh":4979,"elderly65_r":0.3744,"single_hh_r":0.3985,"source_level":"emd","flood_years":[],"landslide_hist_n":0},"geometry":{"type":"Polygon","coordinates":[[[126.96089,35.12535],[126.96007,35.1215],[126.96422,35.11942],[126.96921,35.1212],[126.97003,35.12506],[126.96588,35.12713],[126.96089,35.12535]]]}},{"type":"Feature","properties":{"h3":"8830c63735fffff","emd_code":"1221074000","emd_name":"지원2동","area_km2":0.5379,"edge":false,"slope_mean":24.95,"elev_mean":198.8,"flood_hist_n":0,"flood_depth_max_m":null,"flood_risk_100y":null,"semi_basement_r":null,"elderly_alone_r":0.1321,"bldg_age30_r":null,"shelter_min_walk":22,"pop":17994,"hh":8584,"elderly65_r":0.2019,"single_hh_r":0.4028,"source_level":"emd","flood_years":[],"landslide_hist_n":0},"geometry":{"type":"Polygon","coordinates":[[[126.94594,35.12001],[126.94511,35.11615],[126.94927,35.11408],[126.95425,35.11586],[126.95508,35.11971],[126.95092,35.12179],[126.94594,35.12001]]]}},{"type":"Feature","properties":{"h3":"8830c63737fffff","emd_code":"1221071000","emd_name":"학운동","area_km2":0.5379,"edge":false,"slope_mean":26.01,"elev_mean":235.9,"flood_hist_n":0,"flood_depth_max_m":null,"flood_risk_100y":null,"semi_basement_r":null,"elderly_alone_r":0.2121,"bldg_age30_r":null,"shelter_min_walk":31,"pop":10304,"hh":4979,"elderly65_r":0.3744,"single_hh_r":0.3985,"source_level":"emd","flood_years":[],"landslide_hist_n":0},"geometry":{"type":"Polygon","coordinates":[[[126.95508,35.11971],[126.95425,35.11586],[126.95841,35.11378],[126.9634,35.11557],[126.96422,35.11942],[126.96007,35.1215],[126.95508,35.11971]]]}},{"type":"Feature","properties":{"h3":"8830c63739fffff","emd_code":"1221071000","emd_name":"학운동","area_km2":0.5377,"edge":false,"slope_mean":25.55,"elev_mean":165.1,"flood_hist_n":1,"flood_depth_max_m":0.195,"flood_risk_100y":null,"semi_basement_r":null,"elderly_alone_r":0.2121,"bldg_age30_r":null,"shelter_min_walk":11,"pop":10304,"hh":4979,"elderly65_r":0.3744,"single_hh_r":0.3985,"source_level":"emd","flood_years":[2020],"landslide_hist_n":0},"geometry":{"type":"Polygon","coordinates":[[[126.94842,35.13157],[126.9476,35.12772],[126.95175,35.12564],[126.95674,35.12742],[126.95756,35.13128],[126.95341,35.13335],[126.94842,35.13157]]]}},{"type":"Feature","properties":{"h3":"8830c6373bfffff","emd_code":"1221071000","emd_name":"학운동","area_km2":0.5377,"edge":false,"slope_mean":22.7,"elev_mean":223.7,"flood_hist_n":0,"flood_depth_max_m":null,"flood_risk_100y":null,"semi_basement_r":null,"elderly_alone_r":0.2121,"bldg_age30_r":null,"shelter_min_walk":23,"pop":10304,"hh":4979,"elderly65_r":0.3744,"single_hh_r":0.3985,"source_level":"emd","flood_years":[],"landslide_hist_n":0},"geometry":{"type":"Polygon","coordinates":[[[126.95756,35.13128],[126.95674,35.12742],[126.96089,35.12535],[126.96588,35.12713],[126.96671,35.13099],[126.96255,35.13306],[126.95756,35.13128]]]}},{"type":"Feature","properties":{"h3":"8830c6373dfffff","emd_code":"1221074000","emd_name":"지원2동","area_km2":0.5377,"edge":false,"slope_mean":25.79,"elev_mean":235.7,"flood_hist_n":0,"flood_depth_max_m":null,"flood_risk_100y":null,"semi_basement_r":null,"elderly_alone_r":0.1321,"bldg_age30_r":null,"shelter_min_walk":14,"pop":17994,"hh":8584,"elderly65_r":0.2019,"single_hh_r":0.4028,"source_level":"emd","flood_years":[],"landslide_hist_n":0},"geometry":{"type":"Polygon","coordinates":[[[126.94261,35.12593],[126.94178,35.12208],[126.94594,35.12001],[126.95092,35.12179],[126.95175,35.12564],[126.9476,35.12772],[126.94261,35.12593]]]}},{"type":"Feature","properties":{"h3":"8830c63741fffff","emd_code":"1221065500","emd_name":"서남동","area_km2":0.5372,"edge":false,"slope_mean":3.41,"elev_mean":55.2,"flood_hist_n":0,"flood_depth_max_m":null,"flood_risk_100y":null,"semi_basement_r":null,"elderly_alone_r":0.123,"bldg_age30_r":null,"shelter_min_walk":2,"pop":3495,"hh":2846,"elderly65_r":0.1994,"single_hh_r":0.851,"source_level":"emd","flood_years":[],"landslide_hist_n":0},"geometry":{"type":"Polygon","coordinates":[[[126.92015,35.14992],[126.91933,35.14607],[126.92348,35.144],[126.92847,35.14578],[126.92929,35.14964],[126.92514,35.15171],[126.92015,35.14992]]]}},{"type":"Feature","properties":{"h3":"8830c63743fffff","emd_code":"1221063000","emd_name":"지산2동","area_km2":0.5373,"edge":false,"slope_mean":7.79,"elev_mean":86.4,"flood_hist_n":0,"flood_depth_max_m":null,"flood_risk_100y":null,"semi_basement_r":null,"elderly_alone_r":0.1553,"bldg_age30_r":null,"shelter_min_walk":3,"pop":4016,"hh":2351,"elderly65_r":0.2869,"single_hh_r":0.5985,"source_level":"emd","flood_years":[],"landslide_hist_n":0},"geometry":{"type":"Polygon","coordinates":[[[126.92929,35.14964],[126.92847,35.14578],[126.93262,35.14371],[126.93761,35.14549],[126.93843,35.14935],[126.93428,35.15142],[126.92929,35.14964]]]}},{"type":"Feature","properties":{"h3":"8830c63745fffff","emd_code":"1221065500","emd_name":"서남동","area_km2":0.5373,"edge":false,"slope_mean":4.5,"elev_mean":53.0,"flood_hist_n":0,"flood_depth_max_m":null,"flood_risk_100y":null,"semi_basement_r":null,"elderly_alone_r":0.123,"bldg_age30_r":null,"shelter_min_walk":3,"pop":3495,"hh":2846,"elderly65_r":0.1994,"single_hh_r":0.851,"source_level":"emd","flood_years":[],"landslide_hist_n":0},"geometry":{"type":"Polygon","coordinates":[[[126.91435,35.14429],[126.91352,35.14044],[126.91767,35.13836],[126.92266,35.14015],[126.92348,35.144],[126.91933,35.14607],[126.91435,35.14429]]]}},{"type":"Feature","properties":{"h3":"8830c63747fffff","emd_code":"1221065500","emd_name":"서남동","area_km2":0.5373,"edge":false,"slope_mean":6.23,"elev_mean":66.4,"flood_hist_n":0,"flood_depth_max_m":null,"flood_risk_100y":null,"semi_basement_r":null,"elderly_alone_r":0.123,"bldg_age30_r":null,"shelter_min_walk":7,"pop":3495,"hh":2846,"elderly65_r":0.1994,"single_hh_r":0.851,"source_level":"emd","flood_years":[],"landslide_hist_n":0},"geometry":{"type":"Polygon","coordinates":[[[126.92348,35.144],[126.92266,35.14015],[126.92681,35.13808],[126.9318,35.13986],[126.93262,35.14371],[126.92847,35.14578],[126.92348,35.144]]]}},{"type":"Feature","properties":{"h3":"8830c63749fffff","emd_code":"1221054500","emd_name":"동명동","area_km2":0.5371,"edge":false,"slope_mean":3.13,"elev_mean":50.7,"flood_hist_n":0,"flood_depth_max_m":null,"flood_risk_100y":null,"semi_basement_r":null,"elderly_alone_r":0.18,"bldg_age30_r":null,"shelter_min_walk":2,"pop":3437,"hh":2439,"elderly65_r":0.2976,"single_hh_r":0.7396,"source_level":"emd","flood_years":[],"landslide_hist_n":0},"geometry":{"type":"Polygon","coordinates":[[[126.91683,35.15585],[126.916,35.15199],[126.92015,35.14992],[126.92514,35.15171],[126.92597,35.15556],[126.92181,35.15763],[126.91683,35.15585]]]}},{"type":"Feature","properties":{"h3":"8830c6374bfffff","emd_code":"1221059000","emd_name":"산수1동","area_km2":0.5372,"edge":false,"slope_mean":3.88,"elev_mean":64.6,"flood_hist_n":0,"flood_depth_max_m":null,"flood_risk_100y":null,"semi_basement_r":null,"elderly_alone_r":0.2106,"bldg_age30_r":null,"shelter_min_walk":2,"pop":7460,"hh":4113,"elderly65_r":0.271,"single_hh_r":0.5402,"source_level":"emd","flood_years":[],"landslide_hist_n":0},"geometry":{"type":"Polygon","coordinates":[[[126.92597,35.15556],[126.92514,35.15171],[126.92929,35.14964],[126.93428,35.15142],[126.93511,35.15527],[126.93095,35.15734],[126.92597,35.15556]]]}},{"type":"Feature","properties":{"h3":"8830c6374dfffff","emd_code":"1221052500","emd_name":"충장동","area_km2":0.5372,"edge":false,"slope_mean":4.58,"elev_mean":49.4,"flood_hist_n":0,"flood_depth_max_m":null,"flood_risk_100y":null,"semi_basement_r":null,"elderly_alone_r":0.1329,"bldg_age30_r":null,"shelter_min_walk":3,"pop":5909,"hh":4621,"elderly65_r":0.1999,"single_hh_r":0.8078,"source_level":"emd","flood_years":[],"landslide_hist_n":0},"geometry":{"type":"Polygon","coordinates":[[[126.91102,35.15021],[126.91019,35.14636],[126.91435,35.14429],[126.91933,35.14607],[126.92015,35.14992],[126.916,35.15199],[126.91102,35.15021]]]}},{"type":"Feature","properties":{"h3":"8830c63751fffff","emd_code":"1221063000","emd_name":"지산2동","area_km2":0.5373,"edge":false,"slope_mean":24.89,"elev_mean":232.7,"flood_hist_n":0,"flood_depth_max_m":null,"flood_risk_100y":null,"semi_basement_r":null,"elderly_alone_r":0.1553,"bldg_age30_r":null,"shelter_min_walk":13,"pop":4016,"hh":2351,"elderly65_r":0.2869,"single_hh_r":0.5985,"source_level":"emd","flood_years":[],"landslide_hist_n":0},"geometry":{"type":"Polygon","coordinates":[[[126.94425,35.15498],[126.94342,35.15113],[126.94758,35.14906],[126.95256,35.15084],[126.95339,35.15469],[126.94923,35.15676],[126.94425,35.15498]]]}},{"type":"Feature","properties":{"h3":"8830c63753fffff","emd_code":"1221063000","emd_name":"지산2동","area_km2":0.5373,"edge":true,"slope_mean":21.33,"elev_mean":237.2,"flood_hist_n":0,"flood_depth_max_m":null,"flood_risk_100y":null,"semi_basement_r":null,"elderly_alone_r":0.1553,"bldg_age30_r":null,"shelter_min_walk":25,"pop":4016,"hh":2351,"elderly65_r":0.2869,"single_hh_r":0.5985,"source_level":"emd","flood_years":[],"landslide_hist_n":0},"geometry":{"type":"Polygon","coordinates":[[[126.95339,35.15469],[126.95256,35.15084],[126.95672,35.14877],[126.9617,35.15055],[126.96253,35.1544],[126.95837,35.15647],[126.95339,35.15469]]]}},{"type":"Feature","properties":{"h3":"8830c63755fffff","emd_code":"1221063000","emd_name":"지산2동","area_km2":0.5373,"edge":false,"slope_mean":19.0,"elev_mean":149.4,"flood_hist_n":1,"flood_depth_max_m":0.986,"flood_risk_100y":null,"semi_basement_r":null,"elderly_alone_r":0.1553,"bldg_age30_r":null,"shelter_min_walk":6,"pop":4016,"hh":2351,"elderly65_r":0.2869,"single_hh_r":0.5985,"source_level":"emd","flood_years":[2020],"landslide_hist_n":0},"geometry":{"type":"Polygon","coordinates":[[[126.93843,35.14935],[126.93761,35.14549],[126.94176,35.14342],[126.94675,35.1452],[126.94758,35.14906],[126.94342,35.15113],[126.93843,35.14935]]]}},{"type":"Feature","properties":{"h3":"8830c63757fffff","emd_code":"1221063000","emd_name":"지산2동","area_km2":0.5374,"edge":false,"slope_mean":23.94,"elev_mean":257.7,"flood_hist_n":0,"flood_depth_max_m":null,"flood_risk_100y":null,"semi_basement_r":null,"elderly_alone_r":0.1553,"bldg_age30_r":null,"shelter_min_walk":18,"pop":4016,"hh":2351,"elderly65_r":0.2869,"single_hh_r":0.5985,"source_level":"emd","flood_years":[],"landslide_hist_n":0},"geometry":{"type":"Polygon","coordinates":[[[126.94758,35.14906],[126.94675,35.1452],[126.9509,35.14313],[126.95589,35.14491],[126.95672,35.14877],[126.95256,35.15084],[126.94758,35.14906]]]}},{"type":"Feature","properties":{"h3":"8830c63759fffff","emd_code":"1221060000","emd_name":"산수2동","area_km2":0.5372,"edge":true,"slope_mean":24.04,"elev_mean":217.0,"flood_hist_n":0,"flood_depth_max_m":null,"flood_risk_100y":null,"semi_basement_r":null,"elderly_alone_r":0.1896,"bldg_age30_r":null,"shelter_min_walk":8,"pop":9137,"hh":4473,"elderly65_r":0.319,"single_hh_r":0.4125,"source_level":"emd","flood_years":[],"landslide_hist_n":0},"geometry":{"type":"Polygon","coordinates":[[[126.94092,35.1609],[126.94009,35.15705],[126.94425,35.15498],[126.94923,35.15676],[126.95006,35.16061],[126.9459,35.16269],[126.94092,35.1609]]]}},{"type":"Feature","properties":{"h3":"8830c6375dfffff","emd_code":"1221060000","emd_name":"산수2동","area_km2":0.5372,"edge":false,"slope_mean":13.27,"elev_mean":118.7,"flood_hist_n":0,"flood_depth_max_m":null,"flood_risk_100y":null,"semi_basement_r":null,"elderly_alone_r":0.1896,"bldg_age30_r":null,"shelter_min_walk":3,"pop":9137,"hh":4473,"elderly65_r":0.319,"single_hh_r":0.4125,"source_level":"emd","flood_years":[],"landslide_hist_n":0},"geometry":{"type":"Polygon","coordinates":[[[126.93511,35.15527],[126.93428,35.15142],[126.93843,35.14935],[126.94342,35.15113],[126.94425,35.15498],[126.94009,35.15705],[126.93511,35.15527]]]}},{"type":"Feature","properties":{"h3":"8830c63763fffff","emd_code":"1221068500","emd_name":"학동","area_km2":0.5375,"edge":true,"slope_mean":8.84,"elev_mean":74.7,"flood_hist_n":1,"flood_depth_max_m":0.573,"flood_risk_100y":null,"semi_basement_r":null,"elderly_alone_r":0.1592,"bldg_age30_r":null,"shelter_min_walk":2,"pop":6955,"hh":3379,"elderly65_r":0.2568,"single_hh_r":0.4273,"source_level":"emd","flood_years":[2020],"landslide_hist_n":0},"geometry":{"type":"Polygon","coordinates":[[[126.921,35.13244],[126.92018,35.12859],[126.92433,35.12651],[126.92932,35.1283],[126.93014,35.13215],[126.92599,35.13422],[126.921,35.13244]]]}},{"type":"Feature","properties":{"h3":"8830c6376bfffff","emd_code":"1221068500","emd_name":"학동","area_km2":0.5374,"edge":false,"slope_mean":4.9,"elev_mean":58.4,"flood_hist_n":0,"flood_depth_max_m":null,"flood_risk_100y":null,"semi_basement_r":null,"elderly_alone_r":0.1592,"bldg_age30_r":null,"shelter_min_walk":2,"pop":6955,"hh":3379,"elderly65_r":0.2568,"single_hh_r":0.4273,"source_level":"emd","flood_years":[],"landslide_hist_n":0},"geometry":{"type":"Polygon","coordinates":[[[126.91767,35.13836],[126.91685,35.13451],[126.921,35.13244],[126.92599,35.13422],[126.92681,35.13808],[126.92266,35.14015],[126.91767,35.13836]]]}},{"type":"Feature","properties":{"h3":"8830c6ada3fffff","emd_code":"1221056000","emd_name":"계림1동","area_km2":0.537,"edge":false,"slope_mean":2.97,"elev_mean":45.4,"flood_hist_n":0,"flood_depth_max_m":null,"flood_risk_100y":null,"semi_basement_r":null,"elderly_alone_r":0.192,"bldg_age30_r":null,"shelter_min_walk":4,"pop":9722,"hh":5385,"elderly65_r":0.2245,"single_hh_r":0.5543,"source_level":"emd","flood_years":[],"landslide_hist_n":0},"geometry":{"type":"Polygon","coordinates":[[[126.9135,35.16177],[126.91267,35.15792],[126.91683,35.15585],[126.92181,35.15763],[126.92264,35.16148],[126.91848,35.16355],[126.9135,35.16177]]]}},{"type":"Feature","properties":{"h3":"8830c6ada7fffff","emd_code":"1221052500","emd_name":"충장동","area_km2":0.5371,"edge":false,"slope_mean":3.55,"elev_mean":44.8,"flood_hist_n":0,"flood_depth_max_m":null,"flood_risk_100y":null,"semi_basement_r":null,"elderly_alone_r":0.1329,"bldg_age30_r":null,"shelter_min_walk":2,"pop":5909,"hh":4621,"elderly65_r":0.1999,"single_hh_r":0.8078,"source_level":"emd","flood_years":[],"landslide_hist_n":0},"geometry":{"type":"Polygon","coordinates":[[[126.90769,35.15613],[126.90686,35.15228],[126.91102,35.15021],[126.916,35.15199],[126.91683,35.15585],[126.91267,35.15792],[126.90769,35.15613]]]}},{"type":"Feature","properties":{"h3":"8830c6adabfffff","emd_code":"1221056000","emd_name":"계림1동","area_km2":0.5369,"edge":true,"slope_mean":2.42,"elev_mean":41.4,"flood_hist_n":0,"flood_depth_max_m":null,"flood_risk_100y":null,"semi_basement_r":null,"elderly_alone_r":0.192,"bldg_age30_r":null,"shelter_min_walk":1,"pop":9722,"hh":5385,"elderly65_r":0.2245,"single_hh_r":0.5543,"source_level":"emd","flood_years":[],"landslide_hist_n":0},"geometry":{"type":"Polygon","coordinates":[[[126.91017,35.16769],[126.90934,35.16384],[126.9135,35.16177],[126.91848,35.16355],[126.91931,35.1674],[126.91515,35.16947],[126.91017,35.16769]]]}},{"type":"Feature","properties":{"h3":"8830c6adb5fffff","emd_code":"1221057000","emd_name":"계림2동","area_km2":0.5371,"edge":false,"slope_mean":3.98,"elev_mean":57.3,"flood_hist_n":0,"flood_depth_max_m":null,"flood_risk_100y":null,"semi_basement_r":null,"elderly_alone_r":0.1101,"bldg_age30_r":null,"shelter_min_walk":3,"pop":14348,"hh":6101,"elderly65_r":0.1798,"single_hh_r":0.3139,"source_level":"emd","flood_years":[],"landslide_hist_n":0},"geometry":{"type":"Polygon","coordinates":[[[126.92264,35.16148],[126.92181,35.15763],[126.92597,35.15556],[126.93095,35.15734],[126.93178,35.16119],[126.92762,35.16326],[126.92264,35.16148]]]}},{"type":"Feature","properties":{"h3":"8830c6adb7fffff","emd_code":"1221060000","emd_name":"산수2동","area_km2":0.5371,"edge":false,"slope_mean":8.37,"elev_mean":91.0,"flood_hist_n":0,"flood_depth_max_m":null,"flood_risk_100y":null,"semi_basement_r":null,"elderly_alone_r":0.1896,"bldg_age30_r":null,"shelter_min_walk":3,"pop":9137,"hh":4473,"elderly65_r":0.319,"single_hh_r":0.4125,"source_level":"emd","flood_years":[],"landslide_hist_n":0},"geometry":{"type":"Polygon","coordinates":[[[126.93178,35.16119],[126.93095,35.15734],[126.93511,35.15527],[126.94009,35.15705],[126.94092,35.1609],[126.93676,35.16298],[126.93178,35.16119]]]}},{"type":"Feature","properties":{"h3":"8830c6adbdfffff","emd_code":"1221057000","emd_name":"계림2동","area_km2":0.5369,"edge":true,"slope_mean":4.22,"elev_mean":52.5,"flood_hist_n":0,"flood_depth_max_m":null,"flood_risk_100y":null,"semi_basement_r":null,"elderly_alone_r":0.1101,"bldg_age30_r":null,"shelter_min_walk":5,"pop":14348,"hh":6101,"elderly65_r":0.1798,"single_hh_r":0.3139,"source_level":"emd","flood_years":[],"landslide_hist_n":0},"geometry":{"type":"Polygon","coordinates":[[[126.91931,35.1674],[126.91848,35.16355],[126.92264,35.16148],[126.92762,35.16326],[126.92845,35.16712],[126.92429,35.16919],[126.91931,35.1674]]]}}]}