{"type":"FeatureCollection","name":"grid_12240_h3r8","meta":{"sgg_code":"12240","h3_res":8,"n_cells":120,"dem":"Copernicus GLO-30 (bbox-mean)","crs":"EPSG:4326","jumin_basis":"2026-07","flood_src":"행안부 침수흔적도(전국, 재난안전데이터공유플랫폼)","landslide_src":"행안부 산사태 발생이력"},"features":[{"type":"Feature","properties":{"h3":"8830c63001fffff","emd_code":"1224080000","emd_name":"서창동","area_km2":0.5376,"edge":false,"slope_mean":18.13,"elev_mean":104.4,"flood_hist_n":0,"flood_depth_max_m":null,"flood_risk_100y":null,"semi_basement_r":null,"elderly_alone_r":0.1423,"bldg_age30_r":null,"shelter_min_walk":28,"pop":7242,"hh":3233,"elderly65_r":0.2186,"single_hh_r":0.3631,"source_level":"emd","flood_years":[],"landslide_hist_n":0},"geometry":{"type":"Polygon","coordinates":[[[126.83134,35.10032],[126.83052,35.09646],[126.83467,35.09439],[126.83965,35.09618],[126.84047,35.10003],[126.83632,35.1021],[126.83134,35.10032]]]}},{"type":"Feature","properties":{"h3":"8830c63005fffff","emd_code":"1224080000","emd_name":"서창동","area_km2":0.5377,"edge":true,"slope_mean":7.91,"elev_mean":47.1,"flood_hist_n":0,"flood_depth_max_m":null,"flood_risk_100y":null,"semi_basement_r":null,"elderly_alone_r":0.1423,"bldg_age30_r":null,"shelter_min_walk":17,"pop":7242,"hh":3233,"elderly65_r":0.2186,"single_hh_r":0.3631,"source_level":"emd","flood_years":[],"landslide_hist_n":0},"geometry":{"type":"Polygon","coordinates":[[[126.82554,35.09467],[126.82471,35.09082],[126.82886,35.08875],[126.83384,35.09053],[126.83467,35.09439],[126.83052,35.09646],[126.82554,35.09467]]]}},{"type":"Feature","properties":{"h3":"8830c63009fffff","emd_code":"1224080000","emd_name":"서창동","area_km2":0.5375,"edge":false,"slope_mean":11.72,"elev_mean":61.6,"flood_hist_n":0,"flood_depth_max_m":null,"flood_risk_100y":null,"semi_basement_r":null,"elderly_alone_r":0.1423,"bldg_age30_r":null,"shelter_min_walk":17,"pop":7242,"hh":3233,"elderly65_r":0.2186,"single_hh_r":0.3631,"source_level":"emd","flood_years":[],"landslide_hist_n":0},"geometry":{"type":"Polygon","coordinates":[[[126.82801,35.10624],[126.82719,35.10239],[126.83134,35.10032],[126.83632,35.1021],[126.83715,35.10596],[126.83299,35.10803],[126.82801,35.10624]]]}},{"type":"Feature","properties":{"h3":"8830c6300bfffff","emd_code":"1224080000","emd_name":"서창동","area_km2":0.5375,"edge":false,"slope_mean":16.27,"elev_mean":87.5,"flood_hist_n":0,"flood_depth_max_m":null,"flood_risk_100y":null,"semi_basement_r":null,"elderly_alone_r":0.1423,"bldg_age30_r":null,"shelter_min_walk":23,"pop":7242,"hh":3233,"elderly65_r":0.2186,"single_hh_r":0.3631,"source_level":"emd","flood_years":[],"landslide_hist_n":0},"geometry":{"type":"Polygon","coordinates":[[[126.83715,35.10596],[126.83632,35.1021],[126.84047,35.10003],[126.84545,35.10182],[126.84628,35.10568],[126.84213,35.10775],[126.83715,35.10596]]]}},{"type":"Feature","properties":{"h3":"8830c6300dfffff","emd_code":"1224080000","emd_name":"서창동","area_km2":0.5375,"edge":false,"slope_mean":12.12,"elev_mean":60.1,"flood_hist_n":0,"flood_depth_max_m":null,"flood_risk_100y":null,"semi_basement_r":null,"elderly_alone_r":0.1423,"bldg_age30_r":null,"shelter_min_walk":27,"pop":7242,"hh":3233,"elderly65_r":0.2186,"single_hh_r":0.3631,"source_level":"emd","flood_years":[],"landslide_hist_n":0},"geometry":{"type":"Polygon","coordinates":[[[126.82221,35.1006],[126.82138,35.09674],[126.82554,35.09467],[126.83052,35.09646],[126.83134,35.10032],[126.82719,35.10239],[126.82221,35.1006]]]}},{"type":"Feature","properties":{"h3":"8830c63011fffff","emd_code":"1224080000","emd_name":"서창동","area_km2":0.5376,"edge":true,"slope_mean":7.88,"elev_mean":49.6,"flood_hist_n":0,"flood_depth_max_m":null,"flood_risk_100y":null,"semi_basement_r":null,"elderly_alone_r":0.1423,"bldg_age30_r":null,"shelter_min_walk":26,"pop":7242,"hh":3233,"elderly65_r":0.2186,"single_hh_r":0.3631,"source_level":"emd","flood_years":[],"landslide_hist_n":0},"geometry":{"type":"Polygon","coordinates":[[[126.85542,35.10539],[126.85459,35.10154],[126.85874,35.09946],[126.86372,35.10125],[126.86455,35.10511],[126.8604,35.10718],[126.85542,35.10539]]]}},{"type":"Feature","properties":{"h3":"8830c63019fffff","emd_code":"1224080000","emd_name":"서창동","area_km2":0.5375,"edge":false,"slope_mean":8.15,"elev_mean":57.2,"flood_hist_n":0,"flood_depth_max_m":null,"flood_risk_100y":null,"semi_basement_r":null,"elderly_alone_r":0.1423,"bldg_age30_r":null,"shelter_min_walk":24,"pop":7242,"hh":3233,"elderly65_r":0.2186,"single_hh_r":0.3631,"source_level":"emd","flood_years":[],"landslide_hist_n":0},"geometry":{"type":"Polygon","coordinates":[[[126.85209,35.11132],[126.85126,35.10746],[126.85542,35.10539],[126.8604,35.10718],[126.86122,35.11103],[126.85707,35.1131],[126.85209,35.11132]]]}},{"type":"Feature","properties":{"h3":"8830c6301bfffff","emd_code":"1224080000","emd_name":"서창동","area_km2":0.5376,"edge":true,"slope_mean":13.2,"elev_mean":81.4,"flood_hist_n":0,"flood_depth_max_m":null,"flood_risk_100y":null,"semi_basement_r":null,"elderly_alone_r":0.1423,"bldg_age30_r":null,"shelter_min_walk":19,"pop":7242,"hh":3233,"elderly65_r":0.2186,"single_hh_r":0.3631,"source_level":"emd","flood_years":[],"landslide_hist_n":0},"geometry":{"type":"Polygon","coordinates":[[[126.86122,35.11103],[126.8604,35.10718],[126.86455,35.10511],[126.86953,35.10689],[126.87036,35.11075],[126.8662,35.11282],[126.86122,35.11103]]]}},{"type":"Feature","properties":{"h3":"8830c6301dfffff","emd_code":"1224080000","emd_name":"서창동","area_km2":0.5376,"edge":true,"slope_mean":11.09,"elev_mean":61.2,"flood_hist_n":0,"flood_depth_max_m":null,"flood_risk_100y":null,"semi_basement_r":null,"elderly_alone_r":0.1423,"bldg_age30_r":null,"shelter_min_walk":33,"pop":7242,"hh":3233,"elderly65_r":0.2186,"single_hh_r":0.3631,"source_level":"emd","flood_years":[],"landslide_hist_n":0},"geometry":{"type":"Polygon","coordinates":[[[126.84628,35.10568],[126.84545,35.10182],[126.84961,35.09975],[126.85459,35.10154],[126.85542,35.10539],[126.85126,35.10746],[126.84628,35.10568]]]}},{"type":"Feature","properties":{"h3":"8830c63041fffff","emd_code":"1224080000","emd_name":"서창동","area_km2":0.5373,"edge":false,"slope_mean":2.79,"elev_mean":14.0,"flood_hist_n":1,"flood_depth_max_m":1.348,"flood_risk_100y":null,"semi_basement_r":null,"elderly_alone_r":0.1423,"bldg_age30_r":null,"shelter_min_walk":16,"pop":7242,"hh":3233,"elderly65_r":0.2186,"single_hh_r":0.3631,"source_level":"emd","flood_years":[2020],"landslide_hist_n":0},"geometry":{"type":"Polygon","coordinates":[[[126.81555,35.11245],[126.81473,35.10859],[126.81888,35.10652],[126.82386,35.10831],[126.82469,35.11217],[126.82053,35.11424],[126.81555,35.11245]]]}},{"type":"Feature","properties":{"h3":"8830c63043fffff","emd_code":"1224080000","emd_name":"서창동","area_km2":0.5374,"edge":false,"slope_mean":6.6,"elev_mean":29.4,"flood_hist_n":0,"flood_depth_max_m":null,"flood_risk_100y":null,"semi_basement_r":null,"elderly_alone_r":0.1423,"bldg_age30_r":null,"shelter_min_walk":8,"pop":7242,"hh":3233,"elderly65_r":0.2186,"single_hh_r":0.3631,"source_level":"emd","flood_years":[],"landslide_hist_n":0},"geometry":{"type":"Polygon","coordinates":[[[126.82469,35.11217],[126.82386,35.10831],[126.82801,35.10624],[126.83299,35.10803],[126.83382,35.11188],[126.82966,35.11395],[126.82469,35.11217]]]}},{"type":"Feature","properties":{"h3":"8830c63045fffff","emd_code":"1224080000","emd_name":"서창동","area_km2":0.5374,"edge":false,"slope_mean":1.64,"elev_mean":13.0,"flood_hist_n":0,"flood_depth_max_m":null,"flood_risk_100y":null,"semi_basement_r":null,"elderly_alone_r":0.1423,"bldg_age30_r":null,"shelter_min_walk":27,"pop":7242,"hh":3233,"elderly65_r":0.2186,"single_hh_r":0.3631,"source_level":"emd","flood_years":[],"landslide_hist_n":0},"geometry":{"type":"Polygon","coordinates":[[[126.80975,35.10681],[126.80892,35.10295],[126.81308,35.10088],[126.81806,35.10267],[126.81888,35.10652],[126.81473,35.10859],[126.80975,35.10681]]]}},{"type":"Feature","properties":{"h3":"8830c63047fffff","emd_code":"1224080000","emd_name":"서창동","area_km2":0.5374,"edge":false,"slope_mean":5.43,"elev_mean":25.6,"flood_hist_n":0,"flood_depth_max_m":null,"flood_risk_100y":null,"semi_basement_r":null,"elderly_alone_r":0.1423,"bldg_age30_r":null,"shelter_min_walk":19,"pop":7242,"hh":3233,"elderly65_r":0.2186,"single_hh_r":0.3631,"source_level":"emd","flood_years":[],"landslide_hist_n":0},"geometry":{"type":"Polygon","coordinates":[[[126.81888,35.10652],[126.81806,35.10267],[126.82221,35.1006],[126.82719,35.10239],[126.82801,35.10624],[126.82386,35.10831],[126.81888,35.10652]]]}},{"type":"Feature","properties":{"h3":"8830c63049fffff","emd_code":"1224080000","emd_name":"서창동","area_km2":0.5372,"edge":false,"slope_mean":1.12,"elev_mean":12.7,"flood_hist_n":1,"flood_depth_max_m":2.221,"flood_risk_100y":null,"semi_basement_r":null,"elderly_alone_r":0.1423,"bldg_age30_r":null,"shelter_min_walk":19,"pop":7242,"hh":3233,"elderly65_r":0.2186,"single_hh_r":0.3631,"source_level":"emd","flood_years":[2020],"landslide_hist_n":0},"geometry":{"type":"Polygon","coordinates":[[[126.81222,35.11837],[126.8114,35.11452],[126.81555,35.11245],[126.82053,35.11424],[126.82136,35.11809],[126.8172,35.12016],[126.81222,35.11837]]]}},{"type":"Feature","properties":{"h3":"8830c6304bfffff","emd_code":"1224080000","emd_name":"서창동","area_km2":0.5373,"edge":false,"slope_mean":2.09,"elev_mean":13.5,"flood_hist_n":1,"flood_depth_max_m":0.894,"flood_risk_100y":null,"semi_basement_r":null,"elderly_alone_r":0.1423,"bldg_age30_r":null,"shelter_min_walk":7,"pop":7242,"hh":3233,"elderly65_r":0.2186,"single_hh_r":0.3631,"source_level":"emd","flood_years":[2020],"landslide_hist_n":0},"geometry":{"type":"Polygon","coordinates":[[[126.82136,35.11809],[126.82053,35.11424],[126.82469,35.11217],[126.82966,35.11395],[126.83049,35.11781],[126.82634,35.11988],[126.82136,35.11809]]]}},{"type":"Feature","properties":{"h3":"8830c6304dfffff","emd_code":"1224080000","emd_name":"서창동","area_km2":0.5373,"edge":false,"slope_mean":1.14,"elev_mean":11.4,"flood_hist_n":0,"flood_depth_max_m":null,"flood_risk_100y":null,"semi_basement_r":null,"elderly_alone_r":0.1423,"bldg_age30_r":null,"shelter_min_walk":27,"pop":7242,"hh":3233,"elderly65_r":0.2186,"single_hh_r":0.3631,"source_level":"emd","flood_years":[],"landslide_hist_n":0},"geometry":{"type":"Polygon","coordinates":[[[126.80642,35.11273],[126.8056,35.10887],[126.80975,35.10681],[126.81473,35.10859],[126.81555,35.11245],[126.8114,35.11452],[126.80642,35.11273]]]}},{"type":"Feature","properties":{"h3":"8830c63051fffff","emd_code":"1224080000","emd_name":"서창동","area_km2":0.5374,"edge":false,"slope_mean":11.72,"elev_mean":54.1,"flood_hist_n":0,"flood_depth_max_m":null,"flood_risk_100y":null,"semi_basement_r":null,"elderly_alone_r":0.1423,"bldg_age30_r":null,"shelter_min_walk":18,"pop":7242,"hh":3233,"elderly65_r":0.2186,"single_hh_r":0.3631,"source_level":"emd","flood_years":[],"landslide_hist_n":0},"geometry":{"type":"Polygon","coordinates":[[[126.83962,35.11753],[126.8388,35.11367],[126.84295,35.1116],[126.84793,35.11339],[126.84876,35.11724],[126.8446,35.11931],[126.83962,35.11753]]]}},{"type":"Feature","properties":{"h3":"8830c63053fffff","emd_code":"1224080000","emd_name":"서창동","area_km2":0.5374,"edge":false,"slope_mean":6.37,"elev_mean":46.1,"flood_hist_n":0,"flood_depth_max_m":null,"flood_risk_100y":null,"semi_basement_r":null,"elderly_alone_r":0.1423,"bldg_age30_r":null,"shelter_min_walk":19,"pop":7242,"hh":3233,"elderly65_r":0.2186,"single_hh_r":0.3631,"source_level":"emd","flood_years":[],"landslide_hist_n":0},"geometry":{"type":"Polygon","coordinates":[[[126.84876,35.11724],[126.84793,35.11339],[126.85209,35.11132],[126.85707,35.1131],[126.85789,35.11696],[126.85374,35.11903],[126.84876,35.11724]]]}},{"type":"Feature","properties":{"h3":"8830c63055fffff","emd_code":"1224080000","emd_name":"서창동","area_km2":0.5374,"edge":false,"slope_mean":12.19,"elev_mean":55.0,"flood_hist_n":0,"flood_depth_max_m":null,"flood_risk_100y":null,"semi_basement_r":null,"elderly_alone_r":0.1423,"bldg_age30_r":null,"shelter_min_walk":13,"pop":7242,"hh":3233,"elderly65_r":0.2186,"single_hh_r":0.3631,"source_level":"emd","flood_years":[],"landslide_hist_n":0},"geometry":{"type":"Polygon","coordinates":[[[126.83382,35.11188],[126.83299,35.10803],[126.83715,35.10596],[126.84213,35.10775],[126.84295,35.1116],[126.8388,35.11367],[126.83382,35.11188]]]}},{"type":"Feature","properties":{"h3":"8830c63057fffff","emd_code":"1224080000","emd_name":"서창동","area_km2":0.5375,"edge":false,"slope_mean":11.69,"elev_mean":66.8,"flood_hist_n":0,"flood_depth_max_m":null,"flood_risk_100y":null,"semi_basement_r":null,"elderly_alone_r":0.1423,"bldg_age30_r":null,"shelter_min_walk":24,"pop":7242,"hh":3233,"elderly65_r":0.2186,"single_hh_r":0.3631,"source_level":"emd","flood_years":[],"landslide_hist_n":0},"geometry":{"type":"Polygon","coordinates":[[[126.84295,35.1116],[126.84213,35.10775],[126.84628,35.10568],[126.85126,35.10746],[126.85209,35.11132],[126.84793,35.11339],[126.84295,35.1116]]]}},{"type":"Feature","properties":{"h3":"8830c63059fffff","emd_code":"1224080000","emd_name":"서창동","area_km2":0.5372,"edge":false,"slope_mean":7.59,"elev_mean":34.2,"flood_hist_n":0,"flood_depth_max_m":null,"flood_risk_100y":null,"semi_basement_r":null,"elderly_alone_r":0.1423,"bldg_age30_r":null,"shelter_min_walk":18,"pop":7242,"hh":3233,"elderly65_r":0.2186,"single_hh_r":0.3631,"source_level":"emd","flood_years":[],"landslide_hist_n":0},"geometry":{"type":"Polygon","coordinates":[[[126.8363,35.12345],[126.83547,35.11959],[126.83962,35.11753],[126.8446,35.11931],[126.84543,35.12317],[126.84128,35.12523],[126.8363,35.12345]]]}},{"type":"Feature","properties":{"h3":"8830c6305bfffff","emd_code":"1224080000","emd_name":"서창동","area_km2":0.5373,"edge":false,"slope_mean":14.07,"elev_mean":63.0,"flood_hist_n":0,"flood_depth_max_m":null,"flood_risk_100y":null,"semi_basement_r":null,"elderly_alone_r":0.1423,"bldg_age30_r":null,"shelter_min_walk":12,"pop":7242,"hh":3233,"elderly65_r":0.2186,"single_hh_r":0.3631,"source_level":"emd","flood_years":[],"landslide_hist_n":0},"geometry":{"type":"Polygon","coordinates":[[[126.84543,35.12317],[126.8446,35.11931],[126.84876,35.11724],[126.85374,35.11903],[126.85456,35.12288],[126.85041,35.12495],[126.84543,35.12317]]]}},{"type":"Feature","properties":{"h3":"8830c6305dfffff","emd_code":"1224080000","emd_name":"서창동","area_km2":0.5373,"edge":false,"slope_mean":12.93,"elev_mean":55.4,"flood_hist_n":0,"flood_depth_max_m":null,"flood_risk_100y":null,"semi_basement_r":null,"elderly_alone_r":0.1423,"bldg_age30_r":null,"shelter_min_walk":6,"pop":7242,"hh":3233,"elderly65_r":0.2186,"single_hh_r":0.3631,"source_level":"emd","flood_years":[],"landslide_hist_n":0},"geometry":{"type":"Polygon","coordinates":[[[126.83049,35.11781],[126.82966,35.11395],[126.83382,35.11188],[126.8388,35.11367],[126.83962,35.11753],[126.83547,35.11959],[126.83049,35.11781]]]}},{"type":"Feature","properties":{"h3":"8830c63061fffff","emd_code":"1224080000","emd_name":"서창동","area_km2":0.5376,"edge":false,"slope_mean":5.25,"elev_mean":22.3,"flood_hist_n":0,"flood_depth_max_m":null,"flood_risk_100y":null,"semi_basement_r":null,"elderly_alone_r":0.1423,"bldg_age30_r":null,"shelter_min_walk":31,"pop":7242,"hh":3233,"elderly65_r":0.2186,"single_hh_r":0.3631,"source_level":"emd","flood_years":[],"landslide_hist_n":0},"geometry":{"type":"Polygon","coordinates":[[[126.80727,35.09524],[126.80645,35.09138],[126.8106,35.08931],[126.81558,35.0911],[126.8164,35.09496],[126.81225,35.09703],[126.80727,35.09524]]]}},{"type":"Feature","properties":{"h3":"8830c63063fffff","emd_code":"1224080000","emd_name":"서창동","area_km2":0.5376,"edge":false,"slope_mean":13.19,"elev_mean":57.8,"flood_hist_n":0,"flood_depth_max_m":null,"flood_risk_100y":null,"semi_basement_r":null,"elderly_alone_r":0.1423,"bldg_age30_r":null,"shelter_min_walk":22,"pop":7242,"hh":3233,"elderly65_r":0.2186,"single_hh_r":0.3631,"source_level":"emd","flood_years":[],"landslide_hist_n":0},"geometry":{"type":"Polygon","coordinates":[[[126.8164,35.09496],[126.81558,35.0911],[126.81973,35.08903],[126.82471,35.09082],[126.82554,35.09467],[126.82138,35.09674],[126.8164,35.09496]]]}},{"type":"Feature","properties":{"h3":"8830c63069fffff","emd_code":"1224080000","emd_name":"서창동","area_km2":0.5374,"edge":false,"slope_mean":2.49,"elev_mean":15.3,"flood_hist_n":0,"flood_depth_max_m":null,"flood_risk_100y":null,"semi_basement_r":null,"elderly_alone_r":0.1423,"bldg_age30_r":null,"shelter_min_walk":39,"pop":7242,"hh":3233,"elderly65_r":0.2186,"single_hh_r":0.3631,"source_level":"emd","flood_years":[],"landslide_hist_n":0},"geometry":{"type":"Polygon","coordinates":[[[126.80394,35.10116],[126.80312,35.09731],[126.80727,35.09524],[126.81225,35.09703],[126.81308,35.10088],[126.80892,35.10295],[126.80394,35.10116]]]}},{"type":"Feature","properties":{"h3":"8830c6306bfffff","emd_code":"1224080000","emd_name":"서창동","area_km2":0.5375,"edge":false,"slope_mean":3.62,"elev_mean":21.0,"flood_hist_n":0,"flood_depth_max_m":null,"flood_risk_100y":null,"semi_basement_r":null,"elderly_alone_r":0.1423,"bldg_age30_r":null,"shelter_min_walk":31,"pop":7242,"hh":3233,"elderly65_r":0.2186,"single_hh_r":0.3631,"source_level":"emd","flood_years":[],"landslide_hist_n":0},"geometry":{"type":"Polygon","coordinates":[[[126.81308,35.10088],[126.81225,35.09703],[126.8164,35.09496],[126.82138,35.09674],[126.82221,35.1006],[126.81806,35.10267],[126.81308,35.10088]]]}},{"type":"Feature","properties":{"h3":"8830c6306dfffff","emd_code":"1224080000","emd_name":"서창동","area_km2":0.5375,"edge":true,"slope_mean":2.15,"elev_mean":10.6,"flood_hist_n":0,"flood_depth_max_m":null,"flood_risk_100y":null,"semi_basement_r":null,"elderly_alone_r":0.1423,"bldg_age30_r":null,"shelter_min_walk":39,"pop":7242,"hh":3233,"elderly65_r":0.2186,"single_hh_r":0.3631,"source_level":"emd","flood_years":[],"landslide_hist_n":0},"geometry":{"type":"Polygon","coordinates":[[[126.79814,35.09552],[126.79732,35.09166],[126.80147,35.08959],[126.80645,35.09138],[126.80727,35.09524],[126.80312,35.09731],[126.79814,35.09552]]]}},{"type":"Feature","properties":{"h3":"8830c630c9fffff","emd_code":"1224083000","emd_name":"풍암동","area_km2":0.5376,"edge":true,"slope_mean":14.46,"elev_mean":111.0,"flood_hist_n":0,"flood_depth_max_m":null,"flood_risk_100y":null,"semi_basement_r":null,"elderly_alone_r":0.0969,"bldg_age30_r":null,"shelter_min_walk":11,"pop":32705,"hh":14898,"elderly65_r":0.1645,"single_hh_r":0.3817,"source_level":"emd","flood_years":[],"landslide_hist_n":0},"geometry":{"type":"Polygon","coordinates":[[[126.87616,35.11639],[126.87534,35.11253],[126.87949,35.11046],[126.88447,35.11225],[126.8853,35.1161],[126.88115,35.11817],[126.87616,35.11639]]]}},{"type":"Feature","properties":{"h3":"8830c63207fffff","emd_code":"1224080000","emd_name":"서창동","area_km2":0.5369,"edge":true,"slope_mean":1.07,"elev_mean":13.0,"flood_hist_n":0,"flood_depth_max_m":null,"flood_risk_100y":null,"semi_basement_r":null,"elderly_alone_r":0.1423,"bldg_age30_r":null,"shelter_min_walk":18,"pop":7242,"hh":3233,"elderly65_r":0.2186,"single_hh_r":0.3631,"source_level":"emd","flood_years":[],"landslide_hist_n":0},"geometry":{"type":"Polygon","coordinates":[[[126.81137,35.13585],[126.81055,35.132],[126.8147,35.12993],[126.81968,35.13172],[126.82051,35.13557],[126.81635,35.13764],[126.81137,35.13585]]]}},{"type":"Feature","properties":{"h3":"8830c63211fffff","emd_code":"1224080000","emd_name":"서창동","area_km2":0.5368,"edge":false,"slope_mean":3.28,"elev_mean":17.6,"flood_hist_n":1,"flood_depth_max_m":0.683,"flood_risk_100y":null,"semi_basement_r":null,"elderly_alone_r":0.1423,"bldg_age30_r":null,"shelter_min_walk":7,"pop":7242,"hh":3233,"elderly65_r":0.2186,"single_hh_r":0.3631,"source_level":"emd","flood_years":[2020],"landslide_hist_n":0},"geometry":{"type":"Polygon","coordinates":[[[126.83212,35.14685],[126.83129,35.143],[126.83545,35.14093],[126.84043,35.14272],[126.84125,35.14657],[126.8371,35.14864],[126.83212,35.14685]]]}},{"type":"Feature","properties":{"h3":"8830c63213fffff","emd_code":"1224080000","emd_name":"서창동","area_km2":0.5369,"edge":false,"slope_mean":3.34,"elev_mean":21.1,"flood_hist_n":0,"flood_depth_max_m":null,"flood_risk_100y":null,"semi_basement_r":null,"elderly_alone_r":0.1423,"bldg_age30_r":null,"shelter_min_walk":5,"pop":7242,"hh":3233,"elderly65_r":0.2186,"single_hh_r":0.3631,"source_level":"emd","flood_years":[],"landslide_hist_n":0},"geometry":{"type":"Polygon","coordinates":[[[126.84125,35.14657],[126.84043,35.14272],[126.84458,35.14065],[126.84956,35.14243],[126.85039,35.14629],[126.84623,35.14835],[126.84125,35.14657]]]}},{"type":"Feature","properties":{"h3":"8830c63215fffff","emd_code":"1224080000","emd_name":"서창동","area_km2":0.5369,"edge":false,"slope_mean":6.04,"elev_mean":23.1,"flood_hist_n":0,"flood_depth_max_m":null,"flood_risk_100y":null,"semi_basement_r":null,"elderly_alone_r":0.1423,"bldg_age30_r":null,"shelter_min_walk":16,"pop":7242,"hh":3233,"elderly65_r":0.2186,"single_hh_r":0.3631,"source_level":"emd","flood_years":[],"landslide_hist_n":0},"geometry":{"type":"Polygon","coordinates":[[[126.82631,35.14121],[126.82549,35.13736],[126.82964,35.13529],[126.83462,35.13708],[126.83545,35.14093],[126.83129,35.143],[126.82631,35.14121]]]}},{"type":"Feature","properties":{"h3":"8830c63217fffff","emd_code":"1224080000","emd_name":"서창동","area_km2":0.537,"edge":false,"slope_mean":5.04,"elev_mean":25.8,"flood_hist_n":0,"flood_depth_max_m":null,"flood_risk_100y":null,"semi_basement_r":null,"elderly_alone_r":0.1423,"bldg_age30_r":null,"shelter_min_walk":8,"pop":7242,"hh":3233,"elderly65_r":0.2186,"single_hh_r":0.3631,"source_level":"emd","flood_years":[],"landslide_hist_n":0},"geometry":{"type":"Polygon","coordinates":[[[126.83545,35.14093],[126.83462,35.13708],[126.83877,35.13501],[126.84375,35.1368],[126.84458,35.14065],[126.84043,35.14272],[126.83545,35.14093]]]}},{"type":"Feature","properties":{"h3":"8830c63219fffff","emd_code":"1224074000","emd_name":"유덕동","area_km2":0.5367,"edge":false,"slope_mean":3.45,"elev_mean":15.7,"flood_hist_n":0,"flood_depth_max_m":null,"flood_risk_100y":null,"semi_basement_r":null,"elderly_alone_r":0.1204,"bldg_age30_r":null,"shelter_min_walk":13,"pop":9800,"hh":4741,"elderly65_r":0.1741,"single_hh_r":0.4476,"source_level":"emd","flood_years":[],"landslide_hist_n":0},"geometry":{"type":"Polygon","coordinates":[[[126.82879,35.15277],[126.82796,35.14892],[126.83212,35.14685],[126.8371,35.14864],[126.83792,35.15249],[126.83377,35.15456],[126.82879,35.15277]]]}},{"type":"Feature","properties":{"h3":"8830c6321bfffff","emd_code":"1224074500","emd_name":"치평동","area_km2":0.5368,"edge":false,"slope_mean":4.02,"elev_mean":21.3,"flood_hist_n":0,"flood_depth_max_m":null,"flood_risk_100y":null,"semi_basement_r":null,"elderly_alone_r":0.0751,"bldg_age30_r":null,"shelter_min_walk":1,"pop":28759,"hh":14256,"elderly65_r":0.1618,"single_hh_r":0.4578,"source_level":"emd","flood_years":[],"landslide_hist_n":0},"geometry":{"type":"Polygon","coordinates":[[[126.83792,35.15249],[126.8371,35.14864],[126.84125,35.14657],[126.84623,35.14835],[126.84706,35.15221],[126.8429,35.15427],[126.83792,35.15249]]]}},{"type":"Feature","properties":{"h3":"8830c6321dfffff","emd_code":"1224080000","emd_name":"서창동","area_km2":0.5368,"edge":true,"slope_mean":2.71,"elev_mean":13.7,"flood_hist_n":0,"flood_depth_max_m":null,"flood_risk_100y":null,"semi_basement_r":null,"elderly_alone_r":0.1423,"bldg_age30_r":null,"shelter_min_walk":20,"pop":7242,"hh":3233,"elderly65_r":0.2186,"single_hh_r":0.3631,"source_level":"emd","flood_years":[],"landslide_hist_n":0},"geometry":{"type":"Polygon","coordinates":[[[126.82298,35.14713],[126.82216,35.14328],[126.82631,35.14121],[126.83129,35.143],[126.83212,35.14685],[126.82796,35.14892],[126.82298,35.14713]]]}},{"type":"Feature","properties":{"h3":"8830c63223fffff","emd_code":"1224080000","emd_name":"서창동","area_km2":0.5371,"edge":true,"slope_mean":0.78,"elev_mean":13.0,"flood_hist_n":1,"flood_depth_max_m":1.721,"flood_risk_100y":null,"semi_basement_r":null,"elderly_alone_r":0.1423,"bldg_age30_r":null,"shelter_min_walk":26,"pop":7242,"hh":3233,"elderly65_r":0.2186,"single_hh_r":0.3631,"source_level":"emd","flood_years":[2020],"landslide_hist_n":0},"geometry":{"type":"Polygon","coordinates":[[[126.8089,35.12429],[126.80807,35.12044],[126.81222,35.11837],[126.8172,35.12016],[126.81803,35.12401],[126.81388,35.12608],[126.8089,35.12429]]]}},{"type":"Feature","properties":{"h3":"8830c63227fffff","emd_code":"1224080000","emd_name":"서창동","area_km2":0.5372,"edge":true,"slope_mean":0.89,"elev_mean":12.5,"flood_hist_n":1,"flood_depth_max_m":1.594,"flood_risk_100y":null,"semi_basement_r":null,"elderly_alone_r":0.1423,"bldg_age30_r":null,"shelter_min_walk":26,"pop":7242,"hh":3233,"elderly65_r":0.2186,"single_hh_r":0.3631,"source_level":"emd","flood_years":[2020],"landslide_hist_n":0},"geometry":{"type":"Polygon","coordinates":[[[126.80309,35.11865],[126.80227,35.1148],[126.80642,35.11273],[126.8114,35.11452],[126.81222,35.11837],[126.80807,35.12044],[126.80309,35.11865]]]}},{"type":"Feature","properties":{"h3":"8830c63231fffff","emd_code":"1224080000","emd_name":"서창동","area_km2":0.5371,"edge":false,"slope_mean":1.74,"elev_mean":15.6,"flood_hist_n":1,"flood_depth_max_m":3.173,"flood_risk_100y":null,"semi_basement_r":null,"elderly_alone_r":0.1423,"bldg_age30_r":null,"shelter_min_walk":22,"pop":7242,"hh":3233,"elderly65_r":0.2186,"single_hh_r":0.3631,"source_level":"emd","flood_years":[2020],"landslide_hist_n":0},"geometry":{"type":"Polygon","coordinates":[[[126.82383,35.12965],[126.82301,35.1258],[126.82716,35.12373],[126.83214,35.12552],[126.83297,35.12937],[126.82881,35.13144],[126.82383,35.12965]]]}},{"type":"Feature","properties":{"h3":"8830c63233fffff","emd_code":"1224080000","emd_name":"서창동","area_km2":0.5371,"edge":false,"slope_mean":5.3,"elev_mean":25.9,"flood_hist_n":0,"flood_depth_max_m":null,"flood_risk_100y":null,"semi_basement_r":null,"elderly_alone_r":0.1423,"bldg_age30_r":null,"shelter_min_walk":23,"pop":7242,"hh":3233,"elderly65_r":0.2186,"single_hh_r":0.3631,"source_level":"emd","flood_years":[],"landslide_hist_n":0},"geometry":{"type":"Polygon","coordinates":[[[126.83297,35.12937],[126.83214,35.12552],[126.8363,35.12345],[126.84128,35.12523],[126.8421,35.12909],[126.83795,35.13116],[126.83297,35.12937]]]}},{"type":"Feature","properties":{"h3":"8830c63235fffff","emd_code":"1224080000","emd_name":"서창동","area_km2":0.5371,"edge":false,"slope_mean":1.64,"elev_mean":12.1,"flood_hist_n":1,"flood_depth_max_m":2.655,"flood_risk_100y":null,"semi_basement_r":null,"elderly_alone_r":0.1423,"bldg_age30_r":null,"shelter_min_walk":16,"pop":7242,"hh":3233,"elderly65_r":0.2186,"single_hh_r":0.3631,"source_level":"emd","flood_years":[2020],"landslide_hist_n":0},"geometry":{"type":"Polygon","coordinates":[[[126.81803,35.12401],[126.8172,35.12016],[126.82136,35.11809],[126.82634,35.11988],[126.82716,35.12373],[126.82301,35.1258],[126.81803,35.12401]]]}},{"type":"Feature","properties":{"h3":"8830c63237fffff","emd_code":"1224080000","emd_name":"서창동","area_km2":0.5372,"edge":false,"slope_mean":3.47,"elev_mean":22.0,"flood_hist_n":1,"flood_depth_max_m":2.655,"flood_risk_100y":null,"semi_basement_r":null,"elderly_alone_r":0.1423,"bldg_age30_r":null,"shelter_min_walk":12,"pop":7242,"hh":3233,"elderly65_r":0.2186,"single_hh_r":0.3631,"source_level":"emd","flood_years":[2020],"landslide_hist_n":0},"geometry":{"type":"Polygon","coordinates":[[[126.82716,35.12373],[126.82634,35.11988],[126.83049,35.11781],[126.83547,35.11959],[126.8363,35.12345],[126.83214,35.12552],[126.82716,35.12373]]]}},{"type":"Feature","properties":{"h3":"8830c63239fffff","emd_code":"1224080000","emd_name":"서창동","area_km2":0.537,"edge":false,"slope_mean":1.66,"elev_mean":12.5,"flood_hist_n":0,"flood_depth_max_m":null,"flood_risk_100y":null,"semi_basement_r":null,"elderly_alone_r":0.1423,"bldg_age30_r":null,"shelter_min_walk":25,"pop":7242,"hh":3233,"elderly65_r":0.2186,"single_hh_r":0.3631,"source_level":"emd","flood_years":[],"landslide_hist_n":0},"geometry":{"type":"Polygon","coordinates":[[[126.82051,35.13557],[126.81968,35.13172],[126.82383,35.12965],[126.82881,35.13144],[126.82964,35.13529],[126.82549,35.13736],[126.82051,35.13557]]]}},{"type":"Feature","properties":{"h3":"8830c6323bfffff","emd_code":"1224080000","emd_name":"서창동","area_km2":0.537,"edge":false,"slope_mean":6.06,"elev_mean":27.0,"flood_hist_n":0,"flood_depth_max_m":null,"flood_risk_100y":null,"semi_basement_r":null,"elderly_alone_r":0.1423,"bldg_age30_r":null,"shelter_min_walk":19,"pop":7242,"hh":3233,"elderly65_r":0.2186,"single_hh_r":0.3631,"source_level":"emd","flood_years":[],"landslide_hist_n":1},"geometry":{"type":"Polygon","coordinates":[[[126.82964,35.13529],[126.82881,35.13144],[126.83297,35.12937],[126.83795,35.13116],[126.83877,35.13501],[126.83462,35.13708],[126.82964,35.13529]]]}},{"type":"Feature","properties":{"h3":"8830c6323dfffff","emd_code":"1224080000","emd_name":"서창동","area_km2":0.537,"edge":true,"slope_mean":1.62,"elev_mean":12.2,"flood_hist_n":1,"flood_depth_max_m":3.173,"flood_risk_100y":null,"semi_basement_r":null,"elderly_alone_r":0.1423,"bldg_age30_r":null,"shelter_min_walk":27,"pop":7242,"hh":3233,"elderly65_r":0.2186,"single_hh_r":0.3631,"source_level":"emd","flood_years":[2020],"landslide_hist_n":0},"geometry":{"type":"Polygon","coordinates":[[[126.8147,35.12993],[126.81388,35.12608],[126.81803,35.12401],[126.82301,35.1258],[126.82383,35.12965],[126.81968,35.13172],[126.8147,35.12993]]]}},{"type":"Feature","properties":{"h3":"8830c63251fffff","emd_code":"1224074000","emd_name":"유덕동","area_km2":0.5366,"edge":true,"slope_mean":1.89,"elev_mean":14.4,"flood_hist_n":0,"flood_depth_max_m":null,"flood_risk_100y":null,"semi_basement_r":null,"elderly_alone_r":0.1204,"bldg_age30_r":null,"shelter_min_walk":13,"pop":9800,"hh":4741,"elderly65_r":0.1741,"single_hh_r":0.4476,"source_level":"emd","flood_years":[],"landslide_hist_n":0},"geometry":{"type":"Polygon","coordinates":[[[126.81633,35.15897],[126.8155,35.15512],[126.81965,35.15305],[126.82463,35.15484],[126.82546,35.15869],[126.82131,35.16075],[126.81633,35.15897]]]}},{"type":"Feature","properties":{"h3":"8830c63253fffff","emd_code":"1224074000","emd_name":"유덕동","area_km2":0.5366,"edge":false,"slope_mean":2.62,"elev_mean":15.8,"flood_hist_n":1,"flood_depth_max_m":1.997,"flood_risk_100y":null,"semi_basement_r":null,"elderly_alone_r":0.1204,"bldg_age30_r":null,"shelter_min_walk":19,"pop":9800,"hh":4741,"elderly65_r":0.1741,"single_hh_r":0.4476,"source_level":"emd","flood_years":[2020],"landslide_hist_n":0},"geometry":{"type":"Polygon","coordinates":[[[126.82546,35.15869],[126.82463,35.15484],[126.82879,35.15277],[126.83377,35.15456],[126.83459,35.15841],[126.83044,35.16047],[126.82546,35.15869]]]}},{"type":"Feature","properties":{"h3":"8830c63257fffff","emd_code":"1224074000","emd_name":"유덕동","area_km2":0.5367,"edge":true,"slope_mean":1.84,"elev_mean":13.4,"flood_hist_n":0,"flood_depth_max_m":null,"flood_risk_100y":null,"semi_basement_r":null,"elderly_alone_r":0.1204,"bldg_age30_r":null,"shelter_min_walk":18,"pop":9800,"hh":4741,"elderly65_r":0.1741,"single_hh_r":0.4476,"source_level":"emd","flood_years":[],"landslide_hist_n":0},"geometry":{"type":"Polygon","coordinates":[[[126.81965,35.15305],[126.81883,35.1492],[126.82298,35.14713],[126.82796,35.14892],[126.82879,35.15277],[126.82463,35.15484],[126.81965,35.15305]]]}},{"type":"Feature","properties":{"h3":"8830c6325bfffff","emd_code":"1224074000","emd_name":"유덕동","area_km2":0.5365,"edge":false,"slope_mean":2.85,"elev_mean":15.1,"flood_hist_n":1,"flood_depth_max_m":1.997,"flood_risk_100y":null,"semi_basement_r":null,"elderly_alone_r":0.1204,"bldg_age30_r":null,"shelter_min_walk":16,"pop":9800,"hh":4741,"elderly65_r":0.1741,"single_hh_r":0.4476,"source_level":"emd","flood_years":[2020],"landslide_hist_n":0},"geometry":{"type":"Polygon","coordinates":[[[126.82213,35.16461],[126.82131,35.16075],[126.82546,35.15869],[126.83044,35.16047],[126.83127,35.16433],[126.82711,35.16639],[126.82213,35.16461]]]}},{"type":"Feature","properties":{"h3":"8830c63281fffff","emd_code":"1224079000","emd_name":"화정4동","area_km2":0.5372,"edge":false,"slope_mean":5.13,"elev_mean":56.6,"flood_hist_n":0,"flood_depth_max_m":null,"flood_risk_100y":null,"semi_basement_r":null,"elderly_alone_r":0.1243,"bldg_age30_r":null,"shelter_min_walk":4,"pop":18725,"hh":8169,"elderly65_r":0.2312,"single_hh_r":0.3123,"source_level":"emd","flood_years":[],"landslide_hist_n":0},"geometry":{"type":"Polygon","coordinates":[[[126.87199,35.1398],[126.87116,35.13594],[126.87531,35.13387],[126.8803,35.13566],[126.88112,35.13951],[126.87697,35.14158],[126.87199,35.1398]]]}},{"type":"Feature","properties":{"h3":"8830c63283fffff","emd_code":"1224083000","emd_name":"풍암동","area_km2":0.5372,"edge":true,"slope_mean":9.18,"elev_mean":65.4,"flood_hist_n":0,"flood_depth_max_m":null,"flood_risk_100y":null,"semi_basement_r":null,"elderly_alone_r":0.0969,"bldg_age30_r":null,"shelter_min_walk":5,"pop":32705,"hh":14898,"elderly65_r":0.1645,"single_hh_r":0.3817,"source_level":"emd","flood_years":[],"landslide_hist_n":0},"geometry":{"type":"Polygon","coordinates":[[[126.88112,35.13951],[126.8803,35.13566],[126.88445,35.13359],[126.88943,35.13537],[126.89026,35.13923],[126.8861,35.1413],[126.88112,35.13951]]]}},{"type":"Feature","properties":{"h3":"8830c63285fffff","emd_code":"1224083000","emd_name":"풍암동","area_km2":0.5372,"edge":false,"slope_mean":7.22,"elev_mean":56.7,"flood_hist_n":0,"flood_depth_max_m":null,"flood_risk_100y":null,"semi_basement_r":null,"elderly_alone_r":0.0969,"bldg_age30_r":null,"shelter_min_walk":7,"pop":32705,"hh":14898,"elderly65_r":0.1645,"single_hh_r":0.3817,"source_level":"emd","flood_years":[],"landslide_hist_n":0},"geometry":{"type":"Polygon","coordinates":[[[126.86618,35.13416],[126.86535,35.13031],[126.86951,35.12824],[126.87449,35.13002],[126.87531,35.13387],[126.87116,35.13594],[126.86618,35.13416]]]}},{"type":"Feature","properties":{"h3":"8830c63287fffff","emd_code":"1224083000","emd_name":"풍암동","area_km2":0.5373,"edge":false,"slope_mean":5.37,"elev_mean":59.7,"flood_hist_n":0,"flood_depth_max_m":null,"flood_risk_100y":null,"semi_basement_r":null,"elderly_alone_r":0.0969,"bldg_age30_r":null,"shelter_min_walk":9,"pop":32705,"hh":14898,"elderly65_r":0.1645,"single_hh_r":0.3817,"source_level":"emd","flood_years":[],"landslide_hist_n":0},"geometry":{"type":"Polygon","coordinates":[[[126.87531,35.13387],[126.87449,35.13002],[126.87864,35.12795],[126.88362,35.12974],[126.88445,35.13359],[126.8803,35.13566],[126.87531,35.13387]]]}},{"type":"Feature","properties":{"h3":"8830c63289fffff","emd_code":"1224079000","emd_name":"화정4동","area_km2":0.537,"edge":false,"slope_mean":4.43,"elev_mean":47.5,"flood_hist_n":0,"flood_depth_max_m":null,"flood_risk_100y":null,"semi_basement_r":null,"elderly_alone_r":0.1243,"bldg_age30_r":null,"shelter_min_walk":3,"pop":18725,"hh":8169,"elderly65_r":0.2312,"single_hh_r":0.3123,"source_level":"emd","flood_years":[],"landslide_hist_n":0},"geometry":{"type":"Polygon","coordinates":[[[126.86866,35.14572],[126.86783,35.14187],[126.87199,35.1398],[126.87697,35.14158],[126.87779,35.14544],[126.87364,35.1475],[126.86866,35.14572]]]}},{"type":"Feature","properties":{"h3":"8830c6328bfffff","emd_code":"1224077000","emd_name":"화정2동","area_km2":0.5371,"edge":false,"slope_mean":4.69,"elev_mean":47.0,"flood_hist_n":0,"flood_depth_max_m":null,"flood_risk_100y":null,"semi_basement_r":null,"elderly_alone_r":0.1047,"bldg_age30_r":null,"shelter_min_walk":2,"pop":18998,"hh":7776,"elderly65_r":0.1871,"single_hh_r":0.2787,"source_level":"emd","flood_years":[],"landslide_hist_n":0},"geometry":{"type":"Polygon","coordinates":[[[126.87779,35.14544],[126.87697,35.14158],[126.88112,35.13951],[126.8861,35.1413],[126.88693,35.14515],[126.88278,35.14722],[126.87779,35.14544]]]}},{"type":"Feature","properties":{"h3":"8830c6328dfffff","emd_code":"1224079000","emd_name":"화정4동","area_km2":0.5371,"edge":false,"slope_mean":9.28,"elev_mean":62.3,"flood_hist_n":0,"flood_depth_max_m":null,"flood_risk_100y":null,"semi_basement_r":null,"elderly_alone_r":0.1243,"bldg_age30_r":null,"shelter_min_walk":5,"pop":18725,"hh":8169,"elderly65_r":0.2312,"single_hh_r":0.3123,"source_level":"emd","flood_years":[],"landslide_hist_n":0},"geometry":{"type":"Polygon","coordinates":[[[126.86285,35.14008],[126.86202,35.13623],[126.86618,35.13416],[126.87116,35.13594],[126.87199,35.1398],[126.86783,35.14187],[126.86285,35.14008]]]}},{"type":"Feature","properties":{"h3":"8830c63299fffff","emd_code":"1224066000","emd_name":"농성2동","area_km2":0.5371,"edge":true,"slope_mean":6.13,"elev_mean":58.8,"flood_hist_n":0,"flood_depth_max_m":null,"flood_risk_100y":null,"semi_basement_r":null,"elderly_alone_r":0.1866,"bldg_age30_r":null,"shelter_min_walk":2,"pop":4122,"hh":2690,"elderly65_r":0.3091,"single_hh_r":0.6535,"source_level":"emd","flood_years":[],"landslide_hist_n":0},"geometry":{"type":"Polygon","coordinates":[[[126.89274,35.15079],[126.89191,35.14693],[126.89607,35.14486],[126.90105,35.14665],[126.90188,35.1505],[126.89772,35.15257],[126.89274,35.15079]]]}},{"type":"Feature","properties":{"h3":"8830c6329bfffff","emd_code":"1224057500","emd_name":"양동","area_km2":0.5371,"edge":false,"slope_mean":4.81,"elev_mean":50.1,"flood_hist_n":1,"flood_depth_max_m":0.658,"flood_risk_100y":null,"semi_basement_r":null,"elderly_alone_r":0.3064,"bldg_age30_r":null,"shelter_min_walk":2,"pop":2658,"hh":1573,"elderly65_r":0.4782,"single_hh_r":0.5601,"source_level":"emd","flood_years":[2020],"landslide_hist_n":0},"geometry":{"type":"Polygon","coordinates":[[[126.90188,35.1505],[126.90105,35.14665],[126.90521,35.14458],[126.91019,35.14636],[126.91102,35.15021],[126.90686,35.15228],[126.90188,35.1505]]]}},{"type":"Feature","properties":{"h3":"8830c6329dfffff","emd_code":"1224077000","emd_name":"화정2동","area_km2":0.5371,"edge":true,"slope_mean":3.69,"elev_mean":44.3,"flood_hist_n":0,"flood_depth_max_m":null,"flood_risk_100y":null,"semi_basement_r":null,"elderly_alone_r":0.1047,"bldg_age30_r":null,"shelter_min_walk":1,"pop":18998,"hh":7776,"elderly65_r":0.1871,"single_hh_r":0.2787,"source_level":"emd","flood_years":[],"landslide_hist_n":0},"geometry":{"type":"Polygon","coordinates":[[[126.88693,35.14515],[126.8861,35.1413],[126.89026,35.13923],[126.89524,35.14101],[126.89607,35.14486],[126.89191,35.14693],[126.88693,35.14515]]]}},{"type":"Feature","properties":{"h3":"8830c632a1fffff","emd_code":"1224083000","emd_name":"풍암동","area_km2":0.5374,"edge":false,"slope_mean":9.93,"elev_mean":66.1,"flood_hist_n":0,"flood_depth_max_m":null,"flood_risk_100y":null,"semi_basement_r":null,"elderly_alone_r":0.0969,"bldg_age30_r":null,"shelter_min_walk":1,"pop":32705,"hh":14898,"elderly65_r":0.1645,"single_hh_r":0.3817,"source_level":"emd","flood_years":[],"landslide_hist_n":1},"geometry":{"type":"Polygon","coordinates":[[[126.8637,35.1226],[126.86287,35.11874],[126.86703,35.11667],[126.87201,35.11846],[126.87284,35.12231],[126.86868,35.12438],[126.8637,35.1226]]]}},{"type":"Feature","properties":{"h3":"8830c632a3fffff","emd_code":"1224083000","emd_name":"풍암동","area_km2":0.5374,"edge":false,"slope_mean":14.7,"elev_mean":112.0,"flood_hist_n":0,"flood_depth_max_m":null,"flood_risk_100y":null,"semi_basement_r":null,"elderly_alone_r":0.0969,"bldg_age30_r":null,"shelter_min_walk":2,"pop":32705,"hh":14898,"elderly65_r":0.1645,"single_hh_r":0.3817,"source_level":"emd","flood_years":[],"landslide_hist_n":1},"geometry":{"type":"Polygon","coordinates":[[[126.87284,35.12231],[126.87201,35.11846],[126.87616,35.11639],[126.88115,35.11817],[126.88197,35.12203],[126.87782,35.1241],[126.87284,35.12231]]]}},{"type":"Feature","properties":{"h3":"8830c632a5fffff","emd_code":"1224080000","emd_name":"서창동","area_km2":0.5375,"edge":false,"slope_mean":6.18,"elev_mean":54.1,"flood_hist_n":0,"flood_depth_max_m":null,"flood_risk_100y":null,"semi_basement_r":null,"elderly_alone_r":0.1423,"bldg_age30_r":null,"shelter_min_walk":12,"pop":7242,"hh":3233,"elderly65_r":0.2186,"single_hh_r":0.3631,"source_level":"emd","flood_years":[],"landslide_hist_n":0},"geometry":{"type":"Polygon","coordinates":[[[126.85789,35.11696],[126.85707,35.1131],[126.86122,35.11103],[126.8662,35.11282],[126.86703,35.11667],[126.86287,35.11874],[126.85789,35.11696]]]}},{"type":"Feature","properties":{"h3":"8830c632a7fffff","emd_code":"1224083000","emd_name":"풍암동","area_km2":0.5375,"edge":true,"slope_mean":12.85,"elev_mean":89.1,"flood_hist_n":0,"flood_depth_max_m":null,"flood_risk_100y":null,"semi_basement_r":null,"elderly_alone_r":0.0969,"bldg_age30_r":null,"shelter_min_walk":11,"pop":32705,"hh":14898,"elderly65_r":0.1645,"single_hh_r":0.3817,"source_level":"emd","flood_years":[],"landslide_hist_n":0},"geometry":{"type":"Polygon","coordinates":[[[126.86703,35.11667],[126.8662,35.11282],[126.87036,35.11075],[126.87534,35.11253],[126.87616,35.11639],[126.87201,35.11846],[126.86703,35.11667]]]}},{"type":"Feature","properties":{"h3":"8830c632a9fffff","emd_code":"1224083000","emd_name":"풍암동","area_km2":0.5373,"edge":false,"slope_mean":8.23,"elev_mean":49.4,"flood_hist_n":0,"flood_depth_max_m":null,"flood_risk_100y":null,"semi_basement_r":null,"elderly_alone_r":0.0969,"bldg_age30_r":null,"shelter_min_walk":7,"pop":32705,"hh":14898,"elderly65_r":0.1645,"single_hh_r":0.3817,"source_level":"emd","flood_years":[],"landslide_hist_n":0},"geometry":{"type":"Polygon","coordinates":[[[126.86037,35.12852],[126.85955,35.12467],[126.8637,35.1226],[126.86868,35.12438],[126.86951,35.12824],[126.86535,35.13031],[126.86037,35.12852]]]}},{"type":"Feature","properties":{"h3":"8830c632abfffff","emd_code":"1224083000","emd_name":"풍암동","area_km2":0.5373,"edge":false,"slope_mean":8.67,"elev_mean":59.1,"flood_hist_n":0,"flood_depth_max_m":null,"flood_risk_100y":null,"semi_basement_r":null,"elderly_alone_r":0.0969,"bldg_age30_r":null,"shelter_min_walk":3,"pop":32705,"hh":14898,"elderly65_r":0.1645,"single_hh_r":0.3817,"source_level":"emd","flood_years":[],"landslide_hist_n":0},"geometry":{"type":"Polygon","coordinates":[[[126.86951,35.12824],[126.86868,35.12438],[126.87284,35.12231],[126.87782,35.1241],[126.87864,35.12795],[126.87449,35.13002],[126.86951,35.12824]]]}},{"type":"Feature","properties":{"h3":"8830c632adfffff","emd_code":"1224080000","emd_name":"서창동","area_km2":0.5373,"edge":false,"slope_mean":6.15,"elev_mean":42.8,"flood_hist_n":0,"flood_depth_max_m":null,"flood_risk_100y":null,"semi_basement_r":null,"elderly_alone_r":0.1423,"bldg_age30_r":null,"shelter_min_walk":9,"pop":7242,"hh":3233,"elderly65_r":0.2186,"single_hh_r":0.3631,"source_level":"emd","flood_years":[],"landslide_hist_n":0},"geometry":{"type":"Polygon","coordinates":[[[126.85456,35.12288],[126.85374,35.11903],[126.85789,35.11696],[126.86287,35.11874],[126.8637,35.1226],[126.85955,35.12467],[126.85456,35.12288]]]}},{"type":"Feature","properties":{"h3":"8830c632b1fffff","emd_code":"1224083000","emd_name":"풍암동","area_km2":0.5374,"edge":true,"slope_mean":13.74,"elev_mean":103.2,"flood_hist_n":0,"flood_depth_max_m":null,"flood_risk_100y":null,"semi_basement_r":null,"elderly_alone_r":0.0969,"bldg_age30_r":null,"shelter_min_walk":3,"pop":32705,"hh":14898,"elderly65_r":0.1645,"single_hh_r":0.3817,"source_level":"emd","flood_years":[],"landslide_hist_n":0},"geometry":{"type":"Polygon","coordinates":[[[126.88778,35.12766],[126.88695,35.12381],[126.89111,35.12174],[126.89609,35.12352],[126.89692,35.12738],[126.89276,35.12945],[126.88778,35.12766]]]}},{"type":"Feature","properties":{"h3":"8830c632b5fffff","emd_code":"1224083000","emd_name":"풍암동","area_km2":0.5375,"edge":false,"slope_mean":19.68,"elev_mean":160.4,"flood_hist_n":0,"flood_depth_max_m":null,"flood_risk_100y":null,"semi_basement_r":null,"elderly_alone_r":0.0969,"bldg_age30_r":null,"shelter_min_walk":7,"pop":32705,"hh":14898,"elderly65_r":0.1645,"single_hh_r":0.3817,"source_level":"emd","flood_years":[],"landslide_hist_n":0},"geometry":{"type":"Polygon","coordinates":[[[126.88197,35.12203],[126.88115,35.11817],[126.8853,35.1161],[126.89028,35.11788],[126.89111,35.12174],[126.88695,35.12381],[126.88197,35.12203]]]}},{"type":"Feature","properties":{"h3":"8830c632b9fffff","emd_code":"1224083000","emd_name":"풍암동","area_km2":0.5373,"edge":true,"slope_mean":8.98,"elev_mean":69.6,"flood_hist_n":0,"flood_depth_max_m":null,"flood_risk_100y":null,"semi_basement_r":null,"elderly_alone_r":0.0969,"bldg_age30_r":null,"shelter_min_walk":3,"pop":32705,"hh":14898,"elderly65_r":0.1645,"single_hh_r":0.3817,"source_level":"emd","flood_years":[],"landslide_hist_n":0},"geometry":{"type":"Polygon","coordinates":[[[126.88445,35.13359],[126.88362,35.12974],[126.88778,35.12766],[126.89276,35.12945],[126.89359,35.1333],[126.88943,35.13537],[126.88445,35.13359]]]}},{"type":"Feature","properties":{"h3":"8830c632bdfffff","emd_code":"1224083000","emd_name":"풍암동","area_km2":0.5374,"edge":false,"slope_mean":10.02,"elev_mean":87.2,"flood_hist_n":0,"flood_depth_max_m":null,"flood_risk_100y":null,"semi_basement_r":null,"elderly_alone_r":0.0969,"bldg_age30_r":null,"shelter_min_walk":2,"pop":32705,"hh":14898,"elderly65_r":0.1645,"single_hh_r":0.3817,"source_level":"emd","flood_years":[],"landslide_hist_n":1},"geometry":{"type":"Polygon","coordinates":[[[126.87864,35.12795],[126.87782,35.1241],[126.88197,35.12203],[126.88695,35.12381],[126.88778,35.12766],[126.88362,35.12974],[126.87864,35.12795]]]}},{"type":"Feature","properties":{"h3":"8830c632c1fffff","emd_code":"1224075200","emd_name":"상무2동","area_km2":0.5369,"edge":false,"slope_mean":4.51,"elev_mean":34.8,"flood_hist_n":0,"flood_depth_max_m":null,"flood_risk_100y":null,"semi_basement_r":null,"elderly_alone_r":0.18,"bldg_age30_r":null,"shelter_min_walk":2,"pop":21753,"hh":13051,"elderly65_r":0.2589,"single_hh_r":0.606,"source_level":"emd","flood_years":[],"landslide_hist_n":0},"geometry":{"type":"Polygon","coordinates":[[[126.85619,35.15192],[126.85537,35.14807],[126.85952,35.146],[126.8645,35.14779],[126.86533,35.15164],[126.86117,35.15371],[126.85619,35.15192]]]}},{"type":"Feature","properties":{"h3":"8830c632c3fffff","emd_code":"1224075200","emd_name":"상무2동","area_km2":0.5369,"edge":false,"slope_mean":4.56,"elev_mean":44.8,"flood_hist_n":0,"flood_depth_max_m":null,"flood_risk_100y":null,"semi_basement_r":null,"elderly_alone_r":0.18,"bldg_age30_r":null,"shelter_min_walk":3,"pop":21753,"hh":13051,"elderly65_r":0.2589,"single_hh_r":0.606,"source_level":"emd","flood_years":[],"landslide_hist_n":0},"geometry":{"type":"Polygon","coordinates":[[[126.86533,35.15164],[126.8645,35.14779],[126.86866,35.14572],[126.87364,35.1475],[126.87446,35.15136],[126.87031,35.15342],[126.86533,35.15164]]]}},{"type":"Feature","properties":{"h3":"8830c632c5fffff","emd_code":"1224075200","emd_name":"상무2동","area_km2":0.5369,"edge":false,"slope_mean":6.36,"elev_mean":36.7,"flood_hist_n":0,"flood_depth_max_m":null,"flood_risk_100y":null,"semi_basement_r":null,"elderly_alone_r":0.18,"bldg_age30_r":null,"shelter_min_walk":3,"pop":21753,"hh":13051,"elderly65_r":0.2589,"single_hh_r":0.606,"source_level":"emd","flood_years":[],"landslide_hist_n":0},"geometry":{"type":"Polygon","coordinates":[[[126.85039,35.14629],[126.84956,35.14243],[126.85371,35.14037],[126.8587,35.14215],[126.85952,35.146],[126.85537,35.14807],[126.85039,35.14629]]]}},{"type":"Feature","properties":{"h3":"8830c632c7fffff","emd_code":"1224075200","emd_name":"상무2동","area_km2":0.537,"edge":false,"slope_mean":5.96,"elev_mean":45.1,"flood_hist_n":0,"flood_depth_max_m":null,"flood_risk_100y":null,"semi_basement_r":null,"elderly_alone_r":0.18,"bldg_age30_r":null,"shelter_min_walk":5,"pop":21753,"hh":13051,"elderly65_r":0.2589,"single_hh_r":0.606,"source_level":"emd","flood_years":[],"landslide_hist_n":0},"geometry":{"type":"Polygon","coordinates":[[[126.85952,35.146],[126.8587,35.14215],[126.86285,35.14008],[126.86783,35.14187],[126.86866,35.14572],[126.8645,35.14779],[126.85952,35.146]]]}},{"type":"Feature","properties":{"h3":"8830c632c9fffff","emd_code":"1224075100","emd_name":"상무1동","area_km2":0.5368,"edge":false,"slope_mean":6.91,"elev_mean":34.3,"flood_hist_n":0,"flood_depth_max_m":null,"flood_risk_100y":null,"semi_basement_r":null,"elderly_alone_r":0.0807,"bldg_age30_r":null,"shelter_min_walk":7,"pop":24516,"hh":12926,"elderly65_r":0.1667,"single_hh_r":0.5162,"source_level":"emd","flood_years":[],"landslide_hist_n":0},"geometry":{"type":"Polygon","coordinates":[[[126.85286,35.15784],[126.85204,35.15399],[126.85619,35.15192],[126.86117,35.15371],[126.862,35.15756],[126.85784,35.15963],[126.85286,35.15784]]]}},{"type":"Feature","properties":{"h3":"8830c632cbfffff","emd_code":"1224075100","emd_name":"상무1동","area_km2":0.5368,"edge":false,"slope_mean":5.0,"elev_mean":41.2,"flood_hist_n":0,"flood_depth_max_m":null,"flood_risk_100y":null,"semi_basement_r":null,"elderly_alone_r":0.0807,"bldg_age30_r":null,"shelter_min_walk":3,"pop":24516,"hh":12926,"elderly65_r":0.1667,"single_hh_r":0.5162,"source_level":"emd","flood_years":[],"landslide_hist_n":0},"geometry":{"type":"Polygon","coordinates":[[[126.862,35.15756],[126.86117,35.15371],[126.86533,35.15164],[126.87031,35.15342],[126.87114,35.15728],[126.86698,35.15934],[126.862,35.15756]]]}},{"type":"Feature","properties":{"h3":"8830c632cdfffff","emd_code":"1224074500","emd_name":"치평동","area_km2":0.5368,"edge":false,"slope_mean":5.92,"elev_mean":27.0,"flood_hist_n":0,"flood_depth_max_m":null,"flood_risk_100y":null,"semi_basement_r":null,"elderly_alone_r":0.0751,"bldg_age30_r":null,"shelter_min_walk":5,"pop":28759,"hh":14256,"elderly65_r":0.1618,"single_hh_r":0.4578,"source_level":"emd","flood_years":[],"landslide_hist_n":0},"geometry":{"type":"Polygon","coordinates":[[[126.84706,35.15221],[126.84623,35.14835],[126.85039,35.14629],[126.85537,35.14807],[126.85619,35.15192],[126.85204,35.15399],[126.84706,35.15221]]]}},{"type":"Feature","properties":{"h3":"8830c632d1fffff","emd_code":"1224065000","emd_name":"농성1동","area_km2":0.5369,"edge":false,"slope_mean":3.76,"elev_mean":36.6,"flood_hist_n":0,"flood_depth_max_m":null,"flood_risk_100y":null,"semi_basement_r":null,"elderly_alone_r":0.1708,"bldg_age30_r":null,"shelter_min_walk":2,"pop":11224,"hh":6575,"elderly65_r":0.2541,"single_hh_r":0.5792,"source_level":"emd","flood_years":[],"landslide_hist_n":0},"geometry":{"type":"Polygon","coordinates":[[[126.88027,35.15699],[126.87945,35.15314],[126.8836,35.15107],[126.88858,35.15286],[126.88941,35.15671],[126.88525,35.15878],[126.88027,35.15699]]]}},{"type":"Feature","properties":{"h3":"8830c632d3fffff","emd_code":"1224065000","emd_name":"농성1동","area_km2":0.537,"edge":false,"slope_mean":6.13,"elev_mean":50.5,"flood_hist_n":0,"flood_depth_max_m":null,"flood_risk_100y":null,"semi_basement_r":null,"elderly_alone_r":0.1708,"bldg_age30_r":null,"shelter_min_walk":5,"pop":11224,"hh":6575,"elderly65_r":0.2541,"single_hh_r":0.5792,"source_level":"emd","flood_years":[],"landslide_hist_n":0},"geometry":{"type":"Polygon","coordinates":[[[126.88941,35.15671],[126.88858,35.15286],[126.89274,35.15079],[126.89772,35.15257],[126.89855,35.15642],[126.89439,35.15849],[126.88941,35.15671]]]}},{"type":"Feature","properties":{"h3":"8830c632d5fffff","emd_code":"1224077000","emd_name":"화정2동","area_km2":0.537,"edge":false,"slope_mean":4.08,"elev_mean":42.7,"flood_hist_n":2,"flood_depth_max_m":1.085,"flood_risk_100y":null,"semi_basement_r":null,"elderly_alone_r":0.1047,"bldg_age30_r":null,"shelter_min_walk":3,"pop":18998,"hh":7776,"elderly65_r":0.1871,"single_hh_r":0.2787,"source_level":"emd","flood_years":[2018,2020],"landslide_hist_n":0},"geometry":{"type":"Polygon","coordinates":[[[126.87446,35.15136],[126.87364,35.1475],[126.87779,35.14544],[126.88278,35.14722],[126.8836,35.15107],[126.87945,35.15314],[126.87446,35.15136]]]}},{"type":"Feature","properties":{"h3":"8830c632d7fffff","emd_code":"1224066000","emd_name":"농성2동","area_km2":0.537,"edge":false,"slope_mean":3.14,"elev_mean":40.9,"flood_hist_n":2,"flood_depth_max_m":0.559,"flood_risk_100y":null,"semi_basement_r":null,"elderly_alone_r":0.1866,"bldg_age30_r":null,"shelter_min_walk":3,"pop":4122,"hh":2690,"elderly65_r":0.3091,"single_hh_r":0.6535,"source_level":"emd","flood_years":[2018,2020],"landslide_hist_n":0},"geometry":{"type":"Polygon","coordinates":[[[126.8836,35.15107],[126.88278,35.14722],[126.88693,35.14515],[126.89191,35.14693],[126.89274,35.15079],[126.88858,35.15286],[126.8836,35.15107]]]}},{"type":"Feature","properties":{"h3":"8830c632d9fffff","emd_code":"1224073000","emd_name":"광천동","area_km2":0.5368,"edge":false,"slope_mean":4.65,"elev_mean":30.5,"flood_hist_n":0,"flood_depth_max_m":null,"flood_risk_100y":null,"semi_basement_r":null,"elderly_alone_r":0.1155,"bldg_age30_r":null,"shelter_min_walk":2,"pop":4898,"hh":2304,"elderly65_r":0.1899,"single_hh_r":0.3993,"source_level":"emd","flood_years":[],"landslide_hist_n":0},"geometry":{"type":"Polygon","coordinates":[[[126.87694,35.16291],[126.87612,35.15906],[126.88027,35.15699],[126.88525,35.15878],[126.88608,35.16263],[126.88193,35.1647],[126.87694,35.16291]]]}},{"type":"Feature","properties":{"h3":"8830c632dbfffff","emd_code":"1224065000","emd_name":"농성1동","area_km2":0.5369,"edge":false,"slope_mean":4.3,"elev_mean":37.0,"flood_hist_n":0,"flood_depth_max_m":null,"flood_risk_100y":null,"semi_basement_r":null,"elderly_alone_r":0.1708,"bldg_age30_r":null,"shelter_min_walk":1,"pop":11224,"hh":6575,"elderly65_r":0.2541,"single_hh_r":0.5792,"source_level":"emd","flood_years":[],"landslide_hist_n":0},"geometry":{"type":"Polygon","coordinates":[[[126.88608,35.16263],[126.88525,35.15878],[126.88941,35.15671],[126.89439,35.15849],[126.89522,35.16234],[126.89106,35.16441],[126.88608,35.16263]]]}},{"type":"Feature","properties":{"h3":"8830c632ddfffff","emd_code":"1224076000","emd_name":"화정1동","area_km2":0.5369,"edge":false,"slope_mean":4.67,"elev_mean":41.0,"flood_hist_n":0,"flood_depth_max_m":null,"flood_risk_100y":null,"semi_basement_r":null,"elderly_alone_r":0.1281,"bldg_age30_r":null,"shelter_min_walk":2,"pop":15441,"hh":8920,"elderly65_r":0.2199,"single_hh_r":0.5738,"source_level":"emd","flood_years":[],"landslide_hist_n":0},"geometry":{"type":"Polygon","coordinates":[[[126.87114,35.15728],[126.87031,35.15342],[126.87446,35.15136],[126.87945,35.15314],[126.88027,35.15699],[126.87612,35.15906],[126.87114,35.15728]]]}},{"type":"Feature","properties":{"h3":"8830c632e1fffff","emd_code":"1224082100","emd_name":"금호1동","area_km2":0.5371,"edge":false,"slope_mean":5.31,"elev_mean":38.2,"flood_hist_n":0,"flood_depth_max_m":null,"flood_risk_100y":null,"semi_basement_r":null,"elderly_alone_r":0.158,"bldg_age30_r":null,"shelter_min_walk":6,"pop":20875,"hh":9601,"elderly65_r":0.2243,"single_hh_r":0.3757,"source_level":"emd","flood_years":[],"landslide_hist_n":0},"geometry":{"type":"Polygon","coordinates":[[[126.84791,35.13473],[126.84708,35.13087],[126.85124,35.12881],[126.85622,35.13059],[126.85704,35.13444],[126.85289,35.13651],[126.84791,35.13473]]]}},{"type":"Feature","properties":{"h3":"8830c632e3fffff","emd_code":"1224082400","emd_name":"금호2동","area_km2":0.5372,"edge":false,"slope_mean":6.3,"elev_mean":45.6,"flood_hist_n":0,"flood_depth_max_m":null,"flood_risk_100y":null,"semi_basement_r":null,"elderly_alone_r":0.0813,"bldg_age30_r":null,"shelter_min_walk":2,"pop":25458,"hh":10401,"elderly65_r":0.1435,"single_hh_r":0.2788,"source_level":"emd","flood_years":[],"landslide_hist_n":0},"geometry":{"type":"Polygon","coordinates":[[[126.85704,35.13444],[126.85622,35.13059],[126.86037,35.12852],[126.86535,35.13031],[126.86618,35.13416],[126.86202,35.13623],[126.85704,35.13444]]]}},{"type":"Feature","properties":{"h3":"8830c632e5fffff","emd_code":"1224080000","emd_name":"서창동","area_km2":0.5372,"edge":false,"slope_mean":4.83,"elev_mean":31.2,"flood_hist_n":0,"flood_depth_max_m":null,"flood_risk_100y":null,"semi_basement_r":null,"elderly_alone_r":0.1423,"bldg_age30_r":null,"shelter_min_walk":12,"pop":7242,"hh":3233,"elderly65_r":0.2186,"single_hh_r":0.3631,"source_level":"emd","flood_years":[],"landslide_hist_n":0},"geometry":{"type":"Polygon","coordinates":[[[126.8421,35.12909],[126.84128,35.12523],[126.84543,35.12317],[126.85041,35.12495],[126.85124,35.12881],[126.84708,35.13087],[126.8421,35.12909]]]}},{"type":"Feature","properties":{"h3":"8830c632e7fffff","emd_code":"1224082400","emd_name":"금호2동","area_km2":0.5372,"edge":false,"slope_mean":5.45,"elev_mean":35.9,"flood_hist_n":0,"flood_depth_max_m":null,"flood_risk_100y":null,"semi_basement_r":null,"elderly_alone_r":0.0813,"bldg_age30_r":null,"shelter_min_walk":1,"pop":25458,"hh":10401,"elderly65_r":0.1435,"single_hh_r":0.2788,"source_level":"emd","flood_years":[],"landslide_hist_n":0},"geometry":{"type":"Polygon","coordinates":[[[126.85124,35.12881],[126.85041,35.12495],[126.85456,35.12288],[126.85955,35.12467],[126.86037,35.12852],[126.85622,35.13059],[126.85124,35.12881]]]}},{"type":"Feature","properties":{"h3":"8830c632e9fffff","emd_code":"1224080000","emd_name":"서창동","area_km2":0.537,"edge":false,"slope_mean":5.87,"elev_mean":35.2,"flood_hist_n":0,"flood_depth_max_m":null,"flood_risk_100y":null,"semi_basement_r":null,"elderly_alone_r":0.1423,"bldg_age30_r":null,"shelter_min_walk":11,"pop":7242,"hh":3233,"elderly65_r":0.2186,"single_hh_r":0.3631,"source_level":"emd","flood_years":[],"landslide_hist_n":0},"geometry":{"type":"Polygon","coordinates":[[[126.84458,35.14065],[126.84375,35.1368],[126.84791,35.13473],[126.85289,35.13651],[126.85371,35.14037],[126.84956,35.14243],[126.84458,35.14065]]]}},{"type":"Feature","properties":{"h3":"8830c632ebfffff","emd_code":"1224082100","emd_name":"금호1동","area_km2":0.5371,"edge":false,"slope_mean":5.94,"elev_mean":47.1,"flood_hist_n":0,"flood_depth_max_m":null,"flood_risk_100y":null,"semi_basement_r":null,"elderly_alone_r":0.158,"bldg_age30_r":null,"shelter_min_walk":1,"pop":20875,"hh":9601,"elderly65_r":0.2243,"single_hh_r":0.3757,"source_level":"emd","flood_years":[],"landslide_hist_n":0},"geometry":{"type":"Polygon","coordinates":[[[126.85371,35.14037],[126.85289,35.13651],[126.85704,35.13444],[126.86202,35.13623],[126.86285,35.14008],[126.8587,35.14215],[126.85371,35.14037]]]}},{"type":"Feature","properties":{"h3":"8830c632edfffff","emd_code":"1224082100","emd_name":"금호1동","area_km2":0.5371,"edge":false,"slope_mean":3.4,"elev_mean":25.5,"flood_hist_n":0,"flood_depth_max_m":null,"flood_risk_100y":null,"semi_basement_r":null,"elderly_alone_r":0.158,"bldg_age30_r":null,"shelter_min_walk":17,"pop":20875,"hh":9601,"elderly65_r":0.2243,"single_hh_r":0.3757,"source_level":"emd","flood_years":[],"landslide_hist_n":0},"geometry":{"type":"Polygon","coordinates":[[[126.83877,35.13501],[126.83795,35.13116],[126.8421,35.12909],[126.84708,35.13087],[126.84791,35.13473],[126.84375,35.1368],[126.83877,35.13501]]]}},{"type":"Feature","properties":{"h3":"8830c63313fffff","emd_code":"1224080000","emd_name":"서창동","area_km2":0.5373,"edge":true,"slope_mean":1.53,"elev_mean":10.6,"flood_hist_n":0,"flood_depth_max_m":null,"flood_risk_100y":null,"semi_basement_r":null,"elderly_alone_r":0.1423,"bldg_age30_r":null,"shelter_min_walk":38,"pop":7242,"hh":3233,"elderly65_r":0.2186,"single_hh_r":0.3631,"source_level":"emd","flood_years":[],"landslide_hist_n":0},"geometry":{"type":"Polygon","coordinates":[[[126.80062,35.10709],[126.79979,35.10323],[126.80394,35.10116],[126.80892,35.10295],[126.80975,35.10681],[126.8056,35.10887],[126.80062,35.10709]]]}},{"type":"Feature","properties":{"h3":"8830c63317fffff","emd_code":"1224080000","emd_name":"서창동","area_km2":0.5374,"edge":true,"slope_mean":1.07,"elev_mean":9.7,"flood_hist_n":0,"flood_depth_max_m":null,"flood_risk_100y":null,"semi_basement_r":null,"elderly_alone_r":0.1423,"bldg_age30_r":null,"shelter_min_walk":34,"pop":7242,"hh":3233,"elderly65_r":0.2186,"single_hh_r":0.3631,"source_level":"emd","flood_years":[],"landslide_hist_n":0},"geometry":{"type":"Polygon","coordinates":[[[126.79481,35.10144],[126.79399,35.09759],[126.79814,35.09552],[126.80312,35.09731],[126.80394,35.10116],[126.79979,35.10323],[126.79481,35.10144]]]}},{"type":"Feature","properties":{"h3":"8830c6331bfffff","emd_code":"1224080000","emd_name":"서창동","area_km2":0.5372,"edge":true,"slope_mean":1.14,"elev_mean":11.9,"flood_hist_n":0,"flood_depth_max_m":null,"flood_risk_100y":null,"semi_basement_r":null,"elderly_alone_r":0.1423,"bldg_age30_r":null,"shelter_min_walk":31,"pop":7242,"hh":3233,"elderly65_r":0.2186,"single_hh_r":0.3631,"source_level":"emd","flood_years":[],"landslide_hist_n":0},"geometry":{"type":"Polygon","coordinates":[[[126.79729,35.11301],[126.79646,35.10916],[126.80062,35.10709],[126.8056,35.10887],[126.80642,35.11273],[126.80227,35.1148],[126.79729,35.11301]]]}},{"type":"Feature","properties":{"h3":"8830c6ad05fffff","emd_code":"1224084000","emd_name":"동천동","area_km2":0.5364,"edge":false,"slope_mean":1.32,"elev_mean":18.3,"flood_hist_n":0,"flood_depth_max_m":null,"flood_risk_100y":null,"semi_basement_r":null,"elderly_alone_r":0.1194,"bldg_age30_r":null,"shelter_min_walk":18,"pop":14736,"hh":6367,"elderly65_r":0.1762,"single_hh_r":0.3256,"source_level":"emd","flood_years":[],"landslide_hist_n":0},"geometry":{"type":"Polygon","coordinates":[[[126.84288,35.1756],[126.84205,35.17175],[126.84621,35.16968],[126.85119,35.17146],[126.85201,35.17532],[126.84786,35.17738],[126.84288,35.1756]]]}},{"type":"Feature","properties":{"h3":"8830c6ad07fffff","emd_code":"1224084000","emd_name":"동천동","area_km2":0.5365,"edge":true,"slope_mean":4.39,"elev_mean":25.9,"flood_hist_n":1,"flood_depth_max_m":0.72,"flood_risk_100y":null,"semi_basement_r":null,"elderly_alone_r":0.1194,"bldg_age30_r":null,"shelter_min_walk":7,"pop":14736,"hh":6367,"elderly65_r":0.1762,"single_hh_r":0.3256,"source_level":"emd","flood_years":[2020],"landslide_hist_n":0},"geometry":{"type":"Polygon","coordinates":[[[126.85201,35.17532],[126.85119,35.17146],[126.85534,35.1694],[126.86032,35.17118],[126.86115,35.17503],[126.85699,35.1771],[126.85201,35.17532]]]}},{"type":"Feature","properties":{"h3":"8830c6ad0dfffff","emd_code":"1224074000","emd_name":"유덕동","area_km2":0.5363,"edge":true,"slope_mean":2.68,"elev_mean":17.8,"flood_hist_n":1,"flood_depth_max_m":1.557,"flood_risk_100y":null,"semi_basement_r":null,"elderly_alone_r":0.1204,"bldg_age30_r":null,"shelter_min_walk":10,"pop":9800,"hh":4741,"elderly65_r":0.1741,"single_hh_r":0.4476,"source_level":"emd","flood_years":[2020],"landslide_hist_n":0},"geometry":{"type":"Polygon","coordinates":[[[126.83955,35.18151],[126.83872,35.17766],[126.84288,35.1756],[126.84786,35.17738],[126.84868,35.18123],[126.84453,35.1833],[126.83955,35.18151]]]}},{"type":"Feature","properties":{"h3":"8830c6ad21fffff","emd_code":"1224074000","emd_name":"유덕동","area_km2":0.5366,"edge":false,"slope_mean":3.4,"elev_mean":19.2,"flood_hist_n":0,"flood_depth_max_m":null,"flood_risk_100y":null,"semi_basement_r":null,"elderly_alone_r":0.1204,"bldg_age30_r":null,"shelter_min_walk":6,"pop":9800,"hh":4741,"elderly65_r":0.1741,"single_hh_r":0.4476,"source_level":"emd","flood_years":[],"landslide_hist_n":0},"geometry":{"type":"Polygon","coordinates":[[[126.8404,35.16404],[126.83957,35.16019],[126.84373,35.15813],[126.84871,35.15991],[126.84954,35.16376],[126.84538,35.16583],[126.8404,35.16404]]]}},{"type":"Feature","properties":{"h3":"8830c6ad23fffff","emd_code":"1224074000","emd_name":"유덕동","area_km2":0.5366,"edge":false,"slope_mean":4.18,"elev_mean":22.8,"flood_hist_n":0,"flood_depth_max_m":null,"flood_risk_100y":null,"semi_basement_r":null,"elderly_alone_r":0.1204,"bldg_age30_r":null,"shelter_min_walk":5,"pop":9800,"hh":4741,"elderly65_r":0.1741,"single_hh_r":0.4476,"source_level":"emd","flood_years":[],"landslide_hist_n":0},"geometry":{"type":"Polygon","coordinates":[[[126.84954,35.16376],[126.84871,35.15991],[126.85286,35.15784],[126.85784,35.15963],[126.85867,35.16348],[126.85452,35.16555],[126.84954,35.16376]]]}},{"type":"Feature","properties":{"h3":"8830c6ad25fffff","emd_code":"1224074500","emd_name":"치평동","area_km2":0.5367,"edge":false,"slope_mean":3.81,"elev_mean":18.6,"flood_hist_n":1,"flood_depth_max_m":1.02,"flood_risk_100y":null,"semi_basement_r":null,"elderly_alone_r":0.0751,"bldg_age30_r":null,"shelter_min_walk":6,"pop":28759,"hh":14256,"elderly65_r":0.1618,"single_hh_r":0.4578,"source_level":"emd","flood_years":[2020],"landslide_hist_n":0},"geometry":{"type":"Polygon","coordinates":[[[126.83459,35.15841],[126.83377,35.15456],[126.83792,35.15249],[126.8429,35.15427],[126.84373,35.15813],[126.83957,35.16019],[126.83459,35.15841]]]}},{"type":"Feature","properties":{"h3":"8830c6ad27fffff","emd_code":"1224074500","emd_name":"치평동","area_km2":0.5367,"edge":false,"slope_mean":4.9,"elev_mean":22.9,"flood_hist_n":0,"flood_depth_max_m":null,"flood_risk_100y":null,"semi_basement_r":null,"elderly_alone_r":0.0751,"bldg_age30_r":null,"shelter_min_walk":2,"pop":28759,"hh":14256,"elderly65_r":0.1618,"single_hh_r":0.4578,"source_level":"emd","flood_years":[],"landslide_hist_n":0},"geometry":{"type":"Polygon","coordinates":[[[126.84373,35.15813],[126.8429,35.15427],[126.84706,35.15221],[126.85204,35.15399],[126.85286,35.15784],[126.84871,35.15991],[126.84373,35.15813]]]}},{"type":"Feature","properties":{"h3":"8830c6ad29fffff","emd_code":"1224074000","emd_name":"유덕동","area_km2":0.5365,"edge":false,"slope_mean":1.58,"elev_mean":17.5,"flood_hist_n":0,"flood_depth_max_m":null,"flood_risk_100y":null,"semi_basement_r":null,"elderly_alone_r":0.1204,"bldg_age30_r":null,"shelter_min_walk":17,"pop":9800,"hh":4741,"elderly65_r":0.1741,"single_hh_r":0.4476,"source_level":"emd","flood_years":[],"landslide_hist_n":1},"geometry":{"type":"Polygon","coordinates":[[[126.83707,35.16996],[126.83625,35.16611],[126.8404,35.16404],[126.84538,35.16583],[126.84621,35.16968],[126.84205,35.17175],[126.83707,35.16996]]]}},{"type":"Feature","properties":{"h3":"8830c6ad2bfffff","emd_code":"1224074000","emd_name":"유덕동","area_km2":0.5365,"edge":false,"slope_mean":1.36,"elev_mean":18.8,"flood_hist_n":1,"flood_depth_max_m":0.72,"flood_risk_100y":null,"semi_basement_r":null,"elderly_alone_r":0.1204,"bldg_age30_r":null,"shelter_min_walk":12,"pop":9800,"hh":4741,"elderly65_r":0.1741,"single_hh_r":0.4476,"source_level":"emd","flood_years":[2020],"landslide_hist_n":0},"geometry":{"type":"Polygon","coordinates":[[[126.84621,35.16968],[126.84538,35.16583],[126.84954,35.16376],[126.85452,35.16555],[126.85534,35.1694],[126.85119,35.17146],[126.84621,35.16968]]]}},{"type":"Feature","properties":{"h3":"8830c6ad2dfffff","emd_code":"1224074000","emd_name":"유덕동","area_km2":0.5365,"edge":false,"slope_mean":1.73,"elev_mean":16.3,"flood_hist_n":1,"flood_depth_max_m":1.997,"flood_risk_100y":null,"semi_basement_r":null,"elderly_alone_r":0.1204,"bldg_age30_r":null,"shelter_min_walk":15,"pop":9800,"hh":4741,"elderly65_r":0.1741,"single_hh_r":0.4476,"source_level":"emd","flood_years":[2020],"landslide_hist_n":0},"geometry":{"type":"Polygon","coordinates":[[[126.83127,35.16433],[126.83044,35.16047],[126.83459,35.15841],[126.83957,35.16019],[126.8404,35.16404],[126.83625,35.16611],[126.83127,35.16433]]]}},{"type":"Feature","properties":{"h3":"8830c6ad31fffff","emd_code":"1224074000","emd_name":"유덕동","area_km2":0.5366,"edge":false,"slope_mean":3.94,"elev_mean":25.8,"flood_hist_n":0,"flood_depth_max_m":null,"flood_risk_100y":null,"semi_basement_r":null,"elderly_alone_r":0.1204,"bldg_age30_r":null,"shelter_min_walk":5,"pop":9800,"hh":4741,"elderly65_r":0.1741,"single_hh_r":0.4476,"source_level":"emd","flood_years":[],"landslide_hist_n":0},"geometry":{"type":"Polygon","coordinates":[[[126.86448,35.16912],[126.86365,35.16526],[126.86781,35.1632],[126.87279,35.16498],[126.87362,35.16883],[126.86946,35.1709],[126.86448,35.16912]]]}},{"type":"Feature","properties":{"h3":"8830c6ad33fffff","emd_code":"1224073000","emd_name":"광천동","area_km2":0.5367,"edge":false,"slope_mean":2.83,"elev_mean":26.1,"flood_hist_n":1,"flood_depth_max_m":1.292,"flood_risk_100y":null,"semi_basement_r":null,"elderly_alone_r":0.1155,"bldg_age30_r":null,"shelter_min_walk":5,"pop":4898,"hh":2304,"elderly65_r":0.1899,"single_hh_r":0.3993,"source_level":"emd","flood_years":[2020],"landslide_hist_n":0},"geometry":{"type":"Polygon","coordinates":[[[126.87362,35.16883],[126.87279,35.16498],[126.87694,35.16291],[126.88193,35.1647],[126.88275,35.16855],[126.8786,35.17062],[126.87362,35.16883]]]}},{"type":"Feature","properties":{"h3":"8830c6ad35fffff","emd_code":"1224075100","emd_name":"상무1동","area_km2":0.5367,"edge":false,"slope_mean":3.7,"elev_mean":27.3,"flood_hist_n":0,"flood_depth_max_m":null,"flood_risk_100y":null,"semi_basement_r":null,"elderly_alone_r":0.0807,"bldg_age30_r":null,"shelter_min_walk":2,"pop":24516,"hh":12926,"elderly65_r":0.1667,"single_hh_r":0.5162,"source_level":"emd","flood_years":[],"landslide_hist_n":0},"geometry":{"type":"Polygon","coordinates":[[[126.85867,35.16348],[126.85784,35.15963],[126.862,35.15756],[126.86698,35.15934],[126.86781,35.1632],[126.86365,35.16526],[126.85867,35.16348]]]}},{"type":"Feature","properties":{"h3":"8830c6ad37fffff","emd_code":"1224074000","emd_name":"유덕동","area_km2":0.5367,"edge":false,"slope_mean":4.66,"elev_mean":29.3,"flood_hist_n":0,"flood_depth_max_m":null,"flood_risk_100y":null,"semi_basement_r":null,"elderly_alone_r":0.1204,"bldg_age30_r":null,"shelter_min_walk":8,"pop":9800,"hh":4741,"elderly65_r":0.1741,"single_hh_r":0.4476,"source_level":"emd","flood_years":[],"landslide_hist_n":0},"geometry":{"type":"Polygon","coordinates":[[[126.86781,35.1632],[126.86698,35.15934],[126.87114,35.15728],[126.87612,35.15906],[126.87694,35.16291],[126.87279,35.16498],[126.86781,35.1632]]]}},{"type":"Feature","properties":{"h3":"8830c6ad39fffff","emd_code":"1224084000","emd_name":"동천동","area_km2":0.5365,"edge":true,"slope_mean":6.48,"elev_mean":33.6,"flood_hist_n":0,"flood_depth_max_m":null,"flood_risk_100y":null,"semi_basement_r":null,"elderly_alone_r":0.1194,"bldg_age30_r":null,"shelter_min_walk":4,"pop":14736,"hh":6367,"elderly65_r":0.1762,"single_hh_r":0.3256,"source_level":"emd","flood_years":[],"landslide_hist_n":1},"geometry":{"type":"Polygon","coordinates":[[[126.86115,35.17503],[126.86032,35.17118],[126.86448,35.16912],[126.86946,35.1709],[126.87029,35.17475],[126.86613,35.17682],[126.86115,35.17503]]]}},{"type":"Feature","properties":{"h3":"8830c6ad3bfffff","emd_code":"1224084000","emd_name":"동천동","area_km2":0.5366,"edge":true,"slope_mean":3.9,"elev_mean":29.8,"flood_hist_n":0,"flood_depth_max_m":null,"flood_risk_100y":null,"semi_basement_r":null,"elderly_alone_r":0.1194,"bldg_age30_r":null,"shelter_min_walk":5,"pop":14736,"hh":6367,"elderly65_r":0.1762,"single_hh_r":0.3256,"source_level":"emd","flood_years":[],"landslide_hist_n":0},"geometry":{"type":"Polygon","coordinates":[[[126.87029,35.17475],[126.86946,35.1709],[126.87362,35.16883],[126.8786,35.17062],[126.87942,35.17447],[126.87527,35.17653],[126.87029,35.17475]]]}},{"type":"Feature","properties":{"h3":"8830c6ad3dfffff","emd_code":"1224074000","emd_name":"유덕동","area_km2":0.5366,"edge":false,"slope_mean":4.0,"elev_mean":23.7,"flood_hist_n":0,"flood_depth_max_m":null,"flood_risk_100y":null,"semi_basement_r":null,"elderly_alone_r":0.1204,"bldg_age30_r":null,"shelter_min_walk":2,"pop":9800,"hh":4741,"elderly65_r":0.1741,"single_hh_r":0.4476,"source_level":"emd","flood_years":[],"landslide_hist_n":0},"geometry":{"type":"Polygon","coordinates":[[[126.85534,35.1694],[126.85452,35.16555],[126.85867,35.16348],[126.86365,35.16526],[126.86448,35.16912],[126.86032,35.17118],[126.85534,35.1694]]]}},{"type":"Feature","properties":{"h3":"8830c6ad63fffff","emd_code":"1224074000","emd_name":"유덕동","area_km2":0.5364,"edge":false,"slope_mean":2.57,"elev_mean":16.4,"flood_hist_n":0,"flood_depth_max_m":null,"flood_risk_100y":null,"semi_basement_r":null,"elderly_alone_r":0.1204,"bldg_age30_r":null,"shelter_min_walk":13,"pop":9800,"hh":4741,"elderly65_r":0.1741,"single_hh_r":0.4476,"source_level":"emd","flood_years":[],"landslide_hist_n":0},"geometry":{"type":"Polygon","coordinates":[[[126.83374,35.17588],[126.83292,35.17203],[126.83707,35.16996],[126.84205,35.17175],[126.84288,35.1756],[126.83872,35.17766],[126.83374,35.17588]]]}},{"type":"Feature","properties":{"h3":"8830c6ad65fffff","emd_code":"1224074000","emd_name":"유덕동","area_km2":0.5364,"edge":true,"slope_mean":2.2,"elev_mean":15.5,"flood_hist_n":1,"flood_depth_max_m":2.033,"flood_risk_100y":null,"semi_basement_r":null,"elderly_alone_r":0.1204,"bldg_age30_r":null,"shelter_min_walk":11,"pop":9800,"hh":4741,"elderly65_r":0.1741,"single_hh_r":0.4476,"source_level":"emd","flood_years":[2020],"landslide_hist_n":0},"geometry":{"type":"Polygon","coordinates":[[[126.8188,35.17052],[126.81798,35.16667],[126.82213,35.16461],[126.82711,35.16639],[126.82794,35.17024],[126.82378,35.17231],[126.8188,35.17052]]]}},{"type":"Feature","properties":{"h3":"8830c6ad67fffff","emd_code":"1224074000","emd_name":"유덕동","area_km2":0.5364,"edge":false,"slope_mean":2.97,"elev_mean":16.2,"flood_hist_n":0,"flood_depth_max_m":null,"flood_risk_100y":null,"semi_basement_r":null,"elderly_alone_r":0.1204,"bldg_age30_r":null,"shelter_min_walk":14,"pop":9800,"hh":4741,"elderly65_r":0.1741,"single_hh_r":0.4476,"source_level":"emd","flood_years":[],"landslide_hist_n":0},"geometry":{"type":"Polygon","coordinates":[[[126.82794,35.17024],[126.82711,35.16639],[126.83127,35.16433],[126.83625,35.16611],[126.83707,35.16996],[126.83292,35.17203],[126.82794,35.17024]]]}},{"type":"Feature","properties":{"h3":"8830c6ad6bfffff","emd_code":"1224074000","emd_name":"유덕동","area_km2":0.5363,"edge":true,"slope_mean":4.8,"elev_mean":24.1,"flood_hist_n":1,"flood_depth_max_m":0.807,"flood_risk_100y":null,"semi_basement_r":null,"elderly_alone_r":0.1204,"bldg_age30_r":null,"shelter_min_walk":4,"pop":9800,"hh":4741,"elderly65_r":0.1741,"single_hh_r":0.4476,"source_level":"emd","flood_years":[2020],"landslide_hist_n":0},"geometry":{"type":"Polygon","coordinates":[[[126.83041,35.18179],[126.82959,35.17794],[126.83374,35.17588],[126.83872,35.17766],[126.83955,35.18151],[126.83539,35.18358],[126.83041,35.18179]]]}},{"type":"Feature","properties":{"h3":"8830c6ada5fffff","emd_code":"1224057500","emd_name":"양동","area_km2":0.537,"edge":false,"slope_mean":4.0,"elev_mean":43.6,"flood_hist_n":0,"flood_depth_max_m":null,"flood_risk_100y":null,"semi_basement_r":null,"elderly_alone_r":0.3064,"bldg_age30_r":null,"shelter_min_walk":1,"pop":2658,"hh":1573,"elderly65_r":0.4782,"single_hh_r":0.5601,"source_level":"emd","flood_years":[],"landslide_hist_n":0},"geometry":{"type":"Polygon","coordinates":[[[126.89855,35.15642],[126.89772,35.15257],[126.90188,35.1505],[126.90686,35.15228],[126.90769,35.15613],[126.90353,35.1582],[126.89855,35.15642]]]}},{"type":"Feature","properties":{"h3":"8830c6adadfffff","emd_code":"1224059000","emd_name":"양3동","area_km2":0.5369,"edge":true,"slope_mean":3.5,"elev_mean":37.5,"flood_hist_n":0,"flood_depth_max_m":null,"flood_risk_100y":null,"semi_basement_r":null,"elderly_alone_r":0.2174,"bldg_age30_r":null,"shelter_min_walk":8,"pop":4000,"hh":2038,"elderly65_r":0.3187,"single_hh_r":0.4534,"source_level":"emd","flood_years":[],"landslide_hist_n":0},"geometry":{"type":"Polygon","coordinates":[[[126.89522,35.16234],[126.89439,35.15849],[126.89855,35.15642],[126.90353,35.1582],[126.90436,35.16206],[126.9002,35.16413],[126.89522,35.16234]]]}},{"type":"Feature","properties":{"h3":"8830c6ade5fffff","emd_code":"1224073000","emd_name":"광천동","area_km2":0.5367,"edge":true,"slope_mean":3.62,"elev_mean":29.3,"flood_hist_n":1,"flood_depth_max_m":0.545,"flood_risk_100y":null,"semi_basement_r":null,"elderly_alone_r":0.1155,"bldg_age30_r":null,"shelter_min_walk":4,"pop":4898,"hh":2304,"elderly65_r":0.1899,"single_hh_r":0.3993,"source_level":"emd","flood_years":[2020],"landslide_hist_n":0},"geometry":{"type":"Polygon","coordinates":[[[126.88275,35.16855],[126.88193,35.1647],[126.88608,35.16263],[126.89106,35.16441],[126.89189,35.16826],[126.88773,35.17033],[126.88275,35.16855]]]}},{"type":"Feature","properties":{"h3":"8830c6adedfffff","emd_code":"1224073000","emd_name":"광천동","area_km2":0.5366,"edge":true,"slope_mean":3.15,"elev_mean":30.1,"flood_hist_n":0,"flood_depth_max_m":null,"flood_risk_100y":null,"semi_basement_r":null,"elderly_alone_r":0.1155,"bldg_age30_r":null,"shelter_min_walk":1,"pop":4898,"hh":2304,"elderly65_r":0.1899,"single_hh_r":0.3993,"source_level":"emd","flood_years":[],"landslide_hist_n":0},"geometry":{"type":"Polygon","coordinates":[[[126.87942,35.17447],[126.8786,35.17062],[126.88275,35.16855],[126.88773,35.17033],[126.88856,35.17418],[126.88441,35.17625],[126.87942,35.17447]]]}}]}