{"type":"FeatureCollection","name":"grid_12270_h3r8","meta":{"sgg_code":"12270","h3_res":8,"n_cells":152,"dem":"Copernicus GLO-30 (bbox-mean)","crs":"EPSG:4326","jumin_basis":"2026-07","flood_src":"행안부 침수흔적도(전국, 재난안전데이터공유플랫폼)","landslide_src":"행안부 산사태 발생이력"},"features":[{"type":"Feature","properties":{"h3":"8830c60491fffff","emd_code":"1227073000","emd_name":"대촌동","area_km2":0.5377,"edge":false,"slope_mean":4.27,"elev_mean":14.5,"flood_hist_n":0,"flood_depth_max_m":null,"flood_risk_100y":null,"semi_basement_r":null,"elderly_alone_r":0.1949,"bldg_age30_r":null,"shelter_min_walk":49,"pop":9040,"hh":4396,"elderly65_r":0.2742,"single_hh_r":0.4115,"source_level":"emd","flood_years":[],"landslide_hist_n":0},"geometry":{"type":"Polygon","coordinates":[[[126.75087,35.06785],[126.75005,35.06399],[126.7542,35.06192],[126.75917,35.06371],[126.76,35.06757],[126.75585,35.06964],[126.75087,35.06785]]]}},{"type":"Feature","properties":{"h3":"8830c60493fffff","emd_code":"1227073000","emd_name":"대촌동","area_km2":0.5378,"edge":false,"slope_mean":2.6,"elev_mean":7.9,"flood_hist_n":0,"flood_depth_max_m":null,"flood_risk_100y":null,"semi_basement_r":null,"elderly_alone_r":0.1949,"bldg_age30_r":null,"shelter_min_walk":57,"pop":9040,"hh":4396,"elderly65_r":0.2742,"single_hh_r":0.4115,"source_level":"emd","flood_years":[],"landslide_hist_n":0},"geometry":{"type":"Polygon","coordinates":[[[126.76,35.06757],[126.75917,35.06371],[126.76333,35.06164],[126.7683,35.06343],[126.76913,35.06729],[126.76498,35.06936],[126.76,35.06757]]]}},{"type":"Feature","properties":{"h3":"8830c60497fffff","emd_code":"1227073000","emd_name":"대촌동","area_km2":0.5378,"edge":true,"slope_mean":2.45,"elev_mean":7.6,"flood_hist_n":0,"flood_depth_max_m":null,"flood_risk_100y":null,"semi_basement_r":null,"elderly_alone_r":0.1949,"bldg_age30_r":null,"shelter_min_walk":50,"pop":9040,"hh":4396,"elderly65_r":0.2742,"single_hh_r":0.4115,"source_level":"emd","flood_years":[],"landslide_hist_n":0},"geometry":{"type":"Polygon","coordinates":[[[126.7542,35.06192],[126.75337,35.05806],[126.75753,35.05599],[126.7625,35.05778],[126.76333,35.06164],[126.75917,35.06371],[126.7542,35.06192]]]}},{"type":"Feature","properties":{"h3":"8830c6049bfffff","emd_code":"1227073000","emd_name":"대촌동","area_km2":0.5377,"edge":true,"slope_mean":4.94,"elev_mean":16.8,"flood_hist_n":0,"flood_depth_max_m":null,"flood_risk_100y":null,"semi_basement_r":null,"elderly_alone_r":0.1949,"bldg_age30_r":null,"shelter_min_walk":49,"pop":9040,"hh":4396,"elderly65_r":0.2742,"single_hh_r":0.4115,"source_level":"emd","flood_years":[],"landslide_hist_n":0},"geometry":{"type":"Polygon","coordinates":[[[126.75667,35.0735],[126.75585,35.06964],[126.76,35.06757],[126.76498,35.06936],[126.7658,35.07322],[126.76165,35.07529],[126.75667,35.0735]]]}},{"type":"Feature","properties":{"h3":"8830c63001fffff","emd_code":"1227073000","emd_name":"대촌동","area_km2":0.5376,"edge":true,"slope_mean":18.49,"elev_mean":106.4,"flood_hist_n":0,"flood_depth_max_m":null,"flood_risk_100y":null,"semi_basement_r":null,"elderly_alone_r":0.1949,"bldg_age30_r":null,"shelter_min_walk":28,"pop":9040,"hh":4396,"elderly65_r":0.2742,"single_hh_r":0.4115,"source_level":"emd","flood_years":[],"landslide_hist_n":0},"geometry":{"type":"Polygon","coordinates":[[[126.83134,35.10032],[126.83052,35.09646],[126.83467,35.09439],[126.83965,35.09618],[126.84047,35.10003],[126.83632,35.1021],[126.83134,35.10032]]]}},{"type":"Feature","properties":{"h3":"8830c63003fffff","emd_code":"1227073000","emd_name":"대촌동","area_km2":0.5376,"edge":false,"slope_mean":12.85,"elev_mean":70.0,"flood_hist_n":0,"flood_depth_max_m":null,"flood_risk_100y":null,"semi_basement_r":null,"elderly_alone_r":0.1949,"bldg_age30_r":null,"shelter_min_walk":33,"pop":9040,"hh":4396,"elderly65_r":0.2742,"single_hh_r":0.4115,"source_level":"emd","flood_years":[],"landslide_hist_n":0},"geometry":{"type":"Polygon","coordinates":[[[126.84047,35.10003],[126.83965,35.09618],[126.8438,35.09411],[126.84878,35.09589],[126.84961,35.09975],[126.84545,35.10182],[126.84047,35.10003]]]}},{"type":"Feature","properties":{"h3":"8830c63005fffff","emd_code":"1227073000","emd_name":"대촌동","area_km2":0.5377,"edge":false,"slope_mean":7.91,"elev_mean":47.1,"flood_hist_n":0,"flood_depth_max_m":null,"flood_risk_100y":null,"semi_basement_r":null,"elderly_alone_r":0.1949,"bldg_age30_r":null,"shelter_min_walk":17,"pop":9040,"hh":4396,"elderly65_r":0.2742,"single_hh_r":0.4115,"source_level":"emd","flood_years":[],"landslide_hist_n":0},"geometry":{"type":"Polygon","coordinates":[[[126.82554,35.09467],[126.82471,35.09082],[126.82886,35.08875],[126.83384,35.09053],[126.83467,35.09439],[126.83052,35.09646],[126.82554,35.09467]]]}},{"type":"Feature","properties":{"h3":"8830c63007fffff","emd_code":"1227073000","emd_name":"대촌동","area_km2":0.5377,"edge":false,"slope_mean":10.9,"elev_mean":58.1,"flood_hist_n":0,"flood_depth_max_m":null,"flood_risk_100y":null,"semi_basement_r":null,"elderly_alone_r":0.1949,"bldg_age30_r":null,"shelter_min_walk":20,"pop":9040,"hh":4396,"elderly65_r":0.2742,"single_hh_r":0.4115,"source_level":"emd","flood_years":[],"landslide_hist_n":0},"geometry":{"type":"Polygon","coordinates":[[[126.83467,35.09439],[126.83384,35.09053],[126.838,35.08846],[126.84298,35.09025],[126.8438,35.09411],[126.83965,35.09618],[126.83467,35.09439]]]}},{"type":"Feature","properties":{"h3":"8830c6300bfffff","emd_code":"1227073000","emd_name":"대촌동","area_km2":0.5375,"edge":true,"slope_mean":16.23,"elev_mean":87.6,"flood_hist_n":0,"flood_depth_max_m":null,"flood_risk_100y":null,"semi_basement_r":null,"elderly_alone_r":0.1949,"bldg_age30_r":null,"shelter_min_walk":23,"pop":9040,"hh":4396,"elderly65_r":0.2742,"single_hh_r":0.4115,"source_level":"emd","flood_years":[],"landslide_hist_n":0},"geometry":{"type":"Polygon","coordinates":[[[126.83715,35.10596],[126.83632,35.1021],[126.84047,35.10003],[126.84545,35.10182],[126.84628,35.10568],[126.84213,35.10775],[126.83715,35.10596]]]}},{"type":"Feature","properties":{"h3":"8830c6300dfffff","emd_code":"1227073000","emd_name":"대촌동","area_km2":0.5375,"edge":true,"slope_mean":12.18,"elev_mean":60.3,"flood_hist_n":0,"flood_depth_max_m":null,"flood_risk_100y":null,"semi_basement_r":null,"elderly_alone_r":0.1949,"bldg_age30_r":null,"shelter_min_walk":27,"pop":9040,"hh":4396,"elderly65_r":0.2742,"single_hh_r":0.4115,"source_level":"emd","flood_years":[],"landslide_hist_n":0},"geometry":{"type":"Polygon","coordinates":[[[126.82221,35.1006],[126.82138,35.09674],[126.82554,35.09467],[126.83052,35.09646],[126.83134,35.10032],[126.82719,35.10239],[126.82221,35.1006]]]}},{"type":"Feature","properties":{"h3":"8830c63011fffff","emd_code":"1227073000","emd_name":"대촌동","area_km2":0.5376,"edge":false,"slope_mean":7.9,"elev_mean":49.8,"flood_hist_n":0,"flood_depth_max_m":null,"flood_risk_100y":null,"semi_basement_r":null,"elderly_alone_r":0.1949,"bldg_age30_r":null,"shelter_min_walk":26,"pop":9040,"hh":4396,"elderly65_r":0.2742,"single_hh_r":0.4115,"source_level":"emd","flood_years":[],"landslide_hist_n":0},"geometry":{"type":"Polygon","coordinates":[[[126.85542,35.10539],[126.85459,35.10154],[126.85874,35.09946],[126.86372,35.10125],[126.86455,35.10511],[126.8604,35.10718],[126.85542,35.10539]]]}},{"type":"Feature","properties":{"h3":"8830c63013fffff","emd_code":"1227072000","emd_name":"송암동","area_km2":0.5377,"edge":false,"slope_mean":7.11,"elev_mean":47.5,"flood_hist_n":0,"flood_depth_max_m":null,"flood_risk_100y":null,"semi_basement_r":null,"elderly_alone_r":0.0775,"bldg_age30_r":null,"shelter_min_walk":14,"pop":20409,"hh":8596,"elderly65_r":0.1337,"single_hh_r":0.329,"source_level":"emd","flood_years":[],"landslide_hist_n":0},"geometry":{"type":"Polygon","coordinates":[[[126.86455,35.10511],[126.86372,35.10125],[126.86788,35.09918],[126.87286,35.10096],[126.87369,35.10482],[126.86953,35.10689],[126.86455,35.10511]]]}},{"type":"Feature","properties":{"h3":"8830c63015fffff","emd_code":"1227073000","emd_name":"대촌동","area_km2":0.5377,"edge":false,"slope_mean":4.01,"elev_mean":33.7,"flood_hist_n":0,"flood_depth_max_m":null,"flood_risk_100y":null,"semi_basement_r":null,"elderly_alone_r":0.1949,"bldg_age30_r":null,"shelter_min_walk":35,"pop":9040,"hh":4396,"elderly65_r":0.2742,"single_hh_r":0.4115,"source_level":"emd","flood_years":[],"landslide_hist_n":0},"geometry":{"type":"Polygon","coordinates":[[[126.84961,35.09975],[126.84878,35.09589],[126.85294,35.09382],[126.85792,35.09561],[126.85874,35.09946],[126.85459,35.10154],[126.84961,35.09975]]]}},{"type":"Feature","properties":{"h3":"8830c63017fffff","emd_code":"1227073000","emd_name":"대촌동","area_km2":0.5378,"edge":false,"slope_mean":8.02,"elev_mean":48.1,"flood_hist_n":0,"flood_depth_max_m":null,"flood_risk_100y":null,"semi_basement_r":null,"elderly_alone_r":0.1949,"bldg_age30_r":null,"shelter_min_walk":24,"pop":9040,"hh":4396,"elderly65_r":0.2742,"single_hh_r":0.4115,"source_level":"emd","flood_years":[],"landslide_hist_n":0},"geometry":{"type":"Polygon","coordinates":[[[126.85874,35.09946],[126.85792,35.09561],[126.86207,35.09354],[126.86705,35.09532],[126.86788,35.09918],[126.86372,35.10125],[126.85874,35.09946]]]}},{"type":"Feature","properties":{"h3":"8830c63019fffff","emd_code":"1227073000","emd_name":"대촌동","area_km2":0.5375,"edge":true,"slope_mean":8.25,"elev_mean":57.4,"flood_hist_n":0,"flood_depth_max_m":null,"flood_risk_100y":null,"semi_basement_r":null,"elderly_alone_r":0.1949,"bldg_age30_r":null,"shelter_min_walk":24,"pop":9040,"hh":4396,"elderly65_r":0.2742,"single_hh_r":0.4115,"source_level":"emd","flood_years":[],"landslide_hist_n":0},"geometry":{"type":"Polygon","coordinates":[[[126.85209,35.11132],[126.85126,35.10746],[126.85542,35.10539],[126.8604,35.10718],[126.86122,35.11103],[126.85707,35.1131],[126.85209,35.11132]]]}},{"type":"Feature","properties":{"h3":"8830c6301bfffff","emd_code":"1227072000","emd_name":"송암동","area_km2":0.5376,"edge":false,"slope_mean":13.45,"elev_mean":82.9,"flood_hist_n":0,"flood_depth_max_m":null,"flood_risk_100y":null,"semi_basement_r":null,"elderly_alone_r":0.0775,"bldg_age30_r":null,"shelter_min_walk":19,"pop":20409,"hh":8596,"elderly65_r":0.1337,"single_hh_r":0.329,"source_level":"emd","flood_years":[],"landslide_hist_n":0},"geometry":{"type":"Polygon","coordinates":[[[126.86122,35.11103],[126.8604,35.10718],[126.86455,35.10511],[126.86953,35.10689],[126.87036,35.11075],[126.8662,35.11282],[126.86122,35.11103]]]}},{"type":"Feature","properties":{"h3":"8830c6301dfffff","emd_code":"1227073000","emd_name":"대촌동","area_km2":0.5376,"edge":false,"slope_mean":11.15,"elev_mean":61.4,"flood_hist_n":0,"flood_depth_max_m":null,"flood_risk_100y":null,"semi_basement_r":null,"elderly_alone_r":0.1949,"bldg_age30_r":null,"shelter_min_walk":33,"pop":9040,"hh":4396,"elderly65_r":0.2742,"single_hh_r":0.4115,"source_level":"emd","flood_years":[],"landslide_hist_n":0},"geometry":{"type":"Polygon","coordinates":[[[126.84628,35.10568],[126.84545,35.10182],[126.84961,35.09975],[126.85459,35.10154],[126.85542,35.10539],[126.85126,35.10746],[126.84628,35.10568]]]}},{"type":"Feature","properties":{"h3":"8830c63021fffff","emd_code":"1227073000","emd_name":"대촌동","area_km2":0.5378,"edge":false,"slope_mean":4.12,"elev_mean":27.6,"flood_hist_n":0,"flood_depth_max_m":null,"flood_risk_100y":null,"semi_basement_r":null,"elderly_alone_r":0.1949,"bldg_age30_r":null,"shelter_min_walk":5,"pop":9040,"hh":4396,"elderly65_r":0.2742,"single_hh_r":0.4115,"source_level":"emd","flood_years":[],"landslide_hist_n":0},"geometry":{"type":"Polygon","coordinates":[[[126.82306,35.0831],[126.82223,35.07925],[126.82639,35.07717],[126.83137,35.07896],[126.83219,35.08282],[126.82804,35.08489],[126.82306,35.0831]]]}},{"type":"Feature","properties":{"h3":"8830c63023fffff","emd_code":"1227073000","emd_name":"대촌동","area_km2":0.5379,"edge":false,"slope_mean":1.84,"elev_mean":22.6,"flood_hist_n":0,"flood_depth_max_m":null,"flood_risk_100y":null,"semi_basement_r":null,"elderly_alone_r":0.1949,"bldg_age30_r":null,"shelter_min_walk":9,"pop":9040,"hh":4396,"elderly65_r":0.2742,"single_hh_r":0.4115,"source_level":"emd","flood_years":[],"landslide_hist_n":0},"geometry":{"type":"Polygon","coordinates":[[[126.83219,35.08282],[126.83137,35.07896],[126.83552,35.07689],[126.8405,35.07868],[126.84133,35.08254],[126.83717,35.08461],[126.83219,35.08282]]]}},{"type":"Feature","properties":{"h3":"8830c63025fffff","emd_code":"1227073000","emd_name":"대촌동","area_km2":0.5379,"edge":false,"slope_mean":5.11,"elev_mean":29.8,"flood_hist_n":0,"flood_depth_max_m":null,"flood_risk_100y":null,"semi_basement_r":null,"elderly_alone_r":0.1949,"bldg_age30_r":null,"shelter_min_walk":17,"pop":9040,"hh":4396,"elderly65_r":0.2742,"single_hh_r":0.4115,"source_level":"emd","flood_years":[],"landslide_hist_n":0},"geometry":{"type":"Polygon","coordinates":[[[126.81726,35.07746],[126.81643,35.0736],[126.82058,35.07153],[126.82556,35.07332],[126.82639,35.07717],[126.82223,35.07925],[126.81726,35.07746]]]}},{"type":"Feature","properties":{"h3":"8830c63027fffff","emd_code":"1227073000","emd_name":"대촌동","area_km2":0.538,"edge":false,"slope_mean":1.18,"elev_mean":19.2,"flood_hist_n":0,"flood_depth_max_m":null,"flood_risk_100y":null,"semi_basement_r":null,"elderly_alone_r":0.1949,"bldg_age30_r":null,"shelter_min_walk":11,"pop":9040,"hh":4396,"elderly65_r":0.2742,"single_hh_r":0.4115,"source_level":"emd","flood_years":[],"landslide_hist_n":0},"geometry":{"type":"Polygon","coordinates":[[[126.82639,35.07717],[126.82556,35.07332],[126.82972,35.07125],[126.83469,35.07303],[126.83552,35.07689],[126.83137,35.07896],[126.82639,35.07717]]]}},{"type":"Feature","properties":{"h3":"8830c63029fffff","emd_code":"1227073000","emd_name":"대촌동","area_km2":0.5377,"edge":false,"slope_mean":6.97,"elev_mean":39.6,"flood_hist_n":0,"flood_depth_max_m":null,"flood_risk_100y":null,"semi_basement_r":null,"elderly_alone_r":0.1949,"bldg_age30_r":null,"shelter_min_walk":12,"pop":9040,"hh":4396,"elderly65_r":0.2742,"single_hh_r":0.4115,"source_level":"emd","flood_years":[],"landslide_hist_n":0},"geometry":{"type":"Polygon","coordinates":[[[126.81973,35.08903],[126.81891,35.08517],[126.82306,35.0831],[126.82804,35.08489],[126.82886,35.08875],[126.82471,35.09082],[126.81973,35.08903]]]}},{"type":"Feature","properties":{"h3":"8830c6302bfffff","emd_code":"1227073000","emd_name":"대촌동","area_km2":0.5378,"edge":false,"slope_mean":6.53,"elev_mean":35.1,"flood_hist_n":0,"flood_depth_max_m":null,"flood_risk_100y":null,"semi_basement_r":null,"elderly_alone_r":0.1949,"bldg_age30_r":null,"shelter_min_walk":8,"pop":9040,"hh":4396,"elderly65_r":0.2742,"single_hh_r":0.4115,"source_level":"emd","flood_years":[],"landslide_hist_n":0},"geometry":{"type":"Polygon","coordinates":[[[126.82886,35.08875],[126.82804,35.08489],[126.83219,35.08282],[126.83717,35.08461],[126.838,35.08846],[126.83384,35.09053],[126.82886,35.08875]]]}},{"type":"Feature","properties":{"h3":"8830c6302dfffff","emd_code":"1227073000","emd_name":"대촌동","area_km2":0.5378,"edge":false,"slope_mean":10.73,"elev_mean":47.4,"flood_hist_n":0,"flood_depth_max_m":null,"flood_risk_100y":null,"semi_basement_r":null,"elderly_alone_r":0.1949,"bldg_age30_r":null,"shelter_min_walk":17,"pop":9040,"hh":4396,"elderly65_r":0.2742,"single_hh_r":0.4115,"source_level":"emd","flood_years":[],"landslide_hist_n":0},"geometry":{"type":"Polygon","coordinates":[[[126.81393,35.08339],[126.8131,35.07953],[126.81726,35.07746],[126.82223,35.07925],[126.82306,35.0831],[126.81891,35.08517],[126.81393,35.08339]]]}},{"type":"Feature","properties":{"h3":"8830c63031fffff","emd_code":"1227073000","emd_name":"대촌동","area_km2":0.5379,"edge":false,"slope_mean":11.11,"elev_mean":50.8,"flood_hist_n":0,"flood_depth_max_m":null,"flood_risk_100y":null,"semi_basement_r":null,"elderly_alone_r":0.1949,"bldg_age30_r":null,"shelter_min_walk":29,"pop":9040,"hh":4396,"elderly65_r":0.2742,"single_hh_r":0.4115,"source_level":"emd","flood_years":[],"landslide_hist_n":0},"geometry":{"type":"Polygon","coordinates":[[[126.84713,35.08818],[126.84631,35.08432],[126.85046,35.08225],[126.85544,35.08404],[126.85627,35.08789],[126.85211,35.08997],[126.84713,35.08818]]]}},{"type":"Feature","properties":{"h3":"8830c63033fffff","emd_code":"1227073000","emd_name":"대촌동","area_km2":0.5379,"edge":false,"slope_mean":4.15,"elev_mean":37.7,"flood_hist_n":0,"flood_depth_max_m":null,"flood_risk_100y":null,"semi_basement_r":null,"elderly_alone_r":0.1949,"bldg_age30_r":null,"shelter_min_walk":38,"pop":9040,"hh":4396,"elderly65_r":0.2742,"single_hh_r":0.4115,"source_level":"emd","flood_years":[],"landslide_hist_n":0},"geometry":{"type":"Polygon","coordinates":[[[126.85627,35.08789],[126.85544,35.08404],[126.85959,35.08196],[126.86457,35.08375],[126.8654,35.08761],[126.86125,35.08968],[126.85627,35.08789]]]}},{"type":"Feature","properties":{"h3":"8830c63035fffff","emd_code":"1227073000","emd_name":"대촌동","area_km2":0.5379,"edge":false,"slope_mean":14.04,"elev_mean":62.9,"flood_hist_n":0,"flood_depth_max_m":null,"flood_risk_100y":null,"semi_basement_r":null,"elderly_alone_r":0.1949,"bldg_age30_r":null,"shelter_min_walk":21,"pop":9040,"hh":4396,"elderly65_r":0.2742,"single_hh_r":0.4115,"source_level":"emd","flood_years":[],"landslide_hist_n":0},"geometry":{"type":"Polygon","coordinates":[[[126.84133,35.08254],[126.8405,35.07868],[126.84465,35.07661],[126.84963,35.07839],[126.85046,35.08225],[126.84631,35.08432],[126.84133,35.08254]]]}},{"type":"Feature","properties":{"h3":"8830c63037fffff","emd_code":"1227073000","emd_name":"대촌동","area_km2":0.538,"edge":false,"slope_mean":15.31,"elev_mean":86.5,"flood_hist_n":0,"flood_depth_max_m":null,"flood_risk_100y":null,"semi_basement_r":null,"elderly_alone_r":0.1949,"bldg_age30_r":null,"shelter_min_walk":31,"pop":9040,"hh":4396,"elderly65_r":0.2742,"single_hh_r":0.4115,"source_level":"emd","flood_years":[],"landslide_hist_n":0},"geometry":{"type":"Polygon","coordinates":[[[126.85046,35.08225],[126.84963,35.07839],[126.85379,35.07632],[126.85877,35.07811],[126.85959,35.08196],[126.85544,35.08404],[126.85046,35.08225]]]}},{"type":"Feature","properties":{"h3":"8830c63039fffff","emd_code":"1227073000","emd_name":"대촌동","area_km2":0.5378,"edge":false,"slope_mean":9.15,"elev_mean":47.3,"flood_hist_n":0,"flood_depth_max_m":null,"flood_risk_100y":null,"semi_basement_r":null,"elderly_alone_r":0.1949,"bldg_age30_r":null,"shelter_min_walk":29,"pop":9040,"hh":4396,"elderly65_r":0.2742,"single_hh_r":0.4115,"source_level":"emd","flood_years":[],"landslide_hist_n":0},"geometry":{"type":"Polygon","coordinates":[[[126.8438,35.09411],[126.84298,35.09025],[126.84713,35.08818],[126.85211,35.08997],[126.85294,35.09382],[126.84878,35.09589],[126.8438,35.09411]]]}},{"type":"Feature","properties":{"h3":"8830c6303bfffff","emd_code":"1227073000","emd_name":"대촌동","area_km2":0.5378,"edge":false,"slope_mean":6.06,"elev_mean":41.0,"flood_hist_n":0,"flood_depth_max_m":null,"flood_risk_100y":null,"semi_basement_r":null,"elderly_alone_r":0.1949,"bldg_age30_r":null,"shelter_min_walk":35,"pop":9040,"hh":4396,"elderly65_r":0.2742,"single_hh_r":0.4115,"source_level":"emd","flood_years":[],"landslide_hist_n":0},"geometry":{"type":"Polygon","coordinates":[[[126.85294,35.09382],[126.85211,35.08997],[126.85627,35.08789],[126.86125,35.08968],[126.86207,35.09354],[126.85792,35.09561],[126.85294,35.09382]]]}},{"type":"Feature","properties":{"h3":"8830c6303dfffff","emd_code":"1227073000","emd_name":"대촌동","area_km2":0.5378,"edge":false,"slope_mean":5.05,"elev_mean":29.4,"flood_hist_n":0,"flood_depth_max_m":null,"flood_risk_100y":null,"semi_basement_r":null,"elderly_alone_r":0.1949,"bldg_age30_r":null,"shelter_min_walk":18,"pop":9040,"hh":4396,"elderly65_r":0.2742,"single_hh_r":0.4115,"source_level":"emd","flood_years":[],"landslide_hist_n":0},"geometry":{"type":"Polygon","coordinates":[[[126.838,35.08846],[126.83717,35.08461],[126.84133,35.08254],[126.84631,35.08432],[126.84713,35.08818],[126.84298,35.09025],[126.838,35.08846]]]}},{"type":"Feature","properties":{"h3":"8830c63061fffff","emd_code":"1227073000","emd_name":"대촌동","area_km2":0.5376,"edge":true,"slope_mean":5.31,"elev_mean":22.6,"flood_hist_n":0,"flood_depth_max_m":null,"flood_risk_100y":null,"semi_basement_r":null,"elderly_alone_r":0.1949,"bldg_age30_r":null,"shelter_min_walk":31,"pop":9040,"hh":4396,"elderly65_r":0.2742,"single_hh_r":0.4115,"source_level":"emd","flood_years":[],"landslide_hist_n":0},"geometry":{"type":"Polygon","coordinates":[[[126.80727,35.09524],[126.80645,35.09138],[126.8106,35.08931],[126.81558,35.0911],[126.8164,35.09496],[126.81225,35.09703],[126.80727,35.09524]]]}},{"type":"Feature","properties":{"h3":"8830c63063fffff","emd_code":"1227073000","emd_name":"대촌동","area_km2":0.5376,"edge":true,"slope_mean":13.19,"elev_mean":57.8,"flood_hist_n":0,"flood_depth_max_m":null,"flood_risk_100y":null,"semi_basement_r":null,"elderly_alone_r":0.1949,"bldg_age30_r":null,"shelter_min_walk":22,"pop":9040,"hh":4396,"elderly65_r":0.2742,"single_hh_r":0.4115,"source_level":"emd","flood_years":[],"landslide_hist_n":0},"geometry":{"type":"Polygon","coordinates":[[[126.8164,35.09496],[126.81558,35.0911],[126.81973,35.08903],[126.82471,35.09082],[126.82554,35.09467],[126.82138,35.09674],[126.8164,35.09496]]]}},{"type":"Feature","properties":{"h3":"8830c63065fffff","emd_code":"1227073000","emd_name":"대촌동","area_km2":0.5376,"edge":false,"slope_mean":3.56,"elev_mean":15.6,"flood_hist_n":0,"flood_depth_max_m":null,"flood_risk_100y":null,"semi_basement_r":null,"elderly_alone_r":0.1949,"bldg_age30_r":null,"shelter_min_walk":35,"pop":9040,"hh":4396,"elderly65_r":0.2742,"single_hh_r":0.4115,"source_level":"emd","flood_years":[],"landslide_hist_n":0},"geometry":{"type":"Polygon","coordinates":[[[126.80147,35.08959],[126.80064,35.08574],[126.8048,35.08367],[126.80977,35.08546],[126.8106,35.08931],[126.80645,35.09138],[126.80147,35.08959]]]}},{"type":"Feature","properties":{"h3":"8830c63067fffff","emd_code":"1227073000","emd_name":"대촌동","area_km2":0.5377,"edge":false,"slope_mean":7.15,"elev_mean":30.5,"flood_hist_n":0,"flood_depth_max_m":null,"flood_risk_100y":null,"semi_basement_r":null,"elderly_alone_r":0.1949,"bldg_age30_r":null,"shelter_min_walk":23,"pop":9040,"hh":4396,"elderly65_r":0.2742,"single_hh_r":0.4115,"source_level":"emd","flood_years":[],"landslide_hist_n":0},"geometry":{"type":"Polygon","coordinates":[[[126.8106,35.08931],[126.80977,35.08546],[126.81393,35.08339],[126.81891,35.08517],[126.81973,35.08903],[126.81558,35.0911],[126.8106,35.08931]]]}},{"type":"Feature","properties":{"h3":"8830c6306dfffff","emd_code":"1227073000","emd_name":"대촌동","area_km2":0.5375,"edge":true,"slope_mean":2.25,"elev_mean":10.8,"flood_hist_n":0,"flood_depth_max_m":null,"flood_risk_100y":null,"semi_basement_r":null,"elderly_alone_r":0.1949,"bldg_age30_r":null,"shelter_min_walk":39,"pop":9040,"hh":4396,"elderly65_r":0.2742,"single_hh_r":0.4115,"source_level":"emd","flood_years":[],"landslide_hist_n":0},"geometry":{"type":"Polygon","coordinates":[[[126.79814,35.09552],[126.79732,35.09166],[126.80147,35.08959],[126.80645,35.09138],[126.80727,35.09524],[126.80312,35.09731],[126.79814,35.09552]]]}},{"type":"Feature","properties":{"h3":"8830c63081fffff","emd_code":"1227071000","emd_name":"효덕동","area_km2":0.538,"edge":false,"slope_mean":13.97,"elev_mean":114.1,"flood_hist_n":1,"flood_depth_max_m":1.486,"flood_risk_100y":null,"semi_basement_r":null,"elderly_alone_r":0.154,"bldg_age30_r":null,"shelter_min_walk":12,"pop":14727,"hh":7579,"elderly65_r":0.2305,"single_hh_r":0.4805,"source_level":"emd","flood_years":[2020],"landslide_hist_n":0},"geometry":{"type":"Polygon","coordinates":[[[126.89529,35.09832],[126.89446,35.09446],[126.89862,35.09239],[126.9036,35.09417],[126.90442,35.09803],[126.90027,35.1001],[126.89529,35.09832]]]}},{"type":"Feature","properties":{"h3":"8830c63083fffff","emd_code":"1227071000","emd_name":"효덕동","area_km2":0.538,"edge":false,"slope_mean":19.36,"elev_mean":158.2,"flood_hist_n":0,"flood_depth_max_m":null,"flood_risk_100y":null,"semi_basement_r":null,"elderly_alone_r":0.154,"bldg_age30_r":null,"shelter_min_walk":13,"pop":14727,"hh":7579,"elderly65_r":0.2305,"single_hh_r":0.4805,"source_level":"emd","flood_years":[],"landslide_hist_n":0},"geometry":{"type":"Polygon","coordinates":[[[126.90442,35.09803],[126.9036,35.09417],[126.90775,35.0921],[126.91274,35.09388],[126.91356,35.09774],[126.90941,35.09981],[126.90442,35.09803]]]}},{"type":"Feature","properties":{"h3":"8830c63085fffff","emd_code":"1227071000","emd_name":"효덕동","area_km2":0.538,"edge":false,"slope_mean":16.83,"elev_mean":125.8,"flood_hist_n":0,"flood_depth_max_m":null,"flood_risk_100y":null,"semi_basement_r":null,"elderly_alone_r":0.154,"bldg_age30_r":null,"shelter_min_walk":25,"pop":14727,"hh":7579,"elderly65_r":0.2305,"single_hh_r":0.4805,"source_level":"emd","flood_years":[],"landslide_hist_n":0},"geometry":{"type":"Polygon","coordinates":[[[126.88948,35.09268],[126.88865,35.08882],[126.89281,35.08675],[126.89779,35.08853],[126.89862,35.09239],[126.89446,35.09446],[126.88948,35.09268]]]}},{"type":"Feature","properties":{"h3":"8830c63087fffff","emd_code":"1227071000","emd_name":"효덕동","area_km2":0.5381,"edge":false,"slope_mean":19.69,"elev_mean":162.7,"flood_hist_n":0,"flood_depth_max_m":null,"flood_risk_100y":null,"semi_basement_r":null,"elderly_alone_r":0.154,"bldg_age30_r":null,"shelter_min_walk":21,"pop":14727,"hh":7579,"elderly65_r":0.2305,"single_hh_r":0.4805,"source_level":"emd","flood_years":[],"landslide_hist_n":0},"geometry":{"type":"Polygon","coordinates":[[[126.89862,35.09239],[126.89779,35.08853],[126.90194,35.08646],[126.90693,35.08824],[126.90775,35.0921],[126.9036,35.09417],[126.89862,35.09239]]]}},{"type":"Feature","properties":{"h3":"8830c63089fffff","emd_code":"1227071000","emd_name":"효덕동","area_km2":0.5378,"edge":false,"slope_mean":9.07,"elev_mean":89.3,"flood_hist_n":0,"flood_depth_max_m":null,"flood_risk_100y":null,"semi_basement_r":null,"elderly_alone_r":0.154,"bldg_age30_r":null,"shelter_min_walk":11,"pop":14727,"hh":7579,"elderly65_r":0.2305,"single_hh_r":0.4805,"source_level":"emd","flood_years":[],"landslide_hist_n":0},"geometry":{"type":"Polygon","coordinates":[[[126.89196,35.10425],[126.89113,35.10039],[126.89529,35.09832],[126.90027,35.1001],[126.9011,35.10396],[126.89694,35.10603],[126.89196,35.10425]]]}},{"type":"Feature","properties":{"h3":"8830c6308bfffff","emd_code":"1227071000","emd_name":"효덕동","area_km2":0.5379,"edge":false,"slope_mean":13.02,"elev_mean":111.5,"flood_hist_n":0,"flood_depth_max_m":null,"flood_risk_100y":null,"semi_basement_r":null,"elderly_alone_r":0.154,"bldg_age30_r":null,"shelter_min_walk":2,"pop":14727,"hh":7579,"elderly65_r":0.2305,"single_hh_r":0.4805,"source_level":"emd","flood_years":[],"landslide_hist_n":0},"geometry":{"type":"Polygon","coordinates":[[[126.9011,35.10396],[126.90027,35.1001],[126.90442,35.09803],[126.90941,35.09981],[126.91023,35.10367],[126.90608,35.10574],[126.9011,35.10396]]]}},{"type":"Feature","properties":{"h3":"8830c6308dfffff","emd_code":"1227071000","emd_name":"효덕동","area_km2":0.5379,"edge":false,"slope_mean":13.34,"elev_mean":99.3,"flood_hist_n":0,"flood_depth_max_m":null,"flood_risk_100y":null,"semi_basement_r":null,"elderly_alone_r":0.154,"bldg_age30_r":null,"shelter_min_walk":17,"pop":14727,"hh":7579,"elderly65_r":0.2305,"single_hh_r":0.4805,"source_level":"emd","flood_years":[],"landslide_hist_n":0},"geometry":{"type":"Polygon","coordinates":[[[126.88615,35.09861],[126.88532,35.09475],[126.88948,35.09268],[126.89446,35.09446],[126.89529,35.09832],[126.89113,35.10039],[126.88615,35.09861]]]}},{"type":"Feature","properties":{"h3":"8830c63091fffff","emd_code":"1227071000","emd_name":"효덕동","area_km2":0.538,"edge":true,"slope_mean":21.42,"elev_mean":235.1,"flood_hist_n":0,"flood_depth_max_m":null,"flood_risk_100y":null,"semi_basement_r":null,"elderly_alone_r":0.154,"bldg_age30_r":null,"shelter_min_walk":19,"pop":14727,"hh":7579,"elderly65_r":0.2305,"single_hh_r":0.4805,"source_level":"emd","flood_years":[],"landslide_hist_n":0},"geometry":{"type":"Polygon","coordinates":[[[126.91937,35.10338],[126.91854,35.09952],[126.9227,35.09745],[126.92768,35.09923],[126.92851,35.10309],[126.92435,35.10516],[126.91937,35.10338]]]}},{"type":"Feature","properties":{"h3":"8830c63095fffff","emd_code":"1227071000","emd_name":"효덕동","area_km2":0.5381,"edge":false,"slope_mean":23.55,"elev_mean":270.0,"flood_hist_n":0,"flood_depth_max_m":null,"flood_risk_100y":null,"semi_basement_r":null,"elderly_alone_r":0.154,"bldg_age30_r":null,"shelter_min_walk":22,"pop":14727,"hh":7579,"elderly65_r":0.2305,"single_hh_r":0.4805,"source_level":"emd","flood_years":[],"landslide_hist_n":0},"geometry":{"type":"Polygon","coordinates":[[[126.91356,35.09774],[126.91274,35.09388],[126.91689,35.09181],[126.92187,35.09359],[126.9227,35.09745],[126.91854,35.09952],[126.91356,35.09774]]]}},{"type":"Feature","properties":{"h3":"8830c6309dfffff","emd_code":"1227071000","emd_name":"효덕동","area_km2":0.5379,"edge":false,"slope_mean":20.41,"elev_mean":227.5,"flood_hist_n":0,"flood_depth_max_m":null,"flood_risk_100y":null,"semi_basement_r":null,"elderly_alone_r":0.154,"bldg_age30_r":null,"shelter_min_walk":12,"pop":14727,"hh":7579,"elderly65_r":0.2305,"single_hh_r":0.4805,"source_level":"emd","flood_years":[],"landslide_hist_n":0},"geometry":{"type":"Polygon","coordinates":[[[126.91023,35.10367],[126.90941,35.09981],[126.91356,35.09774],[126.91854,35.09952],[126.91937,35.10338],[126.91522,35.10545],[126.91023,35.10367]]]}},{"type":"Feature","properties":{"h3":"8830c630a1fffff","emd_code":"1227073000","emd_name":"대촌동","area_km2":0.5382,"edge":false,"slope_mean":24.38,"elev_mean":269.5,"flood_hist_n":0,"flood_depth_max_m":null,"flood_risk_100y":null,"semi_basement_r":null,"elderly_alone_r":0.1949,"bldg_age30_r":null,"shelter_min_walk":43,"pop":9040,"hh":4396,"elderly65_r":0.2742,"single_hh_r":0.4115,"source_level":"emd","flood_years":[],"landslide_hist_n":0},"geometry":{"type":"Polygon","coordinates":[[[126.887,35.0811],[126.88617,35.07725],[126.89033,35.07517],[126.89531,35.07696],[126.89614,35.08082],[126.89198,35.08289],[126.887,35.0811]]]}},{"type":"Feature","properties":{"h3":"8830c630a3fffff","emd_code":"1227071000","emd_name":"효덕동","area_km2":0.5382,"edge":true,"slope_mean":22.66,"elev_mean":234.5,"flood_hist_n":0,"flood_depth_max_m":null,"flood_risk_100y":null,"semi_basement_r":null,"elderly_alone_r":0.154,"bldg_age30_r":null,"shelter_min_walk":40,"pop":14727,"hh":7579,"elderly65_r":0.2305,"single_hh_r":0.4805,"source_level":"emd","flood_years":[],"landslide_hist_n":0},"geometry":{"type":"Polygon","coordinates":[[[126.89614,35.08082],[126.89531,35.07696],[126.89946,35.07488],[126.90445,35.07667],[126.90527,35.08053],[126.90112,35.0826],[126.89614,35.08082]]]}},{"type":"Feature","properties":{"h3":"8830c630a9fffff","emd_code":"1227073000","emd_name":"대촌동","area_km2":0.5381,"edge":false,"slope_mean":21.0,"elev_mean":161.6,"flood_hist_n":0,"flood_depth_max_m":null,"flood_risk_100y":null,"semi_basement_r":null,"elderly_alone_r":0.1949,"bldg_age30_r":null,"shelter_min_walk":32,"pop":9040,"hh":4396,"elderly65_r":0.2742,"single_hh_r":0.4115,"source_level":"emd","flood_years":[],"landslide_hist_n":0},"geometry":{"type":"Polygon","coordinates":[[[126.88367,35.08703],[126.88284,35.08318],[126.887,35.0811],[126.89198,35.08289],[126.89281,35.08675],[126.88865,35.08882],[126.88367,35.08703]]]}},{"type":"Feature","properties":{"h3":"8830c630abfffff","emd_code":"1227073000","emd_name":"대촌동","area_km2":0.5381,"edge":false,"slope_mean":22.71,"elev_mean":212.4,"flood_hist_n":0,"flood_depth_max_m":null,"flood_risk_100y":null,"semi_basement_r":null,"elderly_alone_r":0.1949,"bldg_age30_r":null,"shelter_min_walk":32,"pop":9040,"hh":4396,"elderly65_r":0.2742,"single_hh_r":0.4115,"source_level":"emd","flood_years":[],"landslide_hist_n":0},"geometry":{"type":"Polygon","coordinates":[[[126.89281,35.08675],[126.89198,35.08289],[126.89614,35.08082],[126.90112,35.0826],[126.90194,35.08646],[126.89779,35.08853],[126.89281,35.08675]]]}},{"type":"Feature","properties":{"h3":"8830c630adfffff","emd_code":"1227073000","emd_name":"대촌동","area_km2":0.5381,"edge":true,"slope_mean":23.93,"elev_mean":209.8,"flood_hist_n":0,"flood_depth_max_m":null,"flood_risk_100y":null,"semi_basement_r":null,"elderly_alone_r":0.1949,"bldg_age30_r":null,"shelter_min_walk":39,"pop":9040,"hh":4396,"elderly65_r":0.2742,"single_hh_r":0.4115,"source_level":"emd","flood_years":[],"landslide_hist_n":0},"geometry":{"type":"Polygon","coordinates":[[[126.87786,35.08139],[126.87704,35.07753],[126.88119,35.07546],[126.88617,35.07725],[126.887,35.0811],[126.88284,35.08318],[126.87786,35.08139]]]}},{"type":"Feature","properties":{"h3":"8830c630b9fffff","emd_code":"1227071000","emd_name":"효덕동","area_km2":0.5381,"edge":false,"slope_mean":21.41,"elev_mean":207.8,"flood_hist_n":0,"flood_depth_max_m":null,"flood_risk_100y":null,"semi_basement_r":null,"elderly_alone_r":0.154,"bldg_age30_r":null,"shelter_min_walk":24,"pop":14727,"hh":7579,"elderly65_r":0.2305,"single_hh_r":0.4805,"source_level":"emd","flood_years":[],"landslide_hist_n":0},"geometry":{"type":"Polygon","coordinates":[[[126.90775,35.0921],[126.90693,35.08824],[126.91108,35.08617],[126.91606,35.08795],[126.91689,35.09181],[126.91274,35.09388],[126.90775,35.0921]]]}},{"type":"Feature","properties":{"h3":"8830c630bbfffff","emd_code":"1227071000","emd_name":"효덕동","area_km2":0.5382,"edge":true,"slope_mean":21.87,"elev_mean":236.6,"flood_hist_n":0,"flood_depth_max_m":null,"flood_risk_100y":null,"semi_basement_r":null,"elderly_alone_r":0.154,"bldg_age30_r":null,"shelter_min_walk":32,"pop":14727,"hh":7579,"elderly65_r":0.2305,"single_hh_r":0.4805,"source_level":"emd","flood_years":[],"landslide_hist_n":0},"geometry":{"type":"Polygon","coordinates":[[[126.91689,35.09181],[126.91606,35.08795],[126.92022,35.08588],[126.9252,35.08766],[126.92603,35.09152],[126.92187,35.09359],[126.91689,35.09181]]]}},{"type":"Feature","properties":{"h3":"8830c630bdfffff","emd_code":"1227071000","emd_name":"효덕동","area_km2":0.5382,"edge":false,"slope_mean":22.78,"elev_mean":231.6,"flood_hist_n":0,"flood_depth_max_m":null,"flood_risk_100y":null,"semi_basement_r":null,"elderly_alone_r":0.154,"bldg_age30_r":null,"shelter_min_walk":31,"pop":14727,"hh":7579,"elderly65_r":0.2305,"single_hh_r":0.4805,"source_level":"emd","flood_years":[],"landslide_hist_n":0},"geometry":{"type":"Polygon","coordinates":[[[126.90194,35.08646],[126.90112,35.0826],[126.90527,35.08053],[126.91025,35.08231],[126.91108,35.08617],[126.90693,35.08824],[126.90194,35.08646]]]}},{"type":"Feature","properties":{"h3":"8830c630c1fffff","emd_code":"1227072000","emd_name":"송암동","area_km2":0.5377,"edge":false,"slope_mean":8.61,"elev_mean":68.5,"flood_hist_n":1,"flood_depth_max_m":0.839,"flood_risk_100y":null,"semi_basement_r":null,"elderly_alone_r":0.0775,"bldg_age30_r":null,"shelter_min_walk":6,"pop":20409,"hh":8596,"elderly65_r":0.1337,"single_hh_r":0.329,"source_level":"emd","flood_years":[2020],"landslide_hist_n":0},"geometry":{"type":"Polygon","coordinates":[[[126.87949,35.11046],[126.87867,35.1066],[126.88282,35.10453],[126.8878,35.10632],[126.88863,35.11017],[126.88447,35.11225],[126.87949,35.11046]]]}},{"type":"Feature","properties":{"h3":"8830c630c3fffff","emd_code":"1227072000","emd_name":"송암동","area_km2":0.5377,"edge":false,"slope_mean":11.22,"elev_mean":93.1,"flood_hist_n":0,"flood_depth_max_m":null,"flood_risk_100y":null,"semi_basement_r":null,"elderly_alone_r":0.0775,"bldg_age30_r":null,"shelter_min_walk":4,"pop":20409,"hh":8596,"elderly65_r":0.1337,"single_hh_r":0.329,"source_level":"emd","flood_years":[],"landslide_hist_n":0},"geometry":{"type":"Polygon","coordinates":[[[126.88863,35.11017],[126.8878,35.10632],[126.89196,35.10425],[126.89694,35.10603],[126.89777,35.10989],[126.89361,35.11196],[126.88863,35.11017]]]}},{"type":"Feature","properties":{"h3":"8830c630c5fffff","emd_code":"1227072000","emd_name":"송암동","area_km2":0.5377,"edge":false,"slope_mean":3.72,"elev_mean":48.3,"flood_hist_n":1,"flood_depth_max_m":0.839,"flood_risk_100y":null,"semi_basement_r":null,"elderly_alone_r":0.0775,"bldg_age30_r":null,"shelter_min_walk":2,"pop":20409,"hh":8596,"elderly65_r":0.1337,"single_hh_r":0.329,"source_level":"emd","flood_years":[2020],"landslide_hist_n":0},"geometry":{"type":"Polygon","coordinates":[[[126.87369,35.10482],[126.87286,35.10096],[126.87701,35.09889],[126.882,35.10068],[126.88282,35.10453],[126.87867,35.1066],[126.87369,35.10482]]]}},{"type":"Feature","properties":{"h3":"8830c630c7fffff","emd_code":"1227071000","emd_name":"효덕동","area_km2":0.5378,"edge":false,"slope_mean":9.68,"elev_mean":77.1,"flood_hist_n":1,"flood_depth_max_m":0.855,"flood_risk_100y":null,"semi_basement_r":null,"elderly_alone_r":0.154,"bldg_age30_r":null,"shelter_min_walk":7,"pop":14727,"hh":7579,"elderly65_r":0.2305,"single_hh_r":0.4805,"source_level":"emd","flood_years":[2020],"landslide_hist_n":0},"geometry":{"type":"Polygon","coordinates":[[[126.88282,35.10453],[126.882,35.10068],[126.88615,35.09861],[126.89113,35.10039],[126.89196,35.10425],[126.8878,35.10632],[126.88282,35.10453]]]}},{"type":"Feature","properties":{"h3":"8830c630c9fffff","emd_code":"1227072000","emd_name":"송암동","area_km2":0.5376,"edge":false,"slope_mean":14.87,"elev_mean":113.8,"flood_hist_n":0,"flood_depth_max_m":null,"flood_risk_100y":null,"semi_basement_r":null,"elderly_alone_r":0.0775,"bldg_age30_r":null,"shelter_min_walk":11,"pop":20409,"hh":8596,"elderly65_r":0.1337,"single_hh_r":0.329,"source_level":"emd","flood_years":[],"landslide_hist_n":0},"geometry":{"type":"Polygon","coordinates":[[[126.87616,35.11639],[126.87534,35.11253],[126.87949,35.11046],[126.88447,35.11225],[126.8853,35.1161],[126.88115,35.11817],[126.87616,35.11639]]]}},{"type":"Feature","properties":{"h3":"8830c630cbfffff","emd_code":"1227072000","emd_name":"송암동","area_km2":0.5376,"edge":false,"slope_mean":17.79,"elev_mean":135.5,"flood_hist_n":0,"flood_depth_max_m":null,"flood_risk_100y":null,"semi_basement_r":null,"elderly_alone_r":0.0775,"bldg_age30_r":null,"shelter_min_walk":8,"pop":20409,"hh":8596,"elderly65_r":0.1337,"single_hh_r":0.329,"source_level":"emd","flood_years":[],"landslide_hist_n":0},"geometry":{"type":"Polygon","coordinates":[[[126.8853,35.1161],[126.88447,35.11225],[126.88863,35.11017],[126.89361,35.11196],[126.89444,35.11581],[126.89028,35.11788],[126.8853,35.1161]]]}},{"type":"Feature","properties":{"h3":"8830c630cdfffff","emd_code":"1227072000","emd_name":"송암동","area_km2":0.5376,"edge":false,"slope_mean":10.93,"elev_mean":77.1,"flood_hist_n":1,"flood_depth_max_m":0.608,"flood_risk_100y":null,"semi_basement_r":null,"elderly_alone_r":0.0775,"bldg_age30_r":null,"shelter_min_walk":11,"pop":20409,"hh":8596,"elderly65_r":0.1337,"single_hh_r":0.329,"source_level":"emd","flood_years":[2020],"landslide_hist_n":0},"geometry":{"type":"Polygon","coordinates":[[[126.87036,35.11075],[126.86953,35.10689],[126.87369,35.10482],[126.87867,35.1066],[126.87949,35.11046],[126.87534,35.11253],[126.87036,35.11075]]]}},{"type":"Feature","properties":{"h3":"8830c630d1fffff","emd_code":"1227070500","emd_name":"진월동","area_km2":0.5377,"edge":false,"slope_mean":13.22,"elev_mean":112.3,"flood_hist_n":0,"flood_depth_max_m":null,"flood_risk_100y":null,"semi_basement_r":null,"elderly_alone_r":0.1185,"bldg_age30_r":null,"shelter_min_walk":3,"pop":26864,"hh":11494,"elderly65_r":0.2106,"single_hh_r":0.322,"source_level":"emd","flood_years":[],"landslide_hist_n":0},"geometry":{"type":"Polygon","coordinates":[[[126.90358,35.11553],[126.90275,35.11167],[126.9069,35.1096],[126.91189,35.11138],[126.91271,35.11524],[126.90856,35.11731],[126.90358,35.11553]]]}},{"type":"Feature","properties":{"h3":"8830c630d3fffff","emd_code":"1227053800","emd_name":"봉선2동","area_km2":0.5378,"edge":true,"slope_mean":17.58,"elev_mean":140.0,"flood_hist_n":1,"flood_depth_max_m":0.672,"flood_risk_100y":null,"semi_basement_r":null,"elderly_alone_r":0.0954,"bldg_age30_r":null,"shelter_min_walk":11,"pop":27190,"hh":10001,"elderly65_r":0.1618,"single_hh_r":0.2106,"source_level":"emd","flood_years":[2020],"landslide_hist_n":0},"geometry":{"type":"Polygon","coordinates":[[[126.91271,35.11524],[126.91189,35.11138],[126.91604,35.10931],[126.92102,35.11109],[126.92185,35.11495],[126.9177,35.11702],[126.91271,35.11524]]]}},{"type":"Feature","properties":{"h3":"8830c630d5fffff","emd_code":"1227071000","emd_name":"효덕동","area_km2":0.5378,"edge":false,"slope_mean":9.4,"elev_mean":95.3,"flood_hist_n":0,"flood_depth_max_m":null,"flood_risk_100y":null,"semi_basement_r":null,"elderly_alone_r":0.154,"bldg_age30_r":null,"shelter_min_walk":2,"pop":14727,"hh":7579,"elderly65_r":0.2305,"single_hh_r":0.4805,"source_level":"emd","flood_years":[],"landslide_hist_n":0},"geometry":{"type":"Polygon","coordinates":[[[126.89777,35.10989],[126.89694,35.10603],[126.9011,35.10396],[126.90608,35.10574],[126.9069,35.1096],[126.90275,35.11167],[126.89777,35.10989]]]}},{"type":"Feature","properties":{"h3":"8830c630d7fffff","emd_code":"1227071000","emd_name":"효덕동","area_km2":0.5378,"edge":false,"slope_mean":16.52,"elev_mean":158.2,"flood_hist_n":0,"flood_depth_max_m":null,"flood_risk_100y":null,"semi_basement_r":null,"elderly_alone_r":0.154,"bldg_age30_r":null,"shelter_min_walk":6,"pop":14727,"hh":7579,"elderly65_r":0.2305,"single_hh_r":0.4805,"source_level":"emd","flood_years":[],"landslide_hist_n":0},"geometry":{"type":"Polygon","coordinates":[[[126.9069,35.1096],[126.90608,35.10574],[126.91023,35.10367],[126.91522,35.10545],[126.91604,35.10931],[126.91189,35.11138],[126.9069,35.1096]]]}},{"type":"Feature","properties":{"h3":"8830c630d9fffff","emd_code":"1227053800","emd_name":"봉선2동","area_km2":0.5376,"edge":false,"slope_mean":14.07,"elev_mean":105.6,"flood_hist_n":0,"flood_depth_max_m":null,"flood_risk_100y":null,"semi_basement_r":null,"elderly_alone_r":0.0954,"bldg_age30_r":null,"shelter_min_walk":5,"pop":27190,"hh":10001,"elderly65_r":0.1618,"single_hh_r":0.2106,"source_level":"emd","flood_years":[],"landslide_hist_n":0},"geometry":{"type":"Polygon","coordinates":[[[126.90025,35.12145],[126.89942,35.1176],[126.90358,35.11553],[126.90856,35.11731],[126.90938,35.12116],[126.90523,35.12324],[126.90025,35.12145]]]}},{"type":"Feature","properties":{"h3":"8830c630dbfffff","emd_code":"1227053800","emd_name":"봉선2동","area_km2":0.5377,"edge":false,"slope_mean":13.04,"elev_mean":102.1,"flood_hist_n":0,"flood_depth_max_m":null,"flood_risk_100y":null,"semi_basement_r":null,"elderly_alone_r":0.0954,"bldg_age30_r":null,"shelter_min_walk":2,"pop":27190,"hh":10001,"elderly65_r":0.1618,"single_hh_r":0.2106,"source_level":"emd","flood_years":[],"landslide_hist_n":0},"geometry":{"type":"Polygon","coordinates":[[[126.90938,35.12116],[126.90856,35.11731],[126.91271,35.11524],[126.9177,35.11702],[126.91852,35.12088],[126.91437,35.12295],[126.90938,35.12116]]]}},{"type":"Feature","properties":{"h3":"8830c630ddfffff","emd_code":"1227070500","emd_name":"진월동","area_km2":0.5377,"edge":false,"slope_mean":6.13,"elev_mean":78.7,"flood_hist_n":0,"flood_depth_max_m":null,"flood_risk_100y":null,"semi_basement_r":null,"elderly_alone_r":0.1185,"bldg_age30_r":null,"shelter_min_walk":2,"pop":26864,"hh":11494,"elderly65_r":0.2106,"single_hh_r":0.322,"source_level":"emd","flood_years":[],"landslide_hist_n":0},"geometry":{"type":"Polygon","coordinates":[[[126.89444,35.11581],[126.89361,35.11196],[126.89777,35.10989],[126.90275,35.11167],[126.90358,35.11553],[126.89942,35.1176],[126.89444,35.11581]]]}},{"type":"Feature","properties":{"h3":"8830c630e1fffff","emd_code":"1227073000","emd_name":"대촌동","area_km2":0.5379,"edge":false,"slope_mean":13.2,"elev_mean":80.0,"flood_hist_n":0,"flood_depth_max_m":null,"flood_risk_100y":null,"semi_basement_r":null,"elderly_alone_r":0.1949,"bldg_age30_r":null,"shelter_min_walk":20,"pop":9040,"hh":4396,"elderly65_r":0.2742,"single_hh_r":0.4115,"source_level":"emd","flood_years":[],"landslide_hist_n":0},"geometry":{"type":"Polygon","coordinates":[[[126.87121,35.09325],[126.87038,35.08939],[126.87454,35.08732],[126.87952,35.08911],[126.88034,35.09296],[126.87619,35.09504],[126.87121,35.09325]]]}},{"type":"Feature","properties":{"h3":"8830c630e3fffff","emd_code":"1227073000","emd_name":"대촌동","area_km2":0.538,"edge":false,"slope_mean":12.41,"elev_mean":87.1,"flood_hist_n":0,"flood_depth_max_m":null,"flood_risk_100y":null,"semi_basement_r":null,"elderly_alone_r":0.1949,"bldg_age30_r":null,"shelter_min_walk":21,"pop":9040,"hh":4396,"elderly65_r":0.2742,"single_hh_r":0.4115,"source_level":"emd","flood_years":[],"landslide_hist_n":0},"geometry":{"type":"Polygon","coordinates":[[[126.88034,35.09296],[126.87952,35.08911],[126.88367,35.08703],[126.88865,35.08882],[126.88948,35.09268],[126.88532,35.09475],[126.88034,35.09296]]]}},{"type":"Feature","properties":{"h3":"8830c630e5fffff","emd_code":"1227073000","emd_name":"대촌동","area_km2":0.538,"edge":false,"slope_mean":5.73,"elev_mean":47.7,"flood_hist_n":0,"flood_depth_max_m":null,"flood_risk_100y":null,"semi_basement_r":null,"elderly_alone_r":0.1949,"bldg_age30_r":null,"shelter_min_walk":32,"pop":9040,"hh":4396,"elderly65_r":0.2742,"single_hh_r":0.4115,"source_level":"emd","flood_years":[],"landslide_hist_n":0},"geometry":{"type":"Polygon","coordinates":[[[126.8654,35.08761],[126.86457,35.08375],[126.86873,35.08168],[126.87371,35.08346],[126.87454,35.08732],[126.87038,35.08939],[126.8654,35.08761]]]}},{"type":"Feature","properties":{"h3":"8830c630e7fffff","emd_code":"1227073000","emd_name":"대촌동","area_km2":0.538,"edge":false,"slope_mean":11.99,"elev_mean":92.6,"flood_hist_n":0,"flood_depth_max_m":null,"flood_risk_100y":null,"semi_basement_r":null,"elderly_alone_r":0.1949,"bldg_age30_r":null,"shelter_min_walk":29,"pop":9040,"hh":4396,"elderly65_r":0.2742,"single_hh_r":0.4115,"source_level":"emd","flood_years":[],"landslide_hist_n":0},"geometry":{"type":"Polygon","coordinates":[[[126.87454,35.08732],[126.87371,35.08346],[126.87786,35.08139],[126.88284,35.08318],[126.88367,35.08703],[126.87952,35.08911],[126.87454,35.08732]]]}},{"type":"Feature","properties":{"h3":"8830c630e9fffff","emd_code":"1227072000","emd_name":"송암동","area_km2":0.5378,"edge":false,"slope_mean":8.47,"elev_mean":59.0,"flood_hist_n":0,"flood_depth_max_m":null,"flood_risk_100y":null,"semi_basement_r":null,"elderly_alone_r":0.0775,"bldg_age30_r":null,"shelter_min_walk":14,"pop":20409,"hh":8596,"elderly65_r":0.1337,"single_hh_r":0.329,"source_level":"emd","flood_years":[],"landslide_hist_n":0},"geometry":{"type":"Polygon","coordinates":[[[126.86788,35.09918],[126.86705,35.09532],[126.87121,35.09325],[126.87619,35.09504],[126.87701,35.09889],[126.87286,35.10096],[126.86788,35.09918]]]}},{"type":"Feature","properties":{"h3":"8830c630ebfffff","emd_code":"1227072000","emd_name":"송암동","area_km2":0.5379,"edge":false,"slope_mean":10.92,"elev_mean":78.4,"flood_hist_n":0,"flood_depth_max_m":null,"flood_risk_100y":null,"semi_basement_r":null,"elderly_alone_r":0.0775,"bldg_age30_r":null,"shelter_min_walk":10,"pop":20409,"hh":8596,"elderly65_r":0.1337,"single_hh_r":0.329,"source_level":"emd","flood_years":[],"landslide_hist_n":0},"geometry":{"type":"Polygon","coordinates":[[[126.87701,35.09889],[126.87619,35.09504],[126.88034,35.09296],[126.88532,35.09475],[126.88615,35.09861],[126.882,35.10068],[126.87701,35.09889]]]}},{"type":"Feature","properties":{"h3":"8830c630edfffff","emd_code":"1227073000","emd_name":"대촌동","area_km2":0.5379,"edge":false,"slope_mean":9.84,"elev_mean":66.3,"flood_hist_n":0,"flood_depth_max_m":null,"flood_risk_100y":null,"semi_basement_r":null,"elderly_alone_r":0.1949,"bldg_age30_r":null,"shelter_min_walk":26,"pop":9040,"hh":4396,"elderly65_r":0.2742,"single_hh_r":0.4115,"source_level":"emd","flood_years":[],"landslide_hist_n":0},"geometry":{"type":"Polygon","coordinates":[[[126.86207,35.09354],[126.86125,35.08968],[126.8654,35.08761],[126.87038,35.08939],[126.87121,35.09325],[126.86705,35.09532],[126.86207,35.09354]]]}},{"type":"Feature","properties":{"h3":"8830c63101fffff","emd_code":"1227073000","emd_name":"대촌동","area_km2":0.538,"edge":true,"slope_mean":1.17,"elev_mean":12.2,"flood_hist_n":0,"flood_depth_max_m":null,"flood_risk_100y":null,"semi_basement_r":null,"elderly_alone_r":0.1949,"bldg_age30_r":null,"shelter_min_walk":48,"pop":9040,"hh":4396,"elderly65_r":0.2742,"single_hh_r":0.4115,"source_level":"emd","flood_years":[],"landslide_hist_n":0},"geometry":{"type":"Polygon","coordinates":[[[126.79071,35.0608],[126.78989,35.05694],[126.79404,35.05487],[126.79902,35.05666],[126.79984,35.06052],[126.79569,35.06259],[126.79071,35.0608]]]}},{"type":"Feature","properties":{"h3":"8830c63103fffff","emd_code":"1227073000","emd_name":"대촌동","area_km2":0.5381,"edge":false,"slope_mean":1.21,"elev_mean":13.2,"flood_hist_n":0,"flood_depth_max_m":null,"flood_risk_100y":null,"semi_basement_r":null,"elderly_alone_r":0.1949,"bldg_age30_r":null,"shelter_min_walk":47,"pop":9040,"hh":4396,"elderly65_r":0.2742,"single_hh_r":0.4115,"source_level":"emd","flood_years":[],"landslide_hist_n":0},"geometry":{"type":"Polygon","coordinates":[[[126.79984,35.06052],[126.79902,35.05666],[126.80317,35.05459],[126.80815,35.05638],[126.80898,35.06024],[126.80482,35.06231],[126.79984,35.06052]]]}},{"type":"Feature","properties":{"h3":"8830c63107fffff","emd_code":"1227073000","emd_name":"대촌동","area_km2":0.5382,"edge":true,"slope_mean":1.26,"elev_mean":12.2,"flood_hist_n":0,"flood_depth_max_m":null,"flood_risk_100y":null,"semi_basement_r":null,"elderly_alone_r":0.1949,"bldg_age30_r":null,"shelter_min_walk":40,"pop":9040,"hh":4396,"elderly65_r":0.2742,"single_hh_r":0.4115,"source_level":"emd","flood_years":[],"landslide_hist_n":0},"geometry":{"type":"Polygon","coordinates":[[[126.79404,35.05487],[126.79322,35.05101],[126.79737,35.04894],[126.80235,35.05073],[126.80317,35.05459],[126.79902,35.05666],[126.79404,35.05487]]]}},{"type":"Feature","properties":{"h3":"8830c63109fffff","emd_code":"1227073000","emd_name":"대촌동","area_km2":0.5379,"edge":false,"slope_mean":0.82,"elev_mean":11.3,"flood_hist_n":0,"flood_depth_max_m":null,"flood_risk_100y":null,"semi_basement_r":null,"elderly_alone_r":0.1949,"bldg_age30_r":null,"shelter_min_walk":57,"pop":9040,"hh":4396,"elderly65_r":0.2742,"single_hh_r":0.4115,"source_level":"emd","flood_years":[],"landslide_hist_n":0},"geometry":{"type":"Polygon","coordinates":[[[126.78739,35.06673],[126.78656,35.06287],[126.79071,35.0608],[126.79569,35.06259],[126.79652,35.06645],[126.79236,35.06852],[126.78739,35.06673]]]}},{"type":"Feature","properties":{"h3":"8830c6310bfffff","emd_code":"1227073000","emd_name":"대촌동","area_km2":0.538,"edge":false,"slope_mean":3.41,"elev_mean":15.8,"flood_hist_n":0,"flood_depth_max_m":null,"flood_risk_100y":null,"semi_basement_r":null,"elderly_alone_r":0.1949,"bldg_age30_r":null,"shelter_min_walk":48,"pop":9040,"hh":4396,"elderly65_r":0.2742,"single_hh_r":0.4115,"source_level":"emd","flood_years":[],"landslide_hist_n":0},"geometry":{"type":"Polygon","coordinates":[[[126.79652,35.06645],[126.79569,35.06259],[126.79984,35.06052],[126.80482,35.06231],[126.80565,35.06617],[126.80149,35.06824],[126.79652,35.06645]]]}},{"type":"Feature","properties":{"h3":"8830c6310dfffff","emd_code":"1227073000","emd_name":"대촌동","area_km2":0.538,"edge":false,"slope_mean":1.12,"elev_mean":11.5,"flood_hist_n":0,"flood_depth_max_m":null,"flood_risk_100y":null,"semi_basement_r":null,"elderly_alone_r":0.1949,"bldg_age30_r":null,"shelter_min_walk":47,"pop":9040,"hh":4396,"elderly65_r":0.2742,"single_hh_r":0.4115,"source_level":"emd","flood_years":[],"landslide_hist_n":0},"geometry":{"type":"Polygon","coordinates":[[[126.78158,35.06108],[126.78076,35.05722],[126.78491,35.05515],[126.78989,35.05694],[126.79071,35.0608],[126.78656,35.06287],[126.78158,35.06108]]]}},{"type":"Feature","properties":{"h3":"8830c63111fffff","emd_code":"1227073000","emd_name":"대촌동","area_km2":0.5381,"edge":false,"slope_mean":0.67,"elev_mean":15.7,"flood_hist_n":0,"flood_depth_max_m":null,"flood_risk_100y":null,"semi_basement_r":null,"elderly_alone_r":0.1949,"bldg_age30_r":null,"shelter_min_walk":24,"pop":9040,"hh":4396,"elderly65_r":0.2742,"single_hh_r":0.4115,"source_level":"emd","flood_years":[],"landslide_hist_n":0},"geometry":{"type":"Polygon","coordinates":[[[126.81478,35.06588],[126.81395,35.06202],[126.81811,35.05995],[126.82309,35.06174],[126.82391,35.0656],[126.81976,35.06767],[126.81478,35.06588]]]}},{"type":"Feature","properties":{"h3":"8830c63113fffff","emd_code":"1227073000","emd_name":"대촌동","area_km2":0.5381,"edge":false,"slope_mean":1.05,"elev_mean":17.8,"flood_hist_n":0,"flood_depth_max_m":null,"flood_risk_100y":null,"semi_basement_r":null,"elderly_alone_r":0.1949,"bldg_age30_r":null,"shelter_min_walk":14,"pop":9040,"hh":4396,"elderly65_r":0.2742,"single_hh_r":0.4115,"source_level":"emd","flood_years":[],"landslide_hist_n":0},"geometry":{"type":"Polygon","coordinates":[[[126.82391,35.0656],[126.82309,35.06174],[126.82724,35.05967],[126.83222,35.06146],[126.83304,35.06532],[126.82889,35.06739],[126.82391,35.0656]]]}},{"type":"Feature","properties":{"h3":"8830c63115fffff","emd_code":"1227073000","emd_name":"대촌동","area_km2":0.5381,"edge":false,"slope_mean":1.29,"elev_mean":16.7,"flood_hist_n":0,"flood_depth_max_m":null,"flood_risk_100y":null,"semi_basement_r":null,"elderly_alone_r":0.1949,"bldg_age30_r":null,"shelter_min_walk":36,"pop":9040,"hh":4396,"elderly65_r":0.2742,"single_hh_r":0.4115,"source_level":"emd","flood_years":[],"landslide_hist_n":0},"geometry":{"type":"Polygon","coordinates":[[[126.80898,35.06024],[126.80815,35.05638],[126.8123,35.05431],[126.81728,35.05609],[126.81811,35.05995],[126.81395,35.06202],[126.80898,35.06024]]]}},{"type":"Feature","properties":{"h3":"8830c63117fffff","emd_code":"1227073000","emd_name":"대촌동","area_km2":0.5382,"edge":true,"slope_mean":2.5,"elev_mean":17.6,"flood_hist_n":0,"flood_depth_max_m":null,"flood_risk_100y":null,"semi_basement_r":null,"elderly_alone_r":0.1949,"bldg_age30_r":null,"shelter_min_walk":26,"pop":9040,"hh":4396,"elderly65_r":0.2742,"single_hh_r":0.4115,"source_level":"emd","flood_years":[],"landslide_hist_n":0},"geometry":{"type":"Polygon","coordinates":[[[126.81811,35.05995],[126.81728,35.05609],[126.82143,35.05402],[126.82641,35.05581],[126.82724,35.05967],[126.82309,35.06174],[126.81811,35.05995]]]}},{"type":"Feature","properties":{"h3":"8830c63119fffff","emd_code":"1227073000","emd_name":"대촌동","area_km2":0.538,"edge":false,"slope_mean":3.05,"elev_mean":20.6,"flood_hist_n":0,"flood_depth_max_m":null,"flood_risk_100y":null,"semi_basement_r":null,"elderly_alone_r":0.1949,"bldg_age30_r":null,"shelter_min_walk":27,"pop":9040,"hh":4396,"elderly65_r":0.2742,"single_hh_r":0.4115,"source_level":"emd","flood_years":[],"landslide_hist_n":0},"geometry":{"type":"Polygon","coordinates":[[[126.81145,35.07181],[126.81063,35.06795],[126.81478,35.06588],[126.81976,35.06767],[126.82058,35.07153],[126.81643,35.0736],[126.81145,35.07181]]]}},{"type":"Feature","properties":{"h3":"8830c6311bfffff","emd_code":"1227073000","emd_name":"대촌동","area_km2":0.538,"edge":false,"slope_mean":0.65,"elev_mean":16.9,"flood_hist_n":0,"flood_depth_max_m":null,"flood_risk_100y":null,"semi_basement_r":null,"elderly_alone_r":0.1949,"bldg_age30_r":null,"shelter_min_walk":15,"pop":9040,"hh":4396,"elderly65_r":0.2742,"single_hh_r":0.4115,"source_level":"emd","flood_years":[],"landslide_hist_n":0},"geometry":{"type":"Polygon","coordinates":[[[126.82058,35.07153],[126.81976,35.06767],[126.82391,35.0656],[126.82889,35.06739],[126.82972,35.07125],[126.82556,35.07332],[126.82058,35.07153]]]}},{"type":"Feature","properties":{"h3":"8830c6311dfffff","emd_code":"1227073000","emd_name":"대촌동","area_km2":0.538,"edge":false,"slope_mean":1.3,"elev_mean":15.1,"flood_hist_n":0,"flood_depth_max_m":null,"flood_risk_100y":null,"semi_basement_r":null,"elderly_alone_r":0.1949,"bldg_age30_r":null,"shelter_min_walk":36,"pop":9040,"hh":4396,"elderly65_r":0.2742,"single_hh_r":0.4115,"source_level":"emd","flood_years":[],"landslide_hist_n":0},"geometry":{"type":"Polygon","coordinates":[[[126.80565,35.06617],[126.80482,35.06231],[126.80898,35.06024],[126.81395,35.06202],[126.81478,35.06588],[126.81063,35.06795],[126.80565,35.06617]]]}},{"type":"Feature","properties":{"h3":"8830c63139fffff","emd_code":"1227073000","emd_name":"대촌동","area_km2":0.5382,"edge":false,"slope_mean":1.15,"elev_mean":13.3,"flood_hist_n":0,"flood_depth_max_m":null,"flood_risk_100y":null,"semi_basement_r":null,"elderly_alone_r":0.1949,"bldg_age30_r":null,"shelter_min_walk":47,"pop":9040,"hh":4396,"elderly65_r":0.2742,"single_hh_r":0.4115,"source_level":"emd","flood_years":[],"landslide_hist_n":0},"geometry":{"type":"Polygon","coordinates":[[[126.80317,35.05459],[126.80235,35.05073],[126.8065,35.04866],[126.81148,35.05045],[126.8123,35.05431],[126.80815,35.05638],[126.80317,35.05459]]]}},{"type":"Feature","properties":{"h3":"8830c6313bfffff","emd_code":"1227073000","emd_name":"대촌동","area_km2":0.5383,"edge":true,"slope_mean":3.45,"elev_mean":16.2,"flood_hist_n":0,"flood_depth_max_m":null,"flood_risk_100y":null,"semi_basement_r":null,"elderly_alone_r":0.1949,"bldg_age30_r":null,"shelter_min_walk":39,"pop":9040,"hh":4396,"elderly65_r":0.2742,"single_hh_r":0.4115,"source_level":"emd","flood_years":[],"landslide_hist_n":0},"geometry":{"type":"Polygon","coordinates":[[[126.8123,35.05431],[126.81148,35.05045],[126.81563,35.04837],[126.82061,35.05016],[126.82143,35.05402],[126.81728,35.05609],[126.8123,35.05431]]]}},{"type":"Feature","properties":{"h3":"8830c63141fffff","emd_code":"1227073000","emd_name":"대촌동","area_km2":0.5378,"edge":false,"slope_mean":1.75,"elev_mean":8.5,"flood_hist_n":0,"flood_depth_max_m":null,"flood_risk_100y":null,"semi_basement_r":null,"elderly_alone_r":0.1949,"bldg_age30_r":null,"shelter_min_walk":47,"pop":9040,"hh":4396,"elderly65_r":0.2742,"single_hh_r":0.4115,"source_level":"emd","flood_years":[],"landslide_hist_n":0},"geometry":{"type":"Polygon","coordinates":[[[126.77493,35.07294],[126.7741,35.06908],[126.77826,35.06701],[126.78323,35.0688],[126.78406,35.07266],[126.77991,35.07473],[126.77493,35.07294]]]}},{"type":"Feature","properties":{"h3":"8830c63143fffff","emd_code":"1227073000","emd_name":"대촌동","area_km2":0.5378,"edge":false,"slope_mean":0.94,"elev_mean":9.8,"flood_hist_n":0,"flood_depth_max_m":null,"flood_risk_100y":null,"semi_basement_r":null,"elderly_alone_r":0.1949,"bldg_age30_r":null,"shelter_min_walk":50,"pop":9040,"hh":4396,"elderly65_r":0.2742,"single_hh_r":0.4115,"source_level":"emd","flood_years":[],"landslide_hist_n":0},"geometry":{"type":"Polygon","coordinates":[[[126.78406,35.07266],[126.78323,35.0688],[126.78739,35.06673],[126.79236,35.06852],[126.79319,35.07238],[126.78904,35.07445],[126.78406,35.07266]]]}},{"type":"Feature","properties":{"h3":"8830c63145fffff","emd_code":"1227073000","emd_name":"대촌동","area_km2":0.5378,"edge":false,"slope_mean":1.68,"elev_mean":8.3,"flood_hist_n":0,"flood_depth_max_m":null,"flood_risk_100y":null,"semi_basement_r":null,"elderly_alone_r":0.1949,"bldg_age30_r":null,"shelter_min_walk":56,"pop":9040,"hh":4396,"elderly65_r":0.2742,"single_hh_r":0.4115,"source_level":"emd","flood_years":[],"landslide_hist_n":0},"geometry":{"type":"Polygon","coordinates":[[[126.76913,35.06729],[126.7683,35.06343],[126.77246,35.06136],[126.77743,35.06315],[126.77826,35.06701],[126.7741,35.06908],[126.76913,35.06729]]]}},{"type":"Feature","properties":{"h3":"8830c63147fffff","emd_code":"1227073000","emd_name":"대촌동","area_km2":0.5379,"edge":false,"slope_mean":0.77,"elev_mean":10.1,"flood_hist_n":0,"flood_depth_max_m":null,"flood_risk_100y":null,"semi_basement_r":null,"elderly_alone_r":0.1949,"bldg_age30_r":null,"shelter_min_walk":57,"pop":9040,"hh":4396,"elderly65_r":0.2742,"single_hh_r":0.4115,"source_level":"emd","flood_years":[],"landslide_hist_n":0},"geometry":{"type":"Polygon","coordinates":[[[126.77826,35.06701],[126.77743,35.06315],[126.78158,35.06108],[126.78656,35.06287],[126.78739,35.06673],[126.78323,35.0688],[126.77826,35.06701]]]}},{"type":"Feature","properties":{"h3":"8830c6314bfffff","emd_code":"1227073000","emd_name":"대촌동","area_km2":0.5377,"edge":true,"slope_mean":3.28,"elev_mean":11.3,"flood_hist_n":0,"flood_depth_max_m":null,"flood_risk_100y":null,"semi_basement_r":null,"elderly_alone_r":0.1949,"bldg_age30_r":null,"shelter_min_walk":40,"pop":9040,"hh":4396,"elderly65_r":0.2742,"single_hh_r":0.4115,"source_level":"emd","flood_years":[],"landslide_hist_n":0},"geometry":{"type":"Polygon","coordinates":[[[126.78073,35.07858],[126.77991,35.07473],[126.78406,35.07266],[126.78904,35.07445],[126.78986,35.0783],[126.78571,35.08037],[126.78073,35.07858]]]}},{"type":"Feature","properties":{"h3":"8830c6314dfffff","emd_code":"1227073000","emd_name":"대촌동","area_km2":0.5377,"edge":true,"slope_mean":4.72,"elev_mean":13.1,"flood_hist_n":0,"flood_depth_max_m":null,"flood_risk_100y":null,"semi_basement_r":null,"elderly_alone_r":0.1949,"bldg_age30_r":null,"shelter_min_walk":46,"pop":9040,"hh":4396,"elderly65_r":0.2742,"single_hh_r":0.4115,"source_level":"emd","flood_years":[],"landslide_hist_n":0},"geometry":{"type":"Polygon","coordinates":[[[126.7658,35.07322],[126.76498,35.06936],[126.76913,35.06729],[126.7741,35.06908],[126.77493,35.07294],[126.77078,35.07501],[126.7658,35.07322]]]}},{"type":"Feature","properties":{"h3":"8830c63151fffff","emd_code":"1227073000","emd_name":"대촌동","area_km2":0.5378,"edge":false,"slope_mean":1.1,"elev_mean":13.4,"flood_hist_n":0,"flood_depth_max_m":null,"flood_risk_100y":null,"semi_basement_r":null,"elderly_alone_r":0.1949,"bldg_age30_r":null,"shelter_min_walk":38,"pop":9040,"hh":4396,"elderly65_r":0.2742,"single_hh_r":0.4115,"source_level":"emd","flood_years":[],"landslide_hist_n":0},"geometry":{"type":"Polygon","coordinates":[[[126.79899,35.07802],[126.79817,35.07416],[126.80232,35.07209],[126.8073,35.07388],[126.80812,35.07774],[126.80397,35.07981],[126.79899,35.07802]]]}},{"type":"Feature","properties":{"h3":"8830c63153fffff","emd_code":"1227073000","emd_name":"대촌동","area_km2":0.5379,"edge":false,"slope_mean":5.88,"elev_mean":30.7,"flood_hist_n":0,"flood_depth_max_m":null,"flood_risk_100y":null,"semi_basement_r":null,"elderly_alone_r":0.1949,"bldg_age30_r":null,"shelter_min_walk":27,"pop":9040,"hh":4396,"elderly65_r":0.2742,"single_hh_r":0.4115,"source_level":"emd","flood_years":[],"landslide_hist_n":0},"geometry":{"type":"Polygon","coordinates":[[[126.80812,35.07774],[126.8073,35.07388],[126.81145,35.07181],[126.81643,35.0736],[126.81726,35.07746],[126.8131,35.07953],[126.80812,35.07774]]]}},{"type":"Feature","properties":{"h3":"8830c63155fffff","emd_code":"1227073000","emd_name":"대촌동","area_km2":0.5379,"edge":false,"slope_mean":0.92,"elev_mean":11.3,"flood_hist_n":0,"flood_depth_max_m":null,"flood_risk_100y":null,"semi_basement_r":null,"elderly_alone_r":0.1949,"bldg_age30_r":null,"shelter_min_walk":49,"pop":9040,"hh":4396,"elderly65_r":0.2742,"single_hh_r":0.4115,"source_level":"emd","flood_years":[],"landslide_hist_n":0},"geometry":{"type":"Polygon","coordinates":[[[126.79319,35.07238],[126.79236,35.06852],[126.79652,35.06645],[126.80149,35.06824],[126.80232,35.07209],[126.79817,35.07416],[126.79319,35.07238]]]}},{"type":"Feature","properties":{"h3":"8830c63157fffff","emd_code":"1227073000","emd_name":"대촌동","area_km2":0.5379,"edge":false,"slope_mean":3.14,"elev_mean":19.0,"flood_hist_n":0,"flood_depth_max_m":null,"flood_risk_100y":null,"semi_basement_r":null,"elderly_alone_r":0.1949,"bldg_age30_r":null,"shelter_min_walk":38,"pop":9040,"hh":4396,"elderly65_r":0.2742,"single_hh_r":0.4115,"source_level":"emd","flood_years":[],"landslide_hist_n":0},"geometry":{"type":"Polygon","coordinates":[[[126.80232,35.07209],[126.80149,35.06824],[126.80565,35.06617],[126.81063,35.06795],[126.81145,35.07181],[126.8073,35.07388],[126.80232,35.07209]]]}},{"type":"Feature","properties":{"h3":"8830c63159fffff","emd_code":"1227073000","emd_name":"대촌동","area_km2":0.5377,"edge":false,"slope_mean":1.07,"elev_mean":11.2,"flood_hist_n":0,"flood_depth_max_m":null,"flood_risk_100y":null,"semi_basement_r":null,"elderly_alone_r":0.1949,"bldg_age30_r":null,"shelter_min_walk":41,"pop":9040,"hh":4396,"elderly65_r":0.2742,"single_hh_r":0.4115,"source_level":"emd","flood_years":[],"landslide_hist_n":0},"geometry":{"type":"Polygon","coordinates":[[[126.79567,35.08395],[126.79484,35.08009],[126.79899,35.07802],[126.80397,35.07981],[126.8048,35.08367],[126.80064,35.08574],[126.79567,35.08395]]]}},{"type":"Feature","properties":{"h3":"8830c6315bfffff","emd_code":"1227073000","emd_name":"대촌동","area_km2":0.5377,"edge":false,"slope_mean":4.29,"elev_mean":21.7,"flood_hist_n":0,"flood_depth_max_m":null,"flood_risk_100y":null,"semi_basement_r":null,"elderly_alone_r":0.1949,"bldg_age30_r":null,"shelter_min_walk":29,"pop":9040,"hh":4396,"elderly65_r":0.2742,"single_hh_r":0.4115,"source_level":"emd","flood_years":[],"landslide_hist_n":0},"geometry":{"type":"Polygon","coordinates":[[[126.8048,35.08367],[126.80397,35.07981],[126.80812,35.07774],[126.8131,35.07953],[126.81393,35.08339],[126.80977,35.08546],[126.8048,35.08367]]]}},{"type":"Feature","properties":{"h3":"8830c6315dfffff","emd_code":"1227073000","emd_name":"대촌동","area_km2":0.5377,"edge":false,"slope_mean":0.82,"elev_mean":10.0,"flood_hist_n":0,"flood_depth_max_m":null,"flood_risk_100y":null,"semi_basement_r":null,"elderly_alone_r":0.1949,"bldg_age30_r":null,"shelter_min_walk":46,"pop":9040,"hh":4396,"elderly65_r":0.2742,"single_hh_r":0.4115,"source_level":"emd","flood_years":[],"landslide_hist_n":0},"geometry":{"type":"Polygon","coordinates":[[[126.78986,35.0783],[126.78904,35.07445],[126.79319,35.07238],[126.79817,35.07416],[126.79899,35.07802],[126.79484,35.08009],[126.78986,35.0783]]]}},{"type":"Feature","properties":{"h3":"8830c63161fffff","emd_code":"1227073000","emd_name":"대촌동","area_km2":0.538,"edge":true,"slope_mean":2.13,"elev_mean":9.0,"flood_hist_n":0,"flood_depth_max_m":null,"flood_risk_100y":null,"semi_basement_r":null,"elderly_alone_r":0.1949,"bldg_age30_r":null,"shelter_min_walk":42,"pop":9040,"hh":4396,"elderly65_r":0.2742,"single_hh_r":0.4115,"source_level":"emd","flood_years":[],"landslide_hist_n":0},"geometry":{"type":"Polygon","coordinates":[[[126.76665,35.05571],[126.76583,35.05185],[126.76998,35.04978],[126.77496,35.05157],[126.77578,35.05543],[126.77163,35.0575],[126.76665,35.05571]]]}},{"type":"Feature","properties":{"h3":"8830c63163fffff","emd_code":"1227073000","emd_name":"대촌동","area_km2":0.5381,"edge":true,"slope_mean":2.48,"elev_mean":9.8,"flood_hist_n":0,"flood_depth_max_m":null,"flood_risk_100y":null,"semi_basement_r":null,"elderly_alone_r":0.1949,"bldg_age30_r":null,"shelter_min_walk":38,"pop":9040,"hh":4396,"elderly65_r":0.2742,"single_hh_r":0.4115,"source_level":"emd","flood_years":[],"landslide_hist_n":0},"geometry":{"type":"Polygon","coordinates":[[[126.77578,35.05543],[126.77496,35.05157],[126.77911,35.0495],[126.78409,35.05129],[126.78491,35.05515],[126.78076,35.05722],[126.77578,35.05543]]]}},{"type":"Feature","properties":{"h3":"8830c63169fffff","emd_code":"1227073000","emd_name":"대촌동","area_km2":0.5379,"edge":true,"slope_mean":1.69,"elev_mean":9.2,"flood_hist_n":0,"flood_depth_max_m":null,"flood_risk_100y":null,"semi_basement_r":null,"elderly_alone_r":0.1949,"bldg_age30_r":null,"shelter_min_walk":53,"pop":9040,"hh":4396,"elderly65_r":0.2742,"single_hh_r":0.4115,"source_level":"emd","flood_years":[],"landslide_hist_n":0},"geometry":{"type":"Polygon","coordinates":[[[126.76333,35.06164],[126.7625,35.05778],[126.76665,35.05571],[126.77163,35.0575],[126.77246,35.06136],[126.7683,35.06343],[126.76333,35.06164]]]}},{"type":"Feature","properties":{"h3":"8830c6316bfffff","emd_code":"1227073000","emd_name":"대촌동","area_km2":0.5379,"edge":false,"slope_mean":1.43,"elev_mean":10.8,"flood_hist_n":0,"flood_depth_max_m":null,"flood_risk_100y":null,"semi_basement_r":null,"elderly_alone_r":0.1949,"bldg_age30_r":null,"shelter_min_walk":48,"pop":9040,"hh":4396,"elderly65_r":0.2742,"single_hh_r":0.4115,"source_level":"emd","flood_years":[],"landslide_hist_n":0},"geometry":{"type":"Polygon","coordinates":[[[126.77246,35.06136],[126.77163,35.0575],[126.77578,35.05543],[126.78076,35.05722],[126.78158,35.06108],[126.77743,35.06315],[126.77246,35.06136]]]}},{"type":"Feature","properties":{"h3":"8830c631c1fffff","emd_code":"1227073000","emd_name":"대촌동","area_km2":0.5381,"edge":false,"slope_mean":10.24,"elev_mean":59.1,"flood_hist_n":0,"flood_depth_max_m":null,"flood_risk_100y":null,"semi_basement_r":null,"elderly_alone_r":0.1949,"bldg_age30_r":null,"shelter_min_walk":10,"pop":9040,"hh":4396,"elderly65_r":0.2742,"single_hh_r":0.4115,"source_level":"emd","flood_years":[],"landslide_hist_n":0},"geometry":{"type":"Polygon","coordinates":[[[126.83885,35.07096],[126.83802,35.0671],[126.84218,35.06503],[126.84716,35.06682],[126.84798,35.07068],[126.84383,35.07275],[126.83885,35.07096]]]}},{"type":"Feature","properties":{"h3":"8830c631c5fffff","emd_code":"1227073000","emd_name":"대촌동","area_km2":0.5382,"edge":true,"slope_mean":2.85,"elev_mean":28.8,"flood_hist_n":0,"flood_depth_max_m":null,"flood_risk_100y":null,"semi_basement_r":null,"elderly_alone_r":0.1949,"bldg_age30_r":null,"shelter_min_walk":11,"pop":9040,"hh":4396,"elderly65_r":0.2742,"single_hh_r":0.4115,"source_level":"emd","flood_years":[],"landslide_hist_n":0},"geometry":{"type":"Polygon","coordinates":[[[126.83304,35.06532],[126.83222,35.06146],[126.83637,35.05938],[126.84135,35.06117],[126.84218,35.06503],[126.83802,35.0671],[126.83304,35.06532]]]}},{"type":"Feature","properties":{"h3":"8830c631c7fffff","emd_code":"1227073000","emd_name":"대촌동","area_km2":0.5382,"edge":true,"slope_mean":14.98,"elev_mean":69.2,"flood_hist_n":0,"flood_depth_max_m":null,"flood_risk_100y":null,"semi_basement_r":null,"elderly_alone_r":0.1949,"bldg_age30_r":null,"shelter_min_walk":18,"pop":9040,"hh":4396,"elderly65_r":0.2742,"single_hh_r":0.4115,"source_level":"emd","flood_years":[],"landslide_hist_n":0},"geometry":{"type":"Polygon","coordinates":[[[126.84218,35.06503],[126.84135,35.06117],[126.8455,35.0591],[126.85048,35.06089],[126.85131,35.06475],[126.84716,35.06682],[126.84218,35.06503]]]}},{"type":"Feature","properties":{"h3":"8830c631c9fffff","emd_code":"1227073000","emd_name":"대촌동","area_km2":0.538,"edge":false,"slope_mean":3.64,"elev_mean":30.5,"flood_hist_n":0,"flood_depth_max_m":null,"flood_risk_100y":null,"semi_basement_r":null,"elderly_alone_r":0.1949,"bldg_age30_r":null,"shelter_min_walk":11,"pop":9040,"hh":4396,"elderly65_r":0.2742,"single_hh_r":0.4115,"source_level":"emd","flood_years":[],"landslide_hist_n":0},"geometry":{"type":"Polygon","coordinates":[[[126.83552,35.07689],[126.83469,35.07303],[126.83885,35.07096],[126.84383,35.07275],[126.84465,35.07661],[126.8405,35.07868],[126.83552,35.07689]]]}},{"type":"Feature","properties":{"h3":"8830c631cbfffff","emd_code":"1227073000","emd_name":"대촌동","area_km2":0.5381,"edge":false,"slope_mean":17.53,"elev_mean":88.7,"flood_hist_n":0,"flood_depth_max_m":null,"flood_risk_100y":null,"semi_basement_r":null,"elderly_alone_r":0.1949,"bldg_age30_r":null,"shelter_min_walk":20,"pop":9040,"hh":4396,"elderly65_r":0.2742,"single_hh_r":0.4115,"source_level":"emd","flood_years":[],"landslide_hist_n":0},"geometry":{"type":"Polygon","coordinates":[[[126.84465,35.07661],[126.84383,35.07275],[126.84798,35.07068],[126.85296,35.07246],[126.85379,35.07632],[126.84963,35.07839],[126.84465,35.07661]]]}},{"type":"Feature","properties":{"h3":"8830c631cdfffff","emd_code":"1227073000","emd_name":"대촌동","area_km2":0.5381,"edge":false,"slope_mean":1.76,"elev_mean":23.1,"flood_hist_n":0,"flood_depth_max_m":null,"flood_risk_100y":null,"semi_basement_r":null,"elderly_alone_r":0.1949,"bldg_age30_r":null,"shelter_min_walk":2,"pop":9040,"hh":4396,"elderly65_r":0.2742,"single_hh_r":0.4115,"source_level":"emd","flood_years":[],"landslide_hist_n":0},"geometry":{"type":"Polygon","coordinates":[[[126.82972,35.07125],[126.82889,35.06739],[126.83304,35.06532],[126.83802,35.0671],[126.83885,35.07096],[126.83469,35.07303],[126.82972,35.07125]]]}},{"type":"Feature","properties":{"h3":"8830c631d1fffff","emd_code":"1227073000","emd_name":"대촌동","area_km2":0.5382,"edge":true,"slope_mean":16.6,"elev_mean":105.0,"flood_hist_n":0,"flood_depth_max_m":null,"flood_risk_100y":null,"semi_basement_r":null,"elderly_alone_r":0.1949,"bldg_age30_r":null,"shelter_min_walk":44,"pop":9040,"hh":4396,"elderly65_r":0.2742,"single_hh_r":0.4115,"source_level":"emd","flood_years":[],"landslide_hist_n":0},"geometry":{"type":"Polygon","coordinates":[[[126.86292,35.07603],[126.8621,35.07218],[126.86625,35.0701],[126.87123,35.07189],[126.87206,35.07575],[126.8679,35.07782],[126.86292,35.07603]]]}},{"type":"Feature","properties":{"h3":"8830c631d3fffff","emd_code":"1227073000","emd_name":"대촌동","area_km2":0.5382,"edge":true,"slope_mean":19.79,"elev_mean":128.9,"flood_hist_n":0,"flood_depth_max_m":null,"flood_risk_100y":null,"semi_basement_r":null,"elderly_alone_r":0.1949,"bldg_age30_r":null,"shelter_min_walk":49,"pop":9040,"hh":4396,"elderly65_r":0.2742,"single_hh_r":0.4115,"source_level":"emd","flood_years":[],"landslide_hist_n":0},"geometry":{"type":"Polygon","coordinates":[[[126.87206,35.07575],[126.87123,35.07189],[126.87539,35.06982],[126.88037,35.0716],[126.88119,35.07546],[126.87704,35.07753],[126.87206,35.07575]]]}},{"type":"Feature","properties":{"h3":"8830c631d9fffff","emd_code":"1227073000","emd_name":"대촌동","area_km2":0.538,"edge":false,"slope_mean":11.46,"elev_mean":69.5,"flood_hist_n":0,"flood_depth_max_m":null,"flood_risk_100y":null,"semi_basement_r":null,"elderly_alone_r":0.1949,"bldg_age30_r":null,"shelter_min_walk":42,"pop":9040,"hh":4396,"elderly65_r":0.2742,"single_hh_r":0.4115,"source_level":"emd","flood_years":[],"landslide_hist_n":0},"geometry":{"type":"Polygon","coordinates":[[[126.85959,35.08196],[126.85877,35.07811],[126.86292,35.07603],[126.8679,35.07782],[126.86873,35.08168],[126.86457,35.08375],[126.85959,35.08196]]]}},{"type":"Feature","properties":{"h3":"8830c631dbfffff","emd_code":"1227073000","emd_name":"대촌동","area_km2":0.5381,"edge":false,"slope_mean":13.61,"elev_mean":93.2,"flood_hist_n":0,"flood_depth_max_m":null,"flood_risk_100y":null,"semi_basement_r":null,"elderly_alone_r":0.1949,"bldg_age30_r":null,"shelter_min_walk":40,"pop":9040,"hh":4396,"elderly65_r":0.2742,"single_hh_r":0.4115,"source_level":"emd","flood_years":[],"landslide_hist_n":0},"geometry":{"type":"Polygon","coordinates":[[[126.86873,35.08168],[126.8679,35.07782],[126.87206,35.07575],[126.87704,35.07753],[126.87786,35.08139],[126.87371,35.08346],[126.86873,35.08168]]]}},{"type":"Feature","properties":{"h3":"8830c631ddfffff","emd_code":"1227073000","emd_name":"대촌동","area_km2":0.5381,"edge":true,"slope_mean":16.83,"elev_mean":94.9,"flood_hist_n":0,"flood_depth_max_m":null,"flood_risk_100y":null,"semi_basement_r":null,"elderly_alone_r":0.1949,"bldg_age30_r":null,"shelter_min_walk":32,"pop":9040,"hh":4396,"elderly65_r":0.2742,"single_hh_r":0.4115,"source_level":"emd","flood_years":[],"landslide_hist_n":0},"geometry":{"type":"Polygon","coordinates":[[[126.85379,35.07632],[126.85296,35.07246],[126.85712,35.07039],[126.8621,35.07218],[126.86292,35.07603],[126.85877,35.07811],[126.85379,35.07632]]]}},{"type":"Feature","properties":{"h3":"8830c63283fffff","emd_code":"1227070000","emd_name":"주월2동","area_km2":0.5372,"edge":false,"slope_mean":9.05,"elev_mean":64.8,"flood_hist_n":0,"flood_depth_max_m":null,"flood_risk_100y":null,"semi_basement_r":null,"elderly_alone_r":0.1993,"bldg_age30_r":null,"shelter_min_walk":5,"pop":6889,"hh":3662,"elderly65_r":0.3379,"single_hh_r":0.4863,"source_level":"emd","flood_years":[],"landslide_hist_n":0},"geometry":{"type":"Polygon","coordinates":[[[126.88112,35.13951],[126.8803,35.13566],[126.88445,35.13359],[126.88943,35.13537],[126.89026,35.13923],[126.8861,35.1413],[126.88112,35.13951]]]}},{"type":"Feature","properties":{"h3":"8830c6328bfffff","emd_code":"1227063000","emd_name":"월산4동","area_km2":0.5371,"edge":true,"slope_mean":4.69,"elev_mean":47.0,"flood_hist_n":0,"flood_depth_max_m":null,"flood_risk_100y":null,"semi_basement_r":null,"elderly_alone_r":0.2089,"bldg_age30_r":null,"shelter_min_walk":2,"pop":7462,"hh":4514,"elderly65_r":0.3228,"single_hh_r":0.5928,"source_level":"emd","flood_years":[],"landslide_hist_n":0},"geometry":{"type":"Polygon","coordinates":[[[126.87779,35.14544],[126.87697,35.14158],[126.88112,35.13951],[126.8861,35.1413],[126.88693,35.14515],[126.88278,35.14722],[126.87779,35.14544]]]}},{"type":"Feature","properties":{"h3":"8830c63291fffff","emd_code":"1227060500","emd_name":"월산동","area_km2":0.5372,"edge":false,"slope_mean":6.57,"elev_mean":61.3,"flood_hist_n":0,"flood_depth_max_m":null,"flood_risk_100y":null,"semi_basement_r":null,"elderly_alone_r":0.1703,"bldg_age30_r":null,"shelter_min_walk":3,"pop":10994,"hh":5332,"elderly65_r":0.2411,"single_hh_r":0.4167,"source_level":"emd","flood_years":[],"landslide_hist_n":0},"geometry":{"type":"Polygon","coordinates":[[[126.89607,35.14486],[126.89524,35.14101],[126.8994,35.13894],[126.90438,35.14072],[126.90521,35.14458],[126.90105,35.14665],[126.89607,35.14486]]]}},{"type":"Feature","properties":{"h3":"8830c63293fffff","emd_code":"1227054500","emd_name":"사직동","area_km2":0.5372,"edge":false,"slope_mean":7.9,"elev_mean":66.2,"flood_hist_n":0,"flood_depth_max_m":null,"flood_risk_100y":null,"semi_basement_r":null,"elderly_alone_r":0.2463,"bldg_age30_r":null,"shelter_min_walk":2,"pop":4324,"hh":2598,"elderly65_r":0.3374,"single_hh_r":0.6105,"source_level":"emd","flood_years":[],"landslide_hist_n":0},"geometry":{"type":"Polygon","coordinates":[[[126.90521,35.14458],[126.90438,35.14072],[126.90854,35.13865],[126.91352,35.14044],[126.91435,35.14429],[126.91019,35.14636],[126.90521,35.14458]]]}},{"type":"Feature","properties":{"h3":"8830c63295fffff","emd_code":"1227070000","emd_name":"주월2동","area_km2":0.5373,"edge":false,"slope_mean":4.5,"elev_mean":47.2,"flood_hist_n":0,"flood_depth_max_m":null,"flood_risk_100y":null,"semi_basement_r":null,"elderly_alone_r":0.1993,"bldg_age30_r":null,"shelter_min_walk":2,"pop":6889,"hh":3662,"elderly65_r":0.3379,"single_hh_r":0.4863,"source_level":"emd","flood_years":[],"landslide_hist_n":0},"geometry":{"type":"Polygon","coordinates":[[[126.89026,35.13923],[126.88943,35.13537],[126.89359,35.1333],[126.89857,35.13509],[126.8994,35.13894],[126.89524,35.14101],[126.89026,35.13923]]]}},{"type":"Feature","properties":{"h3":"8830c63297fffff","emd_code":"1227068000","emd_name":"백운2동","area_km2":0.5373,"edge":false,"slope_mean":5.45,"elev_mean":56.6,"flood_hist_n":2,"flood_depth_max_m":1.226,"flood_risk_100y":null,"semi_basement_r":null,"elderly_alone_r":0.14,"bldg_age30_r":null,"shelter_min_walk":1,"pop":6693,"hh":3650,"elderly65_r":0.2344,"single_hh_r":0.5367,"source_level":"emd","flood_years":[2018,2020],"landslide_hist_n":0},"geometry":{"type":"Polygon","coordinates":[[[126.8994,35.13894],[126.89857,35.13509],[126.90273,35.13302],[126.90771,35.1348],[126.90854,35.13865],[126.90438,35.14072],[126.8994,35.13894]]]}},{"type":"Feature","properties":{"h3":"8830c63299fffff","emd_code":"1227060500","emd_name":"월산동","area_km2":0.5371,"edge":false,"slope_mean":6.13,"elev_mean":58.8,"flood_hist_n":0,"flood_depth_max_m":null,"flood_risk_100y":null,"semi_basement_r":null,"elderly_alone_r":0.1703,"bldg_age30_r":null,"shelter_min_walk":2,"pop":10994,"hh":5332,"elderly65_r":0.2411,"single_hh_r":0.4167,"source_level":"emd","flood_years":[],"landslide_hist_n":0},"geometry":{"type":"Polygon","coordinates":[[[126.89274,35.15079],[126.89191,35.14693],[126.89607,35.14486],[126.90105,35.14665],[126.90188,35.1505],[126.89772,35.15257],[126.89274,35.15079]]]}},{"type":"Feature","properties":{"h3":"8830c6329bfffff","emd_code":"1227054500","emd_name":"사직동","area_km2":0.5371,"edge":true,"slope_mean":4.81,"elev_mean":50.1,"flood_hist_n":1,"flood_depth_max_m":0.658,"flood_risk_100y":null,"semi_basement_r":null,"elderly_alone_r":0.2463,"bldg_age30_r":null,"shelter_min_walk":2,"pop":4324,"hh":2598,"elderly65_r":0.3374,"single_hh_r":0.6105,"source_level":"emd","flood_years":[2020],"landslide_hist_n":0},"geometry":{"type":"Polygon","coordinates":[[[126.90188,35.1505],[126.90105,35.14665],[126.90521,35.14458],[126.91019,35.14636],[126.91102,35.15021],[126.90686,35.15228],[126.90188,35.1505]]]}},{"type":"Feature","properties":{"h3":"8830c6329dfffff","emd_code":"1227063000","emd_name":"월산4동","area_km2":0.5371,"edge":false,"slope_mean":3.69,"elev_mean":44.3,"flood_hist_n":0,"flood_depth_max_m":null,"flood_risk_100y":null,"semi_basement_r":null,"elderly_alone_r":0.2089,"bldg_age30_r":null,"shelter_min_walk":1,"pop":7462,"hh":4514,"elderly65_r":0.3228,"single_hh_r":0.5928,"source_level":"emd","flood_years":[],"landslide_hist_n":0},"geometry":{"type":"Polygon","coordinates":[[[126.88693,35.14515],[126.8861,35.1413],[126.89026,35.13923],[126.89524,35.14101],[126.89607,35.14486],[126.89191,35.14693],[126.88693,35.14515]]]}},{"type":"Feature","properties":{"h3":"8830c632a3fffff","emd_code":"1227072000","emd_name":"송암동","area_km2":0.5374,"edge":true,"slope_mean":14.31,"elev_mean":109.7,"flood_hist_n":0,"flood_depth_max_m":null,"flood_risk_100y":null,"semi_basement_r":null,"elderly_alone_r":0.0775,"bldg_age30_r":null,"shelter_min_walk":2,"pop":20409,"hh":8596,"elderly65_r":0.1337,"single_hh_r":0.329,"source_level":"emd","flood_years":[],"landslide_hist_n":1},"geometry":{"type":"Polygon","coordinates":[[[126.87284,35.12231],[126.87201,35.11846],[126.87616,35.11639],[126.88115,35.11817],[126.88197,35.12203],[126.87782,35.1241],[126.87284,35.12231]]]}},{"type":"Feature","properties":{"h3":"8830c632a7fffff","emd_code":"1227072000","emd_name":"송암동","area_km2":0.5375,"edge":false,"slope_mean":12.65,"elev_mean":87.9,"flood_hist_n":0,"flood_depth_max_m":null,"flood_risk_100y":null,"semi_basement_r":null,"elderly_alone_r":0.0775,"bldg_age30_r":null,"shelter_min_walk":11,"pop":20409,"hh":8596,"elderly65_r":0.1337,"single_hh_r":0.329,"source_level":"emd","flood_years":[],"landslide_hist_n":0},"geometry":{"type":"Polygon","coordinates":[[[126.86703,35.11667],[126.8662,35.11282],[126.87036,35.11075],[126.87534,35.11253],[126.87616,35.11639],[126.87201,35.11846],[126.86703,35.11667]]]}},{"type":"Feature","properties":{"h3":"8830c632b1fffff","emd_code":"1227069000","emd_name":"주월1동","area_km2":0.5374,"edge":false,"slope_mean":13.74,"elev_mean":103.2,"flood_hist_n":0,"flood_depth_max_m":null,"flood_risk_100y":null,"semi_basement_r":null,"elderly_alone_r":0.1416,"bldg_age30_r":null,"shelter_min_walk":3,"pop":19946,"hh":9343,"elderly65_r":0.2198,"single_hh_r":0.3922,"source_level":"emd","flood_years":[],"landslide_hist_n":0},"geometry":{"type":"Polygon","coordinates":[[[126.88778,35.12766],[126.88695,35.12381],[126.89111,35.12174],[126.89609,35.12352],[126.89692,35.12738],[126.89276,35.12945],[126.88778,35.12766]]]}},{"type":"Feature","properties":{"h3":"8830c632b3fffff","emd_code":"1227069000","emd_name":"주월1동","area_km2":0.5375,"edge":false,"slope_mean":11.93,"elev_mean":82.2,"flood_hist_n":0,"flood_depth_max_m":null,"flood_risk_100y":null,"semi_basement_r":null,"elderly_alone_r":0.1416,"bldg_age30_r":null,"shelter_min_walk":5,"pop":19946,"hh":9343,"elderly65_r":0.2198,"single_hh_r":0.3922,"source_level":"emd","flood_years":[],"landslide_hist_n":0},"geometry":{"type":"Polygon","coordinates":[[[126.89692,35.12738],[126.89609,35.12352],[126.90025,35.12145],[126.90523,35.12324],[126.90606,35.12709],[126.9019,35.12916],[126.89692,35.12738]]]}},{"type":"Feature","properties":{"h3":"8830c632b5fffff","emd_code":"1227070500","emd_name":"진월동","area_km2":0.5375,"edge":true,"slope_mean":19.59,"elev_mean":159.1,"flood_hist_n":0,"flood_depth_max_m":null,"flood_risk_100y":null,"semi_basement_r":null,"elderly_alone_r":0.1185,"bldg_age30_r":null,"shelter_min_walk":7,"pop":26864,"hh":11494,"elderly65_r":0.2106,"single_hh_r":0.322,"source_level":"emd","flood_years":[],"landslide_hist_n":0},"geometry":{"type":"Polygon","coordinates":[[[126.88197,35.12203],[126.88115,35.11817],[126.8853,35.1161],[126.89028,35.11788],[126.89111,35.12174],[126.88695,35.12381],[126.88197,35.12203]]]}},{"type":"Feature","properties":{"h3":"8830c632b7fffff","emd_code":"1227070500","emd_name":"진월동","area_km2":0.5375,"edge":false,"slope_mean":10.22,"elev_mean":89.2,"flood_hist_n":0,"flood_depth_max_m":null,"flood_risk_100y":null,"semi_basement_r":null,"elderly_alone_r":0.1185,"bldg_age30_r":null,"shelter_min_walk":6,"pop":26864,"hh":11494,"elderly65_r":0.2106,"single_hh_r":0.322,"source_level":"emd","flood_years":[],"landslide_hist_n":0},"geometry":{"type":"Polygon","coordinates":[[[126.89111,35.12174],[126.89028,35.11788],[126.89444,35.11581],[126.89942,35.1176],[126.90025,35.12145],[126.89609,35.12352],[126.89111,35.12174]]]}},{"type":"Feature","properties":{"h3":"8830c632b9fffff","emd_code":"1227070000","emd_name":"주월2동","area_km2":0.5373,"edge":false,"slope_mean":8.98,"elev_mean":69.6,"flood_hist_n":0,"flood_depth_max_m":null,"flood_risk_100y":null,"semi_basement_r":null,"elderly_alone_r":0.1993,"bldg_age30_r":null,"shelter_min_walk":3,"pop":6889,"hh":3662,"elderly65_r":0.3379,"single_hh_r":0.4863,"source_level":"emd","flood_years":[],"landslide_hist_n":0},"geometry":{"type":"Polygon","coordinates":[[[126.88445,35.13359],[126.88362,35.12974],[126.88778,35.12766],[126.89276,35.12945],[126.89359,35.1333],[126.88943,35.13537],[126.88445,35.13359]]]}},{"type":"Feature","properties":{"h3":"8830c632bbfffff","emd_code":"1227069000","emd_name":"주월1동","area_km2":0.5374,"edge":false,"slope_mean":5.32,"elev_mean":51.2,"flood_hist_n":2,"flood_depth_max_m":0.847,"flood_risk_100y":null,"semi_basement_r":null,"elderly_alone_r":0.1416,"bldg_age30_r":null,"shelter_min_walk":3,"pop":19946,"hh":9343,"elderly65_r":0.2198,"single_hh_r":0.3922,"source_level":"emd","flood_years":[2018,2020],"landslide_hist_n":0},"geometry":{"type":"Polygon","coordinates":[[[126.89359,35.1333],[126.89276,35.12945],[126.89692,35.12738],[126.9019,35.12916],[126.90273,35.13302],[126.89857,35.13509],[126.89359,35.1333]]]}},{"type":"Feature","properties":{"h3":"8830c632bdfffff","emd_code":"1227069000","emd_name":"주월1동","area_km2":0.5374,"edge":true,"slope_mean":10.02,"elev_mean":87.2,"flood_hist_n":0,"flood_depth_max_m":null,"flood_risk_100y":null,"semi_basement_r":null,"elderly_alone_r":0.1416,"bldg_age30_r":null,"shelter_min_walk":2,"pop":19946,"hh":9343,"elderly65_r":0.2198,"single_hh_r":0.3922,"source_level":"emd","flood_years":[],"landslide_hist_n":1},"geometry":{"type":"Polygon","coordinates":[[[126.87864,35.12795],[126.87782,35.1241],[126.88197,35.12203],[126.88695,35.12381],[126.88778,35.12766],[126.88362,35.12974],[126.87864,35.12795]]]}},{"type":"Feature","properties":{"h3":"8830c632d3fffff","emd_code":"1227060500","emd_name":"월산동","area_km2":0.537,"edge":true,"slope_mean":6.19,"elev_mean":50.5,"flood_hist_n":0,"flood_depth_max_m":null,"flood_risk_100y":null,"semi_basement_r":null,"elderly_alone_r":0.1703,"bldg_age30_r":null,"shelter_min_walk":5,"pop":10994,"hh":5332,"elderly65_r":0.2411,"single_hh_r":0.4167,"source_level":"emd","flood_years":[],"landslide_hist_n":0},"geometry":{"type":"Polygon","coordinates":[[[126.88941,35.15671],[126.88858,35.15286],[126.89274,35.15079],[126.89772,35.15257],[126.89855,35.15642],[126.89439,35.15849],[126.88941,35.15671]]]}},{"type":"Feature","properties":{"h3":"8830c632d7fffff","emd_code":"1227063000","emd_name":"월산4동","area_km2":0.537,"edge":true,"slope_mean":3.14,"elev_mean":40.9,"flood_hist_n":2,"flood_depth_max_m":0.559,"flood_risk_100y":null,"semi_basement_r":null,"elderly_alone_r":0.2089,"bldg_age30_r":null,"shelter_min_walk":3,"pop":7462,"hh":4514,"elderly65_r":0.3228,"single_hh_r":0.5928,"source_level":"emd","flood_years":[2018,2020],"landslide_hist_n":0},"geometry":{"type":"Polygon","coordinates":[[[126.8836,35.15107],[126.88278,35.14722],[126.88693,35.14515],[126.89191,35.14693],[126.89274,35.15079],[126.88858,35.15286],[126.8836,35.15107]]]}},{"type":"Feature","properties":{"h3":"8830c63333fffff","emd_code":"1227073000","emd_name":"대촌동","area_km2":0.5376,"edge":false,"slope_mean":1.42,"elev_mean":10.0,"flood_hist_n":0,"flood_depth_max_m":null,"flood_risk_100y":null,"semi_basement_r":null,"elderly_alone_r":0.1949,"bldg_age30_r":null,"shelter_min_walk":35,"pop":9040,"hh":4396,"elderly65_r":0.2742,"single_hh_r":0.4115,"source_level":"emd","flood_years":[],"landslide_hist_n":0},"geometry":{"type":"Polygon","coordinates":[[[126.79234,35.08988],[126.79151,35.08602],[126.79567,35.08395],[126.80064,35.08574],[126.80147,35.08959],[126.79732,35.09166],[126.79234,35.08988]]]}},{"type":"Feature","properties":{"h3":"8830c63337fffff","emd_code":"1227073000","emd_name":"대촌동","area_km2":0.5376,"edge":true,"slope_mean":2.5,"elev_mean":9.8,"flood_hist_n":0,"flood_depth_max_m":null,"flood_risk_100y":null,"semi_basement_r":null,"elderly_alone_r":0.1949,"bldg_age30_r":null,"shelter_min_walk":36,"pop":9040,"hh":4396,"elderly65_r":0.2742,"single_hh_r":0.4115,"source_level":"emd","flood_years":[],"landslide_hist_n":0},"geometry":{"type":"Polygon","coordinates":[[[126.78653,35.08423],[126.78571,35.08037],[126.78986,35.0783],[126.79484,35.08009],[126.79567,35.08395],[126.79151,35.08602],[126.78653,35.08423]]]}},{"type":"Feature","properties":{"h3":"8830c63729fffff","emd_code":"1227053000","emd_name":"방림2동","area_km2":0.5376,"edge":true,"slope_mean":13.75,"elev_mean":104.5,"flood_hist_n":1,"flood_depth_max_m":0.573,"flood_risk_100y":null,"semi_basement_r":null,"elderly_alone_r":0.2001,"bldg_age30_r":null,"shelter_min_walk":5,"pop":8845,"hh":4162,"elderly65_r":0.2943,"single_hh_r":0.383,"source_level":"emd","flood_years":[2020],"landslide_hist_n":2},"geometry":{"type":"Polygon","coordinates":[[[126.92433,35.12651],[126.92351,35.12266],[126.92766,35.12059],[126.93264,35.12237],[126.93347,35.12622],[126.92932,35.1283],[126.92433,35.12651]]]}},{"type":"Feature","properties":{"h3":"8830c6372dfffff","emd_code":"1227053800","emd_name":"봉선2동","area_km2":0.5377,"edge":true,"slope_mean":15.37,"elev_mean":110.2,"flood_hist_n":1,"flood_depth_max_m":1.129,"flood_risk_100y":null,"semi_basement_r":null,"elderly_alone_r":0.0954,"bldg_age30_r":null,"shelter_min_walk":9,"pop":27190,"hh":10001,"elderly65_r":0.1618,"single_hh_r":0.2106,"source_level":"emd","flood_years":[2020],"landslide_hist_n":0},"geometry":{"type":"Polygon","coordinates":[[[126.91852,35.12088],[126.9177,35.11702],[126.92185,35.11495],[126.92683,35.11673],[126.92766,35.12059],[126.92351,35.12266],[126.91852,35.12088]]]}},{"type":"Feature","properties":{"h3":"8830c63745fffff","emd_code":"1227051000","emd_name":"양림동","area_km2":0.5373,"edge":true,"slope_mean":4.51,"elev_mean":53.0,"flood_hist_n":0,"flood_depth_max_m":null,"flood_risk_100y":null,"semi_basement_r":null,"elderly_alone_r":0.194,"bldg_age30_r":null,"shelter_min_walk":3,"pop":6074,"hh":2954,"elderly65_r":0.3232,"single_hh_r":0.3856,"source_level":"emd","flood_years":[],"landslide_hist_n":0},"geometry":{"type":"Polygon","coordinates":[[[126.91435,35.14429],[126.91352,35.14044],[126.91767,35.13836],[126.92266,35.14015],[126.92348,35.144],[126.91933,35.14607],[126.91435,35.14429]]]}},{"type":"Feature","properties":{"h3":"8830c6374dfffff","emd_code":"1227054500","emd_name":"사직동","area_km2":0.5372,"edge":true,"slope_mean":4.58,"elev_mean":49.4,"flood_hist_n":0,"flood_depth_max_m":null,"flood_risk_100y":null,"semi_basement_r":null,"elderly_alone_r":0.2463,"bldg_age30_r":null,"shelter_min_walk":3,"pop":4324,"hh":2598,"elderly65_r":0.3374,"single_hh_r":0.6105,"source_level":"emd","flood_years":[],"landslide_hist_n":0},"geometry":{"type":"Polygon","coordinates":[[[126.91102,35.15021],[126.91019,35.14636],[126.91435,35.14429],[126.91933,35.14607],[126.92015,35.14992],[126.916,35.15199],[126.91102,35.15021]]]}},{"type":"Feature","properties":{"h3":"8830c63761fffff","emd_code":"1227052000","emd_name":"방림1동","area_km2":0.5375,"edge":false,"slope_mean":6.23,"elev_mean":67.3,"flood_hist_n":0,"flood_depth_max_m":null,"flood_risk_100y":null,"semi_basement_r":null,"elderly_alone_r":0.1756,"bldg_age30_r":null,"shelter_min_walk":3,"pop":6121,"hh":2893,"elderly65_r":0.2459,"single_hh_r":0.3992,"source_level":"emd","flood_years":[],"landslide_hist_n":0},"geometry":{"type":"Polygon","coordinates":[[[126.91186,35.13273],[126.91104,35.12887],[126.91519,35.1268],[126.92018,35.12859],[126.921,35.13244],[126.91685,35.13451],[126.91186,35.13273]]]}},{"type":"Feature","properties":{"h3":"8830c63763fffff","emd_code":"1227053000","emd_name":"방림2동","area_km2":0.5375,"edge":false,"slope_mean":8.84,"elev_mean":74.7,"flood_hist_n":1,"flood_depth_max_m":0.573,"flood_risk_100y":null,"semi_basement_r":null,"elderly_alone_r":0.2001,"bldg_age30_r":null,"shelter_min_walk":2,"pop":8845,"hh":4162,"elderly65_r":0.2943,"single_hh_r":0.383,"source_level":"emd","flood_years":[2020],"landslide_hist_n":0},"geometry":{"type":"Polygon","coordinates":[[[126.921,35.13244],[126.92018,35.12859],[126.92433,35.12651],[126.92932,35.1283],[126.93014,35.13215],[126.92599,35.13422],[126.921,35.13244]]]}},{"type":"Feature","properties":{"h3":"8830c63765fffff","emd_code":"1227053800","emd_name":"봉선2동","area_km2":0.5375,"edge":false,"slope_mean":5.36,"elev_mean":63.2,"flood_hist_n":0,"flood_depth_max_m":null,"flood_risk_100y":null,"semi_basement_r":null,"elderly_alone_r":0.0954,"bldg_age30_r":null,"shelter_min_walk":2,"pop":27190,"hh":10001,"elderly65_r":0.1618,"single_hh_r":0.2106,"source_level":"emd","flood_years":[],"landslide_hist_n":0},"geometry":{"type":"Polygon","coordinates":[[[126.90606,35.12709],[126.90523,35.12324],[126.90938,35.12116],[126.91437,35.12295],[126.91519,35.1268],[126.91104,35.12887],[126.90606,35.12709]]]}},{"type":"Feature","properties":{"h3":"8830c63767fffff","emd_code":"1227053800","emd_name":"봉선2동","area_km2":0.5376,"edge":false,"slope_mean":10.89,"elev_mean":93.1,"flood_hist_n":0,"flood_depth_max_m":null,"flood_risk_100y":null,"semi_basement_r":null,"elderly_alone_r":0.0954,"bldg_age30_r":null,"shelter_min_walk":1,"pop":27190,"hh":10001,"elderly65_r":0.1618,"single_hh_r":0.2106,"source_level":"emd","flood_years":[],"landslide_hist_n":0},"geometry":{"type":"Polygon","coordinates":[[[126.91519,35.1268],[126.91437,35.12295],[126.91852,35.12088],[126.92351,35.12266],[126.92433,35.12651],[126.92018,35.12859],[126.91519,35.1268]]]}},{"type":"Feature","properties":{"h3":"8830c63769fffff","emd_code":"1227051000","emd_name":"양림동","area_km2":0.5374,"edge":false,"slope_mean":5.52,"elev_mean":61.4,"flood_hist_n":0,"flood_depth_max_m":null,"flood_risk_100y":null,"semi_basement_r":null,"elderly_alone_r":0.194,"bldg_age30_r":null,"shelter_min_walk":3,"pop":6074,"hh":2954,"elderly65_r":0.3232,"single_hh_r":0.3856,"source_level":"emd","flood_years":[],"landslide_hist_n":0},"geometry":{"type":"Polygon","coordinates":[[[126.90854,35.13865],[126.90771,35.1348],[126.91186,35.13273],[126.91685,35.13451],[126.91767,35.13836],[126.91352,35.14044],[126.90854,35.13865]]]}},{"type":"Feature","properties":{"h3":"8830c6376bfffff","emd_code":"1227052000","emd_name":"방림1동","area_km2":0.5374,"edge":true,"slope_mean":4.77,"elev_mean":58.1,"flood_hist_n":0,"flood_depth_max_m":null,"flood_risk_100y":null,"semi_basement_r":null,"elderly_alone_r":0.1756,"bldg_age30_r":null,"shelter_min_walk":2,"pop":6121,"hh":2893,"elderly65_r":0.2459,"single_hh_r":0.3992,"source_level":"emd","flood_years":[],"landslide_hist_n":0},"geometry":{"type":"Polygon","coordinates":[[[126.91767,35.13836],[126.91685,35.13451],[126.921,35.13244],[126.92599,35.13422],[126.92681,35.13808],[126.92266,35.14015],[126.91767,35.13836]]]}},{"type":"Feature","properties":{"h3":"8830c6376dfffff","emd_code":"1227053700","emd_name":"봉선1동","area_km2":0.5374,"edge":false,"slope_mean":3.87,"elev_mean":52.2,"flood_hist_n":2,"flood_depth_max_m":1.095,"flood_risk_100y":null,"semi_basement_r":null,"elderly_alone_r":0.1763,"bldg_age30_r":null,"shelter_min_walk":1,"pop":13353,"hh":6796,"elderly65_r":0.2447,"single_hh_r":0.4744,"source_level":"emd","flood_years":[2018,2020],"landslide_hist_n":0},"geometry":{"type":"Polygon","coordinates":[[[126.90273,35.13302],[126.9019,35.12916],[126.90606,35.12709],[126.91104,35.12887],[126.91186,35.13273],[126.90771,35.1348],[126.90273,35.13302]]]}},{"type":"Feature","properties":{"h3":"8830c6ada5fffff","emd_code":"1227060500","emd_name":"월산동","area_km2":0.537,"edge":true,"slope_mean":3.95,"elev_mean":43.1,"flood_hist_n":0,"flood_depth_max_m":null,"flood_risk_100y":null,"semi_basement_r":null,"elderly_alone_r":0.1703,"bldg_age30_r":null,"shelter_min_walk":1,"pop":10994,"hh":5332,"elderly65_r":0.2411,"single_hh_r":0.4167,"source_level":"emd","flood_years":[],"landslide_hist_n":0},"geometry":{"type":"Polygon","coordinates":[[[126.89855,35.15642],[126.89772,35.15257],[126.90188,35.1505],[126.90686,35.15228],[126.90769,35.15613],[126.90353,35.1582],[126.89855,35.15642]]]}}]}