{"type":"FeatureCollection","name":"grid_26110_h3r8","meta":{"sgg_code":"26110","h3_res":8,"n_cells":11,"dem":"Copernicus GLO-30 (bbox-mean)","crs":"EPSG:4326","jumin_basis":"2026-07","flood_src":"행안부 침수흔적도(전국, 재난안전데이터공유플랫폼)","landslide_src":"행안부 산사태 발생이력"},"features":[{"type":"Feature","properties":{"h3":"8830c16889fffff","emd_code":"2611051000","emd_name":"중앙동","area_km2":0.5483,"edge":false,"slope_mean":3.04,"elev_mean":4.8,"flood_hist_n":0,"flood_depth_max_m":null,"flood_risk_100y":null,"semi_basement_r":null,"elderly_alone_r":0.1104,"bldg_age30_r":null,"shelter_min_walk":3,"pop":3130,"hh":2527,"elderly65_r":0.1716,"single_hh_r":0.831,"source_level":"emd","flood_years":[],"landslide_hist_n":0},"geometry":{"type":"Polygon","coordinates":[[[129.03374,35.10005],[129.03289,35.09618],[129.03709,35.09402],[129.04214,35.09573],[129.04299,35.0996],[129.03879,35.10175],[129.03374,35.10005]]]}},{"type":"Feature","properties":{"h3":"8830c168c1fffff","emd_code":"2611054500","emd_name":"보수동","area_km2":0.5481,"edge":false,"slope_mean":9.07,"elev_mean":38.4,"flood_hist_n":1,"flood_depth_max_m":0.268,"flood_risk_100y":null,"semi_basement_r":null,"elderly_alone_r":0.2275,"bldg_age30_r":null,"shelter_min_walk":2,"pop":9729,"hh":6022,"elderly65_r":0.3398,"single_hh_r":0.6189,"source_level":"emd","flood_years":[2020],"landslide_hist_n":0},"geometry":{"type":"Polygon","coordinates":[[[129.02115,35.10652],[129.02029,35.10266],[129.02449,35.1005],[129.02954,35.10221],[129.0304,35.10607],[129.0262,35.10823],[129.02115,35.10652]]]}},{"type":"Feature","properties":{"h3":"8830c168c3fffff","emd_code":"2611052000","emd_name":"동광동","area_km2":0.5482,"edge":false,"slope_mean":8.97,"elev_mean":23.8,"flood_hist_n":0,"flood_depth_max_m":null,"flood_risk_100y":null,"semi_basement_r":null,"elderly_alone_r":0.3368,"bldg_age30_r":null,"shelter_min_walk":2,"pop":2244,"hh":1535,"elderly65_r":0.4412,"single_hh_r":0.6866,"source_level":"emd","flood_years":[],"landslide_hist_n":0},"geometry":{"type":"Polygon","coordinates":[[[129.0304,35.10607],[129.02954,35.10221],[129.03374,35.10005],[129.03879,35.10175],[129.03965,35.10562],[129.03545,35.10778],[129.0304,35.10607]]]}},{"type":"Feature","properties":{"h3":"8830c168c5fffff","emd_code":"2611056000","emd_name":"부평동","area_km2":0.5482,"edge":true,"slope_mean":10.2,"elev_mean":45.0,"flood_hist_n":0,"flood_depth_max_m":null,"flood_risk_100y":null,"semi_basement_r":null,"elderly_alone_r":0.2935,"bldg_age30_r":null,"shelter_min_walk":2,"pop":3958,"hh":2600,"elderly65_r":0.4106,"single_hh_r":0.6627,"source_level":"emd","flood_years":[],"landslide_hist_n":0},"geometry":{"type":"Polygon","coordinates":[[[129.01524,35.10095],[129.01439,35.09708],[129.01859,35.09493],[129.02364,35.09663],[129.02449,35.1005],[129.02029,35.10266],[129.01524,35.10095]]]}},{"type":"Feature","properties":{"h3":"8830c168c7fffff","emd_code":"2611058000","emd_name":"남포동","area_km2":0.5483,"edge":false,"slope_mean":4.82,"elev_mean":10.6,"flood_hist_n":1,"flood_depth_max_m":0.748,"flood_risk_100y":null,"semi_basement_r":null,"elderly_alone_r":0.3582,"bldg_age30_r":null,"shelter_min_walk":2,"pop":737,"hh":550,"elderly65_r":0.4925,"single_hh_r":0.7527,"source_level":"emd","flood_years":[2020],"landslide_hist_n":0},"geometry":{"type":"Polygon","coordinates":[[[129.02449,35.1005],[129.02364,35.09663],[129.02784,35.09447],[129.03289,35.09618],[129.03374,35.10005],[129.02954,35.10221],[129.02449,35.1005]]]}},{"type":"Feature","properties":{"h3":"8830c168c9fffff","emd_code":"2611054500","emd_name":"보수동","area_km2":0.548,"edge":true,"slope_mean":9.5,"elev_mean":53.1,"flood_hist_n":0,"flood_depth_max_m":null,"flood_risk_100y":null,"semi_basement_r":null,"elderly_alone_r":0.2275,"bldg_age30_r":null,"shelter_min_walk":2,"pop":9729,"hh":6022,"elderly65_r":0.3398,"single_hh_r":0.6189,"source_level":"emd","flood_years":[],"landslide_hist_n":0},"geometry":{"type":"Polygon","coordinates":[[[129.0178,35.11255],[129.01695,35.10868],[129.02115,35.10652],[129.0262,35.10823],[129.02705,35.11209],[129.02285,35.11425],[129.0178,35.11255]]]}},{"type":"Feature","properties":{"h3":"8830c168cbfffff","emd_code":"2611060000","emd_name":"영주2동","area_km2":0.5481,"edge":false,"slope_mean":15.22,"elev_mean":84.3,"flood_hist_n":0,"flood_depth_max_m":null,"flood_risk_100y":null,"semi_basement_r":null,"elderly_alone_r":0.2714,"bldg_age30_r":null,"shelter_min_walk":2,"pop":5944,"hh":3312,"elderly65_r":0.4063,"single_hh_r":0.5054,"source_level":"emd","flood_years":[],"landslide_hist_n":0},"geometry":{"type":"Polygon","coordinates":[[[129.02705,35.11209],[129.0262,35.10823],[129.0304,35.10607],[129.03545,35.10778],[129.0363,35.11164],[129.0321,35.1138],[129.02705,35.11209]]]}},{"type":"Feature","properties":{"h3":"8830c168d5fffff","emd_code":"2611051000","emd_name":"중앙동","area_km2":0.5482,"edge":true,"slope_mean":1.11,"elev_mean":0.8,"flood_hist_n":0,"flood_depth_max_m":null,"flood_risk_100y":null,"semi_basement_r":null,"elderly_alone_r":0.1104,"bldg_age30_r":null,"shelter_min_walk":9,"pop":3130,"hh":2527,"elderly65_r":0.1716,"single_hh_r":0.831,"source_level":"emd","flood_years":[],"landslide_hist_n":0},"geometry":{"type":"Polygon","coordinates":[[[129.03965,35.10562],[129.03879,35.10175],[129.04299,35.0996],[129.04804,35.1013],[129.0489,35.10517],[129.0447,35.10733],[129.03965,35.10562]]]}},{"type":"Feature","properties":{"h3":"8830c168ddfffff","emd_code":"2611051000","emd_name":"중앙동","area_km2":0.5481,"edge":false,"slope_mean":4.25,"elev_mean":7.2,"flood_hist_n":1,"flood_depth_max_m":0.806,"flood_risk_100y":null,"semi_basement_r":null,"elderly_alone_r":0.1104,"bldg_age30_r":null,"shelter_min_walk":2,"pop":3130,"hh":2527,"elderly65_r":0.1716,"single_hh_r":0.831,"source_level":"emd","flood_years":[2020],"landslide_hist_n":0},"geometry":{"type":"Polygon","coordinates":[[[129.0363,35.11164],[129.03545,35.10778],[129.03965,35.10562],[129.0447,35.10733],[129.04555,35.11119],[129.04135,35.11335],[129.0363,35.11164]]]}},{"type":"Feature","properties":{"h3":"8830c16ab5fffff","emd_code":"2611060000","emd_name":"영주2동","area_km2":0.548,"edge":false,"slope_mean":19.12,"elev_mean":133.6,"flood_hist_n":0,"flood_depth_max_m":null,"flood_risk_100y":null,"semi_basement_r":null,"elderly_alone_r":0.2714,"bldg_age30_r":null,"shelter_min_walk":5,"pop":5944,"hh":3312,"elderly65_r":0.4063,"single_hh_r":0.5054,"source_level":"emd","flood_years":[],"landslide_hist_n":0},"geometry":{"type":"Polygon","coordinates":[[[129.02371,35.11812],[129.02285,35.11425],[129.02705,35.11209],[129.0321,35.1138],[129.03296,35.11767],[129.02876,35.11982],[129.02371,35.11812]]]}},{"type":"Feature","properties":{"h3":"8830c16ab7fffff","emd_code":"2611059000","emd_name":"영주1동","area_km2":0.548,"edge":true,"slope_mean":9.24,"elev_mean":32.0,"flood_hist_n":1,"flood_depth_max_m":0.806,"flood_risk_100y":null,"semi_basement_r":null,"elderly_alone_r":0.2139,"bldg_age30_r":null,"shelter_min_walk":3,"pop":4182,"hh":2856,"elderly65_r":0.3011,"single_hh_r":0.7003,"source_level":"emd","flood_years":[2020],"landslide_hist_n":0},"geometry":{"type":"Polygon","coordinates":[[[129.03296,35.11767],[129.0321,35.1138],[129.0363,35.11164],[129.04135,35.11335],[129.04221,35.11721],[129.03801,35.11937],[129.03296,35.11767]]]}}]}