{"type":"FeatureCollection","name":"grid_26140_h3r8","meta":{"sgg_code":"26140","h3_res":8,"n_cells":47,"dem":"Copernicus GLO-30 (bbox-mean)","crs":"EPSG:4326","jumin_basis":"2026-07","flood_src":"행안부 침수흔적도(전국, 재난안전데이터공유플랫폼)","landslide_src":"행안부 산사태 발생이력"},"features":[{"type":"Feature","properties":{"h3":"8830c16813fffff","emd_code":"2614061500","emd_name":"아미동","area_km2":0.5482,"edge":false,"slope_mean":21.36,"elev_mean":148.8,"flood_hist_n":0,"flood_depth_max_m":null,"flood_risk_100y":null,"semi_basement_r":null,"elderly_alone_r":0.3073,"bldg_age30_r":null,"shelter_min_walk":8,"pop":5984,"hh":3898,"elderly65_r":0.4263,"single_hh_r":0.6698,"source_level":"emd","flood_years":[],"landslide_hist_n":0},"geometry":{"type":"Polygon","coordinates":[[[129.00599,35.1014],[129.00514,35.09753],[129.00934,35.09538],[129.01439,35.09708],[129.01524,35.10095],[129.01104,35.10311],[129.00599,35.1014]]]}},{"type":"Feature","properties":{"h3":"8830c1681bfffff","emd_code":"2614061500","emd_name":"아미동","area_km2":0.548,"edge":true,"slope_mean":17.87,"elev_mean":131.1,"flood_hist_n":0,"flood_depth_max_m":null,"flood_risk_100y":null,"semi_basement_r":null,"elderly_alone_r":0.3073,"bldg_age30_r":null,"shelter_min_walk":5,"pop":5984,"hh":3898,"elderly65_r":0.4263,"single_hh_r":0.6698,"source_level":"emd","flood_years":[],"landslide_hist_n":0},"geometry":{"type":"Polygon","coordinates":[[[129.00265,35.10742],[129.00179,35.10356],[129.00599,35.1014],[129.01104,35.10311],[129.0119,35.10697],[129.0077,35.10913],[129.00265,35.10742]]]}},{"type":"Feature","properties":{"h3":"8830c168a9fffff","emd_code":"2614066000","emd_name":"남부민2동","area_km2":0.5486,"edge":true,"slope_mean":0.81,"elev_mean":0.7,"flood_hist_n":2,"flood_depth_max_m":1.088,"flood_risk_100y":null,"semi_basement_r":null,"elderly_alone_r":0.315,"bldg_age30_r":null,"shelter_min_walk":7,"pop":7168,"hh":4191,"elderly65_r":0.4461,"single_hh_r":0.5407,"source_level":"emd","flood_years":[2016,2020],"landslide_hist_n":0},"geometry":{"type":"Polygon","coordinates":[[[129.02528,35.08287],[129.02442,35.07901],[129.02862,35.07685],[129.03367,35.07855],[129.03453,35.08242],[129.03033,35.08458],[129.02528,35.08287]]]}},{"type":"Feature","properties":{"h3":"8830c168adfffff","emd_code":"2614068000","emd_name":"암남동","area_km2":0.5486,"edge":true,"slope_mean":1.85,"elev_mean":2.4,"flood_hist_n":2,"flood_depth_max_m":1.088,"flood_risk_100y":null,"semi_basement_r":null,"elderly_alone_r":0.1606,"bldg_age30_r":null,"shelter_min_walk":7,"pop":17481,"hh":8516,"elderly65_r":0.2782,"single_hh_r":0.4206,"source_level":"emd","flood_years":[2016,2020],"landslide_hist_n":0},"geometry":{"type":"Polygon","coordinates":[[[129.01937,35.0773],[129.01852,35.07343],[129.02272,35.07127],[129.02777,35.07298],[129.02862,35.07685],[129.02442,35.07901],[129.01937,35.0773]]]}},{"type":"Feature","properties":{"h3":"8830c168c1fffff","emd_code":"2614059000","emd_name":"부민동","area_km2":0.5481,"edge":true,"slope_mean":9.22,"elev_mean":39.0,"flood_hist_n":1,"flood_depth_max_m":0.268,"flood_risk_100y":null,"semi_basement_r":null,"elderly_alone_r":0.1371,"bldg_age30_r":null,"shelter_min_walk":2,"pop":7264,"hh":4222,"elderly65_r":0.2486,"single_hh_r":0.5976,"source_level":"emd","flood_years":[2020],"landslide_hist_n":0},"geometry":{"type":"Polygon","coordinates":[[[129.02115,35.10652],[129.02029,35.10266],[129.02449,35.1005],[129.02954,35.10221],[129.0304,35.10607],[129.0262,35.10823],[129.02115,35.10652]]]}},{"type":"Feature","properties":{"h3":"8830c168c5fffff","emd_code":"2614061500","emd_name":"아미동","area_km2":0.5482,"edge":false,"slope_mean":9.66,"elev_mean":41.8,"flood_hist_n":0,"flood_depth_max_m":null,"flood_risk_100y":null,"semi_basement_r":null,"elderly_alone_r":0.3073,"bldg_age30_r":null,"shelter_min_walk":2,"pop":5984,"hh":3898,"elderly65_r":0.4263,"single_hh_r":0.6698,"source_level":"emd","flood_years":[],"landslide_hist_n":0},"geometry":{"type":"Polygon","coordinates":[[[129.01524,35.10095],[129.01439,35.09708],[129.01859,35.09493],[129.02364,35.09663],[129.02449,35.1005],[129.02029,35.10266],[129.01524,35.10095]]]}},{"type":"Feature","properties":{"h3":"8830c168c7fffff","emd_code":"2614064000","emd_name":"충무동","area_km2":0.5483,"edge":true,"slope_mean":4.86,"elev_mean":10.6,"flood_hist_n":1,"flood_depth_max_m":0.748,"flood_risk_100y":null,"semi_basement_r":null,"elderly_alone_r":0.2286,"bldg_age30_r":null,"shelter_min_walk":2,"pop":9247,"hh":5450,"elderly65_r":0.3279,"single_hh_r":0.5806,"source_level":"emd","flood_years":[2020],"landslide_hist_n":0},"geometry":{"type":"Polygon","coordinates":[[[129.02449,35.1005],[129.02364,35.09663],[129.02784,35.09447],[129.03289,35.09618],[129.03374,35.10005],[129.02954,35.10221],[129.02449,35.1005]]]}},{"type":"Feature","properties":{"h3":"8830c168c9fffff","emd_code":"2614051000","emd_name":"동대신1동","area_km2":0.548,"edge":false,"slope_mean":10.05,"elev_mean":56.4,"flood_hist_n":0,"flood_depth_max_m":null,"flood_risk_100y":null,"semi_basement_r":null,"elderly_alone_r":0.2169,"bldg_age30_r":null,"shelter_min_walk":2,"pop":4986,"hh":2614,"elderly65_r":0.3169,"single_hh_r":0.4694,"source_level":"emd","flood_years":[],"landslide_hist_n":0},"geometry":{"type":"Polygon","coordinates":[[[129.0178,35.11255],[129.01695,35.10868],[129.02115,35.10652],[129.0262,35.10823],[129.02705,35.11209],[129.02285,35.11425],[129.0178,35.11255]]]}},{"type":"Feature","properties":{"h3":"8830c168cbfffff","emd_code":"2614052000","emd_name":"동대신2동","area_km2":0.5481,"edge":true,"slope_mean":15.11,"elev_mean":83.8,"flood_hist_n":0,"flood_depth_max_m":null,"flood_risk_100y":null,"semi_basement_r":null,"elderly_alone_r":0.268,"bldg_age30_r":null,"shelter_min_walk":2,"pop":6121,"hh":3239,"elderly65_r":0.3965,"single_hh_r":0.4822,"source_level":"emd","flood_years":[],"landslide_hist_n":0},"geometry":{"type":"Polygon","coordinates":[[[129.02705,35.11209],[129.0262,35.10823],[129.0304,35.10607],[129.03545,35.10778],[129.0363,35.11164],[129.0321,35.1138],[129.02705,35.11209]]]}},{"type":"Feature","properties":{"h3":"8830c168cdfffff","emd_code":"2614059000","emd_name":"부민동","area_km2":0.5481,"edge":false,"slope_mean":12.43,"elev_mean":65.7,"flood_hist_n":0,"flood_depth_max_m":null,"flood_risk_100y":null,"semi_basement_r":null,"elderly_alone_r":0.1371,"bldg_age30_r":null,"shelter_min_walk":5,"pop":7264,"hh":4222,"elderly65_r":0.2486,"single_hh_r":0.5976,"source_level":"emd","flood_years":[],"landslide_hist_n":0},"geometry":{"type":"Polygon","coordinates":[[[129.0119,35.10697],[129.01104,35.10311],[129.01524,35.10095],[129.02029,35.10266],[129.02115,35.10652],[129.01695,35.10868],[129.0119,35.10697]]]}},{"type":"Feature","properties":{"h3":"8830c168e1fffff","emd_code":"2614066000","emd_name":"남부민2동","area_km2":0.5484,"edge":false,"slope_mean":23.72,"elev_mean":168.2,"flood_hist_n":0,"flood_depth_max_m":null,"flood_risk_100y":null,"semi_basement_r":null,"elderly_alone_r":0.315,"bldg_age30_r":null,"shelter_min_walk":5,"pop":7168,"hh":4191,"elderly65_r":0.4461,"single_hh_r":0.5407,"source_level":"emd","flood_years":[],"landslide_hist_n":0},"geometry":{"type":"Polygon","coordinates":[[[129.01268,35.08935],[129.01183,35.08548],[129.01603,35.08333],[129.02108,35.08503],[129.02193,35.0889],[129.01773,35.09106],[129.01268,35.08935]]]}},{"type":"Feature","properties":{"h3":"8830c168e3fffff","emd_code":"2614066000","emd_name":"남부민2동","area_km2":0.5484,"edge":true,"slope_mean":5.99,"elev_mean":11.8,"flood_hist_n":1,"flood_depth_max_m":0.973,"flood_risk_100y":null,"semi_basement_r":null,"elderly_alone_r":0.315,"bldg_age30_r":null,"shelter_min_walk":2,"pop":7168,"hh":4191,"elderly65_r":0.4461,"single_hh_r":0.5407,"source_level":"emd","flood_years":[2016],"landslide_hist_n":0},"geometry":{"type":"Polygon","coordinates":[[[129.02193,35.0889],[129.02108,35.08503],[129.02528,35.08287],[129.03033,35.08458],[129.03118,35.08845],[129.02698,35.09061],[129.02193,35.0889]]]}},{"type":"Feature","properties":{"h3":"8830c168e5fffff","emd_code":"2614068000","emd_name":"암남동","area_km2":0.5485,"edge":true,"slope_mean":15.53,"elev_mean":64.6,"flood_hist_n":0,"flood_depth_max_m":null,"flood_risk_100y":null,"semi_basement_r":null,"elderly_alone_r":0.1606,"bldg_age30_r":null,"shelter_min_walk":5,"pop":17481,"hh":8516,"elderly65_r":0.2782,"single_hh_r":0.4206,"source_level":"emd","flood_years":[],"landslide_hist_n":0},"geometry":{"type":"Polygon","coordinates":[[[129.00678,35.08378],[129.00592,35.07991],[129.01012,35.07775],[129.01517,35.07946],[129.01603,35.08333],[129.01183,35.08548],[129.00678,35.08378]]]}},{"type":"Feature","properties":{"h3":"8830c168e7fffff","emd_code":"2614068000","emd_name":"암남동","area_km2":0.5485,"edge":false,"slope_mean":13.22,"elev_mean":49.2,"flood_hist_n":1,"flood_depth_max_m":1.088,"flood_risk_100y":null,"semi_basement_r":null,"elderly_alone_r":0.1606,"bldg_age30_r":null,"shelter_min_walk":3,"pop":17481,"hh":8516,"elderly65_r":0.2782,"single_hh_r":0.4206,"source_level":"emd","flood_years":[2016],"landslide_hist_n":0},"geometry":{"type":"Polygon","coordinates":[[[129.01603,35.08333],[129.01517,35.07946],[129.01937,35.0773],[129.02442,35.07901],[129.02528,35.08287],[129.02108,35.08503],[129.01603,35.08333]]]}},{"type":"Feature","properties":{"h3":"8830c168e9fffff","emd_code":"2614063000","emd_name":"초장동","area_km2":0.5483,"edge":true,"slope_mean":23.33,"elev_mean":163.2,"flood_hist_n":0,"flood_depth_max_m":null,"flood_risk_100y":null,"semi_basement_r":null,"elderly_alone_r":0.3611,"bldg_age30_r":null,"shelter_min_walk":5,"pop":3435,"hh":2232,"elderly65_r":0.4667,"single_hh_r":0.6393,"source_level":"emd","flood_years":[],"landslide_hist_n":0},"geometry":{"type":"Polygon","coordinates":[[[129.00934,35.09538],[129.00848,35.09151],[129.01268,35.08935],[129.01773,35.09106],[129.01859,35.09493],[129.01439,35.09708],[129.00934,35.09538]]]}},{"type":"Feature","properties":{"h3":"8830c168ebfffff","emd_code":"2614065000","emd_name":"남부민1동","area_km2":0.5483,"edge":false,"slope_mean":10.12,"elev_mean":35.6,"flood_hist_n":0,"flood_depth_max_m":null,"flood_risk_100y":null,"semi_basement_r":null,"elderly_alone_r":0.3303,"bldg_age30_r":null,"shelter_min_walk":1,"pop":4097,"hh":2434,"elderly65_r":0.4489,"single_hh_r":0.5719,"source_level":"emd","flood_years":[],"landslide_hist_n":0},"geometry":{"type":"Polygon","coordinates":[[[129.01859,35.09493],[129.01773,35.09106],[129.02193,35.0889],[129.02698,35.09061],[129.02784,35.09447],[129.02364,35.09663],[129.01859,35.09493]]]}},{"type":"Feature","properties":{"h3":"8830c16983fffff","emd_code":"2614068000","emd_name":"암남동","area_km2":0.5489,"edge":true,"slope_mean":2.12,"elev_mean":2.9,"flood_hist_n":0,"flood_depth_max_m":null,"flood_risk_100y":null,"semi_basement_r":null,"elderly_alone_r":0.1606,"bldg_age30_r":null,"shelter_min_walk":20,"pop":17481,"hh":8516,"elderly65_r":0.2782,"single_hh_r":0.4206,"source_level":"emd","flood_years":[],"landslide_hist_n":0},"geometry":{"type":"Polygon","coordinates":[[[129.005,35.05454],[129.00415,35.05067],[129.00835,35.04851],[129.0134,35.05022],[129.01425,35.05409],[129.01005,35.05625],[129.005,35.05454]]]}},{"type":"Feature","properties":{"h3":"8830c1698bfffff","emd_code":"2614068000","emd_name":"암남동","area_km2":0.5488,"edge":true,"slope_mean":1.52,"elev_mean":1.4,"flood_hist_n":0,"flood_depth_max_m":null,"flood_risk_100y":null,"semi_basement_r":null,"elderly_alone_r":0.1606,"bldg_age30_r":null,"shelter_min_walk":14,"pop":17481,"hh":8516,"elderly65_r":0.2782,"single_hh_r":0.4206,"source_level":"emd","flood_years":[],"landslide_hist_n":0},"geometry":{"type":"Polygon","coordinates":[[[129.00166,35.06057],[129.00081,35.0567],[129.005,35.05454],[129.01005,35.05625],[129.01091,35.06012],[129.00671,35.06228],[129.00166,35.06057]]]}},{"type":"Feature","properties":{"h3":"8830c16995fffff","emd_code":"2614068000","emd_name":"암남동","area_km2":0.549,"edge":true,"slope_mean":2.76,"elev_mean":3.1,"flood_hist_n":0,"flood_depth_max_m":null,"flood_risk_100y":null,"semi_basement_r":null,"elderly_alone_r":0.1606,"bldg_age30_r":null,"shelter_min_walk":22,"pop":17481,"hh":8516,"elderly65_r":0.2782,"single_hh_r":0.4206,"source_level":"emd","flood_years":[],"landslide_hist_n":0},"geometry":{"type":"Polygon","coordinates":[[[129.01425,35.05409],[129.0134,35.05022],[129.0176,35.04806],[129.02265,35.04977],[129.0235,35.05364],[129.0193,35.0558],[129.01425,35.05409]]]}},{"type":"Feature","properties":{"h3":"8830c16999fffff","emd_code":"2614068000","emd_name":"암남동","area_km2":0.5488,"edge":false,"slope_mean":10.85,"elev_mean":29.7,"flood_hist_n":1,"flood_depth_max_m":0.799,"flood_risk_100y":null,"semi_basement_r":null,"elderly_alone_r":0.1606,"bldg_age30_r":null,"shelter_min_walk":11,"pop":17481,"hh":8516,"elderly65_r":0.2782,"single_hh_r":0.4206,"source_level":"emd","flood_years":[2016],"landslide_hist_n":0},"geometry":{"type":"Polygon","coordinates":[[[129.01681,35.06569],[129.01596,35.06183],[129.02016,35.05967],[129.02521,35.06137],[129.02606,35.06524],[129.02186,35.0674],[129.01681,35.06569]]]}},{"type":"Feature","properties":{"h3":"8830c1699dfffff","emd_code":"2614068000","emd_name":"암남동","area_km2":0.5489,"edge":false,"slope_mean":15.65,"elev_mean":36.4,"flood_hist_n":0,"flood_depth_max_m":null,"flood_risk_100y":null,"semi_basement_r":null,"elderly_alone_r":0.1606,"bldg_age30_r":null,"shelter_min_walk":11,"pop":17481,"hh":8516,"elderly65_r":0.2782,"single_hh_r":0.4206,"source_level":"emd","flood_years":[],"landslide_hist_n":0},"geometry":{"type":"Polygon","coordinates":[[[129.01091,35.06012],[129.01005,35.05625],[129.01425,35.05409],[129.0193,35.0558],[129.02016,35.05967],[129.01596,35.06183],[129.01091,35.06012]]]}},{"type":"Feature","properties":{"h3":"8830c169d1fffff","emd_code":"2614068000","emd_name":"암남동","area_km2":0.5486,"edge":false,"slope_mean":11.35,"elev_mean":35.1,"flood_hist_n":0,"flood_depth_max_m":null,"flood_risk_100y":null,"semi_basement_r":null,"elderly_alone_r":0.1606,"bldg_age30_r":null,"shelter_min_walk":12,"pop":17481,"hh":8516,"elderly65_r":0.2782,"single_hh_r":0.4206,"source_level":"emd","flood_years":[],"landslide_hist_n":0},"geometry":{"type":"Polygon","coordinates":[[[129.00422,35.07217],[129.00337,35.06831],[129.00756,35.06615],[129.01261,35.06785],[129.01347,35.07172],[129.00927,35.07388],[129.00422,35.07217]]]}},{"type":"Feature","properties":{"h3":"8830c169d3fffff","emd_code":"2614068000","emd_name":"암남동","area_km2":0.5487,"edge":false,"slope_mean":14.48,"elev_mean":51.9,"flood_hist_n":2,"flood_depth_max_m":0.456,"flood_risk_100y":null,"semi_basement_r":null,"elderly_alone_r":0.1606,"bldg_age30_r":null,"shelter_min_walk":11,"pop":17481,"hh":8516,"elderly65_r":0.2782,"single_hh_r":0.4206,"source_level":"emd","flood_years":[2016,2020],"landslide_hist_n":0},"geometry":{"type":"Polygon","coordinates":[[[129.01347,35.07172],[129.01261,35.06785],[129.01681,35.06569],[129.02186,35.0674],[129.02272,35.07127],[129.01852,35.07343],[129.01347,35.07172]]]}},{"type":"Feature","properties":{"h3":"8830c169d7fffff","emd_code":"2614068000","emd_name":"암남동","area_km2":0.5488,"edge":false,"slope_mean":11.5,"elev_mean":26.3,"flood_hist_n":0,"flood_depth_max_m":null,"flood_risk_100y":null,"semi_basement_r":null,"elderly_alone_r":0.1606,"bldg_age30_r":null,"shelter_min_walk":2,"pop":17481,"hh":8516,"elderly65_r":0.2782,"single_hh_r":0.4206,"source_level":"emd","flood_years":[],"landslide_hist_n":0},"geometry":{"type":"Polygon","coordinates":[[[129.00756,35.06615],[129.00671,35.06228],[129.01091,35.06012],[129.01596,35.06183],[129.01681,35.06569],[129.01261,35.06785],[129.00756,35.06615]]]}},{"type":"Feature","properties":{"h3":"8830c169d9fffff","emd_code":"2614068000","emd_name":"암남동","area_km2":0.5485,"edge":false,"slope_mean":9.55,"elev_mean":25.9,"flood_hist_n":0,"flood_depth_max_m":null,"flood_risk_100y":null,"semi_basement_r":null,"elderly_alone_r":0.1606,"bldg_age30_r":null,"shelter_min_walk":15,"pop":17481,"hh":8516,"elderly65_r":0.2782,"single_hh_r":0.4206,"source_level":"emd","flood_years":[],"landslide_hist_n":0},"geometry":{"type":"Polygon","coordinates":[[[129.00087,35.0782],[129.00002,35.07433],[129.00422,35.07217],[129.00927,35.07388],[129.01012,35.07775],[129.00592,35.07991],[129.00087,35.0782]]]}},{"type":"Feature","properties":{"h3":"8830c169dbfffff","emd_code":"2614068000","emd_name":"암남동","area_km2":0.5486,"edge":false,"slope_mean":14.09,"elev_mean":51.9,"flood_hist_n":1,"flood_depth_max_m":0.808,"flood_risk_100y":null,"semi_basement_r":null,"elderly_alone_r":0.1606,"bldg_age30_r":null,"shelter_min_walk":3,"pop":17481,"hh":8516,"elderly65_r":0.2782,"single_hh_r":0.4206,"source_level":"emd","flood_years":[2016],"landslide_hist_n":0},"geometry":{"type":"Polygon","coordinates":[[[129.01012,35.07775],[129.00927,35.07388],[129.01347,35.07172],[129.01852,35.07343],[129.01937,35.0773],[129.01517,35.07946],[129.01012,35.07775]]]}},{"type":"Feature","properties":{"h3":"8830c16a81fffff","emd_code":"2614057000","emd_name":"서대신4동","area_km2":0.5476,"edge":false,"slope_mean":22.86,"elev_mean":400.6,"flood_hist_n":0,"flood_depth_max_m":null,"flood_risk_100y":null,"semi_basement_r":null,"elderly_alone_r":0.1568,"bldg_age30_r":null,"shelter_min_walk":22,"pop":6795,"hh":2915,"elderly65_r":0.2668,"single_hh_r":0.317,"source_level":"emd","flood_years":[],"landslide_hist_n":0},"geometry":{"type":"Polygon","coordinates":[[[129.01367,35.13618],[129.01282,35.13232],[129.01702,35.13016],[129.02207,35.13187],[129.02292,35.13573],[129.01872,35.13789],[129.01367,35.13618]]]}},{"type":"Feature","properties":{"h3":"8830c16a83fffff","emd_code":"2614053000","emd_name":"동대신3동","area_km2":0.5477,"edge":true,"slope_mean":21.24,"elev_mean":349.2,"flood_hist_n":0,"flood_depth_max_m":null,"flood_risk_100y":null,"semi_basement_r":null,"elderly_alone_r":0.1939,"bldg_age30_r":null,"shelter_min_walk":17,"pop":6895,"hh":3775,"elderly65_r":0.3102,"single_hh_r":0.5279,"source_level":"emd","flood_years":[],"landslide_hist_n":0},"geometry":{"type":"Polygon","coordinates":[[[129.02292,35.13573],[129.02207,35.13187],[129.02627,35.12971],[129.03132,35.13142],[129.03217,35.13528],[129.02797,35.13744],[129.02292,35.13573]]]}},{"type":"Feature","properties":{"h3":"8830c16a85fffff","emd_code":"2614057000","emd_name":"서대신4동","area_km2":0.5477,"edge":false,"slope_mean":17.75,"elev_mean":274.5,"flood_hist_n":0,"flood_depth_max_m":null,"flood_risk_100y":null,"semi_basement_r":null,"elderly_alone_r":0.1568,"bldg_age30_r":null,"shelter_min_walk":13,"pop":6795,"hh":2915,"elderly65_r":0.2668,"single_hh_r":0.317,"source_level":"emd","flood_years":[],"landslide_hist_n":0},"geometry":{"type":"Polygon","coordinates":[[[129.00777,35.13061],[129.00691,35.12674],[129.01111,35.12459],[129.01616,35.1263],[129.01702,35.13016],[129.01282,35.13232],[129.00777,35.13061]]]}},{"type":"Feature","properties":{"h3":"8830c16a87fffff","emd_code":"2614053000","emd_name":"동대신3동","area_km2":0.5477,"edge":false,"slope_mean":23.84,"elev_mean":272.0,"flood_hist_n":0,"flood_depth_max_m":null,"flood_risk_100y":null,"semi_basement_r":null,"elderly_alone_r":0.1939,"bldg_age30_r":null,"shelter_min_walk":14,"pop":6895,"hh":3775,"elderly65_r":0.3102,"single_hh_r":0.5279,"source_level":"emd","flood_years":[],"landslide_hist_n":0},"geometry":{"type":"Polygon","coordinates":[[[129.01702,35.13016],[129.01616,35.1263],[129.02036,35.12414],[129.02541,35.12585],[129.02627,35.12971],[129.02207,35.13187],[129.01702,35.13016]]]}},{"type":"Feature","properties":{"h3":"8830c16a89fffff","emd_code":"2614057000","emd_name":"서대신4동","area_km2":0.5475,"edge":true,"slope_mean":23.53,"elev_mean":319.3,"flood_hist_n":0,"flood_depth_max_m":null,"flood_risk_100y":null,"semi_basement_r":null,"elderly_alone_r":0.1568,"bldg_age30_r":null,"shelter_min_walk":12,"pop":6795,"hh":2915,"elderly65_r":0.2668,"single_hh_r":0.317,"source_level":"emd","flood_years":[],"landslide_hist_n":0},"geometry":{"type":"Polygon","coordinates":[[[129.01033,35.1422],[129.00947,35.13833],[129.01367,35.13618],[129.01872,35.13789],[129.01958,35.14175],[129.01538,35.1439],[129.01033,35.1422]]]}},{"type":"Feature","properties":{"h3":"8830c16a8bfffff","emd_code":"2614057000","emd_name":"서대신4동","area_km2":0.5475,"edge":true,"slope_mean":21.58,"elev_mean":289.1,"flood_hist_n":0,"flood_depth_max_m":null,"flood_risk_100y":null,"semi_basement_r":null,"elderly_alone_r":0.1568,"bldg_age30_r":null,"shelter_min_walk":13,"pop":6795,"hh":2915,"elderly65_r":0.2668,"single_hh_r":0.317,"source_level":"emd","flood_years":[],"landslide_hist_n":0},"geometry":{"type":"Polygon","coordinates":[[[129.01958,35.14175],[129.01872,35.13789],[129.02292,35.13573],[129.02797,35.13744],[129.02883,35.1413],[129.02463,35.14345],[129.01958,35.14175]]]}},{"type":"Feature","properties":{"h3":"8830c16a8dfffff","emd_code":"2614057000","emd_name":"서대신4동","area_km2":0.5476,"edge":false,"slope_mean":19.55,"elev_mean":297.3,"flood_hist_n":0,"flood_depth_max_m":null,"flood_risk_100y":null,"semi_basement_r":null,"elderly_alone_r":0.1568,"bldg_age30_r":null,"shelter_min_walk":18,"pop":6795,"hh":2915,"elderly65_r":0.2668,"single_hh_r":0.317,"source_level":"emd","flood_years":[],"landslide_hist_n":0},"geometry":{"type":"Polygon","coordinates":[[[129.00442,35.13663],[129.00357,35.13276],[129.00777,35.13061],[129.01282,35.13232],[129.01367,35.13618],[129.00947,35.13833],[129.00442,35.13663]]]}},{"type":"Feature","properties":{"h3":"8830c16aa1fffff","emd_code":"2614056000","emd_name":"서대신3동","area_km2":0.5479,"edge":false,"slope_mean":18.65,"elev_mean":150.6,"flood_hist_n":0,"flood_depth_max_m":null,"flood_risk_100y":null,"semi_basement_r":null,"elderly_alone_r":0.1469,"bldg_age30_r":null,"shelter_min_walk":7,"pop":7131,"hh":3097,"elderly65_r":0.2711,"single_hh_r":0.3242,"source_level":"emd","flood_years":[],"landslide_hist_n":0},"geometry":{"type":"Polygon","coordinates":[[[129.00521,35.11902],[129.00435,35.11515],[129.00855,35.11299],[129.0136,35.1147],[129.01446,35.11857],[129.01026,35.12072],[129.00521,35.11902]]]}},{"type":"Feature","properties":{"h3":"8830c16aa3fffff","emd_code":"2614053000","emd_name":"동대신3동","area_km2":0.5479,"edge":false,"slope_mean":10.39,"elev_mean":77.3,"flood_hist_n":0,"flood_depth_max_m":null,"flood_risk_100y":null,"semi_basement_r":null,"elderly_alone_r":0.1939,"bldg_age30_r":null,"shelter_min_walk":1,"pop":6895,"hh":3775,"elderly65_r":0.3102,"single_hh_r":0.5279,"source_level":"emd","flood_years":[],"landslide_hist_n":0},"geometry":{"type":"Polygon","coordinates":[[[129.01446,35.11857],[129.0136,35.1147],[129.0178,35.11255],[129.02285,35.11425],[129.02371,35.11812],[129.01951,35.12027],[129.01446,35.11857]]]}},{"type":"Feature","properties":{"h3":"8830c16aa5fffff","emd_code":"2614056000","emd_name":"서대신3동","area_km2":0.5479,"edge":true,"slope_mean":25.97,"elev_mean":230.6,"flood_hist_n":0,"flood_depth_max_m":null,"flood_risk_100y":null,"semi_basement_r":null,"elderly_alone_r":0.1469,"bldg_age30_r":null,"shelter_min_walk":12,"pop":7131,"hh":3097,"elderly65_r":0.2711,"single_hh_r":0.3242,"source_level":"emd","flood_years":[],"landslide_hist_n":0},"geometry":{"type":"Polygon","coordinates":[[[128.9993,35.11344],[128.99845,35.10958],[129.00265,35.10742],[129.0077,35.10913],[129.00855,35.11299],[129.00435,35.11515],[128.9993,35.11344]]]}},{"type":"Feature","properties":{"h3":"8830c16aa7fffff","emd_code":"2614054000","emd_name":"서대신1동","area_km2":0.548,"edge":false,"slope_mean":10.73,"elev_mean":70.3,"flood_hist_n":0,"flood_depth_max_m":null,"flood_risk_100y":null,"semi_basement_r":null,"elderly_alone_r":0.1538,"bldg_age30_r":null,"shelter_min_walk":1,"pop":14424,"hh":6750,"elderly65_r":0.2469,"single_hh_r":0.3964,"source_level":"emd","flood_years":[],"landslide_hist_n":0},"geometry":{"type":"Polygon","coordinates":[[[129.00855,35.11299],[129.0077,35.10913],[129.0119,35.10697],[129.01695,35.10868],[129.0178,35.11255],[129.0136,35.1147],[129.00855,35.11299]]]}},{"type":"Feature","properties":{"h3":"8830c16aa9fffff","emd_code":"2614057000","emd_name":"서대신4동","area_km2":0.5477,"edge":false,"slope_mean":24.58,"elev_mean":275.6,"flood_hist_n":0,"flood_depth_max_m":null,"flood_risk_100y":null,"semi_basement_r":null,"elderly_alone_r":0.1568,"bldg_age30_r":null,"shelter_min_walk":9,"pop":6795,"hh":2915,"elderly65_r":0.2668,"single_hh_r":0.317,"source_level":"emd","flood_years":[],"landslide_hist_n":0},"geometry":{"type":"Polygon","coordinates":[[[129.00186,35.12504],[129.00101,35.12117],[129.00521,35.11902],[129.01026,35.12072],[129.01111,35.12459],[129.00691,35.12674],[129.00186,35.12504]]]}},{"type":"Feature","properties":{"h3":"8830c16aabfffff","emd_code":"2614057000","emd_name":"서대신4동","area_km2":0.5478,"edge":false,"slope_mean":15.99,"elev_mean":139.6,"flood_hist_n":0,"flood_depth_max_m":null,"flood_risk_100y":null,"semi_basement_r":null,"elderly_alone_r":0.1568,"bldg_age30_r":null,"shelter_min_walk":4,"pop":6795,"hh":2915,"elderly65_r":0.2668,"single_hh_r":0.317,"source_level":"emd","flood_years":[],"landslide_hist_n":0},"geometry":{"type":"Polygon","coordinates":[[[129.01111,35.12459],[129.01026,35.12072],[129.01446,35.11857],[129.01951,35.12027],[129.02036,35.12414],[129.01616,35.1263],[129.01111,35.12459]]]}},{"type":"Feature","properties":{"h3":"8830c16aadfffff","emd_code":"2614056000","emd_name":"서대신3동","area_km2":0.5478,"edge":true,"slope_mean":25.4,"elev_mean":395.5,"flood_hist_n":0,"flood_depth_max_m":null,"flood_risk_100y":null,"semi_basement_r":null,"elderly_alone_r":0.1469,"bldg_age30_r":null,"shelter_min_walk":17,"pop":7131,"hh":3097,"elderly65_r":0.2711,"single_hh_r":0.3242,"source_level":"emd","flood_years":[],"landslide_hist_n":0},"geometry":{"type":"Polygon","coordinates":[[[128.99596,35.11946],[128.9951,35.1156],[128.9993,35.11344],[129.00435,35.11515],[129.00521,35.11902],[129.00101,35.12117],[128.99596,35.11946]]]}},{"type":"Feature","properties":{"h3":"8830c16ab5fffff","emd_code":"2614052000","emd_name":"동대신2동","area_km2":0.548,"edge":true,"slope_mean":19.28,"elev_mean":134.9,"flood_hist_n":0,"flood_depth_max_m":null,"flood_risk_100y":null,"semi_basement_r":null,"elderly_alone_r":0.268,"bldg_age30_r":null,"shelter_min_walk":5,"pop":6121,"hh":3239,"elderly65_r":0.3965,"single_hh_r":0.4822,"source_level":"emd","flood_years":[],"landslide_hist_n":0},"geometry":{"type":"Polygon","coordinates":[[[129.02371,35.11812],[129.02285,35.11425],[129.02705,35.11209],[129.0321,35.1138],[129.03296,35.11767],[129.02876,35.11982],[129.02371,35.11812]]]}},{"type":"Feature","properties":{"h3":"8830c16ab9fffff","emd_code":"2614053000","emd_name":"동대신3동","area_km2":0.5478,"edge":true,"slope_mean":22.47,"elev_mean":246.5,"flood_hist_n":0,"flood_depth_max_m":null,"flood_risk_100y":null,"semi_basement_r":null,"elderly_alone_r":0.1939,"bldg_age30_r":null,"shelter_min_walk":7,"pop":6895,"hh":3775,"elderly65_r":0.3102,"single_hh_r":0.5279,"source_level":"emd","flood_years":[],"landslide_hist_n":0},"geometry":{"type":"Polygon","coordinates":[[[129.02627,35.12971],[129.02541,35.12585],[129.02961,35.12369],[129.03466,35.12539],[129.03552,35.12926],[129.03132,35.13142],[129.02627,35.12971]]]}},{"type":"Feature","properties":{"h3":"8830c16abdfffff","emd_code":"2614053000","emd_name":"동대신3동","area_km2":0.5478,"edge":false,"slope_mean":23.06,"elev_mean":222.2,"flood_hist_n":0,"flood_depth_max_m":null,"flood_risk_100y":null,"semi_basement_r":null,"elderly_alone_r":0.1939,"bldg_age30_r":null,"shelter_min_walk":11,"pop":6895,"hh":3775,"elderly65_r":0.3102,"single_hh_r":0.5279,"source_level":"emd","flood_years":[],"landslide_hist_n":0},"geometry":{"type":"Polygon","coordinates":[[[129.02036,35.12414],[129.01951,35.12027],[129.02371,35.11812],[129.02876,35.11982],[129.02961,35.12369],[129.02541,35.12585],[129.02036,35.12414]]]}},{"type":"Feature","properties":{"h3":"8830c16ac7fffff","emd_code":"2614057000","emd_name":"서대신4동","area_km2":0.5474,"edge":true,"slope_mean":23.05,"elev_mean":245.8,"flood_hist_n":0,"flood_depth_max_m":null,"flood_risk_100y":null,"semi_basement_r":null,"elderly_alone_r":0.1568,"bldg_age30_r":null,"shelter_min_walk":10,"pop":6795,"hh":2915,"elderly65_r":0.2668,"single_hh_r":0.317,"source_level":"emd","flood_years":[],"landslide_hist_n":0},"geometry":{"type":"Polygon","coordinates":[[[129.00108,35.14264],[129.00022,35.13878],[129.00442,35.13663],[129.00947,35.13833],[129.01033,35.1422],[129.00613,35.14435],[129.00108,35.14264]]]}},{"type":"Feature","properties":{"h3":"8830c16ae3fffff","emd_code":"2614057000","emd_name":"서대신4동","area_km2":0.5476,"edge":false,"slope_mean":20.54,"elev_mean":253.4,"flood_hist_n":0,"flood_depth_max_m":null,"flood_risk_100y":null,"semi_basement_r":null,"elderly_alone_r":0.1568,"bldg_age30_r":null,"shelter_min_walk":11,"pop":6795,"hh":2915,"elderly65_r":0.2668,"single_hh_r":0.317,"source_level":"emd","flood_years":[],"landslide_hist_n":0},"geometry":{"type":"Polygon","coordinates":[[[128.99852,35.13106],[128.99766,35.12719],[129.00186,35.12504],[129.00691,35.12674],[129.00777,35.13061],[129.00357,35.13276],[128.99852,35.13106]]]}},{"type":"Feature","properties":{"h3":"8830c16ae7fffff","emd_code":"2614057000","emd_name":"서대신4동","area_km2":0.5477,"edge":true,"slope_mean":26.34,"elev_mean":409.8,"flood_hist_n":0,"flood_depth_max_m":null,"flood_risk_100y":null,"semi_basement_r":null,"elderly_alone_r":0.1568,"bldg_age30_r":null,"shelter_min_walk":16,"pop":6795,"hh":2915,"elderly65_r":0.2668,"single_hh_r":0.317,"source_level":"emd","flood_years":[],"landslide_hist_n":0},"geometry":{"type":"Polygon","coordinates":[[[128.99261,35.12548],[128.99176,35.12162],[128.99596,35.11946],[129.00101,35.12117],[129.00186,35.12504],[128.99766,35.12719],[128.99261,35.12548]]]}},{"type":"Feature","properties":{"h3":"8830c16aebfffff","emd_code":"2614057000","emd_name":"서대신4동","area_km2":0.5475,"edge":true,"slope_mean":20.94,"elev_mean":151.4,"flood_hist_n":0,"flood_depth_max_m":null,"flood_risk_100y":null,"semi_basement_r":null,"elderly_alone_r":0.1568,"bldg_age30_r":null,"shelter_min_walk":6,"pop":6795,"hh":2915,"elderly65_r":0.2668,"single_hh_r":0.317,"source_level":"emd","flood_years":[],"landslide_hist_n":0},"geometry":{"type":"Polygon","coordinates":[[[128.99517,35.13707],[128.99432,35.13321],[128.99852,35.13106],[129.00357,35.13276],[129.00442,35.13663],[129.00022,35.13878],[128.99517,35.13707]]]}}]}