{"type":"FeatureCollection","name":"grid_26170_h3r8","meta":{"sgg_code":"26170","h3_res":8,"n_cells":30,"dem":"Copernicus GLO-30 (bbox-mean)","crs":"EPSG:4326","jumin_basis":"2026-07","flood_src":"행안부 침수흔적도(전국, 재난안전데이터공유플랫폼)","landslide_src":"행안부 산사태 발생이력"},"features":[{"type":"Feature","properties":{"h3":"8830c168d9fffff","emd_code":"2617053000","emd_name":"초량3동","area_km2":0.5481,"edge":false,"slope_mean":2.73,"elev_mean":3.9,"flood_hist_n":1,"flood_depth_max_m":2.453,"flood_risk_100y":null,"semi_basement_r":null,"elderly_alone_r":0.0975,"bldg_age30_r":null,"shelter_min_walk":8,"pop":12997,"hh":6687,"elderly65_r":0.1647,"single_hh_r":0.493,"source_level":"emd","flood_years":[2020],"landslide_hist_n":0},"geometry":{"type":"Polygon","coordinates":[[[129.04221,35.11721],[129.04135,35.11335],[129.04555,35.11119],[129.0506,35.1129],[129.05146,35.11676],[129.04726,35.11892],[129.04221,35.11721]]]}},{"type":"Feature","properties":{"h3":"8830c168dbfffff","emd_code":"2617053000","emd_name":"초량3동","area_km2":0.5481,"edge":true,"slope_mean":0.64,"elev_mean":0.4,"flood_hist_n":0,"flood_depth_max_m":null,"flood_risk_100y":null,"semi_basement_r":null,"elderly_alone_r":0.0975,"bldg_age30_r":null,"shelter_min_walk":20,"pop":12997,"hh":6687,"elderly65_r":0.1647,"single_hh_r":0.493,"source_level":"emd","flood_years":[],"landslide_hist_n":0},"geometry":{"type":"Polygon","coordinates":[[[129.05146,35.11676],[129.0506,35.1129],[129.0548,35.11074],[129.05986,35.11244],[129.06071,35.11631],[129.05651,35.11847],[129.05146,35.11676]]]}},{"type":"Feature","properties":{"h3":"8830c168ddfffff","emd_code":"2617053000","emd_name":"초량3동","area_km2":0.5481,"edge":true,"slope_mean":4.37,"elev_mean":7.7,"flood_hist_n":1,"flood_depth_max_m":0.806,"flood_risk_100y":null,"semi_basement_r":null,"elderly_alone_r":0.0975,"bldg_age30_r":null,"shelter_min_walk":2,"pop":12997,"hh":6687,"elderly65_r":0.1647,"single_hh_r":0.493,"source_level":"emd","flood_years":[2020],"landslide_hist_n":0},"geometry":{"type":"Polygon","coordinates":[[[129.0363,35.11164],[129.03545,35.10778],[129.03965,35.10562],[129.0447,35.10733],[129.04555,35.11119],[129.04135,35.11335],[129.0363,35.11164]]]}},{"type":"Feature","properties":{"h3":"8830c16a83fffff","emd_code":"2617059000","emd_name":"수정4동","area_km2":0.5477,"edge":false,"slope_mean":21.39,"elev_mean":355.6,"flood_hist_n":0,"flood_depth_max_m":null,"flood_risk_100y":null,"semi_basement_r":null,"elderly_alone_r":0.375,"bldg_age30_r":null,"shelter_min_walk":17,"pop":3174,"hh":1928,"elderly65_r":0.465,"single_hh_r":0.5996,"source_level":"emd","flood_years":[],"landslide_hist_n":0},"geometry":{"type":"Polygon","coordinates":[[[129.02292,35.13573],[129.02207,35.13187],[129.02627,35.12971],[129.03132,35.13142],[129.03217,35.13528],[129.02797,35.13744],[129.02292,35.13573]]]}},{"type":"Feature","properties":{"h3":"8830c16a87fffff","emd_code":"2617055000","emd_name":"초량6동","area_km2":0.5477,"edge":true,"slope_mean":24.02,"elev_mean":267.2,"flood_hist_n":0,"flood_depth_max_m":null,"flood_risk_100y":null,"semi_basement_r":null,"elderly_alone_r":0.297,"bldg_age30_r":null,"shelter_min_walk":14,"pop":4787,"hh":2754,"elderly65_r":0.4282,"single_hh_r":0.5396,"source_level":"emd","flood_years":[],"landslide_hist_n":0},"geometry":{"type":"Polygon","coordinates":[[[129.01702,35.13016],[129.01616,35.1263],[129.02036,35.12414],[129.02541,35.12585],[129.02627,35.12971],[129.02207,35.13187],[129.01702,35.13016]]]}},{"type":"Feature","properties":{"h3":"8830c16a91fffff","emd_code":"2617060000","emd_name":"수정5동","area_km2":0.5476,"edge":false,"slope_mean":19.04,"elev_mean":190.9,"flood_hist_n":0,"flood_depth_max_m":null,"flood_risk_100y":null,"semi_basement_r":null,"elderly_alone_r":0.3191,"bldg_age30_r":null,"shelter_min_walk":11,"pop":4375,"hh":2482,"elderly65_r":0.4443,"single_hh_r":0.527,"source_level":"emd","flood_years":[],"landslide_hist_n":0},"geometry":{"type":"Polygon","coordinates":[[[129.03808,35.14085],[129.03722,35.13698],[129.04142,35.13483],[129.04647,35.13653],[129.04733,35.1404],[129.04313,35.14255],[129.03808,35.14085]]]}},{"type":"Feature","properties":{"h3":"8830c16a93fffff","emd_code":"2617065000","emd_name":"범일1동","area_km2":0.5477,"edge":false,"slope_mean":13.39,"elev_mean":66.3,"flood_hist_n":0,"flood_depth_max_m":null,"flood_risk_100y":null,"semi_basement_r":null,"elderly_alone_r":0.2722,"bldg_age30_r":null,"shelter_min_walk":2,"pop":10100,"hh":5892,"elderly65_r":0.4087,"single_hh_r":0.5487,"source_level":"emd","flood_years":[],"landslide_hist_n":0},"geometry":{"type":"Polygon","coordinates":[[[129.04733,35.1404],[129.04647,35.13653],[129.05067,35.13438],[129.05573,35.13608],[129.05658,35.13994],[129.05238,35.1421],[129.04733,35.1404]]]}},{"type":"Feature","properties":{"h3":"8830c16a95fffff","emd_code":"2617057000","emd_name":"수정2동","area_km2":0.5477,"edge":false,"slope_mean":18.2,"elev_mean":179.6,"flood_hist_n":0,"flood_depth_max_m":null,"flood_risk_100y":null,"semi_basement_r":null,"elderly_alone_r":0.2516,"bldg_age30_r":null,"shelter_min_walk":12,"pop":8519,"hh":4686,"elderly65_r":0.3712,"single_hh_r":0.5006,"source_level":"emd","flood_years":[],"landslide_hist_n":0},"geometry":{"type":"Polygon","coordinates":[[[129.03217,35.13528],[129.03132,35.13142],[129.03552,35.12926],[129.04057,35.13096],[129.04142,35.13483],[129.03722,35.13698],[129.03217,35.13528]]]}},{"type":"Feature","properties":{"h3":"8830c16a97fffff","emd_code":"2617060000","emd_name":"수정5동","area_km2":0.5478,"edge":false,"slope_mean":10.73,"elev_mean":46.4,"flood_hist_n":1,"flood_depth_max_m":0.91,"flood_risk_100y":null,"semi_basement_r":null,"elderly_alone_r":0.3191,"bldg_age30_r":null,"shelter_min_walk":3,"pop":4375,"hh":2482,"elderly65_r":0.4443,"single_hh_r":0.527,"source_level":"emd","flood_years":[2020],"landslide_hist_n":0},"geometry":{"type":"Polygon","coordinates":[[[129.04142,35.13483],[129.04057,35.13096],[129.04477,35.12881],[129.04982,35.13051],[129.05067,35.13438],[129.04647,35.13653],[129.04142,35.13483]]]}},{"type":"Feature","properties":{"h3":"8830c16a99fffff","emd_code":"2617065000","emd_name":"범일1동","area_km2":0.5475,"edge":true,"slope_mean":16.84,"elev_mean":186.9,"flood_hist_n":0,"flood_depth_max_m":null,"flood_risk_100y":null,"semi_basement_r":null,"elderly_alone_r":0.2722,"bldg_age30_r":null,"shelter_min_walk":6,"pop":10100,"hh":5892,"elderly65_r":0.4087,"single_hh_r":0.5487,"source_level":"emd","flood_years":[],"landslide_hist_n":0},"geometry":{"type":"Polygon","coordinates":[[[129.03473,35.14687],[129.03388,35.143],[129.03808,35.14085],[129.04313,35.14255],[129.04398,35.14642],[129.03978,35.14857],[129.03473,35.14687]]]}},{"type":"Feature","properties":{"h3":"8830c16a9bfffff","emd_code":"2617065000","emd_name":"범일1동","area_km2":0.5476,"edge":false,"slope_mean":17.72,"elev_mean":125.9,"flood_hist_n":0,"flood_depth_max_m":null,"flood_risk_100y":null,"semi_basement_r":null,"elderly_alone_r":0.2722,"bldg_age30_r":null,"shelter_min_walk":9,"pop":10100,"hh":5892,"elderly65_r":0.4087,"single_hh_r":0.5487,"source_level":"emd","flood_years":[],"landslide_hist_n":0},"geometry":{"type":"Polygon","coordinates":[[[129.04398,35.14642],[129.04313,35.14255],[129.04733,35.1404],[129.05238,35.1421],[129.05323,35.14596],[129.04904,35.14812],[129.04398,35.14642]]]}},{"type":"Feature","properties":{"h3":"8830c16a9dfffff","emd_code":"2617057000","emd_name":"수정2동","area_km2":0.5476,"edge":true,"slope_mean":17.71,"elev_mean":242.3,"flood_hist_n":0,"flood_depth_max_m":null,"flood_risk_100y":null,"semi_basement_r":null,"elderly_alone_r":0.2516,"bldg_age30_r":null,"shelter_min_walk":11,"pop":8519,"hh":4686,"elderly65_r":0.3712,"single_hh_r":0.5006,"source_level":"emd","flood_years":[],"landslide_hist_n":0},"geometry":{"type":"Polygon","coordinates":[[[129.02883,35.1413],[129.02797,35.13744],[129.03217,35.13528],[129.03722,35.13698],[129.03808,35.14085],[129.03388,35.143],[129.02883,35.1413]]]}},{"type":"Feature","properties":{"h3":"8830c16ab1fffff","emd_code":"2617055000","emd_name":"초량6동","area_km2":0.5479,"edge":false,"slope_mean":15.62,"elev_mean":96.0,"flood_hist_n":0,"flood_depth_max_m":null,"flood_risk_100y":null,"semi_basement_r":null,"elderly_alone_r":0.297,"bldg_age30_r":null,"shelter_min_walk":4,"pop":4787,"hh":2754,"elderly65_r":0.4282,"single_hh_r":0.5396,"source_level":"emd","flood_years":[],"landslide_hist_n":0},"geometry":{"type":"Polygon","coordinates":[[[129.02961,35.12369],[129.02876,35.11982],[129.03296,35.11767],[129.03801,35.11937],[129.03886,35.12324],[129.03466,35.12539],[129.02961,35.12369]]]}},{"type":"Feature","properties":{"h3":"8830c16ab3fffff","emd_code":"2617053000","emd_name":"초량3동","area_km2":0.5479,"edge":false,"slope_mean":4.2,"elev_mean":13.2,"flood_hist_n":1,"flood_depth_max_m":2.453,"flood_risk_100y":null,"semi_basement_r":null,"elderly_alone_r":0.0975,"bldg_age30_r":null,"shelter_min_walk":1,"pop":12997,"hh":6687,"elderly65_r":0.1647,"single_hh_r":0.493,"source_level":"emd","flood_years":[2020],"landslide_hist_n":0},"geometry":{"type":"Polygon","coordinates":[[[129.03886,35.12324],[129.03801,35.11937],[129.04221,35.11721],[129.04726,35.11892],[129.04811,35.12279],[129.04391,35.12494],[129.03886,35.12324]]]}},{"type":"Feature","properties":{"h3":"8830c16ab5fffff","emd_code":"2617055000","emd_name":"초량6동","area_km2":0.548,"edge":true,"slope_mean":19.04,"elev_mean":133.5,"flood_hist_n":0,"flood_depth_max_m":null,"flood_risk_100y":null,"semi_basement_r":null,"elderly_alone_r":0.297,"bldg_age30_r":null,"shelter_min_walk":5,"pop":4787,"hh":2754,"elderly65_r":0.4282,"single_hh_r":0.5396,"source_level":"emd","flood_years":[],"landslide_hist_n":0},"geometry":{"type":"Polygon","coordinates":[[[129.02371,35.11812],[129.02285,35.11425],[129.02705,35.11209],[129.0321,35.1138],[129.03296,35.11767],[129.02876,35.11982],[129.02371,35.11812]]]}},{"type":"Feature","properties":{"h3":"8830c16ab7fffff","emd_code":"2617051000","emd_name":"초량1동","area_km2":0.548,"edge":false,"slope_mean":9.58,"elev_mean":33.6,"flood_hist_n":1,"flood_depth_max_m":0.806,"flood_risk_100y":null,"semi_basement_r":null,"elderly_alone_r":0.1988,"bldg_age30_r":null,"shelter_min_walk":3,"pop":4804,"hh":3204,"elderly65_r":0.307,"single_hh_r":0.6788,"source_level":"emd","flood_years":[2020],"landslide_hist_n":0},"geometry":{"type":"Polygon","coordinates":[[[129.03296,35.11767],[129.0321,35.1138],[129.0363,35.11164],[129.04135,35.11335],[129.04221,35.11721],[129.03801,35.11937],[129.03296,35.11767]]]}},{"type":"Feature","properties":{"h3":"8830c16ab9fffff","emd_code":"2617055000","emd_name":"초량6동","area_km2":0.5478,"edge":false,"slope_mean":22.56,"elev_mean":251.5,"flood_hist_n":0,"flood_depth_max_m":null,"flood_risk_100y":null,"semi_basement_r":null,"elderly_alone_r":0.297,"bldg_age30_r":null,"shelter_min_walk":7,"pop":4787,"hh":2754,"elderly65_r":0.4282,"single_hh_r":0.5396,"source_level":"emd","flood_years":[],"landslide_hist_n":0},"geometry":{"type":"Polygon","coordinates":[[[129.02627,35.12971],[129.02541,35.12585],[129.02961,35.12369],[129.03466,35.12539],[129.03552,35.12926],[129.03132,35.13142],[129.02627,35.12971]]]}},{"type":"Feature","properties":{"h3":"8830c16abbfffff","emd_code":"2617059000","emd_name":"수정4동","area_km2":0.5478,"edge":false,"slope_mean":12.9,"elev_mean":71.4,"flood_hist_n":0,"flood_depth_max_m":null,"flood_risk_100y":null,"semi_basement_r":null,"elderly_alone_r":0.375,"bldg_age30_r":null,"shelter_min_walk":6,"pop":3174,"hh":1928,"elderly65_r":0.465,"single_hh_r":0.5996,"source_level":"emd","flood_years":[],"landslide_hist_n":0},"geometry":{"type":"Polygon","coordinates":[[[129.03552,35.12926],[129.03466,35.12539],[129.03886,35.12324],[129.04391,35.12494],[129.04477,35.12881],[129.04057,35.13096],[129.03552,35.12926]]]}},{"type":"Feature","properties":{"h3":"8830c16abdfffff","emd_code":"2617055000","emd_name":"초량6동","area_km2":0.5478,"edge":true,"slope_mean":22.87,"elev_mean":218.6,"flood_hist_n":0,"flood_depth_max_m":null,"flood_risk_100y":null,"semi_basement_r":null,"elderly_alone_r":0.297,"bldg_age30_r":null,"shelter_min_walk":11,"pop":4787,"hh":2754,"elderly65_r":0.4282,"single_hh_r":0.5396,"source_level":"emd","flood_years":[],"landslide_hist_n":0},"geometry":{"type":"Polygon","coordinates":[[[129.02036,35.12414],[129.01951,35.12027],[129.02371,35.11812],[129.02876,35.11982],[129.02961,35.12369],[129.02541,35.12585],[129.02036,35.12414]]]}},{"type":"Feature","properties":{"h3":"8830c16f41fffff","emd_code":"2617066000","emd_name":"범일2동","area_km2":0.5477,"edge":true,"slope_mean":7.27,"elev_mean":17.7,"flood_hist_n":1,"flood_depth_max_m":0.669,"flood_risk_100y":null,"semi_basement_r":null,"elderly_alone_r":0.165,"bldg_age30_r":null,"shelter_min_walk":1,"pop":6082,"hh":3607,"elderly65_r":0.2641,"single_hh_r":0.5864,"source_level":"emd","flood_years":[2020],"landslide_hist_n":0},"geometry":{"type":"Polygon","coordinates":[[[129.06249,35.14551],[129.06163,35.14165],[129.06583,35.13949],[129.07088,35.1412],[129.07174,35.14506],[129.06754,35.14722],[129.06249,35.14551]]]}},{"type":"Feature","properties":{"h3":"8830c16f45fffff","emd_code":"2617066000","emd_name":"범일2동","area_km2":0.5477,"edge":false,"slope_mean":5.51,"elev_mean":8.0,"flood_hist_n":1,"flood_depth_max_m":1.121,"flood_risk_100y":null,"semi_basement_r":null,"elderly_alone_r":0.165,"bldg_age30_r":null,"shelter_min_walk":2,"pop":6082,"hh":3607,"elderly65_r":0.2641,"single_hh_r":0.5864,"source_level":"emd","flood_years":[2020],"landslide_hist_n":0},"geometry":{"type":"Polygon","coordinates":[[[129.05658,35.13994],[129.05573,35.13608],[129.05992,35.13392],[129.06498,35.13563],[129.06583,35.13949],[129.06163,35.14165],[129.05658,35.13994]]]}},{"type":"Feature","properties":{"h3":"8830c16f47fffff","emd_code":"2617066000","emd_name":"범일2동","area_km2":0.5478,"edge":true,"slope_mean":9.11,"elev_mean":20.7,"flood_hist_n":1,"flood_depth_max_m":0.988,"flood_risk_100y":null,"semi_basement_r":null,"elderly_alone_r":0.165,"bldg_age30_r":null,"shelter_min_walk":1,"pop":6082,"hh":3607,"elderly65_r":0.2641,"single_hh_r":0.5864,"source_level":"emd","flood_years":[2020],"landslide_hist_n":0},"geometry":{"type":"Polygon","coordinates":[[[129.06583,35.13949],[129.06498,35.13563],[129.06918,35.13347],[129.07423,35.13518],[129.07508,35.13904],[129.07088,35.1412],[129.06583,35.13949]]]}},{"type":"Feature","properties":{"h3":"8830c16f4dfffff","emd_code":"2617066000","emd_name":"범일2동","area_km2":0.5476,"edge":true,"slope_mean":8.42,"elev_mean":21.2,"flood_hist_n":1,"flood_depth_max_m":0.449,"flood_risk_100y":null,"semi_basement_r":null,"elderly_alone_r":0.165,"bldg_age30_r":null,"shelter_min_walk":2,"pop":6082,"hh":3607,"elderly65_r":0.2641,"single_hh_r":0.5864,"source_level":"emd","flood_years":[2020],"landslide_hist_n":0},"geometry":{"type":"Polygon","coordinates":[[[129.05323,35.14596],[129.05238,35.1421],[129.05658,35.13994],[129.06163,35.14165],[129.06249,35.14551],[129.05829,35.14767],[129.05323,35.14596]]]}},{"type":"Feature","properties":{"h3":"8830c16f61fffff","emd_code":"2617068000","emd_name":"범일5동","area_km2":0.5479,"edge":false,"slope_mean":2.62,"elev_mean":3.3,"flood_hist_n":0,"flood_depth_max_m":null,"flood_risk_100y":null,"semi_basement_r":null,"elderly_alone_r":0.1308,"bldg_age30_r":null,"shelter_min_walk":4,"pop":8963,"hh":4151,"elderly65_r":0.1799,"single_hh_r":0.3652,"source_level":"emd","flood_years":[],"landslide_hist_n":0},"geometry":{"type":"Polygon","coordinates":[[[129.05402,35.12836],[129.05316,35.12449],[129.05736,35.12233],[129.06242,35.12404],[129.06327,35.1279],[129.05907,35.13006],[129.05402,35.12836]]]}},{"type":"Feature","properties":{"h3":"8830c16f63fffff","emd_code":"2617068000","emd_name":"범일5동","area_km2":0.548,"edge":true,"slope_mean":4.36,"elev_mean":7.5,"flood_hist_n":0,"flood_depth_max_m":null,"flood_risk_100y":null,"semi_basement_r":null,"elderly_alone_r":0.1308,"bldg_age30_r":null,"shelter_min_walk":10,"pop":8963,"hh":4151,"elderly65_r":0.1799,"single_hh_r":0.3652,"source_level":"emd","flood_years":[],"landslide_hist_n":0},"geometry":{"type":"Polygon","coordinates":[[[129.06327,35.1279],[129.06242,35.12404],[129.06662,35.12188],[129.07167,35.12358],[129.07252,35.12745],[129.06832,35.12961],[129.06327,35.1279]]]}},{"type":"Feature","properties":{"h3":"8830c16f65fffff","emd_code":"2617068000","emd_name":"범일5동","area_km2":0.548,"edge":true,"slope_mean":2.01,"elev_mean":2.0,"flood_hist_n":0,"flood_depth_max_m":null,"flood_risk_100y":null,"semi_basement_r":null,"elderly_alone_r":0.1308,"bldg_age30_r":null,"shelter_min_walk":12,"pop":8963,"hh":4151,"elderly65_r":0.1799,"single_hh_r":0.3652,"source_level":"emd","flood_years":[],"landslide_hist_n":0},"geometry":{"type":"Polygon","coordinates":[[[129.04811,35.12279],[129.04726,35.11892],[129.05146,35.11676],[129.05651,35.11847],[129.05736,35.12233],[129.05316,35.12449],[129.04811,35.12279]]]}},{"type":"Feature","properties":{"h3":"8830c16f67fffff","emd_code":"2617068000","emd_name":"범일5동","area_km2":0.548,"edge":true,"slope_mean":0.85,"elev_mean":0.9,"flood_hist_n":0,"flood_depth_max_m":null,"flood_risk_100y":null,"semi_basement_r":null,"elderly_alone_r":0.1308,"bldg_age30_r":null,"shelter_min_walk":15,"pop":8963,"hh":4151,"elderly65_r":0.1799,"single_hh_r":0.3652,"source_level":"emd","flood_years":[],"landslide_hist_n":0},"geometry":{"type":"Polygon","coordinates":[[[129.05736,35.12233],[129.05651,35.11847],[129.06071,35.11631],[129.06576,35.11802],[129.06662,35.12188],[129.06242,35.12404],[129.05736,35.12233]]]}},{"type":"Feature","properties":{"h3":"8830c16f69fffff","emd_code":"2617068000","emd_name":"범일5동","area_km2":0.5478,"edge":false,"slope_mean":5.78,"elev_mean":13.6,"flood_hist_n":1,"flood_depth_max_m":0.857,"flood_risk_100y":null,"semi_basement_r":null,"elderly_alone_r":0.1308,"bldg_age30_r":null,"shelter_min_walk":1,"pop":8963,"hh":4151,"elderly65_r":0.1799,"single_hh_r":0.3652,"source_level":"emd","flood_years":[2020],"landslide_hist_n":0},"geometry":{"type":"Polygon","coordinates":[[[129.05067,35.13438],[129.04982,35.13051],[129.05402,35.12836],[129.05907,35.13006],[129.05992,35.13392],[129.05573,35.13608],[129.05067,35.13438]]]}},{"type":"Feature","properties":{"h3":"8830c16f6bfffff","emd_code":"2617066000","emd_name":"범일2동","area_km2":0.5479,"edge":false,"slope_mean":6.05,"elev_mean":9.4,"flood_hist_n":1,"flood_depth_max_m":1.121,"flood_risk_100y":null,"semi_basement_r":null,"elderly_alone_r":0.165,"bldg_age30_r":null,"shelter_min_walk":8,"pop":6082,"hh":3607,"elderly65_r":0.2641,"single_hh_r":0.5864,"source_level":"emd","flood_years":[2020],"landslide_hist_n":0},"geometry":{"type":"Polygon","coordinates":[[[129.05992,35.13392],[129.05907,35.13006],[129.06327,35.1279],[129.06832,35.12961],[129.06918,35.13347],[129.06498,35.13563],[129.05992,35.13392]]]}},{"type":"Feature","properties":{"h3":"8830c16f6dfffff","emd_code":"2617053000","emd_name":"초량3동","area_km2":0.5479,"edge":false,"slope_mean":3.68,"elev_mean":6.7,"flood_hist_n":1,"flood_depth_max_m":0.91,"flood_risk_100y":null,"semi_basement_r":null,"elderly_alone_r":0.0975,"bldg_age30_r":null,"shelter_min_walk":2,"pop":12997,"hh":6687,"elderly65_r":0.1647,"single_hh_r":0.493,"source_level":"emd","flood_years":[2020],"landslide_hist_n":0},"geometry":{"type":"Polygon","coordinates":[[[129.04477,35.12881],[129.04391,35.12494],[129.04811,35.12279],[129.05316,35.12449],[129.05402,35.12836],[129.04982,35.13051],[129.04477,35.12881]]]}}]}