{"type":"FeatureCollection","name":"grid_26200_h3r8","meta":{"sgg_code":"26200","h3_res":8,"n_cells":46,"dem":"Copernicus GLO-30 (bbox-mean)","crs":"EPSG:4326","jumin_basis":"2026-07","flood_src":"행안부 침수흔적도(전국, 재난안전데이터공유플랫폼)","landslide_src":"행안부 산사태 발생이력"},"features":[{"type":"Feature","properties":{"h3":"8830c16881fffff","emd_code":"2620053000","emd_name":"남항동","area_km2":0.5484,"edge":false,"slope_mean":3.97,"elev_mean":11.3,"flood_hist_n":0,"flood_depth_max_m":null,"flood_risk_100y":null,"semi_basement_r":null,"elderly_alone_r":0.2575,"bldg_age30_r":null,"shelter_min_walk":1,"pop":9748,"hh":5514,"elderly65_r":0.3975,"single_hh_r":0.5328,"source_level":"emd","flood_years":[],"landslide_hist_n":0},"geometry":{"type":"Polygon","coordinates":[[[129.03709,35.09402],[129.03623,35.09016],[129.04043,35.088],[129.04548,35.0897],[129.04634,35.09357],[129.04214,35.09573],[129.03709,35.09402]]]}},{"type":"Feature","properties":{"h3":"8830c16883fffff","emd_code":"2620060500","emd_name":"봉래2동","area_km2":0.5485,"edge":false,"slope_mean":14.54,"elev_mean":85.0,"flood_hist_n":0,"flood_depth_max_m":null,"flood_risk_100y":null,"semi_basement_r":null,"elderly_alone_r":0.211,"bldg_age30_r":null,"shelter_min_walk":1,"pop":6886,"hh":3370,"elderly65_r":0.3253,"single_hh_r":0.411,"source_level":"emd","flood_years":[],"landslide_hist_n":0},"geometry":{"type":"Polygon","coordinates":[[[129.04634,35.09357],[129.04548,35.0897],[129.04968,35.08754],[129.05473,35.08925],[129.05559,35.09312],[129.05139,35.09528],[129.04634,35.09357]]]}},{"type":"Feature","properties":{"h3":"8830c16885fffff","emd_code":"2620053000","emd_name":"남항동","area_km2":0.5485,"edge":false,"slope_mean":2.48,"elev_mean":4.2,"flood_hist_n":0,"flood_depth_max_m":null,"flood_risk_100y":null,"semi_basement_r":null,"elderly_alone_r":0.2575,"bldg_age30_r":null,"shelter_min_walk":4,"pop":9748,"hh":5514,"elderly65_r":0.3975,"single_hh_r":0.5328,"source_level":"emd","flood_years":[],"landslide_hist_n":0},"geometry":{"type":"Polygon","coordinates":[[[129.03118,35.08845],[129.03033,35.08458],[129.03453,35.08242],[129.03958,35.08413],[129.04043,35.088],[129.03623,35.09016],[129.03118,35.08845]]]}},{"type":"Feature","properties":{"h3":"8830c16887fffff","emd_code":"2620058500","emd_name":"신선동","area_km2":0.5485,"edge":false,"slope_mean":9.59,"elev_mean":54.1,"flood_hist_n":0,"flood_depth_max_m":null,"flood_risk_100y":null,"semi_basement_r":null,"elderly_alone_r":0.321,"bldg_age30_r":null,"shelter_min_walk":4,"pop":6361,"hh":3825,"elderly65_r":0.4727,"single_hh_r":0.5705,"source_level":"emd","flood_years":[],"landslide_hist_n":0},"geometry":{"type":"Polygon","coordinates":[[[129.04043,35.088],[129.03958,35.08413],[129.04378,35.08197],[129.04883,35.08368],[129.04968,35.08754],[129.04548,35.0897],[129.04043,35.088]]]}},{"type":"Feature","properties":{"h3":"8830c16889fffff","emd_code":"2620059000","emd_name":"봉래1동","area_km2":0.5483,"edge":true,"slope_mean":3.09,"elev_mean":4.8,"flood_hist_n":0,"flood_depth_max_m":null,"flood_risk_100y":null,"semi_basement_r":null,"elderly_alone_r":0.2281,"bldg_age30_r":null,"shelter_min_walk":3,"pop":6330,"hh":3420,"elderly65_r":0.373,"single_hh_r":0.5018,"source_level":"emd","flood_years":[],"landslide_hist_n":0},"geometry":{"type":"Polygon","coordinates":[[[129.03374,35.10005],[129.03289,35.09618],[129.03709,35.09402],[129.04214,35.09573],[129.04299,35.0996],[129.03879,35.10175],[129.03374,35.10005]]]}},{"type":"Feature","properties":{"h3":"8830c1688bfffff","emd_code":"2620060500","emd_name":"봉래2동","area_km2":0.5484,"edge":true,"slope_mean":2.96,"elev_mean":4.1,"flood_hist_n":0,"flood_depth_max_m":null,"flood_risk_100y":null,"semi_basement_r":null,"elderly_alone_r":0.211,"bldg_age30_r":null,"shelter_min_walk":6,"pop":6886,"hh":3370,"elderly65_r":0.3253,"single_hh_r":0.411,"source_level":"emd","flood_years":[],"landslide_hist_n":0},"geometry":{"type":"Polygon","coordinates":[[[129.04299,35.0996],[129.04214,35.09573],[129.04634,35.09357],[129.05139,35.09528],[129.05224,35.09914],[129.04804,35.1013],[129.04299,35.0996]]]}},{"type":"Feature","properties":{"h3":"8830c1688dfffff","emd_code":"2620053000","emd_name":"남항동","area_km2":0.5484,"edge":false,"slope_mean":1.54,"elev_mean":1.5,"flood_hist_n":0,"flood_depth_max_m":null,"flood_risk_100y":null,"semi_basement_r":null,"elderly_alone_r":0.2575,"bldg_age30_r":null,"shelter_min_walk":8,"pop":9748,"hh":5514,"elderly65_r":0.3975,"single_hh_r":0.5328,"source_level":"emd","flood_years":[],"landslide_hist_n":0},"geometry":{"type":"Polygon","coordinates":[[[129.02784,35.09447],[129.02698,35.09061],[129.03118,35.08845],[129.03623,35.09016],[129.03709,35.09402],[129.03289,35.09618],[129.02784,35.09447]]]}},{"type":"Feature","properties":{"h3":"8830c16891fffff","emd_code":"2620064000","emd_name":"청학2동","area_km2":0.5485,"edge":false,"slope_mean":3.85,"elev_mean":8.6,"flood_hist_n":0,"flood_depth_max_m":null,"flood_risk_100y":null,"semi_basement_r":null,"elderly_alone_r":0.2027,"bldg_age30_r":null,"shelter_min_walk":3,"pop":15421,"hh":7485,"elderly65_r":0.3399,"single_hh_r":0.3993,"source_level":"emd","flood_years":[],"landslide_hist_n":0},"geometry":{"type":"Polygon","coordinates":[[[129.06149,35.09869],[129.06064,35.09482],[129.06484,35.09266],[129.06989,35.09437],[129.07074,35.09823],[129.06655,35.10039],[129.06149,35.09869]]]}},{"type":"Feature","properties":{"h3":"8830c16893fffff","emd_code":"2620064000","emd_name":"청학2동","area_km2":0.5485,"edge":true,"slope_mean":0.39,"elev_mean":0.4,"flood_hist_n":0,"flood_depth_max_m":null,"flood_risk_100y":null,"semi_basement_r":null,"elderly_alone_r":0.2027,"bldg_age30_r":null,"shelter_min_walk":14,"pop":15421,"hh":7485,"elderly65_r":0.3399,"single_hh_r":0.3993,"source_level":"emd","flood_years":[],"landslide_hist_n":0},"geometry":{"type":"Polygon","coordinates":[[[129.07074,35.09823],[129.06989,35.09437],[129.07409,35.09221],[129.07914,35.09391],[129.08,35.09778],[129.0758,35.09994],[129.07074,35.09823]]]}},{"type":"Feature","properties":{"h3":"8830c16895fffff","emd_code":"2620064000","emd_name":"청학2동","area_km2":0.5485,"edge":false,"slope_mean":12.53,"elev_mean":95.6,"flood_hist_n":0,"flood_depth_max_m":null,"flood_risk_100y":null,"semi_basement_r":null,"elderly_alone_r":0.2027,"bldg_age30_r":null,"shelter_min_walk":4,"pop":15421,"hh":7485,"elderly65_r":0.3399,"single_hh_r":0.3993,"source_level":"emd","flood_years":[],"landslide_hist_n":0},"geometry":{"type":"Polygon","coordinates":[[[129.05559,35.09312],[129.05473,35.08925],[129.05893,35.08709],[129.06398,35.0888],[129.06484,35.09266],[129.06064,35.09482],[129.05559,35.09312]]]}},{"type":"Feature","properties":{"h3":"8830c16897fffff","emd_code":"2620064000","emd_name":"청학2동","area_km2":0.5486,"edge":false,"slope_mean":10.2,"elev_mean":39.5,"flood_hist_n":0,"flood_depth_max_m":null,"flood_risk_100y":null,"semi_basement_r":null,"elderly_alone_r":0.2027,"bldg_age30_r":null,"shelter_min_walk":2,"pop":15421,"hh":7485,"elderly65_r":0.3399,"single_hh_r":0.3993,"source_level":"emd","flood_years":[],"landslide_hist_n":0},"geometry":{"type":"Polygon","coordinates":[[[129.06484,35.09266],[129.06398,35.0888],[129.06818,35.08663],[129.07324,35.08834],[129.07409,35.09221],[129.06989,35.09437],[129.06484,35.09266]]]}},{"type":"Feature","properties":{"h3":"8830c16899fffff","emd_code":"2620063000","emd_name":"청학1동","area_km2":0.5483,"edge":true,"slope_mean":0.49,"elev_mean":0.5,"flood_hist_n":0,"flood_depth_max_m":null,"flood_risk_100y":null,"semi_basement_r":null,"elderly_alone_r":0.257,"bldg_age30_r":null,"shelter_min_walk":10,"pop":5012,"hh":2619,"elderly65_r":0.3753,"single_hh_r":0.4712,"source_level":"emd","flood_years":[],"landslide_hist_n":0},"geometry":{"type":"Polygon","coordinates":[[[129.05815,35.10471],[129.05729,35.10085],[129.06149,35.09869],[129.06655,35.10039],[129.0674,35.10426],[129.0632,35.10642],[129.05815,35.10471]]]}},{"type":"Feature","properties":{"h3":"8830c1689dfffff","emd_code":"2620063000","emd_name":"청학1동","area_km2":0.5484,"edge":false,"slope_mean":8.44,"elev_mean":22.0,"flood_hist_n":1,"flood_depth_max_m":0.275,"flood_risk_100y":null,"semi_basement_r":null,"elderly_alone_r":0.257,"bldg_age30_r":null,"shelter_min_walk":1,"pop":5012,"hh":2619,"elderly65_r":0.3753,"single_hh_r":0.4712,"source_level":"emd","flood_years":[2020],"landslide_hist_n":0},"geometry":{"type":"Polygon","coordinates":[[[129.05224,35.09914],[129.05139,35.09528],[129.05559,35.09312],[129.06064,35.09482],[129.06149,35.09869],[129.05729,35.10085],[129.05224,35.09914]]]}},{"type":"Feature","properties":{"h3":"8830c168abfffff","emd_code":"2620055000","emd_name":"영선2동","area_km2":0.5486,"edge":true,"slope_mean":2.7,"elev_mean":5.5,"flood_hist_n":0,"flood_depth_max_m":null,"flood_risk_100y":null,"semi_basement_r":null,"elderly_alone_r":0.2319,"bldg_age30_r":null,"shelter_min_walk":5,"pop":6903,"hh":3398,"elderly65_r":0.392,"single_hh_r":0.4038,"source_level":"emd","flood_years":[],"landslide_hist_n":0},"geometry":{"type":"Polygon","coordinates":[[[129.03453,35.08242],[129.03367,35.07855],[129.03787,35.07639],[129.04292,35.0781],[129.04378,35.08197],[129.03958,35.08413],[129.03453,35.08242]]]}},{"type":"Feature","properties":{"h3":"8830c168b1fffff","emd_code":"2620065000","emd_name":"동삼1동","area_km2":0.5487,"edge":false,"slope_mean":26.15,"elev_mean":274.9,"flood_hist_n":0,"flood_depth_max_m":null,"flood_risk_100y":null,"semi_basement_r":null,"elderly_alone_r":0.2051,"bldg_age30_r":null,"shelter_min_walk":14,"pop":26923,"hh":13693,"elderly65_r":0.3207,"single_hh_r":0.4433,"source_level":"emd","flood_years":[],"landslide_hist_n":0},"geometry":{"type":"Polygon","coordinates":[[[129.05303,35.08152],[129.05217,35.07765],[129.05637,35.07549],[129.06142,35.07719],[129.06228,35.08106],[129.05808,35.08322],[129.05303,35.08152]]]}},{"type":"Feature","properties":{"h3":"8830c168b3fffff","emd_code":"2620065000","emd_name":"동삼1동","area_km2":0.5488,"edge":false,"slope_mean":13.5,"elev_mean":118.3,"flood_hist_n":0,"flood_depth_max_m":null,"flood_risk_100y":null,"semi_basement_r":null,"elderly_alone_r":0.2051,"bldg_age30_r":null,"shelter_min_walk":5,"pop":26923,"hh":13693,"elderly65_r":0.3207,"single_hh_r":0.4433,"source_level":"emd","flood_years":[],"landslide_hist_n":0},"geometry":{"type":"Polygon","coordinates":[[[129.06228,35.08106],[129.06142,35.07719],[129.06562,35.07503],[129.07067,35.07674],[129.07153,35.08061],[129.06733,35.08277],[129.06228,35.08106]]]}},{"type":"Feature","properties":{"h3":"8830c168b5fffff","emd_code":"2620055000","emd_name":"영선2동","area_km2":0.5488,"edge":false,"slope_mean":15.79,"elev_mean":66.4,"flood_hist_n":0,"flood_depth_max_m":null,"flood_risk_100y":null,"semi_basement_r":null,"elderly_alone_r":0.2319,"bldg_age30_r":null,"shelter_min_walk":8,"pop":6903,"hh":3398,"elderly65_r":0.392,"single_hh_r":0.4038,"source_level":"emd","flood_years":[],"landslide_hist_n":0},"geometry":{"type":"Polygon","coordinates":[[[129.04712,35.07594],[129.04627,35.07207],[129.05047,35.06991],[129.05552,35.07162],[129.05637,35.07549],[129.05217,35.07765],[129.04712,35.07594]]]}},{"type":"Feature","properties":{"h3":"8830c168b7fffff","emd_code":"2620065000","emd_name":"동삼1동","area_km2":0.5488,"edge":false,"slope_mean":20.83,"elev_mean":123.9,"flood_hist_n":0,"flood_depth_max_m":null,"flood_risk_100y":null,"semi_basement_r":null,"elderly_alone_r":0.2051,"bldg_age30_r":null,"shelter_min_walk":4,"pop":26923,"hh":13693,"elderly65_r":0.3207,"single_hh_r":0.4433,"source_level":"emd","flood_years":[],"landslide_hist_n":0},"geometry":{"type":"Polygon","coordinates":[[[129.05637,35.07549],[129.05552,35.07162],[129.05972,35.06946],[129.06477,35.07116],[129.06562,35.07503],[129.06142,35.07719],[129.05637,35.07549]]]}},{"type":"Feature","properties":{"h3":"8830c168b9fffff","emd_code":"2620058500","emd_name":"신선동","area_km2":0.5486,"edge":false,"slope_mean":21.83,"elev_mean":231.6,"flood_hist_n":0,"flood_depth_max_m":null,"flood_risk_100y":null,"semi_basement_r":null,"elderly_alone_r":0.321,"bldg_age30_r":null,"shelter_min_walk":10,"pop":6361,"hh":3825,"elderly65_r":0.4727,"single_hh_r":0.5705,"source_level":"emd","flood_years":[],"landslide_hist_n":0},"geometry":{"type":"Polygon","coordinates":[[[129.04968,35.08754],[129.04883,35.08368],[129.05303,35.08152],[129.05808,35.08322],[129.05893,35.08709],[129.05473,35.08925],[129.04968,35.08754]]]}},{"type":"Feature","properties":{"h3":"8830c168bbfffff","emd_code":"2620064000","emd_name":"청학2동","area_km2":0.5486,"edge":false,"slope_mean":13.78,"elev_mean":154.0,"flood_hist_n":0,"flood_depth_max_m":null,"flood_risk_100y":null,"semi_basement_r":null,"elderly_alone_r":0.2027,"bldg_age30_r":null,"shelter_min_walk":2,"pop":15421,"hh":7485,"elderly65_r":0.3399,"single_hh_r":0.3993,"source_level":"emd","flood_years":[],"landslide_hist_n":0},"geometry":{"type":"Polygon","coordinates":[[[129.05893,35.08709],[129.05808,35.08322],[129.06228,35.08106],[129.06733,35.08277],[129.06818,35.08663],[129.06398,35.0888],[129.05893,35.08709]]]}},{"type":"Feature","properties":{"h3":"8830c168bdfffff","emd_code":"2620055000","emd_name":"영선2동","area_km2":0.5487,"edge":false,"slope_mean":19.6,"elev_mean":125.0,"flood_hist_n":0,"flood_depth_max_m":null,"flood_risk_100y":null,"semi_basement_r":null,"elderly_alone_r":0.2319,"bldg_age30_r":null,"shelter_min_walk":5,"pop":6903,"hh":3398,"elderly65_r":0.392,"single_hh_r":0.4038,"source_level":"emd","flood_years":[],"landslide_hist_n":0},"geometry":{"type":"Polygon","coordinates":[[[129.04378,35.08197],[129.04292,35.0781],[129.04712,35.07594],[129.05217,35.07765],[129.05303,35.08152],[129.04883,35.08368],[129.04378,35.08197]]]}},{"type":"Feature","properties":{"h3":"8830c168d7fffff","emd_code":"2620063000","emd_name":"청학1동","area_km2":0.5483,"edge":true,"slope_mean":0.62,"elev_mean":0.4,"flood_hist_n":0,"flood_depth_max_m":null,"flood_risk_100y":null,"semi_basement_r":null,"elderly_alone_r":0.257,"bldg_age30_r":null,"shelter_min_walk":10,"pop":5012,"hh":2619,"elderly65_r":0.3753,"single_hh_r":0.4712,"source_level":"emd","flood_years":[],"landslide_hist_n":0},"geometry":{"type":"Polygon","coordinates":[[[129.0489,35.10517],[129.04804,35.1013],[129.05224,35.09914],[129.05729,35.10085],[129.05815,35.10471],[129.05395,35.10687],[129.0489,35.10517]]]}},{"type":"Feature","properties":{"h3":"8830c16d29fffff","emd_code":"2620066000","emd_name":"동삼2동","area_km2":0.5489,"edge":false,"slope_mean":8.14,"elev_mean":13.5,"flood_hist_n":0,"flood_depth_max_m":null,"flood_risk_100y":null,"semi_basement_r":null,"elderly_alone_r":0.121,"bldg_age30_r":null,"shelter_min_walk":21,"pop":5251,"hh":2877,"elderly65_r":0.2365,"single_hh_r":0.5391,"source_level":"emd","flood_years":[],"landslide_hist_n":0},"geometry":{"type":"Polygon","coordinates":[[[129.09003,35.07969],[129.08918,35.07583],[129.09338,35.07366],[129.09843,35.07537],[129.09928,35.07924],[129.09509,35.0814],[129.09003,35.07969]]]}},{"type":"Feature","properties":{"h3":"8830c16d2dfffff","emd_code":"2620066000","emd_name":"동삼2동","area_km2":0.549,"edge":true,"slope_mean":1.53,"elev_mean":1.3,"flood_hist_n":0,"flood_depth_max_m":null,"flood_risk_100y":null,"semi_basement_r":null,"elderly_alone_r":0.121,"bldg_age30_r":null,"shelter_min_walk":9,"pop":5251,"hh":2877,"elderly65_r":0.2365,"single_hh_r":0.5391,"source_level":"emd","flood_years":[],"landslide_hist_n":0},"geometry":{"type":"Polygon","coordinates":[[[129.08412,35.07412],[129.08327,35.07025],[129.08747,35.06809],[129.09252,35.0698],[129.09338,35.07366],[129.08918,35.07583],[129.08412,35.07412]]]}},{"type":"Feature","properties":{"h3":"8830c16d61fffff","emd_code":"2620067000","emd_name":"동삼3동","area_km2":0.5487,"edge":true,"slope_mean":1.54,"elev_mean":1.6,"flood_hist_n":0,"flood_depth_max_m":null,"flood_risk_100y":null,"semi_basement_r":null,"elderly_alone_r":0.3724,"bldg_age30_r":null,"shelter_min_walk":13,"pop":8067,"hh":5210,"elderly65_r":0.4618,"single_hh_r":0.6226,"source_level":"emd","flood_years":[],"landslide_hist_n":0},"geometry":{"type":"Polygon","coordinates":[[[129.07743,35.08618],[129.07658,35.08231],[129.08078,35.08015],[129.08583,35.08186],[129.08669,35.08572],[129.08249,35.08789],[129.07743,35.08618]]]}},{"type":"Feature","properties":{"h3":"8830c16d63fffff","emd_code":"2620066000","emd_name":"동삼2동","area_km2":0.5488,"edge":true,"slope_mean":1.4,"elev_mean":1.2,"flood_hist_n":0,"flood_depth_max_m":null,"flood_risk_100y":null,"semi_basement_r":null,"elderly_alone_r":0.121,"bldg_age30_r":null,"shelter_min_walk":25,"pop":5251,"hh":2877,"elderly65_r":0.2365,"single_hh_r":0.5391,"source_level":"emd","flood_years":[],"landslide_hist_n":0},"geometry":{"type":"Polygon","coordinates":[[[129.08669,35.08572],[129.08583,35.08186],[129.09003,35.07969],[129.09509,35.0814],[129.09594,35.08527],[129.09174,35.08743],[129.08669,35.08572]]]}},{"type":"Feature","properties":{"h3":"8830c16d65fffff","emd_code":"2620065000","emd_name":"동삼1동","area_km2":0.5488,"edge":false,"slope_mean":6.94,"elev_mean":18.6,"flood_hist_n":0,"flood_depth_max_m":null,"flood_risk_100y":null,"semi_basement_r":null,"elderly_alone_r":0.2051,"bldg_age30_r":null,"shelter_min_walk":3,"pop":26923,"hh":13693,"elderly65_r":0.3207,"single_hh_r":0.4433,"source_level":"emd","flood_years":[],"landslide_hist_n":0},"geometry":{"type":"Polygon","coordinates":[[[129.07153,35.08061],[129.07067,35.07674],[129.07487,35.07458],[129.07993,35.07628],[129.08078,35.08015],[129.07658,35.08231],[129.07153,35.08061]]]}},{"type":"Feature","properties":{"h3":"8830c16d67fffff","emd_code":"2620066000","emd_name":"동삼2동","area_km2":0.5489,"edge":false,"slope_mean":2.19,"elev_mean":2.6,"flood_hist_n":0,"flood_depth_max_m":null,"flood_risk_100y":null,"semi_basement_r":null,"elderly_alone_r":0.121,"bldg_age30_r":null,"shelter_min_walk":15,"pop":5251,"hh":2877,"elderly65_r":0.2365,"single_hh_r":0.5391,"source_level":"emd","flood_years":[],"landslide_hist_n":0},"geometry":{"type":"Polygon","coordinates":[[[129.08078,35.08015],[129.07993,35.07628],[129.08412,35.07412],[129.08918,35.07583],[129.09003,35.07969],[129.08583,35.08186],[129.08078,35.08015]]]}},{"type":"Feature","properties":{"h3":"8830c16d69fffff","emd_code":"2620067000","emd_name":"동삼3동","area_km2":0.5486,"edge":true,"slope_mean":1.04,"elev_mean":1.3,"flood_hist_n":0,"flood_depth_max_m":null,"flood_risk_100y":null,"semi_basement_r":null,"elderly_alone_r":0.3724,"bldg_age30_r":null,"shelter_min_walk":11,"pop":8067,"hh":5210,"elderly65_r":0.4618,"single_hh_r":0.6226,"source_level":"emd","flood_years":[],"landslide_hist_n":0},"geometry":{"type":"Polygon","coordinates":[[[129.07409,35.09221],[129.07324,35.08834],[129.07743,35.08618],[129.08249,35.08789],[129.08334,35.09175],[129.07914,35.09391],[129.07409,35.09221]]]}},{"type":"Feature","properties":{"h3":"8830c16d6dfffff","emd_code":"2620067000","emd_name":"동삼3동","area_km2":0.5487,"edge":false,"slope_mean":11.07,"elev_mean":50.5,"flood_hist_n":0,"flood_depth_max_m":null,"flood_risk_100y":null,"semi_basement_r":null,"elderly_alone_r":0.3724,"bldg_age30_r":null,"shelter_min_walk":2,"pop":8067,"hh":5210,"elderly65_r":0.4618,"single_hh_r":0.6226,"source_level":"emd","flood_years":[],"landslide_hist_n":0},"geometry":{"type":"Polygon","coordinates":[[[129.06818,35.08663],[129.06733,35.08277],[129.07153,35.08061],[129.07658,35.08231],[129.07743,35.08618],[129.07324,35.08834],[129.06818,35.08663]]]}},{"type":"Feature","properties":{"h3":"8830ced20bfffff","emd_code":"2620066000","emd_name":"동삼2동","area_km2":0.5492,"edge":true,"slope_mean":0.33,"elev_mean":0.1,"flood_hist_n":0,"flood_depth_max_m":null,"flood_risk_100y":null,"semi_basement_r":null,"elderly_alone_r":0.121,"bldg_age30_r":null,"shelter_min_walk":23,"pop":5251,"hh":2877,"elderly65_r":0.2365,"single_hh_r":0.5391,"source_level":"emd","flood_years":[],"landslide_hist_n":0},"geometry":{"type":"Polygon","coordinates":[[[129.06641,35.0574],[129.06555,35.05353],[129.06975,35.05136],[129.0748,35.05307],[129.07566,35.05694],[129.07146,35.0591],[129.06641,35.0574]]]}},{"type":"Feature","properties":{"h3":"8830ced211fffff","emd_code":"2620066000","emd_name":"동삼2동","area_km2":0.5493,"edge":false,"slope_mean":23.06,"elev_mean":124.9,"flood_hist_n":0,"flood_depth_max_m":null,"flood_risk_100y":null,"semi_basement_r":null,"elderly_alone_r":0.121,"bldg_age30_r":null,"shelter_min_walk":22,"pop":5251,"hh":2877,"elderly65_r":0.2365,"single_hh_r":0.5391,"source_level":"emd","flood_years":[],"landslide_hist_n":0},"geometry":{"type":"Polygon","coordinates":[[[129.08491,35.05648],[129.08405,35.05261],[129.08825,35.05045],[129.09331,35.05216],[129.09416,35.05603],[129.08996,35.05819],[129.08491,35.05648]]]}},{"type":"Feature","properties":{"h3":"8830ced213fffff","emd_code":"2620066000","emd_name":"동삼2동","area_km2":0.5493,"edge":true,"slope_mean":2.32,"elev_mean":3.4,"flood_hist_n":0,"flood_depth_max_m":null,"flood_risk_100y":null,"semi_basement_r":null,"elderly_alone_r":0.121,"bldg_age30_r":null,"shelter_min_walk":31,"pop":5251,"hh":2877,"elderly65_r":0.2365,"single_hh_r":0.5391,"source_level":"emd","flood_years":[],"landslide_hist_n":0},"geometry":{"type":"Polygon","coordinates":[[[129.09416,35.05603],[129.09331,35.05216],[129.0975,35.04999],[129.10256,35.0517],[129.10341,35.05557],[129.09921,35.05773],[129.09416,35.05603]]]}},{"type":"Feature","properties":{"h3":"8830ced215fffff","emd_code":"2620066000","emd_name":"동삼2동","area_km2":0.5493,"edge":true,"slope_mean":6.88,"elev_mean":19.7,"flood_hist_n":0,"flood_depth_max_m":null,"flood_risk_100y":null,"semi_basement_r":null,"elderly_alone_r":0.121,"bldg_age30_r":null,"shelter_min_walk":29,"pop":5251,"hh":2877,"elderly65_r":0.2365,"single_hh_r":0.5391,"source_level":"emd","flood_years":[],"landslide_hist_n":0},"geometry":{"type":"Polygon","coordinates":[[[129.079,35.05091],[129.07815,35.04704],[129.08235,35.04487],[129.0874,35.04658],[129.08825,35.05045],[129.08405,35.05261],[129.079,35.05091]]]}},{"type":"Feature","properties":{"h3":"8830ced217fffff","emd_code":"2620066000","emd_name":"동삼2동","area_km2":0.5494,"edge":true,"slope_mean":4.91,"elev_mean":12.1,"flood_hist_n":0,"flood_depth_max_m":null,"flood_risk_100y":null,"semi_basement_r":null,"elderly_alone_r":0.121,"bldg_age30_r":null,"shelter_min_walk":33,"pop":5251,"hh":2877,"elderly65_r":0.2365,"single_hh_r":0.5391,"source_level":"emd","flood_years":[],"landslide_hist_n":0},"geometry":{"type":"Polygon","coordinates":[[[129.08825,35.05045],[129.0874,35.04658],[129.0916,35.04442],[129.09665,35.04612],[129.0975,35.04999],[129.09331,35.05216],[129.08825,35.05045]]]}},{"type":"Feature","properties":{"h3":"8830ced219fffff","emd_code":"2620066000","emd_name":"동삼2동","area_km2":0.5492,"edge":false,"slope_mean":19.17,"elev_mean":101.7,"flood_hist_n":0,"flood_depth_max_m":null,"flood_risk_100y":null,"semi_basement_r":null,"elderly_alone_r":0.121,"bldg_age30_r":null,"shelter_min_walk":11,"pop":5251,"hh":2877,"elderly65_r":0.2365,"single_hh_r":0.5391,"source_level":"emd","flood_years":[],"landslide_hist_n":0},"geometry":{"type":"Polygon","coordinates":[[[129.08156,35.06252],[129.08071,35.05865],[129.08491,35.05648],[129.08996,35.05819],[129.09081,35.06206],[129.08662,35.06422],[129.08156,35.06252]]]}},{"type":"Feature","properties":{"h3":"8830ced21bfffff","emd_code":"2620066000","emd_name":"동삼2동","area_km2":0.5492,"edge":false,"slope_mean":11.95,"elev_mean":42.4,"flood_hist_n":0,"flood_depth_max_m":null,"flood_risk_100y":null,"semi_basement_r":null,"elderly_alone_r":0.121,"bldg_age30_r":null,"shelter_min_walk":21,"pop":5251,"hh":2877,"elderly65_r":0.2365,"single_hh_r":0.5391,"source_level":"emd","flood_years":[],"landslide_hist_n":0},"geometry":{"type":"Polygon","coordinates":[[[129.09081,35.06206],[129.08996,35.05819],[129.09416,35.05603],[129.09921,35.05773],[129.10007,35.0616],[129.09587,35.06376],[129.09081,35.06206]]]}},{"type":"Feature","properties":{"h3":"8830ced21dfffff","emd_code":"2620066000","emd_name":"동삼2동","area_km2":0.5492,"edge":true,"slope_mean":9.85,"elev_mean":29.2,"flood_hist_n":0,"flood_depth_max_m":null,"flood_risk_100y":null,"semi_basement_r":null,"elderly_alone_r":0.121,"bldg_age30_r":null,"shelter_min_walk":19,"pop":5251,"hh":2877,"elderly65_r":0.2365,"single_hh_r":0.5391,"source_level":"emd","flood_years":[],"landslide_hist_n":0},"geometry":{"type":"Polygon","coordinates":[[[129.07566,35.05694],[129.0748,35.05307],[129.079,35.05091],[129.08405,35.05261],[129.08491,35.05648],[129.08071,35.05865],[129.07566,35.05694]]]}},{"type":"Feature","properties":{"h3":"8830ced24bfffff","emd_code":"2620065000","emd_name":"동삼1동","area_km2":0.5489,"edge":true,"slope_mean":2.57,"elev_mean":4.1,"flood_hist_n":0,"flood_depth_max_m":null,"flood_risk_100y":null,"semi_basement_r":null,"elderly_alone_r":0.2051,"bldg_age30_r":null,"shelter_min_walk":8,"pop":26923,"hh":13693,"elderly65_r":0.3207,"single_hh_r":0.4433,"source_level":"emd","flood_years":[],"landslide_hist_n":0},"geometry":{"type":"Polygon","coordinates":[[[129.05047,35.06991],[129.04961,35.06604],[129.05381,35.06388],[129.05886,35.06559],[129.05972,35.06946],[129.05552,35.07162],[129.05047,35.06991]]]}},{"type":"Feature","properties":{"h3":"8830ced251fffff","emd_code":"2620065000","emd_name":"동삼1동","area_km2":0.549,"edge":false,"slope_mean":16.22,"elev_mean":91.2,"flood_hist_n":0,"flood_depth_max_m":null,"flood_risk_100y":null,"semi_basement_r":null,"elderly_alone_r":0.2051,"bldg_age30_r":null,"shelter_min_walk":9,"pop":26923,"hh":13693,"elderly65_r":0.3207,"single_hh_r":0.4433,"source_level":"emd","flood_years":[],"landslide_hist_n":0},"geometry":{"type":"Polygon","coordinates":[[[129.06897,35.069],[129.06811,35.06513],[129.07231,35.06297],[129.07736,35.06468],[129.07822,35.06855],[129.07402,35.07071],[129.06897,35.069]]]}},{"type":"Feature","properties":{"h3":"8830ced253fffff","emd_code":"2620066000","emd_name":"동삼2동","area_km2":0.549,"edge":false,"slope_mean":10.66,"elev_mean":28.1,"flood_hist_n":0,"flood_depth_max_m":null,"flood_risk_100y":null,"semi_basement_r":null,"elderly_alone_r":0.121,"bldg_age30_r":null,"shelter_min_walk":2,"pop":5251,"hh":2877,"elderly65_r":0.2365,"single_hh_r":0.5391,"source_level":"emd","flood_years":[],"landslide_hist_n":0},"geometry":{"type":"Polygon","coordinates":[[[129.07822,35.06855],[129.07736,35.06468],[129.08156,35.06252],[129.08662,35.06422],[129.08747,35.06809],[129.08327,35.07025],[129.07822,35.06855]]]}},{"type":"Feature","properties":{"h3":"8830ced255fffff","emd_code":"2620066000","emd_name":"동삼2동","area_km2":0.5491,"edge":true,"slope_mean":9.53,"elev_mean":31.7,"flood_hist_n":0,"flood_depth_max_m":null,"flood_risk_100y":null,"semi_basement_r":null,"elderly_alone_r":0.121,"bldg_age30_r":null,"shelter_min_walk":13,"pop":5251,"hh":2877,"elderly65_r":0.2365,"single_hh_r":0.5391,"source_level":"emd","flood_years":[],"landslide_hist_n":0},"geometry":{"type":"Polygon","coordinates":[[[129.06306,35.06343],[129.06221,35.05956],[129.06641,35.0574],[129.07146,35.0591],[129.07231,35.06297],[129.06811,35.06513],[129.06306,35.06343]]]}},{"type":"Feature","properties":{"h3":"8830ced257fffff","emd_code":"2620066000","emd_name":"동삼2동","area_km2":0.5491,"edge":false,"slope_mean":11.6,"elev_mean":37.5,"flood_hist_n":0,"flood_depth_max_m":null,"flood_risk_100y":null,"semi_basement_r":null,"elderly_alone_r":0.121,"bldg_age30_r":null,"shelter_min_walk":10,"pop":5251,"hh":2877,"elderly65_r":0.2365,"single_hh_r":0.5391,"source_level":"emd","flood_years":[],"landslide_hist_n":0},"geometry":{"type":"Polygon","coordinates":[[[129.07231,35.06297],[129.07146,35.0591],[129.07566,35.05694],[129.08071,35.05865],[129.08156,35.06252],[129.07736,35.06468],[129.07231,35.06297]]]}},{"type":"Feature","properties":{"h3":"8830ced259fffff","emd_code":"2620065000","emd_name":"동삼1동","area_km2":0.5489,"edge":false,"slope_mean":11.42,"elev_mean":54.6,"flood_hist_n":0,"flood_depth_max_m":null,"flood_risk_100y":null,"semi_basement_r":null,"elderly_alone_r":0.2051,"bldg_age30_r":null,"shelter_min_walk":2,"pop":26923,"hh":13693,"elderly65_r":0.3207,"single_hh_r":0.4433,"source_level":"emd","flood_years":[],"landslide_hist_n":0},"geometry":{"type":"Polygon","coordinates":[[[129.06562,35.07503],[129.06477,35.07116],[129.06897,35.069],[129.07402,35.07071],[129.07487,35.07458],[129.07067,35.07674],[129.06562,35.07503]]]}},{"type":"Feature","properties":{"h3":"8830ced25bfffff","emd_code":"2620066000","emd_name":"동삼2동","area_km2":0.5489,"edge":false,"slope_mean":6.54,"elev_mean":17.9,"flood_hist_n":0,"flood_depth_max_m":null,"flood_risk_100y":null,"semi_basement_r":null,"elderly_alone_r":0.121,"bldg_age30_r":null,"shelter_min_walk":4,"pop":5251,"hh":2877,"elderly65_r":0.2365,"single_hh_r":0.5391,"source_level":"emd","flood_years":[],"landslide_hist_n":0},"geometry":{"type":"Polygon","coordinates":[[[129.07487,35.07458],[129.07402,35.07071],[129.07822,35.06855],[129.08327,35.07025],[129.08412,35.07412],[129.07993,35.07628],[129.07487,35.07458]]]}},{"type":"Feature","properties":{"h3":"8830ced25dfffff","emd_code":"2620065000","emd_name":"동삼1동","area_km2":0.5489,"edge":true,"slope_mean":8.41,"elev_mean":18.9,"flood_hist_n":0,"flood_depth_max_m":null,"flood_risk_100y":null,"semi_basement_r":null,"elderly_alone_r":0.2051,"bldg_age30_r":null,"shelter_min_walk":5,"pop":26923,"hh":13693,"elderly65_r":0.3207,"single_hh_r":0.4433,"source_level":"emd","flood_years":[],"landslide_hist_n":0},"geometry":{"type":"Polygon","coordinates":[[[129.05972,35.06946],[129.05886,35.06559],[129.06306,35.06343],[129.06811,35.06513],[129.06897,35.069],[129.06477,35.07116],[129.05972,35.06946]]]}}]}