{"type":"FeatureCollection","name":"grid_26230_h3r8","meta":{"sgg_code":"26230","h3_res":8,"n_cells":73,"dem":"Copernicus GLO-30 (bbox-mean)","crs":"EPSG:4326","jumin_basis":"2026-07","flood_src":"행안부 침수흔적도(전국, 재난안전데이터공유플랫폼)","landslide_src":"행안부 산사태 발생이력"},"features":[{"type":"Feature","properties":{"h3":"8830c16023fffff","emd_code":"2623055000","emd_name":"초읍동","area_km2":0.5466,"edge":false,"slope_mean":17.99,"elev_mean":272.5,"flood_hist_n":0,"flood_depth_max_m":null,"flood_risk_100y":null,"semi_basement_r":null,"elderly_alone_r":0.1985,"bldg_age30_r":null,"shelter_min_walk":12,"pop":21314,"hh":10314,"elderly65_r":0.3268,"single_hh_r":0.4005,"source_level":"emd","flood_years":[],"landslide_hist_n":0},"geometry":{"type":"Polygon","coordinates":[[[129.03238,35.19965],[129.03152,35.1958],[129.03572,35.19364],[129.04078,35.19535],[129.04163,35.1992],[129.03743,35.20136],[129.03238,35.19965]]]}},{"type":"Feature","properties":{"h3":"8830c16025fffff","emd_code":"2623055000","emd_name":"초읍동","area_km2":0.5466,"edge":true,"slope_mean":25.92,"elev_mean":442.7,"flood_hist_n":0,"flood_depth_max_m":null,"flood_risk_100y":null,"semi_basement_r":null,"elderly_alone_r":0.1985,"bldg_age30_r":null,"shelter_min_walk":10,"pop":21314,"hh":10314,"elderly65_r":0.3268,"single_hh_r":0.4005,"source_level":"emd","flood_years":[],"landslide_hist_n":0},"geometry":{"type":"Polygon","coordinates":[[[129.01722,35.19454],[129.01637,35.19068],[129.02056,35.18853],[129.02562,35.19023],[129.02647,35.19409],[129.02227,35.19624],[129.01722,35.19454]]]}},{"type":"Feature","properties":{"h3":"8830c16027fffff","emd_code":"2623055000","emd_name":"초읍동","area_km2":0.5467,"edge":false,"slope_mean":25.8,"elev_mean":396.2,"flood_hist_n":0,"flood_depth_max_m":null,"flood_risk_100y":null,"semi_basement_r":null,"elderly_alone_r":0.1985,"bldg_age30_r":null,"shelter_min_walk":20,"pop":21314,"hh":10314,"elderly65_r":0.3268,"single_hh_r":0.4005,"source_level":"emd","flood_years":[],"landslide_hist_n":0},"geometry":{"type":"Polygon","coordinates":[[[129.02647,35.19409],[129.02562,35.19023],[129.02982,35.18808],[129.03487,35.18978],[129.03572,35.19364],[129.03152,35.1958],[129.02647,35.19409]]]}},{"type":"Feature","properties":{"h3":"8830c16035fffff","emd_code":"2623055000","emd_name":"초읍동","area_km2":0.5467,"edge":true,"slope_mean":21.96,"elev_mean":272.2,"flood_hist_n":0,"flood_depth_max_m":null,"flood_risk_100y":null,"semi_basement_r":null,"elderly_alone_r":0.1985,"bldg_age30_r":null,"shelter_min_walk":7,"pop":21314,"hh":10314,"elderly65_r":0.3268,"single_hh_r":0.4005,"source_level":"emd","flood_years":[],"landslide_hist_n":0},"geometry":{"type":"Polygon","coordinates":[[[129.04163,35.1992],[129.04078,35.19535],[129.04497,35.19319],[129.05003,35.1949],[129.05088,35.19876],[129.04668,35.20091],[129.04163,35.1992]]]}},{"type":"Feature","properties":{"h3":"8830c16111fffff","emd_code":"2623067000","emd_name":"당감1동","area_km2":0.5468,"edge":true,"slope_mean":27.22,"elev_mean":483.0,"flood_hist_n":0,"flood_depth_max_m":null,"flood_risk_100y":null,"semi_basement_r":null,"elderly_alone_r":0.2092,"bldg_age30_r":null,"shelter_min_walk":19,"pop":19876,"hh":9823,"elderly65_r":0.3205,"single_hh_r":0.4124,"source_level":"emd","flood_years":[],"landslide_hist_n":0},"geometry":{"type":"Polygon","coordinates":[[[129.01466,35.18296],[129.01381,35.1791],[129.018,35.17695],[129.02306,35.17865],[129.02391,35.18251],[129.01971,35.18467],[129.01466,35.18296]]]}},{"type":"Feature","properties":{"h3":"8830c16113fffff","emd_code":"2623066000","emd_name":"부암3동","area_km2":0.5469,"edge":false,"slope_mean":26.15,"elev_mean":381.0,"flood_hist_n":0,"flood_depth_max_m":null,"flood_risk_100y":null,"semi_basement_r":null,"elderly_alone_r":0.1121,"bldg_age30_r":null,"shelter_min_walk":10,"pop":23666,"hh":9901,"elderly65_r":0.2128,"single_hh_r":0.2697,"source_level":"emd","flood_years":[],"landslide_hist_n":0},"geometry":{"type":"Polygon","coordinates":[[[129.02391,35.18251],[129.02306,35.17865],[129.02726,35.1765],[129.03231,35.1782],[129.03316,35.18206],[129.02896,35.18422],[129.02391,35.18251]]]}},{"type":"Feature","properties":{"h3":"8830c16115fffff","emd_code":"2623067000","emd_name":"당감1동","area_km2":0.5469,"edge":false,"slope_mean":24.56,"elev_mean":387.0,"flood_hist_n":0,"flood_depth_max_m":null,"flood_risk_100y":null,"semi_basement_r":null,"elderly_alone_r":0.2092,"bldg_age30_r":null,"shelter_min_walk":21,"pop":19876,"hh":9823,"elderly65_r":0.3205,"single_hh_r":0.4124,"source_level":"emd","flood_years":[],"landslide_hist_n":0},"geometry":{"type":"Polygon","coordinates":[[[129.00875,35.1774],[129.0079,35.17354],[129.0121,35.17138],[129.01715,35.17309],[129.018,35.17695],[129.01381,35.1791],[129.00875,35.1774]]]}},{"type":"Feature","properties":{"h3":"8830c16117fffff","emd_code":"2623070000","emd_name":"당감4동","area_km2":0.5469,"edge":false,"slope_mean":22.32,"elev_mean":301.7,"flood_hist_n":0,"flood_depth_max_m":null,"flood_risk_100y":null,"semi_basement_r":null,"elderly_alone_r":0.2042,"bldg_age30_r":null,"shelter_min_walk":9,"pop":9697,"hh":4872,"elderly65_r":0.3048,"single_hh_r":0.4282,"source_level":"emd","flood_years":[],"landslide_hist_n":0},"geometry":{"type":"Polygon","coordinates":[[[129.018,35.17695],[129.01715,35.17309],[129.02135,35.17093],[129.0264,35.17264],[129.02726,35.1765],[129.02306,35.17865],[129.018,35.17695]]]}},{"type":"Feature","properties":{"h3":"8830c1611bfffff","emd_code":"2623055000","emd_name":"초읍동","area_km2":0.5468,"edge":false,"slope_mean":24.66,"elev_mean":496.3,"flood_hist_n":0,"flood_depth_max_m":null,"flood_risk_100y":null,"semi_basement_r":null,"elderly_alone_r":0.1985,"bldg_age30_r":null,"shelter_min_walk":20,"pop":21314,"hh":10314,"elderly65_r":0.3268,"single_hh_r":0.4005,"source_level":"emd","flood_years":[],"landslide_hist_n":0},"geometry":{"type":"Polygon","coordinates":[[[129.02056,35.18853],[129.01971,35.18467],[129.02391,35.18251],[129.02896,35.18422],[129.02982,35.18808],[129.02562,35.19023],[129.02056,35.18853]]]}},{"type":"Feature","properties":{"h3":"8830c16131fffff","emd_code":"2623076000","emd_name":"개금3동","area_km2":0.5471,"edge":true,"slope_mean":20.9,"elev_mean":259.9,"flood_hist_n":0,"flood_depth_max_m":null,"flood_risk_100y":null,"semi_basement_r":null,"elderly_alone_r":0.1884,"bldg_age30_r":null,"shelter_min_walk":14,"pop":25248,"hh":12018,"elderly65_r":0.297,"single_hh_r":0.3839,"source_level":"emd","flood_years":[],"landslide_hist_n":0},"geometry":{"type":"Polygon","coordinates":[[[129.00619,35.16581],[129.00534,35.16195],[129.00954,35.1598],[129.01459,35.16151],[129.01544,35.16537],[129.01125,35.16752],[129.00619,35.16581]]]}},{"type":"Feature","properties":{"h3":"8830c16133fffff","emd_code":"2623076000","emd_name":"개금3동","area_km2":0.5471,"edge":false,"slope_mean":17.79,"elev_mean":194.0,"flood_hist_n":0,"flood_depth_max_m":null,"flood_risk_100y":null,"semi_basement_r":null,"elderly_alone_r":0.1884,"bldg_age30_r":null,"shelter_min_walk":6,"pop":25248,"hh":12018,"elderly65_r":0.297,"single_hh_r":0.3839,"source_level":"emd","flood_years":[],"landslide_hist_n":0},"geometry":{"type":"Polygon","coordinates":[[[129.01544,35.16537],[129.01459,35.16151],[129.01879,35.15935],[129.02384,35.16106],[129.0247,35.16492],[129.0205,35.16707],[129.01544,35.16537]]]}},{"type":"Feature","properties":{"h3":"8830c16137fffff","emd_code":"2623076000","emd_name":"개금3동","area_km2":0.5472,"edge":false,"slope_mean":15.66,"elev_mean":138.1,"flood_hist_n":0,"flood_depth_max_m":null,"flood_risk_100y":null,"semi_basement_r":null,"elderly_alone_r":0.1884,"bldg_age30_r":null,"shelter_min_walk":3,"pop":25248,"hh":12018,"elderly65_r":0.297,"single_hh_r":0.3839,"source_level":"emd","flood_years":[],"landslide_hist_n":0},"geometry":{"type":"Polygon","coordinates":[[[129.00954,35.1598],[129.00869,35.15594],[129.01289,35.15378],[129.01794,35.15549],[129.01879,35.15935],[129.01459,35.16151],[129.00954,35.1598]]]}},{"type":"Feature","properties":{"h3":"8830c16139fffff","emd_code":"2623067000","emd_name":"당감1동","area_km2":0.547,"edge":true,"slope_mean":20.58,"elev_mean":303.2,"flood_hist_n":0,"flood_depth_max_m":null,"flood_risk_100y":null,"semi_basement_r":null,"elderly_alone_r":0.2092,"bldg_age30_r":null,"shelter_min_walk":23,"pop":19876,"hh":9823,"elderly65_r":0.3205,"single_hh_r":0.4124,"source_level":"emd","flood_years":[],"landslide_hist_n":0},"geometry":{"type":"Polygon","coordinates":[[[129.00285,35.17183],[129.002,35.16797],[129.00619,35.16581],[129.01125,35.16752],[129.0121,35.17138],[129.0079,35.17354],[129.00285,35.17183]]]}},{"type":"Feature","properties":{"h3":"8830c1613bfffff","emd_code":"2623067000","emd_name":"당감1동","area_km2":0.547,"edge":false,"slope_mean":17.23,"elev_mean":284.9,"flood_hist_n":0,"flood_depth_max_m":null,"flood_risk_100y":null,"semi_basement_r":null,"elderly_alone_r":0.2092,"bldg_age30_r":null,"shelter_min_walk":15,"pop":19876,"hh":9823,"elderly65_r":0.3205,"single_hh_r":0.4124,"source_level":"emd","flood_years":[],"landslide_hist_n":0},"geometry":{"type":"Polygon","coordinates":[[[129.0121,35.17138],[129.01125,35.16752],[129.01544,35.16537],[129.0205,35.16707],[129.02135,35.17093],[129.01715,35.17309],[129.0121,35.17138]]]}},{"type":"Feature","properties":{"h3":"8830c16181fffff","emd_code":"2623054000","emd_name":"연지동","area_km2":0.5471,"edge":false,"slope_mean":9.43,"elev_mean":49.4,"flood_hist_n":0,"flood_depth_max_m":null,"flood_risk_100y":null,"semi_basement_r":null,"elderly_alone_r":0.1465,"bldg_age30_r":null,"shelter_min_walk":2,"pop":25250,"hh":10842,"elderly65_r":0.2575,"single_hh_r":0.3013,"source_level":"emd","flood_years":[],"landslide_hist_n":0},"geometry":{"type":"Polygon","coordinates":[[[129.05501,35.17515],[129.05416,35.17129],[129.05836,35.16913],[129.06341,35.17084],[129.06426,35.1747],[129.06006,35.17685],[129.05501,35.17515]]]}},{"type":"Feature","properties":{"h3":"8830c16183fffff","emd_code":"2623056000","emd_name":"양정1동","area_km2":0.5472,"edge":false,"slope_mean":7.27,"elev_mean":35.9,"flood_hist_n":0,"flood_depth_max_m":null,"flood_risk_100y":null,"semi_basement_r":null,"elderly_alone_r":0.1502,"bldg_age30_r":null,"shelter_min_walk":4,"pop":18668,"hh":9500,"elderly65_r":0.2669,"single_hh_r":0.4464,"source_level":"emd","flood_years":[],"landslide_hist_n":0},"geometry":{"type":"Polygon","coordinates":[[[129.06426,35.1747],[129.06341,35.17084],[129.06761,35.16868],[129.07266,35.17039],[129.07352,35.17425],[129.06932,35.1764],[129.06426,35.1747]]]}},{"type":"Feature","properties":{"h3":"8830c16185fffff","emd_code":"2623054000","emd_name":"연지동","area_km2":0.5472,"edge":false,"slope_mean":4.62,"elev_mean":34.4,"flood_hist_n":0,"flood_depth_max_m":null,"flood_risk_100y":null,"semi_basement_r":null,"elderly_alone_r":0.1465,"bldg_age30_r":null,"shelter_min_walk":6,"pop":25250,"hh":10842,"elderly65_r":0.2575,"single_hh_r":0.3013,"source_level":"emd","flood_years":[],"landslide_hist_n":0},"geometry":{"type":"Polygon","coordinates":[[[129.0491,35.16958],[129.04825,35.16572],[129.05245,35.16357],[129.0575,35.16527],[129.05836,35.16913],[129.05416,35.17129],[129.0491,35.16958]]]}},{"type":"Feature","properties":{"h3":"8830c16187fffff","emd_code":"2623051000","emd_name":"부전1동","area_km2":0.5473,"edge":false,"slope_mean":5.56,"elev_mean":31.2,"flood_hist_n":0,"flood_depth_max_m":null,"flood_risk_100y":null,"semi_basement_r":null,"elderly_alone_r":0.1321,"bldg_age30_r":null,"shelter_min_walk":5,"pop":13911,"hh":9898,"elderly65_r":0.1913,"single_hh_r":0.7472,"source_level":"emd","flood_years":[],"landslide_hist_n":0},"geometry":{"type":"Polygon","coordinates":[[[129.05836,35.16913],[129.0575,35.16527],[129.0617,35.16312],[129.06676,35.16482],[129.06761,35.16868],[129.06341,35.17084],[129.05836,35.16913]]]}},{"type":"Feature","properties":{"h3":"8830c16189fffff","emd_code":"2623055000","emd_name":"초읍동","area_km2":0.547,"edge":false,"slope_mean":13.08,"elev_mean":84.7,"flood_hist_n":0,"flood_depth_max_m":null,"flood_risk_100y":null,"semi_basement_r":null,"elderly_alone_r":0.1985,"bldg_age30_r":null,"shelter_min_walk":3,"pop":21314,"hh":10314,"elderly65_r":0.3268,"single_hh_r":0.4005,"source_level":"emd","flood_years":[],"landslide_hist_n":0},"geometry":{"type":"Polygon","coordinates":[[[129.05167,35.18116],[129.05081,35.17731],[129.05501,35.17515],[129.06006,35.17685],[129.06092,35.18071],[129.05672,35.18287],[129.05167,35.18116]]]}},{"type":"Feature","properties":{"h3":"8830c1618bfffff","emd_code":"2623056000","emd_name":"양정1동","area_km2":0.5471,"edge":true,"slope_mean":11.12,"elev_mean":60.4,"flood_hist_n":0,"flood_depth_max_m":null,"flood_risk_100y":null,"semi_basement_r":null,"elderly_alone_r":0.1502,"bldg_age30_r":null,"shelter_min_walk":4,"pop":18668,"hh":9500,"elderly65_r":0.2669,"single_hh_r":0.4464,"source_level":"emd","flood_years":[],"landslide_hist_n":0},"geometry":{"type":"Polygon","coordinates":[[[129.06092,35.18071],[129.06006,35.17685],[129.06426,35.1747],[129.06932,35.1764],[129.07017,35.18026],[129.06597,35.18242],[129.06092,35.18071]]]}},{"type":"Feature","properties":{"h3":"8830c1618dfffff","emd_code":"2623054000","emd_name":"연지동","area_km2":0.5471,"edge":false,"slope_mean":9.59,"elev_mean":62.6,"flood_hist_n":0,"flood_depth_max_m":null,"flood_risk_100y":null,"semi_basement_r":null,"elderly_alone_r":0.1465,"bldg_age30_r":null,"shelter_min_walk":2,"pop":25250,"hh":10842,"elderly65_r":0.2575,"single_hh_r":0.3013,"source_level":"emd","flood_years":[],"landslide_hist_n":0},"geometry":{"type":"Polygon","coordinates":[[[129.04576,35.1756],[129.04491,35.17174],[129.0491,35.16958],[129.05416,35.17129],[129.05501,35.17515],[129.05081,35.17731],[129.04576,35.1756]]]}},{"type":"Feature","properties":{"h3":"8830c16195fffff","emd_code":"2623057000","emd_name":"양정2동","area_km2":0.5472,"edge":false,"slope_mean":10.12,"elev_mean":68.3,"flood_hist_n":0,"flood_depth_max_m":null,"flood_risk_100y":null,"semi_basement_r":null,"elderly_alone_r":0.0812,"bldg_age30_r":null,"shelter_min_walk":3,"pop":21077,"hh":11853,"elderly65_r":0.1467,"single_hh_r":0.5702,"source_level":"emd","flood_years":[],"landslide_hist_n":0},"geometry":{"type":"Polygon","coordinates":[[[129.07352,35.17425],[129.07266,35.17039],[129.07686,35.16823],[129.08192,35.16993],[129.08277,35.17379],[129.07857,35.17595],[129.07352,35.17425]]]}},{"type":"Feature","properties":{"h3":"8830c1619dfffff","emd_code":"2623057000","emd_name":"양정2동","area_km2":0.5471,"edge":true,"slope_mean":4.31,"elev_mean":20.3,"flood_hist_n":0,"flood_depth_max_m":null,"flood_risk_100y":null,"semi_basement_r":null,"elderly_alone_r":0.0812,"bldg_age30_r":null,"shelter_min_walk":2,"pop":21077,"hh":11853,"elderly65_r":0.1467,"single_hh_r":0.5702,"source_level":"emd","flood_years":[],"landslide_hist_n":0},"geometry":{"type":"Polygon","coordinates":[[[129.07017,35.18026],[129.06932,35.1764],[129.07352,35.17425],[129.07857,35.17595],[129.07942,35.17981],[129.07523,35.18197],[129.07017,35.18026]]]}},{"type":"Feature","properties":{"h3":"8830c161a1fffff","emd_code":"2623052000","emd_name":"부전2동","area_km2":0.5474,"edge":false,"slope_mean":6.21,"elev_mean":20.5,"flood_hist_n":1,"flood_depth_max_m":1.452,"flood_risk_100y":null,"semi_basement_r":null,"elderly_alone_r":0.0722,"bldg_age30_r":null,"shelter_min_walk":1,"pop":12428,"hh":7689,"elderly65_r":0.1423,"single_hh_r":0.6522,"source_level":"emd","flood_years":[2020],"landslide_hist_n":0},"geometry":{"type":"Polygon","coordinates":[[[129.04654,35.158],[129.04569,35.15414],[129.04989,35.15198],[129.05494,35.15369],[129.0558,35.15755],[129.0516,35.15971],[129.04654,35.158]]]}},{"type":"Feature","properties":{"h3":"8830c161a3fffff","emd_code":"2623052000","emd_name":"부전2동","area_km2":0.5474,"edge":false,"slope_mean":5.25,"elev_mean":14.0,"flood_hist_n":0,"flood_depth_max_m":null,"flood_risk_100y":null,"semi_basement_r":null,"elderly_alone_r":0.0722,"bldg_age30_r":null,"shelter_min_walk":1,"pop":12428,"hh":7689,"elderly65_r":0.1423,"single_hh_r":0.6522,"source_level":"emd","flood_years":[],"landslide_hist_n":0},"geometry":{"type":"Polygon","coordinates":[[[129.0558,35.15755],[129.05494,35.15369],[129.05914,35.15153],[129.06419,35.15324],[129.06505,35.1571],[129.06085,35.15926],[129.0558,35.15755]]]}},{"type":"Feature","properties":{"h3":"8830c161a5fffff","emd_code":"2623078000","emd_name":"범천2동","area_km2":0.5475,"edge":false,"slope_mean":18.25,"elev_mean":111.1,"flood_hist_n":0,"flood_depth_max_m":null,"flood_risk_100y":null,"semi_basement_r":null,"elderly_alone_r":0.1723,"bldg_age30_r":null,"shelter_min_walk":9,"pop":21444,"hh":11429,"elderly65_r":0.2702,"single_hh_r":0.4674,"source_level":"emd","flood_years":[],"landslide_hist_n":0},"geometry":{"type":"Polygon","coordinates":[[[129.04064,35.15243],[129.03978,35.14857],[129.04398,35.14642],[129.04904,35.14812],[129.04989,35.15198],[129.04569,35.15414],[129.04064,35.15243]]]}},{"type":"Feature","properties":{"h3":"8830c161a7fffff","emd_code":"2623078000","emd_name":"범천2동","area_km2":0.5475,"edge":false,"slope_mean":7.5,"elev_mean":21.3,"flood_hist_n":0,"flood_depth_max_m":null,"flood_risk_100y":null,"semi_basement_r":null,"elderly_alone_r":0.1723,"bldg_age30_r":null,"shelter_min_walk":6,"pop":21444,"hh":11429,"elderly65_r":0.2702,"single_hh_r":0.4674,"source_level":"emd","flood_years":[],"landslide_hist_n":0},"geometry":{"type":"Polygon","coordinates":[[[129.04989,35.15198],[129.04904,35.14812],[129.05323,35.14596],[129.05829,35.14767],[129.05914,35.15153],[129.05494,35.15369],[129.04989,35.15198]]]}},{"type":"Feature","properties":{"h3":"8830c161a9fffff","emd_code":"2623068000","emd_name":"당감2동","area_km2":0.5473,"edge":false,"slope_mean":6.33,"elev_mean":33.3,"flood_hist_n":0,"flood_depth_max_m":null,"flood_risk_100y":null,"semi_basement_r":null,"elderly_alone_r":0.135,"bldg_age30_r":null,"shelter_min_walk":6,"pop":11450,"hh":5335,"elderly65_r":0.2492,"single_hh_r":0.3633,"source_level":"emd","flood_years":[],"landslide_hist_n":0},"geometry":{"type":"Polygon","coordinates":[[[129.0432,35.16402],[129.04234,35.16016],[129.04654,35.158],[129.0516,35.15971],[129.05245,35.16357],[129.04825,35.16572],[129.0432,35.16402]]]}},{"type":"Feature","properties":{"h3":"8830c161abfffff","emd_code":"2623051000","emd_name":"부전1동","area_km2":0.5473,"edge":false,"slope_mean":4.49,"elev_mean":22.3,"flood_hist_n":0,"flood_depth_max_m":null,"flood_risk_100y":null,"semi_basement_r":null,"elderly_alone_r":0.1321,"bldg_age30_r":null,"shelter_min_walk":3,"pop":13911,"hh":9898,"elderly65_r":0.1913,"single_hh_r":0.7472,"source_level":"emd","flood_years":[],"landslide_hist_n":0},"geometry":{"type":"Polygon","coordinates":[[[129.05245,35.16357],[129.0516,35.15971],[129.0558,35.15755],[129.06085,35.15926],[129.0617,35.16312],[129.0575,35.16527],[129.05245,35.16357]]]}},{"type":"Feature","properties":{"h3":"8830c161adfffff","emd_code":"2623068000","emd_name":"당감2동","area_km2":0.5473,"edge":false,"slope_mean":8.17,"elev_mean":40.0,"flood_hist_n":1,"flood_depth_max_m":1.452,"flood_risk_100y":null,"semi_basement_r":null,"elderly_alone_r":0.135,"bldg_age30_r":null,"shelter_min_walk":1,"pop":11450,"hh":5335,"elderly65_r":0.2492,"single_hh_r":0.3633,"source_level":"emd","flood_years":[2020],"landslide_hist_n":0},"geometry":{"type":"Polygon","coordinates":[[[129.03729,35.15845],[129.03644,35.15459],[129.04064,35.15243],[129.04569,35.15414],[129.04654,35.158],[129.04234,35.16016],[129.03729,35.15845]]]}},{"type":"Feature","properties":{"h3":"8830c161b1fffff","emd_code":"2623061000","emd_name":"전포2동","area_km2":0.5474,"edge":false,"slope_mean":19.1,"elev_mean":199.9,"flood_hist_n":0,"flood_depth_max_m":null,"flood_risk_100y":null,"semi_basement_r":null,"elderly_alone_r":0.1566,"bldg_age30_r":null,"shelter_min_walk":6,"pop":22818,"hh":12978,"elderly65_r":0.2647,"single_hh_r":0.5504,"source_level":"emd","flood_years":[],"landslide_hist_n":0},"geometry":{"type":"Polygon","coordinates":[[[129.07096,35.16266],[129.0701,35.1588],[129.0743,35.15665],[129.07935,35.15835],[129.08021,35.16221],[129.07601,35.16437],[129.07096,35.16266]]]}},{"type":"Feature","properties":{"h3":"8830c161b3fffff","emd_code":"2623060000","emd_name":"전포1동","area_km2":0.5475,"edge":true,"slope_mean":23.07,"elev_mean":303.4,"flood_hist_n":0,"flood_depth_max_m":null,"flood_risk_100y":null,"semi_basement_r":null,"elderly_alone_r":0.0877,"bldg_age30_r":null,"shelter_min_walk":15,"pop":20294,"hh":12009,"elderly65_r":0.1616,"single_hh_r":0.6071,"source_level":"emd","flood_years":[],"landslide_hist_n":0},"geometry":{"type":"Polygon","coordinates":[[[129.08021,35.16221],[129.07935,35.15835],[129.08355,35.15619],[129.08861,35.1579],[129.08946,35.16176],[129.08526,35.16392],[129.08021,35.16221]]]}},{"type":"Feature","properties":{"h3":"8830c161b5fffff","emd_code":"2623060000","emd_name":"전포1동","area_km2":0.5475,"edge":false,"slope_mean":9.34,"elev_mean":55.5,"flood_hist_n":0,"flood_depth_max_m":null,"flood_risk_100y":null,"semi_basement_r":null,"elderly_alone_r":0.0877,"bldg_age30_r":null,"shelter_min_walk":7,"pop":20294,"hh":12009,"elderly65_r":0.1616,"single_hh_r":0.6071,"source_level":"emd","flood_years":[],"landslide_hist_n":0},"geometry":{"type":"Polygon","coordinates":[[[129.06505,35.1571],[129.06419,35.15324],[129.06839,35.15108],[129.07345,35.15278],[129.0743,35.15665],[129.0701,35.1588],[129.06505,35.1571]]]}},{"type":"Feature","properties":{"h3":"8830c161b7fffff","emd_code":"2623060000","emd_name":"전포1동","area_km2":0.5475,"edge":false,"slope_mean":23.3,"elev_mean":258.3,"flood_hist_n":0,"flood_depth_max_m":null,"flood_risk_100y":null,"semi_basement_r":null,"elderly_alone_r":0.0877,"bldg_age30_r":null,"shelter_min_walk":13,"pop":20294,"hh":12009,"elderly65_r":0.1616,"single_hh_r":0.6071,"source_level":"emd","flood_years":[],"landslide_hist_n":0},"geometry":{"type":"Polygon","coordinates":[[[129.0743,35.15665],[129.07345,35.15278],[129.07765,35.15063],[129.0827,35.15233],[129.08355,35.15619],[129.07935,35.15835],[129.0743,35.15665]]]}},{"type":"Feature","properties":{"h3":"8830c161b9fffff","emd_code":"2623056000","emd_name":"양정1동","area_km2":0.5473,"edge":false,"slope_mean":13.7,"elev_mean":97.6,"flood_hist_n":0,"flood_depth_max_m":null,"flood_risk_100y":null,"semi_basement_r":null,"elderly_alone_r":0.1502,"bldg_age30_r":null,"shelter_min_walk":9,"pop":18668,"hh":9500,"elderly65_r":0.2669,"single_hh_r":0.4464,"source_level":"emd","flood_years":[],"landslide_hist_n":0},"geometry":{"type":"Polygon","coordinates":[[[129.06761,35.16868],[129.06676,35.16482],[129.07096,35.16266],[129.07601,35.16437],[129.07686,35.16823],[129.07266,35.17039],[129.06761,35.16868]]]}},{"type":"Feature","properties":{"h3":"8830c161bbfffff","emd_code":"2623057000","emd_name":"양정2동","area_km2":0.5474,"edge":true,"slope_mean":20.93,"elev_mean":203.9,"flood_hist_n":0,"flood_depth_max_m":null,"flood_risk_100y":null,"semi_basement_r":null,"elderly_alone_r":0.0812,"bldg_age30_r":null,"shelter_min_walk":9,"pop":21077,"hh":11853,"elderly65_r":0.1467,"single_hh_r":0.5702,"source_level":"emd","flood_years":[],"landslide_hist_n":0},"geometry":{"type":"Polygon","coordinates":[[[129.07686,35.16823],[129.07601,35.16437],[129.08021,35.16221],[129.08526,35.16392],[129.08612,35.16778],[129.08192,35.16993],[129.07686,35.16823]]]}},{"type":"Feature","properties":{"h3":"8830c161bdfffff","emd_code":"2623061000","emd_name":"전포2동","area_km2":0.5474,"edge":false,"slope_mean":8.11,"elev_mean":34.7,"flood_hist_n":0,"flood_depth_max_m":null,"flood_risk_100y":null,"semi_basement_r":null,"elderly_alone_r":0.1566,"bldg_age30_r":null,"shelter_min_walk":2,"pop":22818,"hh":12978,"elderly65_r":0.2647,"single_hh_r":0.5504,"source_level":"emd","flood_years":[],"landslide_hist_n":0},"geometry":{"type":"Polygon","coordinates":[[[129.0617,35.16312],[129.06085,35.15926],[129.06505,35.1571],[129.0701,35.1588],[129.07096,35.16266],[129.06676,35.16482],[129.0617,35.16312]]]}},{"type":"Feature","properties":{"h3":"8830c161c1fffff","emd_code":"2623055000","emd_name":"초읍동","area_km2":0.5469,"edge":false,"slope_mean":14.15,"elev_mean":136.6,"flood_hist_n":0,"flood_depth_max_m":null,"flood_risk_100y":null,"semi_basement_r":null,"elderly_alone_r":0.1985,"bldg_age30_r":null,"shelter_min_walk":9,"pop":21314,"hh":10314,"elderly65_r":0.3268,"single_hh_r":0.4005,"source_level":"emd","flood_years":[],"landslide_hist_n":0},"geometry":{"type":"Polygon","coordinates":[[[129.03907,35.18763],[129.03821,35.18377],[129.04241,35.18161],[129.04747,35.18332],[129.04832,35.18718],[129.04412,35.18933],[129.03907,35.18763]]]}},{"type":"Feature","properties":{"h3":"8830c161c3fffff","emd_code":"2623055000","emd_name":"초읍동","area_km2":0.5469,"edge":true,"slope_mean":14.42,"elev_mean":103.9,"flood_hist_n":0,"flood_depth_max_m":null,"flood_risk_100y":null,"semi_basement_r":null,"elderly_alone_r":0.1985,"bldg_age30_r":null,"shelter_min_walk":6,"pop":21314,"hh":10314,"elderly65_r":0.3268,"single_hh_r":0.4005,"source_level":"emd","flood_years":[],"landslide_hist_n":0},"geometry":{"type":"Polygon","coordinates":[[[129.04832,35.18718],[129.04747,35.18332],[129.05167,35.18116],[129.05672,35.18287],[129.05757,35.18673],[129.05337,35.18888],[129.04832,35.18718]]]}},{"type":"Feature","properties":{"h3":"8830c161c5fffff","emd_code":"2623055000","emd_name":"초읍동","area_km2":0.5469,"edge":false,"slope_mean":17.17,"elev_mean":208.3,"flood_hist_n":0,"flood_depth_max_m":null,"flood_risk_100y":null,"semi_basement_r":null,"elderly_alone_r":0.1985,"bldg_age30_r":null,"shelter_min_walk":12,"pop":21314,"hh":10314,"elderly65_r":0.3268,"single_hh_r":0.4005,"source_level":"emd","flood_years":[],"landslide_hist_n":0},"geometry":{"type":"Polygon","coordinates":[[[129.03316,35.18206],[129.03231,35.1782],[129.03651,35.17605],[129.04156,35.17776],[129.04241,35.18161],[129.03821,35.18377],[129.03316,35.18206]]]}},{"type":"Feature","properties":{"h3":"8830c161c7fffff","emd_code":"2623055000","emd_name":"초읍동","area_km2":0.547,"edge":false,"slope_mean":11.47,"elev_mean":89.7,"flood_hist_n":0,"flood_depth_max_m":null,"flood_risk_100y":null,"semi_basement_r":null,"elderly_alone_r":0.1985,"bldg_age30_r":null,"shelter_min_walk":2,"pop":21314,"hh":10314,"elderly65_r":0.3268,"single_hh_r":0.4005,"source_level":"emd","flood_years":[],"landslide_hist_n":0},"geometry":{"type":"Polygon","coordinates":[[[129.04241,35.18161],[129.04156,35.17776],[129.04576,35.1756],[129.05081,35.17731],[129.05167,35.18116],[129.04747,35.18332],[129.04241,35.18161]]]}},{"type":"Feature","properties":{"h3":"8830c161c9fffff","emd_code":"2623055000","emd_name":"초읍동","area_km2":0.5467,"edge":false,"slope_mean":16.1,"elev_mean":210.5,"flood_hist_n":0,"flood_depth_max_m":null,"flood_risk_100y":null,"semi_basement_r":null,"elderly_alone_r":0.1985,"bldg_age30_r":null,"shelter_min_walk":14,"pop":21314,"hh":10314,"elderly65_r":0.3268,"single_hh_r":0.4005,"source_level":"emd","flood_years":[],"landslide_hist_n":0},"geometry":{"type":"Polygon","coordinates":[[[129.03572,35.19364],[129.03487,35.18978],[129.03907,35.18763],[129.04412,35.18933],[129.04497,35.19319],[129.04078,35.19535],[129.03572,35.19364]]]}},{"type":"Feature","properties":{"h3":"8830c161cbfffff","emd_code":"2623055000","emd_name":"초읍동","area_km2":0.5468,"edge":true,"slope_mean":21.78,"elev_mean":187.6,"flood_hist_n":0,"flood_depth_max_m":null,"flood_risk_100y":null,"semi_basement_r":null,"elderly_alone_r":0.1985,"bldg_age30_r":null,"shelter_min_walk":6,"pop":21314,"hh":10314,"elderly65_r":0.3268,"single_hh_r":0.4005,"source_level":"emd","flood_years":[],"landslide_hist_n":0},"geometry":{"type":"Polygon","coordinates":[[[129.04497,35.19319],[129.04412,35.18933],[129.04832,35.18718],[129.05337,35.18888],[129.05423,35.19274],[129.05003,35.1949],[129.04497,35.19319]]]}},{"type":"Feature","properties":{"h3":"8830c161cdfffff","emd_code":"2623055000","emd_name":"초읍동","area_km2":0.5468,"edge":false,"slope_mean":19.07,"elev_mean":257.2,"flood_hist_n":0,"flood_depth_max_m":null,"flood_risk_100y":null,"semi_basement_r":null,"elderly_alone_r":0.1985,"bldg_age30_r":null,"shelter_min_walk":19,"pop":21314,"hh":10314,"elderly65_r":0.3268,"single_hh_r":0.4005,"source_level":"emd","flood_years":[],"landslide_hist_n":0},"geometry":{"type":"Polygon","coordinates":[[[129.02982,35.18808],[129.02896,35.18422],[129.03316,35.18206],[129.03821,35.18377],[129.03907,35.18763],[129.03487,35.18978],[129.02982,35.18808]]]}},{"type":"Feature","properties":{"h3":"8830c161d5fffff","emd_code":"2623055000","emd_name":"초읍동","area_km2":0.547,"edge":true,"slope_mean":17.37,"elev_mean":116.0,"flood_hist_n":0,"flood_depth_max_m":null,"flood_risk_100y":null,"semi_basement_r":null,"elderly_alone_r":0.1985,"bldg_age30_r":null,"shelter_min_walk":6,"pop":21314,"hh":10314,"elderly65_r":0.3268,"single_hh_r":0.4005,"source_level":"emd","flood_years":[],"landslide_hist_n":0},"geometry":{"type":"Polygon","coordinates":[[[129.05757,35.18673],[129.05672,35.18287],[129.06092,35.18071],[129.06597,35.18242],[129.06683,35.18628],[129.06263,35.18843],[129.05757,35.18673]]]}},{"type":"Feature","properties":{"h3":"8830c161e1fffff","emd_code":"2623070000","emd_name":"당감4동","area_km2":0.5471,"edge":false,"slope_mean":7.53,"elev_mean":75.9,"flood_hist_n":0,"flood_depth_max_m":null,"flood_risk_100y":null,"semi_basement_r":null,"elderly_alone_r":0.2042,"bldg_age30_r":null,"shelter_min_walk":3,"pop":9697,"hh":4872,"elderly65_r":0.3048,"single_hh_r":0.4282,"source_level":"emd","flood_years":[],"landslide_hist_n":0},"geometry":{"type":"Polygon","coordinates":[[[129.0306,35.17048],[129.02975,35.16662],[129.03395,35.16447],[129.039,35.16617],[129.03985,35.17003],[129.03565,35.17219],[129.0306,35.17048]]]}},{"type":"Feature","properties":{"h3":"8830c161e3fffff","emd_code":"2623064000","emd_name":"부암1동","area_km2":0.5472,"edge":false,"slope_mean":11.01,"elev_mean":74.4,"flood_hist_n":0,"flood_depth_max_m":null,"flood_risk_100y":null,"semi_basement_r":null,"elderly_alone_r":0.1277,"bldg_age30_r":null,"shelter_min_walk":8,"pop":23927,"hh":11096,"elderly65_r":0.2177,"single_hh_r":0.37,"source_level":"emd","flood_years":[],"landslide_hist_n":0},"geometry":{"type":"Polygon","coordinates":[[[129.03985,35.17003],[129.039,35.16617],[129.0432,35.16402],[129.04825,35.16572],[129.0491,35.16958],[129.04491,35.17174],[129.03985,35.17003]]]}},{"type":"Feature","properties":{"h3":"8830c161e5fffff","emd_code":"2623076000","emd_name":"개금3동","area_km2":0.5472,"edge":false,"slope_mean":10.83,"elev_mean":84.9,"flood_hist_n":0,"flood_depth_max_m":null,"flood_risk_100y":null,"semi_basement_r":null,"elderly_alone_r":0.1884,"bldg_age30_r":null,"shelter_min_walk":2,"pop":25248,"hh":12018,"elderly65_r":0.297,"single_hh_r":0.3839,"source_level":"emd","flood_years":[],"landslide_hist_n":0},"geometry":{"type":"Polygon","coordinates":[[[129.0247,35.16492],[129.02384,35.16106],[129.02804,35.1589],[129.03309,35.16061],[129.03395,35.16447],[129.02975,35.16662],[129.0247,35.16492]]]}},{"type":"Feature","properties":{"h3":"8830c161e7fffff","emd_code":"2623067000","emd_name":"당감1동","area_km2":0.5472,"edge":false,"slope_mean":4.31,"elev_mean":41.2,"flood_hist_n":0,"flood_depth_max_m":null,"flood_risk_100y":null,"semi_basement_r":null,"elderly_alone_r":0.2092,"bldg_age30_r":null,"shelter_min_walk":2,"pop":19876,"hh":9823,"elderly65_r":0.3205,"single_hh_r":0.4124,"source_level":"emd","flood_years":[],"landslide_hist_n":0},"geometry":{"type":"Polygon","coordinates":[[[129.03395,35.16447],[129.03309,35.16061],[129.03729,35.15845],[129.04234,35.16016],[129.0432,35.16402],[129.039,35.16617],[129.03395,35.16447]]]}},{"type":"Feature","properties":{"h3":"8830c161e9fffff","emd_code":"2623066000","emd_name":"부암3동","area_km2":0.547,"edge":false,"slope_mean":16.77,"elev_mean":171.2,"flood_hist_n":0,"flood_depth_max_m":null,"flood_risk_100y":null,"semi_basement_r":null,"elderly_alone_r":0.1121,"bldg_age30_r":null,"shelter_min_walk":2,"pop":23666,"hh":9901,"elderly65_r":0.2128,"single_hh_r":0.2697,"source_level":"emd","flood_years":[],"landslide_hist_n":0},"geometry":{"type":"Polygon","coordinates":[[[129.02726,35.1765],[129.0264,35.17264],[129.0306,35.17048],[129.03565,35.17219],[129.03651,35.17605],[129.03231,35.1782],[129.02726,35.1765]]]}},{"type":"Feature","properties":{"h3":"8830c161ebfffff","emd_code":"2623066000","emd_name":"부암3동","area_km2":0.547,"edge":false,"slope_mean":18.56,"elev_mean":150.6,"flood_hist_n":0,"flood_depth_max_m":null,"flood_risk_100y":null,"semi_basement_r":null,"elderly_alone_r":0.1121,"bldg_age30_r":null,"shelter_min_walk":5,"pop":23666,"hh":9901,"elderly65_r":0.2128,"single_hh_r":0.2697,"source_level":"emd","flood_years":[],"landslide_hist_n":0},"geometry":{"type":"Polygon","coordinates":[[[129.03651,35.17605],[129.03565,35.17219],[129.03985,35.17003],[129.04491,35.17174],[129.04576,35.1756],[129.04156,35.17776],[129.03651,35.17605]]]}},{"type":"Feature","properties":{"h3":"8830c161edfffff","emd_code":"2623067000","emd_name":"당감1동","area_km2":0.5471,"edge":false,"slope_mean":15.45,"elev_mean":157.7,"flood_hist_n":0,"flood_depth_max_m":null,"flood_risk_100y":null,"semi_basement_r":null,"elderly_alone_r":0.2092,"bldg_age30_r":null,"shelter_min_walk":3,"pop":19876,"hh":9823,"elderly65_r":0.3205,"single_hh_r":0.4124,"source_level":"emd","flood_years":[],"landslide_hist_n":0},"geometry":{"type":"Polygon","coordinates":[[[129.02135,35.17093],[129.0205,35.16707],[129.0247,35.16492],[129.02975,35.16662],[129.0306,35.17048],[129.0264,35.17264],[129.02135,35.17093]]]}},{"type":"Feature","properties":{"h3":"8830c16a81fffff","emd_code":"2623075000","emd_name":"개금2동","area_km2":0.5476,"edge":true,"slope_mean":22.81,"elev_mean":399.8,"flood_hist_n":0,"flood_depth_max_m":null,"flood_risk_100y":null,"semi_basement_r":null,"elderly_alone_r":0.1957,"bldg_age30_r":null,"shelter_min_walk":22,"pop":9460,"hh":4753,"elderly65_r":0.3129,"single_hh_r":0.4376,"source_level":"emd","flood_years":[],"landslide_hist_n":0},"geometry":{"type":"Polygon","coordinates":[[[129.01367,35.13618],[129.01282,35.13232],[129.01702,35.13016],[129.02207,35.13187],[129.02292,35.13573],[129.01872,35.13789],[129.01367,35.13618]]]}},{"type":"Feature","properties":{"h3":"8830c16a83fffff","emd_code":"2623072000","emd_name":"가야2동","area_km2":0.5477,"edge":true,"slope_mean":21.31,"elev_mean":352.1,"flood_hist_n":0,"flood_depth_max_m":null,"flood_risk_100y":null,"semi_basement_r":null,"elderly_alone_r":0.1552,"bldg_age30_r":null,"shelter_min_walk":17,"pop":17539,"hh":8120,"elderly65_r":0.2872,"single_hh_r":0.3739,"source_level":"emd","flood_years":[],"landslide_hist_n":0},"geometry":{"type":"Polygon","coordinates":[[[129.02292,35.13573],[129.02207,35.13187],[129.02627,35.12971],[129.03132,35.13142],[129.03217,35.13528],[129.02797,35.13744],[129.02292,35.13573]]]}},{"type":"Feature","properties":{"h3":"8830c16a89fffff","emd_code":"2623075000","emd_name":"개금2동","area_km2":0.5475,"edge":false,"slope_mean":23.62,"elev_mean":319.1,"flood_hist_n":0,"flood_depth_max_m":null,"flood_risk_100y":null,"semi_basement_r":null,"elderly_alone_r":0.1957,"bldg_age30_r":null,"shelter_min_walk":12,"pop":9460,"hh":4753,"elderly65_r":0.3129,"single_hh_r":0.4376,"source_level":"emd","flood_years":[],"landslide_hist_n":0},"geometry":{"type":"Polygon","coordinates":[[[129.01033,35.1422],[129.00947,35.13833],[129.01367,35.13618],[129.01872,35.13789],[129.01958,35.14175],[129.01538,35.1439],[129.01033,35.1422]]]}},{"type":"Feature","properties":{"h3":"8830c16a8bfffff","emd_code":"2623072000","emd_name":"가야2동","area_km2":0.5475,"edge":false,"slope_mean":21.66,"elev_mean":290.1,"flood_hist_n":0,"flood_depth_max_m":null,"flood_risk_100y":null,"semi_basement_r":null,"elderly_alone_r":0.1552,"bldg_age30_r":null,"shelter_min_walk":13,"pop":17539,"hh":8120,"elderly65_r":0.2872,"single_hh_r":0.3739,"source_level":"emd","flood_years":[],"landslide_hist_n":0},"geometry":{"type":"Polygon","coordinates":[[[129.01958,35.14175],[129.01872,35.13789],[129.02292,35.13573],[129.02797,35.13744],[129.02883,35.1413],[129.02463,35.14345],[129.01958,35.14175]]]}},{"type":"Feature","properties":{"h3":"8830c16a91fffff","emd_code":"2623078000","emd_name":"범천2동","area_km2":0.5476,"edge":true,"slope_mean":19.15,"elev_mean":192.9,"flood_hist_n":0,"flood_depth_max_m":null,"flood_risk_100y":null,"semi_basement_r":null,"elderly_alone_r":0.1723,"bldg_age30_r":null,"shelter_min_walk":11,"pop":21444,"hh":11429,"elderly65_r":0.2702,"single_hh_r":0.4674,"source_level":"emd","flood_years":[],"landslide_hist_n":0},"geometry":{"type":"Polygon","coordinates":[[[129.03808,35.14085],[129.03722,35.13698],[129.04142,35.13483],[129.04647,35.13653],[129.04733,35.1404],[129.04313,35.14255],[129.03808,35.14085]]]}},{"type":"Feature","properties":{"h3":"8830c16a99fffff","emd_code":"2623078000","emd_name":"범천2동","area_km2":0.5475,"edge":false,"slope_mean":16.91,"elev_mean":185.1,"flood_hist_n":0,"flood_depth_max_m":null,"flood_risk_100y":null,"semi_basement_r":null,"elderly_alone_r":0.1723,"bldg_age30_r":null,"shelter_min_walk":6,"pop":21444,"hh":11429,"elderly65_r":0.2702,"single_hh_r":0.4674,"source_level":"emd","flood_years":[],"landslide_hist_n":0},"geometry":{"type":"Polygon","coordinates":[[[129.03473,35.14687],[129.03388,35.143],[129.03808,35.14085],[129.04313,35.14255],[129.04398,35.14642],[129.03978,35.14857],[129.03473,35.14687]]]}},{"type":"Feature","properties":{"h3":"8830c16a9bfffff","emd_code":"2623078000","emd_name":"범천2동","area_km2":0.5476,"edge":true,"slope_mean":17.81,"elev_mean":123.3,"flood_hist_n":0,"flood_depth_max_m":null,"flood_risk_100y":null,"semi_basement_r":null,"elderly_alone_r":0.1723,"bldg_age30_r":null,"shelter_min_walk":9,"pop":21444,"hh":11429,"elderly65_r":0.2702,"single_hh_r":0.4674,"source_level":"emd","flood_years":[],"landslide_hist_n":0},"geometry":{"type":"Polygon","coordinates":[[[129.04398,35.14642],[129.04313,35.14255],[129.04733,35.1404],[129.05238,35.1421],[129.05323,35.14596],[129.04904,35.14812],[129.04398,35.14642]]]}},{"type":"Feature","properties":{"h3":"8830c16a9dfffff","emd_code":"2623071000","emd_name":"가야제1동","area_km2":0.5476,"edge":false,"slope_mean":17.68,"elev_mean":239.2,"flood_hist_n":0,"flood_depth_max_m":null,"flood_risk_100y":null,"semi_basement_r":null,"elderly_alone_r":0.1844,"bldg_age30_r":null,"shelter_min_walk":11,"pop":15867,"hh":9151,"elderly65_r":0.2953,"single_hh_r":0.5688,"source_level":"emd","flood_years":[],"landslide_hist_n":0},"geometry":{"type":"Polygon","coordinates":[[[129.02883,35.1413],[129.02797,35.13744],[129.03217,35.13528],[129.03722,35.13698],[129.03808,35.14085],[129.03388,35.143],[129.02883,35.1413]]]}},{"type":"Feature","properties":{"h3":"8830c16ac3fffff","emd_code":"2623075000","emd_name":"개금2동","area_km2":0.5474,"edge":true,"slope_mean":13.33,"elev_mean":115.9,"flood_hist_n":0,"flood_depth_max_m":null,"flood_risk_100y":null,"semi_basement_r":null,"elderly_alone_r":0.1957,"bldg_age30_r":null,"shelter_min_walk":1,"pop":9460,"hh":4753,"elderly65_r":0.3129,"single_hh_r":0.4376,"source_level":"emd","flood_years":[],"landslide_hist_n":0},"geometry":{"type":"Polygon","coordinates":[[[129.00698,35.14821],[129.00613,35.14435],[129.01033,35.1422],[129.01538,35.1439],[129.01623,35.14777],[129.01203,35.14992],[129.00698,35.14821]]]}},{"type":"Feature","properties":{"h3":"8830c16ad1fffff","emd_code":"2623072000","emd_name":"가야2동","area_km2":0.5474,"edge":false,"slope_mean":6.11,"elev_mean":62.0,"flood_hist_n":0,"flood_depth_max_m":null,"flood_risk_100y":null,"semi_basement_r":null,"elderly_alone_r":0.1552,"bldg_age30_r":null,"shelter_min_walk":3,"pop":17539,"hh":8120,"elderly65_r":0.2872,"single_hh_r":0.3739,"source_level":"emd","flood_years":[],"landslide_hist_n":0},"geometry":{"type":"Polygon","coordinates":[[[129.02214,35.15333],[129.02128,35.14947],[129.02548,35.14732],[129.03053,35.14902],[129.03139,35.15288],[129.02719,35.15504],[129.02214,35.15333]]]}},{"type":"Feature","properties":{"h3":"8830c16ad3fffff","emd_code":"2623071000","emd_name":"가야제1동","area_km2":0.5474,"edge":false,"slope_mean":10.77,"elev_mean":74.1,"flood_hist_n":0,"flood_depth_max_m":null,"flood_risk_100y":null,"semi_basement_r":null,"elderly_alone_r":0.1844,"bldg_age30_r":null,"shelter_min_walk":4,"pop":15867,"hh":9151,"elderly65_r":0.2953,"single_hh_r":0.5688,"source_level":"emd","flood_years":[],"landslide_hist_n":0},"geometry":{"type":"Polygon","coordinates":[[[129.03139,35.15288],[129.03053,35.14902],[129.03473,35.14687],[129.03978,35.14857],[129.04064,35.15243],[129.03644,35.15459],[129.03139,35.15288]]]}},{"type":"Feature","properties":{"h3":"8830c16ad5fffff","emd_code":"2623075000","emd_name":"개금2동","area_km2":0.5474,"edge":false,"slope_mean":12.02,"elev_mean":138.2,"flood_hist_n":0,"flood_depth_max_m":null,"flood_risk_100y":null,"semi_basement_r":null,"elderly_alone_r":0.1957,"bldg_age30_r":null,"shelter_min_walk":3,"pop":9460,"hh":4753,"elderly65_r":0.3129,"single_hh_r":0.4376,"source_level":"emd","flood_years":[],"landslide_hist_n":0},"geometry":{"type":"Polygon","coordinates":[[[129.01623,35.14777],[129.01538,35.1439],[129.01958,35.14175],[129.02463,35.14345],[129.02548,35.14732],[129.02128,35.14947],[129.01623,35.14777]]]}},{"type":"Feature","properties":{"h3":"8830c16ad7fffff","emd_code":"2623071000","emd_name":"가야제1동","area_km2":0.5475,"edge":false,"slope_mean":14.1,"elev_mean":130.0,"flood_hist_n":0,"flood_depth_max_m":null,"flood_risk_100y":null,"semi_basement_r":null,"elderly_alone_r":0.1844,"bldg_age30_r":null,"shelter_min_walk":6,"pop":15867,"hh":9151,"elderly65_r":0.2953,"single_hh_r":0.5688,"source_level":"emd","flood_years":[],"landslide_hist_n":0},"geometry":{"type":"Polygon","coordinates":[[[129.02548,35.14732],[129.02463,35.14345],[129.02883,35.1413],[129.03388,35.143],[129.03473,35.14687],[129.03053,35.14902],[129.02548,35.14732]]]}},{"type":"Feature","properties":{"h3":"8830c16ad9fffff","emd_code":"2623076000","emd_name":"개금3동","area_km2":0.5472,"edge":false,"slope_mean":9.03,"elev_mean":67.8,"flood_hist_n":0,"flood_depth_max_m":null,"flood_risk_100y":null,"semi_basement_r":null,"elderly_alone_r":0.1884,"bldg_age30_r":null,"shelter_min_walk":7,"pop":25248,"hh":12018,"elderly65_r":0.297,"single_hh_r":0.3839,"source_level":"emd","flood_years":[],"landslide_hist_n":0},"geometry":{"type":"Polygon","coordinates":[[[129.01879,35.15935],[129.01794,35.15549],[129.02214,35.15333],[129.02719,35.15504],[129.02804,35.1589],[129.02384,35.16106],[129.01879,35.15935]]]}},{"type":"Feature","properties":{"h3":"8830c16adbfffff","emd_code":"2623068000","emd_name":"당감2동","area_km2":0.5473,"edge":false,"slope_mean":4.71,"elev_mean":36.7,"flood_hist_n":1,"flood_depth_max_m":0.731,"flood_risk_100y":null,"semi_basement_r":null,"elderly_alone_r":0.135,"bldg_age30_r":null,"shelter_min_walk":5,"pop":11450,"hh":5335,"elderly65_r":0.2492,"single_hh_r":0.3633,"source_level":"emd","flood_years":[2014],"landslide_hist_n":0},"geometry":{"type":"Polygon","coordinates":[[[129.02804,35.1589],[129.02719,35.15504],[129.03139,35.15288],[129.03644,35.15459],[129.03729,35.15845],[129.03309,35.16061],[129.02804,35.1589]]]}},{"type":"Feature","properties":{"h3":"8830c16addfffff","emd_code":"2623074000","emd_name":"개금1동","area_km2":0.5473,"edge":false,"slope_mean":6.83,"elev_mean":63.7,"flood_hist_n":0,"flood_depth_max_m":null,"flood_risk_100y":null,"semi_basement_r":null,"elderly_alone_r":0.1148,"bldg_age30_r":null,"shelter_min_walk":5,"pop":18193,"hh":10113,"elderly65_r":0.1999,"single_hh_r":0.5572,"source_level":"emd","flood_years":[],"landslide_hist_n":0},"geometry":{"type":"Polygon","coordinates":[[[129.01289,35.15378],[129.01203,35.14992],[129.01623,35.14777],[129.02128,35.14947],[129.02214,35.15333],[129.01794,35.15549],[129.01289,35.15378]]]}},{"type":"Feature","properties":{"h3":"8830c16f41fffff","emd_code":"2623077000","emd_name":"범천1동","area_km2":0.5477,"edge":true,"slope_mean":7.25,"elev_mean":17.8,"flood_hist_n":1,"flood_depth_max_m":0.669,"flood_risk_100y":null,"semi_basement_r":null,"elderly_alone_r":0.1131,"bldg_age30_r":null,"shelter_min_walk":1,"pop":12354,"hh":7885,"elderly65_r":0.2115,"single_hh_r":0.6364,"source_level":"emd","flood_years":[2020],"landslide_hist_n":0},"geometry":{"type":"Polygon","coordinates":[[[129.06249,35.14551],[129.06163,35.14165],[129.06583,35.13949],[129.07088,35.1412],[129.07174,35.14506],[129.06754,35.14722],[129.06249,35.14551]]]}},{"type":"Feature","properties":{"h3":"8830c16f45fffff","emd_code":"2623077000","emd_name":"범천1동","area_km2":0.5477,"edge":true,"slope_mean":5.47,"elev_mean":7.8,"flood_hist_n":1,"flood_depth_max_m":1.121,"flood_risk_100y":null,"semi_basement_r":null,"elderly_alone_r":0.1131,"bldg_age30_r":null,"shelter_min_walk":2,"pop":12354,"hh":7885,"elderly65_r":0.2115,"single_hh_r":0.6364,"source_level":"emd","flood_years":[2020],"landslide_hist_n":0},"geometry":{"type":"Polygon","coordinates":[[[129.05658,35.13994],[129.05573,35.13608],[129.05992,35.13392],[129.06498,35.13563],[129.06583,35.13949],[129.06163,35.14165],[129.05658,35.13994]]]}},{"type":"Feature","properties":{"h3":"8830c16f49fffff","emd_code":"2623060000","emd_name":"전포1동","area_km2":0.5476,"edge":false,"slope_mean":4.83,"elev_mean":12.0,"flood_hist_n":1,"flood_depth_max_m":0.449,"flood_risk_100y":null,"semi_basement_r":null,"elderly_alone_r":0.0877,"bldg_age30_r":null,"shelter_min_walk":6,"pop":20294,"hh":12009,"elderly65_r":0.1616,"single_hh_r":0.6071,"source_level":"emd","flood_years":[2020],"landslide_hist_n":0},"geometry":{"type":"Polygon","coordinates":[[[129.05914,35.15153],[129.05829,35.14767],[129.06249,35.14551],[129.06754,35.14722],[129.06839,35.15108],[129.06419,35.15324],[129.05914,35.15153]]]}},{"type":"Feature","properties":{"h3":"8830c16f4bfffff","emd_code":"2623060000","emd_name":"전포1동","area_km2":0.5476,"edge":true,"slope_mean":16.43,"elev_mean":91.4,"flood_hist_n":0,"flood_depth_max_m":null,"flood_risk_100y":null,"semi_basement_r":null,"elderly_alone_r":0.0877,"bldg_age30_r":null,"shelter_min_walk":2,"pop":20294,"hh":12009,"elderly65_r":0.1616,"single_hh_r":0.6071,"source_level":"emd","flood_years":[],"landslide_hist_n":0},"geometry":{"type":"Polygon","coordinates":[[[129.06839,35.15108],[129.06754,35.14722],[129.07174,35.14506],[129.07679,35.14676],[129.07765,35.15063],[129.07345,35.15278],[129.06839,35.15108]]]}},{"type":"Feature","properties":{"h3":"8830c16f4dfffff","emd_code":"2623077000","emd_name":"범천1동","area_km2":0.5476,"edge":false,"slope_mean":8.25,"elev_mean":19.5,"flood_hist_n":1,"flood_depth_max_m":0.449,"flood_risk_100y":null,"semi_basement_r":null,"elderly_alone_r":0.1131,"bldg_age30_r":null,"shelter_min_walk":2,"pop":12354,"hh":7885,"elderly65_r":0.2115,"single_hh_r":0.6364,"source_level":"emd","flood_years":[2020],"landslide_hist_n":0},"geometry":{"type":"Polygon","coordinates":[[[129.05323,35.14596],[129.05238,35.1421],[129.05658,35.13994],[129.06163,35.14165],[129.06249,35.14551],[129.05829,35.14767],[129.05323,35.14596]]]}}]}