{"type":"FeatureCollection","name":"grid_26260_h3r8","meta":{"sgg_code":"26260","h3_res":8,"n_cells":48,"dem":"Copernicus GLO-30 (bbox-mean)","crs":"EPSG:4326","jumin_basis":"2026-07","flood_src":"행안부 침수흔적도(전국, 재난안전데이터공유플랫폼)","landslide_src":"행안부 산사태 발생이력"},"features":[{"type":"Feature","properties":{"h3":"8830c16011fffff","emd_code":"2626056000","emd_name":"온천2동","area_km2":0.5464,"edge":false,"slope_mean":23.27,"elev_mean":355.7,"flood_hist_n":0,"flood_depth_max_m":null,"flood_risk_100y":null,"semi_basement_r":null,"elderly_alone_r":0.1172,"bldg_age30_r":null,"shelter_min_walk":16,"pop":23773,"hh":9625,"elderly65_r":0.2148,"single_hh_r":0.285,"source_level":"emd","flood_years":[],"landslide_hist_n":0},"geometry":{"type":"Polygon","coordinates":[[[129.056,35.2219],[129.05515,35.21804],[129.05935,35.21589],[129.0644,35.21759],[129.06526,35.22145],[129.06106,35.2236],[129.056,35.2219]]]}},{"type":"Feature","properties":{"h3":"8830c16013fffff","emd_code":"2626055000","emd_name":"온천1동","area_km2":0.5464,"edge":false,"slope_mean":20.53,"elev_mean":165.8,"flood_hist_n":0,"flood_depth_max_m":null,"flood_risk_100y":null,"semi_basement_r":null,"elderly_alone_r":0.1164,"bldg_age30_r":null,"shelter_min_walk":12,"pop":34019,"hh":17241,"elderly65_r":0.1827,"single_hh_r":0.4762,"source_level":"emd","flood_years":[],"landslide_hist_n":0},"geometry":{"type":"Polygon","coordinates":[[[129.06526,35.22145],[129.0644,35.21759],[129.0686,35.21544],[129.07366,35.21714],[129.07451,35.221],[129.07031,35.22315],[129.06526,35.22145]]]}},{"type":"Feature","properties":{"h3":"8830c16015fffff","emd_code":"2626056000","emd_name":"온천2동","area_km2":0.5464,"edge":false,"slope_mean":21.38,"elev_mean":268.9,"flood_hist_n":0,"flood_depth_max_m":null,"flood_risk_100y":null,"semi_basement_r":null,"elderly_alone_r":0.1172,"bldg_age30_r":null,"shelter_min_walk":15,"pop":23773,"hh":9625,"elderly65_r":0.2148,"single_hh_r":0.285,"source_level":"emd","flood_years":[],"landslide_hist_n":0},"geometry":{"type":"Polygon","coordinates":[[[129.0501,35.21634],[129.04924,35.21248],[129.05344,35.21033],[129.0585,35.21203],[129.05935,35.21589],[129.05515,35.21804],[129.0501,35.21634]]]}},{"type":"Feature","properties":{"h3":"8830c16017fffff","emd_code":"2626056000","emd_name":"온천2동","area_km2":0.5465,"edge":false,"slope_mean":14.99,"elev_mean":124.2,"flood_hist_n":0,"flood_depth_max_m":null,"flood_risk_100y":null,"semi_basement_r":null,"elderly_alone_r":0.1172,"bldg_age30_r":null,"shelter_min_walk":5,"pop":23773,"hh":9625,"elderly65_r":0.2148,"single_hh_r":0.285,"source_level":"emd","flood_years":[],"landslide_hist_n":0},"geometry":{"type":"Polygon","coordinates":[[[129.05935,35.21589],[129.0585,35.21203],[129.0627,35.20988],[129.06775,35.21158],[129.0686,35.21544],[129.0644,35.21759],[129.05935,35.21589]]]}},{"type":"Feature","properties":{"h3":"8830c16019fffff","emd_code":"2626055000","emd_name":"온천1동","area_km2":0.5462,"edge":true,"slope_mean":16.4,"elev_mean":488.5,"flood_hist_n":0,"flood_depth_max_m":null,"flood_risk_100y":null,"semi_basement_r":null,"elderly_alone_r":0.1164,"bldg_age30_r":null,"shelter_min_walk":26,"pop":34019,"hh":17241,"elderly65_r":0.1827,"single_hh_r":0.4762,"source_level":"emd","flood_years":[],"landslide_hist_n":0},"geometry":{"type":"Polygon","coordinates":[[[129.05266,35.22791],[129.0518,35.22405],[129.056,35.2219],[129.06106,35.2236],[129.06191,35.22746],[129.05771,35.22961],[129.05266,35.22791]]]}},{"type":"Feature","properties":{"h3":"8830c1601bfffff","emd_code":"2626055000","emd_name":"온천1동","area_km2":0.5463,"edge":false,"slope_mean":23.3,"elev_mean":361.9,"flood_hist_n":0,"flood_depth_max_m":null,"flood_risk_100y":null,"semi_basement_r":null,"elderly_alone_r":0.1164,"bldg_age30_r":null,"shelter_min_walk":14,"pop":34019,"hh":17241,"elderly65_r":0.1827,"single_hh_r":0.4762,"source_level":"emd","flood_years":[],"landslide_hist_n":0},"geometry":{"type":"Polygon","coordinates":[[[129.06191,35.22746],[129.06106,35.2236],[129.06526,35.22145],[129.07031,35.22315],[129.07117,35.22701],[129.06697,35.22916],[129.06191,35.22746]]]}},{"type":"Feature","properties":{"h3":"8830c16031fffff","emd_code":"2626059000","emd_name":"사직2동","area_km2":0.5466,"edge":false,"slope_mean":18.57,"elev_mean":186.3,"flood_hist_n":0,"flood_depth_max_m":null,"flood_risk_100y":null,"semi_basement_r":null,"elderly_alone_r":0.0861,"bldg_age30_r":null,"shelter_min_walk":4,"pop":24114,"hh":8748,"elderly65_r":0.169,"single_hh_r":0.1783,"source_level":"emd","flood_years":[],"landslide_hist_n":0},"geometry":{"type":"Polygon","coordinates":[[[129.04754,35.20477],[129.04668,35.20091],[129.05088,35.19876],[129.05593,35.20046],[129.05679,35.20432],[129.05259,35.20647],[129.04754,35.20477]]]}},{"type":"Feature","properties":{"h3":"8830c16033fffff","emd_code":"2626058000","emd_name":"사직1동","area_km2":0.5467,"edge":false,"slope_mean":7.22,"elev_mean":50.2,"flood_hist_n":0,"flood_depth_max_m":null,"flood_risk_100y":null,"semi_basement_r":null,"elderly_alone_r":0.1639,"bldg_age30_r":null,"shelter_min_walk":1,"pop":11654,"hh":5272,"elderly65_r":0.2331,"single_hh_r":0.3871,"source_level":"emd","flood_years":[],"landslide_hist_n":0},"geometry":{"type":"Polygon","coordinates":[[[129.05679,35.20432],[129.05593,35.20046],[129.06013,35.19831],[129.06519,35.20001],[129.06604,35.20387],[129.06184,35.20602],[129.05679,35.20432]]]}},{"type":"Feature","properties":{"h3":"8830c16035fffff","emd_code":"2626059000","emd_name":"사직2동","area_km2":0.5467,"edge":false,"slope_mean":21.99,"elev_mean":271.8,"flood_hist_n":0,"flood_depth_max_m":null,"flood_risk_100y":null,"semi_basement_r":null,"elderly_alone_r":0.0861,"bldg_age30_r":null,"shelter_min_walk":7,"pop":24114,"hh":8748,"elderly65_r":0.169,"single_hh_r":0.1783,"source_level":"emd","flood_years":[],"landslide_hist_n":0},"geometry":{"type":"Polygon","coordinates":[[[129.04163,35.1992],[129.04078,35.19535],[129.04497,35.19319],[129.05003,35.1949],[129.05088,35.19876],[129.04668,35.20091],[129.04163,35.1992]]]}},{"type":"Feature","properties":{"h3":"8830c16037fffff","emd_code":"2626059000","emd_name":"사직2동","area_km2":0.5467,"edge":false,"slope_mean":13.15,"elev_mean":87.3,"flood_hist_n":0,"flood_depth_max_m":null,"flood_risk_100y":null,"semi_basement_r":null,"elderly_alone_r":0.0861,"bldg_age30_r":null,"shelter_min_walk":3,"pop":24114,"hh":8748,"elderly65_r":0.169,"single_hh_r":0.1783,"source_level":"emd","flood_years":[],"landslide_hist_n":0},"geometry":{"type":"Polygon","coordinates":[[[129.05088,35.19876],[129.05003,35.1949],[129.05423,35.19274],[129.05928,35.19445],[129.06013,35.19831],[129.05593,35.20046],[129.05088,35.19876]]]}},{"type":"Feature","properties":{"h3":"8830c16039fffff","emd_code":"2626059000","emd_name":"사직2동","area_km2":0.5465,"edge":true,"slope_mean":20.45,"elev_mean":247.0,"flood_hist_n":0,"flood_depth_max_m":null,"flood_risk_100y":null,"semi_basement_r":null,"elderly_alone_r":0.0861,"bldg_age30_r":null,"shelter_min_walk":10,"pop":24114,"hh":8748,"elderly65_r":0.169,"single_hh_r":0.1783,"source_level":"emd","flood_years":[],"landslide_hist_n":0},"geometry":{"type":"Polygon","coordinates":[[[129.04419,35.21078],[129.04334,35.20692],[129.04754,35.20477],[129.05259,35.20647],[129.05344,35.21033],[129.04924,35.21248],[129.04419,35.21078]]]}},{"type":"Feature","properties":{"h3":"8830c1603bfffff","emd_code":"2626057000","emd_name":"온천3동","area_km2":0.5465,"edge":false,"slope_mean":18.71,"elev_mean":161.8,"flood_hist_n":0,"flood_depth_max_m":null,"flood_risk_100y":null,"semi_basement_r":null,"elderly_alone_r":0.1395,"bldg_age30_r":null,"shelter_min_walk":4,"pop":35388,"hh":17424,"elderly65_r":0.2571,"single_hh_r":0.4314,"source_level":"emd","flood_years":[],"landslide_hist_n":0},"geometry":{"type":"Polygon","coordinates":[[[129.05344,35.21033],[129.05259,35.20647],[129.05679,35.20432],[129.06184,35.20602],[129.0627,35.20988],[129.0585,35.21203],[129.05344,35.21033]]]}},{"type":"Feature","properties":{"h3":"8830c1603dfffff","emd_code":"2626059000","emd_name":"사직2동","area_km2":0.5466,"edge":true,"slope_mean":18.33,"elev_mean":240.9,"flood_hist_n":0,"flood_depth_max_m":null,"flood_risk_100y":null,"semi_basement_r":null,"elderly_alone_r":0.0861,"bldg_age30_r":null,"shelter_min_walk":11,"pop":24114,"hh":8748,"elderly65_r":0.169,"single_hh_r":0.1783,"source_level":"emd","flood_years":[],"landslide_hist_n":0},"geometry":{"type":"Polygon","coordinates":[[[129.03828,35.20522],[129.03743,35.20136],[129.04163,35.1992],[129.04668,35.20091],[129.04754,35.20477],[129.04334,35.20692],[129.03828,35.20522]]]}},{"type":"Feature","properties":{"h3":"8830c16081fffff","emd_code":"2626076200","emd_name":"명장2동","area_km2":0.5467,"edge":false,"slope_mean":9.75,"elev_mean":47.1,"flood_hist_n":0,"flood_depth_max_m":null,"flood_risk_100y":null,"semi_basement_r":null,"elderly_alone_r":0.1936,"bldg_age30_r":null,"shelter_min_walk":3,"pop":13039,"hh":6359,"elderly65_r":0.3358,"single_hh_r":0.3862,"source_level":"emd","flood_years":[],"landslide_hist_n":0},"geometry":{"type":"Polygon","coordinates":[[[129.09637,35.21408],[129.09551,35.21023],[129.09971,35.20807],[129.10477,35.20977],[129.10562,35.21363],[129.10142,35.21579],[129.09637,35.21408]]]}},{"type":"Feature","properties":{"h3":"8830c16083fffff","emd_code":"2626076100","emd_name":"명장1동","area_km2":0.5467,"edge":true,"slope_mean":15.68,"elev_mean":64.4,"flood_hist_n":0,"flood_depth_max_m":null,"flood_risk_100y":null,"semi_basement_r":null,"elderly_alone_r":0.1928,"bldg_age30_r":null,"shelter_min_walk":3,"pop":12860,"hh":6069,"elderly65_r":0.3126,"single_hh_r":0.3862,"source_level":"emd","flood_years":[],"landslide_hist_n":0},"geometry":{"type":"Polygon","coordinates":[[[129.10562,35.21363],[129.10477,35.20977],[129.10897,35.20762],[129.11402,35.20932],[129.11488,35.21318],[129.11068,35.21533],[129.10562,35.21363]]]}},{"type":"Feature","properties":{"h3":"8830c16085fffff","emd_code":"2626052000","emd_name":"복산동","area_km2":0.5467,"edge":false,"slope_mean":13.8,"elev_mean":54.6,"flood_hist_n":0,"flood_depth_max_m":null,"flood_risk_100y":null,"semi_basement_r":null,"elderly_alone_r":0.2634,"bldg_age30_r":null,"shelter_min_walk":6,"pop":7730,"hh":4005,"elderly65_r":0.404,"single_hh_r":0.4569,"source_level":"emd","flood_years":[],"landslide_hist_n":0},"geometry":{"type":"Polygon","coordinates":[[[129.09046,35.20852],[129.0896,35.20467],[129.0938,35.20251],[129.09886,35.20421],[129.09971,35.20807],[129.09551,35.21023],[129.09046,35.20852]]]}},{"type":"Feature","properties":{"h3":"8830c16087fffff","emd_code":"2626076100","emd_name":"명장1동","area_km2":0.5468,"edge":false,"slope_mean":6.46,"elev_mean":27.7,"flood_hist_n":0,"flood_depth_max_m":null,"flood_risk_100y":null,"semi_basement_r":null,"elderly_alone_r":0.1928,"bldg_age30_r":null,"shelter_min_walk":2,"pop":12860,"hh":6069,"elderly65_r":0.3126,"single_hh_r":0.3862,"source_level":"emd","flood_years":[],"landslide_hist_n":0},"geometry":{"type":"Polygon","coordinates":[[[129.09971,35.20807],[129.09886,35.20421],[129.10306,35.20206],[129.10811,35.20376],[129.10897,35.20762],[129.10477,35.20977],[129.09971,35.20807]]]}},{"type":"Feature","properties":{"h3":"8830c16089fffff","emd_code":"2626076200","emd_name":"명장2동","area_km2":0.5466,"edge":true,"slope_mean":10.77,"elev_mean":66.0,"flood_hist_n":0,"flood_depth_max_m":null,"flood_risk_100y":null,"semi_basement_r":null,"elderly_alone_r":0.1936,"bldg_age30_r":null,"shelter_min_walk":4,"pop":13039,"hh":6359,"elderly65_r":0.3358,"single_hh_r":0.3862,"source_level":"emd","flood_years":[],"landslide_hist_n":0},"geometry":{"type":"Polygon","coordinates":[[[129.09302,35.2201],[129.09217,35.21624],[129.09637,35.21408],[129.10142,35.21579],[129.10228,35.21964],[129.09808,35.2218],[129.09302,35.2201]]]}},{"type":"Feature","properties":{"h3":"8830c1608dfffff","emd_code":"2626054500","emd_name":"명륜동","area_km2":0.5466,"edge":false,"slope_mean":16.23,"elev_mean":71.9,"flood_hist_n":0,"flood_depth_max_m":null,"flood_risk_100y":null,"semi_basement_r":null,"elderly_alone_r":0.0957,"bldg_age30_r":null,"shelter_min_walk":5,"pop":24893,"hh":9574,"elderly65_r":0.1666,"single_hh_r":0.2394,"source_level":"emd","flood_years":[],"landslide_hist_n":0},"geometry":{"type":"Polygon","coordinates":[[[129.08711,35.21454],[129.08626,35.21068],[129.09046,35.20852],[129.09551,35.21023],[129.09637,35.21408],[129.09217,35.21624],[129.08711,35.21454]]]}},{"type":"Feature","properties":{"h3":"8830c160a1fffff","emd_code":"2626051000","emd_name":"수민동","area_km2":0.5469,"edge":false,"slope_mean":4.08,"elev_mean":8.4,"flood_hist_n":3,"flood_depth_max_m":1.3,"flood_risk_100y":null,"semi_basement_r":null,"elderly_alone_r":0.1592,"bldg_age30_r":null,"shelter_min_walk":1,"pop":28879,"hh":13006,"elderly65_r":0.2679,"single_hh_r":0.3465,"source_level":"emd","flood_years":[2014,2017,2020],"landslide_hist_n":0},"geometry":{"type":"Polygon","coordinates":[[[129.0879,35.19695],[129.08704,35.19309],[129.09124,35.19094],[129.0963,35.19264],[129.09715,35.1965],[129.09295,35.19865],[129.0879,35.19695]]]}},{"type":"Feature","properties":{"h3":"8830c160a3fffff","emd_code":"2626074000","emd_name":"안락1동","area_km2":0.547,"edge":false,"slope_mean":3.6,"elev_mean":8.6,"flood_hist_n":1,"flood_depth_max_m":0.387,"flood_risk_100y":null,"semi_basement_r":null,"elderly_alone_r":0.2148,"bldg_age30_r":null,"shelter_min_walk":1,"pop":12838,"hh":6598,"elderly65_r":0.3463,"single_hh_r":0.4606,"source_level":"emd","flood_years":[2014],"landslide_hist_n":0},"geometry":{"type":"Polygon","coordinates":[[[129.09715,35.1965],[129.0963,35.19264],[129.1005,35.19048],[129.10555,35.19218],[129.10641,35.19604],[129.1022,35.1982],[129.09715,35.1965]]]}},{"type":"Feature","properties":{"h3":"8830c160a7fffff","emd_code":"2626051000","emd_name":"수민동","area_km2":0.547,"edge":true,"slope_mean":5.89,"elev_mean":19.1,"flood_hist_n":3,"flood_depth_max_m":1.3,"flood_risk_100y":null,"semi_basement_r":null,"elderly_alone_r":0.1592,"bldg_age30_r":null,"shelter_min_walk":1,"pop":28879,"hh":13006,"elderly65_r":0.2679,"single_hh_r":0.3465,"source_level":"emd","flood_years":[2014,2017,2020],"landslide_hist_n":0},"geometry":{"type":"Polygon","coordinates":[[[129.09124,35.19094],[129.09039,35.18708],[129.09459,35.18492],[129.09964,35.18662],[129.1005,35.19048],[129.0963,35.19264],[129.09124,35.19094]]]}},{"type":"Feature","properties":{"h3":"8830c160a9fffff","emd_code":"2626051000","emd_name":"수민동","area_km2":0.5468,"edge":false,"slope_mean":5.38,"elev_mean":16.6,"flood_hist_n":1,"flood_depth_max_m":0.69,"flood_risk_100y":null,"semi_basement_r":null,"elderly_alone_r":0.1592,"bldg_age30_r":null,"shelter_min_walk":2,"pop":28879,"hh":13006,"elderly65_r":0.2679,"single_hh_r":0.3465,"source_level":"emd","flood_years":[2014],"landslide_hist_n":0},"geometry":{"type":"Polygon","coordinates":[[[129.08455,35.20296],[129.0837,35.19911],[129.0879,35.19695],[129.09295,35.19865],[129.0938,35.20251],[129.0896,35.20467],[129.08455,35.20296]]]}},{"type":"Feature","properties":{"h3":"8830c160abfffff","emd_code":"2626074000","emd_name":"안락1동","area_km2":0.5469,"edge":false,"slope_mean":6.68,"elev_mean":21.8,"flood_hist_n":2,"flood_depth_max_m":0.5,"flood_risk_100y":null,"semi_basement_r":null,"elderly_alone_r":0.2148,"bldg_age30_r":null,"shelter_min_walk":2,"pop":12838,"hh":6598,"elderly65_r":0.3463,"single_hh_r":0.4606,"source_level":"emd","flood_years":[2014,2020],"landslide_hist_n":0},"geometry":{"type":"Polygon","coordinates":[[[129.0938,35.20251],[129.09295,35.19865],[129.09715,35.1965],[129.1022,35.1982],[129.10306,35.20206],[129.09886,35.20421],[129.0938,35.20251]]]}},{"type":"Feature","properties":{"h3":"8830c160adfffff","emd_code":"2626051000","emd_name":"수민동","area_km2":0.5469,"edge":true,"slope_mean":4.66,"elev_mean":8.8,"flood_hist_n":3,"flood_depth_max_m":1.0,"flood_risk_100y":null,"semi_basement_r":null,"elderly_alone_r":0.1592,"bldg_age30_r":null,"shelter_min_walk":2,"pop":28879,"hh":13006,"elderly65_r":0.2679,"single_hh_r":0.3465,"source_level":"emd","flood_years":[2014,2017,2020],"landslide_hist_n":0},"geometry":{"type":"Polygon","coordinates":[[[129.07864,35.1974],[129.07779,35.19354],[129.08199,35.19139],[129.08704,35.19309],[129.0879,35.19695],[129.0837,35.19911],[129.07864,35.1974]]]}},{"type":"Feature","properties":{"h3":"8830c160b1fffff","emd_code":"2626075000","emd_name":"안락2동","area_km2":0.547,"edge":true,"slope_mean":5.67,"elev_mean":13.5,"flood_hist_n":0,"flood_depth_max_m":null,"flood_risk_100y":null,"semi_basement_r":null,"elderly_alone_r":0.153,"bldg_age30_r":null,"shelter_min_walk":5,"pop":25166,"hh":10982,"elderly65_r":0.2693,"single_hh_r":0.3103,"source_level":"emd","flood_years":[],"landslide_hist_n":0},"geometry":{"type":"Polygon","coordinates":[[[129.11231,35.2016],[129.11146,35.19775],[129.11566,35.19559],[129.12072,35.19729],[129.12157,35.20115],[129.11737,35.20331],[129.11231,35.2016]]]}},{"type":"Feature","properties":{"h3":"8830c160b5fffff","emd_code":"2626075000","emd_name":"안락2동","area_km2":0.547,"edge":false,"slope_mean":4.21,"elev_mean":8.2,"flood_hist_n":0,"flood_depth_max_m":null,"flood_risk_100y":null,"semi_basement_r":null,"elderly_alone_r":0.153,"bldg_age30_r":null,"shelter_min_walk":2,"pop":25166,"hh":10982,"elderly65_r":0.2693,"single_hh_r":0.3103,"source_level":"emd","flood_years":[],"landslide_hist_n":0},"geometry":{"type":"Polygon","coordinates":[[[129.10641,35.19604],[129.10555,35.19218],[129.10975,35.19003],[129.11481,35.19173],[129.11566,35.19559],[129.11146,35.19775],[129.10641,35.19604]]]}},{"type":"Feature","properties":{"h3":"8830c160b9fffff","emd_code":"2626076100","emd_name":"명장1동","area_km2":0.5468,"edge":true,"slope_mean":12.82,"elev_mean":47.5,"flood_hist_n":0,"flood_depth_max_m":null,"flood_risk_100y":null,"semi_basement_r":null,"elderly_alone_r":0.1928,"bldg_age30_r":null,"shelter_min_walk":6,"pop":12860,"hh":6069,"elderly65_r":0.3126,"single_hh_r":0.3862,"source_level":"emd","flood_years":[],"landslide_hist_n":0},"geometry":{"type":"Polygon","coordinates":[[[129.10897,35.20762],[129.10811,35.20376],[129.11231,35.2016],[129.11737,35.20331],[129.11822,35.20716],[129.11402,35.20932],[129.10897,35.20762]]]}},{"type":"Feature","properties":{"h3":"8830c160bdfffff","emd_code":"2626075000","emd_name":"안락2동","area_km2":0.5469,"edge":false,"slope_mean":4.88,"elev_mean":22.1,"flood_hist_n":0,"flood_depth_max_m":null,"flood_risk_100y":null,"semi_basement_r":null,"elderly_alone_r":0.153,"bldg_age30_r":null,"shelter_min_walk":4,"pop":25166,"hh":10982,"elderly65_r":0.2693,"single_hh_r":0.3103,"source_level":"emd","flood_years":[],"landslide_hist_n":0},"geometry":{"type":"Polygon","coordinates":[[[129.10306,35.20206],[129.1022,35.1982],[129.10641,35.19604],[129.11146,35.19775],[129.11231,35.2016],[129.10811,35.20376],[129.10306,35.20206]]]}},{"type":"Feature","properties":{"h3":"8830c160c1fffff","emd_code":"2626055000","emd_name":"온천1동","area_km2":0.5464,"edge":true,"slope_mean":4.3,"elev_mean":18.6,"flood_hist_n":1,"flood_depth_max_m":0.951,"flood_risk_100y":null,"semi_basement_r":null,"elderly_alone_r":0.1164,"bldg_age30_r":null,"shelter_min_walk":4,"pop":34019,"hh":17241,"elderly65_r":0.1827,"single_hh_r":0.4762,"source_level":"emd","flood_years":[2014],"landslide_hist_n":0},"geometry":{"type":"Polygon","coordinates":[[[129.08042,35.22656],[129.07957,35.2227],[129.08377,35.22055],[129.08882,35.22225],[129.08968,35.22611],[129.08547,35.22826],[129.08042,35.22656]]]}},{"type":"Feature","properties":{"h3":"8830c160c5fffff","emd_code":"2626055000","emd_name":"온천1동","area_km2":0.5465,"edge":false,"slope_mean":6.92,"elev_mean":27.7,"flood_hist_n":1,"flood_depth_max_m":0.954,"flood_risk_100y":null,"semi_basement_r":null,"elderly_alone_r":0.1164,"bldg_age30_r":null,"shelter_min_walk":3,"pop":34019,"hh":17241,"elderly65_r":0.1827,"single_hh_r":0.4762,"source_level":"emd","flood_years":[2014],"landslide_hist_n":0},"geometry":{"type":"Polygon","coordinates":[[[129.07451,35.221],[129.07366,35.21714],[129.07786,35.21499],[129.08291,35.21669],[129.08377,35.22055],[129.07957,35.2227],[129.07451,35.221]]]}},{"type":"Feature","properties":{"h3":"8830c160c7fffff","emd_code":"2626054500","emd_name":"명륜동","area_km2":0.5465,"edge":true,"slope_mean":8.15,"elev_mean":29.8,"flood_hist_n":1,"flood_depth_max_m":0.954,"flood_risk_100y":null,"semi_basement_r":null,"elderly_alone_r":0.0957,"bldg_age30_r":null,"shelter_min_walk":2,"pop":24893,"hh":9574,"elderly65_r":0.1666,"single_hh_r":0.2394,"source_level":"emd","flood_years":[2014],"landslide_hist_n":0},"geometry":{"type":"Polygon","coordinates":[[[129.08377,35.22055],[129.08291,35.21669],[129.08711,35.21454],[129.09217,35.21624],[129.09302,35.2201],[129.08882,35.22225],[129.08377,35.22055]]]}},{"type":"Feature","properties":{"h3":"8830c160cdfffff","emd_code":"2626055000","emd_name":"온천1동","area_km2":0.5463,"edge":false,"slope_mean":14.97,"elev_mean":105.2,"flood_hist_n":0,"flood_depth_max_m":null,"flood_risk_100y":null,"semi_basement_r":null,"elderly_alone_r":0.1164,"bldg_age30_r":null,"shelter_min_walk":4,"pop":34019,"hh":17241,"elderly65_r":0.1827,"single_hh_r":0.4762,"source_level":"emd","flood_years":[],"landslide_hist_n":0},"geometry":{"type":"Polygon","coordinates":[[[129.07117,35.22701],[129.07031,35.22315],[129.07451,35.221],[129.07957,35.2227],[129.08042,35.22656],[129.07622,35.22871],[129.07117,35.22701]]]}},{"type":"Feature","properties":{"h3":"8830c160e1fffff","emd_code":"2626056000","emd_name":"온천2동","area_km2":0.5466,"edge":false,"slope_mean":3.65,"elev_mean":13.0,"flood_hist_n":1,"flood_depth_max_m":0.924,"flood_risk_100y":null,"semi_basement_r":null,"elderly_alone_r":0.1172,"bldg_age30_r":null,"shelter_min_walk":4,"pop":23773,"hh":9625,"elderly65_r":0.2148,"single_hh_r":0.285,"source_level":"emd","flood_years":[2014],"landslide_hist_n":0},"geometry":{"type":"Polygon","coordinates":[[[129.07195,35.20943],[129.0711,35.20557],[129.0753,35.20342],[129.08035,35.20512],[129.0812,35.20898],[129.077,35.21113],[129.07195,35.20943]]]}},{"type":"Feature","properties":{"h3":"8830c160e3fffff","emd_code":"2626052000","emd_name":"복산동","area_km2":0.5467,"edge":false,"slope_mean":7.85,"elev_mean":25.3,"flood_hist_n":1,"flood_depth_max_m":0.3,"flood_risk_100y":null,"semi_basement_r":null,"elderly_alone_r":0.2634,"bldg_age30_r":null,"shelter_min_walk":2,"pop":7730,"hh":4005,"elderly65_r":0.404,"single_hh_r":0.4569,"source_level":"emd","flood_years":[2020],"landslide_hist_n":0},"geometry":{"type":"Polygon","coordinates":[[[129.0812,35.20898],[129.08035,35.20512],[129.08455,35.20296],[129.0896,35.20467],[129.09046,35.20852],[129.08626,35.21068],[129.0812,35.20898]]]}},{"type":"Feature","properties":{"h3":"8830c160e5fffff","emd_code":"2626057000","emd_name":"온천3동","area_km2":0.5467,"edge":false,"slope_mean":3.89,"elev_mean":19.3,"flood_hist_n":1,"flood_depth_max_m":0.465,"flood_risk_100y":null,"semi_basement_r":null,"elderly_alone_r":0.1395,"bldg_age30_r":null,"shelter_min_walk":2,"pop":35388,"hh":17424,"elderly65_r":0.2571,"single_hh_r":0.4314,"source_level":"emd","flood_years":[2014],"landslide_hist_n":0},"geometry":{"type":"Polygon","coordinates":[[[129.06604,35.20387],[129.06519,35.20001],[129.06939,35.19785],[129.07444,35.19956],[129.0753,35.20342],[129.0711,35.20557],[129.06604,35.20387]]]}},{"type":"Feature","properties":{"h3":"8830c160e7fffff","emd_code":"2626051000","emd_name":"수민동","area_km2":0.5468,"edge":false,"slope_mean":3.87,"elev_mean":10.0,"flood_hist_n":1,"flood_depth_max_m":0.878,"flood_risk_100y":null,"semi_basement_r":null,"elderly_alone_r":0.1592,"bldg_age30_r":null,"shelter_min_walk":2,"pop":28879,"hh":13006,"elderly65_r":0.2679,"single_hh_r":0.3465,"source_level":"emd","flood_years":[2014],"landslide_hist_n":0},"geometry":{"type":"Polygon","coordinates":[[[129.0753,35.20342],[129.07444,35.19956],[129.07864,35.1974],[129.0837,35.19911],[129.08455,35.20296],[129.08035,35.20512],[129.0753,35.20342]]]}},{"type":"Feature","properties":{"h3":"8830c160e9fffff","emd_code":"2626056000","emd_name":"온천2동","area_km2":0.5465,"edge":false,"slope_mean":6.91,"elev_mean":30.0,"flood_hist_n":1,"flood_depth_max_m":0.924,"flood_risk_100y":null,"semi_basement_r":null,"elderly_alone_r":0.1172,"bldg_age30_r":null,"shelter_min_walk":2,"pop":23773,"hh":9625,"elderly65_r":0.2148,"single_hh_r":0.285,"source_level":"emd","flood_years":[2014],"landslide_hist_n":0},"geometry":{"type":"Polygon","coordinates":[[[129.0686,35.21544],[129.06775,35.21158],[129.07195,35.20943],[129.077,35.21113],[129.07786,35.21499],[129.07366,35.21714],[129.0686,35.21544]]]}},{"type":"Feature","properties":{"h3":"8830c160ebfffff","emd_code":"2626054500","emd_name":"명륜동","area_km2":0.5466,"edge":false,"slope_mean":7.41,"elev_mean":20.2,"flood_hist_n":1,"flood_depth_max_m":0.879,"flood_risk_100y":null,"semi_basement_r":null,"elderly_alone_r":0.0957,"bldg_age30_r":null,"shelter_min_walk":1,"pop":24893,"hh":9574,"elderly65_r":0.1666,"single_hh_r":0.2394,"source_level":"emd","flood_years":[2014],"landslide_hist_n":0},"geometry":{"type":"Polygon","coordinates":[[[129.07786,35.21499],[129.077,35.21113],[129.0812,35.20898],[129.08626,35.21068],[129.08711,35.21454],[129.08291,35.21669],[129.07786,35.21499]]]}},{"type":"Feature","properties":{"h3":"8830c160edfffff","emd_code":"2626057000","emd_name":"온천3동","area_km2":0.5466,"edge":false,"slope_mean":6.66,"elev_mean":36.9,"flood_hist_n":0,"flood_depth_max_m":null,"flood_risk_100y":null,"semi_basement_r":null,"elderly_alone_r":0.1395,"bldg_age30_r":null,"shelter_min_walk":3,"pop":35388,"hh":17424,"elderly65_r":0.2571,"single_hh_r":0.4314,"source_level":"emd","flood_years":[],"landslide_hist_n":0},"geometry":{"type":"Polygon","coordinates":[[[129.0627,35.20988],[129.06184,35.20602],[129.06604,35.20387],[129.0711,35.20557],[129.07195,35.20943],[129.06775,35.21158],[129.0627,35.20988]]]}},{"type":"Feature","properties":{"h3":"8830c161cbfffff","emd_code":"2626059000","emd_name":"사직2동","area_km2":0.5468,"edge":true,"slope_mean":21.39,"elev_mean":184.2,"flood_hist_n":0,"flood_depth_max_m":null,"flood_risk_100y":null,"semi_basement_r":null,"elderly_alone_r":0.0861,"bldg_age30_r":null,"shelter_min_walk":6,"pop":24114,"hh":8748,"elderly65_r":0.169,"single_hh_r":0.1783,"source_level":"emd","flood_years":[],"landslide_hist_n":0},"geometry":{"type":"Polygon","coordinates":[[[129.04497,35.19319],[129.04412,35.18933],[129.04832,35.18718],[129.05337,35.18888],[129.05423,35.19274],[129.05003,35.1949],[129.04497,35.19319]]]}},{"type":"Feature","properties":{"h3":"8830c161d1fffff","emd_code":"2626059000","emd_name":"사직2동","area_km2":0.5469,"edge":true,"slope_mean":6.32,"elev_mean":25.7,"flood_hist_n":1,"flood_depth_max_m":0.188,"flood_risk_100y":null,"semi_basement_r":null,"elderly_alone_r":0.0861,"bldg_age30_r":null,"shelter_min_walk":2,"pop":24114,"hh":8748,"elderly65_r":0.169,"single_hh_r":0.1783,"source_level":"emd","flood_years":[2017],"landslide_hist_n":0},"geometry":{"type":"Polygon","coordinates":[[[129.06348,35.19229],[129.06263,35.18843],[129.06683,35.18628],[129.07188,35.18798],[129.07273,35.19184],[129.06853,35.194],[129.06348,35.19229]]]}},{"type":"Feature","properties":{"h3":"8830c161d9fffff","emd_code":"2626058000","emd_name":"사직1동","area_km2":0.5468,"edge":false,"slope_mean":5.17,"elev_mean":22.6,"flood_hist_n":0,"flood_depth_max_m":null,"flood_risk_100y":null,"semi_basement_r":null,"elderly_alone_r":0.1639,"bldg_age30_r":null,"shelter_min_walk":3,"pop":11654,"hh":5272,"elderly65_r":0.2331,"single_hh_r":0.3871,"source_level":"emd","flood_years":[],"landslide_hist_n":0},"geometry":{"type":"Polygon","coordinates":[[[129.06013,35.19831],[129.05928,35.19445],[129.06348,35.19229],[129.06853,35.194],[129.06939,35.19785],[129.06519,35.20001],[129.06013,35.19831]]]}},{"type":"Feature","properties":{"h3":"8830c161dbfffff","emd_code":"2626060000","emd_name":"사직3동","area_km2":0.5468,"edge":true,"slope_mean":4.66,"elev_mean":14.7,"flood_hist_n":1,"flood_depth_max_m":0.465,"flood_risk_100y":null,"semi_basement_r":null,"elderly_alone_r":0.1672,"bldg_age30_r":null,"shelter_min_walk":4,"pop":16388,"hh":7577,"elderly65_r":0.2413,"single_hh_r":0.3959,"source_level":"emd","flood_years":[2014],"landslide_hist_n":0},"geometry":{"type":"Polygon","coordinates":[[[129.06939,35.19785],[129.06853,35.194],[129.07273,35.19184],[129.07779,35.19354],[129.07864,35.1974],[129.07444,35.19956],[129.06939,35.19785]]]}},{"type":"Feature","properties":{"h3":"8830c161ddfffff","emd_code":"2626059000","emd_name":"사직2동","area_km2":0.5468,"edge":true,"slope_mean":12.85,"elev_mean":58.5,"flood_hist_n":0,"flood_depth_max_m":null,"flood_risk_100y":null,"semi_basement_r":null,"elderly_alone_r":0.0861,"bldg_age30_r":null,"shelter_min_walk":5,"pop":24114,"hh":8748,"elderly65_r":0.169,"single_hh_r":0.1783,"source_level":"emd","flood_years":[],"landslide_hist_n":0},"geometry":{"type":"Polygon","coordinates":[[[129.05423,35.19274],[129.05337,35.18888],[129.05757,35.18673],[129.06263,35.18843],[129.06348,35.19229],[129.05928,35.19445],[129.05423,35.19274]]]}},{"type":"Feature","properties":{"h3":"8830c16e43fffff","emd_code":"2626075000","emd_name":"안락2동","area_km2":0.5473,"edge":true,"slope_mean":5.72,"elev_mean":10.8,"flood_hist_n":1,"flood_depth_max_m":0.974,"flood_risk_100y":null,"semi_basement_r":null,"elderly_alone_r":0.153,"bldg_age30_r":null,"shelter_min_walk":2,"pop":25166,"hh":10982,"elderly65_r":0.2693,"single_hh_r":0.3103,"source_level":"emd","flood_years":[2017],"landslide_hist_n":0},"geometry":{"type":"Polygon","coordinates":[[[129.1131,35.18401],[129.11224,35.18015],[129.11644,35.17799],[129.1215,35.1797],[129.12235,35.18356],[129.11815,35.18571],[129.1131,35.18401]]]}},{"type":"Feature","properties":{"h3":"8830c16e49fffff","emd_code":"2626075000","emd_name":"안락2동","area_km2":0.5471,"edge":true,"slope_mean":4.68,"elev_mean":10.1,"flood_hist_n":2,"flood_depth_max_m":1.0,"flood_risk_100y":null,"semi_basement_r":null,"elderly_alone_r":0.153,"bldg_age30_r":null,"shelter_min_walk":5,"pop":25166,"hh":10982,"elderly65_r":0.2693,"single_hh_r":0.3103,"source_level":"emd","flood_years":[2014,2020],"landslide_hist_n":0},"geometry":{"type":"Polygon","coordinates":[[[129.1005,35.19048],[129.09964,35.18662],[129.10384,35.18447],[129.1089,35.18617],[129.10975,35.19003],[129.10555,35.19218],[129.1005,35.19048]]]}},{"type":"Feature","properties":{"h3":"8830c16e4bfffff","emd_code":"2626075000","emd_name":"안락2동","area_km2":0.5471,"edge":false,"slope_mean":5.07,"elev_mean":9.4,"flood_hist_n":1,"flood_depth_max_m":0.486,"flood_risk_100y":null,"semi_basement_r":null,"elderly_alone_r":0.153,"bldg_age30_r":null,"shelter_min_walk":5,"pop":25166,"hh":10982,"elderly65_r":0.2693,"single_hh_r":0.3103,"source_level":"emd","flood_years":[2014],"landslide_hist_n":0},"geometry":{"type":"Polygon","coordinates":[[[129.10975,35.19003],[129.1089,35.18617],[129.1131,35.18401],[129.11815,35.18571],[129.11901,35.18957],[129.11481,35.19173],[129.10975,35.19003]]]}}]}