{"type":"FeatureCollection","name":"grid_26290_h3r8","meta":{"sgg_code":"26290","h3_res":8,"n_cells":66,"dem":"Copernicus GLO-30 (bbox-mean)","crs":"EPSG:4326","jumin_basis":"2026-07","flood_src":"행안부 침수흔적도(전국, 재난안전데이터공유플랫폼)","landslide_src":"행안부 산사태 발생이력"},"features":[{"type":"Feature","properties":{"h3":"8830c161b3fffff","emd_code":"2629053000","emd_name":"대연3동","area_km2":0.5475,"edge":true,"slope_mean":23.07,"elev_mean":303.4,"flood_hist_n":0,"flood_depth_max_m":null,"flood_risk_100y":null,"semi_basement_r":null,"elderly_alone_r":0.0677,"bldg_age30_r":null,"shelter_min_walk":15,"pop":36663,"hh":18832,"elderly65_r":0.1575,"single_hh_r":0.5118,"source_level":"emd","flood_years":[],"landslide_hist_n":0},"geometry":{"type":"Polygon","coordinates":[[[129.08021,35.16221],[129.07935,35.15835],[129.08355,35.15619],[129.08861,35.1579],[129.08946,35.16176],[129.08526,35.16392],[129.08021,35.16221]]]}},{"type":"Feature","properties":{"h3":"8830c161b7fffff","emd_code":"2629053000","emd_name":"대연3동","area_km2":0.5475,"edge":true,"slope_mean":23.11,"elev_mean":254.4,"flood_hist_n":0,"flood_depth_max_m":null,"flood_risk_100y":null,"semi_basement_r":null,"elderly_alone_r":0.0677,"bldg_age30_r":null,"shelter_min_walk":13,"pop":36663,"hh":18832,"elderly65_r":0.1575,"single_hh_r":0.5118,"source_level":"emd","flood_years":[],"landslide_hist_n":0},"geometry":{"type":"Polygon","coordinates":[[[129.0743,35.15665],[129.07345,35.15278],[129.07765,35.15063],[129.0827,35.15233],[129.08355,35.15619],[129.07935,35.15835],[129.0743,35.15665]]]}},{"type":"Feature","properties":{"h3":"8830c1689bfffff","emd_code":"2629062000","emd_name":"감만1동","area_km2":0.5484,"edge":true,"slope_mean":0.48,"elev_mean":0.7,"flood_hist_n":0,"flood_depth_max_m":null,"flood_risk_100y":null,"semi_basement_r":null,"elderly_alone_r":0.15,"bldg_age30_r":null,"shelter_min_walk":15,"pop":7367,"hh":3453,"elderly65_r":0.3066,"single_hh_r":0.3542,"source_level":"emd","flood_years":[],"landslide_hist_n":0},"geometry":{"type":"Polygon","coordinates":[[[129.0674,35.10426],[129.06655,35.10039],[129.07074,35.09823],[129.0758,35.09994],[129.07665,35.10381],[129.07245,35.10597],[129.0674,35.10426]]]}},{"type":"Feature","properties":{"h3":"8830c16c2dfffff","emd_code":"2629058000","emd_name":"용호2동","area_km2":0.5485,"edge":true,"slope_mean":7.7,"elev_mean":19.4,"flood_hist_n":0,"flood_depth_max_m":null,"flood_risk_100y":null,"semi_basement_r":null,"elderly_alone_r":0.13,"bldg_age30_r":null,"shelter_min_walk":19,"pop":18882,"hh":7955,"elderly65_r":0.2638,"single_hh_r":0.2733,"source_level":"emd","flood_years":[],"landslide_hist_n":0},"geometry":{"type":"Polygon","coordinates":[[[129.12548,35.11312],[129.12463,35.10925],[129.12883,35.10709],[129.13388,35.10879],[129.13474,35.11266],[129.13054,35.11482],[129.12548,35.11312]]]}},{"type":"Feature","properties":{"h3":"8830c16c45fffff","emd_code":"2629059000","emd_name":"용호3동","area_km2":0.5481,"edge":true,"slope_mean":0.56,"elev_mean":0.4,"flood_hist_n":0,"flood_depth_max_m":null,"flood_risk_100y":null,"semi_basement_r":null,"elderly_alone_r":0.2308,"bldg_age30_r":null,"shelter_min_walk":16,"pop":9859,"hh":5009,"elderly65_r":0.3806,"single_hh_r":0.4306,"source_level":"emd","flood_years":[],"landslide_hist_n":0},"geometry":{"type":"Polygon","coordinates":[[[129.12135,35.13676],[129.1205,35.1329],[129.1247,35.13074],[129.12975,35.13244],[129.13061,35.1363],[129.12641,35.13846],[129.12135,35.13676]]]}},{"type":"Feature","properties":{"h3":"8830c16c61fffff","emd_code":"2629059000","emd_name":"용호3동","area_km2":0.5483,"edge":false,"slope_mean":14.3,"elev_mean":50.0,"flood_hist_n":0,"flood_depth_max_m":null,"flood_risk_100y":null,"semi_basement_r":null,"elderly_alone_r":0.2308,"bldg_age30_r":null,"shelter_min_walk":8,"pop":9859,"hh":5009,"elderly65_r":0.3806,"single_hh_r":0.4306,"source_level":"emd","flood_years":[],"landslide_hist_n":0},"geometry":{"type":"Polygon","coordinates":[[[129.11879,35.12517],[129.11794,35.12131],[129.12214,35.11915],[129.12719,35.12085],[129.12804,35.12471],[129.12384,35.12687],[129.11879,35.12517]]]}},{"type":"Feature","properties":{"h3":"8830c16c65fffff","emd_code":"2629059000","emd_name":"용호3동","area_km2":0.5483,"edge":false,"slope_mean":13.48,"elev_mean":72.9,"flood_hist_n":0,"flood_depth_max_m":null,"flood_risk_100y":null,"semi_basement_r":null,"elderly_alone_r":0.2308,"bldg_age30_r":null,"shelter_min_walk":1,"pop":9859,"hh":5009,"elderly65_r":0.3806,"single_hh_r":0.4306,"source_level":"emd","flood_years":[],"landslide_hist_n":0},"geometry":{"type":"Polygon","coordinates":[[[129.11288,35.1196],[129.11203,35.11574],[129.11623,35.11358],[129.12128,35.11528],[129.12214,35.11915],[129.11794,35.12131],[129.11288,35.1196]]]}},{"type":"Feature","properties":{"h3":"8830c16c67fffff","emd_code":"2629059000","emd_name":"용호3동","area_km2":0.5484,"edge":false,"slope_mean":14.25,"elev_mean":68.5,"flood_hist_n":0,"flood_depth_max_m":null,"flood_risk_100y":null,"semi_basement_r":null,"elderly_alone_r":0.2308,"bldg_age30_r":null,"shelter_min_walk":12,"pop":9859,"hh":5009,"elderly65_r":0.3806,"single_hh_r":0.4306,"source_level":"emd","flood_years":[],"landslide_hist_n":0},"geometry":{"type":"Polygon","coordinates":[[[129.12214,35.11915],[129.12128,35.11528],[129.12548,35.11312],[129.13054,35.11482],[129.13139,35.11869],[129.12719,35.12085],[129.12214,35.11915]]]}},{"type":"Feature","properties":{"h3":"8830c16c69fffff","emd_code":"2629059000","emd_name":"용호3동","area_km2":0.5482,"edge":false,"slope_mean":10.6,"elev_mean":19.3,"flood_hist_n":0,"flood_depth_max_m":null,"flood_risk_100y":null,"semi_basement_r":null,"elderly_alone_r":0.2308,"bldg_age30_r":null,"shelter_min_walk":7,"pop":9859,"hh":5009,"elderly65_r":0.3806,"single_hh_r":0.4306,"source_level":"emd","flood_years":[],"landslide_hist_n":0},"geometry":{"type":"Polygon","coordinates":[[[129.11544,35.1312],[129.11459,35.12733],[129.11879,35.12517],[129.12384,35.12687],[129.1247,35.13074],[129.1205,35.1329],[129.11544,35.1312]]]}},{"type":"Feature","properties":{"h3":"8830c16c6dfffff","emd_code":"2629059000","emd_name":"용호3동","area_km2":0.5482,"edge":false,"slope_mean":8.4,"elev_mean":22.1,"flood_hist_n":1,"flood_depth_max_m":0.472,"flood_risk_100y":null,"semi_basement_r":null,"elderly_alone_r":0.2308,"bldg_age30_r":null,"shelter_min_walk":2,"pop":9859,"hh":5009,"elderly65_r":0.3806,"single_hh_r":0.4306,"source_level":"emd","flood_years":[2020],"landslide_hist_n":0},"geometry":{"type":"Polygon","coordinates":[[[129.10954,35.12563],[129.10868,35.12176],[129.11288,35.1196],[129.11794,35.12131],[129.11879,35.12517],[129.11459,35.12733],[129.10954,35.12563]]]}},{"type":"Feature","properties":{"h3":"8830c16d19fffff","emd_code":"2629058000","emd_name":"용호2동","area_km2":0.5487,"edge":true,"slope_mean":1.85,"elev_mean":2.8,"flood_hist_n":0,"flood_depth_max_m":null,"flood_risk_100y":null,"semi_basement_r":null,"elderly_alone_r":0.13,"bldg_age30_r":null,"shelter_min_walk":14,"pop":18882,"hh":7955,"elderly65_r":0.2638,"single_hh_r":0.2733,"source_level":"emd","flood_years":[],"landslide_hist_n":0},"geometry":{"type":"Polygon","coordinates":[[[129.12292,35.10152],[129.12206,35.09766],[129.12626,35.09549],[129.13132,35.0972],[129.13217,35.10106],[129.12797,35.10323],[129.12292,35.10152]]]}},{"type":"Feature","properties":{"h3":"8830c16d41fffff","emd_code":"2629062000","emd_name":"감만1동","area_km2":0.5485,"edge":true,"slope_mean":0.91,"elev_mean":0.9,"flood_hist_n":0,"flood_depth_max_m":null,"flood_risk_100y":null,"semi_basement_r":null,"elderly_alone_r":0.15,"bldg_age30_r":null,"shelter_min_walk":19,"pop":7367,"hh":3453,"elderly65_r":0.3066,"single_hh_r":0.3542,"source_level":"emd","flood_years":[],"landslide_hist_n":0},"geometry":{"type":"Polygon","coordinates":[[[129.0859,35.10335],[129.08505,35.09948],[129.08925,35.09732],[129.0943,35.09903],[129.09516,35.10289],[129.09096,35.10506],[129.0859,35.10335]]]}},{"type":"Feature","properties":{"h3":"8830c16d43fffff","emd_code":"2629061000","emd_name":"용당동","area_km2":0.5485,"edge":false,"slope_mean":14.59,"elev_mean":47.6,"flood_hist_n":0,"flood_depth_max_m":null,"flood_risk_100y":null,"semi_basement_r":null,"elderly_alone_r":0.1575,"bldg_age30_r":null,"shelter_min_walk":22,"pop":7468,"hh":3455,"elderly65_r":0.2851,"single_hh_r":0.3728,"source_level":"emd","flood_years":[],"landslide_hist_n":0},"geometry":{"type":"Polygon","coordinates":[[[129.09516,35.10289],[129.0943,35.09903],[129.0985,35.09687],[129.10356,35.09857],[129.10441,35.10244],[129.10021,35.1046],[129.09516,35.10289]]]}},{"type":"Feature","properties":{"h3":"8830c16d49fffff","emd_code":"2629062000","emd_name":"감만1동","area_km2":0.5484,"edge":false,"slope_mean":2.27,"elev_mean":3.8,"flood_hist_n":0,"flood_depth_max_m":null,"flood_risk_100y":null,"semi_basement_r":null,"elderly_alone_r":0.15,"bldg_age30_r":null,"shelter_min_walk":8,"pop":7367,"hh":3453,"elderly65_r":0.3066,"single_hh_r":0.3542,"source_level":"emd","flood_years":[],"landslide_hist_n":0},"geometry":{"type":"Polygon","coordinates":[[[129.08256,35.10938],[129.0817,35.10551],[129.0859,35.10335],[129.09096,35.10506],[129.09181,35.10892],[129.08761,35.11108],[129.08256,35.10938]]]}},{"type":"Feature","properties":{"h3":"8830c16d4bfffff","emd_code":"2629061000","emd_name":"용당동","area_km2":0.5484,"edge":false,"slope_mean":3.85,"elev_mean":6.4,"flood_hist_n":0,"flood_depth_max_m":null,"flood_risk_100y":null,"semi_basement_r":null,"elderly_alone_r":0.1575,"bldg_age30_r":null,"shelter_min_walk":18,"pop":7468,"hh":3455,"elderly65_r":0.2851,"single_hh_r":0.3728,"source_level":"emd","flood_years":[],"landslide_hist_n":0},"geometry":{"type":"Polygon","coordinates":[[[129.09181,35.10892],[129.09096,35.10506],[129.09516,35.10289],[129.10021,35.1046],[129.10106,35.10846],[129.09686,35.11063],[129.09181,35.10892]]]}},{"type":"Feature","properties":{"h3":"8830c16d4dfffff","emd_code":"2629062000","emd_name":"감만1동","area_km2":0.5484,"edge":true,"slope_mean":0.85,"elev_mean":1.3,"flood_hist_n":0,"flood_depth_max_m":null,"flood_risk_100y":null,"semi_basement_r":null,"elderly_alone_r":0.15,"bldg_age30_r":null,"shelter_min_walk":15,"pop":7367,"hh":3453,"elderly65_r":0.3066,"single_hh_r":0.3542,"source_level":"emd","flood_years":[],"landslide_hist_n":0},"geometry":{"type":"Polygon","coordinates":[[[129.07665,35.10381],[129.0758,35.09994],[129.08,35.09778],[129.08505,35.09948],[129.0859,35.10335],[129.0817,35.10551],[129.07665,35.10381]]]}},{"type":"Feature","properties":{"h3":"8830c16d51fffff","emd_code":"2629058000","emd_name":"용호2동","area_km2":0.5485,"edge":false,"slope_mean":12.53,"elev_mean":59.4,"flood_hist_n":0,"flood_depth_max_m":null,"flood_risk_100y":null,"semi_basement_r":null,"elderly_alone_r":0.13,"bldg_age30_r":null,"shelter_min_walk":6,"pop":18882,"hh":7955,"elderly65_r":0.2638,"single_hh_r":0.2733,"source_level":"emd","flood_years":[],"landslide_hist_n":0},"geometry":{"type":"Polygon","coordinates":[[[129.11032,35.10801],[129.10946,35.10414],[129.11366,35.10198],[129.11872,35.10368],[129.11957,35.10755],[129.11537,35.10971],[129.11032,35.10801]]]}},{"type":"Feature","properties":{"h3":"8830c16d53fffff","emd_code":"2629058000","emd_name":"용호2동","area_km2":0.5486,"edge":false,"slope_mean":11.98,"elev_mean":54.4,"flood_hist_n":0,"flood_depth_max_m":null,"flood_risk_100y":null,"semi_basement_r":null,"elderly_alone_r":0.13,"bldg_age30_r":null,"shelter_min_walk":11,"pop":18882,"hh":7955,"elderly65_r":0.2638,"single_hh_r":0.2733,"source_level":"emd","flood_years":[],"landslide_hist_n":0},"geometry":{"type":"Polygon","coordinates":[[[129.11957,35.10755],[129.11872,35.10368],[129.12292,35.10152],[129.12797,35.10323],[129.12883,35.10709],[129.12463,35.10925],[129.11957,35.10755]]]}},{"type":"Feature","properties":{"h3":"8830c16d55fffff","emd_code":"2629060000","emd_name":"용호4동","area_km2":0.5486,"edge":true,"slope_mean":7.0,"elev_mean":17.3,"flood_hist_n":0,"flood_depth_max_m":null,"flood_risk_100y":null,"semi_basement_r":null,"elderly_alone_r":0.2028,"bldg_age30_r":null,"shelter_min_walk":12,"pop":7450,"hh":3709,"elderly65_r":0.3301,"single_hh_r":0.409,"source_level":"emd","flood_years":[],"landslide_hist_n":0},"geometry":{"type":"Polygon","coordinates":[[[129.10441,35.10244],[129.10356,35.09857],[129.10775,35.09641],[129.11281,35.09811],[129.11366,35.10198],[129.10946,35.10414],[129.10441,35.10244]]]}},{"type":"Feature","properties":{"h3":"8830c16d57fffff","emd_code":"2629058000","emd_name":"용호2동","area_km2":0.5486,"edge":false,"slope_mean":5.38,"elev_mean":18.0,"flood_hist_n":0,"flood_depth_max_m":null,"flood_risk_100y":null,"semi_basement_r":null,"elderly_alone_r":0.13,"bldg_age30_r":null,"shelter_min_walk":3,"pop":18882,"hh":7955,"elderly65_r":0.2638,"single_hh_r":0.2733,"source_level":"emd","flood_years":[],"landslide_hist_n":0},"geometry":{"type":"Polygon","coordinates":[[[129.11366,35.10198],[129.11281,35.09811],[129.11701,35.09595],[129.12206,35.09766],[129.12292,35.10152],[129.11872,35.10368],[129.11366,35.10198]]]}},{"type":"Feature","properties":{"h3":"8830c16d59fffff","emd_code":"2629058000","emd_name":"용호2동","area_km2":0.5484,"edge":false,"slope_mean":12.52,"elev_mean":58.6,"flood_hist_n":0,"flood_depth_max_m":null,"flood_risk_100y":null,"semi_basement_r":null,"elderly_alone_r":0.13,"bldg_age30_r":null,"shelter_min_walk":3,"pop":18882,"hh":7955,"elderly65_r":0.2638,"single_hh_r":0.2733,"source_level":"emd","flood_years":[],"landslide_hist_n":0},"geometry":{"type":"Polygon","coordinates":[[[129.10697,35.11403],[129.10612,35.11017],[129.11032,35.10801],[129.11537,35.10971],[129.11623,35.11358],[129.11203,35.11574],[129.10697,35.11403]]]}},{"type":"Feature","properties":{"h3":"8830c16d5bfffff","emd_code":"2629058000","emd_name":"용호2동","area_km2":0.5485,"edge":false,"slope_mean":16.09,"elev_mean":115.2,"flood_hist_n":0,"flood_depth_max_m":null,"flood_risk_100y":null,"semi_basement_r":null,"elderly_alone_r":0.13,"bldg_age30_r":null,"shelter_min_walk":7,"pop":18882,"hh":7955,"elderly65_r":0.2638,"single_hh_r":0.2733,"source_level":"emd","flood_years":[],"landslide_hist_n":0},"geometry":{"type":"Polygon","coordinates":[[[129.11623,35.11358],[129.11537,35.10971],[129.11957,35.10755],[129.12463,35.10925],[129.12548,35.11312],[129.12128,35.11528],[129.11623,35.11358]]]}},{"type":"Feature","properties":{"h3":"8830c16d5dfffff","emd_code":"2629060000","emd_name":"용호4동","area_km2":0.5485,"edge":false,"slope_mean":17.15,"elev_mean":67.1,"flood_hist_n":0,"flood_depth_max_m":null,"flood_risk_100y":null,"semi_basement_r":null,"elderly_alone_r":0.2028,"bldg_age30_r":null,"shelter_min_walk":9,"pop":7450,"hh":3709,"elderly65_r":0.3301,"single_hh_r":0.409,"source_level":"emd","flood_years":[],"landslide_hist_n":0},"geometry":{"type":"Polygon","coordinates":[[[129.10106,35.10846],[129.10021,35.1046],[129.10441,35.10244],[129.10946,35.10414],[129.11032,35.10801],[129.10612,35.11017],[129.10106,35.10846]]]}},{"type":"Feature","properties":{"h3":"8830c16e65fffff","emd_code":"2629053000","emd_name":"대연3동","area_km2":0.5475,"edge":false,"slope_mean":23.49,"elev_mean":293.6,"flood_hist_n":0,"flood_depth_max_m":null,"flood_risk_100y":null,"semi_basement_r":null,"elderly_alone_r":0.0677,"bldg_age30_r":null,"shelter_min_walk":16,"pop":36663,"hh":18832,"elderly65_r":0.1575,"single_hh_r":0.5118,"source_level":"emd","flood_years":[],"landslide_hist_n":0},"geometry":{"type":"Polygon","coordinates":[[[129.08946,35.16176],[129.08861,35.1579],[129.09281,35.15574],[129.09786,35.15744],[129.09872,35.1613],[129.09452,35.16346],[129.08946,35.16176]]]}},{"type":"Feature","properties":{"h3":"8830c16f01fffff","emd_code":"2629054000","emd_name":"대연4동","area_km2":0.548,"edge":false,"slope_mean":13.27,"elev_mean":54.6,"flood_hist_n":0,"flood_depth_max_m":null,"flood_risk_100y":null,"semi_basement_r":null,"elderly_alone_r":0.1787,"bldg_age30_r":null,"shelter_min_walk":5,"pop":13481,"hh":6218,"elderly65_r":0.269,"single_hh_r":0.3697,"source_level":"emd","flood_years":[],"landslide_hist_n":0},"geometry":{"type":"Polygon","coordinates":[[[129.07843,35.13302],[129.07758,35.12915],[129.08177,35.12699],[129.08683,35.1287],[129.08768,35.13256],[129.08348,35.13472],[129.07843,35.13302]]]}},{"type":"Feature","properties":{"h3":"8830c16f03fffff","emd_code":"2629051000","emd_name":"대연1동","area_km2":0.548,"edge":false,"slope_mean":4.44,"elev_mean":17.8,"flood_hist_n":0,"flood_depth_max_m":null,"flood_risk_100y":null,"semi_basement_r":null,"elderly_alone_r":0.1177,"bldg_age30_r":null,"shelter_min_walk":1,"pop":15047,"hh":9573,"elderly65_r":0.2674,"single_hh_r":0.6576,"source_level":"emd","flood_years":[],"landslide_hist_n":0},"geometry":{"type":"Polygon","coordinates":[[[129.08768,35.13256],[129.08683,35.1287],[129.09103,35.12654],[129.09608,35.12824],[129.09694,35.13211],[129.09274,35.13427],[129.08768,35.13256]]]}},{"type":"Feature","properties":{"h3":"8830c16f05fffff","emd_code":"2629064500","emd_name":"우암동","area_km2":0.548,"edge":false,"slope_mean":8.83,"elev_mean":24.1,"flood_hist_n":0,"flood_depth_max_m":null,"flood_risk_100y":null,"semi_basement_r":null,"elderly_alone_r":0.1663,"bldg_age30_r":null,"shelter_min_walk":5,"pop":17221,"hh":8042,"elderly65_r":0.2867,"single_hh_r":0.3563,"source_level":"emd","flood_years":[],"landslide_hist_n":0},"geometry":{"type":"Polygon","coordinates":[[[129.07252,35.12745],[129.07167,35.12358],[129.07587,35.12143],[129.08092,35.12313],[129.08177,35.12699],[129.07758,35.12915],[129.07252,35.12745]]]}},{"type":"Feature","properties":{"h3":"8830c16f07fffff","emd_code":"2629063000","emd_name":"감만2동","area_km2":0.5481,"edge":false,"slope_mean":11.45,"elev_mean":40.5,"flood_hist_n":0,"flood_depth_max_m":null,"flood_risk_100y":null,"semi_basement_r":null,"elderly_alone_r":0.2718,"bldg_age30_r":null,"shelter_min_walk":1,"pop":5950,"hh":3186,"elderly65_r":0.4114,"single_hh_r":0.4758,"source_level":"emd","flood_years":[],"landslide_hist_n":0},"geometry":{"type":"Polygon","coordinates":[[[129.08177,35.12699],[129.08092,35.12313],[129.08512,35.12097],[129.09017,35.12268],[129.09103,35.12654],[129.08683,35.1287],[129.08177,35.12699]]]}},{"type":"Feature","properties":{"h3":"8830c16f09fffff","emd_code":"2629056000","emd_name":"대연6동","area_km2":0.5478,"edge":false,"slope_mean":13.32,"elev_mean":58.7,"flood_hist_n":0,"flood_depth_max_m":null,"flood_risk_100y":null,"semi_basement_r":null,"elderly_alone_r":0.1019,"bldg_age30_r":null,"shelter_min_walk":5,"pop":15563,"hh":6252,"elderly65_r":0.1865,"single_hh_r":0.2722,"source_level":"emd","flood_years":[],"landslide_hist_n":0},"geometry":{"type":"Polygon","coordinates":[[[129.07508,35.13904],[129.07423,35.13518],[129.07843,35.13302],[129.08348,35.13472],[129.08434,35.13859],[129.08014,35.14074],[129.07508,35.13904]]]}},{"type":"Feature","properties":{"h3":"8830c16f0bfffff","emd_code":"2629055000","emd_name":"대연5동","area_km2":0.5479,"edge":false,"slope_mean":6.75,"elev_mean":32.0,"flood_hist_n":1,"flood_depth_max_m":0.461,"flood_risk_100y":null,"semi_basement_r":null,"elderly_alone_r":0.1297,"bldg_age30_r":null,"shelter_min_walk":3,"pop":15680,"hh":8237,"elderly65_r":0.2526,"single_hh_r":0.5075,"source_level":"emd","flood_years":[2020],"landslide_hist_n":0},"geometry":{"type":"Polygon","coordinates":[[[129.08434,35.13859],[129.08348,35.13472],[129.08768,35.13256],[129.09274,35.13427],[129.09359,35.13813],[129.08939,35.14029],[129.08434,35.13859]]]}},{"type":"Feature","properties":{"h3":"8830c16f0dfffff","emd_code":"2629071000","emd_name":"문현4동","area_km2":0.5479,"edge":false,"slope_mean":14.87,"elev_mean":59.8,"flood_hist_n":0,"flood_depth_max_m":null,"flood_risk_100y":null,"semi_basement_r":null,"elderly_alone_r":0.1993,"bldg_age30_r":null,"shelter_min_walk":6,"pop":8781,"hh":4405,"elderly65_r":0.3145,"single_hh_r":0.4159,"source_level":"emd","flood_years":[],"landslide_hist_n":0},"geometry":{"type":"Polygon","coordinates":[[[129.06918,35.13347],[129.06832,35.12961],[129.07252,35.12745],[129.07758,35.12915],[129.07843,35.13302],[129.07423,35.13518],[129.06918,35.13347]]]}},{"type":"Feature","properties":{"h3":"8830c16f11fffff","emd_code":"2629053000","emd_name":"대연3동","area_km2":0.548,"edge":false,"slope_mean":5.24,"elev_mean":8.4,"flood_hist_n":0,"flood_depth_max_m":null,"flood_risk_100y":null,"semi_basement_r":null,"elderly_alone_r":0.0677,"bldg_age30_r":null,"shelter_min_walk":6,"pop":36663,"hh":18832,"elderly65_r":0.1575,"single_hh_r":0.5118,"source_level":"emd","flood_years":[],"landslide_hist_n":0},"geometry":{"type":"Polygon","coordinates":[[[129.10284,35.13767],[129.10199,35.13381],[129.10619,35.13165],[129.11124,35.13336],[129.1121,35.13722],[129.1079,35.13938],[129.10284,35.13767]]]}},{"type":"Feature","properties":{"h3":"8830c16f13fffff","emd_code":"2629057000","emd_name":"용호1동","area_km2":0.548,"edge":true,"slope_mean":2.7,"elev_mean":2.8,"flood_hist_n":0,"flood_depth_max_m":null,"flood_risk_100y":null,"semi_basement_r":null,"elderly_alone_r":0.1386,"bldg_age30_r":null,"shelter_min_walk":5,"pop":41539,"hh":17189,"elderly65_r":0.2507,"single_hh_r":0.2761,"source_level":"emd","flood_years":[],"landslide_hist_n":0},"geometry":{"type":"Polygon","coordinates":[[[129.1121,35.13722],[129.11124,35.13336],[129.11544,35.1312],[129.1205,35.1329],[129.12135,35.13676],[129.11715,35.13892],[129.1121,35.13722]]]}},{"type":"Feature","properties":{"h3":"8830c16f15fffff","emd_code":"2629053000","emd_name":"대연3동","area_km2":0.5481,"edge":false,"slope_mean":4.32,"elev_mean":9.8,"flood_hist_n":0,"flood_depth_max_m":null,"flood_risk_100y":null,"semi_basement_r":null,"elderly_alone_r":0.0677,"bldg_age30_r":null,"shelter_min_walk":5,"pop":36663,"hh":18832,"elderly65_r":0.1575,"single_hh_r":0.5118,"source_level":"emd","flood_years":[],"landslide_hist_n":0},"geometry":{"type":"Polygon","coordinates":[[[129.09694,35.13211],[129.09608,35.12824],[129.10028,35.12608],[129.10534,35.12779],[129.10619,35.13165],[129.10199,35.13381],[129.09694,35.13211]]]}},{"type":"Feature","properties":{"h3":"8830c16f17fffff","emd_code":"2629057000","emd_name":"용호1동","area_km2":0.5481,"edge":false,"slope_mean":6.68,"elev_mean":10.4,"flood_hist_n":0,"flood_depth_max_m":null,"flood_risk_100y":null,"semi_basement_r":null,"elderly_alone_r":0.1386,"bldg_age30_r":null,"shelter_min_walk":5,"pop":41539,"hh":17189,"elderly65_r":0.2507,"single_hh_r":0.2761,"source_level":"emd","flood_years":[],"landslide_hist_n":0},"geometry":{"type":"Polygon","coordinates":[[[129.10619,35.13165],[129.10534,35.12779],[129.10954,35.12563],[129.11459,35.12733],[129.11544,35.1312],[129.11124,35.13336],[129.10619,35.13165]]]}},{"type":"Feature","properties":{"h3":"8830c16f19fffff","emd_code":"2629053000","emd_name":"대연3동","area_km2":0.5479,"edge":true,"slope_mean":8.81,"elev_mean":28.4,"flood_hist_n":0,"flood_depth_max_m":null,"flood_risk_100y":null,"semi_basement_r":null,"elderly_alone_r":0.0677,"bldg_age30_r":null,"shelter_min_walk":1,"pop":36663,"hh":18832,"elderly65_r":0.1575,"single_hh_r":0.5118,"source_level":"emd","flood_years":[],"landslide_hist_n":0},"geometry":{"type":"Polygon","coordinates":[[[129.0995,35.1437],[129.09864,35.13983],[129.10284,35.13767],[129.1079,35.13938],[129.10875,35.14324],[129.10455,35.1454],[129.0995,35.1437]]]}},{"type":"Feature","properties":{"h3":"8830c16f1dfffff","emd_code":"2629053000","emd_name":"대연3동","area_km2":0.5479,"edge":false,"slope_mean":7.25,"elev_mean":25.5,"flood_hist_n":0,"flood_depth_max_m":null,"flood_risk_100y":null,"semi_basement_r":null,"elderly_alone_r":0.0677,"bldg_age30_r":null,"shelter_min_walk":4,"pop":36663,"hh":18832,"elderly65_r":0.1575,"single_hh_r":0.5118,"source_level":"emd","flood_years":[],"landslide_hist_n":0},"geometry":{"type":"Polygon","coordinates":[[[129.09359,35.13813],[129.09274,35.13427],[129.09694,35.13211],[129.10199,35.13381],[129.10284,35.13767],[129.09864,35.13983],[129.09359,35.13813]]]}},{"type":"Feature","properties":{"h3":"8830c16f21fffff","emd_code":"2629062000","emd_name":"감만1동","area_km2":0.5482,"edge":false,"slope_mean":5.77,"elev_mean":8.4,"flood_hist_n":0,"flood_depth_max_m":null,"flood_risk_100y":null,"semi_basement_r":null,"elderly_alone_r":0.15,"bldg_age30_r":null,"shelter_min_walk":12,"pop":7367,"hh":3453,"elderly65_r":0.3066,"single_hh_r":0.3542,"source_level":"emd","flood_years":[],"landslide_hist_n":0},"geometry":{"type":"Polygon","coordinates":[[[129.06996,35.11586],[129.06911,35.11199],[129.07331,35.10983],[129.07836,35.11154],[129.07921,35.1154],[129.07501,35.11756],[129.06996,35.11586]]]}},{"type":"Feature","properties":{"h3":"8830c16f23fffff","emd_code":"2629062000","emd_name":"감만1동","area_km2":0.5483,"edge":false,"slope_mean":7.25,"elev_mean":23.1,"flood_hist_n":0,"flood_depth_max_m":null,"flood_risk_100y":null,"semi_basement_r":null,"elderly_alone_r":0.15,"bldg_age30_r":null,"shelter_min_walk":2,"pop":7367,"hh":3453,"elderly65_r":0.3066,"single_hh_r":0.3542,"source_level":"emd","flood_years":[],"landslide_hist_n":0},"geometry":{"type":"Polygon","coordinates":[[[129.07921,35.1154],[129.07836,35.11154],[129.08256,35.10938],[129.08761,35.11108],[129.08847,35.11495],[129.08427,35.11711],[129.07921,35.1154]]]}},{"type":"Feature","properties":{"h3":"8830c16f25fffff","emd_code":"2629062000","emd_name":"감만1동","area_km2":0.5483,"edge":false,"slope_mean":1.79,"elev_mean":2.4,"flood_hist_n":0,"flood_depth_max_m":null,"flood_risk_100y":null,"semi_basement_r":null,"elderly_alone_r":0.15,"bldg_age30_r":null,"shelter_min_walk":20,"pop":7367,"hh":3453,"elderly65_r":0.3066,"single_hh_r":0.3542,"source_level":"emd","flood_years":[],"landslide_hist_n":0},"geometry":{"type":"Polygon","coordinates":[[[129.06405,35.11029],[129.0632,35.10642],[129.0674,35.10426],[129.07245,35.10597],[129.07331,35.10983],[129.06911,35.11199],[129.06405,35.11029]]]}},{"type":"Feature","properties":{"h3":"8830c16f27fffff","emd_code":"2629062000","emd_name":"감만1동","area_km2":0.5483,"edge":false,"slope_mean":3.77,"elev_mean":6.9,"flood_hist_n":0,"flood_depth_max_m":null,"flood_risk_100y":null,"semi_basement_r":null,"elderly_alone_r":0.15,"bldg_age30_r":null,"shelter_min_walk":8,"pop":7367,"hh":3453,"elderly65_r":0.3066,"single_hh_r":0.3542,"source_level":"emd","flood_years":[],"landslide_hist_n":0},"geometry":{"type":"Polygon","coordinates":[[[129.07331,35.10983],[129.07245,35.10597],[129.07665,35.10381],[129.0817,35.10551],[129.08256,35.10938],[129.07836,35.11154],[129.07331,35.10983]]]}},{"type":"Feature","properties":{"h3":"8830c16f29fffff","emd_code":"2629062000","emd_name":"감만1동","area_km2":0.5481,"edge":true,"slope_mean":1.82,"elev_mean":1.9,"flood_hist_n":0,"flood_depth_max_m":null,"flood_risk_100y":null,"semi_basement_r":null,"elderly_alone_r":0.15,"bldg_age30_r":null,"shelter_min_walk":15,"pop":7367,"hh":3453,"elderly65_r":0.3066,"single_hh_r":0.3542,"source_level":"emd","flood_years":[],"landslide_hist_n":0},"geometry":{"type":"Polygon","coordinates":[[[129.06662,35.12188],[129.06576,35.11802],[129.06996,35.11586],[129.07501,35.11756],[129.07587,35.12143],[129.07167,35.12358],[129.06662,35.12188]]]}},{"type":"Feature","properties":{"h3":"8830c16f2bfffff","emd_code":"2629063000","emd_name":"감만2동","area_km2":0.5481,"edge":false,"slope_mean":6.19,"elev_mean":13.1,"flood_hist_n":0,"flood_depth_max_m":null,"flood_risk_100y":null,"semi_basement_r":null,"elderly_alone_r":0.2718,"bldg_age30_r":null,"shelter_min_walk":3,"pop":5950,"hh":3186,"elderly65_r":0.4114,"single_hh_r":0.4758,"source_level":"emd","flood_years":[],"landslide_hist_n":0},"geometry":{"type":"Polygon","coordinates":[[[129.07587,35.12143],[129.07501,35.11756],[129.07921,35.1154],[129.08427,35.11711],[129.08512,35.12097],[129.08092,35.12313],[129.07587,35.12143]]]}},{"type":"Feature","properties":{"h3":"8830c16f2dfffff","emd_code":"2629062000","emd_name":"감만1동","area_km2":0.5482,"edge":true,"slope_mean":0.45,"elev_mean":0.3,"flood_hist_n":0,"flood_depth_max_m":null,"flood_risk_100y":null,"semi_basement_r":null,"elderly_alone_r":0.15,"bldg_age30_r":null,"shelter_min_walk":24,"pop":7367,"hh":3453,"elderly65_r":0.3066,"single_hh_r":0.3542,"source_level":"emd","flood_years":[],"landslide_hist_n":0},"geometry":{"type":"Polygon","coordinates":[[[129.06071,35.11631],[129.05986,35.11244],[129.06405,35.11029],[129.06911,35.11199],[129.06996,35.11586],[129.06576,35.11802],[129.06071,35.11631]]]}},{"type":"Feature","properties":{"h3":"8830c16f31fffff","emd_code":"2629061000","emd_name":"용당동","area_km2":0.5482,"edge":false,"slope_mean":11.33,"elev_mean":42.1,"flood_hist_n":0,"flood_depth_max_m":null,"flood_risk_100y":null,"semi_basement_r":null,"elderly_alone_r":0.1575,"bldg_age30_r":null,"shelter_min_walk":1,"pop":7468,"hh":3455,"elderly65_r":0.2851,"single_hh_r":0.3728,"source_level":"emd","flood_years":[],"landslide_hist_n":0},"geometry":{"type":"Polygon","coordinates":[[[129.09437,35.12052],[129.09352,35.11665],[129.09772,35.11449],[129.10277,35.11619],[129.10363,35.12006],[129.09943,35.12222],[129.09437,35.12052]]]}},{"type":"Feature","properties":{"h3":"8830c16f33fffff","emd_code":"2629057000","emd_name":"용호1동","area_km2":0.5483,"edge":false,"slope_mean":11.4,"elev_mean":46.8,"flood_hist_n":0,"flood_depth_max_m":null,"flood_risk_100y":null,"semi_basement_r":null,"elderly_alone_r":0.1386,"bldg_age30_r":null,"shelter_min_walk":5,"pop":41539,"hh":17189,"elderly65_r":0.2507,"single_hh_r":0.2761,"source_level":"emd","flood_years":[],"landslide_hist_n":0},"geometry":{"type":"Polygon","coordinates":[[[129.10363,35.12006],[129.10277,35.11619],[129.10697,35.11403],[129.11203,35.11574],[129.11288,35.1196],[129.10868,35.12176],[129.10363,35.12006]]]}},{"type":"Feature","properties":{"h3":"8830c16f35fffff","emd_code":"2629061000","emd_name":"용당동","area_km2":0.5483,"edge":false,"slope_mean":6.2,"elev_mean":19.0,"flood_hist_n":0,"flood_depth_max_m":null,"flood_risk_100y":null,"semi_basement_r":null,"elderly_alone_r":0.1575,"bldg_age30_r":null,"shelter_min_walk":9,"pop":7468,"hh":3455,"elderly65_r":0.2851,"single_hh_r":0.3728,"source_level":"emd","flood_years":[],"landslide_hist_n":0},"geometry":{"type":"Polygon","coordinates":[[[129.08847,35.11495],[129.08761,35.11108],[129.09181,35.10892],[129.09686,35.11063],[129.09772,35.11449],[129.09352,35.11665],[129.08847,35.11495]]]}},{"type":"Feature","properties":{"h3":"8830c16f37fffff","emd_code":"2629061000","emd_name":"용당동","area_km2":0.5484,"edge":false,"slope_mean":12.9,"elev_mean":51.5,"flood_hist_n":0,"flood_depth_max_m":null,"flood_risk_100y":null,"semi_basement_r":null,"elderly_alone_r":0.1575,"bldg_age30_r":null,"shelter_min_walk":11,"pop":7468,"hh":3455,"elderly65_r":0.2851,"single_hh_r":0.3728,"source_level":"emd","flood_years":[],"landslide_hist_n":0},"geometry":{"type":"Polygon","coordinates":[[[129.09772,35.11449],[129.09686,35.11063],[129.10106,35.10846],[129.10612,35.11017],[129.10697,35.11403],[129.10277,35.11619],[129.09772,35.11449]]]}},{"type":"Feature","properties":{"h3":"8830c16f39fffff","emd_code":"2629061000","emd_name":"용당동","area_km2":0.5481,"edge":false,"slope_mean":7.96,"elev_mean":36.3,"flood_hist_n":0,"flood_depth_max_m":null,"flood_risk_100y":null,"semi_basement_r":null,"elderly_alone_r":0.1575,"bldg_age30_r":null,"shelter_min_walk":1,"pop":7468,"hh":3455,"elderly65_r":0.2851,"single_hh_r":0.3728,"source_level":"emd","flood_years":[],"landslide_hist_n":0},"geometry":{"type":"Polygon","coordinates":[[[129.09103,35.12654],[129.09017,35.12268],[129.09437,35.12052],[129.09943,35.12222],[129.10028,35.12608],[129.09608,35.12824],[129.09103,35.12654]]]}},{"type":"Feature","properties":{"h3":"8830c16f3bfffff","emd_code":"2629061000","emd_name":"용당동","area_km2":0.5482,"edge":false,"slope_mean":11.77,"elev_mean":36.3,"flood_hist_n":0,"flood_depth_max_m":null,"flood_risk_100y":null,"semi_basement_r":null,"elderly_alone_r":0.1575,"bldg_age30_r":null,"shelter_min_walk":6,"pop":7468,"hh":3455,"elderly65_r":0.2851,"single_hh_r":0.3728,"source_level":"emd","flood_years":[],"landslide_hist_n":0},"geometry":{"type":"Polygon","coordinates":[[[129.10028,35.12608],[129.09943,35.12222],[129.10363,35.12006],[129.10868,35.12176],[129.10954,35.12563],[129.10534,35.12779],[129.10028,35.12608]]]}},{"type":"Feature","properties":{"h3":"8830c16f3dfffff","emd_code":"2629061000","emd_name":"용당동","area_km2":0.5482,"edge":false,"slope_mean":11.72,"elev_mean":68.6,"flood_hist_n":0,"flood_depth_max_m":null,"flood_risk_100y":null,"semi_basement_r":null,"elderly_alone_r":0.1575,"bldg_age30_r":null,"shelter_min_walk":5,"pop":7468,"hh":3455,"elderly65_r":0.2851,"single_hh_r":0.3728,"source_level":"emd","flood_years":[],"landslide_hist_n":0},"geometry":{"type":"Polygon","coordinates":[[[129.08512,35.12097],[129.08427,35.11711],[129.08847,35.11495],[129.09352,35.11665],[129.09437,35.12052],[129.09017,35.12268],[129.08512,35.12097]]]}},{"type":"Feature","properties":{"h3":"8830c16f41fffff","emd_code":"2629069000","emd_name":"문현2동","area_km2":0.5477,"edge":false,"slope_mean":7.27,"elev_mean":17.7,"flood_hist_n":1,"flood_depth_max_m":0.669,"flood_risk_100y":null,"semi_basement_r":null,"elderly_alone_r":0.2013,"bldg_age30_r":null,"shelter_min_walk":1,"pop":8016,"hh":4922,"elderly65_r":0.2783,"single_hh_r":0.6136,"source_level":"emd","flood_years":[2020],"landslide_hist_n":0},"geometry":{"type":"Polygon","coordinates":[[[129.06249,35.14551],[129.06163,35.14165],[129.06583,35.13949],[129.07088,35.1412],[129.07174,35.14506],[129.06754,35.14722],[129.06249,35.14551]]]}},{"type":"Feature","properties":{"h3":"8830c16f43fffff","emd_code":"2629070000","emd_name":"문현3동","area_km2":0.5477,"edge":false,"slope_mean":12.78,"elev_mean":60.9,"flood_hist_n":0,"flood_depth_max_m":null,"flood_risk_100y":null,"semi_basement_r":null,"elderly_alone_r":0.1439,"bldg_age30_r":null,"shelter_min_walk":3,"pop":15727,"hh":6947,"elderly65_r":0.2521,"single_hh_r":0.3299,"source_level":"emd","flood_years":[],"landslide_hist_n":0},"geometry":{"type":"Polygon","coordinates":[[[129.07174,35.14506],[129.07088,35.1412],[129.07508,35.13904],[129.08014,35.14074],[129.08099,35.14461],[129.07679,35.14676],[129.07174,35.14506]]]}},{"type":"Feature","properties":{"h3":"8830c16f45fffff","emd_code":"2629069000","emd_name":"문현2동","area_km2":0.5477,"edge":true,"slope_mean":5.47,"elev_mean":7.8,"flood_hist_n":1,"flood_depth_max_m":1.121,"flood_risk_100y":null,"semi_basement_r":null,"elderly_alone_r":0.2013,"bldg_age30_r":null,"shelter_min_walk":2,"pop":8016,"hh":4922,"elderly65_r":0.2783,"single_hh_r":0.6136,"source_level":"emd","flood_years":[2020],"landslide_hist_n":0},"geometry":{"type":"Polygon","coordinates":[[[129.05658,35.13994],[129.05573,35.13608],[129.05992,35.13392],[129.06498,35.13563],[129.06583,35.13949],[129.06163,35.14165],[129.05658,35.13994]]]}},{"type":"Feature","properties":{"h3":"8830c16f47fffff","emd_code":"2629070000","emd_name":"문현3동","area_km2":0.5478,"edge":false,"slope_mean":8.86,"elev_mean":20.2,"flood_hist_n":1,"flood_depth_max_m":0.988,"flood_risk_100y":null,"semi_basement_r":null,"elderly_alone_r":0.1439,"bldg_age30_r":null,"shelter_min_walk":1,"pop":15727,"hh":6947,"elderly65_r":0.2521,"single_hh_r":0.3299,"source_level":"emd","flood_years":[2020],"landslide_hist_n":0},"geometry":{"type":"Polygon","coordinates":[[[129.06583,35.13949],[129.06498,35.13563],[129.06918,35.13347],[129.07423,35.13518],[129.07508,35.13904],[129.07088,35.1412],[129.06583,35.13949]]]}},{"type":"Feature","properties":{"h3":"8830c16f49fffff","emd_code":"2629069000","emd_name":"문현2동","area_km2":0.5476,"edge":true,"slope_mean":4.83,"elev_mean":12.0,"flood_hist_n":1,"flood_depth_max_m":0.449,"flood_risk_100y":null,"semi_basement_r":null,"elderly_alone_r":0.2013,"bldg_age30_r":null,"shelter_min_walk":6,"pop":8016,"hh":4922,"elderly65_r":0.2783,"single_hh_r":0.6136,"source_level":"emd","flood_years":[2020],"landslide_hist_n":0},"geometry":{"type":"Polygon","coordinates":[[[129.05914,35.15153],[129.05829,35.14767],[129.06249,35.14551],[129.06754,35.14722],[129.06839,35.15108],[129.06419,35.15324],[129.05914,35.15153]]]}},{"type":"Feature","properties":{"h3":"8830c16f4bfffff","emd_code":"2629068000","emd_name":"문현1동","area_km2":0.5476,"edge":false,"slope_mean":15.94,"elev_mean":86.7,"flood_hist_n":0,"flood_depth_max_m":null,"flood_risk_100y":null,"semi_basement_r":null,"elderly_alone_r":0.1879,"bldg_age30_r":null,"shelter_min_walk":2,"pop":10080,"hh":4603,"elderly65_r":0.3115,"single_hh_r":0.3474,"source_level":"emd","flood_years":[],"landslide_hist_n":0},"geometry":{"type":"Polygon","coordinates":[[[129.06839,35.15108],[129.06754,35.14722],[129.07174,35.14506],[129.07679,35.14676],[129.07765,35.15063],[129.07345,35.15278],[129.06839,35.15108]]]}},{"type":"Feature","properties":{"h3":"8830c16f51fffff","emd_code":"2629053000","emd_name":"대연3동","area_km2":0.5477,"edge":false,"slope_mean":18.6,"elev_mean":94.3,"flood_hist_n":0,"flood_depth_max_m":null,"flood_risk_100y":null,"semi_basement_r":null,"elderly_alone_r":0.0677,"bldg_age30_r":null,"shelter_min_walk":5,"pop":36663,"hh":18832,"elderly65_r":0.1575,"single_hh_r":0.5118,"source_level":"emd","flood_years":[],"landslide_hist_n":0},"geometry":{"type":"Polygon","coordinates":[[[129.0869,35.15017],[129.08605,35.14631],[129.09024,35.14415],[129.0953,35.14586],[129.09615,35.14972],[129.09195,35.15188],[129.0869,35.15017]]]}},{"type":"Feature","properties":{"h3":"8830c16f53fffff","emd_code":"2629053000","emd_name":"대연3동","area_km2":0.5478,"edge":false,"slope_mean":16.37,"elev_mean":95.7,"flood_hist_n":0,"flood_depth_max_m":null,"flood_risk_100y":null,"semi_basement_r":null,"elderly_alone_r":0.0677,"bldg_age30_r":null,"shelter_min_walk":10,"pop":36663,"hh":18832,"elderly65_r":0.1575,"single_hh_r":0.5118,"source_level":"emd","flood_years":[],"landslide_hist_n":0},"geometry":{"type":"Polygon","coordinates":[[[129.09615,35.14972],[129.0953,35.14586],[129.0995,35.1437],[129.10455,35.1454],[129.10541,35.14926],[129.10121,35.15142],[129.09615,35.14972]]]}},{"type":"Feature","properties":{"h3":"8830c16f55fffff","emd_code":"2629055000","emd_name":"대연5동","area_km2":0.5478,"edge":false,"slope_mean":15.92,"elev_mean":80.1,"flood_hist_n":0,"flood_depth_max_m":null,"flood_risk_100y":null,"semi_basement_r":null,"elderly_alone_r":0.1297,"bldg_age30_r":null,"shelter_min_walk":9,"pop":15680,"hh":8237,"elderly65_r":0.2526,"single_hh_r":0.5075,"source_level":"emd","flood_years":[],"landslide_hist_n":0},"geometry":{"type":"Polygon","coordinates":[[[129.08099,35.14461],[129.08014,35.14074],[129.08434,35.13859],[129.08939,35.14029],[129.09024,35.14415],[129.08605,35.14631],[129.08099,35.14461]]]}},{"type":"Feature","properties":{"h3":"8830c16f57fffff","emd_code":"2629055000","emd_name":"대연5동","area_km2":0.5478,"edge":false,"slope_mean":15.9,"elev_mean":72.5,"flood_hist_n":0,"flood_depth_max_m":null,"flood_risk_100y":null,"semi_basement_r":null,"elderly_alone_r":0.1297,"bldg_age30_r":null,"shelter_min_walk":3,"pop":15680,"hh":8237,"elderly65_r":0.2526,"single_hh_r":0.5075,"source_level":"emd","flood_years":[],"landslide_hist_n":0},"geometry":{"type":"Polygon","coordinates":[[[129.09024,35.14415],[129.08939,35.14029],[129.09359,35.13813],[129.09864,35.13983],[129.0995,35.1437],[129.0953,35.14586],[129.09024,35.14415]]]}},{"type":"Feature","properties":{"h3":"8830c16f59fffff","emd_code":"2629053000","emd_name":"대연3동","area_km2":0.5476,"edge":false,"slope_mean":22.63,"elev_mean":189.6,"flood_hist_n":0,"flood_depth_max_m":null,"flood_risk_100y":null,"semi_basement_r":null,"elderly_alone_r":0.0677,"bldg_age30_r":null,"shelter_min_walk":5,"pop":36663,"hh":18832,"elderly65_r":0.1575,"single_hh_r":0.5118,"source_level":"emd","flood_years":[],"landslide_hist_n":0},"geometry":{"type":"Polygon","coordinates":[[[129.08355,35.15619],[129.0827,35.15233],[129.0869,35.15017],[129.09195,35.15188],[129.09281,35.15574],[129.08861,35.1579],[129.08355,35.15619]]]}},{"type":"Feature","properties":{"h3":"8830c16f5bfffff","emd_code":"2629053000","emd_name":"대연3동","area_km2":0.5476,"edge":false,"slope_mean":22.33,"elev_mean":184.0,"flood_hist_n":0,"flood_depth_max_m":null,"flood_risk_100y":null,"semi_basement_r":null,"elderly_alone_r":0.0677,"bldg_age30_r":null,"shelter_min_walk":11,"pop":36663,"hh":18832,"elderly65_r":0.1575,"single_hh_r":0.5118,"source_level":"emd","flood_years":[],"landslide_hist_n":0},"geometry":{"type":"Polygon","coordinates":[[[129.09281,35.15574],[129.09195,35.15188],[129.09615,35.14972],[129.10121,35.15142],[129.10206,35.15528],[129.09786,35.15744],[129.09281,35.15574]]]}},{"type":"Feature","properties":{"h3":"8830c16f5dfffff","emd_code":"2629068000","emd_name":"문현1동","area_km2":0.5477,"edge":false,"slope_mean":23.5,"elev_mean":179.7,"flood_hist_n":0,"flood_depth_max_m":null,"flood_risk_100y":null,"semi_basement_r":null,"elderly_alone_r":0.1879,"bldg_age30_r":null,"shelter_min_walk":9,"pop":10080,"hh":4603,"elderly65_r":0.3115,"single_hh_r":0.3474,"source_level":"emd","flood_years":[],"landslide_hist_n":0},"geometry":{"type":"Polygon","coordinates":[[[129.07765,35.15063],[129.07679,35.14676],[129.08099,35.14461],[129.08605,35.14631],[129.0869,35.15017],[129.0827,35.15233],[129.07765,35.15063]]]}},{"type":"Feature","properties":{"h3":"8830c16f63fffff","emd_code":"2629064500","emd_name":"우암동","area_km2":0.548,"edge":false,"slope_mean":4.8,"elev_mean":8.6,"flood_hist_n":0,"flood_depth_max_m":null,"flood_risk_100y":null,"semi_basement_r":null,"elderly_alone_r":0.1663,"bldg_age30_r":null,"shelter_min_walk":10,"pop":17221,"hh":8042,"elderly65_r":0.2867,"single_hh_r":0.3563,"source_level":"emd","flood_years":[],"landslide_hist_n":0},"geometry":{"type":"Polygon","coordinates":[[[129.06327,35.1279],[129.06242,35.12404],[129.06662,35.12188],[129.07167,35.12358],[129.07252,35.12745],[129.06832,35.12961],[129.06327,35.1279]]]}},{"type":"Feature","properties":{"h3":"8830c16f6bfffff","emd_code":"2629071000","emd_name":"문현4동","area_km2":0.5479,"edge":true,"slope_mean":6.2,"elev_mean":9.7,"flood_hist_n":1,"flood_depth_max_m":1.121,"flood_risk_100y":null,"semi_basement_r":null,"elderly_alone_r":0.1993,"bldg_age30_r":null,"shelter_min_walk":8,"pop":8781,"hh":4405,"elderly65_r":0.3145,"single_hh_r":0.4159,"source_level":"emd","flood_years":[2020],"landslide_hist_n":0},"geometry":{"type":"Polygon","coordinates":[[[129.05992,35.13392],[129.05907,35.13006],[129.06327,35.1279],[129.06832,35.12961],[129.06918,35.13347],[129.06498,35.13563],[129.05992,35.13392]]]}}]}