{"type":"FeatureCollection","name":"grid_26320_h3r8","meta":{"sgg_code":"26320","h3_res":8,"n_cells":99,"dem":"Copernicus GLO-30 (bbox-mean)","crs":"EPSG:4326","jumin_basis":"2026-07","flood_src":"행안부 침수흔적도(전국, 재난안전데이터공유플랫폼)","landslide_src":"행안부 산사태 발생이력"},"features":[{"type":"Feature","properties":{"h3":"8830c16001fffff","emd_code":"2632057100","emd_name":"만덕1동","area_km2":0.5463,"edge":false,"slope_mean":13.26,"elev_mean":121.9,"flood_hist_n":0,"flood_depth_max_m":null,"flood_risk_100y":null,"semi_basement_r":null,"elderly_alone_r":0.1291,"bldg_age30_r":null,"shelter_min_walk":2,"pop":15726,"hh":6971,"elderly65_r":0.2495,"single_hh_r":0.2991,"source_level":"emd","flood_years":[],"landslide_hist_n":0},"geometry":{"type":"Polygon","coordinates":[[[129.03159,35.21724],[129.03074,35.21338],[129.03494,35.21123],[129.03999,35.21293],[129.04084,35.21679],[129.03664,35.21894],[129.03159,35.21724]]]}},{"type":"Feature","properties":{"h3":"8830c16003fffff","emd_code":"2632057100","emd_name":"만덕1동","area_km2":0.5464,"edge":false,"slope_mean":16.15,"elev_mean":178.5,"flood_hist_n":0,"flood_depth_max_m":null,"flood_risk_100y":null,"semi_basement_r":null,"elderly_alone_r":0.1291,"bldg_age30_r":null,"shelter_min_walk":6,"pop":15726,"hh":6971,"elderly65_r":0.2495,"single_hh_r":0.2991,"source_level":"emd","flood_years":[],"landslide_hist_n":0},"geometry":{"type":"Polygon","coordinates":[[[129.04084,35.21679],[129.03999,35.21293],[129.04419,35.21078],[129.04924,35.21248],[129.0501,35.21634],[129.0459,35.21849],[129.04084,35.21679]]]}},{"type":"Feature","properties":{"h3":"8830c16005fffff","emd_code":"2632057300","emd_name":"만덕3동","area_km2":0.5464,"edge":false,"slope_mean":10.8,"elev_mean":78.7,"flood_hist_n":0,"flood_depth_max_m":null,"flood_risk_100y":null,"semi_basement_r":null,"elderly_alone_r":0.1422,"bldg_age30_r":null,"shelter_min_walk":1,"pop":16698,"hh":7262,"elderly65_r":0.3133,"single_hh_r":0.2725,"source_level":"emd","flood_years":[],"landslide_hist_n":0},"geometry":{"type":"Polygon","coordinates":[[[129.02569,35.21167],[129.02483,35.20782],[129.02903,35.20566],[129.03408,35.20737],[129.03494,35.21123],[129.03074,35.21338],[129.02569,35.21167]]]}},{"type":"Feature","properties":{"h3":"8830c16007fffff","emd_code":"2632057200","emd_name":"만덕2동","area_km2":0.5464,"edge":false,"slope_mean":13.5,"elev_mean":113.4,"flood_hist_n":0,"flood_depth_max_m":null,"flood_risk_100y":null,"semi_basement_r":null,"elderly_alone_r":0.1469,"bldg_age30_r":null,"shelter_min_walk":3,"pop":25219,"hh":10996,"elderly65_r":0.2598,"single_hh_r":0.2967,"source_level":"emd","flood_years":[],"landslide_hist_n":0},"geometry":{"type":"Polygon","coordinates":[[[129.03494,35.21123],[129.03408,35.20737],[129.03828,35.20522],[129.04334,35.20692],[129.04419,35.21078],[129.03999,35.21293],[129.03494,35.21123]]]}},{"type":"Feature","properties":{"h3":"8830c16009fffff","emd_code":"2632057100","emd_name":"만덕1동","area_km2":0.5462,"edge":false,"slope_mean":22.77,"elev_mean":179.9,"flood_hist_n":0,"flood_depth_max_m":null,"flood_risk_100y":null,"semi_basement_r":null,"elderly_alone_r":0.1291,"bldg_age30_r":null,"shelter_min_walk":11,"pop":15726,"hh":6971,"elderly65_r":0.2495,"single_hh_r":0.2991,"source_level":"emd","flood_years":[],"landslide_hist_n":0},"geometry":{"type":"Polygon","coordinates":[[[129.02825,35.22324],[129.02739,35.21939],[129.03159,35.21724],[129.03664,35.21894],[129.0375,35.2228],[129.0333,35.22495],[129.02825,35.22324]]]}},{"type":"Feature","properties":{"h3":"8830c1600bfffff","emd_code":"2632057100","emd_name":"만덕1동","area_km2":0.5463,"edge":false,"slope_mean":21.53,"elev_mean":267.3,"flood_hist_n":0,"flood_depth_max_m":null,"flood_risk_100y":null,"semi_basement_r":null,"elderly_alone_r":0.1291,"bldg_age30_r":null,"shelter_min_walk":13,"pop":15726,"hh":6971,"elderly65_r":0.2495,"single_hh_r":0.2991,"source_level":"emd","flood_years":[],"landslide_hist_n":0},"geometry":{"type":"Polygon","coordinates":[[[129.0375,35.2228],[129.03664,35.21894],[129.04084,35.21679],[129.0459,35.21849],[129.04675,35.22235],[129.04255,35.2245],[129.0375,35.2228]]]}},{"type":"Feature","properties":{"h3":"8830c1600dfffff","emd_code":"2632057100","emd_name":"만덕1동","area_km2":0.5463,"edge":false,"slope_mean":15.84,"elev_mean":69.9,"flood_hist_n":0,"flood_depth_max_m":null,"flood_risk_100y":null,"semi_basement_r":null,"elderly_alone_r":0.1291,"bldg_age30_r":null,"shelter_min_walk":1,"pop":15726,"hh":6971,"elderly65_r":0.2495,"single_hh_r":0.2991,"source_level":"emd","flood_years":[],"landslide_hist_n":0},"geometry":{"type":"Polygon","coordinates":[[[129.02234,35.21768],[129.02149,35.21383],[129.02569,35.21167],[129.03074,35.21338],[129.03159,35.21724],[129.02739,35.21939],[129.02234,35.21768]]]}},{"type":"Feature","properties":{"h3":"8830c16011fffff","emd_code":"2632057100","emd_name":"만덕1동","area_km2":0.5464,"edge":true,"slope_mean":23.47,"elev_mean":354.2,"flood_hist_n":0,"flood_depth_max_m":null,"flood_risk_100y":null,"semi_basement_r":null,"elderly_alone_r":0.1291,"bldg_age30_r":null,"shelter_min_walk":16,"pop":15726,"hh":6971,"elderly65_r":0.2495,"single_hh_r":0.2991,"source_level":"emd","flood_years":[],"landslide_hist_n":0},"geometry":{"type":"Polygon","coordinates":[[[129.056,35.2219],[129.05515,35.21804],[129.05935,35.21589],[129.0644,35.21759],[129.06526,35.22145],[129.06106,35.2236],[129.056,35.2219]]]}},{"type":"Feature","properties":{"h3":"8830c16015fffff","emd_code":"2632057100","emd_name":"만덕1동","area_km2":0.5464,"edge":true,"slope_mean":21.32,"elev_mean":266.4,"flood_hist_n":0,"flood_depth_max_m":null,"flood_risk_100y":null,"semi_basement_r":null,"elderly_alone_r":0.1291,"bldg_age30_r":null,"shelter_min_walk":15,"pop":15726,"hh":6971,"elderly65_r":0.2495,"single_hh_r":0.2991,"source_level":"emd","flood_years":[],"landslide_hist_n":0},"geometry":{"type":"Polygon","coordinates":[[[129.0501,35.21634],[129.04924,35.21248],[129.05344,35.21033],[129.0585,35.21203],[129.05935,35.21589],[129.05515,35.21804],[129.0501,35.21634]]]}},{"type":"Feature","properties":{"h3":"8830c16019fffff","emd_code":"2632057100","emd_name":"만덕1동","area_km2":0.5462,"edge":false,"slope_mean":16.25,"elev_mean":492.1,"flood_hist_n":0,"flood_depth_max_m":null,"flood_risk_100y":null,"semi_basement_r":null,"elderly_alone_r":0.1291,"bldg_age30_r":null,"shelter_min_walk":26,"pop":15726,"hh":6971,"elderly65_r":0.2495,"single_hh_r":0.2991,"source_level":"emd","flood_years":[],"landslide_hist_n":0},"geometry":{"type":"Polygon","coordinates":[[[129.05266,35.22791],[129.0518,35.22405],[129.056,35.2219],[129.06106,35.2236],[129.06191,35.22746],[129.05771,35.22961],[129.05266,35.22791]]]}},{"type":"Feature","properties":{"h3":"8830c1601dfffff","emd_code":"2632057100","emd_name":"만덕1동","area_km2":0.5463,"edge":false,"slope_mean":23.58,"elev_mean":363.4,"flood_hist_n":0,"flood_depth_max_m":null,"flood_risk_100y":null,"semi_basement_r":null,"elderly_alone_r":0.1291,"bldg_age30_r":null,"shelter_min_walk":18,"pop":15726,"hh":6971,"elderly65_r":0.2495,"single_hh_r":0.2991,"source_level":"emd","flood_years":[],"landslide_hist_n":0},"geometry":{"type":"Polygon","coordinates":[[[129.04675,35.22235],[129.0459,35.21849],[129.0501,35.21634],[129.05515,35.21804],[129.056,35.2219],[129.0518,35.22405],[129.04675,35.22235]]]}},{"type":"Feature","properties":{"h3":"8830c16021fffff","emd_code":"2632057300","emd_name":"만덕3동","area_km2":0.5466,"edge":false,"slope_mean":27.9,"elev_mean":416.7,"flood_hist_n":0,"flood_depth_max_m":null,"flood_risk_100y":null,"semi_basement_r":null,"elderly_alone_r":0.1422,"bldg_age30_r":null,"shelter_min_walk":13,"pop":16698,"hh":7262,"elderly65_r":0.3133,"single_hh_r":0.2725,"source_level":"emd","flood_years":[],"landslide_hist_n":0},"geometry":{"type":"Polygon","coordinates":[[[129.02313,35.2001],[129.02227,35.19624],[129.02647,35.19409],[129.03152,35.1958],[129.03238,35.19965],[129.02818,35.20181],[129.02313,35.2001]]]}},{"type":"Feature","properties":{"h3":"8830c16023fffff","emd_code":"2632057200","emd_name":"만덕2동","area_km2":0.5466,"edge":true,"slope_mean":18.04,"elev_mean":272.5,"flood_hist_n":0,"flood_depth_max_m":null,"flood_risk_100y":null,"semi_basement_r":null,"elderly_alone_r":0.1469,"bldg_age30_r":null,"shelter_min_walk":12,"pop":25219,"hh":10996,"elderly65_r":0.2598,"single_hh_r":0.2967,"source_level":"emd","flood_years":[],"landslide_hist_n":0},"geometry":{"type":"Polygon","coordinates":[[[129.03238,35.19965],[129.03152,35.1958],[129.03572,35.19364],[129.04078,35.19535],[129.04163,35.1992],[129.03743,35.20136],[129.03238,35.19965]]]}},{"type":"Feature","properties":{"h3":"8830c16025fffff","emd_code":"2632052100","emd_name":"구포3동","area_km2":0.5466,"edge":false,"slope_mean":25.98,"elev_mean":447.4,"flood_hist_n":0,"flood_depth_max_m":null,"flood_risk_100y":null,"semi_basement_r":null,"elderly_alone_r":0.1906,"bldg_age30_r":null,"shelter_min_walk":10,"pop":16589,"hh":8702,"elderly65_r":0.3052,"single_hh_r":0.4604,"source_level":"emd","flood_years":[],"landslide_hist_n":0},"geometry":{"type":"Polygon","coordinates":[[[129.01722,35.19454],[129.01637,35.19068],[129.02056,35.18853],[129.02562,35.19023],[129.02647,35.19409],[129.02227,35.19624],[129.01722,35.19454]]]}},{"type":"Feature","properties":{"h3":"8830c16027fffff","emd_code":"2632057200","emd_name":"만덕2동","area_km2":0.5467,"edge":true,"slope_mean":25.87,"elev_mean":392.5,"flood_hist_n":0,"flood_depth_max_m":null,"flood_risk_100y":null,"semi_basement_r":null,"elderly_alone_r":0.1469,"bldg_age30_r":null,"shelter_min_walk":20,"pop":25219,"hh":10996,"elderly65_r":0.2598,"single_hh_r":0.2967,"source_level":"emd","flood_years":[],"landslide_hist_n":0},"geometry":{"type":"Polygon","coordinates":[[[129.02647,35.19409],[129.02562,35.19023],[129.02982,35.18808],[129.03487,35.18978],[129.03572,35.19364],[129.03152,35.1958],[129.02647,35.19409]]]}},{"type":"Feature","properties":{"h3":"8830c16029fffff","emd_code":"2632057300","emd_name":"만덕3동","area_km2":0.5465,"edge":false,"slope_mean":25.06,"elev_mean":285.9,"flood_hist_n":0,"flood_depth_max_m":null,"flood_risk_100y":null,"semi_basement_r":null,"elderly_alone_r":0.1422,"bldg_age30_r":null,"shelter_min_walk":10,"pop":16698,"hh":7262,"elderly65_r":0.3133,"single_hh_r":0.2725,"source_level":"emd","flood_years":[],"landslide_hist_n":0},"geometry":{"type":"Polygon","coordinates":[[[129.01978,35.20611],[129.01893,35.20225],[129.02313,35.2001],[129.02818,35.20181],[129.02903,35.20566],[129.02483,35.20782],[129.01978,35.20611]]]}},{"type":"Feature","properties":{"h3":"8830c1602bfffff","emd_code":"2632057200","emd_name":"만덕2동","area_km2":0.5465,"edge":false,"slope_mean":16.6,"elev_mean":176.1,"flood_hist_n":0,"flood_depth_max_m":null,"flood_risk_100y":null,"semi_basement_r":null,"elderly_alone_r":0.1469,"bldg_age30_r":null,"shelter_min_walk":1,"pop":25219,"hh":10996,"elderly65_r":0.2598,"single_hh_r":0.2967,"source_level":"emd","flood_years":[],"landslide_hist_n":0},"geometry":{"type":"Polygon","coordinates":[[[129.02903,35.20566],[129.02818,35.20181],[129.03238,35.19965],[129.03743,35.20136],[129.03828,35.20522],[129.03408,35.20737],[129.02903,35.20566]]]}},{"type":"Feature","properties":{"h3":"8830c1602dfffff","emd_code":"2632052100","emd_name":"구포3동","area_km2":0.5465,"edge":false,"slope_mean":27.3,"elev_mean":328.9,"flood_hist_n":1,"flood_depth_max_m":1.085,"flood_risk_100y":null,"semi_basement_r":null,"elderly_alone_r":0.1906,"bldg_age30_r":null,"shelter_min_walk":6,"pop":16589,"hh":8702,"elderly65_r":0.3052,"single_hh_r":0.4604,"source_level":"emd","flood_years":[2014],"landslide_hist_n":0},"geometry":{"type":"Polygon","coordinates":[[[129.01387,35.20055],[129.01302,35.19669],[129.01722,35.19454],[129.02227,35.19624],[129.02313,35.2001],[129.01893,35.20225],[129.01387,35.20055]]]}},{"type":"Feature","properties":{"h3":"8830c16031fffff","emd_code":"2632057200","emd_name":"만덕2동","area_km2":0.5466,"edge":true,"slope_mean":18.74,"elev_mean":185.2,"flood_hist_n":0,"flood_depth_max_m":null,"flood_risk_100y":null,"semi_basement_r":null,"elderly_alone_r":0.1469,"bldg_age30_r":null,"shelter_min_walk":4,"pop":25219,"hh":10996,"elderly65_r":0.2598,"single_hh_r":0.2967,"source_level":"emd","flood_years":[],"landslide_hist_n":0},"geometry":{"type":"Polygon","coordinates":[[[129.04754,35.20477],[129.04668,35.20091],[129.05088,35.19876],[129.05593,35.20046],[129.05679,35.20432],[129.05259,35.20647],[129.04754,35.20477]]]}},{"type":"Feature","properties":{"h3":"8830c16035fffff","emd_code":"2632057200","emd_name":"만덕2동","area_km2":0.5467,"edge":true,"slope_mean":22.18,"elev_mean":269.6,"flood_hist_n":0,"flood_depth_max_m":null,"flood_risk_100y":null,"semi_basement_r":null,"elderly_alone_r":0.1469,"bldg_age30_r":null,"shelter_min_walk":7,"pop":25219,"hh":10996,"elderly65_r":0.2598,"single_hh_r":0.2967,"source_level":"emd","flood_years":[],"landslide_hist_n":0},"geometry":{"type":"Polygon","coordinates":[[[129.04163,35.1992],[129.04078,35.19535],[129.04497,35.19319],[129.05003,35.1949],[129.05088,35.19876],[129.04668,35.20091],[129.04163,35.1992]]]}},{"type":"Feature","properties":{"h3":"8830c16039fffff","emd_code":"2632057200","emd_name":"만덕2동","area_km2":0.5465,"edge":false,"slope_mean":20.6,"elev_mean":248.2,"flood_hist_n":0,"flood_depth_max_m":null,"flood_risk_100y":null,"semi_basement_r":null,"elderly_alone_r":0.1469,"bldg_age30_r":null,"shelter_min_walk":10,"pop":25219,"hh":10996,"elderly65_r":0.2598,"single_hh_r":0.2967,"source_level":"emd","flood_years":[],"landslide_hist_n":0},"geometry":{"type":"Polygon","coordinates":[[[129.04419,35.21078],[129.04334,35.20692],[129.04754,35.20477],[129.05259,35.20647],[129.05344,35.21033],[129.04924,35.21248],[129.04419,35.21078]]]}},{"type":"Feature","properties":{"h3":"8830c1603dfffff","emd_code":"2632057200","emd_name":"만덕2동","area_km2":0.5466,"edge":false,"slope_mean":18.48,"elev_mean":240.1,"flood_hist_n":0,"flood_depth_max_m":null,"flood_risk_100y":null,"semi_basement_r":null,"elderly_alone_r":0.1469,"bldg_age30_r":null,"shelter_min_walk":11,"pop":25219,"hh":10996,"elderly65_r":0.2598,"single_hh_r":0.2967,"source_level":"emd","flood_years":[],"landslide_hist_n":0},"geometry":{"type":"Polygon","coordinates":[[[129.03828,35.20522],[129.03743,35.20136],[129.04163,35.1992],[129.04668,35.20091],[129.04754,35.20477],[129.04334,35.20692],[129.03828,35.20522]]]}},{"type":"Feature","properties":{"h3":"8830c16041fffff","emd_code":"2632054100","emd_name":"화명1동","area_km2":0.546,"edge":false,"slope_mean":20.25,"elev_mean":171.1,"flood_hist_n":1,"flood_depth_max_m":0.982,"flood_risk_100y":null,"semi_basement_r":null,"elderly_alone_r":0.0666,"bldg_age30_r":null,"shelter_min_walk":8,"pop":38504,"hh":14335,"elderly65_r":0.1814,"single_hh_r":0.1624,"source_level":"emd","flood_years":[2014],"landslide_hist_n":0},"geometry":{"type":"Polygon","coordinates":[[[129.01565,35.2297],[129.0148,35.22584],[129.01899,35.22369],[129.02405,35.2254],[129.0249,35.22925],[129.0207,35.2314],[129.01565,35.2297]]]}},{"type":"Feature","properties":{"h3":"8830c16043fffff","emd_code":"2632054100","emd_name":"화명1동","area_km2":0.5461,"edge":false,"slope_mean":20.85,"elev_mean":277.1,"flood_hist_n":0,"flood_depth_max_m":null,"flood_risk_100y":null,"semi_basement_r":null,"elderly_alone_r":0.0666,"bldg_age30_r":null,"shelter_min_walk":18,"pop":38504,"hh":14335,"elderly65_r":0.1814,"single_hh_r":0.1624,"source_level":"emd","flood_years":[],"landslide_hist_n":0},"geometry":{"type":"Polygon","coordinates":[[[129.0249,35.22925],[129.02405,35.2254],[129.02825,35.22324],[129.0333,35.22495],[129.03415,35.2288],[129.02995,35.23096],[129.0249,35.22925]]]}},{"type":"Feature","properties":{"h3":"8830c16045fffff","emd_code":"2632054100","emd_name":"화명1동","area_km2":0.5461,"edge":false,"slope_mean":13.94,"elev_mean":74.4,"flood_hist_n":0,"flood_depth_max_m":null,"flood_risk_100y":null,"semi_basement_r":null,"elderly_alone_r":0.0666,"bldg_age30_r":null,"shelter_min_walk":6,"pop":38504,"hh":14335,"elderly65_r":0.1814,"single_hh_r":0.1624,"source_level":"emd","flood_years":[],"landslide_hist_n":0},"geometry":{"type":"Polygon","coordinates":[[[129.00974,35.22414],[129.00889,35.22028],[129.01309,35.21813],[129.01814,35.21983],[129.01899,35.22369],[129.0148,35.22584],[129.00974,35.22414]]]}},{"type":"Feature","properties":{"h3":"8830c16047fffff","emd_code":"2632055000","emd_name":"덕천1동","area_km2":0.5462,"edge":false,"slope_mean":22.18,"elev_mean":157.5,"flood_hist_n":0,"flood_depth_max_m":null,"flood_risk_100y":null,"semi_basement_r":null,"elderly_alone_r":0.2181,"bldg_age30_r":null,"shelter_min_walk":9,"pop":13897,"hh":7644,"elderly65_r":0.3034,"single_hh_r":0.506,"source_level":"emd","flood_years":[],"landslide_hist_n":0},"geometry":{"type":"Polygon","coordinates":[[[129.01899,35.22369],[129.01814,35.21983],[129.02234,35.21768],[129.02739,35.21939],[129.02825,35.22324],[129.02405,35.2254],[129.01899,35.22369]]]}},{"type":"Feature","properties":{"h3":"8830c16049fffff","emd_code":"2632054100","emd_name":"화명1동","area_km2":0.5459,"edge":false,"slope_mean":11.07,"elev_mean":55.1,"flood_hist_n":1,"flood_depth_max_m":0.367,"flood_risk_100y":null,"semi_basement_r":null,"elderly_alone_r":0.0666,"bldg_age30_r":null,"shelter_min_walk":2,"pop":38504,"hh":14335,"elderly65_r":0.1814,"single_hh_r":0.1624,"source_level":"emd","flood_years":[2014],"landslide_hist_n":0},"geometry":{"type":"Polygon","coordinates":[[[129.0123,35.2357],[129.01145,35.23185],[129.01565,35.2297],[129.0207,35.2314],[129.02155,35.23526],[129.01736,35.23741],[129.0123,35.2357]]]}},{"type":"Feature","properties":{"h3":"8830c1604bfffff","emd_code":"2632054100","emd_name":"화명1동","area_km2":0.546,"edge":false,"slope_mean":15.52,"elev_mean":169.2,"flood_hist_n":0,"flood_depth_max_m":null,"flood_risk_100y":null,"semi_basement_r":null,"elderly_alone_r":0.0666,"bldg_age30_r":null,"shelter_min_walk":8,"pop":38504,"hh":14335,"elderly65_r":0.1814,"single_hh_r":0.1624,"source_level":"emd","flood_years":[],"landslide_hist_n":0},"geometry":{"type":"Polygon","coordinates":[[[129.02155,35.23526],[129.0207,35.2314],[129.0249,35.22925],[129.02995,35.23096],[129.03081,35.23481],[129.02661,35.23696],[129.02155,35.23526]]]}},{"type":"Feature","properties":{"h3":"8830c1604dfffff","emd_code":"2632054300","emd_name":"화명3동","area_km2":0.546,"edge":false,"slope_mean":6.82,"elev_mean":24.1,"flood_hist_n":1,"flood_depth_max_m":0.982,"flood_risk_100y":null,"semi_basement_r":null,"elderly_alone_r":0.0911,"bldg_age30_r":null,"shelter_min_walk":1,"pop":27540,"hh":10844,"elderly65_r":0.1899,"single_hh_r":0.2382,"source_level":"emd","flood_years":[2014],"landslide_hist_n":0},"geometry":{"type":"Polygon","coordinates":[[[129.0064,35.23014],[129.00554,35.22629],[129.00974,35.22414],[129.0148,35.22584],[129.01565,35.2297],[129.01145,35.23185],[129.0064,35.23014]]]}},{"type":"Feature","properties":{"h3":"8830c16051fffff","emd_code":"2632054100","emd_name":"화명1동","area_km2":0.5461,"edge":false,"slope_mean":24.8,"elev_mean":539.4,"flood_hist_n":0,"flood_depth_max_m":null,"flood_risk_100y":null,"semi_basement_r":null,"elderly_alone_r":0.0666,"bldg_age30_r":null,"shelter_min_walk":32,"pop":38504,"hh":14335,"elderly65_r":0.1814,"single_hh_r":0.1624,"source_level":"emd","flood_years":[],"landslide_hist_n":0},"geometry":{"type":"Polygon","coordinates":[[[129.04006,35.23436],[129.03921,35.23051],[129.04341,35.22836],[129.04846,35.23006],[129.04931,35.23392],[129.04511,35.23607],[129.04006,35.23436]]]}},{"type":"Feature","properties":{"h3":"8830c16053fffff","emd_code":"2632057100","emd_name":"만덕1동","area_km2":0.5461,"edge":true,"slope_mean":14.33,"elev_mean":515.1,"flood_hist_n":0,"flood_depth_max_m":null,"flood_risk_100y":null,"semi_basement_r":null,"elderly_alone_r":0.1291,"bldg_age30_r":null,"shelter_min_walk":31,"pop":15726,"hh":6971,"elderly65_r":0.2495,"single_hh_r":0.2991,"source_level":"emd","flood_years":[],"landslide_hist_n":0},"geometry":{"type":"Polygon","coordinates":[[[129.04931,35.23392],[129.04846,35.23006],[129.05266,35.22791],[129.05771,35.22961],[129.05857,35.23347],[129.05437,35.23562],[129.04931,35.23392]]]}},{"type":"Feature","properties":{"h3":"8830c16055fffff","emd_code":"2632057100","emd_name":"만덕1동","area_km2":0.5461,"edge":false,"slope_mean":26.47,"elev_mean":386.7,"flood_hist_n":0,"flood_depth_max_m":null,"flood_risk_100y":null,"semi_basement_r":null,"elderly_alone_r":0.1291,"bldg_age30_r":null,"shelter_min_walk":21,"pop":15726,"hh":6971,"elderly65_r":0.2495,"single_hh_r":0.2991,"source_level":"emd","flood_years":[],"landslide_hist_n":0},"geometry":{"type":"Polygon","coordinates":[[[129.03415,35.2288],[129.0333,35.22495],[129.0375,35.2228],[129.04255,35.2245],[129.04341,35.22836],[129.03921,35.23051],[129.03415,35.2288]]]}},{"type":"Feature","properties":{"h3":"8830c16057fffff","emd_code":"2632057100","emd_name":"만덕1동","area_km2":0.5462,"edge":false,"slope_mean":24.96,"elev_mean":478.3,"flood_hist_n":0,"flood_depth_max_m":null,"flood_risk_100y":null,"semi_basement_r":null,"elderly_alone_r":0.1291,"bldg_age30_r":null,"shelter_min_walk":24,"pop":15726,"hh":6971,"elderly65_r":0.2495,"single_hh_r":0.2991,"source_level":"emd","flood_years":[],"landslide_hist_n":0},"geometry":{"type":"Polygon","coordinates":[[[129.04341,35.22836],[129.04255,35.2245],[129.04675,35.22235],[129.0518,35.22405],[129.05266,35.22791],[129.04846,35.23006],[129.04341,35.22836]]]}},{"type":"Feature","properties":{"h3":"8830c16059fffff","emd_code":"2632054100","emd_name":"화명1동","area_km2":0.546,"edge":false,"slope_mean":20.27,"elev_mean":382.5,"flood_hist_n":0,"flood_depth_max_m":null,"flood_risk_100y":null,"semi_basement_r":null,"elderly_alone_r":0.0666,"bldg_age30_r":null,"shelter_min_walk":27,"pop":38504,"hh":14335,"elderly65_r":0.1814,"single_hh_r":0.1624,"source_level":"emd","flood_years":[],"landslide_hist_n":0},"geometry":{"type":"Polygon","coordinates":[[[129.03671,35.24037],[129.03586,35.23652],[129.04006,35.23436],[129.04511,35.23607],[129.04597,35.23992],[129.04177,35.24207],[129.03671,35.24037]]]}},{"type":"Feature","properties":{"h3":"8830c1605bfffff","emd_code":"2632054100","emd_name":"화명1동","area_km2":0.546,"edge":true,"slope_mean":18.44,"elev_mean":481.3,"flood_hist_n":0,"flood_depth_max_m":null,"flood_risk_100y":null,"semi_basement_r":null,"elderly_alone_r":0.0666,"bldg_age30_r":null,"shelter_min_walk":38,"pop":38504,"hh":14335,"elderly65_r":0.1814,"single_hh_r":0.1624,"source_level":"emd","flood_years":[],"landslide_hist_n":0},"geometry":{"type":"Polygon","coordinates":[[[129.04597,35.23992],[129.04511,35.23607],[129.04931,35.23392],[129.05437,35.23562],[129.05522,35.23948],[129.05102,35.24163],[129.04597,35.23992]]]}},{"type":"Feature","properties":{"h3":"8830c1605dfffff","emd_code":"2632054100","emd_name":"화명1동","area_km2":0.546,"edge":false,"slope_mean":23.21,"elev_mean":360.4,"flood_hist_n":0,"flood_depth_max_m":null,"flood_risk_100y":null,"semi_basement_r":null,"elderly_alone_r":0.0666,"bldg_age30_r":null,"shelter_min_walk":21,"pop":38504,"hh":14335,"elderly65_r":0.1814,"single_hh_r":0.1624,"source_level":"emd","flood_years":[],"landslide_hist_n":0},"geometry":{"type":"Polygon","coordinates":[[[129.03081,35.23481],[129.02995,35.23096],[129.03415,35.2288],[129.03921,35.23051],[129.04006,35.23436],[129.03586,35.23652],[129.03081,35.23481]]]}},{"type":"Feature","properties":{"h3":"8830c16061fffff","emd_code":"2632055000","emd_name":"덕천1동","area_km2":0.5463,"edge":false,"slope_mean":8.32,"elev_mean":31.1,"flood_hist_n":1,"flood_depth_max_m":0.423,"flood_risk_100y":null,"semi_basement_r":null,"elderly_alone_r":0.2181,"bldg_age30_r":null,"shelter_min_walk":2,"pop":13897,"hh":7644,"elderly65_r":0.3034,"single_hh_r":0.506,"source_level":"emd","flood_years":[2014],"landslide_hist_n":0},"geometry":{"type":"Polygon","coordinates":[[[129.00718,35.21257],[129.00633,35.20871],[129.01053,35.20656],[129.01558,35.20826],[129.01643,35.21212],[129.01224,35.21427],[129.00718,35.21257]]]}},{"type":"Feature","properties":{"h3":"8830c16063fffff","emd_code":"2632056100","emd_name":"덕천3동","area_km2":0.5463,"edge":false,"slope_mean":15.55,"elev_mean":93.7,"flood_hist_n":1,"flood_depth_max_m":0.423,"flood_risk_100y":null,"semi_basement_r":null,"elderly_alone_r":0.2705,"bldg_age30_r":null,"shelter_min_walk":4,"pop":9200,"hh":5246,"elderly65_r":0.3502,"single_hh_r":0.5416,"source_level":"emd","flood_years":[2014],"landslide_hist_n":0},"geometry":{"type":"Polygon","coordinates":[[[129.01643,35.21212],[129.01558,35.20826],[129.01978,35.20611],[129.02483,35.20782],[129.02569,35.21167],[129.02149,35.21383],[129.01643,35.21212]]]}},{"type":"Feature","properties":{"h3":"8830c16065fffff","emd_code":"2632051000","emd_name":"구포1동","area_km2":0.5464,"edge":false,"slope_mean":10.52,"elev_mean":45.7,"flood_hist_n":1,"flood_depth_max_m":1.125,"flood_risk_100y":null,"semi_basement_r":null,"elderly_alone_r":0.2051,"bldg_age30_r":null,"shelter_min_walk":3,"pop":14449,"hh":7874,"elderly65_r":0.3058,"single_hh_r":0.4982,"source_level":"emd","flood_years":[2014],"landslide_hist_n":0},"geometry":{"type":"Polygon","coordinates":[[[129.00128,35.207],[129.00042,35.20315],[129.00462,35.201],[129.00968,35.2027],[129.01053,35.20656],[129.00633,35.20871],[129.00128,35.207]]]}},{"type":"Feature","properties":{"h3":"8830c16067fffff","emd_code":"2632051000","emd_name":"구포1동","area_km2":0.5464,"edge":false,"slope_mean":23.28,"elev_mean":187.8,"flood_hist_n":1,"flood_depth_max_m":0.643,"flood_risk_100y":null,"semi_basement_r":null,"elderly_alone_r":0.2051,"bldg_age30_r":null,"shelter_min_walk":8,"pop":14449,"hh":7874,"elderly65_r":0.3058,"single_hh_r":0.4982,"source_level":"emd","flood_years":[2014],"landslide_hist_n":0},"geometry":{"type":"Polygon","coordinates":[[[129.01053,35.20656],[129.00968,35.2027],[129.01387,35.20055],[129.01893,35.20225],[129.01978,35.20611],[129.01558,35.20826],[129.01053,35.20656]]]}},{"type":"Feature","properties":{"h3":"8830c16069fffff","emd_code":"2632056000","emd_name":"덕천2동","area_km2":0.5462,"edge":false,"slope_mean":9.65,"elev_mean":26.9,"flood_hist_n":1,"flood_depth_max_m":0.547,"flood_risk_100y":null,"semi_basement_r":null,"elderly_alone_r":0.2164,"bldg_age30_r":null,"shelter_min_walk":9,"pop":10481,"hh":6371,"elderly65_r":0.3361,"single_hh_r":0.5886,"source_level":"emd","flood_years":[2014],"landslide_hist_n":0},"geometry":{"type":"Polygon","coordinates":[[[129.00384,35.21858],[129.00298,35.21472],[129.00718,35.21257],[129.01224,35.21427],[129.01309,35.21813],[129.00889,35.22028],[129.00384,35.21858]]]}},{"type":"Feature","properties":{"h3":"8830c1606bfffff","emd_code":"2632055000","emd_name":"덕천1동","area_km2":0.5462,"edge":false,"slope_mean":14.7,"elev_mean":57.2,"flood_hist_n":1,"flood_depth_max_m":0.72,"flood_risk_100y":null,"semi_basement_r":null,"elderly_alone_r":0.2181,"bldg_age30_r":null,"shelter_min_walk":5,"pop":13897,"hh":7644,"elderly65_r":0.3034,"single_hh_r":0.506,"source_level":"emd","flood_years":[2014],"landslide_hist_n":0},"geometry":{"type":"Polygon","coordinates":[[[129.01309,35.21813],[129.01224,35.21427],[129.01643,35.21212],[129.02149,35.21383],[129.02234,35.21768],[129.01814,35.21983],[129.01309,35.21813]]]}},{"type":"Feature","properties":{"h3":"8830c1606dfffff","emd_code":"2632056000","emd_name":"덕천2동","area_km2":0.5462,"edge":false,"slope_mean":3.7,"elev_mean":7.1,"flood_hist_n":1,"flood_depth_max_m":0.594,"flood_risk_100y":null,"semi_basement_r":null,"elderly_alone_r":0.2164,"bldg_age30_r":null,"shelter_min_walk":4,"pop":10481,"hh":6371,"elderly65_r":0.3361,"single_hh_r":0.5886,"source_level":"emd","flood_years":[2014],"landslide_hist_n":0},"geometry":{"type":"Polygon","coordinates":[[[128.99793,35.21301],[128.99708,35.20916],[129.00128,35.207],[129.00633,35.20871],[129.00718,35.21257],[129.00298,35.21472],[128.99793,35.21301]]]}},{"type":"Feature","properties":{"h3":"8830c16119fffff","emd_code":"2632052100","emd_name":"구포3동","area_km2":0.5467,"edge":true,"slope_mean":25.38,"elev_mean":394.7,"flood_hist_n":0,"flood_depth_max_m":null,"flood_risk_100y":null,"semi_basement_r":null,"elderly_alone_r":0.1906,"bldg_age30_r":null,"shelter_min_walk":14,"pop":16589,"hh":8702,"elderly65_r":0.3052,"single_hh_r":0.4604,"source_level":"emd","flood_years":[],"landslide_hist_n":0},"geometry":{"type":"Polygon","coordinates":[[[129.01131,35.18897],[129.01046,35.18511],[129.01466,35.18296],[129.01971,35.18467],[129.02056,35.18853],[129.01637,35.19068],[129.01131,35.18897]]]}},{"type":"Feature","properties":{"h3":"8830c1611bfffff","emd_code":"2632052100","emd_name":"구포3동","area_km2":0.5468,"edge":true,"slope_mean":24.53,"elev_mean":492.5,"flood_hist_n":0,"flood_depth_max_m":null,"flood_risk_100y":null,"semi_basement_r":null,"elderly_alone_r":0.1906,"bldg_age30_r":null,"shelter_min_walk":20,"pop":16589,"hh":8702,"elderly65_r":0.3052,"single_hh_r":0.4604,"source_level":"emd","flood_years":[],"landslide_hist_n":0},"geometry":{"type":"Polygon","coordinates":[[[129.02056,35.18853],[129.01971,35.18467],[129.02391,35.18251],[129.02896,35.18422],[129.02982,35.18808],[129.02562,35.19023],[129.02056,35.18853]]]}},{"type":"Feature","properties":{"h3":"8830c16151fffff","emd_code":"2632052100","emd_name":"구포3동","area_km2":0.5465,"edge":false,"slope_mean":18.69,"elev_mean":156.6,"flood_hist_n":0,"flood_depth_max_m":null,"flood_risk_100y":null,"semi_basement_r":null,"elderly_alone_r":0.1906,"bldg_age30_r":null,"shelter_min_walk":4,"pop":16589,"hh":8702,"elderly65_r":0.3052,"single_hh_r":0.4604,"source_level":"emd","flood_years":[],"landslide_hist_n":0},"geometry":{"type":"Polygon","coordinates":[[[128.99872,35.19543],[128.99787,35.19157],[129.00206,35.18942],[129.00712,35.19113],[129.00797,35.19498],[129.00377,35.19714],[128.99872,35.19543]]]}},{"type":"Feature","properties":{"h3":"8830c16153fffff","emd_code":"2632052100","emd_name":"구포3동","area_km2":0.5466,"edge":false,"slope_mean":21.27,"elev_mean":233.3,"flood_hist_n":1,"flood_depth_max_m":1.085,"flood_risk_100y":null,"semi_basement_r":null,"elderly_alone_r":0.1906,"bldg_age30_r":null,"shelter_min_walk":3,"pop":16589,"hh":8702,"elderly65_r":0.3052,"single_hh_r":0.4604,"source_level":"emd","flood_years":[2014],"landslide_hist_n":0},"geometry":{"type":"Polygon","coordinates":[[[129.00797,35.19498],[129.00712,35.19113],[129.01131,35.18897],[129.01637,35.19068],[129.01722,35.19454],[129.01302,35.19669],[129.00797,35.19498]]]}},{"type":"Feature","properties":{"h3":"8830c16157fffff","emd_code":"2632052100","emd_name":"구포3동","area_km2":0.5467,"edge":true,"slope_mean":18.6,"elev_mean":200.2,"flood_hist_n":0,"flood_depth_max_m":null,"flood_risk_100y":null,"semi_basement_r":null,"elderly_alone_r":0.1906,"bldg_age30_r":null,"shelter_min_walk":7,"pop":16589,"hh":8702,"elderly65_r":0.3052,"single_hh_r":0.4604,"source_level":"emd","flood_years":[],"landslide_hist_n":0},"geometry":{"type":"Polygon","coordinates":[[[129.00206,35.18942],[129.00121,35.18556],[129.00541,35.18341],[129.01046,35.18511],[129.01131,35.18897],[129.00712,35.19113],[129.00206,35.18942]]]}},{"type":"Feature","properties":{"h3":"8830c16159fffff","emd_code":"2632052000","emd_name":"구포2동","area_km2":0.5464,"edge":false,"slope_mean":11.15,"elev_mean":45.7,"flood_hist_n":1,"flood_depth_max_m":0.385,"flood_risk_100y":null,"semi_basement_r":null,"elderly_alone_r":0.1726,"bldg_age30_r":null,"shelter_min_walk":1,"pop":22275,"hh":11283,"elderly65_r":0.2874,"single_hh_r":0.4369,"source_level":"emd","flood_years":[2014],"landslide_hist_n":0},"geometry":{"type":"Polygon","coordinates":[[[128.99537,35.20144],[128.99452,35.19758],[128.99872,35.19543],[129.00377,35.19714],[129.00462,35.201],[129.00042,35.20315],[128.99537,35.20144]]]}},{"type":"Feature","properties":{"h3":"8830c1615bfffff","emd_code":"2632052100","emd_name":"구포3동","area_km2":0.5465,"edge":false,"slope_mean":16.69,"elev_mean":118.1,"flood_hist_n":1,"flood_depth_max_m":0.385,"flood_risk_100y":null,"semi_basement_r":null,"elderly_alone_r":0.1906,"bldg_age30_r":null,"shelter_min_walk":2,"pop":16589,"hh":8702,"elderly65_r":0.3052,"single_hh_r":0.4604,"source_level":"emd","flood_years":[2014],"landslide_hist_n":0},"geometry":{"type":"Polygon","coordinates":[[[129.00462,35.201],[129.00377,35.19714],[129.00797,35.19498],[129.01302,35.19669],[129.01387,35.20055],[129.00968,35.2027],[129.00462,35.201]]]}},{"type":"Feature","properties":{"h3":"8830c1615dfffff","emd_code":"2632052000","emd_name":"구포2동","area_km2":0.5465,"edge":true,"slope_mean":10.25,"elev_mean":47.0,"flood_hist_n":0,"flood_depth_max_m":null,"flood_risk_100y":null,"semi_basement_r":null,"elderly_alone_r":0.1726,"bldg_age30_r":null,"shelter_min_walk":3,"pop":22275,"hh":11283,"elderly65_r":0.2874,"single_hh_r":0.4369,"source_level":"emd","flood_years":[],"landslide_hist_n":0},"geometry":{"type":"Polygon","coordinates":[[[128.98947,35.19588],[128.98862,35.19202],[128.99281,35.18987],[128.99787,35.19157],[128.99872,35.19543],[128.99452,35.19758],[128.98947,35.19588]]]}},{"type":"Feature","properties":{"h3":"8830c16201fffff","emd_code":"2632053000","emd_name":"금곡동","area_km2":0.5455,"edge":false,"slope_mean":9.15,"elev_mean":36.5,"flood_hist_n":0,"flood_depth_max_m":null,"flood_risk_100y":null,"semi_basement_r":null,"elderly_alone_r":0.2715,"bldg_age30_r":null,"shelter_min_walk":1,"pop":33411,"hh":17401,"elderly65_r":0.3315,"single_hh_r":0.4672,"source_level":"emd","flood_years":[],"landslide_hist_n":0},"geometry":{"type":"Polygon","coordinates":[[[129.00817,35.25928],[129.00732,35.25542],[129.01152,35.25327],[129.01657,35.25498],[129.01742,35.25883],[129.01322,35.26098],[129.00817,35.25928]]]}},{"type":"Feature","properties":{"h3":"8830c16203fffff","emd_code":"2632053000","emd_name":"금곡동","area_km2":0.5456,"edge":false,"slope_mean":22.77,"elev_mean":234.5,"flood_hist_n":0,"flood_depth_max_m":null,"flood_risk_100y":null,"semi_basement_r":null,"elderly_alone_r":0.2715,"bldg_age30_r":null,"shelter_min_walk":9,"pop":33411,"hh":17401,"elderly65_r":0.3315,"single_hh_r":0.4672,"source_level":"emd","flood_years":[],"landslide_hist_n":0},"geometry":{"type":"Polygon","coordinates":[[[129.01742,35.25883],[129.01657,35.25498],[129.02077,35.25283],[129.02582,35.25453],[129.02668,35.25839],[129.02248,35.26054],[129.01742,35.25883]]]}},{"type":"Feature","properties":{"h3":"8830c16205fffff","emd_code":"2632053000","emd_name":"금곡동","area_km2":0.5456,"edge":false,"slope_mean":1.93,"elev_mean":3.4,"flood_hist_n":0,"flood_depth_max_m":null,"flood_risk_100y":null,"semi_basement_r":null,"elderly_alone_r":0.2715,"bldg_age30_r":null,"shelter_min_walk":9,"pop":33411,"hh":17401,"elderly65_r":0.3315,"single_hh_r":0.4672,"source_level":"emd","flood_years":[],"landslide_hist_n":0},"geometry":{"type":"Polygon","coordinates":[[[129.00227,35.25372],[129.00141,35.24986],[129.00561,35.24771],[129.01066,35.24942],[129.01152,35.25327],[129.00732,35.25542],[129.00227,35.25372]]]}},{"type":"Feature","properties":{"h3":"8830c16207fffff","emd_code":"2632053000","emd_name":"금곡동","area_km2":0.5456,"edge":false,"slope_mean":16.74,"elev_mean":99.9,"flood_hist_n":0,"flood_depth_max_m":null,"flood_risk_100y":null,"semi_basement_r":null,"elderly_alone_r":0.2715,"bldg_age30_r":null,"shelter_min_walk":3,"pop":33411,"hh":17401,"elderly65_r":0.3315,"single_hh_r":0.4672,"source_level":"emd","flood_years":[],"landslide_hist_n":0},"geometry":{"type":"Polygon","coordinates":[[[129.01152,35.25327],[129.01066,35.24942],[129.01486,35.24727],[129.01992,35.24897],[129.02077,35.25283],[129.01657,35.25498],[129.01152,35.25327]]]}},{"type":"Feature","properties":{"h3":"8830c16209fffff","emd_code":"2632053000","emd_name":"금곡동","area_km2":0.5454,"edge":true,"slope_mean":0.91,"elev_mean":1.6,"flood_hist_n":0,"flood_depth_max_m":null,"flood_risk_100y":null,"semi_basement_r":null,"elderly_alone_r":0.2715,"bldg_age30_r":null,"shelter_min_walk":10,"pop":33411,"hh":17401,"elderly65_r":0.3315,"single_hh_r":0.4672,"source_level":"emd","flood_years":[],"landslide_hist_n":0},"geometry":{"type":"Polygon","coordinates":[[[129.00483,35.26528],[129.00397,35.26142],[129.00817,35.25928],[129.01322,35.26098],[129.01408,35.26483],[129.00988,35.26698],[129.00483,35.26528]]]}},{"type":"Feature","properties":{"h3":"8830c1620bfffff","emd_code":"2632053000","emd_name":"금곡동","area_km2":0.5454,"edge":false,"slope_mean":10.94,"elev_mean":58.1,"flood_hist_n":0,"flood_depth_max_m":null,"flood_risk_100y":null,"semi_basement_r":null,"elderly_alone_r":0.2715,"bldg_age30_r":null,"shelter_min_walk":1,"pop":33411,"hh":17401,"elderly65_r":0.3315,"single_hh_r":0.4672,"source_level":"emd","flood_years":[],"landslide_hist_n":0},"geometry":{"type":"Polygon","coordinates":[[[129.01408,35.26483],[129.01322,35.26098],[129.01742,35.25883],[129.02248,35.26054],[129.02333,35.26439],[129.01913,35.26654],[129.01408,35.26483]]]}},{"type":"Feature","properties":{"h3":"8830c16211fffff","emd_code":"2632053000","emd_name":"금곡동","area_km2":0.5455,"edge":false,"slope_mean":16.45,"elev_mean":424.6,"flood_hist_n":0,"flood_depth_max_m":null,"flood_risk_100y":null,"semi_basement_r":null,"elderly_alone_r":0.2715,"bldg_age30_r":null,"shelter_min_walk":13,"pop":33411,"hh":17401,"elderly65_r":0.3315,"single_hh_r":0.4672,"source_level":"emd","flood_years":[],"landslide_hist_n":0},"geometry":{"type":"Polygon","coordinates":[[[129.03258,35.26394],[129.03173,35.26009],[129.03593,35.25794],[129.04098,35.25964],[129.04184,35.2635],[129.03764,35.26565],[129.03258,35.26394]]]}},{"type":"Feature","properties":{"h3":"8830c16215fffff","emd_code":"2632053000","emd_name":"금곡동","area_km2":0.5456,"edge":false,"slope_mean":20.13,"elev_mean":375.8,"flood_hist_n":0,"flood_depth_max_m":null,"flood_risk_100y":null,"semi_basement_r":null,"elderly_alone_r":0.2715,"bldg_age30_r":null,"shelter_min_walk":18,"pop":33411,"hh":17401,"elderly65_r":0.3315,"single_hh_r":0.4672,"source_level":"emd","flood_years":[],"landslide_hist_n":0},"geometry":{"type":"Polygon","coordinates":[[[129.02668,35.25839],[129.02582,35.25453],[129.03002,35.25238],[129.03507,35.25409],[129.03593,35.25794],[129.03173,35.26009],[129.02668,35.25839]]]}},{"type":"Feature","properties":{"h3":"8830c16217fffff","emd_code":"2632054200","emd_name":"화명2동","area_km2":0.5457,"edge":false,"slope_mean":18.04,"elev_mean":290.5,"flood_hist_n":0,"flood_depth_max_m":null,"flood_risk_100y":null,"semi_basement_r":null,"elderly_alone_r":0.1373,"bldg_age30_r":null,"shelter_min_walk":11,"pop":16443,"hh":7263,"elderly65_r":0.2358,"single_hh_r":0.3189,"source_level":"emd","flood_years":[],"landslide_hist_n":0},"geometry":{"type":"Polygon","coordinates":[[[129.03593,35.25794],[129.03507,35.25409],[129.03927,35.25193],[129.04433,35.25364],[129.04518,35.25749],[129.04098,35.25964],[129.03593,35.25794]]]}},{"type":"Feature","properties":{"h3":"8830c16219fffff","emd_code":"2632053000","emd_name":"금곡동","area_km2":0.5454,"edge":false,"slope_mean":17.77,"elev_mean":361.2,"flood_hist_n":0,"flood_depth_max_m":null,"flood_risk_100y":null,"semi_basement_r":null,"elderly_alone_r":0.2715,"bldg_age30_r":null,"shelter_min_walk":19,"pop":33411,"hh":17401,"elderly65_r":0.3315,"single_hh_r":0.4672,"source_level":"emd","flood_years":[],"landslide_hist_n":0},"geometry":{"type":"Polygon","coordinates":[[[129.02924,35.26994],[129.02838,35.26609],[129.03258,35.26394],[129.03764,35.26565],[129.03849,35.2695],[129.03429,35.27165],[129.02924,35.26994]]]}},{"type":"Feature","properties":{"h3":"8830c1621bfffff","emd_code":"2632053000","emd_name":"금곡동","area_km2":0.5455,"edge":true,"slope_mean":17.1,"elev_mean":492.4,"flood_hist_n":0,"flood_depth_max_m":null,"flood_risk_100y":null,"semi_basement_r":null,"elderly_alone_r":0.2715,"bldg_age30_r":null,"shelter_min_walk":13,"pop":33411,"hh":17401,"elderly65_r":0.3315,"single_hh_r":0.4672,"source_level":"emd","flood_years":[],"landslide_hist_n":0},"geometry":{"type":"Polygon","coordinates":[[[129.03849,35.2695],[129.03764,35.26565],[129.04184,35.2635],[129.04689,35.2652],[129.04774,35.26905],[129.04354,35.2712],[129.03849,35.2695]]]}},{"type":"Feature","properties":{"h3":"8830c1621dfffff","emd_code":"2632053000","emd_name":"금곡동","area_km2":0.5455,"edge":false,"slope_mean":20.65,"elev_mean":257.7,"flood_hist_n":0,"flood_depth_max_m":null,"flood_risk_100y":null,"semi_basement_r":null,"elderly_alone_r":0.2715,"bldg_age30_r":null,"shelter_min_walk":9,"pop":33411,"hh":17401,"elderly65_r":0.3315,"single_hh_r":0.4672,"source_level":"emd","flood_years":[],"landslide_hist_n":0},"geometry":{"type":"Polygon","coordinates":[[[129.02333,35.26439],[129.02248,35.26054],[129.02668,35.25839],[129.03173,35.26009],[129.03258,35.26394],[129.02838,35.26609],[129.02333,35.26439]]]}},{"type":"Feature","properties":{"h3":"8830c16221fffff","emd_code":"2632054300","emd_name":"화명3동","area_km2":0.5458,"edge":false,"slope_mean":1.37,"elev_mean":2.2,"flood_hist_n":0,"flood_depth_max_m":null,"flood_risk_100y":null,"semi_basement_r":null,"elderly_alone_r":0.0911,"bldg_age30_r":null,"shelter_min_walk":11,"pop":27540,"hh":10844,"elderly65_r":0.1899,"single_hh_r":0.2382,"source_level":"emd","flood_years":[],"landslide_hist_n":0},"geometry":{"type":"Polygon","coordinates":[[[128.99971,35.24215],[128.99885,35.2383],[129.00305,35.23615],[129.0081,35.23785],[129.00896,35.24171],[129.00476,35.24386],[128.99971,35.24215]]]}},{"type":"Feature","properties":{"h3":"8830c16223fffff","emd_code":"2632054300","emd_name":"화명3동","area_km2":0.5458,"edge":false,"slope_mean":6.38,"elev_mean":15.3,"flood_hist_n":1,"flood_depth_max_m":1.205,"flood_risk_100y":null,"semi_basement_r":null,"elderly_alone_r":0.0911,"bldg_age30_r":null,"shelter_min_walk":4,"pop":27540,"hh":10844,"elderly65_r":0.1899,"single_hh_r":0.2382,"source_level":"emd","flood_years":[2014],"landslide_hist_n":0},"geometry":{"type":"Polygon","coordinates":[[[129.00896,35.24171],[129.0081,35.23785],[129.0123,35.2357],[129.01736,35.23741],[129.01821,35.24126],[129.01401,35.24341],[129.00896,35.24171]]]}},{"type":"Feature","properties":{"h3":"8830c16225fffff","emd_code":"2632054300","emd_name":"화명3동","area_km2":0.5458,"edge":false,"slope_mean":1.16,"elev_mean":1.0,"flood_hist_n":0,"flood_depth_max_m":null,"flood_risk_100y":null,"semi_basement_r":null,"elderly_alone_r":0.0911,"bldg_age30_r":null,"shelter_min_walk":17,"pop":27540,"hh":10844,"elderly65_r":0.1899,"single_hh_r":0.2382,"source_level":"emd","flood_years":[],"landslide_hist_n":0},"geometry":{"type":"Polygon","coordinates":[[[128.9938,35.23659],[128.99295,35.23274],[128.99715,35.23059],[129.0022,35.23229],[129.00305,35.23615],[128.99885,35.2383],[128.9938,35.23659]]]}},{"type":"Feature","properties":{"h3":"8830c16227fffff","emd_code":"2632054300","emd_name":"화명3동","area_km2":0.5459,"edge":false,"slope_mean":3.78,"elev_mean":9.5,"flood_hist_n":0,"flood_depth_max_m":null,"flood_risk_100y":null,"semi_basement_r":null,"elderly_alone_r":0.0911,"bldg_age30_r":null,"shelter_min_walk":5,"pop":27540,"hh":10844,"elderly65_r":0.1899,"single_hh_r":0.2382,"source_level":"emd","flood_years":[],"landslide_hist_n":0},"geometry":{"type":"Polygon","coordinates":[[[129.00305,35.23615],[129.0022,35.23229],[129.0064,35.23014],[129.01145,35.23185],[129.0123,35.2357],[129.0081,35.23785],[129.00305,35.23615]]]}},{"type":"Feature","properties":{"h3":"8830c16229fffff","emd_code":"2632053000","emd_name":"금곡동","area_km2":0.5456,"edge":true,"slope_mean":0.88,"elev_mean":1.3,"flood_hist_n":0,"flood_depth_max_m":null,"flood_risk_100y":null,"semi_basement_r":null,"elderly_alone_r":0.2715,"bldg_age30_r":null,"shelter_min_walk":17,"pop":33411,"hh":17401,"elderly65_r":0.3315,"single_hh_r":0.4672,"source_level":"emd","flood_years":[],"landslide_hist_n":0},"geometry":{"type":"Polygon","coordinates":[[[128.99636,35.24816],[128.99551,35.2443],[128.99971,35.24215],[129.00476,35.24386],[129.00561,35.24771],[129.00141,35.24986],[128.99636,35.24816]]]}},{"type":"Feature","properties":{"h3":"8830c1622bfffff","emd_code":"2632053000","emd_name":"금곡동","area_km2":0.5457,"edge":false,"slope_mean":4.73,"elev_mean":10.7,"flood_hist_n":1,"flood_depth_max_m":0.43,"flood_risk_100y":null,"semi_basement_r":null,"elderly_alone_r":0.2715,"bldg_age30_r":null,"shelter_min_walk":5,"pop":33411,"hh":17401,"elderly65_r":0.3315,"single_hh_r":0.4672,"source_level":"emd","flood_years":[2014],"landslide_hist_n":0},"geometry":{"type":"Polygon","coordinates":[[[129.00561,35.24771],[129.00476,35.24386],[129.00896,35.24171],[129.01401,35.24341],[129.01486,35.24727],[129.01066,35.24942],[129.00561,35.24771]]]}},{"type":"Feature","properties":{"h3":"8830c16231fffff","emd_code":"2632054200","emd_name":"화명2동","area_km2":0.5458,"edge":false,"slope_mean":17.34,"elev_mean":106.9,"flood_hist_n":1,"flood_depth_max_m":0.65,"flood_risk_100y":null,"semi_basement_r":null,"elderly_alone_r":0.1373,"bldg_age30_r":null,"shelter_min_walk":8,"pop":16443,"hh":7263,"elderly65_r":0.2358,"single_hh_r":0.3189,"source_level":"emd","flood_years":[2014],"landslide_hist_n":0},"geometry":{"type":"Polygon","coordinates":[[[129.02412,35.24682],[129.02326,35.24297],[129.02746,35.24082],[129.03251,35.24252],[129.03337,35.24638],[129.02917,35.24853],[129.02412,35.24682]]]}},{"type":"Feature","properties":{"h3":"8830c16233fffff","emd_code":"2632054200","emd_name":"화명2동","area_km2":0.5458,"edge":false,"slope_mean":17.19,"elev_mean":247.5,"flood_hist_n":0,"flood_depth_max_m":null,"flood_risk_100y":null,"semi_basement_r":null,"elderly_alone_r":0.1373,"bldg_age30_r":null,"shelter_min_walk":21,"pop":16443,"hh":7263,"elderly65_r":0.2358,"single_hh_r":0.3189,"source_level":"emd","flood_years":[],"landslide_hist_n":0},"geometry":{"type":"Polygon","coordinates":[[[129.03337,35.24638],[129.03251,35.24252],[129.03671,35.24037],[129.04177,35.24207],[129.04262,35.24593],[129.03842,35.24808],[129.03337,35.24638]]]}},{"type":"Feature","properties":{"h3":"8830c16235fffff","emd_code":"2632054200","emd_name":"화명2동","area_km2":0.5459,"edge":false,"slope_mean":9.66,"elev_mean":60.0,"flood_hist_n":1,"flood_depth_max_m":0.803,"flood_risk_100y":null,"semi_basement_r":null,"elderly_alone_r":0.1373,"bldg_age30_r":null,"shelter_min_walk":8,"pop":16443,"hh":7263,"elderly65_r":0.2358,"single_hh_r":0.3189,"source_level":"emd","flood_years":[2014],"landslide_hist_n":0},"geometry":{"type":"Polygon","coordinates":[[[129.01821,35.24126],[129.01736,35.23741],[129.02155,35.23526],[129.02661,35.23696],[129.02746,35.24082],[129.02326,35.24297],[129.01821,35.24126]]]}},{"type":"Feature","properties":{"h3":"8830c16237fffff","emd_code":"2632054100","emd_name":"화명1동","area_km2":0.5459,"edge":false,"slope_mean":16.7,"elev_mean":211.0,"flood_hist_n":0,"flood_depth_max_m":null,"flood_risk_100y":null,"semi_basement_r":null,"elderly_alone_r":0.0666,"bldg_age30_r":null,"shelter_min_walk":15,"pop":38504,"hh":14335,"elderly65_r":0.1814,"single_hh_r":0.1624,"source_level":"emd","flood_years":[],"landslide_hist_n":0},"geometry":{"type":"Polygon","coordinates":[[[129.02746,35.24082],[129.02661,35.23696],[129.03081,35.23481],[129.03586,35.23652],[129.03671,35.24037],[129.03251,35.24252],[129.02746,35.24082]]]}},{"type":"Feature","properties":{"h3":"8830c16239fffff","emd_code":"2632054200","emd_name":"화명2동","area_km2":0.5457,"edge":false,"slope_mean":22.07,"elev_mean":252.5,"flood_hist_n":0,"flood_depth_max_m":null,"flood_risk_100y":null,"semi_basement_r":null,"elderly_alone_r":0.1373,"bldg_age30_r":null,"shelter_min_walk":12,"pop":16443,"hh":7263,"elderly65_r":0.2358,"single_hh_r":0.3189,"source_level":"emd","flood_years":[],"landslide_hist_n":0},"geometry":{"type":"Polygon","coordinates":[[[129.02077,35.25283],[129.01992,35.24897],[129.02412,35.24682],[129.02917,35.24853],[129.03002,35.25238],[129.02582,35.25453],[129.02077,35.25283]]]}},{"type":"Feature","properties":{"h3":"8830c1623bfffff","emd_code":"2632054200","emd_name":"화명2동","area_km2":0.5457,"edge":false,"slope_mean":20.48,"elev_mean":193.3,"flood_hist_n":1,"flood_depth_max_m":0.65,"flood_risk_100y":null,"semi_basement_r":null,"elderly_alone_r":0.1373,"bldg_age30_r":null,"shelter_min_walk":20,"pop":16443,"hh":7263,"elderly65_r":0.2358,"single_hh_r":0.3189,"source_level":"emd","flood_years":[2014],"landslide_hist_n":0},"geometry":{"type":"Polygon","coordinates":[[[129.03002,35.25238],[129.02917,35.24853],[129.03337,35.24638],[129.03842,35.24808],[129.03927,35.25193],[129.03507,35.25409],[129.03002,35.25238]]]}},{"type":"Feature","properties":{"h3":"8830c1623dfffff","emd_code":"2632054200","emd_name":"화명2동","area_km2":0.5457,"edge":false,"slope_mean":15.54,"elev_mean":72.6,"flood_hist_n":1,"flood_depth_max_m":1.205,"flood_risk_100y":null,"semi_basement_r":null,"elderly_alone_r":0.1373,"bldg_age30_r":null,"shelter_min_walk":2,"pop":16443,"hh":7263,"elderly65_r":0.2358,"single_hh_r":0.3189,"source_level":"emd","flood_years":[2014],"landslide_hist_n":0},"geometry":{"type":"Polygon","coordinates":[[[129.01486,35.24727],[129.01401,35.24341],[129.01821,35.24126],[129.02326,35.24297],[129.02412,35.24682],[129.01992,35.24897],[129.01486,35.24727]]]}},{"type":"Feature","properties":{"h3":"8830c16251fffff","emd_code":"2632053000","emd_name":"금곡동","area_km2":0.5453,"edge":false,"slope_mean":16.47,"elev_mean":94.5,"flood_hist_n":0,"flood_depth_max_m":null,"flood_risk_100y":null,"semi_basement_r":null,"elderly_alone_r":0.2715,"bldg_age30_r":null,"shelter_min_walk":12,"pop":33411,"hh":17401,"elderly65_r":0.3315,"single_hh_r":0.4672,"source_level":"emd","flood_years":[],"landslide_hist_n":0},"geometry":{"type":"Polygon","coordinates":[[[129.01664,35.27639],[129.01578,35.27254],[129.01998,35.27039],[129.02504,35.27209],[129.02589,35.27595],[129.02169,35.27809],[129.01664,35.27639]]]}},{"type":"Feature","properties":{"h3":"8830c16253fffff","emd_code":"2632053000","emd_name":"금곡동","area_km2":0.5453,"edge":false,"slope_mean":20.13,"elev_mean":287.2,"flood_hist_n":0,"flood_depth_max_m":null,"flood_risk_100y":null,"semi_basement_r":null,"elderly_alone_r":0.2715,"bldg_age30_r":null,"shelter_min_walk":18,"pop":33411,"hh":17401,"elderly65_r":0.3315,"single_hh_r":0.4672,"source_level":"emd","flood_years":[],"landslide_hist_n":0},"geometry":{"type":"Polygon","coordinates":[[[129.02589,35.27595],[129.02504,35.27209],[129.02924,35.26994],[129.03429,35.27165],[129.03514,35.2755],[129.03094,35.27765],[129.02589,35.27595]]]}},{"type":"Feature","properties":{"h3":"8830c16255fffff","emd_code":"2632053000","emd_name":"금곡동","area_km2":0.5453,"edge":false,"slope_mean":3.87,"elev_mean":9.2,"flood_hist_n":0,"flood_depth_max_m":null,"flood_risk_100y":null,"semi_basement_r":null,"elderly_alone_r":0.2715,"bldg_age30_r":null,"shelter_min_walk":7,"pop":33411,"hh":17401,"elderly65_r":0.3315,"single_hh_r":0.4672,"source_level":"emd","flood_years":[],"landslide_hist_n":0},"geometry":{"type":"Polygon","coordinates":[[[129.01073,35.27083],[129.00988,35.26698],[129.01408,35.26483],[129.01913,35.26654],[129.01998,35.27039],[129.01578,35.27254],[129.01073,35.27083]]]}},{"type":"Feature","properties":{"h3":"8830c16257fffff","emd_code":"2632053000","emd_name":"금곡동","area_km2":0.5454,"edge":false,"slope_mean":19.2,"elev_mean":135.5,"flood_hist_n":0,"flood_depth_max_m":null,"flood_risk_100y":null,"semi_basement_r":null,"elderly_alone_r":0.2715,"bldg_age30_r":null,"shelter_min_walk":7,"pop":33411,"hh":17401,"elderly65_r":0.3315,"single_hh_r":0.4672,"source_level":"emd","flood_years":[],"landslide_hist_n":0},"geometry":{"type":"Polygon","coordinates":[[[129.01998,35.27039],[129.01913,35.26654],[129.02333,35.26439],[129.02838,35.26609],[129.02924,35.26994],[129.02504,35.27209],[129.01998,35.27039]]]}},{"type":"Feature","properties":{"h3":"8830c1625bfffff","emd_code":"2632053000","emd_name":"금곡동","area_km2":0.5452,"edge":true,"slope_mean":16.87,"elev_mean":202.7,"flood_hist_n":0,"flood_depth_max_m":null,"flood_risk_100y":null,"semi_basement_r":null,"elderly_alone_r":0.2715,"bldg_age30_r":null,"shelter_min_walk":24,"pop":33411,"hh":17401,"elderly65_r":0.3315,"single_hh_r":0.4672,"source_level":"emd","flood_years":[],"landslide_hist_n":1},"geometry":{"type":"Polygon","coordinates":[[[129.02254,35.28195],[129.02169,35.27809],[129.02589,35.27595],[129.03094,35.27765],[129.0318,35.2815],[129.0276,35.28365],[129.02254,35.28195]]]}},{"type":"Feature","properties":{"h3":"8830c1625dfffff","emd_code":"2632053000","emd_name":"금곡동","area_km2":0.5452,"edge":true,"slope_mean":0.51,"elev_mean":1.0,"flood_hist_n":0,"flood_depth_max_m":null,"flood_risk_100y":null,"semi_basement_r":null,"elderly_alone_r":0.2715,"bldg_age30_r":null,"shelter_min_walk":17,"pop":33411,"hh":17401,"elderly65_r":0.3315,"single_hh_r":0.4672,"source_level":"emd","flood_years":[],"landslide_hist_n":0},"geometry":{"type":"Polygon","coordinates":[[[129.00739,35.27684],[129.00653,35.27298],[129.01073,35.27083],[129.01578,35.27254],[129.01664,35.27639],[129.01244,35.27854],[129.00739,35.27684]]]}},{"type":"Feature","properties":{"h3":"8830c162a5fffff","emd_code":"2632057100","emd_name":"만덕1동","area_km2":0.5462,"edge":true,"slope_mean":21.85,"elev_mean":414.8,"flood_hist_n":0,"flood_depth_max_m":null,"flood_risk_100y":null,"semi_basement_r":null,"elderly_alone_r":0.1291,"bldg_age30_r":null,"shelter_min_walk":19,"pop":15726,"hh":6971,"elderly65_r":0.2495,"single_hh_r":0.2991,"source_level":"emd","flood_years":[],"landslide_hist_n":0},"geometry":{"type":"Polygon","coordinates":[[[129.05857,35.23347],[129.05771,35.22961],[129.06191,35.22746],[129.06697,35.22916],[129.06782,35.23302],[129.06362,35.23517],[129.05857,35.23347]]]}},{"type":"Feature","properties":{"h3":"8830c162e5fffff","emd_code":"2632054200","emd_name":"화명2동","area_km2":0.5459,"edge":false,"slope_mean":15.73,"elev_mean":373.3,"flood_hist_n":0,"flood_depth_max_m":null,"flood_risk_100y":null,"semi_basement_r":null,"elderly_alone_r":0.1373,"bldg_age30_r":null,"shelter_min_walk":27,"pop":16443,"hh":7263,"elderly65_r":0.2358,"single_hh_r":0.3189,"source_level":"emd","flood_years":[],"landslide_hist_n":0},"geometry":{"type":"Polygon","coordinates":[[[129.04262,35.24593],[129.04177,35.24207],[129.04597,35.23992],[129.05102,35.24163],[129.05187,35.24548],[129.04767,35.24763],[129.04262,35.24593]]]}},{"type":"Feature","properties":{"h3":"8830c162e9fffff","emd_code":"2632054200","emd_name":"화명2동","area_km2":0.5457,"edge":true,"slope_mean":17.56,"elev_mean":344.5,"flood_hist_n":0,"flood_depth_max_m":null,"flood_risk_100y":null,"semi_basement_r":null,"elderly_alone_r":0.1373,"bldg_age30_r":null,"shelter_min_walk":9,"pop":16443,"hh":7263,"elderly65_r":0.2358,"single_hh_r":0.3189,"source_level":"emd","flood_years":[],"landslide_hist_n":0},"geometry":{"type":"Polygon","coordinates":[[[129.04518,35.25749],[129.04433,35.25364],[129.04853,35.25149],[129.05358,35.25319],[129.05444,35.25704],[129.05024,35.2592],[129.04518,35.25749]]]}},{"type":"Feature","properties":{"h3":"8830c162edfffff","emd_code":"2632054200","emd_name":"화명2동","area_km2":0.5458,"edge":false,"slope_mean":16.69,"elev_mean":261.9,"flood_hist_n":1,"flood_depth_max_m":0.461,"flood_risk_100y":null,"semi_basement_r":null,"elderly_alone_r":0.1373,"bldg_age30_r":null,"shelter_min_walk":18,"pop":16443,"hh":7263,"elderly65_r":0.2358,"single_hh_r":0.3189,"source_level":"emd","flood_years":[2014],"landslide_hist_n":0},"geometry":{"type":"Polygon","coordinates":[[[129.03927,35.25193],[129.03842,35.24808],[129.04262,35.24593],[129.04767,35.24763],[129.04853,35.25149],[129.04433,35.25364],[129.03927,35.25193]]]}},{"type":"Feature","properties":{"h3":"8830c16311fffff","emd_code":"2632056000","emd_name":"덕천2동","area_km2":0.546,"edge":true,"slope_mean":0.76,"elev_mean":1.2,"flood_hist_n":0,"flood_depth_max_m":null,"flood_risk_100y":null,"semi_basement_r":null,"elderly_alone_r":0.2164,"bldg_age30_r":null,"shelter_min_walk":16,"pop":10481,"hh":6371,"elderly65_r":0.3361,"single_hh_r":0.5886,"source_level":"emd","flood_years":[],"landslide_hist_n":0},"geometry":{"type":"Polygon","coordinates":[[[128.99124,35.22503],[128.99039,35.22117],[128.99459,35.21902],[128.99964,35.22073],[129.00049,35.22458],[128.99629,35.22673],[128.99124,35.22503]]]}},{"type":"Feature","properties":{"h3":"8830c16313fffff","emd_code":"2632054300","emd_name":"화명3동","area_km2":0.5461,"edge":false,"slope_mean":3.61,"elev_mean":9.8,"flood_hist_n":1,"flood_depth_max_m":0.547,"flood_risk_100y":null,"semi_basement_r":null,"elderly_alone_r":0.0911,"bldg_age30_r":null,"shelter_min_walk":3,"pop":27540,"hh":10844,"elderly65_r":0.1899,"single_hh_r":0.2382,"source_level":"emd","flood_years":[2014],"landslide_hist_n":0},"geometry":{"type":"Polygon","coordinates":[[[129.00049,35.22458],[128.99964,35.22073],[129.00384,35.21858],[129.00889,35.22028],[129.00974,35.22414],[129.00554,35.22629],[129.00049,35.22458]]]}},{"type":"Feature","properties":{"h3":"8830c16317fffff","emd_code":"2632056000","emd_name":"덕천2동","area_km2":0.5461,"edge":false,"slope_mean":1.23,"elev_mean":1.6,"flood_hist_n":0,"flood_depth_max_m":null,"flood_risk_100y":null,"semi_basement_r":null,"elderly_alone_r":0.2164,"bldg_age30_r":null,"shelter_min_walk":13,"pop":10481,"hh":6371,"elderly65_r":0.3361,"single_hh_r":0.5886,"source_level":"emd","flood_years":[],"landslide_hist_n":0},"geometry":{"type":"Polygon","coordinates":[[[128.99459,35.21902],[128.99373,35.21516],[128.99793,35.21301],[129.00298,35.21472],[129.00384,35.21858],[128.99964,35.22073],[128.99459,35.21902]]]}},{"type":"Feature","properties":{"h3":"8830c1631bfffff","emd_code":"2632054300","emd_name":"화명3동","area_km2":0.5459,"edge":false,"slope_mean":0.98,"elev_mean":1.7,"flood_hist_n":0,"flood_depth_max_m":null,"flood_risk_100y":null,"semi_basement_r":null,"elderly_alone_r":0.0911,"bldg_age30_r":null,"shelter_min_walk":11,"pop":27540,"hh":10844,"elderly65_r":0.1899,"single_hh_r":0.2382,"source_level":"emd","flood_years":[],"landslide_hist_n":0},"geometry":{"type":"Polygon","coordinates":[[[128.99715,35.23059],[128.99629,35.22673],[129.00049,35.22458],[129.00554,35.22629],[129.0064,35.23014],[129.0022,35.23229],[128.99715,35.23059]]]}},{"type":"Feature","properties":{"h3":"8830c16331fffff","emd_code":"2632052000","emd_name":"구포2동","area_km2":0.5463,"edge":true,"slope_mean":1.33,"elev_mean":1.4,"flood_hist_n":0,"flood_depth_max_m":null,"flood_risk_100y":null,"semi_basement_r":null,"elderly_alone_r":0.1726,"bldg_age30_r":null,"shelter_min_walk":13,"pop":22275,"hh":11283,"elderly65_r":0.2874,"single_hh_r":0.4369,"source_level":"emd","flood_years":[],"landslide_hist_n":0},"geometry":{"type":"Polygon","coordinates":[[[128.98278,35.20789],[128.98192,35.20404],[128.98612,35.20189],[128.99117,35.20359],[128.99203,35.20745],[128.98783,35.2096],[128.98278,35.20789]]]}},{"type":"Feature","properties":{"h3":"8830c16333fffff","emd_code":"2632052000","emd_name":"구포2동","area_km2":0.5463,"edge":false,"slope_mean":3.62,"elev_mean":8.8,"flood_hist_n":1,"flood_depth_max_m":0.824,"flood_risk_100y":null,"semi_basement_r":null,"elderly_alone_r":0.1726,"bldg_age30_r":null,"shelter_min_walk":6,"pop":22275,"hh":11283,"elderly65_r":0.2874,"single_hh_r":0.4369,"source_level":"emd","flood_years":[2014],"landslide_hist_n":0},"geometry":{"type":"Polygon","coordinates":[[[128.99203,35.20745],[128.99117,35.20359],[128.99537,35.20144],[129.00042,35.20315],[129.00128,35.207],[128.99708,35.20916],[128.99203,35.20745]]]}},{"type":"Feature","properties":{"h3":"8830c16337fffff","emd_code":"2632052000","emd_name":"구포2동","area_km2":0.5464,"edge":true,"slope_mean":3.34,"elev_mean":7.7,"flood_hist_n":0,"flood_depth_max_m":null,"flood_risk_100y":null,"semi_basement_r":null,"elderly_alone_r":0.1726,"bldg_age30_r":null,"shelter_min_walk":5,"pop":22275,"hh":11283,"elderly65_r":0.2874,"single_hh_r":0.4369,"source_level":"emd","flood_years":[],"landslide_hist_n":0},"geometry":{"type":"Polygon","coordinates":[[[128.98612,35.20189],[128.98527,35.19803],[128.98947,35.19588],[128.99452,35.19758],[128.99537,35.20144],[128.99117,35.20359],[128.98612,35.20189]]]}},{"type":"Feature","properties":{"h3":"8830c1633bfffff","emd_code":"2632051000","emd_name":"구포1동","area_km2":0.5462,"edge":true,"slope_mean":0.96,"elev_mean":1.0,"flood_hist_n":0,"flood_depth_max_m":null,"flood_risk_100y":null,"semi_basement_r":null,"elderly_alone_r":0.2051,"bldg_age30_r":null,"shelter_min_walk":12,"pop":14449,"hh":7874,"elderly65_r":0.3058,"single_hh_r":0.4982,"source_level":"emd","flood_years":[],"landslide_hist_n":0},"geometry":{"type":"Polygon","coordinates":[[[128.98868,35.21346],[128.98783,35.2096],[128.99203,35.20745],[128.99708,35.20916],[128.99793,35.21301],[128.99373,35.21516],[128.98868,35.21346]]]}},{"type":"Feature","properties":{"h3":"8830c17521fffff","emd_code":"2632053000","emd_name":"금곡동","area_km2":0.5453,"edge":false,"slope_mean":20.83,"elev_mean":616.4,"flood_hist_n":0,"flood_depth_max_m":null,"flood_risk_100y":null,"semi_basement_r":null,"elderly_alone_r":0.2715,"bldg_age30_r":null,"shelter_min_walk":31,"pop":33411,"hh":17401,"elderly65_r":0.3315,"single_hh_r":0.4672,"source_level":"emd","flood_years":[],"landslide_hist_n":0},"geometry":{"type":"Polygon","coordinates":[[[129.04105,35.28106],[129.0402,35.2772],[129.0444,35.27505],[129.04945,35.27676],[129.05031,35.28061],[129.0461,35.28276],[129.04105,35.28106]]]}},{"type":"Feature","properties":{"h3":"8830c17523fffff","emd_code":"2632053000","emd_name":"금곡동","area_km2":0.5454,"edge":true,"slope_mean":14.99,"elev_mean":656.4,"flood_hist_n":0,"flood_depth_max_m":null,"flood_risk_100y":null,"semi_basement_r":null,"elderly_alone_r":0.2715,"bldg_age30_r":null,"shelter_min_walk":32,"pop":33411,"hh":17401,"elderly65_r":0.3315,"single_hh_r":0.4672,"source_level":"emd","flood_years":[],"landslide_hist_n":0},"geometry":{"type":"Polygon","coordinates":[[[129.05031,35.28061],[129.04945,35.27676],[129.05365,35.27461],[129.05871,35.27631],[129.05956,35.28016],[129.05536,35.28231],[129.05031,35.28061]]]}},{"type":"Feature","properties":{"h3":"8830c17525fffff","emd_code":"2632053000","emd_name":"금곡동","area_km2":0.5454,"edge":false,"slope_mean":19.32,"elev_mean":490.0,"flood_hist_n":0,"flood_depth_max_m":null,"flood_risk_100y":null,"semi_basement_r":null,"elderly_alone_r":0.2715,"bldg_age30_r":null,"shelter_min_walk":24,"pop":33411,"hh":17401,"elderly65_r":0.3315,"single_hh_r":0.4672,"source_level":"emd","flood_years":[],"landslide_hist_n":0},"geometry":{"type":"Polygon","coordinates":[[[129.03514,35.2755],[129.03429,35.27165],[129.03849,35.2695],[129.04354,35.2712],[129.0444,35.27505],[129.0402,35.2772],[129.03514,35.2755]]]}},{"type":"Feature","properties":{"h3":"8830c17527fffff","emd_code":"2632053000","emd_name":"금곡동","area_km2":0.5454,"edge":true,"slope_mean":17.02,"elev_mean":606.8,"flood_hist_n":0,"flood_depth_max_m":null,"flood_risk_100y":null,"semi_basement_r":null,"elderly_alone_r":0.2715,"bldg_age30_r":null,"shelter_min_walk":21,"pop":33411,"hh":17401,"elderly65_r":0.3315,"single_hh_r":0.4672,"source_level":"emd","flood_years":[],"landslide_hist_n":0},"geometry":{"type":"Polygon","coordinates":[[[129.0444,35.27505],[129.04354,35.2712],[129.04774,35.26905],[129.0528,35.27075],[129.05365,35.27461],[129.04945,35.27676],[129.0444,35.27505]]]}},{"type":"Feature","properties":{"h3":"8830c1752dfffff","emd_code":"2632053000","emd_name":"금곡동","area_km2":0.5453,"edge":true,"slope_mean":19.36,"elev_mean":374.0,"flood_hist_n":0,"flood_depth_max_m":null,"flood_risk_100y":null,"semi_basement_r":null,"elderly_alone_r":0.2715,"bldg_age30_r":null,"shelter_min_walk":31,"pop":33411,"hh":17401,"elderly65_r":0.3315,"single_hh_r":0.4672,"source_level":"emd","flood_years":[],"landslide_hist_n":0},"geometry":{"type":"Polygon","coordinates":[[[129.0318,35.2815],[129.03094,35.27765],[129.03514,35.2755],[129.0402,35.2772],[129.04105,35.28106],[129.03685,35.2832],[129.0318,35.2815]]]}}]}