{"type":"FeatureCollection","name":"grid_26350_h3r8","meta":{"sgg_code":"26350","h3_res":8,"n_cells":128,"dem":"Copernicus GLO-30 (bbox-mean)","crs":"EPSG:4326","jumin_basis":"2026-07","flood_src":"행안부 침수흔적도(전국, 재난안전데이터공유플랫폼)","landslide_src":"행안부 산사태 발생이력"},"features":[{"type":"Feature","properties":{"h3":"8830c16083fffff","emd_code":"2635059500","emd_name":"반여4동","area_km2":0.5467,"edge":true,"slope_mean":15.76,"elev_mean":64.3,"flood_hist_n":0,"flood_depth_max_m":null,"flood_risk_100y":null,"semi_basement_r":null,"elderly_alone_r":0.1015,"bldg_age30_r":null,"shelter_min_walk":3,"pop":14187,"hh":5707,"elderly65_r":0.2397,"single_hh_r":0.2132,"source_level":"emd","flood_years":[],"landslide_hist_n":0},"geometry":{"type":"Polygon","coordinates":[[[129.10562,35.21363],[129.10477,35.20977],[129.10897,35.20762],[129.11402,35.20932],[129.11488,35.21318],[129.11068,35.21533],[129.10562,35.21363]]]}},{"type":"Feature","properties":{"h3":"8830c16091fffff","emd_code":"2635057000","emd_name":"반여1동","area_km2":0.5467,"edge":false,"slope_mean":6.03,"elev_mean":15.5,"flood_hist_n":1,"flood_depth_max_m":1.052,"flood_risk_100y":null,"semi_basement_r":null,"elderly_alone_r":0.1102,"bldg_age30_r":null,"shelter_min_walk":13,"pop":34656,"hh":13935,"elderly65_r":0.2054,"single_hh_r":0.245,"source_level":"emd","flood_years":[2014],"landslide_hist_n":0},"geometry":{"type":"Polygon","coordinates":[[[129.12079,35.21874],[129.11993,35.21488],[129.12413,35.21272],[129.12919,35.21442],[129.13004,35.21828],[129.12584,35.22044],[129.12079,35.21874]]]}},{"type":"Feature","properties":{"h3":"8830c16093fffff","emd_code":"2635057000","emd_name":"반여1동","area_km2":0.5468,"edge":false,"slope_mean":5.53,"elev_mean":27.2,"flood_hist_n":0,"flood_depth_max_m":null,"flood_risk_100y":null,"semi_basement_r":null,"elderly_alone_r":0.1102,"bldg_age30_r":null,"shelter_min_walk":23,"pop":34656,"hh":13935,"elderly65_r":0.2054,"single_hh_r":0.245,"source_level":"emd","flood_years":[],"landslide_hist_n":0},"geometry":{"type":"Polygon","coordinates":[[[129.13004,35.21828],[129.12919,35.21442],[129.13339,35.21227],[129.13845,35.21397],[129.1393,35.21783],[129.1351,35.21998],[129.13004,35.21828]]]}},{"type":"Feature","properties":{"h3":"8830c16095fffff","emd_code":"2635059500","emd_name":"반여4동","area_km2":0.5468,"edge":false,"slope_mean":9.7,"elev_mean":24.7,"flood_hist_n":1,"flood_depth_max_m":0.292,"flood_risk_100y":null,"semi_basement_r":null,"elderly_alone_r":0.1015,"bldg_age30_r":null,"shelter_min_walk":10,"pop":14187,"hh":5707,"elderly65_r":0.2397,"single_hh_r":0.2132,"source_level":"emd","flood_years":[2014],"landslide_hist_n":0},"geometry":{"type":"Polygon","coordinates":[[[129.11488,35.21318],[129.11402,35.20932],[129.11822,35.20716],[129.12328,35.20886],[129.12413,35.21272],[129.11993,35.21488],[129.11488,35.21318]]]}},{"type":"Feature","properties":{"h3":"8830c16097fffff","emd_code":"2635057000","emd_name":"반여1동","area_km2":0.5468,"edge":false,"slope_mean":7.54,"elev_mean":28.1,"flood_hist_n":0,"flood_depth_max_m":null,"flood_risk_100y":null,"semi_basement_r":null,"elderly_alone_r":0.1102,"bldg_age30_r":null,"shelter_min_walk":13,"pop":34656,"hh":13935,"elderly65_r":0.2054,"single_hh_r":0.245,"source_level":"emd","flood_years":[],"landslide_hist_n":0},"geometry":{"type":"Polygon","coordinates":[[[129.12413,35.21272],[129.12328,35.20886],[129.12748,35.20671],[129.13254,35.20841],[129.13339,35.21227],[129.12919,35.21442],[129.12413,35.21272]]]}},{"type":"Feature","properties":{"h3":"8830c16099fffff","emd_code":"2635061000","emd_name":"반송1동","area_km2":0.5466,"edge":false,"slope_mean":12.86,"elev_mean":37.0,"flood_hist_n":0,"flood_depth_max_m":null,"flood_risk_100y":null,"semi_basement_r":null,"elderly_alone_r":0.3094,"bldg_age30_r":null,"shelter_min_walk":11,"pop":11164,"hh":6995,"elderly65_r":0.4251,"single_hh_r":0.6069,"source_level":"emd","flood_years":[],"landslide_hist_n":0},"geometry":{"type":"Polygon","coordinates":[[[129.11744,35.22475],[129.11659,35.22089],[129.12079,35.21874],[129.12584,35.22044],[129.1267,35.22429],[129.1225,35.22645],[129.11744,35.22475]]]}},{"type":"Feature","properties":{"h3":"8830c1609bfffff","emd_code":"2635061000","emd_name":"반송1동","area_km2":0.5466,"edge":false,"slope_mean":10.14,"elev_mean":42.8,"flood_hist_n":2,"flood_depth_max_m":1.2,"flood_risk_100y":null,"semi_basement_r":null,"elderly_alone_r":0.3094,"bldg_age30_r":null,"shelter_min_walk":23,"pop":11164,"hh":6995,"elderly65_r":0.4251,"single_hh_r":0.6069,"source_level":"emd","flood_years":[2014,2020],"landslide_hist_n":0},"geometry":{"type":"Polygon","coordinates":[[[129.1267,35.22429],[129.12584,35.22044],[129.13004,35.21828],[129.1351,35.21998],[129.13596,35.22384],[129.13175,35.22599],[129.1267,35.22429]]]}},{"type":"Feature","properties":{"h3":"8830c1609dfffff","emd_code":"2635061000","emd_name":"반송1동","area_km2":0.5467,"edge":true,"slope_mean":7.82,"elev_mean":17.3,"flood_hist_n":2,"flood_depth_max_m":0.912,"flood_risk_100y":null,"semi_basement_r":null,"elderly_alone_r":0.3094,"bldg_age30_r":null,"shelter_min_walk":2,"pop":11164,"hh":6995,"elderly65_r":0.4251,"single_hh_r":0.6069,"source_level":"emd","flood_years":[2014,2020],"landslide_hist_n":0},"geometry":{"type":"Polygon","coordinates":[[[129.11153,35.21919],[129.11068,35.21533],[129.11488,35.21318],[129.11993,35.21488],[129.12079,35.21874],[129.11659,35.22089],[129.11153,35.21919]]]}},{"type":"Feature","properties":{"h3":"8830c160b1fffff","emd_code":"2635057000","emd_name":"반여1동","area_km2":0.547,"edge":false,"slope_mean":5.73,"elev_mean":13.8,"flood_hist_n":0,"flood_depth_max_m":null,"flood_risk_100y":null,"semi_basement_r":null,"elderly_alone_r":0.1102,"bldg_age30_r":null,"shelter_min_walk":5,"pop":34656,"hh":13935,"elderly65_r":0.2054,"single_hh_r":0.245,"source_level":"emd","flood_years":[],"landslide_hist_n":0},"geometry":{"type":"Polygon","coordinates":[[[129.11231,35.2016],[129.11146,35.19775],[129.11566,35.19559],[129.12072,35.19729],[129.12157,35.20115],[129.11737,35.20331],[129.11231,35.2016]]]}},{"type":"Feature","properties":{"h3":"8830c160b3fffff","emd_code":"2635057000","emd_name":"반여1동","area_km2":0.547,"edge":false,"slope_mean":14.78,"elev_mean":78.5,"flood_hist_n":0,"flood_depth_max_m":null,"flood_risk_100y":null,"semi_basement_r":null,"elderly_alone_r":0.1102,"bldg_age30_r":null,"shelter_min_walk":5,"pop":34656,"hh":13935,"elderly65_r":0.2054,"single_hh_r":0.245,"source_level":"emd","flood_years":[],"landslide_hist_n":0},"geometry":{"type":"Polygon","coordinates":[[[129.12157,35.20115],[129.12072,35.19729],[129.12492,35.19513],[129.12997,35.19683],[129.13083,35.20069],[129.12663,35.20285],[129.12157,35.20115]]]}},{"type":"Feature","properties":{"h3":"8830c160b5fffff","emd_code":"2635057000","emd_name":"반여1동","area_km2":0.547,"edge":true,"slope_mean":4.18,"elev_mean":8.3,"flood_hist_n":0,"flood_depth_max_m":null,"flood_risk_100y":null,"semi_basement_r":null,"elderly_alone_r":0.1102,"bldg_age30_r":null,"shelter_min_walk":2,"pop":34656,"hh":13935,"elderly65_r":0.2054,"single_hh_r":0.245,"source_level":"emd","flood_years":[],"landslide_hist_n":0},"geometry":{"type":"Polygon","coordinates":[[[129.10641,35.19604],[129.10555,35.19218],[129.10975,35.19003],[129.11481,35.19173],[129.11566,35.19559],[129.11146,35.19775],[129.10641,35.19604]]]}},{"type":"Feature","properties":{"h3":"8830c160b7fffff","emd_code":"2635057000","emd_name":"반여1동","area_km2":0.5471,"edge":false,"slope_mean":8.46,"elev_mean":25.3,"flood_hist_n":2,"flood_depth_max_m":0.486,"flood_risk_100y":null,"semi_basement_r":null,"elderly_alone_r":0.1102,"bldg_age30_r":null,"shelter_min_walk":5,"pop":34656,"hh":13935,"elderly65_r":0.2054,"single_hh_r":0.245,"source_level":"emd","flood_years":[2014,2020],"landslide_hist_n":0},"geometry":{"type":"Polygon","coordinates":[[[129.11566,35.19559],[129.11481,35.19173],[129.11901,35.18957],[129.12406,35.19127],[129.12492,35.19513],[129.12072,35.19729],[129.11566,35.19559]]]}},{"type":"Feature","properties":{"h3":"8830c160b9fffff","emd_code":"2635059500","emd_name":"반여4동","area_km2":0.5468,"edge":false,"slope_mean":12.85,"elev_mean":47.4,"flood_hist_n":0,"flood_depth_max_m":null,"flood_risk_100y":null,"semi_basement_r":null,"elderly_alone_r":0.1015,"bldg_age30_r":null,"shelter_min_walk":6,"pop":14187,"hh":5707,"elderly65_r":0.2397,"single_hh_r":0.2132,"source_level":"emd","flood_years":[],"landslide_hist_n":0},"geometry":{"type":"Polygon","coordinates":[[[129.10897,35.20762],[129.10811,35.20376],[129.11231,35.2016],[129.11737,35.20331],[129.11822,35.20716],[129.11402,35.20932],[129.10897,35.20762]]]}},{"type":"Feature","properties":{"h3":"8830c160bbfffff","emd_code":"2635057000","emd_name":"반여1동","area_km2":0.5469,"edge":false,"slope_mean":7.25,"elev_mean":20.9,"flood_hist_n":2,"flood_depth_max_m":1.214,"flood_risk_100y":null,"semi_basement_r":null,"elderly_alone_r":0.1102,"bldg_age30_r":null,"shelter_min_walk":2,"pop":34656,"hh":13935,"elderly65_r":0.2054,"single_hh_r":0.245,"source_level":"emd","flood_years":[2014,2016],"landslide_hist_n":0},"geometry":{"type":"Polygon","coordinates":[[[129.11822,35.20716],[129.11737,35.20331],[129.12157,35.20115],[129.12663,35.20285],[129.12748,35.20671],[129.12328,35.20886],[129.11822,35.20716]]]}},{"type":"Feature","properties":{"h3":"8830c160d3fffff","emd_code":"2635061000","emd_name":"반송1동","area_km2":0.5465,"edge":true,"slope_mean":12.37,"elev_mean":35.1,"flood_hist_n":1,"flood_depth_max_m":0.3,"flood_risk_100y":null,"semi_basement_r":null,"elderly_alone_r":0.3094,"bldg_age30_r":null,"shelter_min_walk":15,"pop":11164,"hh":6995,"elderly65_r":0.4251,"single_hh_r":0.6069,"source_level":"emd","flood_years":[2020],"landslide_hist_n":0},"geometry":{"type":"Polygon","coordinates":[[[129.1141,35.23076],[129.11324,35.2269],[129.11744,35.22475],[129.1225,35.22645],[129.12335,35.23031],[129.11915,35.23246],[129.1141,35.23076]]]}},{"type":"Feature","properties":{"h3":"8830c16501fffff","emd_code":"2635055400","emd_name":"좌4동","area_km2":0.547,"edge":true,"slope_mean":16.5,"elev_mean":368.2,"flood_hist_n":0,"flood_depth_max_m":null,"flood_risk_100y":null,"semi_basement_r":null,"elderly_alone_r":0.0981,"bldg_age30_r":null,"shelter_min_walk":30,"pop":21479,"hh":8580,"elderly65_r":0.1997,"single_hh_r":0.2408,"source_level":"emd","flood_years":[],"landslide_hist_n":0},"geometry":{"type":"Polygon","coordinates":[[[129.16116,35.2109],[129.16031,35.20704],[129.16451,35.20488],[129.16957,35.20658],[129.17042,35.21044],[129.16622,35.2126],[129.16116,35.2109]]]}},{"type":"Feature","properties":{"h3":"8830c16505fffff","emd_code":"2635055400","emd_name":"좌4동","area_km2":0.5471,"edge":false,"slope_mean":13.91,"elev_mean":421.7,"flood_hist_n":0,"flood_depth_max_m":null,"flood_risk_100y":null,"semi_basement_r":null,"elderly_alone_r":0.0981,"bldg_age30_r":null,"shelter_min_walk":32,"pop":21479,"hh":8580,"elderly65_r":0.1997,"single_hh_r":0.2408,"source_level":"emd","flood_years":[],"landslide_hist_n":0},"geometry":{"type":"Polygon","coordinates":[[[129.15525,35.20534],[129.1544,35.20148],[129.1586,35.19932],[129.16365,35.20102],[129.16451,35.20488],[129.16031,35.20704],[129.15525,35.20534]]]}},{"type":"Feature","properties":{"h3":"8830c16507fffff","emd_code":"2635055400","emd_name":"좌4동","area_km2":0.5471,"edge":true,"slope_mean":17.69,"elev_mean":352.3,"flood_hist_n":0,"flood_depth_max_m":null,"flood_risk_100y":null,"semi_basement_r":null,"elderly_alone_r":0.0981,"bldg_age30_r":null,"shelter_min_walk":39,"pop":21479,"hh":8580,"elderly65_r":0.1997,"single_hh_r":0.2408,"source_level":"emd","flood_years":[],"landslide_hist_n":0},"geometry":{"type":"Polygon","coordinates":[[[129.16451,35.20488],[129.16365,35.20102],[129.16786,35.19886],[129.17291,35.20056],[129.17377,35.20442],[129.16957,35.20658],[129.16451,35.20488]]]}},{"type":"Feature","properties":{"h3":"8830c16509fffff","emd_code":"2635061000","emd_name":"반송1동","area_km2":0.5469,"edge":false,"slope_mean":21.44,"elev_mean":342.0,"flood_hist_n":0,"flood_depth_max_m":null,"flood_risk_100y":null,"semi_basement_r":null,"elderly_alone_r":0.3094,"bldg_age30_r":null,"shelter_min_walk":19,"pop":11164,"hh":6995,"elderly65_r":0.4251,"single_hh_r":0.6069,"source_level":"emd","flood_years":[],"landslide_hist_n":0},"geometry":{"type":"Polygon","coordinates":[[[129.15782,35.21691],[129.15696,35.21305],[129.16116,35.2109],[129.16622,35.2126],[129.16708,35.21645],[129.16287,35.21861],[129.15782,35.21691]]]}},{"type":"Feature","properties":{"h3":"8830c1650dfffff","emd_code":"2635061000","emd_name":"반송1동","area_km2":0.547,"edge":false,"slope_mean":17.59,"elev_mean":441.8,"flood_hist_n":0,"flood_depth_max_m":null,"flood_risk_100y":null,"semi_basement_r":null,"elderly_alone_r":0.3094,"bldg_age30_r":null,"shelter_min_walk":26,"pop":11164,"hh":6995,"elderly65_r":0.4251,"single_hh_r":0.6069,"source_level":"emd","flood_years":[],"landslide_hist_n":0},"geometry":{"type":"Polygon","coordinates":[[[129.15191,35.21135],[129.15105,35.2075],[129.15525,35.20534],[129.16031,35.20704],[129.16116,35.2109],[129.15696,35.21305],[129.15191,35.21135]]]}},{"type":"Feature","properties":{"h3":"8830c16521fffff","emd_code":"2635051000","emd_name":"우1동","area_km2":0.5473,"edge":false,"slope_mean":19.21,"elev_mean":274.1,"flood_hist_n":0,"flood_depth_max_m":null,"flood_risk_100y":null,"semi_basement_r":null,"elderly_alone_r":0.1296,"bldg_age30_r":null,"shelter_min_walk":28,"pop":23692,"hh":11527,"elderly65_r":0.2361,"single_hh_r":0.4289,"source_level":"emd","flood_years":[],"landslide_hist_n":0},"geometry":{"type":"Polygon","coordinates":[[[129.15269,35.19376],[129.15183,35.1899],[129.15603,35.18775],[129.16109,35.18945],[129.16194,35.19331],[129.15774,35.19546],[129.15269,35.19376]]]}},{"type":"Feature","properties":{"h3":"8830c16523fffff","emd_code":"2635055400","emd_name":"좌4동","area_km2":0.5473,"edge":false,"slope_mean":19.31,"elev_mean":268.6,"flood_hist_n":0,"flood_depth_max_m":null,"flood_risk_100y":null,"semi_basement_r":null,"elderly_alone_r":0.0981,"bldg_age30_r":null,"shelter_min_walk":22,"pop":21479,"hh":8580,"elderly65_r":0.1997,"single_hh_r":0.2408,"source_level":"emd","flood_years":[],"landslide_hist_n":0},"geometry":{"type":"Polygon","coordinates":[[[129.16194,35.19331],[129.16109,35.18945],[129.16529,35.18729],[129.17035,35.18899],[129.1712,35.19285],[129.167,35.19501],[129.16194,35.19331]]]}},{"type":"Feature","properties":{"h3":"8830c16525fffff","emd_code":"2635051000","emd_name":"우1동","area_km2":0.5473,"edge":false,"slope_mean":21.96,"elev_mean":329.4,"flood_hist_n":0,"flood_depth_max_m":null,"flood_risk_100y":null,"semi_basement_r":null,"elderly_alone_r":0.1296,"bldg_age30_r":null,"shelter_min_walk":23,"pop":23692,"hh":11527,"elderly65_r":0.2361,"single_hh_r":0.4289,"source_level":"emd","flood_years":[],"landslide_hist_n":0},"geometry":{"type":"Polygon","coordinates":[[[129.14678,35.1882],[129.14592,35.18434],[129.15012,35.18219],[129.15518,35.18389],[129.15603,35.18775],[129.15183,35.1899],[129.14678,35.1882]]]}},{"type":"Feature","properties":{"h3":"8830c16527fffff","emd_code":"2635051000","emd_name":"우1동","area_km2":0.5474,"edge":false,"slope_mean":20.11,"elev_mean":188.8,"flood_hist_n":0,"flood_depth_max_m":null,"flood_risk_100y":null,"semi_basement_r":null,"elderly_alone_r":0.1296,"bldg_age30_r":null,"shelter_min_walk":17,"pop":23692,"hh":11527,"elderly65_r":0.2361,"single_hh_r":0.4289,"source_level":"emd","flood_years":[],"landslide_hist_n":0},"geometry":{"type":"Polygon","coordinates":[[[129.15603,35.18775],[129.15518,35.18389],[129.15938,35.18173],[129.16444,35.18343],[129.16529,35.18729],[129.16109,35.18945],[129.15603,35.18775]]]}},{"type":"Feature","properties":{"h3":"8830c16529fffff","emd_code":"2635051000","emd_name":"우1동","area_km2":0.5472,"edge":false,"slope_mean":17.32,"elev_mean":449.0,"flood_hist_n":0,"flood_depth_max_m":null,"flood_risk_100y":null,"semi_basement_r":null,"elderly_alone_r":0.1296,"bldg_age30_r":null,"shelter_min_walk":24,"pop":23692,"hh":11527,"elderly65_r":0.2361,"single_hh_r":0.4289,"source_level":"emd","flood_years":[],"landslide_hist_n":0},"geometry":{"type":"Polygon","coordinates":[[[129.14934,35.19978],[129.14849,35.19592],[129.15269,35.19376],[129.15774,35.19546],[129.1586,35.19932],[129.1544,35.20148],[129.14934,35.19978]]]}},{"type":"Feature","properties":{"h3":"8830c1652bfffff","emd_code":"2635055400","emd_name":"좌4동","area_km2":0.5472,"edge":false,"slope_mean":17.02,"elev_mean":316.1,"flood_hist_n":0,"flood_depth_max_m":null,"flood_risk_100y":null,"semi_basement_r":null,"elderly_alone_r":0.0981,"bldg_age30_r":null,"shelter_min_walk":33,"pop":21479,"hh":8580,"elderly65_r":0.1997,"single_hh_r":0.2408,"source_level":"emd","flood_years":[],"landslide_hist_n":0},"geometry":{"type":"Polygon","coordinates":[[[129.1586,35.19932],[129.15774,35.19546],[129.16194,35.19331],[129.167,35.19501],[129.16786,35.19886],[129.16365,35.20102],[129.1586,35.19932]]]}},{"type":"Feature","properties":{"h3":"8830c1652dfffff","emd_code":"2635051000","emd_name":"우1동","area_km2":0.5472,"edge":false,"slope_mean":20.14,"elev_mean":487.9,"flood_hist_n":0,"flood_depth_max_m":null,"flood_risk_100y":null,"semi_basement_r":null,"elderly_alone_r":0.1296,"bldg_age30_r":null,"shelter_min_walk":18,"pop":23692,"hh":11527,"elderly65_r":0.2361,"single_hh_r":0.4289,"source_level":"emd","flood_years":[],"landslide_hist_n":0},"geometry":{"type":"Polygon","coordinates":[[[129.14343,35.19422],[129.14257,35.19036],[129.14678,35.1882],[129.15183,35.1899],[129.15269,35.19376],[129.14849,35.19592],[129.14343,35.19422]]]}},{"type":"Feature","properties":{"h3":"8830c16531fffff","emd_code":"2635055400","emd_name":"좌4동","area_km2":0.5473,"edge":false,"slope_mean":14.73,"elev_mean":178.0,"flood_hist_n":0,"flood_depth_max_m":null,"flood_risk_100y":null,"semi_basement_r":null,"elderly_alone_r":0.0981,"bldg_age30_r":null,"shelter_min_walk":28,"pop":21479,"hh":8580,"elderly65_r":0.1997,"single_hh_r":0.2408,"source_level":"emd","flood_years":[],"landslide_hist_n":0},"geometry":{"type":"Polygon","coordinates":[[[129.17711,35.1984],[129.17626,35.19455],[129.18046,35.19239],[129.18552,35.19409],[129.18637,35.19794],[129.18217,35.2001],[129.17711,35.1984]]]}},{"type":"Feature","properties":{"h3":"8830c16533fffff","emd_code":"2635056000","emd_name":"송정동","area_km2":0.5474,"edge":true,"slope_mean":18.17,"elev_mean":82.9,"flood_hist_n":0,"flood_depth_max_m":null,"flood_risk_100y":null,"semi_basement_r":null,"elderly_alone_r":0.2049,"bldg_age30_r":null,"shelter_min_walk":21,"pop":8971,"hh":4959,"elderly65_r":0.3464,"single_hh_r":0.4862,"source_level":"emd","flood_years":[],"landslide_hist_n":0},"geometry":{"type":"Polygon","coordinates":[[[129.18637,35.19794],[129.18552,35.19409],[129.18972,35.19193],[129.19478,35.19363],[129.19563,35.19748],[129.19143,35.19964],[129.18637,35.19794]]]}},{"type":"Feature","properties":{"h3":"8830c16535fffff","emd_code":"2635055400","emd_name":"좌4동","area_km2":0.5474,"edge":false,"slope_mean":14.86,"elev_mean":166.8,"flood_hist_n":0,"flood_depth_max_m":null,"flood_risk_100y":null,"semi_basement_r":null,"elderly_alone_r":0.0981,"bldg_age30_r":null,"shelter_min_walk":18,"pop":21479,"hh":8580,"elderly65_r":0.1997,"single_hh_r":0.2408,"source_level":"emd","flood_years":[],"landslide_hist_n":0},"geometry":{"type":"Polygon","coordinates":[[[129.1712,35.19285],[129.17035,35.18899],[129.17455,35.18683],[129.17961,35.18853],[129.18046,35.19239],[129.17626,35.19455],[129.1712,35.19285]]]}},{"type":"Feature","properties":{"h3":"8830c16537fffff","emd_code":"2635055400","emd_name":"좌4동","area_km2":0.5474,"edge":true,"slope_mean":11.22,"elev_mean":86.8,"flood_hist_n":0,"flood_depth_max_m":null,"flood_risk_100y":null,"semi_basement_r":null,"elderly_alone_r":0.0981,"bldg_age30_r":null,"shelter_min_walk":20,"pop":21479,"hh":8580,"elderly65_r":0.1997,"single_hh_r":0.2408,"source_level":"emd","flood_years":[],"landslide_hist_n":0},"geometry":{"type":"Polygon","coordinates":[[[129.18046,35.19239],[129.17961,35.18853],[129.18381,35.18637],[129.18886,35.18807],[129.18972,35.19193],[129.18552,35.19409],[129.18046,35.19239]]]}},{"type":"Feature","properties":{"h3":"8830c16539fffff","emd_code":"2635055400","emd_name":"좌4동","area_km2":0.5472,"edge":true,"slope_mean":16.38,"elev_mean":269.4,"flood_hist_n":0,"flood_depth_max_m":null,"flood_risk_100y":null,"semi_basement_r":null,"elderly_alone_r":0.0981,"bldg_age30_r":null,"shelter_min_walk":36,"pop":21479,"hh":8580,"elderly65_r":0.1997,"single_hh_r":0.2408,"source_level":"emd","flood_years":[],"landslide_hist_n":0},"geometry":{"type":"Polygon","coordinates":[[[129.17377,35.20442],[129.17291,35.20056],[129.17711,35.1984],[129.18217,35.2001],[129.18303,35.20396],[129.17882,35.20612],[129.17377,35.20442]]]}},{"type":"Feature","properties":{"h3":"8830c1653dfffff","emd_code":"2635055400","emd_name":"좌4동","area_km2":0.5473,"edge":false,"slope_mean":15.23,"elev_mean":307.8,"flood_hist_n":0,"flood_depth_max_m":null,"flood_risk_100y":null,"semi_basement_r":null,"elderly_alone_r":0.0981,"bldg_age30_r":null,"shelter_min_walk":28,"pop":21479,"hh":8580,"elderly65_r":0.1997,"single_hh_r":0.2408,"source_level":"emd","flood_years":[],"landslide_hist_n":0},"geometry":{"type":"Polygon","coordinates":[[[129.16786,35.19886],[129.167,35.19501],[129.1712,35.19285],[129.17626,35.19455],[129.17711,35.1984],[129.17291,35.20056],[129.16786,35.19886]]]}},{"type":"Feature","properties":{"h3":"8830c16541fffff","emd_code":"2635061000","emd_name":"반송1동","area_km2":0.5467,"edge":false,"slope_mean":13.46,"elev_mean":78.4,"flood_hist_n":0,"flood_depth_max_m":null,"flood_risk_100y":null,"semi_basement_r":null,"elderly_alone_r":0.3094,"bldg_age30_r":null,"shelter_min_walk":4,"pop":11164,"hh":6995,"elderly65_r":0.4251,"single_hh_r":0.6069,"source_level":"emd","flood_years":[],"landslide_hist_n":0},"geometry":{"type":"Polygon","coordinates":[[[129.14521,35.22338],[129.14436,35.21953],[129.14856,35.21737],[129.15362,35.21907],[129.15447,35.22293],[129.15027,35.22508],[129.14521,35.22338]]]}},{"type":"Feature","properties":{"h3":"8830c16543fffff","emd_code":"2635061000","emd_name":"반송1동","area_km2":0.5468,"edge":false,"slope_mean":19.1,"elev_mean":173.6,"flood_hist_n":0,"flood_depth_max_m":null,"flood_risk_100y":null,"semi_basement_r":null,"elderly_alone_r":0.3094,"bldg_age30_r":null,"shelter_min_walk":8,"pop":11164,"hh":6995,"elderly65_r":0.4251,"single_hh_r":0.6069,"source_level":"emd","flood_years":[],"landslide_hist_n":0},"geometry":{"type":"Polygon","coordinates":[[[129.15447,35.22293],[129.15362,35.21907],[129.15782,35.21691],[129.16287,35.21861],[129.16373,35.22247],[129.15953,35.22463],[129.15447,35.22293]]]}},{"type":"Feature","properties":{"h3":"8830c16545fffff","emd_code":"2635061000","emd_name":"반송1동","area_km2":0.5468,"edge":false,"slope_mean":12.24,"elev_mean":82.5,"flood_hist_n":0,"flood_depth_max_m":null,"flood_risk_100y":null,"semi_basement_r":null,"elderly_alone_r":0.3094,"bldg_age30_r":null,"shelter_min_walk":15,"pop":11164,"hh":6995,"elderly65_r":0.4251,"single_hh_r":0.6069,"source_level":"emd","flood_years":[],"landslide_hist_n":0},"geometry":{"type":"Polygon","coordinates":[[[129.1393,35.21783],[129.13845,35.21397],[129.14265,35.21181],[129.1477,35.21351],[129.14856,35.21737],[129.14436,35.21953],[129.1393,35.21783]]]}},{"type":"Feature","properties":{"h3":"8830c16547fffff","emd_code":"2635061000","emd_name":"반송1동","area_km2":0.5469,"edge":false,"slope_mean":22.81,"elev_mean":238.9,"flood_hist_n":0,"flood_depth_max_m":null,"flood_risk_100y":null,"semi_basement_r":null,"elderly_alone_r":0.3094,"bldg_age30_r":null,"shelter_min_walk":15,"pop":11164,"hh":6995,"elderly65_r":0.4251,"single_hh_r":0.6069,"source_level":"emd","flood_years":[],"landslide_hist_n":0},"geometry":{"type":"Polygon","coordinates":[[[129.14856,35.21737],[129.1477,35.21351],[129.15191,35.21135],[129.15696,35.21305],[129.15782,35.21691],[129.15362,35.21907],[129.14856,35.21737]]]}},{"type":"Feature","properties":{"h3":"8830c16549fffff","emd_code":"2635061000","emd_name":"반송1동","area_km2":0.5466,"edge":false,"slope_mean":15.1,"elev_mean":73.1,"flood_hist_n":1,"flood_depth_max_m":0.935,"flood_risk_100y":null,"semi_basement_r":null,"elderly_alone_r":0.3094,"bldg_age30_r":null,"shelter_min_walk":2,"pop":11164,"hh":6995,"elderly65_r":0.4251,"single_hh_r":0.6069,"source_level":"emd","flood_years":[2014],"landslide_hist_n":0},"geometry":{"type":"Polygon","coordinates":[[[129.14187,35.22939],[129.14101,35.22554],[129.14521,35.22338],[129.15027,35.22508],[129.15112,35.22894],[129.14692,35.2311],[129.14187,35.22939]]]}},{"type":"Feature","properties":{"h3":"8830c1654bfffff","emd_code":"2635062000","emd_name":"반송2동","area_km2":0.5467,"edge":false,"slope_mean":17.56,"elev_mean":89.4,"flood_hist_n":0,"flood_depth_max_m":null,"flood_risk_100y":null,"semi_basement_r":null,"elderly_alone_r":0.3225,"bldg_age30_r":null,"shelter_min_walk":3,"pop":19669,"hh":11154,"elderly65_r":0.418,"single_hh_r":0.5279,"source_level":"emd","flood_years":[],"landslide_hist_n":0},"geometry":{"type":"Polygon","coordinates":[[[129.15112,35.22894],[129.15027,35.22508],[129.15447,35.22293],[129.15953,35.22463],[129.16038,35.22848],[129.15618,35.23064],[129.15112,35.22894]]]}},{"type":"Feature","properties":{"h3":"8830c1654dfffff","emd_code":"2635061000","emd_name":"반송1동","area_km2":0.5467,"edge":false,"slope_mean":15.87,"elev_mean":64.2,"flood_hist_n":1,"flood_depth_max_m":0.603,"flood_risk_100y":null,"semi_basement_r":null,"elderly_alone_r":0.3094,"bldg_age30_r":null,"shelter_min_walk":11,"pop":11164,"hh":6995,"elderly65_r":0.4251,"single_hh_r":0.6069,"source_level":"emd","flood_years":[2014],"landslide_hist_n":0},"geometry":{"type":"Polygon","coordinates":[[[129.13596,35.22384],[129.1351,35.21998],[129.1393,35.21783],[129.14436,35.21953],[129.14521,35.22338],[129.14101,35.22554],[129.13596,35.22384]]]}},{"type":"Feature","properties":{"h3":"8830c16551fffff","emd_code":"2635062000","emd_name":"반송2동","area_km2":0.5468,"edge":true,"slope_mean":19.1,"elev_mean":177.4,"flood_hist_n":0,"flood_depth_max_m":null,"flood_risk_100y":null,"semi_basement_r":null,"elderly_alone_r":0.3225,"bldg_age30_r":null,"shelter_min_walk":14,"pop":19669,"hh":11154,"elderly65_r":0.418,"single_hh_r":0.5279,"source_level":"emd","flood_years":[],"landslide_hist_n":0},"geometry":{"type":"Polygon","coordinates":[[[129.16964,35.22802],[129.16879,35.22417],[129.17299,35.22201],[129.17804,35.22371],[129.1789,35.22757],[129.1747,35.22972],[129.16964,35.22802]]]}},{"type":"Feature","properties":{"h3":"8830c16555fffff","emd_code":"2635061000","emd_name":"반송1동","area_km2":0.5468,"edge":true,"slope_mean":18.16,"elev_mean":241.2,"flood_hist_n":0,"flood_depth_max_m":null,"flood_risk_100y":null,"semi_basement_r":null,"elderly_alone_r":0.3094,"bldg_age30_r":null,"shelter_min_walk":12,"pop":11164,"hh":6995,"elderly65_r":0.4251,"single_hh_r":0.6069,"source_level":"emd","flood_years":[],"landslide_hist_n":0},"geometry":{"type":"Polygon","coordinates":[[[129.16373,35.22247],[129.16287,35.21861],[129.16708,35.21645],[129.17213,35.21815],[129.17299,35.22201],[129.16879,35.22417],[129.16373,35.22247]]]}},{"type":"Feature","properties":{"h3":"8830c16559fffff","emd_code":"2635062000","emd_name":"반송2동","area_km2":0.5467,"edge":true,"slope_mean":16.81,"elev_mean":119.1,"flood_hist_n":0,"flood_depth_max_m":null,"flood_risk_100y":null,"semi_basement_r":null,"elderly_alone_r":0.3225,"bldg_age30_r":null,"shelter_min_walk":10,"pop":19669,"hh":11154,"elderly65_r":0.418,"single_hh_r":0.5279,"source_level":"emd","flood_years":[],"landslide_hist_n":0},"geometry":{"type":"Polygon","coordinates":[[[129.16629,35.23404],[129.16544,35.23018],[129.16964,35.22802],[129.1747,35.22972],[129.17555,35.23358],[129.17135,35.23574],[129.16629,35.23404]]]}},{"type":"Feature","properties":{"h3":"8830c1655dfffff","emd_code":"2635062000","emd_name":"반송2동","area_km2":0.5467,"edge":false,"slope_mean":18.1,"elev_mean":158.8,"flood_hist_n":0,"flood_depth_max_m":null,"flood_risk_100y":null,"semi_basement_r":null,"elderly_alone_r":0.3225,"bldg_age30_r":null,"shelter_min_walk":2,"pop":19669,"hh":11154,"elderly65_r":0.418,"single_hh_r":0.5279,"source_level":"emd","flood_years":[],"landslide_hist_n":0},"geometry":{"type":"Polygon","coordinates":[[[129.16038,35.22848],[129.15953,35.22463],[129.16373,35.22247],[129.16879,35.22417],[129.16964,35.22802],[129.16544,35.23018],[129.16038,35.22848]]]}},{"type":"Feature","properties":{"h3":"8830c16561fffff","emd_code":"2635059000","emd_name":"반여3동","area_km2":0.547,"edge":false,"slope_mean":21.28,"elev_mean":275.1,"flood_hist_n":0,"flood_depth_max_m":null,"flood_risk_100y":null,"semi_basement_r":null,"elderly_alone_r":0.3001,"bldg_age30_r":null,"shelter_min_walk":9,"pop":6957,"hh":4182,"elderly65_r":0.4137,"single_hh_r":0.5603,"source_level":"emd","flood_years":[],"landslide_hist_n":0},"geometry":{"type":"Polygon","coordinates":[[[129.13674,35.20625],[129.13588,35.20239],[129.14008,35.20024],[129.14514,35.20194],[129.14599,35.2058],[129.14179,35.20795],[129.13674,35.20625]]]}},{"type":"Feature","properties":{"h3":"8830c16563fffff","emd_code":"2635057000","emd_name":"반여1동","area_km2":0.547,"edge":false,"slope_mean":19.36,"elev_mean":447.8,"flood_hist_n":0,"flood_depth_max_m":null,"flood_risk_100y":null,"semi_basement_r":null,"elderly_alone_r":0.1102,"bldg_age30_r":null,"shelter_min_walk":20,"pop":34656,"hh":13935,"elderly65_r":0.2054,"single_hh_r":0.245,"source_level":"emd","flood_years":[],"landslide_hist_n":0},"geometry":{"type":"Polygon","coordinates":[[[129.14599,35.2058],[129.14514,35.20194],[129.14934,35.19978],[129.1544,35.20148],[129.15525,35.20534],[129.15105,35.2075],[129.14599,35.2058]]]}},{"type":"Feature","properties":{"h3":"8830c16565fffff","emd_code":"2635059000","emd_name":"반여3동","area_km2":0.5471,"edge":false,"slope_mean":15.74,"elev_mean":206.1,"flood_hist_n":0,"flood_depth_max_m":null,"flood_risk_100y":null,"semi_basement_r":null,"elderly_alone_r":0.3001,"bldg_age30_r":null,"shelter_min_walk":1,"pop":6957,"hh":4182,"elderly65_r":0.4137,"single_hh_r":0.5603,"source_level":"emd","flood_years":[],"landslide_hist_n":0},"geometry":{"type":"Polygon","coordinates":[[[129.13083,35.20069],[129.12997,35.19683],[129.13417,35.19468],[129.13923,35.19638],[129.14008,35.20024],[129.13588,35.20239],[129.13083,35.20069]]]}},{"type":"Feature","properties":{"h3":"8830c16567fffff","emd_code":"2635059000","emd_name":"반여3동","area_km2":0.5471,"edge":false,"slope_mean":21.91,"elev_mean":445.8,"flood_hist_n":0,"flood_depth_max_m":null,"flood_risk_100y":null,"semi_basement_r":null,"elderly_alone_r":0.3001,"bldg_age30_r":null,"shelter_min_walk":11,"pop":6957,"hh":4182,"elderly65_r":0.4137,"single_hh_r":0.5603,"source_level":"emd","flood_years":[],"landslide_hist_n":0},"geometry":{"type":"Polygon","coordinates":[[[129.14008,35.20024],[129.13923,35.19638],[129.14343,35.19422],[129.14849,35.19592],[129.14934,35.19978],[129.14514,35.20194],[129.14008,35.20024]]]}},{"type":"Feature","properties":{"h3":"8830c16569fffff","emd_code":"2635057000","emd_name":"반여1동","area_km2":0.5469,"edge":false,"slope_mean":18.32,"elev_mean":132.7,"flood_hist_n":0,"flood_depth_max_m":null,"flood_risk_100y":null,"semi_basement_r":null,"elderly_alone_r":0.1102,"bldg_age30_r":null,"shelter_min_walk":16,"pop":34656,"hh":13935,"elderly65_r":0.2054,"single_hh_r":0.245,"source_level":"emd","flood_years":[],"landslide_hist_n":0},"geometry":{"type":"Polygon","coordinates":[[[129.13339,35.21227],[129.13254,35.20841],[129.13674,35.20625],[129.14179,35.20795],[129.14265,35.21181],[129.13845,35.21397],[129.13339,35.21227]]]}},{"type":"Feature","properties":{"h3":"8830c1656bfffff","emd_code":"2635061000","emd_name":"반송1동","area_km2":0.5469,"edge":false,"slope_mean":22.53,"elev_mean":244.1,"flood_hist_n":0,"flood_depth_max_m":null,"flood_risk_100y":null,"semi_basement_r":null,"elderly_alone_r":0.3094,"bldg_age30_r":null,"shelter_min_walk":22,"pop":11164,"hh":6995,"elderly65_r":0.4251,"single_hh_r":0.6069,"source_level":"emd","flood_years":[],"landslide_hist_n":0},"geometry":{"type":"Polygon","coordinates":[[[129.14265,35.21181],[129.14179,35.20795],[129.14599,35.2058],[129.15105,35.2075],[129.15191,35.21135],[129.1477,35.21351],[129.14265,35.21181]]]}},{"type":"Feature","properties":{"h3":"8830c1656dfffff","emd_code":"2635057000","emd_name":"반여1동","area_km2":0.5469,"edge":false,"slope_mean":17.94,"elev_mean":116.1,"flood_hist_n":0,"flood_depth_max_m":null,"flood_risk_100y":null,"semi_basement_r":null,"elderly_alone_r":0.1102,"bldg_age30_r":null,"shelter_min_walk":4,"pop":34656,"hh":13935,"elderly65_r":0.2054,"single_hh_r":0.245,"source_level":"emd","flood_years":[],"landslide_hist_n":0},"geometry":{"type":"Polygon","coordinates":[[[129.12748,35.20671],[129.12663,35.20285],[129.13083,35.20069],[129.13588,35.20239],[129.13674,35.20625],[129.13254,35.20841],[129.12748,35.20671]]]}},{"type":"Feature","properties":{"h3":"8830c165e1fffff","emd_code":"2635056000","emd_name":"송정동","area_km2":0.5473,"edge":true,"slope_mean":6.96,"elev_mean":15.8,"flood_hist_n":0,"flood_depth_max_m":null,"flood_risk_100y":null,"semi_basement_r":null,"elderly_alone_r":0.2049,"bldg_age30_r":null,"shelter_min_walk":9,"pop":8971,"hh":4959,"elderly65_r":0.3464,"single_hh_r":0.4862,"source_level":"emd","flood_years":[],"landslide_hist_n":0},"geometry":{"type":"Polygon","coordinates":[[[129.20155,35.20304],[129.20069,35.19918],[129.20489,35.19702],[129.20995,35.19872],[129.21081,35.20258],[129.2066,35.20474],[129.20155,35.20304]]]}},{"type":"Feature","properties":{"h3":"8830c165e5fffff","emd_code":"2635056000","emd_name":"송정동","area_km2":0.5474,"edge":false,"slope_mean":12.73,"elev_mean":35.0,"flood_hist_n":0,"flood_depth_max_m":null,"flood_risk_100y":null,"semi_basement_r":null,"elderly_alone_r":0.2049,"bldg_age30_r":null,"shelter_min_walk":10,"pop":8971,"hh":4959,"elderly65_r":0.3464,"single_hh_r":0.4862,"source_level":"emd","flood_years":[],"landslide_hist_n":0},"geometry":{"type":"Polygon","coordinates":[[[129.19563,35.19748],[129.19478,35.19363],[129.19898,35.19147],[129.20404,35.19316],[129.20489,35.19702],[129.20069,35.19918],[129.19563,35.19748]]]}},{"type":"Feature","properties":{"h3":"8830c165e7fffff","emd_code":"2635056000","emd_name":"송정동","area_km2":0.5475,"edge":true,"slope_mean":4.86,"elev_mean":15.7,"flood_hist_n":0,"flood_depth_max_m":null,"flood_risk_100y":null,"semi_basement_r":null,"elderly_alone_r":0.2049,"bldg_age30_r":null,"shelter_min_walk":9,"pop":8971,"hh":4959,"elderly65_r":0.3464,"single_hh_r":0.4862,"source_level":"emd","flood_years":[],"landslide_hist_n":0},"geometry":{"type":"Polygon","coordinates":[[[129.20489,35.19702],[129.20404,35.19316],[129.20824,35.191],[129.2133,35.1927],[129.21415,35.19656],[129.20995,35.19872],[129.20489,35.19702]]]}},{"type":"Feature","properties":{"h3":"8830c165edfffff","emd_code":"2635056000","emd_name":"송정동","area_km2":0.5473,"edge":true,"slope_mean":16.06,"elev_mean":52.5,"flood_hist_n":0,"flood_depth_max_m":null,"flood_risk_100y":null,"semi_basement_r":null,"elderly_alone_r":0.2049,"bldg_age30_r":null,"shelter_min_walk":13,"pop":8971,"hh":4959,"elderly65_r":0.3464,"single_hh_r":0.4862,"source_level":"emd","flood_years":[],"landslide_hist_n":0},"geometry":{"type":"Polygon","coordinates":[[[129.19229,35.2035],[129.19143,35.19964],[129.19563,35.19748],[129.20069,35.19918],[129.20155,35.20304],[129.19734,35.2052],[129.19229,35.2035]]]}},{"type":"Feature","properties":{"h3":"8830c16701fffff","emd_code":"2635062000","emd_name":"반송2동","area_km2":0.5462,"edge":true,"slope_mean":24.69,"elev_mean":290.7,"flood_hist_n":0,"flood_depth_max_m":null,"flood_risk_100y":null,"semi_basement_r":null,"elderly_alone_r":0.3225,"bldg_age30_r":null,"shelter_min_walk":39,"pop":19669,"hh":11154,"elderly65_r":0.418,"single_hh_r":0.5279,"source_level":"emd","flood_years":[],"landslide_hist_n":0},"geometry":{"type":"Polygon","coordinates":[[[129.13774,35.25298],[129.13688,35.24913],[129.14108,35.24697],[129.14614,35.24867],[129.147,35.25253],[129.14279,35.25468],[129.13774,35.25298]]]}},{"type":"Feature","properties":{"h3":"8830c16703fffff","emd_code":"2635062000","emd_name":"반송2동","area_km2":0.5463,"edge":true,"slope_mean":23.69,"elev_mean":280.1,"flood_hist_n":0,"flood_depth_max_m":null,"flood_risk_100y":null,"semi_basement_r":null,"elderly_alone_r":0.3225,"bldg_age30_r":null,"shelter_min_walk":34,"pop":19669,"hh":11154,"elderly65_r":0.418,"single_hh_r":0.5279,"source_level":"emd","flood_years":[],"landslide_hist_n":0},"geometry":{"type":"Polygon","coordinates":[[[129.147,35.25253],[129.14614,35.24867],[129.15034,35.24652],[129.1554,35.24822],[129.15625,35.25207],[129.15205,35.25423],[129.147,35.25253]]]}},{"type":"Feature","properties":{"h3":"8830c16707fffff","emd_code":"2635062000","emd_name":"반송2동","area_km2":0.5463,"edge":false,"slope_mean":25.13,"elev_mean":293.1,"flood_hist_n":0,"flood_depth_max_m":null,"flood_risk_100y":null,"semi_basement_r":null,"elderly_alone_r":0.3225,"bldg_age30_r":null,"shelter_min_walk":30,"pop":19669,"hh":11154,"elderly65_r":0.418,"single_hh_r":0.5279,"source_level":"emd","flood_years":[],"landslide_hist_n":0},"geometry":{"type":"Polygon","coordinates":[[[129.14108,35.24697],[129.14023,35.24312],[129.14443,35.24096],[129.14949,35.24266],[129.15034,35.24652],[129.14614,35.24867],[129.14108,35.24697]]]}},{"type":"Feature","properties":{"h3":"8830c16721fffff","emd_code":"2635061000","emd_name":"반송1동","area_km2":0.5465,"edge":false,"slope_mean":15.64,"elev_mean":97.4,"flood_hist_n":0,"flood_depth_max_m":null,"flood_risk_100y":null,"semi_basement_r":null,"elderly_alone_r":0.3094,"bldg_age30_r":null,"shelter_min_walk":22,"pop":11164,"hh":6995,"elderly65_r":0.4251,"single_hh_r":0.6069,"source_level":"emd","flood_years":[],"landslide_hist_n":0},"geometry":{"type":"Polygon","coordinates":[[[129.12926,35.23586],[129.12841,35.23201],[129.13261,35.22985],[129.13767,35.23155],[129.13852,35.23541],[129.13432,35.23756],[129.12926,35.23586]]]}},{"type":"Feature","properties":{"h3":"8830c16723fffff","emd_code":"2635062000","emd_name":"반송2동","area_km2":0.5465,"edge":false,"slope_mean":20.0,"elev_mean":114.6,"flood_hist_n":0,"flood_depth_max_m":null,"flood_risk_100y":null,"semi_basement_r":null,"elderly_alone_r":0.3225,"bldg_age30_r":null,"shelter_min_walk":13,"pop":19669,"hh":11154,"elderly65_r":0.418,"single_hh_r":0.5279,"source_level":"emd","flood_years":[],"landslide_hist_n":0},"geometry":{"type":"Polygon","coordinates":[[[129.13852,35.23541],[129.13767,35.23155],[129.14187,35.22939],[129.14692,35.2311],[129.14778,35.23495],[129.14358,35.23711],[129.13852,35.23541]]]}},{"type":"Feature","properties":{"h3":"8830c16725fffff","emd_code":"2635061000","emd_name":"반송1동","area_km2":0.5465,"edge":true,"slope_mean":10.11,"elev_mean":47.6,"flood_hist_n":0,"flood_depth_max_m":null,"flood_risk_100y":null,"semi_basement_r":null,"elderly_alone_r":0.3094,"bldg_age30_r":null,"shelter_min_walk":23,"pop":11164,"hh":6995,"elderly65_r":0.4251,"single_hh_r":0.6069,"source_level":"emd","flood_years":[],"landslide_hist_n":0},"geometry":{"type":"Polygon","coordinates":[[[129.12335,35.23031],[129.1225,35.22645],[129.1267,35.22429],[129.13175,35.22599],[129.13261,35.22985],[129.12841,35.23201],[129.12335,35.23031]]]}},{"type":"Feature","properties":{"h3":"8830c16727fffff","emd_code":"2635061000","emd_name":"반송1동","area_km2":0.5466,"edge":false,"slope_mean":14.99,"elev_mean":116.0,"flood_hist_n":0,"flood_depth_max_m":null,"flood_risk_100y":null,"semi_basement_r":null,"elderly_alone_r":0.3094,"bldg_age30_r":null,"shelter_min_walk":14,"pop":11164,"hh":6995,"elderly65_r":0.4251,"single_hh_r":0.6069,"source_level":"emd","flood_years":[],"landslide_hist_n":0},"geometry":{"type":"Polygon","coordinates":[[[129.13261,35.22985],[129.13175,35.22599],[129.13596,35.22384],[129.14101,35.22554],[129.14187,35.22939],[129.13767,35.23155],[129.13261,35.22985]]]}},{"type":"Feature","properties":{"h3":"8830c1672bfffff","emd_code":"2635062000","emd_name":"반송2동","area_km2":0.5464,"edge":false,"slope_mean":18.28,"elev_mean":136.5,"flood_hist_n":0,"flood_depth_max_m":null,"flood_risk_100y":null,"semi_basement_r":null,"elderly_alone_r":0.3225,"bldg_age30_r":null,"shelter_min_walk":24,"pop":19669,"hh":11154,"elderly65_r":0.418,"single_hh_r":0.5279,"source_level":"emd","flood_years":[],"landslide_hist_n":0},"geometry":{"type":"Polygon","coordinates":[[[129.13517,35.24142],[129.13432,35.23756],[129.13852,35.23541],[129.14358,35.23711],[129.14443,35.24096],[129.14023,35.24312],[129.13517,35.24142]]]}},{"type":"Feature","properties":{"h3":"8830c16731fffff","emd_code":"2635062000","emd_name":"반송2동","area_km2":0.5465,"edge":true,"slope_mean":20.21,"elev_mean":112.7,"flood_hist_n":0,"flood_depth_max_m":null,"flood_risk_100y":null,"semi_basement_r":null,"elderly_alone_r":0.3225,"bldg_age30_r":null,"shelter_min_walk":13,"pop":19669,"hh":11154,"elderly65_r":0.418,"single_hh_r":0.5279,"source_level":"emd","flood_years":[],"landslide_hist_n":0},"geometry":{"type":"Polygon","coordinates":[[[129.15369,35.24051],[129.15283,35.23665],[129.15704,35.23449],[129.16209,35.23619],[129.16295,35.24005],[129.15875,35.24221],[129.15369,35.24051]]]}},{"type":"Feature","properties":{"h3":"8830c16735fffff","emd_code":"2635062000","emd_name":"반송2동","area_km2":0.5466,"edge":false,"slope_mean":14.29,"elev_mean":66.9,"flood_hist_n":1,"flood_depth_max_m":0.4,"flood_risk_100y":null,"semi_basement_r":null,"elderly_alone_r":0.3225,"bldg_age30_r":null,"shelter_min_walk":10,"pop":19669,"hh":11154,"elderly65_r":0.418,"single_hh_r":0.5279,"source_level":"emd","flood_years":[2020],"landslide_hist_n":0},"geometry":{"type":"Polygon","coordinates":[[[129.14778,35.23495],[129.14692,35.2311],[129.15112,35.22894],[129.15618,35.23064],[129.15704,35.23449],[129.15283,35.23665],[129.14778,35.23495]]]}},{"type":"Feature","properties":{"h3":"8830c16737fffff","emd_code":"2635062000","emd_name":"반송2동","area_km2":0.5466,"edge":false,"slope_mean":14.62,"elev_mean":82.5,"flood_hist_n":0,"flood_depth_max_m":null,"flood_risk_100y":null,"semi_basement_r":null,"elderly_alone_r":0.3225,"bldg_age30_r":null,"shelter_min_walk":3,"pop":19669,"hh":11154,"elderly65_r":0.418,"single_hh_r":0.5279,"source_level":"emd","flood_years":[],"landslide_hist_n":0},"geometry":{"type":"Polygon","coordinates":[[[129.15704,35.23449],[129.15618,35.23064],[129.16038,35.22848],[129.16544,35.23018],[129.16629,35.23404],[129.16209,35.23619],[129.15704,35.23449]]]}},{"type":"Feature","properties":{"h3":"8830c16739fffff","emd_code":"2635062000","emd_name":"반송2동","area_km2":0.5464,"edge":false,"slope_mean":23.12,"elev_mean":199.8,"flood_hist_n":0,"flood_depth_max_m":null,"flood_risk_100y":null,"semi_basement_r":null,"elderly_alone_r":0.3225,"bldg_age30_r":null,"shelter_min_walk":24,"pop":19669,"hh":11154,"elderly65_r":0.418,"single_hh_r":0.5279,"source_level":"emd","flood_years":[],"landslide_hist_n":0},"geometry":{"type":"Polygon","coordinates":[[[129.15034,35.24652],[129.14949,35.24266],[129.15369,35.24051],[129.15875,35.24221],[129.1596,35.24606],[129.1554,35.24822],[129.15034,35.24652]]]}},{"type":"Feature","properties":{"h3":"8830c1673dfffff","emd_code":"2635062000","emd_name":"반송2동","area_km2":0.5464,"edge":false,"slope_mean":21.5,"elev_mean":161.5,"flood_hist_n":0,"flood_depth_max_m":null,"flood_risk_100y":null,"semi_basement_r":null,"elderly_alone_r":0.3225,"bldg_age30_r":null,"shelter_min_walk":19,"pop":19669,"hh":11154,"elderly65_r":0.418,"single_hh_r":0.5279,"source_level":"emd","flood_years":[],"landslide_hist_n":0},"geometry":{"type":"Polygon","coordinates":[[[129.14443,35.24096],[129.14358,35.23711],[129.14778,35.23495],[129.15283,35.23665],[129.15369,35.24051],[129.14949,35.24266],[129.14443,35.24096]]]}},{"type":"Feature","properties":{"h3":"8830c16c49fffff","emd_code":"2635052000","emd_name":"우2동","area_km2":0.5479,"edge":true,"slope_mean":0.0,"elev_mean":0.0,"flood_hist_n":0,"flood_depth_max_m":null,"flood_risk_100y":null,"semi_basement_r":null,"elderly_alone_r":0.1011,"bldg_age30_r":null,"shelter_min_walk":15,"pop":29582,"hh":11963,"elderly65_r":0.2059,"single_hh_r":0.2507,"source_level":"emd","flood_years":[],"landslide_hist_n":0},"geometry":{"type":"Polygon","coordinates":[[[129.12392,35.14835],[129.12306,35.14449],[129.12726,35.14233],[129.13232,35.14403],[129.13317,35.14789],[129.12897,35.15005],[129.12392,35.14835]]]}},{"type":"Feature","properties":{"h3":"8830c16c59fffff","emd_code":"2635051000","emd_name":"우1동","area_km2":0.5479,"edge":true,"slope_mean":2.36,"elev_mean":2.8,"flood_hist_n":0,"flood_depth_max_m":null,"flood_risk_100y":null,"semi_basement_r":null,"elderly_alone_r":0.1296,"bldg_age30_r":null,"shelter_min_walk":15,"pop":23692,"hh":11527,"elderly65_r":0.2361,"single_hh_r":0.4289,"source_level":"emd","flood_years":[],"landslide_hist_n":0},"geometry":{"type":"Polygon","coordinates":[[[129.14834,35.153],[129.14748,35.14914],[129.15168,35.14698],[129.15674,35.14868],[129.15759,35.15254],[129.15339,35.1547],[129.14834,35.153]]]}},{"type":"Feature","properties":{"h3":"8830c16e01fffff","emd_code":"2635052000","emd_name":"우2동","area_km2":0.5475,"edge":true,"slope_mean":3.73,"elev_mean":5.9,"flood_hist_n":3,"flood_depth_max_m":0.7,"flood_risk_100y":null,"semi_basement_r":null,"elderly_alone_r":0.1011,"bldg_age30_r":null,"shelter_min_walk":4,"pop":29582,"hh":11963,"elderly65_r":0.2059,"single_hh_r":0.2507,"source_level":"emd","flood_years":[2014,2017,2020],"landslide_hist_n":0},"geometry":{"type":"Polygon","coordinates":[[[129.11979,35.17198],[129.11893,35.16811],[129.12313,35.16596],[129.12819,35.16766],[129.12904,35.17152],[129.12484,35.17368],[129.11979,35.17198]]]}},{"type":"Feature","properties":{"h3":"8830c16e03fffff","emd_code":"2635052000","emd_name":"우2동","area_km2":0.5475,"edge":false,"slope_mean":5.11,"elev_mean":7.8,"flood_hist_n":0,"flood_depth_max_m":null,"flood_risk_100y":null,"semi_basement_r":null,"elderly_alone_r":0.1011,"bldg_age30_r":null,"shelter_min_walk":1,"pop":29582,"hh":11963,"elderly65_r":0.2059,"single_hh_r":0.2507,"source_level":"emd","flood_years":[],"landslide_hist_n":0},"geometry":{"type":"Polygon","coordinates":[[[129.12904,35.17152],[129.12819,35.16766],[129.13239,35.1655],[129.13745,35.1672],[129.1383,35.17106],[129.1341,35.17322],[129.12904,35.17152]]]}},{"type":"Feature","properties":{"h3":"8830c16e07fffff","emd_code":"2635052000","emd_name":"우2동","area_km2":0.5476,"edge":true,"slope_mean":9.9,"elev_mean":24.1,"flood_hist_n":0,"flood_depth_max_m":null,"flood_risk_100y":null,"semi_basement_r":null,"elderly_alone_r":0.1011,"bldg_age30_r":null,"shelter_min_walk":5,"pop":29582,"hh":11963,"elderly65_r":0.2059,"single_hh_r":0.2507,"source_level":"emd","flood_years":[],"landslide_hist_n":0},"geometry":{"type":"Polygon","coordinates":[[[129.12313,35.16596],[129.12228,35.1621],[129.12648,35.15994],[129.13154,35.16164],[129.13239,35.1655],[129.12819,35.16766],[129.12313,35.16596]]]}},{"type":"Feature","properties":{"h3":"8830c16e09fffff","emd_code":"2635065000","emd_name":"재송1동","area_km2":0.5474,"edge":false,"slope_mean":2.29,"elev_mean":4.7,"flood_hist_n":2,"flood_depth_max_m":0.55,"flood_risk_100y":null,"semi_basement_r":null,"elderly_alone_r":0.0855,"bldg_age30_r":null,"shelter_min_walk":4,"pop":35877,"hh":14593,"elderly65_r":0.1712,"single_hh_r":0.2908,"source_level":"emd","flood_years":[2017,2020],"landslide_hist_n":0},"geometry":{"type":"Polygon","coordinates":[[[129.11644,35.17799],[129.11559,35.17413],[129.11979,35.17198],[129.12484,35.17368],[129.1257,35.17754],[129.1215,35.1797],[129.11644,35.17799]]]}},{"type":"Feature","properties":{"h3":"8830c16e0bfffff","emd_code":"2635052000","emd_name":"우2동","area_km2":0.5474,"edge":false,"slope_mean":10.24,"elev_mean":29.6,"flood_hist_n":0,"flood_depth_max_m":null,"flood_risk_100y":null,"semi_basement_r":null,"elderly_alone_r":0.1011,"bldg_age30_r":null,"shelter_min_walk":6,"pop":29582,"hh":11963,"elderly65_r":0.2059,"single_hh_r":0.2507,"source_level":"emd","flood_years":[],"landslide_hist_n":0},"geometry":{"type":"Polygon","coordinates":[[[129.1257,35.17754],[129.12484,35.17368],[129.12904,35.17152],[129.1341,35.17322],[129.13495,35.17708],[129.13075,35.17924],[129.1257,35.17754]]]}},{"type":"Feature","properties":{"h3":"8830c16e11fffff","emd_code":"2635052000","emd_name":"우2동","area_km2":0.5475,"edge":false,"slope_mean":21.23,"elev_mean":113.4,"flood_hist_n":0,"flood_depth_max_m":null,"flood_risk_100y":null,"semi_basement_r":null,"elderly_alone_r":0.1011,"bldg_age30_r":null,"shelter_min_walk":11,"pop":29582,"hh":11963,"elderly65_r":0.2059,"single_hh_r":0.2507,"source_level":"emd","flood_years":[],"landslide_hist_n":0},"geometry":{"type":"Polygon","coordinates":[[[129.14421,35.17662],[129.14336,35.17276],[129.14756,35.1706],[129.15261,35.17231],[129.15347,35.17617],[129.14927,35.17833],[129.14421,35.17662]]]}},{"type":"Feature","properties":{"h3":"8830c16e13fffff","emd_code":"2635051000","emd_name":"우1동","area_km2":0.5476,"edge":false,"slope_mean":14.29,"elev_mean":82.3,"flood_hist_n":0,"flood_depth_max_m":null,"flood_risk_100y":null,"semi_basement_r":null,"elderly_alone_r":0.1296,"bldg_age30_r":null,"shelter_min_walk":4,"pop":23692,"hh":11527,"elderly65_r":0.2361,"single_hh_r":0.4289,"source_level":"emd","flood_years":[],"landslide_hist_n":0},"geometry":{"type":"Polygon","coordinates":[[[129.15347,35.17617],[129.15261,35.17231],[129.15681,35.17015],[129.16187,35.17185],[129.16273,35.17571],[129.15852,35.17787],[129.15347,35.17617]]]}},{"type":"Feature","properties":{"h3":"8830c16e15fffff","emd_code":"2635052000","emd_name":"우2동","area_km2":0.5476,"edge":false,"slope_mean":11.71,"elev_mean":36.5,"flood_hist_n":0,"flood_depth_max_m":null,"flood_risk_100y":null,"semi_basement_r":null,"elderly_alone_r":0.1011,"bldg_age30_r":null,"shelter_min_walk":3,"pop":29582,"hh":11963,"elderly65_r":0.2059,"single_hh_r":0.2507,"source_level":"emd","flood_years":[],"landslide_hist_n":0},"geometry":{"type":"Polygon","coordinates":[[[129.1383,35.17106],[129.13745,35.1672],[129.14165,35.16504],[129.1467,35.16674],[129.14756,35.1706],[129.14336,35.17276],[129.1383,35.17106]]]}},{"type":"Feature","properties":{"h3":"8830c16e17fffff","emd_code":"2635051000","emd_name":"우1동","area_km2":0.5476,"edge":false,"slope_mean":15.49,"elev_mean":78.6,"flood_hist_n":0,"flood_depth_max_m":null,"flood_risk_100y":null,"semi_basement_r":null,"elderly_alone_r":0.1296,"bldg_age30_r":null,"shelter_min_walk":5,"pop":23692,"hh":11527,"elderly65_r":0.2361,"single_hh_r":0.4289,"source_level":"emd","flood_years":[],"landslide_hist_n":0},"geometry":{"type":"Polygon","coordinates":[[[129.14756,35.1706],[129.1467,35.16674],[129.1509,35.16458],[129.15596,35.16628],[129.15681,35.17015],[129.15261,35.17231],[129.14756,35.1706]]]}},{"type":"Feature","properties":{"h3":"8830c16e19fffff","emd_code":"2635052000","emd_name":"우2동","area_km2":0.5474,"edge":false,"slope_mean":23.39,"elev_mean":203.6,"flood_hist_n":0,"flood_depth_max_m":null,"flood_risk_100y":null,"semi_basement_r":null,"elderly_alone_r":0.1011,"bldg_age30_r":null,"shelter_min_walk":17,"pop":29582,"hh":11963,"elderly65_r":0.2059,"single_hh_r":0.2507,"source_level":"emd","flood_years":[],"landslide_hist_n":0},"geometry":{"type":"Polygon","coordinates":[[[129.14086,35.18264],[129.14001,35.17878],[129.14421,35.17662],[129.14927,35.17833],[129.15012,35.18219],[129.14592,35.18434],[129.14086,35.18264]]]}},{"type":"Feature","properties":{"h3":"8830c16e1bfffff","emd_code":"2635051000","emd_name":"우1동","area_km2":0.5475,"edge":false,"slope_mean":22.39,"elev_mean":183.9,"flood_hist_n":0,"flood_depth_max_m":null,"flood_risk_100y":null,"semi_basement_r":null,"elderly_alone_r":0.1296,"bldg_age30_r":null,"shelter_min_walk":14,"pop":23692,"hh":11527,"elderly65_r":0.2361,"single_hh_r":0.4289,"source_level":"emd","flood_years":[],"landslide_hist_n":0},"geometry":{"type":"Polygon","coordinates":[[[129.15012,35.18219],[129.14927,35.17833],[129.15347,35.17617],[129.15852,35.17787],[129.15938,35.18173],[129.15518,35.18389],[129.15012,35.18219]]]}},{"type":"Feature","properties":{"h3":"8830c16e1dfffff","emd_code":"2635052000","emd_name":"우2동","area_km2":0.5475,"edge":false,"slope_mean":18.62,"elev_mean":72.3,"flood_hist_n":0,"flood_depth_max_m":null,"flood_risk_100y":null,"semi_basement_r":null,"elderly_alone_r":0.1011,"bldg_age30_r":null,"shelter_min_walk":5,"pop":29582,"hh":11963,"elderly65_r":0.2059,"single_hh_r":0.2507,"source_level":"emd","flood_years":[],"landslide_hist_n":0},"geometry":{"type":"Polygon","coordinates":[[[129.13495,35.17708],[129.1341,35.17322],[129.1383,35.17106],[129.14336,35.17276],[129.14421,35.17662],[129.14001,35.17878],[129.13495,35.17708]]]}},{"type":"Feature","properties":{"h3":"8830c16e31fffff","emd_code":"2635052500","emd_name":"우3동","area_km2":0.5478,"edge":true,"slope_mean":1.78,"elev_mean":2.1,"flood_hist_n":1,"flood_depth_max_m":0.132,"flood_risk_100y":null,"semi_basement_r":null,"elderly_alone_r":0.0896,"bldg_age30_r":null,"shelter_min_walk":5,"pop":27969,"hh":11047,"elderly65_r":0.2138,"single_hh_r":0.2344,"source_level":"emd","flood_years":[2016],"landslide_hist_n":0},"geometry":{"type":"Polygon","coordinates":[[[129.13574,35.15948],[129.13488,35.15562],[129.13908,35.15346],[129.14414,35.15516],[129.14499,35.15902],[129.14079,35.16118],[129.13574,35.15948]]]}},{"type":"Feature","properties":{"h3":"8830c16e33fffff","emd_code":"2635052500","emd_name":"우3동","area_km2":0.5478,"edge":false,"slope_mean":6.06,"elev_mean":8.0,"flood_hist_n":1,"flood_depth_max_m":0.132,"flood_risk_100y":null,"semi_basement_r":null,"elderly_alone_r":0.0896,"bldg_age30_r":null,"shelter_min_walk":7,"pop":27969,"hh":11047,"elderly65_r":0.2138,"single_hh_r":0.2344,"source_level":"emd","flood_years":[2016],"landslide_hist_n":0},"geometry":{"type":"Polygon","coordinates":[[[129.14499,35.15902],[129.14414,35.15516],[129.14834,35.153],[129.15339,35.1547],[129.15425,35.15856],[129.15005,35.16072],[129.14499,35.15902]]]}},{"type":"Feature","properties":{"h3":"8830c16e35fffff","emd_code":"2635052000","emd_name":"우2동","area_km2":0.5478,"edge":false,"slope_mean":0.58,"elev_mean":0.5,"flood_hist_n":1,"flood_depth_max_m":0.48,"flood_risk_100y":null,"semi_basement_r":null,"elderly_alone_r":0.1011,"bldg_age30_r":null,"shelter_min_walk":9,"pop":29582,"hh":11963,"elderly65_r":0.2059,"single_hh_r":0.2507,"source_level":"emd","flood_years":[2016],"landslide_hist_n":0},"geometry":{"type":"Polygon","coordinates":[[[129.12983,35.15391],[129.12897,35.15005],[129.13317,35.14789],[129.13823,35.14959],[129.13908,35.15346],[129.13488,35.15562],[129.12983,35.15391]]]}},{"type":"Feature","properties":{"h3":"8830c16e37fffff","emd_code":"2635052500","emd_name":"우3동","area_km2":0.5479,"edge":true,"slope_mean":0.82,"elev_mean":0.6,"flood_hist_n":1,"flood_depth_max_m":0.132,"flood_risk_100y":null,"semi_basement_r":null,"elderly_alone_r":0.0896,"bldg_age30_r":null,"shelter_min_walk":8,"pop":27969,"hh":11047,"elderly65_r":0.2138,"single_hh_r":0.2344,"source_level":"emd","flood_years":[2016],"landslide_hist_n":0},"geometry":{"type":"Polygon","coordinates":[[[129.13908,35.15346],[129.13823,35.14959],[129.14243,35.14743],[129.14748,35.14914],[129.14834,35.153],[129.14414,35.15516],[129.13908,35.15346]]]}},{"type":"Feature","properties":{"h3":"8830c16e39fffff","emd_code":"2635052000","emd_name":"우2동","area_km2":0.5477,"edge":false,"slope_mean":3.79,"elev_mean":5.5,"flood_hist_n":0,"flood_depth_max_m":null,"flood_risk_100y":null,"semi_basement_r":null,"elderly_alone_r":0.1011,"bldg_age30_r":null,"shelter_min_walk":9,"pop":29582,"hh":11963,"elderly65_r":0.2059,"single_hh_r":0.2507,"source_level":"emd","flood_years":[],"landslide_hist_n":0},"geometry":{"type":"Polygon","coordinates":[[[129.13239,35.1655],[129.13154,35.16164],[129.13574,35.15948],[129.14079,35.16118],[129.14165,35.16504],[129.13745,35.1672],[129.13239,35.1655]]]}},{"type":"Feature","properties":{"h3":"8830c16e3bfffff","emd_code":"2635051000","emd_name":"우1동","area_km2":0.5477,"edge":false,"slope_mean":9.48,"elev_mean":30.0,"flood_hist_n":0,"flood_depth_max_m":null,"flood_risk_100y":null,"semi_basement_r":null,"elderly_alone_r":0.1296,"bldg_age30_r":null,"shelter_min_walk":2,"pop":23692,"hh":11527,"elderly65_r":0.2361,"single_hh_r":0.4289,"source_level":"emd","flood_years":[],"landslide_hist_n":0},"geometry":{"type":"Polygon","coordinates":[[[129.14165,35.16504],[129.14079,35.16118],[129.14499,35.15902],[129.15005,35.16072],[129.1509,35.16458],[129.1467,35.16674],[129.14165,35.16504]]]}},{"type":"Feature","properties":{"h3":"8830c16e3dfffff","emd_code":"2635052000","emd_name":"우2동","area_km2":0.5477,"edge":true,"slope_mean":6.31,"elev_mean":10.8,"flood_hist_n":1,"flood_depth_max_m":0.48,"flood_risk_100y":null,"semi_basement_r":null,"elderly_alone_r":0.1011,"bldg_age30_r":null,"shelter_min_walk":2,"pop":29582,"hh":11963,"elderly65_r":0.2059,"single_hh_r":0.2507,"source_level":"emd","flood_years":[2016],"landslide_hist_n":0},"geometry":{"type":"Polygon","coordinates":[[[129.12648,35.15994],[129.12563,35.15607],[129.12983,35.15391],[129.13488,35.15562],[129.13574,35.15948],[129.13154,35.16164],[129.12648,35.15994]]]}},{"type":"Feature","properties":{"h3":"8830c16e43fffff","emd_code":"2635065000","emd_name":"재송1동","area_km2":0.5473,"edge":true,"slope_mean":5.71,"elev_mean":10.9,"flood_hist_n":1,"flood_depth_max_m":0.974,"flood_risk_100y":null,"semi_basement_r":null,"elderly_alone_r":0.0855,"bldg_age30_r":null,"shelter_min_walk":2,"pop":35877,"hh":14593,"elderly65_r":0.1712,"single_hh_r":0.2908,"source_level":"emd","flood_years":[2017],"landslide_hist_n":0},"geometry":{"type":"Polygon","coordinates":[[[129.1131,35.18401],[129.11224,35.18015],[129.11644,35.17799],[129.1215,35.1797],[129.12235,35.18356],[129.11815,35.18571],[129.1131,35.18401]]]}},{"type":"Feature","properties":{"h3":"8830c16e4bfffff","emd_code":"2635065000","emd_name":"재송1동","area_km2":0.5471,"edge":true,"slope_mean":5.06,"elev_mean":9.5,"flood_hist_n":1,"flood_depth_max_m":0.486,"flood_risk_100y":null,"semi_basement_r":null,"elderly_alone_r":0.0855,"bldg_age30_r":null,"shelter_min_walk":5,"pop":35877,"hh":14593,"elderly65_r":0.1712,"single_hh_r":0.2908,"source_level":"emd","flood_years":[2014],"landslide_hist_n":0},"geometry":{"type":"Polygon","coordinates":[[[129.10975,35.19003],[129.1089,35.18617],[129.1131,35.18401],[129.11815,35.18571],[129.11901,35.18957],[129.11481,35.19173],[129.10975,35.19003]]]}},{"type":"Feature","properties":{"h3":"8830c16e51fffff","emd_code":"2635066000","emd_name":"재송2동","area_km2":0.5472,"edge":false,"slope_mean":15.89,"elev_mean":158.7,"flood_hist_n":0,"flood_depth_max_m":null,"flood_risk_100y":null,"semi_basement_r":null,"elderly_alone_r":0.1779,"bldg_age30_r":null,"shelter_min_walk":4,"pop":21273,"hh":10728,"elderly65_r":0.2943,"single_hh_r":0.4251,"source_level":"emd","flood_years":[],"landslide_hist_n":0},"geometry":{"type":"Polygon","coordinates":[[[129.12826,35.18912],[129.12741,35.18526],[129.13161,35.1831],[129.13666,35.1848],[129.13752,35.18866],[129.13332,35.19082],[129.12826,35.18912]]]}},{"type":"Feature","properties":{"h3":"8830c16e53fffff","emd_code":"2635065000","emd_name":"재송1동","area_km2":0.5473,"edge":false,"slope_mean":19.76,"elev_mean":330.1,"flood_hist_n":0,"flood_depth_max_m":null,"flood_risk_100y":null,"semi_basement_r":null,"elderly_alone_r":0.0855,"bldg_age30_r":null,"shelter_min_walk":12,"pop":35877,"hh":14593,"elderly65_r":0.1712,"single_hh_r":0.2908,"source_level":"emd","flood_years":[],"landslide_hist_n":0},"geometry":{"type":"Polygon","coordinates":[[[129.13752,35.18866],[129.13666,35.1848],[129.14086,35.18264],[129.14592,35.18434],[129.14678,35.1882],[129.14257,35.19036],[129.13752,35.18866]]]}},{"type":"Feature","properties":{"h3":"8830c16e55fffff","emd_code":"2635065000","emd_name":"재송1동","area_km2":0.5473,"edge":false,"slope_mean":11.54,"elev_mean":49.2,"flood_hist_n":0,"flood_depth_max_m":null,"flood_risk_100y":null,"semi_basement_r":null,"elderly_alone_r":0.0855,"bldg_age30_r":null,"shelter_min_walk":6,"pop":35877,"hh":14593,"elderly65_r":0.1712,"single_hh_r":0.2908,"source_level":"emd","flood_years":[],"landslide_hist_n":0},"geometry":{"type":"Polygon","coordinates":[[[129.12235,35.18356],[129.1215,35.1797],[129.1257,35.17754],[129.13075,35.17924],[129.13161,35.1831],[129.12741,35.18526],[129.12235,35.18356]]]}},{"type":"Feature","properties":{"h3":"8830c16e57fffff","emd_code":"2635065000","emd_name":"재송1동","area_km2":0.5474,"edge":false,"slope_mean":19.45,"elev_mean":179.7,"flood_hist_n":0,"flood_depth_max_m":null,"flood_risk_100y":null,"semi_basement_r":null,"elderly_alone_r":0.0855,"bldg_age30_r":null,"shelter_min_walk":12,"pop":35877,"hh":14593,"elderly65_r":0.1712,"single_hh_r":0.2908,"source_level":"emd","flood_years":[],"landslide_hist_n":0},"geometry":{"type":"Polygon","coordinates":[[[129.13161,35.1831],[129.13075,35.17924],[129.13495,35.17708],[129.14001,35.17878],[129.14086,35.18264],[129.13666,35.1848],[129.13161,35.1831]]]}},{"type":"Feature","properties":{"h3":"8830c16e59fffff","emd_code":"2635066000","emd_name":"재송2동","area_km2":0.5471,"edge":false,"slope_mean":12.28,"elev_mean":123.4,"flood_hist_n":0,"flood_depth_max_m":null,"flood_risk_100y":null,"semi_basement_r":null,"elderly_alone_r":0.1779,"bldg_age30_r":null,"shelter_min_walk":3,"pop":21273,"hh":10728,"elderly65_r":0.2943,"single_hh_r":0.4251,"source_level":"emd","flood_years":[],"landslide_hist_n":0},"geometry":{"type":"Polygon","coordinates":[[[129.12492,35.19513],[129.12406,35.19127],[129.12826,35.18912],[129.13332,35.19082],[129.13417,35.19468],[129.12997,35.19683],[129.12492,35.19513]]]}},{"type":"Feature","properties":{"h3":"8830c16e5bfffff","emd_code":"2635066000","emd_name":"재송2동","area_km2":0.5472,"edge":false,"slope_mean":22.46,"elev_mean":342.4,"flood_hist_n":0,"flood_depth_max_m":null,"flood_risk_100y":null,"semi_basement_r":null,"elderly_alone_r":0.1779,"bldg_age30_r":null,"shelter_min_walk":6,"pop":21273,"hh":10728,"elderly65_r":0.2943,"single_hh_r":0.4251,"source_level":"emd","flood_years":[],"landslide_hist_n":0},"geometry":{"type":"Polygon","coordinates":[[[129.13417,35.19468],[129.13332,35.19082],[129.13752,35.18866],[129.14257,35.19036],[129.14343,35.19422],[129.13923,35.19638],[129.13417,35.19468]]]}},{"type":"Feature","properties":{"h3":"8830c16e5dfffff","emd_code":"2635065000","emd_name":"재송1동","area_km2":0.5472,"edge":false,"slope_mean":6.71,"elev_mean":34.4,"flood_hist_n":0,"flood_depth_max_m":null,"flood_risk_100y":null,"semi_basement_r":null,"elderly_alone_r":0.0855,"bldg_age30_r":null,"shelter_min_walk":4,"pop":35877,"hh":14593,"elderly65_r":0.1712,"single_hh_r":0.2908,"source_level":"emd","flood_years":[],"landslide_hist_n":0},"geometry":{"type":"Polygon","coordinates":[[[129.11901,35.18957],[129.11815,35.18571],[129.12235,35.18356],[129.12741,35.18526],[129.12826,35.18912],[129.12406,35.19127],[129.11901,35.18957]]]}},{"type":"Feature","properties":{"h3":"8830c16e81fffff","emd_code":"2635055200","emd_name":"좌2동","area_km2":0.5478,"edge":false,"slope_mean":16.14,"elev_mean":90.5,"flood_hist_n":0,"flood_depth_max_m":null,"flood_risk_100y":null,"semi_basement_r":null,"elderly_alone_r":0.0971,"bldg_age30_r":null,"shelter_min_walk":5,"pop":29801,"hh":14265,"elderly65_r":0.2115,"single_hh_r":0.4058,"source_level":"emd","flood_years":[],"landslide_hist_n":0},"geometry":{"type":"Polygon","coordinates":[[[129.18459,35.16877],[129.18373,35.1649],[129.18793,35.16274],[129.19299,35.16444],[129.19385,35.1683],[129.18964,35.17047],[129.18459,35.16877]]]}},{"type":"Feature","properties":{"h3":"8830c16e83fffff","emd_code":"2635056000","emd_name":"송정동","area_km2":0.5479,"edge":true,"slope_mean":7.48,"elev_mean":17.1,"flood_hist_n":0,"flood_depth_max_m":null,"flood_risk_100y":null,"semi_basement_r":null,"elderly_alone_r":0.2049,"bldg_age30_r":null,"shelter_min_walk":18,"pop":8971,"hh":4959,"elderly65_r":0.3464,"single_hh_r":0.4862,"source_level":"emd","flood_years":[],"landslide_hist_n":0},"geometry":{"type":"Polygon","coordinates":[[[129.19385,35.1683],[129.19299,35.16444],[129.19719,35.16228],[129.20225,35.16398],[129.2031,35.16784],[129.1989,35.17],[129.19385,35.1683]]]}},{"type":"Feature","properties":{"h3":"8830c16e85fffff","emd_code":"2635054000","emd_name":"중2동","area_km2":0.5479,"edge":false,"slope_mean":12.24,"elev_mean":82.6,"flood_hist_n":0,"flood_depth_max_m":null,"flood_risk_100y":null,"semi_basement_r":null,"elderly_alone_r":0.1364,"bldg_age30_r":null,"shelter_min_walk":1,"pop":15237,"hh":7417,"elderly65_r":0.2353,"single_hh_r":0.4297,"source_level":"emd","flood_years":[],"landslide_hist_n":0},"geometry":{"type":"Polygon","coordinates":[[[129.17868,35.1632],[129.17782,35.15934],[129.18202,35.15718],[129.18708,35.15888],[129.18793,35.16274],[129.18373,35.1649],[129.17868,35.1632]]]}},{"type":"Feature","properties":{"h3":"8830c16e87fffff","emd_code":"2635054000","emd_name":"중2동","area_km2":0.548,"edge":false,"slope_mean":6.07,"elev_mean":15.8,"flood_hist_n":0,"flood_depth_max_m":null,"flood_risk_100y":null,"semi_basement_r":null,"elderly_alone_r":0.1364,"bldg_age30_r":null,"shelter_min_walk":10,"pop":15237,"hh":7417,"elderly65_r":0.2353,"single_hh_r":0.4297,"source_level":"emd","flood_years":[],"landslide_hist_n":0},"geometry":{"type":"Polygon","coordinates":[[[129.18793,35.16274],[129.18708,35.15888],[129.19128,35.15672],[129.19634,35.15842],[129.19719,35.16228],[129.19299,35.16444],[129.18793,35.16274]]]}},{"type":"Feature","properties":{"h3":"8830c16e89fffff","emd_code":"2635055200","emd_name":"좌2동","area_km2":0.5477,"edge":false,"slope_mean":12.55,"elev_mean":78.1,"flood_hist_n":0,"flood_depth_max_m":null,"flood_risk_100y":null,"semi_basement_r":null,"elderly_alone_r":0.0971,"bldg_age30_r":null,"shelter_min_walk":5,"pop":29801,"hh":14265,"elderly65_r":0.2115,"single_hh_r":0.4058,"source_level":"emd","flood_years":[],"landslide_hist_n":0},"geometry":{"type":"Polygon","coordinates":[[[129.18124,35.17479],[129.18039,35.17093],[129.18459,35.16877],[129.18964,35.17047],[129.1905,35.17433],[129.1863,35.17649],[129.18124,35.17479]]]}},{"type":"Feature","properties":{"h3":"8830c16e8bfffff","emd_code":"2635056000","emd_name":"송정동","area_km2":0.5478,"edge":false,"slope_mean":14.3,"elev_mean":67.2,"flood_hist_n":0,"flood_depth_max_m":null,"flood_risk_100y":null,"semi_basement_r":null,"elderly_alone_r":0.2049,"bldg_age30_r":null,"shelter_min_walk":15,"pop":8971,"hh":4959,"elderly65_r":0.3464,"single_hh_r":0.4862,"source_level":"emd","flood_years":[],"landslide_hist_n":0},"geometry":{"type":"Polygon","coordinates":[[[129.1905,35.17433],[129.18964,35.17047],[129.19385,35.1683],[129.1989,35.17],[129.19976,35.17386],[129.19556,35.17603],[129.1905,35.17433]]]}},{"type":"Feature","properties":{"h3":"8830c16e8dfffff","emd_code":"2635055200","emd_name":"좌2동","area_km2":0.5478,"edge":false,"slope_mean":7.42,"elev_mean":54.2,"flood_hist_n":1,"flood_depth_max_m":0.2,"flood_risk_100y":null,"semi_basement_r":null,"elderly_alone_r":0.0971,"bldg_age30_r":null,"shelter_min_walk":1,"pop":29801,"hh":14265,"elderly65_r":0.2115,"single_hh_r":0.4058,"source_level":"emd","flood_years":[2020],"landslide_hist_n":0},"geometry":{"type":"Polygon","coordinates":[[[129.17533,35.16923],[129.17447,35.16537],[129.17868,35.1632],[129.18373,35.1649],[129.18459,35.16877],[129.18039,35.17093],[129.17533,35.16923]]]}},{"type":"Feature","properties":{"h3":"8830c16ea9fffff","emd_code":"2635053000","emd_name":"중1동","area_km2":0.548,"edge":false,"slope_mean":7.62,"elev_mean":33.8,"flood_hist_n":0,"flood_depth_max_m":null,"flood_risk_100y":null,"semi_basement_r":null,"elderly_alone_r":0.1064,"bldg_age30_r":null,"shelter_min_walk":6,"pop":27313,"hh":12606,"elderly65_r":0.1979,"single_hh_r":0.3869,"source_level":"emd","flood_years":[],"landslide_hist_n":0},"geometry":{"type":"Polygon","coordinates":[[[129.17276,35.15764],[129.17191,35.15378],[129.17611,35.15162],[129.18117,35.15332],[129.18202,35.15718],[129.17782,35.15934],[129.17276,35.15764]]]}},{"type":"Feature","properties":{"h3":"8830c16eabfffff","emd_code":"2635054000","emd_name":"중2동","area_km2":0.548,"edge":true,"slope_mean":3.97,"elev_mean":11.8,"flood_hist_n":0,"flood_depth_max_m":null,"flood_risk_100y":null,"semi_basement_r":null,"elderly_alone_r":0.1364,"bldg_age30_r":null,"shelter_min_walk":8,"pop":15237,"hh":7417,"elderly65_r":0.2353,"single_hh_r":0.4297,"source_level":"emd","flood_years":[],"landslide_hist_n":0},"geometry":{"type":"Polygon","coordinates":[[[129.18202,35.15718],[129.18117,35.15332],[129.18537,35.15116],[129.19042,35.15286],[129.19128,35.15672],[129.18708,35.15888],[129.18202,35.15718]]]}},{"type":"Feature","properties":{"h3":"8830c16ec1fffff","emd_code":"2635055400","emd_name":"좌4동","area_km2":0.5476,"edge":false,"slope_mean":6.81,"elev_mean":56.7,"flood_hist_n":0,"flood_depth_max_m":null,"flood_risk_100y":null,"semi_basement_r":null,"elderly_alone_r":0.0981,"bldg_age30_r":null,"shelter_min_walk":3,"pop":21479,"hh":8580,"elderly65_r":0.1997,"single_hh_r":0.2408,"source_level":"emd","flood_years":[],"landslide_hist_n":0},"geometry":{"type":"Polygon","coordinates":[[[129.16864,35.18127],[129.16778,35.17741],[129.17198,35.17525],[129.17704,35.17695],[129.17789,35.18081],[129.17369,35.18297],[129.16864,35.18127]]]}},{"type":"Feature","properties":{"h3":"8830c16ec3fffff","emd_code":"2635055400","emd_name":"좌4동","area_km2":0.5476,"edge":false,"slope_mean":10.18,"elev_mean":63.7,"flood_hist_n":0,"flood_depth_max_m":null,"flood_risk_100y":null,"semi_basement_r":null,"elderly_alone_r":0.0981,"bldg_age30_r":null,"shelter_min_walk":3,"pop":21479,"hh":8580,"elderly65_r":0.1997,"single_hh_r":0.2408,"source_level":"emd","flood_years":[],"landslide_hist_n":0},"geometry":{"type":"Polygon","coordinates":[[[129.17789,35.18081],[129.17704,35.17695],[129.18124,35.17479],[129.1863,35.17649],[129.18715,35.18035],[129.18295,35.18251],[129.17789,35.18081]]]}},{"type":"Feature","properties":{"h3":"8830c16ec5fffff","emd_code":"2635055300","emd_name":"좌3동","area_km2":0.5476,"edge":false,"slope_mean":6.71,"elev_mean":43.8,"flood_hist_n":0,"flood_depth_max_m":null,"flood_risk_100y":null,"semi_basement_r":null,"elderly_alone_r":0.1489,"bldg_age30_r":null,"shelter_min_walk":2,"pop":14821,"hh":6372,"elderly65_r":0.2627,"single_hh_r":0.2916,"source_level":"emd","flood_years":[],"landslide_hist_n":0},"geometry":{"type":"Polygon","coordinates":[[[129.16273,35.17571],[129.16187,35.17185],[129.16607,35.16969],[129.17113,35.17139],[129.17198,35.17525],[129.16778,35.17741],[129.16273,35.17571]]]}},{"type":"Feature","properties":{"h3":"8830c16ec7fffff","emd_code":"2635055100","emd_name":"좌1동","area_km2":0.5477,"edge":false,"slope_mean":5.37,"elev_mean":37.5,"flood_hist_n":0,"flood_depth_max_m":null,"flood_risk_100y":null,"semi_basement_r":null,"elderly_alone_r":0.101,"bldg_age30_r":null,"shelter_min_walk":4,"pop":16911,"hh":7803,"elderly65_r":0.1954,"single_hh_r":0.396,"source_level":"emd","flood_years":[],"landslide_hist_n":0},"geometry":{"type":"Polygon","coordinates":[[[129.17198,35.17525],[129.17113,35.17139],[129.17533,35.16923],[129.18039,35.17093],[129.18124,35.17479],[129.17704,35.17695],[129.17198,35.17525]]]}},{"type":"Feature","properties":{"h3":"8830c16ec9fffff","emd_code":"2635055400","emd_name":"좌4동","area_km2":0.5474,"edge":false,"slope_mean":16.24,"elev_mean":135.4,"flood_hist_n":0,"flood_depth_max_m":null,"flood_risk_100y":null,"semi_basement_r":null,"elderly_alone_r":0.0981,"bldg_age30_r":null,"shelter_min_walk":12,"pop":21479,"hh":8580,"elderly65_r":0.1997,"single_hh_r":0.2408,"source_level":"emd","flood_years":[],"landslide_hist_n":0},"geometry":{"type":"Polygon","coordinates":[[[129.16529,35.18729],[129.16444,35.18343],[129.16864,35.18127],[129.17369,35.18297],[129.17455,35.18683],[129.17035,35.18899],[129.16529,35.18729]]]}},{"type":"Feature","properties":{"h3":"8830c16ecbfffff","emd_code":"2635055400","emd_name":"좌4동","area_km2":0.5475,"edge":false,"slope_mean":8.63,"elev_mean":66.5,"flood_hist_n":0,"flood_depth_max_m":null,"flood_risk_100y":null,"semi_basement_r":null,"elderly_alone_r":0.0981,"bldg_age30_r":null,"shelter_min_walk":8,"pop":21479,"hh":8580,"elderly65_r":0.1997,"single_hh_r":0.2408,"source_level":"emd","flood_years":[],"landslide_hist_n":0},"geometry":{"type":"Polygon","coordinates":[[[129.17455,35.18683],[129.17369,35.18297],[129.17789,35.18081],[129.18295,35.18251],[129.18381,35.18637],[129.17961,35.18853],[129.17455,35.18683]]]}},{"type":"Feature","properties":{"h3":"8830c16ecdfffff","emd_code":"2635051000","emd_name":"우1동","area_km2":0.5475,"edge":false,"slope_mean":13.06,"elev_mean":94.3,"flood_hist_n":0,"flood_depth_max_m":null,"flood_risk_100y":null,"semi_basement_r":null,"elderly_alone_r":0.1296,"bldg_age30_r":null,"shelter_min_walk":6,"pop":23692,"hh":11527,"elderly65_r":0.2361,"single_hh_r":0.4289,"source_level":"emd","flood_years":[],"landslide_hist_n":0},"geometry":{"type":"Polygon","coordinates":[[[129.15938,35.18173],[129.15852,35.17787],[129.16273,35.17571],[129.16778,35.17741],[129.16864,35.18127],[129.16444,35.18343],[129.15938,35.18173]]]}},{"type":"Feature","properties":{"h3":"8830c16ed1fffff","emd_code":"2635056000","emd_name":"송정동","area_km2":0.5476,"edge":false,"slope_mean":10.97,"elev_mean":32.6,"flood_hist_n":0,"flood_depth_max_m":null,"flood_risk_100y":null,"semi_basement_r":null,"elderly_alone_r":0.2049,"bldg_age30_r":null,"shelter_min_walk":2,"pop":8971,"hh":4959,"elderly65_r":0.3464,"single_hh_r":0.4862,"source_level":"emd","flood_years":[],"landslide_hist_n":0},"geometry":{"type":"Polygon","coordinates":[[[129.19307,35.18591],[129.19221,35.18205],[129.19641,35.17989],[129.20147,35.18159],[129.20233,35.18544],[129.19812,35.18761],[129.19307,35.18591]]]}},{"type":"Feature","properties":{"h3":"8830c16ed3fffff","emd_code":"2635056000","emd_name":"송정동","area_km2":0.5476,"edge":false,"slope_mean":6.41,"elev_mean":10.0,"flood_hist_n":2,"flood_depth_max_m":0.5,"flood_risk_100y":null,"semi_basement_r":null,"elderly_alone_r":0.2049,"bldg_age30_r":null,"shelter_min_walk":4,"pop":8971,"hh":4959,"elderly65_r":0.3464,"single_hh_r":0.4862,"source_level":"emd","flood_years":[2016,2020],"landslide_hist_n":0},"geometry":{"type":"Polygon","coordinates":[[[129.20233,35.18544],[129.20147,35.18159],[129.20567,35.17942],[129.21073,35.18112],[129.21158,35.18498],[129.20738,35.18714],[129.20233,35.18544]]]}},{"type":"Feature","properties":{"h3":"8830c16ed5fffff","emd_code":"2635056000","emd_name":"송정동","area_km2":0.5477,"edge":false,"slope_mean":17.61,"elev_mean":91.4,"flood_hist_n":0,"flood_depth_max_m":null,"flood_risk_100y":null,"semi_basement_r":null,"elderly_alone_r":0.2049,"bldg_age30_r":null,"shelter_min_walk":12,"pop":8971,"hh":4959,"elderly65_r":0.3464,"single_hh_r":0.4862,"source_level":"emd","flood_years":[],"landslide_hist_n":0},"geometry":{"type":"Polygon","coordinates":[[[129.18715,35.18035],[129.1863,35.17649],[129.1905,35.17433],[129.19556,35.17603],[129.19641,35.17989],[129.19221,35.18205],[129.18715,35.18035]]]}},{"type":"Feature","properties":{"h3":"8830c16ed7fffff","emd_code":"2635056000","emd_name":"송정동","area_km2":0.5477,"edge":true,"slope_mean":3.35,"elev_mean":5.8,"flood_hist_n":1,"flood_depth_max_m":0.484,"flood_risk_100y":null,"semi_basement_r":null,"elderly_alone_r":0.2049,"bldg_age30_r":null,"shelter_min_walk":8,"pop":8971,"hh":4959,"elderly65_r":0.3464,"single_hh_r":0.4862,"source_level":"emd","flood_years":[2016],"landslide_hist_n":0},"geometry":{"type":"Polygon","coordinates":[[[129.19641,35.17989],[129.19556,35.17603],[129.19976,35.17386],[129.20482,35.17556],[129.20567,35.17942],[129.20147,35.18159],[129.19641,35.17989]]]}},{"type":"Feature","properties":{"h3":"8830c16ed9fffff","emd_code":"2635056000","emd_name":"송정동","area_km2":0.5475,"edge":false,"slope_mean":15.21,"elev_mean":54.9,"flood_hist_n":0,"flood_depth_max_m":null,"flood_risk_100y":null,"semi_basement_r":null,"elderly_alone_r":0.2049,"bldg_age30_r":null,"shelter_min_walk":13,"pop":8971,"hh":4959,"elderly65_r":0.3464,"single_hh_r":0.4862,"source_level":"emd","flood_years":[],"landslide_hist_n":0},"geometry":{"type":"Polygon","coordinates":[[[129.18972,35.19193],[129.18886,35.18807],[129.19307,35.18591],[129.19812,35.18761],[129.19898,35.19147],[129.19478,35.19363],[129.18972,35.19193]]]}},{"type":"Feature","properties":{"h3":"8830c16edbfffff","emd_code":"2635056000","emd_name":"송정동","area_km2":0.5475,"edge":false,"slope_mean":9.37,"elev_mean":18.0,"flood_hist_n":1,"flood_depth_max_m":0.5,"flood_risk_100y":null,"semi_basement_r":null,"elderly_alone_r":0.2049,"bldg_age30_r":null,"shelter_min_walk":3,"pop":8971,"hh":4959,"elderly65_r":0.3464,"single_hh_r":0.4862,"source_level":"emd","flood_years":[2020],"landslide_hist_n":0},"geometry":{"type":"Polygon","coordinates":[[[129.19898,35.19147],[129.19812,35.18761],[129.20233,35.18544],[129.20738,35.18714],[129.20824,35.191],[129.20404,35.19316],[129.19898,35.19147]]]}},{"type":"Feature","properties":{"h3":"8830c16eddfffff","emd_code":"2635055400","emd_name":"좌4동","area_km2":0.5475,"edge":false,"slope_mean":15.9,"elev_mean":107.3,"flood_hist_n":0,"flood_depth_max_m":null,"flood_risk_100y":null,"semi_basement_r":null,"elderly_alone_r":0.0981,"bldg_age30_r":null,"shelter_min_walk":14,"pop":21479,"hh":8580,"elderly65_r":0.1997,"single_hh_r":0.2408,"source_level":"emd","flood_years":[],"landslide_hist_n":0},"geometry":{"type":"Polygon","coordinates":[[[129.18381,35.18637],[129.18295,35.18251],[129.18715,35.18035],[129.19221,35.18205],[129.19307,35.18591],[129.18886,35.18807],[129.18381,35.18637]]]}},{"type":"Feature","properties":{"h3":"8830c16ee1fffff","emd_code":"2635053000","emd_name":"중1동","area_km2":0.5478,"edge":false,"slope_mean":4.01,"elev_mean":8.1,"flood_hist_n":1,"flood_depth_max_m":0.6,"flood_risk_100y":null,"semi_basement_r":null,"elderly_alone_r":0.1064,"bldg_age30_r":null,"shelter_min_walk":3,"pop":27313,"hh":12606,"elderly65_r":0.1979,"single_hh_r":0.3869,"source_level":"emd","flood_years":[2020],"landslide_hist_n":0},"geometry":{"type":"Polygon","coordinates":[[[129.16016,35.16412],[129.1593,35.16026],[129.16351,35.1581],[129.16856,35.1598],[129.16942,35.16366],[129.16522,35.16583],[129.16016,35.16412]]]}},{"type":"Feature","properties":{"h3":"8830c16ee3fffff","emd_code":"2635054000","emd_name":"중2동","area_km2":0.5479,"edge":false,"slope_mean":7.74,"elev_mean":40.1,"flood_hist_n":1,"flood_depth_max_m":0.422,"flood_risk_100y":null,"semi_basement_r":null,"elderly_alone_r":0.1364,"bldg_age30_r":null,"shelter_min_walk":1,"pop":15237,"hh":7417,"elderly65_r":0.2353,"single_hh_r":0.4297,"source_level":"emd","flood_years":[2016],"landslide_hist_n":0},"geometry":{"type":"Polygon","coordinates":[[[129.16942,35.16366],[129.16856,35.1598],[129.17276,35.15764],[129.17782,35.15934],[129.17868,35.1632],[129.17447,35.16537],[129.16942,35.16366]]]}},{"type":"Feature","properties":{"h3":"8830c16ee5fffff","emd_code":"2635051000","emd_name":"우1동","area_km2":0.5479,"edge":true,"slope_mean":2.38,"elev_mean":2.6,"flood_hist_n":1,"flood_depth_max_m":0.4,"flood_risk_100y":null,"semi_basement_r":null,"elderly_alone_r":0.1296,"bldg_age30_r":null,"shelter_min_walk":9,"pop":23692,"hh":11527,"elderly65_r":0.2361,"single_hh_r":0.4289,"source_level":"emd","flood_years":[2020],"landslide_hist_n":0},"geometry":{"type":"Polygon","coordinates":[[[129.15425,35.15856],[129.15339,35.1547],[129.15759,35.15254],[129.16265,35.15424],[129.16351,35.1581],[129.1593,35.16026],[129.15425,35.15856]]]}},{"type":"Feature","properties":{"h3":"8830c16ee7fffff","emd_code":"2635053000","emd_name":"중1동","area_km2":0.5479,"edge":true,"slope_mean":0.9,"elev_mean":1.1,"flood_hist_n":1,"flood_depth_max_m":0.422,"flood_risk_100y":null,"semi_basement_r":null,"elderly_alone_r":0.1064,"bldg_age30_r":null,"shelter_min_walk":10,"pop":27313,"hh":12606,"elderly65_r":0.1979,"single_hh_r":0.3869,"source_level":"emd","flood_years":[2016],"landslide_hist_n":0},"geometry":{"type":"Polygon","coordinates":[[[129.16351,35.1581],[129.16265,35.15424],[129.16685,35.15208],[129.17191,35.15378],[129.17276,35.15764],[129.16856,35.1598],[129.16351,35.1581]]]}},{"type":"Feature","properties":{"h3":"8830c16ee9fffff","emd_code":"2635051000","emd_name":"우1동","area_km2":0.5477,"edge":false,"slope_mean":7.82,"elev_mean":29.7,"flood_hist_n":0,"flood_depth_max_m":null,"flood_risk_100y":null,"semi_basement_r":null,"elderly_alone_r":0.1296,"bldg_age30_r":null,"shelter_min_walk":6,"pop":23692,"hh":11527,"elderly65_r":0.2361,"single_hh_r":0.4289,"source_level":"emd","flood_years":[],"landslide_hist_n":0},"geometry":{"type":"Polygon","coordinates":[[[129.15681,35.17015],[129.15596,35.16628],[129.16016,35.16412],[129.16522,35.16583],[129.16607,35.16969],[129.16187,35.17185],[129.15681,35.17015]]]}},{"type":"Feature","properties":{"h3":"8830c16eebfffff","emd_code":"2635053000","emd_name":"중1동","area_km2":0.5477,"edge":false,"slope_mean":5.87,"elev_mean":25.8,"flood_hist_n":0,"flood_depth_max_m":null,"flood_risk_100y":null,"semi_basement_r":null,"elderly_alone_r":0.1064,"bldg_age30_r":null,"shelter_min_walk":1,"pop":27313,"hh":12606,"elderly65_r":0.1979,"single_hh_r":0.3869,"source_level":"emd","flood_years":[],"landslide_hist_n":0},"geometry":{"type":"Polygon","coordinates":[[[129.16607,35.16969],[129.16522,35.16583],[129.16942,35.16366],[129.17447,35.16537],[129.17533,35.16923],[129.17113,35.17139],[129.16607,35.16969]]]}},{"type":"Feature","properties":{"h3":"8830c16eedfffff","emd_code":"2635051000","emd_name":"우1동","area_km2":0.5478,"edge":false,"slope_mean":8.9,"elev_mean":28.4,"flood_hist_n":1,"flood_depth_max_m":0.4,"flood_risk_100y":null,"semi_basement_r":null,"elderly_alone_r":0.1296,"bldg_age30_r":null,"shelter_min_walk":3,"pop":23692,"hh":11527,"elderly65_r":0.2361,"single_hh_r":0.4289,"source_level":"emd","flood_years":[2020],"landslide_hist_n":0},"geometry":{"type":"Polygon","coordinates":[[[129.1509,35.16458],[129.15005,35.16072],[129.15425,35.15856],[129.1593,35.16026],[129.16016,35.16412],[129.15596,35.16628],[129.1509,35.16458]]]}}]}