{"type":"FeatureCollection","name":"grid_26380_h3r8","meta":{"sgg_code":"26380","h3_res":8,"n_cells":113,"dem":"Copernicus GLO-30 (bbox-mean)","crs":"EPSG:4326","jumin_basis":"2026-07","flood_src":"행안부 침수흔적도(전국, 재난안전데이터공유플랫폼)","landslide_src":"행안부 산사태 발생이력"},"features":[{"type":"Feature","properties":{"h3":"8830c16801fffff","emd_code":"2638057100","emd_name":"신평1동","area_km2":0.5481,"edge":false,"slope_mean":16.06,"elev_mean":65.3,"flood_hist_n":0,"flood_depth_max_m":null,"flood_risk_100y":null,"semi_basement_r":null,"elderly_alone_r":0.2073,"bldg_age30_r":null,"shelter_min_walk":1,"pop":14633,"hh":7630,"elderly65_r":0.3108,"single_hh_r":0.4701,"source_level":"emd","flood_years":[],"landslide_hist_n":0},"geometry":{"type":"Polygon","coordinates":[[[128.97235,35.09717],[128.97149,35.0933],[128.97569,35.09115],[128.98074,35.09286],[128.98159,35.09672],[128.9774,35.09888],[128.97235,35.09717]]]}},{"type":"Feature","properties":{"h3":"8830c16803fffff","emd_code":"2638051000","emd_name":"괴정1동","area_km2":0.5481,"edge":false,"slope_mean":13.25,"elev_mean":69.7,"flood_hist_n":0,"flood_depth_max_m":null,"flood_risk_100y":null,"semi_basement_r":null,"elderly_alone_r":0.1936,"bldg_age30_r":null,"shelter_min_walk":2,"pop":16244,"hh":7904,"elderly65_r":0.3351,"single_hh_r":0.4012,"source_level":"emd","flood_years":[],"landslide_hist_n":0},"geometry":{"type":"Polygon","coordinates":[[[128.98159,35.09672],[128.98074,35.09286],[128.98494,35.0907],[128.98999,35.09241],[128.99084,35.09627],[128.98664,35.09843],[128.98159,35.09672]]]}},{"type":"Feature","properties":{"h3":"8830c16805fffff","emd_code":"2638057100","emd_name":"신평1동","area_km2":0.5481,"edge":false,"slope_mean":5.58,"elev_mean":12.1,"flood_hist_n":0,"flood_depth_max_m":null,"flood_risk_100y":null,"semi_basement_r":null,"elderly_alone_r":0.2073,"bldg_age30_r":null,"shelter_min_walk":4,"pop":14633,"hh":7630,"elderly65_r":0.3108,"single_hh_r":0.4701,"source_level":"emd","flood_years":[],"landslide_hist_n":0},"geometry":{"type":"Polygon","coordinates":[[[128.96644,35.09159],[128.96559,35.08773],[128.96979,35.08557],[128.97484,35.08728],[128.97569,35.09115],[128.97149,35.0933],[128.96644,35.09159]]]}},{"type":"Feature","properties":{"h3":"8830c16807fffff","emd_code":"2638057100","emd_name":"신평1동","area_km2":0.5482,"edge":false,"slope_mean":11.62,"elev_mean":47.2,"flood_hist_n":0,"flood_depth_max_m":null,"flood_risk_100y":null,"semi_basement_r":null,"elderly_alone_r":0.2073,"bldg_age30_r":null,"shelter_min_walk":5,"pop":14633,"hh":7630,"elderly65_r":0.3108,"single_hh_r":0.4701,"source_level":"emd","flood_years":[],"landslide_hist_n":0},"geometry":{"type":"Polygon","coordinates":[[[128.97569,35.09115],[128.97484,35.08728],[128.97903,35.08512],[128.98408,35.08683],[128.98494,35.0907],[128.98074,35.09286],[128.97569,35.09115]]]}},{"type":"Feature","properties":{"h3":"8830c16809fffff","emd_code":"2638055000","emd_name":"당리동","area_km2":0.548,"edge":false,"slope_mean":14.35,"elev_mean":58.5,"flood_hist_n":0,"flood_depth_max_m":null,"flood_risk_100y":null,"semi_basement_r":null,"elderly_alone_r":0.1575,"bldg_age30_r":null,"shelter_min_walk":3,"pop":22957,"hh":10815,"elderly65_r":0.303,"single_hh_r":0.3681,"source_level":"emd","flood_years":[],"landslide_hist_n":0},"geometry":{"type":"Polygon","coordinates":[[[128.969,35.10319],[128.96815,35.09933],[128.97235,35.09717],[128.9774,35.09888],[128.97825,35.10274],[128.97405,35.1049],[128.969,35.10319]]]}},{"type":"Feature","properties":{"h3":"8830c1680bfffff","emd_code":"2638054000","emd_name":"괴정4동","area_km2":0.548,"edge":false,"slope_mean":10.13,"elev_mean":45.6,"flood_hist_n":0,"flood_depth_max_m":null,"flood_risk_100y":null,"semi_basement_r":null,"elderly_alone_r":0.1457,"bldg_age30_r":null,"shelter_min_walk":2,"pop":11631,"hh":4996,"elderly65_r":0.2452,"single_hh_r":0.3169,"source_level":"emd","flood_years":[],"landslide_hist_n":0},"geometry":{"type":"Polygon","coordinates":[[[128.97825,35.10274],[128.9774,35.09888],[128.98159,35.09672],[128.98664,35.09843],[128.9875,35.1023],[128.9833,35.10445],[128.97825,35.10274]]]}},{"type":"Feature","properties":{"h3":"8830c1680dfffff","emd_code":"2638057200","emd_name":"신평2동","area_km2":0.548,"edge":false,"slope_mean":16.96,"elev_mean":69.5,"flood_hist_n":0,"flood_depth_max_m":null,"flood_risk_100y":null,"semi_basement_r":null,"elderly_alone_r":0.1279,"bldg_age30_r":null,"shelter_min_walk":4,"pop":16520,"hh":7512,"elderly65_r":0.2363,"single_hh_r":0.342,"source_level":"emd","flood_years":[],"landslide_hist_n":0},"geometry":{"type":"Polygon","coordinates":[[[128.9631,35.09762],[128.96225,35.09375],[128.96644,35.09159],[128.97149,35.0933],[128.97235,35.09717],[128.96815,35.09933],[128.9631,35.09762]]]}},{"type":"Feature","properties":{"h3":"8830c16811fffff","emd_code":"2638052000","emd_name":"괴정2동","area_km2":0.5481,"edge":false,"slope_mean":16.98,"elev_mean":115.3,"flood_hist_n":0,"flood_depth_max_m":null,"flood_risk_100y":null,"semi_basement_r":null,"elderly_alone_r":0.1908,"bldg_age30_r":null,"shelter_min_walk":6,"pop":14243,"hh":6813,"elderly65_r":0.3034,"single_hh_r":0.3904,"source_level":"emd","flood_years":[],"landslide_hist_n":0},"geometry":{"type":"Polygon","coordinates":[[[128.99674,35.10185],[128.99589,35.09798],[129.00009,35.09583],[129.00514,35.09753],[129.00599,35.1014],[129.00179,35.10356],[128.99674,35.10185]]]}},{"type":"Feature","properties":{"h3":"8830c16813fffff","emd_code":"2638063000","emd_name":"감천2동","area_km2":0.5482,"edge":true,"slope_mean":21.52,"elev_mean":151.0,"flood_hist_n":0,"flood_depth_max_m":null,"flood_risk_100y":null,"semi_basement_r":null,"elderly_alone_r":0.3391,"bldg_age30_r":null,"shelter_min_walk":8,"pop":4716,"hh":2964,"elderly65_r":0.4735,"single_hh_r":0.6053,"source_level":"emd","flood_years":[],"landslide_hist_n":0},"geometry":{"type":"Polygon","coordinates":[[[129.00599,35.1014],[129.00514,35.09753],[129.00934,35.09538],[129.01439,35.09708],[129.01524,35.10095],[129.01104,35.10311],[129.00599,35.1014]]]}},{"type":"Feature","properties":{"h3":"8830c16815fffff","emd_code":"2638062000","emd_name":"감천1동","area_km2":0.5482,"edge":false,"slope_mean":12.59,"elev_mean":62.3,"flood_hist_n":0,"flood_depth_max_m":null,"flood_risk_100y":null,"semi_basement_r":null,"elderly_alone_r":0.2101,"bldg_age30_r":null,"shelter_min_walk":2,"pop":15648,"hh":7630,"elderly65_r":0.3569,"single_hh_r":0.3903,"source_level":"emd","flood_years":[],"landslide_hist_n":0},"geometry":{"type":"Polygon","coordinates":[[[128.99084,35.09627],[128.98999,35.09241],[128.99418,35.09025],[128.99924,35.09196],[129.00009,35.09583],[128.99589,35.09798],[128.99084,35.09627]]]}},{"type":"Feature","properties":{"h3":"8830c16817fffff","emd_code":"2638063000","emd_name":"감천2동","area_km2":0.5482,"edge":false,"slope_mean":20.24,"elev_mean":112.0,"flood_hist_n":0,"flood_depth_max_m":null,"flood_risk_100y":null,"semi_basement_r":null,"elderly_alone_r":0.3391,"bldg_age30_r":null,"shelter_min_walk":5,"pop":4716,"hh":2964,"elderly65_r":0.4735,"single_hh_r":0.6053,"source_level":"emd","flood_years":[],"landslide_hist_n":0},"geometry":{"type":"Polygon","coordinates":[[[129.00009,35.09583],[128.99924,35.09196],[129.00343,35.0898],[129.00848,35.09151],[129.00934,35.09538],[129.00514,35.09753],[129.00009,35.09583]]]}},{"type":"Feature","properties":{"h3":"8830c16819fffff","emd_code":"2638053000","emd_name":"괴정3동","area_km2":0.548,"edge":false,"slope_mean":21.12,"elev_mean":153.5,"flood_hist_n":0,"flood_depth_max_m":null,"flood_risk_100y":null,"semi_basement_r":null,"elderly_alone_r":0.2443,"bldg_age30_r":null,"shelter_min_walk":3,"pop":11120,"hh":6235,"elderly65_r":0.3661,"single_hh_r":0.5216,"source_level":"emd","flood_years":[],"landslide_hist_n":0},"geometry":{"type":"Polygon","coordinates":[[[128.9934,35.10787],[128.99255,35.10401],[128.99674,35.10185],[129.00179,35.10356],[129.00265,35.10742],[128.99845,35.10958],[128.9934,35.10787]]]}},{"type":"Feature","properties":{"h3":"8830c1681bfffff","emd_code":"2638052000","emd_name":"괴정2동","area_km2":0.548,"edge":false,"slope_mean":17.91,"elev_mean":131.7,"flood_hist_n":0,"flood_depth_max_m":null,"flood_risk_100y":null,"semi_basement_r":null,"elderly_alone_r":0.1908,"bldg_age30_r":null,"shelter_min_walk":5,"pop":14243,"hh":6813,"elderly65_r":0.3034,"single_hh_r":0.3904,"source_level":"emd","flood_years":[],"landslide_hist_n":0},"geometry":{"type":"Polygon","coordinates":[[[129.00265,35.10742],[129.00179,35.10356],[129.00599,35.1014],[129.01104,35.10311],[129.0119,35.10697],[129.0077,35.10913],[129.00265,35.10742]]]}},{"type":"Feature","properties":{"h3":"8830c1681dfffff","emd_code":"2638051000","emd_name":"괴정1동","area_km2":0.5481,"edge":false,"slope_mean":11.21,"elev_mean":70.1,"flood_hist_n":0,"flood_depth_max_m":null,"flood_risk_100y":null,"semi_basement_r":null,"elderly_alone_r":0.1936,"bldg_age30_r":null,"shelter_min_walk":1,"pop":16244,"hh":7904,"elderly65_r":0.3351,"single_hh_r":0.4012,"source_level":"emd","flood_years":[],"landslide_hist_n":0},"geometry":{"type":"Polygon","coordinates":[[[128.9875,35.1023],[128.98664,35.09843],[128.99084,35.09627],[128.99589,35.09798],[128.99674,35.10185],[128.99255,35.10401],[128.9875,35.1023]]]}},{"type":"Feature","properties":{"h3":"8830c16821fffff","emd_code":"2638059000","emd_name":"장림2동","area_km2":0.5483,"edge":false,"slope_mean":13.53,"elev_mean":53.6,"flood_hist_n":0,"flood_depth_max_m":null,"flood_risk_100y":null,"semi_basement_r":null,"elderly_alone_r":0.1481,"bldg_age30_r":null,"shelter_min_walk":4,"pop":24328,"hh":11567,"elderly65_r":0.2595,"single_hh_r":0.3839,"source_level":"emd","flood_years":[],"landslide_hist_n":0},"geometry":{"type":"Polygon","coordinates":[[[128.96389,35.07999],[128.96303,35.07613],[128.96723,35.07397],[128.97228,35.07568],[128.97313,35.07955],[128.96893,35.0817],[128.96389,35.07999]]]}},{"type":"Feature","properties":{"h3":"8830c16823fffff","emd_code":"2638059000","emd_name":"장림2동","area_km2":0.5484,"edge":false,"slope_mean":11.38,"elev_mean":36.2,"flood_hist_n":0,"flood_depth_max_m":null,"flood_risk_100y":null,"semi_basement_r":null,"elderly_alone_r":0.1481,"bldg_age30_r":null,"shelter_min_walk":2,"pop":24328,"hh":11567,"elderly65_r":0.2595,"single_hh_r":0.3839,"source_level":"emd","flood_years":[],"landslide_hist_n":0},"geometry":{"type":"Polygon","coordinates":[[[128.97313,35.07955],[128.97228,35.07568],[128.97648,35.07352],[128.98153,35.07523],[128.98238,35.0791],[128.97818,35.08126],[128.97313,35.07955]]]}},{"type":"Feature","properties":{"h3":"8830c16825fffff","emd_code":"2638058000","emd_name":"장림1동","area_km2":0.5484,"edge":false,"slope_mean":19.0,"elev_mean":79.8,"flood_hist_n":0,"flood_depth_max_m":null,"flood_risk_100y":null,"semi_basement_r":null,"elderly_alone_r":0.1496,"bldg_age30_r":null,"shelter_min_walk":11,"pop":13327,"hh":6229,"elderly65_r":0.1997,"single_hh_r":0.3888,"source_level":"emd","flood_years":[],"landslide_hist_n":0},"geometry":{"type":"Polygon","coordinates":[[[128.95798,35.07442],[128.95713,35.07055],[128.96133,35.06839],[128.96638,35.0701],[128.96723,35.07397],[128.96303,35.07613],[128.95798,35.07442]]]}},{"type":"Feature","properties":{"h3":"8830c16827fffff","emd_code":"2638059000","emd_name":"장림2동","area_km2":0.5484,"edge":false,"slope_mean":14.53,"elev_mean":70.0,"flood_hist_n":0,"flood_depth_max_m":null,"flood_risk_100y":null,"semi_basement_r":null,"elderly_alone_r":0.1481,"bldg_age30_r":null,"shelter_min_walk":4,"pop":24328,"hh":11567,"elderly65_r":0.2595,"single_hh_r":0.3839,"source_level":"emd","flood_years":[],"landslide_hist_n":0},"geometry":{"type":"Polygon","coordinates":[[[128.96723,35.07397],[128.96638,35.0701],[128.97057,35.06794],[128.97562,35.06965],[128.97648,35.07352],[128.97228,35.07568],[128.96723,35.07397]]]}},{"type":"Feature","properties":{"h3":"8830c16829fffff","emd_code":"2638057200","emd_name":"신평2동","area_km2":0.5482,"edge":false,"slope_mean":3.41,"elev_mean":5.6,"flood_hist_n":0,"flood_depth_max_m":null,"flood_risk_100y":null,"semi_basement_r":null,"elderly_alone_r":0.1279,"bldg_age30_r":null,"shelter_min_walk":6,"pop":16520,"hh":7512,"elderly65_r":0.2363,"single_hh_r":0.342,"source_level":"emd","flood_years":[],"landslide_hist_n":0},"geometry":{"type":"Polygon","coordinates":[[[128.96054,35.08602],[128.95969,35.08215],[128.96389,35.07999],[128.96893,35.0817],[128.96979,35.08557],[128.96559,35.08773],[128.96054,35.08602]]]}},{"type":"Feature","properties":{"h3":"8830c1682bfffff","emd_code":"2638058000","emd_name":"장림1동","area_km2":0.5483,"edge":false,"slope_mean":4.71,"elev_mean":8.8,"flood_hist_n":0,"flood_depth_max_m":null,"flood_risk_100y":null,"semi_basement_r":null,"elderly_alone_r":0.1496,"bldg_age30_r":null,"shelter_min_walk":4,"pop":13327,"hh":6229,"elderly65_r":0.1997,"single_hh_r":0.3888,"source_level":"emd","flood_years":[],"landslide_hist_n":0},"geometry":{"type":"Polygon","coordinates":[[[128.96979,35.08557],[128.96893,35.0817],[128.97313,35.07955],[128.97818,35.08126],[128.97903,35.08512],[128.97484,35.08728],[128.96979,35.08557]]]}},{"type":"Feature","properties":{"h3":"8830c1682dfffff","emd_code":"2638058000","emd_name":"장림1동","area_km2":0.5483,"edge":false,"slope_mean":9.19,"elev_mean":27.5,"flood_hist_n":0,"flood_depth_max_m":null,"flood_risk_100y":null,"semi_basement_r":null,"elderly_alone_r":0.1496,"bldg_age30_r":null,"shelter_min_walk":9,"pop":13327,"hh":6229,"elderly65_r":0.1997,"single_hh_r":0.3888,"source_level":"emd","flood_years":[],"landslide_hist_n":0},"geometry":{"type":"Polygon","coordinates":[[[128.95464,35.08044],[128.95379,35.07657],[128.95798,35.07442],[128.96303,35.07613],[128.96389,35.07999],[128.95969,35.08215],[128.95464,35.08044]]]}},{"type":"Feature","properties":{"h3":"8830c16831fffff","emd_code":"2638061000","emd_name":"구평동","area_km2":0.5484,"edge":false,"slope_mean":5.65,"elev_mean":11.4,"flood_hist_n":0,"flood_depth_max_m":null,"flood_risk_100y":null,"semi_basement_r":null,"elderly_alone_r":0.1099,"bldg_age30_r":null,"shelter_min_walk":7,"pop":12062,"hh":5148,"elderly65_r":0.1991,"single_hh_r":0.2834,"source_level":"emd","flood_years":[],"landslide_hist_n":0},"geometry":{"type":"Polygon","coordinates":[[[128.98828,35.08467],[128.98743,35.08081],[128.99163,35.07865],[128.99668,35.08036],[128.99753,35.08423],[128.99333,35.08638],[128.98828,35.08467]]]}},{"type":"Feature","properties":{"h3":"8830c16833fffff","emd_code":"2638062000","emd_name":"감천1동","area_km2":0.5484,"edge":true,"slope_mean":3.66,"elev_mean":4.7,"flood_hist_n":0,"flood_depth_max_m":null,"flood_risk_100y":null,"semi_basement_r":null,"elderly_alone_r":0.2101,"bldg_age30_r":null,"shelter_min_walk":11,"pop":15648,"hh":7630,"elderly65_r":0.3569,"single_hh_r":0.3903,"source_level":"emd","flood_years":[],"landslide_hist_n":0},"geometry":{"type":"Polygon","coordinates":[[[128.99753,35.08423],[128.99668,35.08036],[129.00087,35.0782],[129.00592,35.07991],[129.00678,35.08378],[129.00258,35.08593],[128.99753,35.08423]]]}},{"type":"Feature","properties":{"h3":"8830c16835fffff","emd_code":"2638061000","emd_name":"구평동","area_km2":0.5484,"edge":false,"slope_mean":16.16,"elev_mean":66.9,"flood_hist_n":0,"flood_depth_max_m":null,"flood_risk_100y":null,"semi_basement_r":null,"elderly_alone_r":0.1099,"bldg_age30_r":null,"shelter_min_walk":5,"pop":12062,"hh":5148,"elderly65_r":0.1991,"single_hh_r":0.2834,"source_level":"emd","flood_years":[],"landslide_hist_n":0},"geometry":{"type":"Polygon","coordinates":[[[128.98238,35.0791],[128.98153,35.07523],[128.98572,35.07307],[128.99077,35.07478],[128.99163,35.07865],[128.98743,35.08081],[128.98238,35.0791]]]}},{"type":"Feature","properties":{"h3":"8830c16837fffff","emd_code":"2638061000","emd_name":"구평동","area_km2":0.5485,"edge":true,"slope_mean":1.63,"elev_mean":2.5,"flood_hist_n":0,"flood_depth_max_m":null,"flood_risk_100y":null,"semi_basement_r":null,"elderly_alone_r":0.1099,"bldg_age30_r":null,"shelter_min_walk":13,"pop":12062,"hh":5148,"elderly65_r":0.1991,"single_hh_r":0.2834,"source_level":"emd","flood_years":[],"landslide_hist_n":0},"geometry":{"type":"Polygon","coordinates":[[[128.99163,35.07865],[128.99077,35.07478],[128.99497,35.07262],[129.00002,35.07433],[129.00087,35.0782],[128.99668,35.08036],[128.99163,35.07865]]]}},{"type":"Feature","properties":{"h3":"8830c16839fffff","emd_code":"2638061000","emd_name":"구평동","area_km2":0.5482,"edge":false,"slope_mean":17.54,"elev_mean":75.8,"flood_hist_n":0,"flood_depth_max_m":null,"flood_risk_100y":null,"semi_basement_r":null,"elderly_alone_r":0.1099,"bldg_age30_r":null,"shelter_min_walk":6,"pop":12062,"hh":5148,"elderly65_r":0.1991,"single_hh_r":0.2834,"source_level":"emd","flood_years":[],"landslide_hist_n":0},"geometry":{"type":"Polygon","coordinates":[[[128.98494,35.0907],[128.98408,35.08683],[128.98828,35.08467],[128.99333,35.08638],[128.99418,35.09025],[128.98999,35.09241],[128.98494,35.0907]]]}},{"type":"Feature","properties":{"h3":"8830c1683bfffff","emd_code":"2638062000","emd_name":"감천1동","area_km2":0.5483,"edge":false,"slope_mean":9.47,"elev_mean":25.8,"flood_hist_n":0,"flood_depth_max_m":null,"flood_risk_100y":null,"semi_basement_r":null,"elderly_alone_r":0.2101,"bldg_age30_r":null,"shelter_min_walk":2,"pop":15648,"hh":7630,"elderly65_r":0.3569,"single_hh_r":0.3903,"source_level":"emd","flood_years":[],"landslide_hist_n":0},"geometry":{"type":"Polygon","coordinates":[[[128.99418,35.09025],[128.99333,35.08638],[128.99753,35.08423],[129.00258,35.08593],[129.00343,35.0898],[128.99924,35.09196],[128.99418,35.09025]]]}},{"type":"Feature","properties":{"h3":"8830c1683dfffff","emd_code":"2638061000","emd_name":"구평동","area_km2":0.5483,"edge":false,"slope_mean":14.6,"elev_mean":51.9,"flood_hist_n":0,"flood_depth_max_m":null,"flood_risk_100y":null,"semi_basement_r":null,"elderly_alone_r":0.1099,"bldg_age30_r":null,"shelter_min_walk":7,"pop":12062,"hh":5148,"elderly65_r":0.1991,"single_hh_r":0.2834,"source_level":"emd","flood_years":[],"landslide_hist_n":0},"geometry":{"type":"Polygon","coordinates":[[[128.97903,35.08512],[128.97818,35.08126],[128.98238,35.0791],[128.98743,35.08081],[128.98828,35.08467],[128.98408,35.08683],[128.97903,35.08512]]]}},{"type":"Feature","properties":{"h3":"8830c16841fffff","emd_code":"2638056200","emd_name":"하단2동","area_km2":0.5478,"edge":false,"slope_mean":5.04,"elev_mean":8.1,"flood_hist_n":2,"flood_depth_max_m":0.72,"flood_risk_100y":null,"semi_basement_r":null,"elderly_alone_r":0.1105,"bldg_age30_r":null,"shelter_min_walk":7,"pop":25196,"hh":14356,"elderly65_r":0.2194,"single_hh_r":0.5683,"source_level":"emd","flood_years":[2014,2016],"landslide_hist_n":0},"geometry":{"type":"Polygon","coordinates":[[[128.95641,35.10966],[128.95556,35.10579],[128.95975,35.10364],[128.9648,35.10535],[128.96566,35.10921],[128.96146,35.11137],[128.95641,35.10966]]]}},{"type":"Feature","properties":{"h3":"8830c16843fffff","emd_code":"2638055000","emd_name":"당리동","area_km2":0.5478,"edge":false,"slope_mean":11.8,"elev_mean":46.7,"flood_hist_n":0,"flood_depth_max_m":null,"flood_risk_100y":null,"semi_basement_r":null,"elderly_alone_r":0.1575,"bldg_age30_r":null,"shelter_min_walk":5,"pop":22957,"hh":10815,"elderly65_r":0.303,"single_hh_r":0.3681,"source_level":"emd","flood_years":[],"landslide_hist_n":0},"geometry":{"type":"Polygon","coordinates":[[[128.96566,35.10921],[128.9648,35.10535],[128.969,35.10319],[128.97405,35.1049],[128.9749,35.10877],[128.97071,35.11092],[128.96566,35.10921]]]}},{"type":"Feature","properties":{"h3":"8830c16845fffff","emd_code":"2638056100","emd_name":"하단1동","area_km2":0.5479,"edge":false,"slope_mean":1.72,"elev_mean":2.3,"flood_hist_n":0,"flood_depth_max_m":null,"flood_risk_100y":null,"semi_basement_r":null,"elderly_alone_r":0.134,"bldg_age30_r":null,"shelter_min_walk":6,"pop":20513,"hh":11025,"elderly65_r":0.2564,"single_hh_r":0.5146,"source_level":"emd","flood_years":[],"landslide_hist_n":0},"geometry":{"type":"Polygon","coordinates":[[[128.95051,35.10408],[128.94965,35.10022],[128.95385,35.09806],[128.9589,35.09977],[128.95975,35.10364],[128.95556,35.10579],[128.95051,35.10408]]]}},{"type":"Feature","properties":{"h3":"8830c16847fffff","emd_code":"2638056100","emd_name":"하단1동","area_km2":0.5479,"edge":false,"slope_mean":12.34,"elev_mean":32.1,"flood_hist_n":2,"flood_depth_max_m":0.72,"flood_risk_100y":null,"semi_basement_r":null,"elderly_alone_r":0.134,"bldg_age30_r":null,"shelter_min_walk":5,"pop":20513,"hh":11025,"elderly65_r":0.2564,"single_hh_r":0.5146,"source_level":"emd","flood_years":[2014,2016],"landslide_hist_n":0},"geometry":{"type":"Polygon","coordinates":[[[128.95975,35.10364],[128.9589,35.09977],[128.9631,35.09762],[128.96815,35.09933],[128.969,35.10319],[128.9648,35.10535],[128.95975,35.10364]]]}},{"type":"Feature","properties":{"h3":"8830c16849fffff","emd_code":"2638056200","emd_name":"하단2동","area_km2":0.5477,"edge":false,"slope_mean":2.42,"elev_mean":3.4,"flood_hist_n":0,"flood_depth_max_m":null,"flood_risk_100y":null,"semi_basement_r":null,"elderly_alone_r":0.1105,"bldg_age30_r":null,"shelter_min_walk":4,"pop":25196,"hh":14356,"elderly65_r":0.2194,"single_hh_r":0.5683,"source_level":"emd","flood_years":[],"landslide_hist_n":0},"geometry":{"type":"Polygon","coordinates":[[[128.95306,35.11568],[128.95221,35.11181],[128.95641,35.10966],[128.96146,35.11137],[128.96231,35.11523],[128.95811,35.11739],[128.95306,35.11568]]]}},{"type":"Feature","properties":{"h3":"8830c1684bfffff","emd_code":"2638056200","emd_name":"하단2동","area_km2":0.5477,"edge":false,"slope_mean":16.67,"elev_mean":72.5,"flood_hist_n":0,"flood_depth_max_m":null,"flood_risk_100y":null,"semi_basement_r":null,"elderly_alone_r":0.1105,"bldg_age30_r":null,"shelter_min_walk":2,"pop":25196,"hh":14356,"elderly65_r":0.2194,"single_hh_r":0.5683,"source_level":"emd","flood_years":[],"landslide_hist_n":0},"geometry":{"type":"Polygon","coordinates":[[[128.96231,35.11523],[128.96146,35.11137],[128.96566,35.10921],[128.97071,35.11092],[128.97156,35.11479],[128.96736,35.11694],[128.96231,35.11523]]]}},{"type":"Feature","properties":{"h3":"8830c1684dfffff","emd_code":"2638056200","emd_name":"하단2동","area_km2":0.5477,"edge":false,"slope_mean":1.3,"elev_mean":1.6,"flood_hist_n":0,"flood_depth_max_m":null,"flood_risk_100y":null,"semi_basement_r":null,"elderly_alone_r":0.1105,"bldg_age30_r":null,"shelter_min_walk":4,"pop":25196,"hh":14356,"elderly65_r":0.2194,"single_hh_r":0.5683,"source_level":"emd","flood_years":[],"landslide_hist_n":0},"geometry":{"type":"Polygon","coordinates":[[[128.94716,35.1101],[128.94631,35.10624],[128.95051,35.10408],[128.95556,35.10579],[128.95641,35.10966],[128.95221,35.11181],[128.94716,35.1101]]]}},{"type":"Feature","properties":{"h3":"8830c16851fffff","emd_code":"2638055000","emd_name":"당리동","area_km2":0.5478,"edge":false,"slope_mean":25.8,"elev_mean":216.4,"flood_hist_n":0,"flood_depth_max_m":null,"flood_risk_100y":null,"semi_basement_r":null,"elderly_alone_r":0.1575,"bldg_age30_r":null,"shelter_min_walk":4,"pop":22957,"hh":10815,"elderly65_r":0.303,"single_hh_r":0.3681,"source_level":"emd","flood_years":[],"landslide_hist_n":0},"geometry":{"type":"Polygon","coordinates":[[[128.98081,35.11434],[128.97995,35.11048],[128.98415,35.10832],[128.9892,35.11003],[128.99005,35.11389],[128.98586,35.11605],[128.98081,35.11434]]]}},{"type":"Feature","properties":{"h3":"8830c16853fffff","emd_code":"2638053000","emd_name":"괴정3동","area_km2":0.5479,"edge":false,"slope_mean":25.07,"elev_mean":297.0,"flood_hist_n":0,"flood_depth_max_m":null,"flood_risk_100y":null,"semi_basement_r":null,"elderly_alone_r":0.2443,"bldg_age30_r":null,"shelter_min_walk":14,"pop":11120,"hh":6235,"elderly65_r":0.3661,"single_hh_r":0.5216,"source_level":"emd","flood_years":[],"landslide_hist_n":0},"geometry":{"type":"Polygon","coordinates":[[[128.99005,35.11389],[128.9892,35.11003],[128.9934,35.10787],[128.99845,35.10958],[128.9993,35.11344],[128.9951,35.1156],[128.99005,35.11389]]]}},{"type":"Feature","properties":{"h3":"8830c16855fffff","emd_code":"2638055000","emd_name":"당리동","area_km2":0.5479,"edge":false,"slope_mean":17.85,"elev_mean":80.6,"flood_hist_n":0,"flood_depth_max_m":null,"flood_risk_100y":null,"semi_basement_r":null,"elderly_alone_r":0.1575,"bldg_age30_r":null,"shelter_min_walk":3,"pop":22957,"hh":10815,"elderly65_r":0.303,"single_hh_r":0.3681,"source_level":"emd","flood_years":[],"landslide_hist_n":0},"geometry":{"type":"Polygon","coordinates":[[[128.9749,35.10877],[128.97405,35.1049],[128.97825,35.10274],[128.9833,35.10445],[128.98415,35.10832],[128.97995,35.11048],[128.9749,35.10877]]]}},{"type":"Feature","properties":{"h3":"8830c16857fffff","emd_code":"2638051000","emd_name":"괴정1동","area_km2":0.5479,"edge":false,"slope_mean":23.34,"elev_mean":169.9,"flood_hist_n":0,"flood_depth_max_m":null,"flood_risk_100y":null,"semi_basement_r":null,"elderly_alone_r":0.1936,"bldg_age30_r":null,"shelter_min_walk":4,"pop":16244,"hh":7904,"elderly65_r":0.3351,"single_hh_r":0.4012,"source_level":"emd","flood_years":[],"landslide_hist_n":0},"geometry":{"type":"Polygon","coordinates":[[[128.98415,35.10832],[128.9833,35.10445],[128.9875,35.1023],[128.99255,35.10401],[128.9934,35.10787],[128.9892,35.11003],[128.98415,35.10832]]]}},{"type":"Feature","properties":{"h3":"8830c16859fffff","emd_code":"2638055000","emd_name":"당리동","area_km2":0.5477,"edge":false,"slope_mean":25.78,"elev_mean":343.3,"flood_hist_n":0,"flood_depth_max_m":null,"flood_risk_100y":null,"semi_basement_r":null,"elderly_alone_r":0.1575,"bldg_age30_r":null,"shelter_min_walk":13,"pop":22957,"hh":10815,"elderly65_r":0.303,"single_hh_r":0.3681,"source_level":"emd","flood_years":[],"landslide_hist_n":0},"geometry":{"type":"Polygon","coordinates":[[[128.97746,35.12036],[128.97661,35.1165],[128.98081,35.11434],[128.98586,35.11605],[128.98671,35.11991],[128.98251,35.12207],[128.97746,35.12036]]]}},{"type":"Feature","properties":{"h3":"8830c1685bfffff","emd_code":"2638055000","emd_name":"당리동","area_km2":0.5478,"edge":false,"slope_mean":22.37,"elev_mean":303.1,"flood_hist_n":0,"flood_depth_max_m":null,"flood_risk_100y":null,"semi_basement_r":null,"elderly_alone_r":0.1575,"bldg_age30_r":null,"shelter_min_walk":16,"pop":22957,"hh":10815,"elderly65_r":0.303,"single_hh_r":0.3681,"source_level":"emd","flood_years":[],"landslide_hist_n":0},"geometry":{"type":"Polygon","coordinates":[[[128.98671,35.11991],[128.98586,35.11605],[128.99005,35.11389],[128.9951,35.1156],[128.99596,35.11946],[128.99176,35.12162],[128.98671,35.11991]]]}},{"type":"Feature","properties":{"h3":"8830c1685dfffff","emd_code":"2638055000","emd_name":"당리동","area_km2":0.5478,"edge":false,"slope_mean":26.37,"elev_mean":222.6,"flood_hist_n":0,"flood_depth_max_m":null,"flood_risk_100y":null,"semi_basement_r":null,"elderly_alone_r":0.1575,"bldg_age30_r":null,"shelter_min_walk":6,"pop":22957,"hh":10815,"elderly65_r":0.303,"single_hh_r":0.3681,"source_level":"emd","flood_years":[],"landslide_hist_n":0},"geometry":{"type":"Polygon","coordinates":[[[128.97156,35.11479],[128.97071,35.11092],[128.9749,35.10877],[128.97995,35.11048],[128.98081,35.11434],[128.97661,35.1165],[128.97156,35.11479]]]}},{"type":"Feature","properties":{"h3":"8830c16861fffff","emd_code":"2638056100","emd_name":"하단1동","area_km2":0.548,"edge":false,"slope_mean":1.7,"elev_mean":2.4,"flood_hist_n":0,"flood_depth_max_m":null,"flood_risk_100y":null,"semi_basement_r":null,"elderly_alone_r":0.134,"bldg_age30_r":null,"shelter_min_walk":14,"pop":20513,"hh":11025,"elderly65_r":0.2564,"single_hh_r":0.5146,"source_level":"emd","flood_years":[],"landslide_hist_n":0},"geometry":{"type":"Polygon","coordinates":[[[128.94795,35.09249],[128.9471,35.08862],[128.95129,35.08646],[128.95634,35.08817],[128.9572,35.09204],[128.953,35.0942],[128.94795,35.09249]]]}},{"type":"Feature","properties":{"h3":"8830c16863fffff","emd_code":"2638057200","emd_name":"신평2동","area_km2":0.5481,"edge":false,"slope_mean":4.58,"elev_mean":7.3,"flood_hist_n":0,"flood_depth_max_m":null,"flood_risk_100y":null,"semi_basement_r":null,"elderly_alone_r":0.1279,"bldg_age30_r":null,"shelter_min_walk":8,"pop":16520,"hh":7512,"elderly65_r":0.2363,"single_hh_r":0.342,"source_level":"emd","flood_years":[],"landslide_hist_n":0},"geometry":{"type":"Polygon","coordinates":[[[128.9572,35.09204],[128.95634,35.08817],[128.96054,35.08602],[128.96559,35.08773],[128.96644,35.09159],[128.96225,35.09375],[128.9572,35.09204]]]}},{"type":"Feature","properties":{"h3":"8830c16865fffff","emd_code":"2638056100","emd_name":"하단1동","area_km2":0.5481,"edge":false,"slope_mean":0.43,"elev_mean":0.4,"flood_hist_n":0,"flood_depth_max_m":null,"flood_risk_100y":null,"semi_basement_r":null,"elderly_alone_r":0.134,"bldg_age30_r":null,"shelter_min_walk":26,"pop":20513,"hh":11025,"elderly65_r":0.2564,"single_hh_r":0.5146,"source_level":"emd","flood_years":[],"landslide_hist_n":0},"geometry":{"type":"Polygon","coordinates":[[[128.94205,35.08691],[128.9412,35.08304],[128.94539,35.08089],[128.95044,35.0826],[128.95129,35.08646],[128.9471,35.08862],[128.94205,35.08691]]]}},{"type":"Feature","properties":{"h3":"8830c16867fffff","emd_code":"2638057200","emd_name":"신평2동","area_km2":0.5482,"edge":false,"slope_mean":3.18,"elev_mean":4.5,"flood_hist_n":0,"flood_depth_max_m":null,"flood_risk_100y":null,"semi_basement_r":null,"elderly_alone_r":0.1279,"bldg_age30_r":null,"shelter_min_walk":16,"pop":16520,"hh":7512,"elderly65_r":0.2363,"single_hh_r":0.342,"source_level":"emd","flood_years":[],"landslide_hist_n":0},"geometry":{"type":"Polygon","coordinates":[[[128.95129,35.08646],[128.95044,35.0826],[128.95464,35.08044],[128.95969,35.08215],[128.96054,35.08602],[128.95634,35.08817],[128.95129,35.08646]]]}},{"type":"Feature","properties":{"h3":"8830c16869fffff","emd_code":"2638056100","emd_name":"하단1동","area_km2":0.5479,"edge":false,"slope_mean":0.82,"elev_mean":1.3,"flood_hist_n":0,"flood_depth_max_m":null,"flood_risk_100y":null,"semi_basement_r":null,"elderly_alone_r":0.134,"bldg_age30_r":null,"shelter_min_walk":16,"pop":20513,"hh":11025,"elderly65_r":0.2564,"single_hh_r":0.5146,"source_level":"emd","flood_years":[],"landslide_hist_n":0},"geometry":{"type":"Polygon","coordinates":[[[128.94461,35.09851],[128.94375,35.09464],[128.94795,35.09249],[128.953,35.0942],[128.95385,35.09806],[128.94965,35.10022],[128.94461,35.09851]]]}},{"type":"Feature","properties":{"h3":"8830c1686bfffff","emd_code":"2638057200","emd_name":"신평2동","area_km2":0.548,"edge":false,"slope_mean":3.64,"elev_mean":6.1,"flood_hist_n":0,"flood_depth_max_m":null,"flood_risk_100y":null,"semi_basement_r":null,"elderly_alone_r":0.1279,"bldg_age30_r":null,"shelter_min_walk":4,"pop":16520,"hh":7512,"elderly65_r":0.2363,"single_hh_r":0.342,"source_level":"emd","flood_years":[],"landslide_hist_n":0},"geometry":{"type":"Polygon","coordinates":[[[128.95385,35.09806],[128.953,35.0942],[128.9572,35.09204],[128.96225,35.09375],[128.9631,35.09762],[128.9589,35.09977],[128.95385,35.09806]]]}},{"type":"Feature","properties":{"h3":"8830c1686dfffff","emd_code":"2638056100","emd_name":"하단1동","area_km2":0.548,"edge":false,"slope_mean":1.9,"elev_mean":3.0,"flood_hist_n":0,"flood_depth_max_m":null,"flood_risk_100y":null,"semi_basement_r":null,"elderly_alone_r":0.134,"bldg_age30_r":null,"shelter_min_walk":25,"pop":20513,"hh":11025,"elderly65_r":0.2564,"single_hh_r":0.5146,"source_level":"emd","flood_years":[],"landslide_hist_n":0},"geometry":{"type":"Polygon","coordinates":[[[128.9387,35.09293],[128.93785,35.08907],[128.94205,35.08691],[128.9471,35.08862],[128.94795,35.09249],[128.94375,35.09464],[128.9387,35.09293]]]}},{"type":"Feature","properties":{"h3":"8830c168e1fffff","emd_code":"2638063000","emd_name":"감천2동","area_km2":0.5484,"edge":true,"slope_mean":23.79,"elev_mean":171.6,"flood_hist_n":0,"flood_depth_max_m":null,"flood_risk_100y":null,"semi_basement_r":null,"elderly_alone_r":0.3391,"bldg_age30_r":null,"shelter_min_walk":5,"pop":4716,"hh":2964,"elderly65_r":0.4735,"single_hh_r":0.6053,"source_level":"emd","flood_years":[],"landslide_hist_n":0},"geometry":{"type":"Polygon","coordinates":[[[129.01268,35.08935],[129.01183,35.08548],[129.01603,35.08333],[129.02108,35.08503],[129.02193,35.0889],[129.01773,35.09106],[129.01268,35.08935]]]}},{"type":"Feature","properties":{"h3":"8830c168e5fffff","emd_code":"2638062000","emd_name":"감천1동","area_km2":0.5485,"edge":false,"slope_mean":15.52,"elev_mean":64.6,"flood_hist_n":0,"flood_depth_max_m":null,"flood_risk_100y":null,"semi_basement_r":null,"elderly_alone_r":0.2101,"bldg_age30_r":null,"shelter_min_walk":5,"pop":15648,"hh":7630,"elderly65_r":0.3569,"single_hh_r":0.3903,"source_level":"emd","flood_years":[],"landslide_hist_n":0},"geometry":{"type":"Polygon","coordinates":[[[129.00678,35.08378],[129.00592,35.07991],[129.01012,35.07775],[129.01517,35.07946],[129.01603,35.08333],[129.01183,35.08548],[129.00678,35.08378]]]}},{"type":"Feature","properties":{"h3":"8830c168e9fffff","emd_code":"2638063000","emd_name":"감천2동","area_km2":0.5483,"edge":false,"slope_mean":23.48,"elev_mean":165.1,"flood_hist_n":0,"flood_depth_max_m":null,"flood_risk_100y":null,"semi_basement_r":null,"elderly_alone_r":0.3391,"bldg_age30_r":null,"shelter_min_walk":5,"pop":4716,"hh":2964,"elderly65_r":0.4735,"single_hh_r":0.6053,"source_level":"emd","flood_years":[],"landslide_hist_n":0},"geometry":{"type":"Polygon","coordinates":[[[129.00934,35.09538],[129.00848,35.09151],[129.01268,35.08935],[129.01773,35.09106],[129.01859,35.09493],[129.01439,35.09708],[129.00934,35.09538]]]}},{"type":"Feature","properties":{"h3":"8830c168edfffff","emd_code":"2638062000","emd_name":"감천1동","area_km2":0.5483,"edge":false,"slope_mean":17.01,"elev_mean":81.8,"flood_hist_n":0,"flood_depth_max_m":null,"flood_risk_100y":null,"semi_basement_r":null,"elderly_alone_r":0.2101,"bldg_age30_r":null,"shelter_min_walk":5,"pop":15648,"hh":7630,"elderly65_r":0.3569,"single_hh_r":0.3903,"source_level":"emd","flood_years":[],"landslide_hist_n":0},"geometry":{"type":"Polygon","coordinates":[[[129.00343,35.0898],[129.00258,35.08593],[129.00678,35.08378],[129.01183,35.08548],[129.01268,35.08935],[129.00848,35.09151],[129.00343,35.0898]]]}},{"type":"Feature","properties":{"h3":"8830c16911fffff","emd_code":"2638060100","emd_name":"다대1동","area_km2":0.5486,"edge":false,"slope_mean":8.77,"elev_mean":27.1,"flood_hist_n":0,"flood_depth_max_m":null,"flood_risk_100y":null,"semi_basement_r":null,"elderly_alone_r":0.2042,"bldg_age30_r":null,"shelter_min_walk":13,"pop":34241,"hh":16436,"elderly65_r":0.2684,"single_hh_r":0.4084,"source_level":"emd","flood_years":[],"landslide_hist_n":0},"geometry":{"type":"Polygon","coordinates":[[[128.95543,35.06281],[128.95457,35.05894],[128.95877,35.05679],[128.96382,35.0585],[128.96467,35.06236],[128.96048,35.06452],[128.95543,35.06281]]]}},{"type":"Feature","properties":{"h3":"8830c16913fffff","emd_code":"2638060100","emd_name":"다대1동","area_km2":0.5486,"edge":false,"slope_mean":16.18,"elev_mean":79.1,"flood_hist_n":0,"flood_depth_max_m":null,"flood_risk_100y":null,"semi_basement_r":null,"elderly_alone_r":0.2042,"bldg_age30_r":null,"shelter_min_walk":6,"pop":34241,"hh":16436,"elderly65_r":0.2684,"single_hh_r":0.4084,"source_level":"emd","flood_years":[],"landslide_hist_n":0},"geometry":{"type":"Polygon","coordinates":[[[128.96467,35.06236],[128.96382,35.0585],[128.96802,35.05634],[128.97307,35.05805],[128.97392,35.06192],[128.96972,35.06408],[128.96467,35.06236]]]}},{"type":"Feature","properties":{"h3":"8830c16915fffff","emd_code":"2638060100","emd_name":"다대1동","area_km2":0.5486,"edge":true,"slope_mean":0.85,"elev_mean":1.1,"flood_hist_n":0,"flood_depth_max_m":null,"flood_risk_100y":null,"semi_basement_r":null,"elderly_alone_r":0.2042,"bldg_age30_r":null,"shelter_min_walk":12,"pop":34241,"hh":16436,"elderly65_r":0.2684,"single_hh_r":0.4084,"source_level":"emd","flood_years":[],"landslide_hist_n":0},"geometry":{"type":"Polygon","coordinates":[[[128.94952,35.05723],[128.94867,35.05336],[128.95287,35.05121],[128.95792,35.05292],[128.95877,35.05679],[128.95457,35.05894],[128.94952,35.05723]]]}},{"type":"Feature","properties":{"h3":"8830c16917fffff","emd_code":"2638060100","emd_name":"다대1동","area_km2":0.5487,"edge":false,"slope_mean":12.82,"elev_mean":60.0,"flood_hist_n":0,"flood_depth_max_m":null,"flood_risk_100y":null,"semi_basement_r":null,"elderly_alone_r":0.2042,"bldg_age30_r":null,"shelter_min_walk":2,"pop":34241,"hh":16436,"elderly65_r":0.2684,"single_hh_r":0.4084,"source_level":"emd","flood_years":[],"landslide_hist_n":0},"geometry":{"type":"Polygon","coordinates":[[[128.95877,35.05679],[128.95792,35.05292],[128.96211,35.05076],[128.96716,35.05247],[128.96802,35.05634],[128.96382,35.0585],[128.95877,35.05679]]]}},{"type":"Feature","properties":{"h3":"8830c16919fffff","emd_code":"2638060100","emd_name":"다대1동","area_km2":0.5485,"edge":false,"slope_mean":6.8,"elev_mean":13.8,"flood_hist_n":0,"flood_depth_max_m":null,"flood_risk_100y":null,"semi_basement_r":null,"elderly_alone_r":0.2042,"bldg_age30_r":null,"shelter_min_walk":22,"pop":34241,"hh":16436,"elderly65_r":0.2684,"single_hh_r":0.4084,"source_level":"emd","flood_years":[],"landslide_hist_n":0},"geometry":{"type":"Polygon","coordinates":[[[128.95208,35.06884],[128.95123,35.06497],[128.95543,35.06281],[128.96048,35.06452],[128.96133,35.06839],[128.95713,35.07055],[128.95208,35.06884]]]}},{"type":"Feature","properties":{"h3":"8830c1691bfffff","emd_code":"2638060100","emd_name":"다대1동","area_km2":0.5485,"edge":false,"slope_mean":22.23,"elev_mean":126.5,"flood_hist_n":0,"flood_depth_max_m":null,"flood_risk_100y":null,"semi_basement_r":null,"elderly_alone_r":0.2042,"bldg_age30_r":null,"shelter_min_walk":10,"pop":34241,"hh":16436,"elderly65_r":0.2684,"single_hh_r":0.4084,"source_level":"emd","flood_years":[],"landslide_hist_n":0},"geometry":{"type":"Polygon","coordinates":[[[128.96133,35.06839],[128.96048,35.06452],[128.96467,35.06236],[128.96972,35.06408],[128.97057,35.06794],[128.96638,35.0701],[128.96133,35.06839]]]}},{"type":"Feature","properties":{"h3":"8830c1691dfffff","emd_code":"2638060100","emd_name":"다대1동","area_km2":0.5485,"edge":true,"slope_mean":0.26,"elev_mean":0.2,"flood_hist_n":0,"flood_depth_max_m":null,"flood_risk_100y":null,"semi_basement_r":null,"elderly_alone_r":0.2042,"bldg_age30_r":null,"shelter_min_walk":21,"pop":34241,"hh":16436,"elderly65_r":0.2684,"single_hh_r":0.4084,"source_level":"emd","flood_years":[],"landslide_hist_n":0},"geometry":{"type":"Polygon","coordinates":[[[128.94618,35.06326],[128.94533,35.05939],[128.94952,35.05723],[128.95457,35.05894],[128.95543,35.06281],[128.95123,35.06497],[128.94618,35.06326]]]}},{"type":"Feature","properties":{"h3":"8830c16933fffff","emd_code":"2638060100","emd_name":"다대1동","area_km2":0.5489,"edge":true,"slope_mean":0.1,"elev_mean":0.1,"flood_hist_n":0,"flood_depth_max_m":null,"flood_risk_100y":null,"semi_basement_r":null,"elderly_alone_r":0.2042,"bldg_age30_r":null,"shelter_min_walk":11,"pop":34241,"hh":16436,"elderly65_r":0.2684,"single_hh_r":0.4084,"source_level":"emd","flood_years":[],"landslide_hist_n":0},"geometry":{"type":"Polygon","coordinates":[[[128.95621,35.04518],[128.95536,35.04131],[128.95956,35.03915],[128.96461,35.04086],[128.96546,35.04473],[128.96126,35.04689],[128.95621,35.04518]]]}},{"type":"Feature","properties":{"h3":"8830c1693bfffff","emd_code":"2638060100","emd_name":"다대1동","area_km2":0.5488,"edge":true,"slope_mean":2.88,"elev_mean":7.2,"flood_hist_n":0,"flood_depth_max_m":null,"flood_risk_100y":null,"semi_basement_r":null,"elderly_alone_r":0.2042,"bldg_age30_r":null,"shelter_min_walk":10,"pop":34241,"hh":16436,"elderly65_r":0.2684,"single_hh_r":0.4084,"source_level":"emd","flood_years":[],"landslide_hist_n":0},"geometry":{"type":"Polygon","coordinates":[[[128.95287,35.05121],[128.95202,35.04734],[128.95621,35.04518],[128.96126,35.04689],[128.96211,35.05076],[128.95792,35.05292],[128.95287,35.05121]]]}},{"type":"Feature","properties":{"h3":"8830c16953fffff","emd_code":"2638058000","emd_name":"장림1동","area_km2":0.5483,"edge":false,"slope_mean":3.52,"elev_mean":5.4,"flood_hist_n":0,"flood_depth_max_m":null,"flood_risk_100y":null,"semi_basement_r":null,"elderly_alone_r":0.1496,"bldg_age30_r":null,"shelter_min_walk":19,"pop":13327,"hh":6229,"elderly65_r":0.1997,"single_hh_r":0.3888,"source_level":"emd","flood_years":[],"landslide_hist_n":0},"geometry":{"type":"Polygon","coordinates":[[[128.94874,35.07486],[128.94789,35.07099],[128.95208,35.06884],[128.95713,35.07055],[128.95798,35.07442],[128.95379,35.07657],[128.94874,35.07486]]]}},{"type":"Feature","properties":{"h3":"8830c16959fffff","emd_code":"2638056100","emd_name":"하단1동","area_km2":0.5482,"edge":false,"slope_mean":0.0,"elev_mean":0.0,"flood_hist_n":0,"flood_depth_max_m":null,"flood_risk_100y":null,"semi_basement_r":null,"elderly_alone_r":0.134,"bldg_age30_r":null,"shelter_min_walk":34,"pop":20513,"hh":11025,"elderly65_r":0.2564,"single_hh_r":0.5146,"source_level":"emd","flood_years":[],"landslide_hist_n":0},"geometry":{"type":"Polygon","coordinates":[[[128.93615,35.08133],[128.9353,35.07746],[128.93949,35.07531],[128.94454,35.07702],[128.94539,35.08089],[128.9412,35.08304],[128.93615,35.08133]]]}},{"type":"Feature","properties":{"h3":"8830c1695bfffff","emd_code":"2638056100","emd_name":"하단1동","area_km2":0.5482,"edge":false,"slope_mean":1.42,"elev_mean":1.9,"flood_hist_n":0,"flood_depth_max_m":null,"flood_risk_100y":null,"semi_basement_r":null,"elderly_alone_r":0.134,"bldg_age30_r":null,"shelter_min_walk":21,"pop":20513,"hh":11025,"elderly65_r":0.2564,"single_hh_r":0.5146,"source_level":"emd","flood_years":[],"landslide_hist_n":0},"geometry":{"type":"Polygon","coordinates":[[[128.94539,35.08089],[128.94454,35.07702],[128.94874,35.07486],[128.95379,35.07657],[128.95464,35.08044],[128.95044,35.0826],[128.94539,35.08089]]]}},{"type":"Feature","properties":{"h3":"8830c16981fffff","emd_code":"2638061000","emd_name":"구평동","area_km2":0.5489,"edge":true,"slope_mean":4.18,"elev_mean":7.7,"flood_hist_n":1,"flood_depth_max_m":0.306,"flood_risk_100y":null,"semi_basement_r":null,"elderly_alone_r":0.1099,"bldg_age30_r":null,"shelter_min_walk":25,"pop":12062,"hh":5148,"elderly65_r":0.1991,"single_hh_r":0.2834,"source_level":"emd","flood_years":[2016],"landslide_hist_n":0},"geometry":{"type":"Polygon","coordinates":[[[128.99576,35.05499],[128.9949,35.05112],[128.9991,35.04896],[129.00415,35.05067],[129.005,35.05454],[129.00081,35.0567],[128.99576,35.05499]]]}},{"type":"Feature","properties":{"h3":"8830c16985fffff","emd_code":"2638060200","emd_name":"다대2동","area_km2":0.549,"edge":true,"slope_mean":9.72,"elev_mean":20.2,"flood_hist_n":0,"flood_depth_max_m":null,"flood_risk_100y":null,"semi_basement_r":null,"elderly_alone_r":0.2382,"bldg_age30_r":null,"shelter_min_walk":27,"pop":24286,"hh":11839,"elderly65_r":0.3082,"single_hh_r":0.4192,"source_level":"emd","flood_years":[],"landslide_hist_n":0},"geometry":{"type":"Polygon","coordinates":[[[128.98985,35.04941],[128.989,35.04554],[128.9932,35.04338],[128.99825,35.04509],[128.9991,35.04896],[128.9949,35.05112],[128.98985,35.04941]]]}},{"type":"Feature","properties":{"h3":"8830c16989fffff","emd_code":"2638061000","emd_name":"구평동","area_km2":0.5488,"edge":false,"slope_mean":7.86,"elev_mean":16.8,"flood_hist_n":0,"flood_depth_max_m":null,"flood_risk_100y":null,"semi_basement_r":null,"elderly_alone_r":0.1099,"bldg_age30_r":null,"shelter_min_walk":17,"pop":12062,"hh":5148,"elderly65_r":0.1991,"single_hh_r":0.2834,"source_level":"emd","flood_years":[],"landslide_hist_n":0},"geometry":{"type":"Polygon","coordinates":[[[128.99241,35.06102],[128.99156,35.05715],[128.99576,35.05499],[129.00081,35.0567],[129.00166,35.06057],[128.99746,35.06273],[128.99241,35.06102]]]}},{"type":"Feature","properties":{"h3":"8830c1698dfffff","emd_code":"2638060200","emd_name":"다대2동","area_km2":0.5488,"edge":false,"slope_mean":7.64,"elev_mean":12.7,"flood_hist_n":0,"flood_depth_max_m":null,"flood_risk_100y":null,"semi_basement_r":null,"elderly_alone_r":0.2382,"bldg_age30_r":null,"shelter_min_walk":16,"pop":24286,"hh":11839,"elderly65_r":0.3082,"single_hh_r":0.4192,"source_level":"emd","flood_years":[],"landslide_hist_n":0},"geometry":{"type":"Polygon","coordinates":[[[128.98651,35.05544],[128.98566,35.05157],[128.98985,35.04941],[128.9949,35.05112],[128.99576,35.05499],[128.99156,35.05715],[128.98651,35.05544]]]}},{"type":"Feature","properties":{"h3":"8830c169c1fffff","emd_code":"2638060200","emd_name":"다대2동","area_km2":0.5486,"edge":false,"slope_mean":15.47,"elev_mean":60.4,"flood_hist_n":0,"flood_depth_max_m":null,"flood_risk_100y":null,"semi_basement_r":null,"elderly_alone_r":0.2382,"bldg_age30_r":null,"shelter_min_walk":1,"pop":24286,"hh":11839,"elderly65_r":0.3082,"single_hh_r":0.4192,"source_level":"emd","flood_years":[],"landslide_hist_n":0},"geometry":{"type":"Polygon","coordinates":[[[128.97982,35.0675],[128.97897,35.06363],[128.98317,35.06147],[128.98822,35.06318],[128.98907,35.06705],[128.98487,35.0692],[128.97982,35.0675]]]}},{"type":"Feature","properties":{"h3":"8830c169c3fffff","emd_code":"2638061000","emd_name":"구평동","area_km2":0.5487,"edge":false,"slope_mean":9.46,"elev_mean":24.7,"flood_hist_n":0,"flood_depth_max_m":null,"flood_risk_100y":null,"semi_basement_r":null,"elderly_alone_r":0.1099,"bldg_age30_r":null,"shelter_min_walk":12,"pop":12062,"hh":5148,"elderly65_r":0.1991,"single_hh_r":0.2834,"source_level":"emd","flood_years":[],"landslide_hist_n":0},"geometry":{"type":"Polygon","coordinates":[[[128.98907,35.06705],[128.98822,35.06318],[128.99241,35.06102],[128.99746,35.06273],[128.99832,35.0666],[128.99412,35.06876],[128.98907,35.06705]]]}},{"type":"Feature","properties":{"h3":"8830c169c5fffff","emd_code":"2638060200","emd_name":"다대2동","area_km2":0.5487,"edge":false,"slope_mean":8.31,"elev_mean":16.7,"flood_hist_n":0,"flood_depth_max_m":null,"flood_risk_100y":null,"semi_basement_r":null,"elderly_alone_r":0.2382,"bldg_age30_r":null,"shelter_min_walk":4,"pop":24286,"hh":11839,"elderly65_r":0.3082,"single_hh_r":0.4192,"source_level":"emd","flood_years":[],"landslide_hist_n":0},"geometry":{"type":"Polygon","coordinates":[[[128.97392,35.06192],[128.97307,35.05805],[128.97726,35.05589],[128.98231,35.0576],[128.98317,35.06147],[128.97897,35.06363],[128.97392,35.06192]]]}},{"type":"Feature","properties":{"h3":"8830c169c7fffff","emd_code":"2638060200","emd_name":"다대2동","area_km2":0.5487,"edge":false,"slope_mean":13.44,"elev_mean":37.6,"flood_hist_n":0,"flood_depth_max_m":null,"flood_risk_100y":null,"semi_basement_r":null,"elderly_alone_r":0.2382,"bldg_age30_r":null,"shelter_min_walk":5,"pop":24286,"hh":11839,"elderly65_r":0.3082,"single_hh_r":0.4192,"source_level":"emd","flood_years":[],"landslide_hist_n":0},"geometry":{"type":"Polygon","coordinates":[[[128.98317,35.06147],[128.98231,35.0576],[128.98651,35.05544],[128.99156,35.05715],[128.99241,35.06102],[128.98822,35.06318],[128.98317,35.06147]]]}},{"type":"Feature","properties":{"h3":"8830c169c9fffff","emd_code":"2638061000","emd_name":"구평동","area_km2":0.5485,"edge":false,"slope_mean":16.45,"elev_mean":86.0,"flood_hist_n":0,"flood_depth_max_m":null,"flood_risk_100y":null,"semi_basement_r":null,"elderly_alone_r":0.1099,"bldg_age30_r":null,"shelter_min_walk":5,"pop":12062,"hh":5148,"elderly65_r":0.1991,"single_hh_r":0.2834,"source_level":"emd","flood_years":[],"landslide_hist_n":0},"geometry":{"type":"Polygon","coordinates":[[[128.97648,35.07352],[128.97562,35.06965],[128.97982,35.0675],[128.98487,35.0692],[128.98572,35.07307],[128.98153,35.07523],[128.97648,35.07352]]]}},{"type":"Feature","properties":{"h3":"8830c169cbfffff","emd_code":"2638061000","emd_name":"구평동","area_km2":0.5485,"edge":false,"slope_mean":13.02,"elev_mean":52.6,"flood_hist_n":0,"flood_depth_max_m":null,"flood_risk_100y":null,"semi_basement_r":null,"elderly_alone_r":0.1099,"bldg_age30_r":null,"shelter_min_walk":12,"pop":12062,"hh":5148,"elderly65_r":0.1991,"single_hh_r":0.2834,"source_level":"emd","flood_years":[],"landslide_hist_n":0},"geometry":{"type":"Polygon","coordinates":[[[128.98572,35.07307],[128.98487,35.0692],[128.98907,35.06705],[128.99412,35.06876],[128.99497,35.07262],[128.99077,35.07478],[128.98572,35.07307]]]}},{"type":"Feature","properties":{"h3":"8830c169cdfffff","emd_code":"2638060200","emd_name":"다대2동","area_km2":0.5486,"edge":false,"slope_mean":19.12,"elev_mean":82.0,"flood_hist_n":0,"flood_depth_max_m":null,"flood_risk_100y":null,"semi_basement_r":null,"elderly_alone_r":0.2382,"bldg_age30_r":null,"shelter_min_walk":6,"pop":24286,"hh":11839,"elderly65_r":0.3082,"single_hh_r":0.4192,"source_level":"emd","flood_years":[],"landslide_hist_n":0},"geometry":{"type":"Polygon","coordinates":[[[128.97057,35.06794],[128.96972,35.06408],[128.97392,35.06192],[128.97897,35.06363],[128.97982,35.0675],[128.97562,35.06965],[128.97057,35.06794]]]}},{"type":"Feature","properties":{"h3":"8830c169d9fffff","emd_code":"2638062000","emd_name":"감천1동","area_km2":0.5485,"edge":true,"slope_mean":9.3,"elev_mean":25.2,"flood_hist_n":0,"flood_depth_max_m":null,"flood_risk_100y":null,"semi_basement_r":null,"elderly_alone_r":0.2101,"bldg_age30_r":null,"shelter_min_walk":15,"pop":15648,"hh":7630,"elderly65_r":0.3569,"single_hh_r":0.3903,"source_level":"emd","flood_years":[],"landslide_hist_n":0},"geometry":{"type":"Polygon","coordinates":[[[129.00087,35.0782],[129.00002,35.07433],[129.00422,35.07217],[129.00927,35.07388],[129.01012,35.07775],[129.00592,35.07991],[129.00087,35.0782]]]}},{"type":"Feature","properties":{"h3":"8830c169dbfffff","emd_code":"2638062000","emd_name":"감천1동","area_km2":0.5486,"edge":true,"slope_mean":14.48,"elev_mean":53.3,"flood_hist_n":1,"flood_depth_max_m":0.808,"flood_risk_100y":null,"semi_basement_r":null,"elderly_alone_r":0.2101,"bldg_age30_r":null,"shelter_min_walk":3,"pop":15648,"hh":7630,"elderly65_r":0.3569,"single_hh_r":0.3903,"source_level":"emd","flood_years":[2016],"landslide_hist_n":0},"geometry":{"type":"Polygon","coordinates":[[[129.01012,35.07775],[129.00927,35.07388],[129.01347,35.07172],[129.01852,35.07343],[129.01937,35.0773],[129.01517,35.07946],[129.01012,35.07775]]]}},{"type":"Feature","properties":{"h3":"8830c169ddfffff","emd_code":"2638061000","emd_name":"구평동","area_km2":0.5486,"edge":true,"slope_mean":0.67,"elev_mean":0.5,"flood_hist_n":0,"flood_depth_max_m":null,"flood_risk_100y":null,"semi_basement_r":null,"elderly_alone_r":0.1099,"bldg_age30_r":null,"shelter_min_walk":22,"pop":12062,"hh":5148,"elderly65_r":0.1991,"single_hh_r":0.2834,"source_level":"emd","flood_years":[],"landslide_hist_n":0},"geometry":{"type":"Polygon","coordinates":[[[128.99497,35.07262],[128.99412,35.06876],[128.99832,35.0666],[129.00337,35.06831],[129.00422,35.07217],[129.00002,35.07433],[128.99497,35.07262]]]}},{"type":"Feature","properties":{"h3":"8830c169e1fffff","emd_code":"2638060100","emd_name":"다대1동","area_km2":0.5489,"edge":false,"slope_mean":3.04,"elev_mean":3.4,"flood_hist_n":0,"flood_depth_max_m":null,"flood_risk_100y":null,"semi_basement_r":null,"elderly_alone_r":0.2042,"bldg_age30_r":null,"shelter_min_walk":8,"pop":34241,"hh":16436,"elderly65_r":0.2684,"single_hh_r":0.4084,"source_level":"emd","flood_years":[],"landslide_hist_n":0},"geometry":{"type":"Polygon","coordinates":[[[128.97136,35.05031],[128.97051,35.04644],[128.9747,35.04428],[128.97975,35.04599],[128.98061,35.04986],[128.97641,35.05202],[128.97136,35.05031]]]}},{"type":"Feature","properties":{"h3":"8830c169e3fffff","emd_code":"2638060100","emd_name":"다대1동","area_km2":0.5489,"edge":true,"slope_mean":2.65,"elev_mean":2.5,"flood_hist_n":0,"flood_depth_max_m":null,"flood_risk_100y":null,"semi_basement_r":null,"elderly_alone_r":0.2042,"bldg_age30_r":null,"shelter_min_walk":19,"pop":34241,"hh":16436,"elderly65_r":0.2684,"single_hh_r":0.4084,"source_level":"emd","flood_years":[],"landslide_hist_n":0},"geometry":{"type":"Polygon","coordinates":[[[128.98061,35.04986],[128.97975,35.04599],[128.98395,35.04383],[128.989,35.04554],[128.98985,35.04941],[128.98566,35.05157],[128.98061,35.04986]]]}},{"type":"Feature","properties":{"h3":"8830c169e5fffff","emd_code":"2638060100","emd_name":"다대1동","area_km2":0.5489,"edge":false,"slope_mean":8.01,"elev_mean":17.0,"flood_hist_n":0,"flood_depth_max_m":null,"flood_risk_100y":null,"semi_basement_r":null,"elderly_alone_r":0.2042,"bldg_age30_r":null,"shelter_min_walk":11,"pop":34241,"hh":16436,"elderly65_r":0.2684,"single_hh_r":0.4084,"source_level":"emd","flood_years":[],"landslide_hist_n":0},"geometry":{"type":"Polygon","coordinates":[[[128.96546,35.04473],[128.96461,35.04086],[128.9688,35.0387],[128.97385,35.04041],[128.9747,35.04428],[128.97051,35.04644],[128.96546,35.04473]]]}},{"type":"Feature","properties":{"h3":"8830c169e9fffff","emd_code":"2638060100","emd_name":"다대1동","area_km2":0.5487,"edge":false,"slope_mean":6.17,"elev_mean":14.6,"flood_hist_n":0,"flood_depth_max_m":null,"flood_risk_100y":null,"semi_basement_r":null,"elderly_alone_r":0.2042,"bldg_age30_r":null,"shelter_min_walk":5,"pop":34241,"hh":16436,"elderly65_r":0.2684,"single_hh_r":0.4084,"source_level":"emd","flood_years":[],"landslide_hist_n":0},"geometry":{"type":"Polygon","coordinates":[[[128.96802,35.05634],[128.96716,35.05247],[128.97136,35.05031],[128.97641,35.05202],[128.97726,35.05589],[128.97307,35.05805],[128.96802,35.05634]]]}},{"type":"Feature","properties":{"h3":"8830c169ebfffff","emd_code":"2638060100","emd_name":"다대1동","area_km2":0.5488,"edge":true,"slope_mean":2.5,"elev_mean":2.4,"flood_hist_n":0,"flood_depth_max_m":null,"flood_risk_100y":null,"semi_basement_r":null,"elderly_alone_r":0.2042,"bldg_age30_r":null,"shelter_min_walk":14,"pop":34241,"hh":16436,"elderly65_r":0.2684,"single_hh_r":0.4084,"source_level":"emd","flood_years":[],"landslide_hist_n":0},"geometry":{"type":"Polygon","coordinates":[[[128.97726,35.05589],[128.97641,35.05202],[128.98061,35.04986],[128.98566,35.05157],[128.98651,35.05544],[128.98231,35.0576],[128.97726,35.05589]]]}},{"type":"Feature","properties":{"h3":"8830c169edfffff","emd_code":"2638060100","emd_name":"다대1동","area_km2":0.5488,"edge":false,"slope_mean":6.09,"elev_mean":18.6,"flood_hist_n":0,"flood_depth_max_m":null,"flood_risk_100y":null,"semi_basement_r":null,"elderly_alone_r":0.2042,"bldg_age30_r":null,"shelter_min_walk":1,"pop":34241,"hh":16436,"elderly65_r":0.2684,"single_hh_r":0.4084,"source_level":"emd","flood_years":[],"landslide_hist_n":0},"geometry":{"type":"Polygon","coordinates":[[[128.96211,35.05076],[128.96126,35.04689],[128.96546,35.04473],[128.97051,35.04644],[128.97136,35.05031],[128.96716,35.05247],[128.96211,35.05076]]]}},{"type":"Feature","properties":{"h3":"8830c16a21fffff","emd_code":"2638056200","emd_name":"하단2동","area_km2":0.5475,"edge":true,"slope_mean":0.76,"elev_mean":1.1,"flood_hist_n":0,"flood_depth_max_m":null,"flood_risk_100y":null,"semi_basement_r":null,"elderly_alone_r":0.1105,"bldg_age30_r":null,"shelter_min_walk":18,"pop":25196,"hh":14356,"elderly65_r":0.2194,"single_hh_r":0.5683,"source_level":"emd","flood_years":[],"landslide_hist_n":0},"geometry":{"type":"Polygon","coordinates":[[[128.94047,35.12214],[128.93962,35.11828],[128.94382,35.11612],[128.94887,35.11783],[128.94972,35.1217],[128.94552,35.12385],[128.94047,35.12214]]]}},{"type":"Feature","properties":{"h3":"8830c16a23fffff","emd_code":"2638056200","emd_name":"하단2동","area_km2":0.5476,"edge":false,"slope_mean":0.49,"elev_mean":0.5,"flood_hist_n":0,"flood_depth_max_m":null,"flood_risk_100y":null,"semi_basement_r":null,"elderly_alone_r":0.1105,"bldg_age30_r":null,"shelter_min_walk":10,"pop":25196,"hh":14356,"elderly65_r":0.2194,"single_hh_r":0.5683,"source_level":"emd","flood_years":[],"landslide_hist_n":0},"geometry":{"type":"Polygon","coordinates":[[[128.94972,35.1217],[128.94887,35.11783],[128.95306,35.11568],[128.95811,35.11739],[128.95897,35.12125],[128.95477,35.12341],[128.94972,35.1217]]]}},{"type":"Feature","properties":{"h3":"8830c16a25fffff","emd_code":"2638056200","emd_name":"하단2동","area_km2":0.5476,"edge":true,"slope_mean":1.0,"elev_mean":1.3,"flood_hist_n":0,"flood_depth_max_m":null,"flood_risk_100y":null,"semi_basement_r":null,"elderly_alone_r":0.1105,"bldg_age30_r":null,"shelter_min_walk":16,"pop":25196,"hh":14356,"elderly65_r":0.2194,"single_hh_r":0.5683,"source_level":"emd","flood_years":[],"landslide_hist_n":0},"geometry":{"type":"Polygon","coordinates":[[[128.93457,35.11657],[128.93372,35.1127],[128.93792,35.11055],[128.94297,35.11226],[128.94382,35.11612],[128.93962,35.11828],[128.93457,35.11657]]]}},{"type":"Feature","properties":{"h3":"8830c16a27fffff","emd_code":"2638056200","emd_name":"하단2동","area_km2":0.5476,"edge":false,"slope_mean":1.37,"elev_mean":2.1,"flood_hist_n":0,"flood_depth_max_m":null,"flood_risk_100y":null,"semi_basement_r":null,"elderly_alone_r":0.1105,"bldg_age30_r":null,"shelter_min_walk":8,"pop":25196,"hh":14356,"elderly65_r":0.2194,"single_hh_r":0.5683,"source_level":"emd","flood_years":[],"landslide_hist_n":0},"geometry":{"type":"Polygon","coordinates":[[[128.94382,35.11612],[128.94297,35.11226],[128.94716,35.1101],[128.95221,35.11181],[128.95306,35.11568],[128.94887,35.11783],[128.94382,35.11612]]]}},{"type":"Feature","properties":{"h3":"8830c16a2bfffff","emd_code":"2638056200","emd_name":"하단2동","area_km2":0.5474,"edge":true,"slope_mean":0.14,"elev_mean":0.2,"flood_hist_n":0,"flood_depth_max_m":null,"flood_risk_100y":null,"semi_basement_r":null,"elderly_alone_r":0.1105,"bldg_age30_r":null,"shelter_min_walk":20,"pop":25196,"hh":14356,"elderly65_r":0.2194,"single_hh_r":0.5683,"source_level":"emd","flood_years":[],"landslide_hist_n":0},"geometry":{"type":"Polygon","coordinates":[[[128.94638,35.12771],[128.94552,35.12385],[128.94972,35.1217],[128.95477,35.12341],[128.95562,35.12727],[128.95142,35.12942],[128.94638,35.12771]]]}},{"type":"Feature","properties":{"h3":"8830c16a31fffff","emd_code":"2638056200","emd_name":"하단2동","area_km2":0.5475,"edge":true,"slope_mean":13.48,"elev_mean":59.9,"flood_hist_n":0,"flood_depth_max_m":null,"flood_risk_100y":null,"semi_basement_r":null,"elderly_alone_r":0.1105,"bldg_age30_r":null,"shelter_min_walk":2,"pop":25196,"hh":14356,"elderly65_r":0.2194,"single_hh_r":0.5683,"source_level":"emd","flood_years":[],"landslide_hist_n":0},"geometry":{"type":"Polygon","coordinates":[[[128.96487,35.12682],[128.96402,35.12296],[128.96821,35.12081],[128.97326,35.12252],[128.97412,35.12638],[128.96992,35.12853],[128.96487,35.12682]]]}},{"type":"Feature","properties":{"h3":"8830c16a35fffff","emd_code":"2638056200","emd_name":"하단2동","area_km2":0.5476,"edge":false,"slope_mean":13.88,"elev_mean":55.8,"flood_hist_n":0,"flood_depth_max_m":null,"flood_risk_100y":null,"semi_basement_r":null,"elderly_alone_r":0.1105,"bldg_age30_r":null,"shelter_min_walk":5,"pop":25196,"hh":14356,"elderly65_r":0.2194,"single_hh_r":0.5683,"source_level":"emd","flood_years":[],"landslide_hist_n":0},"geometry":{"type":"Polygon","coordinates":[[[128.95897,35.12125],[128.95811,35.11739],[128.96231,35.11523],[128.96736,35.11694],[128.96821,35.12081],[128.96402,35.12296],[128.95897,35.12125]]]}},{"type":"Feature","properties":{"h3":"8830c16a37fffff","emd_code":"2638056200","emd_name":"하단2동","area_km2":0.5477,"edge":false,"slope_mean":22.55,"elev_mean":216.5,"flood_hist_n":0,"flood_depth_max_m":null,"flood_risk_100y":null,"semi_basement_r":null,"elderly_alone_r":0.1105,"bldg_age30_r":null,"shelter_min_walk":9,"pop":25196,"hh":14356,"elderly65_r":0.2194,"single_hh_r":0.5683,"source_level":"emd","flood_years":[],"landslide_hist_n":0},"geometry":{"type":"Polygon","coordinates":[[[128.96821,35.12081],[128.96736,35.11694],[128.97156,35.11479],[128.97661,35.1165],[128.97746,35.12036],[128.97326,35.12252],[128.96821,35.12081]]]}},{"type":"Feature","properties":{"h3":"8830c16a3dfffff","emd_code":"2638056200","emd_name":"하단2동","area_km2":0.5475,"edge":true,"slope_mean":1.86,"elev_mean":3.0,"flood_hist_n":0,"flood_depth_max_m":null,"flood_risk_100y":null,"semi_basement_r":null,"elderly_alone_r":0.1105,"bldg_age30_r":null,"shelter_min_walk":11,"pop":25196,"hh":14356,"elderly65_r":0.2194,"single_hh_r":0.5683,"source_level":"emd","flood_years":[],"landslide_hist_n":0},"geometry":{"type":"Polygon","coordinates":[[[128.95562,35.12727],[128.95477,35.12341],[128.95897,35.12125],[128.96402,35.12296],[128.96487,35.12682],[128.96067,35.12898],[128.95562,35.12727]]]}},{"type":"Feature","properties":{"h3":"8830c16aa5fffff","emd_code":"2638052000","emd_name":"괴정2동","area_km2":0.5479,"edge":false,"slope_mean":25.8,"elev_mean":233.7,"flood_hist_n":0,"flood_depth_max_m":null,"flood_risk_100y":null,"semi_basement_r":null,"elderly_alone_r":0.1908,"bldg_age30_r":null,"shelter_min_walk":12,"pop":14243,"hh":6813,"elderly65_r":0.3034,"single_hh_r":0.3904,"source_level":"emd","flood_years":[],"landslide_hist_n":0},"geometry":{"type":"Polygon","coordinates":[[[128.9993,35.11344],[128.99845,35.10958],[129.00265,35.10742],[129.0077,35.10913],[129.00855,35.11299],[129.00435,35.11515],[128.9993,35.11344]]]}},{"type":"Feature","properties":{"h3":"8830c16aadfffff","emd_code":"2638052000","emd_name":"괴정2동","area_km2":0.5478,"edge":false,"slope_mean":25.14,"elev_mean":398.7,"flood_hist_n":0,"flood_depth_max_m":null,"flood_risk_100y":null,"semi_basement_r":null,"elderly_alone_r":0.1908,"bldg_age30_r":null,"shelter_min_walk":17,"pop":14243,"hh":6813,"elderly65_r":0.3034,"single_hh_r":0.3904,"source_level":"emd","flood_years":[],"landslide_hist_n":0},"geometry":{"type":"Polygon","coordinates":[[[128.99596,35.11946],[128.9951,35.1156],[128.9993,35.11344],[129.00435,35.11515],[129.00521,35.11902],[129.00101,35.12117],[128.99596,35.11946]]]}},{"type":"Feature","properties":{"h3":"8830c16ae5fffff","emd_code":"2638055000","emd_name":"당리동","area_km2":0.5476,"edge":false,"slope_mean":21.41,"elev_mean":375.1,"flood_hist_n":0,"flood_depth_max_m":null,"flood_risk_100y":null,"semi_basement_r":null,"elderly_alone_r":0.1575,"bldg_age30_r":null,"shelter_min_walk":14,"pop":22957,"hh":10815,"elderly65_r":0.303,"single_hh_r":0.3681,"source_level":"emd","flood_years":[],"landslide_hist_n":0},"geometry":{"type":"Polygon","coordinates":[[[128.98336,35.12593],[128.98251,35.12207],[128.98671,35.11991],[128.99176,35.12162],[128.99261,35.12548],[128.98842,35.12764],[128.98336,35.12593]]]}},{"type":"Feature","properties":{"h3":"8830c16ae7fffff","emd_code":"2638055000","emd_name":"당리동","area_km2":0.5477,"edge":true,"slope_mean":26.08,"elev_mean":413.2,"flood_hist_n":0,"flood_depth_max_m":null,"flood_risk_100y":null,"semi_basement_r":null,"elderly_alone_r":0.1575,"bldg_age30_r":null,"shelter_min_walk":16,"pop":22957,"hh":10815,"elderly65_r":0.303,"single_hh_r":0.3681,"source_level":"emd","flood_years":[],"landslide_hist_n":0},"geometry":{"type":"Polygon","coordinates":[[[128.99261,35.12548],[128.99176,35.12162],[128.99596,35.11946],[129.00101,35.12117],[129.00186,35.12504],[128.99766,35.12719],[128.99261,35.12548]]]}},{"type":"Feature","properties":{"h3":"8830c16b11fffff","emd_code":"2638056100","emd_name":"하단1동","area_km2":0.5478,"edge":false,"slope_mean":0.66,"elev_mean":0.8,"flood_hist_n":0,"flood_depth_max_m":null,"flood_risk_100y":null,"semi_basement_r":null,"elderly_alone_r":0.134,"bldg_age30_r":null,"shelter_min_walk":20,"pop":20513,"hh":11025,"elderly65_r":0.2564,"single_hh_r":0.5146,"source_level":"emd","flood_years":[],"landslide_hist_n":0},"geometry":{"type":"Polygon","coordinates":[[[128.93202,35.10497],[128.93116,35.10111],[128.93536,35.09895],[128.94041,35.10066],[128.94126,35.10453],[128.93706,35.10668],[128.93202,35.10497]]]}},{"type":"Feature","properties":{"h3":"8830c16b13fffff","emd_code":"2638056100","emd_name":"하단1동","area_km2":0.5478,"edge":false,"slope_mean":1.59,"elev_mean":1.9,"flood_hist_n":0,"flood_depth_max_m":null,"flood_risk_100y":null,"semi_basement_r":null,"elderly_alone_r":0.134,"bldg_age30_r":null,"shelter_min_walk":12,"pop":20513,"hh":11025,"elderly65_r":0.2564,"single_hh_r":0.5146,"source_level":"emd","flood_years":[],"landslide_hist_n":0},"geometry":{"type":"Polygon","coordinates":[[[128.94126,35.10453],[128.94041,35.10066],[128.94461,35.09851],[128.94965,35.10022],[128.95051,35.10408],[128.94631,35.10624],[128.94126,35.10453]]]}},{"type":"Feature","properties":{"h3":"8830c16b15fffff","emd_code":"2638056100","emd_name":"하단1동","area_km2":0.5478,"edge":false,"slope_mean":1.04,"elev_mean":0.9,"flood_hist_n":0,"flood_depth_max_m":null,"flood_risk_100y":null,"semi_basement_r":null,"elderly_alone_r":0.134,"bldg_age30_r":null,"shelter_min_walk":19,"pop":20513,"hh":11025,"elderly65_r":0.2564,"single_hh_r":0.5146,"source_level":"emd","flood_years":[],"landslide_hist_n":0},"geometry":{"type":"Polygon","coordinates":[[[128.92612,35.0994],[128.92526,35.09553],[128.92946,35.09338],[128.93451,35.09509],[128.93536,35.09895],[128.93116,35.10111],[128.92612,35.0994]]]}},{"type":"Feature","properties":{"h3":"8830c16b17fffff","emd_code":"2638056100","emd_name":"하단1동","area_km2":0.5479,"edge":false,"slope_mean":1.7,"elev_mean":2.4,"flood_hist_n":0,"flood_depth_max_m":null,"flood_risk_100y":null,"semi_basement_r":null,"elderly_alone_r":0.134,"bldg_age30_r":null,"shelter_min_walk":24,"pop":20513,"hh":11025,"elderly65_r":0.2564,"single_hh_r":0.5146,"source_level":"emd","flood_years":[],"landslide_hist_n":0},"geometry":{"type":"Polygon","coordinates":[[[128.93536,35.09895],[128.93451,35.09509],[128.9387,35.09293],[128.94375,35.09464],[128.94461,35.09851],[128.94041,35.10066],[128.93536,35.09895]]]}},{"type":"Feature","properties":{"h3":"8830c16b19fffff","emd_code":"2638056100","emd_name":"하단1동","area_km2":0.5476,"edge":false,"slope_mean":1.44,"elev_mean":1.6,"flood_hist_n":0,"flood_depth_max_m":null,"flood_risk_100y":null,"semi_basement_r":null,"elderly_alone_r":0.134,"bldg_age30_r":null,"shelter_min_walk":21,"pop":20513,"hh":11025,"elderly65_r":0.2564,"single_hh_r":0.5146,"source_level":"emd","flood_years":[],"landslide_hist_n":0},"geometry":{"type":"Polygon","coordinates":[[[128.92867,35.11099],[128.92782,35.10713],[128.93202,35.10497],[128.93706,35.10668],[128.93792,35.11055],[128.93372,35.1127],[128.92867,35.11099]]]}},{"type":"Feature","properties":{"h3":"8830c16b1bfffff","emd_code":"2638056100","emd_name":"하단1동","area_km2":0.5477,"edge":false,"slope_mean":1.79,"elev_mean":3.6,"flood_hist_n":0,"flood_depth_max_m":null,"flood_risk_100y":null,"semi_basement_r":null,"elderly_alone_r":0.134,"bldg_age30_r":null,"shelter_min_walk":9,"pop":20513,"hh":11025,"elderly65_r":0.2564,"single_hh_r":0.5146,"source_level":"emd","flood_years":[],"landslide_hist_n":0},"geometry":{"type":"Polygon","coordinates":[[[128.93792,35.11055],[128.93706,35.10668],[128.94126,35.10453],[128.94631,35.10624],[128.94716,35.1101],[128.94297,35.11226],[128.93792,35.11055]]]}},{"type":"Feature","properties":{"h3":"8830c16b1dfffff","emd_code":"2638056100","emd_name":"하단1동","area_km2":0.5477,"edge":true,"slope_mean":1.42,"elev_mean":1.8,"flood_hist_n":0,"flood_depth_max_m":null,"flood_risk_100y":null,"semi_basement_r":null,"elderly_alone_r":0.134,"bldg_age30_r":null,"shelter_min_walk":19,"pop":20513,"hh":11025,"elderly65_r":0.2564,"single_hh_r":0.5146,"source_level":"emd","flood_years":[],"landslide_hist_n":0},"geometry":{"type":"Polygon","coordinates":[[[128.92277,35.10542],[128.92192,35.10155],[128.92612,35.0994],[128.93116,35.10111],[128.93202,35.10497],[128.92782,35.10713],[128.92277,35.10542]]]}},{"type":"Feature","properties":{"h3":"8830c16b31fffff","emd_code":"2638056100","emd_name":"하단1동","area_km2":0.548,"edge":true,"slope_mean":0.0,"elev_mean":0.0,"flood_hist_n":0,"flood_depth_max_m":null,"flood_risk_100y":null,"semi_basement_r":null,"elderly_alone_r":0.134,"bldg_age30_r":null,"shelter_min_walk":24,"pop":20513,"hh":11025,"elderly65_r":0.2564,"single_hh_r":0.5146,"source_level":"emd","flood_years":[],"landslide_hist_n":0},"geometry":{"type":"Polygon","coordinates":[[[128.92356,35.0878],[128.92271,35.08393],[128.9269,35.08178],[128.93195,35.08349],[128.9328,35.08735],[128.92861,35.08951],[128.92356,35.0878]]]}},{"type":"Feature","properties":{"h3":"8830c16b33fffff","emd_code":"2638056100","emd_name":"하단1동","area_km2":0.5481,"edge":false,"slope_mean":0.39,"elev_mean":0.3,"flood_hist_n":0,"flood_depth_max_m":null,"flood_risk_100y":null,"semi_basement_r":null,"elderly_alone_r":0.134,"bldg_age30_r":null,"shelter_min_walk":34,"pop":20513,"hh":11025,"elderly65_r":0.2564,"single_hh_r":0.5146,"source_level":"emd","flood_years":[],"landslide_hist_n":0},"geometry":{"type":"Polygon","coordinates":[[[128.9328,35.08735],[128.93195,35.08349],[128.93615,35.08133],[128.9412,35.08304],[128.94205,35.08691],[128.93785,35.08907],[128.9328,35.08735]]]}},{"type":"Feature","properties":{"h3":"8830c16b37fffff","emd_code":"2638056100","emd_name":"하단1동","area_km2":0.5481,"edge":true,"slope_mean":0.0,"elev_mean":0.0,"flood_hist_n":0,"flood_depth_max_m":null,"flood_risk_100y":null,"semi_basement_r":null,"elderly_alone_r":0.134,"bldg_age30_r":null,"shelter_min_walk":34,"pop":20513,"hh":11025,"elderly65_r":0.2564,"single_hh_r":0.5146,"source_level":"emd","flood_years":[],"landslide_hist_n":0},"geometry":{"type":"Polygon","coordinates":[[[128.9269,35.08178],[128.92605,35.07791],[128.93025,35.07575],[128.9353,35.07746],[128.93615,35.08133],[128.93195,35.08349],[128.9269,35.08178]]]}},{"type":"Feature","properties":{"h3":"8830c16b39fffff","emd_code":"2638056100","emd_name":"하단1동","area_km2":0.5479,"edge":true,"slope_mean":1.06,"elev_mean":1.2,"flood_hist_n":0,"flood_depth_max_m":null,"flood_risk_100y":null,"semi_basement_r":null,"elderly_alone_r":0.134,"bldg_age30_r":null,"shelter_min_walk":14,"pop":20513,"hh":11025,"elderly65_r":0.2564,"single_hh_r":0.5146,"source_level":"emd","flood_years":[],"landslide_hist_n":0},"geometry":{"type":"Polygon","coordinates":[[[128.92021,35.09382],[128.91936,35.08995],[128.92356,35.0878],[128.92861,35.08951],[128.92946,35.09338],[128.92526,35.09553],[128.92021,35.09382]]]}},{"type":"Feature","properties":{"h3":"8830c16b3bfffff","emd_code":"2638056100","emd_name":"하단1동","area_km2":0.5479,"edge":false,"slope_mean":0.87,"elev_mean":0.6,"flood_hist_n":0,"flood_depth_max_m":null,"flood_risk_100y":null,"semi_basement_r":null,"elderly_alone_r":0.134,"bldg_age30_r":null,"shelter_min_walk":25,"pop":20513,"hh":11025,"elderly65_r":0.2564,"single_hh_r":0.5146,"source_level":"emd","flood_years":[],"landslide_hist_n":0},"geometry":{"type":"Polygon","coordinates":[[[128.92946,35.09338],[128.92861,35.08951],[128.9328,35.08735],[128.93785,35.08907],[128.9387,35.09293],[128.93451,35.09509],[128.92946,35.09338]]]}},{"type":"Feature","properties":{"h3":"8830c3a6d1fffff","emd_code":"2638060100","emd_name":"다대1동","area_km2":0.5491,"edge":true,"slope_mean":1.98,"elev_mean":1.5,"flood_hist_n":0,"flood_depth_max_m":null,"flood_risk_100y":null,"semi_basement_r":null,"elderly_alone_r":0.2042,"bldg_age30_r":null,"shelter_min_walk":29,"pop":34241,"hh":16436,"elderly65_r":0.2684,"single_hh_r":0.4084,"source_level":"emd","flood_years":[],"landslide_hist_n":0},"geometry":{"type":"Polygon","coordinates":[[[128.9629,35.03312],[128.96205,35.02925],[128.96625,35.02709],[128.97129,35.0288],[128.97215,35.03267],[128.96795,35.03483],[128.9629,35.03312]]]}},{"type":"Feature","properties":{"h3":"8830c3a6d9fffff","emd_code":"2638060100","emd_name":"다대1동","area_km2":0.549,"edge":false,"slope_mean":5.13,"elev_mean":6.9,"flood_hist_n":0,"flood_depth_max_m":null,"flood_risk_100y":null,"semi_basement_r":null,"elderly_alone_r":0.2042,"bldg_age30_r":null,"shelter_min_walk":19,"pop":34241,"hh":16436,"elderly65_r":0.2684,"single_hh_r":0.4084,"source_level":"emd","flood_years":[],"landslide_hist_n":0},"geometry":{"type":"Polygon","coordinates":[[[128.95956,35.03915],[128.95871,35.03528],[128.9629,35.03312],[128.96795,35.03483],[128.9688,35.0387],[128.96461,35.04086],[128.95956,35.03915]]]}},{"type":"Feature","properties":{"h3":"8830c3a6dbfffff","emd_code":"2638060100","emd_name":"다대1동","area_km2":0.549,"edge":true,"slope_mean":3.31,"elev_mean":6.2,"flood_hist_n":0,"flood_depth_max_m":null,"flood_risk_100y":null,"semi_basement_r":null,"elderly_alone_r":0.2042,"bldg_age30_r":null,"shelter_min_walk":22,"pop":34241,"hh":16436,"elderly65_r":0.2684,"single_hh_r":0.4084,"source_level":"emd","flood_years":[],"landslide_hist_n":0},"geometry":{"type":"Polygon","coordinates":[[[128.9688,35.0387],[128.96795,35.03483],[128.97215,35.03267],[128.9772,35.03438],[128.97805,35.03825],[128.97385,35.04041],[128.9688,35.0387]]]}}]}