{"type":"FeatureCollection","name":"grid_26410_h3r8","meta":{"sgg_code":"26410","h3_res":8,"n_cells":148,"dem":"Copernicus GLO-30 (bbox-mean)","crs":"EPSG:4326","jumin_basis":"2026-07","flood_src":"행안부 침수흔적도(전국, 재난안전데이터공유플랫폼)","landslide_src":"행안부 산사태 발생이력"},"features":[{"type":"Feature","properties":{"h3":"8830c16019fffff","emd_code":"2641061000","emd_name":"장전2동","area_km2":0.5462,"edge":true,"slope_mean":16.14,"elev_mean":492.6,"flood_hist_n":0,"flood_depth_max_m":null,"flood_risk_100y":null,"semi_basement_r":null,"elderly_alone_r":0.1201,"bldg_age30_r":null,"shelter_min_walk":26,"pop":26199,"hh":11996,"elderly65_r":0.2134,"single_hh_r":0.411,"source_level":"emd","flood_years":[],"landslide_hist_n":0},"geometry":{"type":"Polygon","coordinates":[[[129.05266,35.22791],[129.0518,35.22405],[129.056,35.2219],[129.06106,35.2236],[129.06191,35.22746],[129.05771,35.22961],[129.05266,35.22791]]]}},{"type":"Feature","properties":{"h3":"8830c1601bfffff","emd_code":"2641061000","emd_name":"장전2동","area_km2":0.5463,"edge":true,"slope_mean":23.31,"elev_mean":361.9,"flood_hist_n":0,"flood_depth_max_m":null,"flood_risk_100y":null,"semi_basement_r":null,"elderly_alone_r":0.1201,"bldg_age30_r":null,"shelter_min_walk":14,"pop":26199,"hh":11996,"elderly65_r":0.2134,"single_hh_r":0.411,"source_level":"emd","flood_years":[],"landslide_hist_n":0},"geometry":{"type":"Polygon","coordinates":[[[129.06191,35.22746],[129.06106,35.2236],[129.06526,35.22145],[129.07031,35.22315],[129.07117,35.22701],[129.06697,35.22916],[129.06191,35.22746]]]}},{"type":"Feature","properties":{"h3":"8830c16051fffff","emd_code":"2641070000","emd_name":"금성동","area_km2":0.5461,"edge":true,"slope_mean":24.94,"elev_mean":537.6,"flood_hist_n":0,"flood_depth_max_m":null,"flood_risk_100y":null,"semi_basement_r":null,"elderly_alone_r":0.2831,"bldg_age30_r":null,"shelter_min_walk":32,"pop":854,"hh":438,"elderly65_r":0.3852,"single_hh_r":0.4726,"source_level":"emd","flood_years":[],"landslide_hist_n":0},"geometry":{"type":"Polygon","coordinates":[[[129.04006,35.23436],[129.03921,35.23051],[129.04341,35.22836],[129.04846,35.23006],[129.04931,35.23392],[129.04511,35.23607],[129.04006,35.23436]]]}},{"type":"Feature","properties":{"h3":"8830c16053fffff","emd_code":"2641070000","emd_name":"금성동","area_km2":0.5461,"edge":false,"slope_mean":14.47,"elev_mean":517.3,"flood_hist_n":0,"flood_depth_max_m":null,"flood_risk_100y":null,"semi_basement_r":null,"elderly_alone_r":0.2831,"bldg_age30_r":null,"shelter_min_walk":31,"pop":854,"hh":438,"elderly65_r":0.3852,"single_hh_r":0.4726,"source_level":"emd","flood_years":[],"landslide_hist_n":0},"geometry":{"type":"Polygon","coordinates":[[[129.04931,35.23392],[129.04846,35.23006],[129.05266,35.22791],[129.05771,35.22961],[129.05857,35.23347],[129.05437,35.23562],[129.04931,35.23392]]]}},{"type":"Feature","properties":{"h3":"8830c1605bfffff","emd_code":"2641070000","emd_name":"금성동","area_km2":0.546,"edge":false,"slope_mean":18.98,"elev_mean":483.3,"flood_hist_n":0,"flood_depth_max_m":null,"flood_risk_100y":null,"semi_basement_r":null,"elderly_alone_r":0.2831,"bldg_age30_r":null,"shelter_min_walk":38,"pop":854,"hh":438,"elderly65_r":0.3852,"single_hh_r":0.4726,"source_level":"emd","flood_years":[],"landslide_hist_n":0},"geometry":{"type":"Polygon","coordinates":[[[129.04597,35.23992],[129.04511,35.23607],[129.04931,35.23392],[129.05437,35.23562],[129.05522,35.23948],[129.05102,35.24163],[129.04597,35.23992]]]}},{"type":"Feature","properties":{"h3":"8830c16081fffff","emd_code":"2641052000","emd_name":"서2동","area_km2":0.5467,"edge":true,"slope_mean":9.7,"elev_mean":47.1,"flood_hist_n":0,"flood_depth_max_m":null,"flood_risk_100y":null,"semi_basement_r":null,"elderly_alone_r":0.2617,"bldg_age30_r":null,"shelter_min_walk":3,"pop":7486,"hh":4269,"elderly65_r":0.3926,"single_hh_r":0.5301,"source_level":"emd","flood_years":[],"landslide_hist_n":0},"geometry":{"type":"Polygon","coordinates":[[[129.09637,35.21408],[129.09551,35.21023],[129.09971,35.20807],[129.10477,35.20977],[129.10562,35.21363],[129.10142,35.21579],[129.09637,35.21408]]]}},{"type":"Feature","properties":{"h3":"8830c16083fffff","emd_code":"2641052000","emd_name":"서2동","area_km2":0.5467,"edge":false,"slope_mean":15.71,"elev_mean":64.4,"flood_hist_n":0,"flood_depth_max_m":null,"flood_risk_100y":null,"semi_basement_r":null,"elderly_alone_r":0.2617,"bldg_age30_r":null,"shelter_min_walk":3,"pop":7486,"hh":4269,"elderly65_r":0.3926,"single_hh_r":0.5301,"source_level":"emd","flood_years":[],"landslide_hist_n":0},"geometry":{"type":"Polygon","coordinates":[[[129.10562,35.21363],[129.10477,35.20977],[129.10897,35.20762],[129.11402,35.20932],[129.11488,35.21318],[129.11068,35.21533],[129.10562,35.21363]]]}},{"type":"Feature","properties":{"h3":"8830c16089fffff","emd_code":"2641051000","emd_name":"서1동","area_km2":0.5466,"edge":false,"slope_mean":10.81,"elev_mean":66.0,"flood_hist_n":0,"flood_depth_max_m":null,"flood_risk_100y":null,"semi_basement_r":null,"elderly_alone_r":0.3134,"bldg_age30_r":null,"shelter_min_walk":4,"pop":3871,"hh":2495,"elderly65_r":0.4443,"single_hh_r":0.6317,"source_level":"emd","flood_years":[],"landslide_hist_n":0},"geometry":{"type":"Polygon","coordinates":[[[129.09302,35.2201],[129.09217,35.21624],[129.09637,35.21408],[129.10142,35.21579],[129.10228,35.21964],[129.09808,35.2218],[129.09302,35.2201]]]}},{"type":"Feature","properties":{"h3":"8830c1608bfffff","emd_code":"2641053000","emd_name":"서3동","area_km2":0.5466,"edge":false,"slope_mean":5.81,"elev_mean":30.1,"flood_hist_n":1,"flood_depth_max_m":0.3,"flood_risk_100y":null,"semi_basement_r":null,"elderly_alone_r":0.2667,"bldg_age30_r":null,"shelter_min_walk":2,"pop":9535,"hh":5460,"elderly65_r":0.411,"single_hh_r":0.5264,"source_level":"emd","flood_years":[2020],"landslide_hist_n":0},"geometry":{"type":"Polygon","coordinates":[[[129.10228,35.21964],[129.10142,35.21579],[129.10562,35.21363],[129.11068,35.21533],[129.11153,35.21919],[129.10733,35.22135],[129.10228,35.21964]]]}},{"type":"Feature","properties":{"h3":"8830c1608dfffff","emd_code":"2641059100","emd_name":"부곡4동","area_km2":0.5466,"edge":true,"slope_mean":16.05,"elev_mean":71.8,"flood_hist_n":0,"flood_depth_max_m":null,"flood_risk_100y":null,"semi_basement_r":null,"elderly_alone_r":0.2259,"bldg_age30_r":null,"shelter_min_walk":5,"pop":10923,"hh":5736,"elderly65_r":0.3592,"single_hh_r":0.4573,"source_level":"emd","flood_years":[],"landslide_hist_n":0},"geometry":{"type":"Polygon","coordinates":[[[129.08711,35.21454],[129.08626,35.21068],[129.09046,35.20852],[129.09551,35.21023],[129.09637,35.21408],[129.09217,35.21624],[129.08711,35.21454]]]}},{"type":"Feature","properties":{"h3":"8830c16095fffff","emd_code":"2641055500","emd_name":"금사회동동","area_km2":0.5468,"edge":true,"slope_mean":10.04,"elev_mean":26.0,"flood_hist_n":1,"flood_depth_max_m":0.292,"flood_risk_100y":null,"semi_basement_r":null,"elderly_alone_r":0.2706,"bldg_age30_r":null,"shelter_min_walk":10,"pop":6545,"hh":3839,"elderly65_r":0.4171,"single_hh_r":0.5387,"source_level":"emd","flood_years":[2014],"landslide_hist_n":0},"geometry":{"type":"Polygon","coordinates":[[[129.11488,35.21318],[129.11402,35.20932],[129.11822,35.20716],[129.12328,35.20886],[129.12413,35.21272],[129.11993,35.21488],[129.11488,35.21318]]]}},{"type":"Feature","properties":{"h3":"8830c16099fffff","emd_code":"2641055500","emd_name":"금사회동동","area_km2":0.5466,"edge":true,"slope_mean":12.68,"elev_mean":37.0,"flood_hist_n":0,"flood_depth_max_m":null,"flood_risk_100y":null,"semi_basement_r":null,"elderly_alone_r":0.2706,"bldg_age30_r":null,"shelter_min_walk":11,"pop":6545,"hh":3839,"elderly65_r":0.4171,"single_hh_r":0.5387,"source_level":"emd","flood_years":[],"landslide_hist_n":0},"geometry":{"type":"Polygon","coordinates":[[[129.11744,35.22475],[129.11659,35.22089],[129.12079,35.21874],[129.12584,35.22044],[129.1267,35.22429],[129.1225,35.22645],[129.11744,35.22475]]]}},{"type":"Feature","properties":{"h3":"8830c1609dfffff","emd_code":"2641055500","emd_name":"금사회동동","area_km2":0.5467,"edge":false,"slope_mean":7.27,"elev_mean":15.6,"flood_hist_n":2,"flood_depth_max_m":0.912,"flood_risk_100y":null,"semi_basement_r":null,"elderly_alone_r":0.2706,"bldg_age30_r":null,"shelter_min_walk":2,"pop":6545,"hh":3839,"elderly65_r":0.4171,"single_hh_r":0.5387,"source_level":"emd","flood_years":[2014,2020],"landslide_hist_n":0},"geometry":{"type":"Polygon","coordinates":[[[129.11153,35.21919],[129.11068,35.21533],[129.11488,35.21318],[129.11993,35.21488],[129.12079,35.21874],[129.11659,35.22089],[129.11153,35.21919]]]}},{"type":"Feature","properties":{"h3":"8830c160c1fffff","emd_code":"2641061000","emd_name":"장전2동","area_km2":0.5464,"edge":false,"slope_mean":4.31,"elev_mean":18.8,"flood_hist_n":1,"flood_depth_max_m":0.951,"flood_risk_100y":null,"semi_basement_r":null,"elderly_alone_r":0.1201,"bldg_age30_r":null,"shelter_min_walk":4,"pop":26199,"hh":11996,"elderly65_r":0.2134,"single_hh_r":0.411,"source_level":"emd","flood_years":[2014],"landslide_hist_n":0},"geometry":{"type":"Polygon","coordinates":[[[129.08042,35.22656],[129.07957,35.2227],[129.08377,35.22055],[129.08882,35.22225],[129.08968,35.22611],[129.08547,35.22826],[129.08042,35.22656]]]}},{"type":"Feature","properties":{"h3":"8830c160c3fffff","emd_code":"2641057000","emd_name":"부곡1동","area_km2":0.5464,"edge":false,"slope_mean":7.59,"elev_mean":42.3,"flood_hist_n":1,"flood_depth_max_m":0.498,"flood_risk_100y":null,"semi_basement_r":null,"elderly_alone_r":0.3111,"bldg_age30_r":null,"shelter_min_walk":4,"pop":6820,"hh":4050,"elderly65_r":0.4216,"single_hh_r":0.5647,"source_level":"emd","flood_years":[2014],"landslide_hist_n":0},"geometry":{"type":"Polygon","coordinates":[[[129.08968,35.22611],[129.08882,35.22225],[129.09302,35.2201],[129.09808,35.2218],[129.09893,35.22565],[129.09473,35.22781],[129.08968,35.22611]]]}},{"type":"Feature","properties":{"h3":"8830c160c7fffff","emd_code":"2641059100","emd_name":"부곡4동","area_km2":0.5465,"edge":false,"slope_mean":7.98,"elev_mean":29.4,"flood_hist_n":1,"flood_depth_max_m":0.954,"flood_risk_100y":null,"semi_basement_r":null,"elderly_alone_r":0.2259,"bldg_age30_r":null,"shelter_min_walk":2,"pop":10923,"hh":5736,"elderly65_r":0.3592,"single_hh_r":0.4573,"source_level":"emd","flood_years":[2014],"landslide_hist_n":0},"geometry":{"type":"Polygon","coordinates":[[[129.08377,35.22055],[129.08291,35.21669],[129.08711,35.21454],[129.09217,35.21624],[129.09302,35.2201],[129.08882,35.22225],[129.08377,35.22055]]]}},{"type":"Feature","properties":{"h3":"8830c160c9fffff","emd_code":"2641061000","emd_name":"장전2동","area_km2":0.5463,"edge":false,"slope_mean":7.28,"elev_mean":50.4,"flood_hist_n":0,"flood_depth_max_m":null,"flood_risk_100y":null,"semi_basement_r":null,"elderly_alone_r":0.1201,"bldg_age30_r":null,"shelter_min_walk":4,"pop":26199,"hh":11996,"elderly65_r":0.2134,"single_hh_r":0.411,"source_level":"emd","flood_years":[],"landslide_hist_n":0},"geometry":{"type":"Polygon","coordinates":[[[129.07707,35.23257],[129.07622,35.22871],[129.08042,35.22656],[129.08547,35.22826],[129.08633,35.23212],[129.08213,35.23427],[129.07707,35.23257]]]}},{"type":"Feature","properties":{"h3":"8830c160cbfffff","emd_code":"2641058000","emd_name":"부곡2동","area_km2":0.5463,"edge":false,"slope_mean":4.76,"elev_mean":25.5,"flood_hist_n":1,"flood_depth_max_m":0.699,"flood_risk_100y":null,"semi_basement_r":null,"elderly_alone_r":0.144,"bldg_age30_r":null,"shelter_min_walk":2,"pop":16422,"hh":7853,"elderly65_r":0.266,"single_hh_r":0.4011,"source_level":"emd","flood_years":[2014],"landslide_hist_n":0},"geometry":{"type":"Polygon","coordinates":[[[129.08633,35.23212],[129.08547,35.22826],[129.08968,35.22611],[129.09473,35.22781],[129.09558,35.23166],[129.09138,35.23382],[129.08633,35.23212]]]}},{"type":"Feature","properties":{"h3":"8830c160cdfffff","emd_code":"2641061000","emd_name":"장전2동","area_km2":0.5463,"edge":true,"slope_mean":15.09,"elev_mean":106.9,"flood_hist_n":0,"flood_depth_max_m":null,"flood_risk_100y":null,"semi_basement_r":null,"elderly_alone_r":0.1201,"bldg_age30_r":null,"shelter_min_walk":4,"pop":26199,"hh":11996,"elderly65_r":0.2134,"single_hh_r":0.411,"source_level":"emd","flood_years":[],"landslide_hist_n":0},"geometry":{"type":"Polygon","coordinates":[[[129.07117,35.22701],[129.07031,35.22315],[129.07451,35.221],[129.07957,35.2227],[129.08042,35.22656],[129.07622,35.22871],[129.07117,35.22701]]]}},{"type":"Feature","properties":{"h3":"8830c160d1fffff","emd_code":"2641055500","emd_name":"금사회동동","area_km2":0.5464,"edge":false,"slope_mean":20.58,"elev_mean":157.5,"flood_hist_n":0,"flood_depth_max_m":null,"flood_risk_100y":null,"semi_basement_r":null,"elderly_alone_r":0.2706,"bldg_age30_r":null,"shelter_min_walk":15,"pop":6545,"hh":3839,"elderly65_r":0.4171,"single_hh_r":0.5387,"source_level":"emd","flood_years":[],"landslide_hist_n":0},"geometry":{"type":"Polygon","coordinates":[[[129.10484,35.23121],[129.10399,35.22736],[129.10819,35.2252],[129.11324,35.2269],[129.1141,35.23076],[129.10989,35.23291],[129.10484,35.23121]]]}},{"type":"Feature","properties":{"h3":"8830c160d3fffff","emd_code":"2641055500","emd_name":"금사회동동","area_km2":0.5465,"edge":false,"slope_mean":12.59,"elev_mean":36.4,"flood_hist_n":1,"flood_depth_max_m":0.3,"flood_risk_100y":null,"semi_basement_r":null,"elderly_alone_r":0.2706,"bldg_age30_r":null,"shelter_min_walk":15,"pop":6545,"hh":3839,"elderly65_r":0.4171,"single_hh_r":0.5387,"source_level":"emd","flood_years":[2020],"landslide_hist_n":0},"geometry":{"type":"Polygon","coordinates":[[[129.1141,35.23076],[129.11324,35.2269],[129.11744,35.22475],[129.1225,35.22645],[129.12335,35.23031],[129.11915,35.23246],[129.1141,35.23076]]]}},{"type":"Feature","properties":{"h3":"8830c160d5fffff","emd_code":"2641053000","emd_name":"서3동","area_km2":0.5465,"edge":false,"slope_mean":17.18,"elev_mean":114.6,"flood_hist_n":0,"flood_depth_max_m":null,"flood_risk_100y":null,"semi_basement_r":null,"elderly_alone_r":0.2667,"bldg_age30_r":null,"shelter_min_walk":9,"pop":9535,"hh":5460,"elderly65_r":0.411,"single_hh_r":0.5264,"source_level":"emd","flood_years":[],"landslide_hist_n":0},"geometry":{"type":"Polygon","coordinates":[[[129.09893,35.22565],[129.09808,35.2218],[129.10228,35.21964],[129.10733,35.22135],[129.10819,35.2252],[129.10399,35.22736],[129.09893,35.22565]]]}},{"type":"Feature","properties":{"h3":"8830c160d7fffff","emd_code":"2641055500","emd_name":"금사회동동","area_km2":0.5465,"edge":false,"slope_mean":10.79,"elev_mean":48.1,"flood_hist_n":1,"flood_depth_max_m":0.912,"flood_risk_100y":null,"semi_basement_r":null,"elderly_alone_r":0.2706,"bldg_age30_r":null,"shelter_min_walk":4,"pop":6545,"hh":3839,"elderly65_r":0.4171,"single_hh_r":0.5387,"source_level":"emd","flood_years":[2014],"landslide_hist_n":0},"geometry":{"type":"Polygon","coordinates":[[[129.10819,35.2252],[129.10733,35.22135],[129.11153,35.21919],[129.11659,35.22089],[129.11744,35.22475],[129.11324,35.2269],[129.10819,35.2252]]]}},{"type":"Feature","properties":{"h3":"8830c160d9fffff","emd_code":"2641059000","emd_name":"부곡3동","area_km2":0.5463,"edge":false,"slope_mean":19.96,"elev_mean":170.9,"flood_hist_n":0,"flood_depth_max_m":null,"flood_risk_100y":null,"semi_basement_r":null,"elderly_alone_r":0.1459,"bldg_age30_r":null,"shelter_min_walk":15,"pop":14271,"hh":6794,"elderly65_r":0.271,"single_hh_r":0.4049,"source_level":"emd","flood_years":[],"landslide_hist_n":0},"geometry":{"type":"Polygon","coordinates":[[[129.10149,35.23722],[129.10064,35.23337],[129.10484,35.23121],[129.10989,35.23291],[129.11075,35.23677],[129.10655,35.23892],[129.10149,35.23722]]]}},{"type":"Feature","properties":{"h3":"8830c160dbfffff","emd_code":"2641055500","emd_name":"금사회동동","area_km2":0.5464,"edge":false,"slope_mean":15.89,"elev_mean":68.7,"flood_hist_n":0,"flood_depth_max_m":null,"flood_risk_100y":null,"semi_basement_r":null,"elderly_alone_r":0.2706,"bldg_age30_r":null,"shelter_min_walk":23,"pop":6545,"hh":3839,"elderly65_r":0.4171,"single_hh_r":0.5387,"source_level":"emd","flood_years":[],"landslide_hist_n":0},"geometry":{"type":"Polygon","coordinates":[[[129.11075,35.23677],[129.10989,35.23291],[129.1141,35.23076],[129.11915,35.23246],[129.12001,35.23632],[129.1158,35.23847],[129.11075,35.23677]]]}},{"type":"Feature","properties":{"h3":"8830c160ddfffff","emd_code":"2641058000","emd_name":"부곡2동","area_km2":0.5464,"edge":false,"slope_mean":19.94,"elev_mean":164.7,"flood_hist_n":0,"flood_depth_max_m":null,"flood_risk_100y":null,"semi_basement_r":null,"elderly_alone_r":0.144,"bldg_age30_r":null,"shelter_min_walk":6,"pop":16422,"hh":7853,"elderly65_r":0.266,"single_hh_r":0.4011,"source_level":"emd","flood_years":[],"landslide_hist_n":0},"geometry":{"type":"Polygon","coordinates":[[[129.09558,35.23166],[129.09473,35.22781],[129.09893,35.22565],[129.10399,35.22736],[129.10484,35.23121],[129.10064,35.23337],[129.09558,35.23166]]]}},{"type":"Feature","properties":{"h3":"8830c16211fffff","emd_code":"2641070000","emd_name":"금성동","area_km2":0.5455,"edge":true,"slope_mean":16.42,"elev_mean":423.2,"flood_hist_n":0,"flood_depth_max_m":null,"flood_risk_100y":null,"semi_basement_r":null,"elderly_alone_r":0.2831,"bldg_age30_r":null,"shelter_min_walk":13,"pop":854,"hh":438,"elderly65_r":0.3852,"single_hh_r":0.4726,"source_level":"emd","flood_years":[],"landslide_hist_n":0},"geometry":{"type":"Polygon","coordinates":[[[129.03258,35.26394],[129.03173,35.26009],[129.03593,35.25794],[129.04098,35.25964],[129.04184,35.2635],[129.03764,35.26565],[129.03258,35.26394]]]}},{"type":"Feature","properties":{"h3":"8830c16213fffff","emd_code":"2641070000","emd_name":"금성동","area_km2":0.5456,"edge":false,"slope_mean":14.25,"elev_mean":378.7,"flood_hist_n":0,"flood_depth_max_m":null,"flood_risk_100y":null,"semi_basement_r":null,"elderly_alone_r":0.2831,"bldg_age30_r":null,"shelter_min_walk":2,"pop":854,"hh":438,"elderly65_r":0.3852,"single_hh_r":0.4726,"source_level":"emd","flood_years":[],"landslide_hist_n":0},"geometry":{"type":"Polygon","coordinates":[[[129.04184,35.2635],[129.04098,35.25964],[129.04518,35.25749],[129.05024,35.2592],[129.05109,35.26305],[129.04689,35.2652],[129.04184,35.2635]]]}},{"type":"Feature","properties":{"h3":"8830c16217fffff","emd_code":"2641070000","emd_name":"금성동","area_km2":0.5457,"edge":true,"slope_mean":18.02,"elev_mean":292.8,"flood_hist_n":0,"flood_depth_max_m":null,"flood_risk_100y":null,"semi_basement_r":null,"elderly_alone_r":0.2831,"bldg_age30_r":null,"shelter_min_walk":11,"pop":854,"hh":438,"elderly65_r":0.3852,"single_hh_r":0.4726,"source_level":"emd","flood_years":[],"landslide_hist_n":0},"geometry":{"type":"Polygon","coordinates":[[[129.03593,35.25794],[129.03507,35.25409],[129.03927,35.25193],[129.04433,35.25364],[129.04518,35.25749],[129.04098,35.25964],[129.03593,35.25794]]]}},{"type":"Feature","properties":{"h3":"8830c1621bfffff","emd_code":"2641070000","emd_name":"금성동","area_km2":0.5455,"edge":false,"slope_mean":17.12,"elev_mean":492.3,"flood_hist_n":0,"flood_depth_max_m":null,"flood_risk_100y":null,"semi_basement_r":null,"elderly_alone_r":0.2831,"bldg_age30_r":null,"shelter_min_walk":13,"pop":854,"hh":438,"elderly65_r":0.3852,"single_hh_r":0.4726,"source_level":"emd","flood_years":[],"landslide_hist_n":0},"geometry":{"type":"Polygon","coordinates":[[[129.03849,35.2695],[129.03764,35.26565],[129.04184,35.2635],[129.04689,35.2652],[129.04774,35.26905],[129.04354,35.2712],[129.03849,35.2695]]]}},{"type":"Feature","properties":{"h3":"8830c16281fffff","emd_code":"2641069000","emd_name":"구서2동","area_km2":0.5459,"edge":false,"slope_mean":18.13,"elev_mean":253.0,"flood_hist_n":0,"flood_depth_max_m":null,"flood_risk_100y":null,"semi_basement_r":null,"elderly_alone_r":0.1348,"bldg_age30_r":null,"shelter_min_walk":14,"pop":29989,"hh":13145,"elderly65_r":0.2703,"single_hh_r":0.3177,"source_level":"emd","flood_years":[],"landslide_hist_n":0},"geometry":{"type":"Polygon","coordinates":[[[129.07294,35.25615],[129.07209,35.25229],[129.07629,35.25014],[129.08135,35.25184],[129.0822,35.2557],[129.078,35.25785],[129.07294,35.25615]]]}},{"type":"Feature","properties":{"h3":"8830c16283fffff","emd_code":"2641069000","emd_name":"구서2동","area_km2":0.5459,"edge":false,"slope_mean":9.91,"elev_mean":87.1,"flood_hist_n":0,"flood_depth_max_m":null,"flood_risk_100y":null,"semi_basement_r":null,"elderly_alone_r":0.1348,"bldg_age30_r":null,"shelter_min_walk":2,"pop":29989,"hh":13145,"elderly65_r":0.2703,"single_hh_r":0.3177,"source_level":"emd","flood_years":[],"landslide_hist_n":0},"geometry":{"type":"Polygon","coordinates":[[[129.0822,35.2557],[129.08135,35.25184],[129.08555,35.24969],[129.0906,35.25139],[129.09145,35.25525],[129.08725,35.2574],[129.0822,35.2557]]]}},{"type":"Feature","properties":{"h3":"8830c16285fffff","emd_code":"2641069000","emd_name":"구서2동","area_km2":0.5459,"edge":false,"slope_mean":19.44,"elev_mean":381.2,"flood_hist_n":0,"flood_depth_max_m":null,"flood_risk_100y":null,"semi_basement_r":null,"elderly_alone_r":0.1348,"bldg_age30_r":null,"shelter_min_walk":20,"pop":29989,"hh":13145,"elderly65_r":0.2703,"single_hh_r":0.3177,"source_level":"emd","flood_years":[],"landslide_hist_n":0},"geometry":{"type":"Polygon","coordinates":[[[129.06704,35.25059],[129.06618,35.24674],[129.07038,35.24458],[129.07544,35.24629],[129.07629,35.25014],[129.07209,35.25229],[129.06704,35.25059]]]}},{"type":"Feature","properties":{"h3":"8830c16287fffff","emd_code":"2641068000","emd_name":"구서1동","area_km2":0.546,"edge":false,"slope_mean":17.73,"elev_mean":178.7,"flood_hist_n":0,"flood_depth_max_m":null,"flood_risk_100y":null,"semi_basement_r":null,"elderly_alone_r":0.1389,"bldg_age30_r":null,"shelter_min_walk":11,"pop":18235,"hh":8008,"elderly65_r":0.2479,"single_hh_r":0.3224,"source_level":"emd","flood_years":[],"landslide_hist_n":0},"geometry":{"type":"Polygon","coordinates":[[[129.07629,35.25014],[129.07544,35.24629],[129.07964,35.24413],[129.08469,35.24584],[129.08555,35.24969],[129.08135,35.25184],[129.07629,35.25014]]]}},{"type":"Feature","properties":{"h3":"8830c16289fffff","emd_code":"2641067000","emd_name":"남산동","area_km2":0.5457,"edge":false,"slope_mean":21.42,"elev_mean":359.5,"flood_hist_n":0,"flood_depth_max_m":null,"flood_risk_100y":null,"semi_basement_r":null,"elderly_alone_r":0.1912,"bldg_age30_r":null,"shelter_min_walk":22,"pop":25407,"hh":13820,"elderly65_r":0.324,"single_hh_r":0.5058,"source_level":"emd","flood_years":[],"landslide_hist_n":0},"geometry":{"type":"Polygon","coordinates":[[[129.0696,35.26215],[129.06874,35.2583],[129.07294,35.25615],[129.078,35.25785],[129.07885,35.2617],[129.07465,35.26385],[129.0696,35.26215]]]}},{"type":"Feature","properties":{"h3":"8830c1628bfffff","emd_code":"2641069000","emd_name":"구서2동","area_km2":0.5458,"edge":false,"slope_mean":12.76,"elev_mean":133.1,"flood_hist_n":0,"flood_depth_max_m":null,"flood_risk_100y":null,"semi_basement_r":null,"elderly_alone_r":0.1348,"bldg_age30_r":null,"shelter_min_walk":10,"pop":29989,"hh":13145,"elderly65_r":0.2703,"single_hh_r":0.3177,"source_level":"emd","flood_years":[],"landslide_hist_n":0},"geometry":{"type":"Polygon","coordinates":[[[129.07885,35.2617],[129.078,35.25785],[129.0822,35.2557],[129.08725,35.2574],[129.08811,35.26125],[129.08391,35.2634],[129.07885,35.2617]]]}},{"type":"Feature","properties":{"h3":"8830c1628dfffff","emd_code":"2641069000","emd_name":"구서2동","area_km2":0.5458,"edge":false,"slope_mean":17.58,"elev_mean":475.9,"flood_hist_n":0,"flood_depth_max_m":null,"flood_risk_100y":null,"semi_basement_r":null,"elderly_alone_r":0.1348,"bldg_age30_r":null,"shelter_min_walk":27,"pop":29989,"hh":13145,"elderly65_r":0.2703,"single_hh_r":0.3177,"source_level":"emd","flood_years":[],"landslide_hist_n":0},"geometry":{"type":"Polygon","coordinates":[[[129.06369,35.2566],[129.06284,35.25274],[129.06704,35.25059],[129.07209,35.25229],[129.07294,35.25615],[129.06874,35.2583],[129.06369,35.2566]]]}},{"type":"Feature","properties":{"h3":"8830c16291fffff","emd_code":"2641063500","emd_name":"선두구동","area_km2":0.5459,"edge":false,"slope_mean":11.28,"elev_mean":75.2,"flood_hist_n":0,"flood_depth_max_m":null,"flood_risk_100y":null,"semi_basement_r":null,"elderly_alone_r":0.269,"bldg_age30_r":null,"shelter_min_walk":12,"pop":1929,"hh":1108,"elderly65_r":0.4469,"single_hh_r":0.5433,"source_level":"emd","flood_years":[],"landslide_hist_n":0},"geometry":{"type":"Polygon","coordinates":[[[129.09736,35.2608],[129.09651,35.25695],[129.10071,35.25479],[129.10577,35.2565],[129.10662,35.26035],[129.10242,35.2625],[129.09736,35.2608]]]}},{"type":"Feature","properties":{"h3":"8830c16293fffff","emd_code":"2641063500","emd_name":"선두구동","area_km2":0.5459,"edge":false,"slope_mean":7.29,"elev_mean":48.1,"flood_hist_n":0,"flood_depth_max_m":null,"flood_risk_100y":null,"semi_basement_r":null,"elderly_alone_r":0.269,"bldg_age30_r":null,"shelter_min_walk":25,"pop":1929,"hh":1108,"elderly65_r":0.4469,"single_hh_r":0.5433,"source_level":"emd","flood_years":[],"landslide_hist_n":0},"geometry":{"type":"Polygon","coordinates":[[[129.10662,35.26035],[129.10577,35.2565],[129.10997,35.25434],[129.11502,35.25604],[129.11588,35.2599],[129.11168,35.26205],[129.10662,35.26035]]]}},{"type":"Feature","properties":{"h3":"8830c16295fffff","emd_code":"2641068000","emd_name":"구서1동","area_km2":0.546,"edge":false,"slope_mean":10.59,"elev_mean":51.6,"flood_hist_n":0,"flood_depth_max_m":null,"flood_risk_100y":null,"semi_basement_r":null,"elderly_alone_r":0.1389,"bldg_age30_r":null,"shelter_min_walk":3,"pop":18235,"hh":8008,"elderly65_r":0.2479,"single_hh_r":0.3224,"source_level":"emd","flood_years":[],"landslide_hist_n":0},"geometry":{"type":"Polygon","coordinates":[[[129.09145,35.25525],[129.0906,35.25139],[129.0948,35.24924],[129.09986,35.25094],[129.10071,35.25479],[129.09651,35.25695],[129.09145,35.25525]]]}},{"type":"Feature","properties":{"h3":"8830c16297fffff","emd_code":"2641059000","emd_name":"부곡3동","area_km2":0.546,"edge":false,"slope_mean":11.92,"elev_mean":70.3,"flood_hist_n":0,"flood_depth_max_m":null,"flood_risk_100y":null,"semi_basement_r":null,"elderly_alone_r":0.1459,"bldg_age30_r":null,"shelter_min_walk":16,"pop":14271,"hh":6794,"elderly65_r":0.271,"single_hh_r":0.4049,"source_level":"emd","flood_years":[],"landslide_hist_n":0},"geometry":{"type":"Polygon","coordinates":[[[129.10071,35.25479],[129.09986,35.25094],[129.10406,35.24879],[129.10911,35.25049],[129.10997,35.25434],[129.10577,35.2565],[129.10071,35.25479]]]}},{"type":"Feature","properties":{"h3":"8830c16299fffff","emd_code":"2641063500","emd_name":"선두구동","area_km2":0.5458,"edge":false,"slope_mean":12.82,"elev_mean":87.7,"flood_hist_n":0,"flood_depth_max_m":null,"flood_risk_100y":null,"semi_basement_r":null,"elderly_alone_r":0.269,"bldg_age30_r":null,"shelter_min_walk":6,"pop":1929,"hh":1108,"elderly65_r":0.4469,"single_hh_r":0.5433,"source_level":"emd","flood_years":[],"landslide_hist_n":0},"geometry":{"type":"Polygon","coordinates":[[[129.09402,35.26681],[129.09316,35.26295],[129.09736,35.2608],[129.10242,35.2625],[129.10327,35.26636],[129.09907,35.26851],[129.09402,35.26681]]]}},{"type":"Feature","properties":{"h3":"8830c1629bfffff","emd_code":"2641063500","emd_name":"선두구동","area_km2":0.5458,"edge":false,"slope_mean":9.57,"elev_mean":59.3,"flood_hist_n":0,"flood_depth_max_m":null,"flood_risk_100y":null,"semi_basement_r":null,"elderly_alone_r":0.269,"bldg_age30_r":null,"shelter_min_walk":18,"pop":1929,"hh":1108,"elderly65_r":0.4469,"single_hh_r":0.5433,"source_level":"emd","flood_years":[],"landslide_hist_n":0},"geometry":{"type":"Polygon","coordinates":[[[129.10327,35.26636],[129.10242,35.2625],[129.10662,35.26035],[129.11168,35.26205],[129.11253,35.2659],[129.10833,35.26806],[129.10327,35.26636]]]}},{"type":"Feature","properties":{"h3":"8830c1629dfffff","emd_code":"2641067000","emd_name":"남산동","area_km2":0.5458,"edge":false,"slope_mean":9.2,"elev_mean":61.6,"flood_hist_n":1,"flood_depth_max_m":0.746,"flood_risk_100y":null,"semi_basement_r":null,"elderly_alone_r":0.1912,"bldg_age30_r":null,"shelter_min_walk":1,"pop":25407,"hh":13820,"elderly65_r":0.324,"single_hh_r":0.5058,"source_level":"emd","flood_years":[2014],"landslide_hist_n":0},"geometry":{"type":"Polygon","coordinates":[[[129.08811,35.26125],[129.08725,35.2574],[129.09145,35.25525],[129.09651,35.25695],[129.09736,35.2608],[129.09316,35.26295],[129.08811,35.26125]]]}},{"type":"Feature","properties":{"h3":"8830c162a1fffff","emd_code":"2641061000","emd_name":"장전2동","area_km2":0.5461,"edge":false,"slope_mean":17.7,"elev_mean":265.7,"flood_hist_n":0,"flood_depth_max_m":null,"flood_risk_100y":null,"semi_basement_r":null,"elderly_alone_r":0.1201,"bldg_age30_r":null,"shelter_min_walk":18,"pop":26199,"hh":11996,"elderly65_r":0.2134,"single_hh_r":0.411,"source_level":"emd","flood_years":[],"landslide_hist_n":0},"geometry":{"type":"Polygon","coordinates":[[[129.06447,35.23903],[129.06362,35.23517],[129.06782,35.23302],[129.07287,35.23472],[129.07373,35.23858],[129.06953,35.24073],[129.06447,35.23903]]]}},{"type":"Feature","properties":{"h3":"8830c162a3fffff","emd_code":"2641061000","emd_name":"장전2동","area_km2":0.5462,"edge":false,"slope_mean":12.25,"elev_mean":110.2,"flood_hist_n":0,"flood_depth_max_m":null,"flood_risk_100y":null,"semi_basement_r":null,"elderly_alone_r":0.1201,"bldg_age30_r":null,"shelter_min_walk":6,"pop":26199,"hh":11996,"elderly65_r":0.2134,"single_hh_r":0.411,"source_level":"emd","flood_years":[],"landslide_hist_n":0},"geometry":{"type":"Polygon","coordinates":[[[129.07373,35.23858],[129.07287,35.23472],[129.07707,35.23257],[129.08213,35.23427],[129.08298,35.23813],[129.07878,35.24028],[129.07373,35.23858]]]}},{"type":"Feature","properties":{"h3":"8830c162a5fffff","emd_code":"2641061000","emd_name":"장전2동","area_km2":0.5462,"edge":false,"slope_mean":21.24,"elev_mean":423.0,"flood_hist_n":0,"flood_depth_max_m":null,"flood_risk_100y":null,"semi_basement_r":null,"elderly_alone_r":0.1201,"bldg_age30_r":null,"shelter_min_walk":19,"pop":26199,"hh":11996,"elderly65_r":0.2134,"single_hh_r":0.411,"source_level":"emd","flood_years":[],"landslide_hist_n":0},"geometry":{"type":"Polygon","coordinates":[[[129.05857,35.23347],[129.05771,35.22961],[129.06191,35.22746],[129.06697,35.22916],[129.06782,35.23302],[129.06362,35.23517],[129.05857,35.23347]]]}},{"type":"Feature","properties":{"h3":"8830c162a7fffff","emd_code":"2641061000","emd_name":"장전2동","area_km2":0.5462,"edge":false,"slope_mean":15.82,"elev_mean":185.6,"flood_hist_n":0,"flood_depth_max_m":null,"flood_risk_100y":null,"semi_basement_r":null,"elderly_alone_r":0.1201,"bldg_age30_r":null,"shelter_min_walk":8,"pop":26199,"hh":11996,"elderly65_r":0.2134,"single_hh_r":0.411,"source_level":"emd","flood_years":[],"landslide_hist_n":0},"geometry":{"type":"Polygon","coordinates":[[[129.06782,35.23302],[129.06697,35.22916],[129.07117,35.22701],[129.07622,35.22871],[129.07707,35.23257],[129.07287,35.23472],[129.06782,35.23302]]]}},{"type":"Feature","properties":{"h3":"8830c162a9fffff","emd_code":"2641060000","emd_name":"장전1동","area_km2":0.546,"edge":false,"slope_mean":17.2,"elev_mean":366.6,"flood_hist_n":0,"flood_depth_max_m":null,"flood_risk_100y":null,"semi_basement_r":null,"elderly_alone_r":0.0732,"bldg_age30_r":null,"shelter_min_walk":23,"pop":18153,"hh":12025,"elderly65_r":0.172,"single_hh_r":0.7171,"source_level":"emd","flood_years":[],"landslide_hist_n":0},"geometry":{"type":"Polygon","coordinates":[[[129.06113,35.24503],[129.06027,35.24118],[129.06447,35.23903],[129.06953,35.24073],[129.07038,35.24458],[129.06618,35.24674],[129.06113,35.24503]]]}},{"type":"Feature","properties":{"h3":"8830c162abfffff","emd_code":"2641060000","emd_name":"장전1동","area_km2":0.546,"edge":false,"slope_mean":17.83,"elev_mean":231.0,"flood_hist_n":0,"flood_depth_max_m":null,"flood_risk_100y":null,"semi_basement_r":null,"elderly_alone_r":0.0732,"bldg_age30_r":null,"shelter_min_walk":12,"pop":18153,"hh":12025,"elderly65_r":0.172,"single_hh_r":0.7171,"source_level":"emd","flood_years":[],"landslide_hist_n":0},"geometry":{"type":"Polygon","coordinates":[[[129.07038,35.24458],[129.06953,35.24073],[129.07373,35.23858],[129.07878,35.24028],[129.07964,35.24413],[129.07544,35.24629],[129.07038,35.24458]]]}},{"type":"Feature","properties":{"h3":"8830c162adfffff","emd_code":"2641070000","emd_name":"금성동","area_km2":0.5461,"edge":false,"slope_mean":18.12,"elev_mean":441.7,"flood_hist_n":0,"flood_depth_max_m":null,"flood_risk_100y":null,"semi_basement_r":null,"elderly_alone_r":0.2831,"bldg_age30_r":null,"shelter_min_walk":28,"pop":854,"hh":438,"elderly65_r":0.3852,"single_hh_r":0.4726,"source_level":"emd","flood_years":[],"landslide_hist_n":0},"geometry":{"type":"Polygon","coordinates":[[[129.05522,35.23948],[129.05437,35.23562],[129.05857,35.23347],[129.06362,35.23517],[129.06447,35.23903],[129.06027,35.24118],[129.05522,35.23948]]]}},{"type":"Feature","properties":{"h3":"8830c162b1fffff","emd_code":"2641059000","emd_name":"부곡3동","area_km2":0.5461,"edge":false,"slope_mean":7.32,"elev_mean":38.8,"flood_hist_n":1,"flood_depth_max_m":0.238,"flood_risk_100y":null,"semi_basement_r":null,"elderly_alone_r":0.1459,"bldg_age30_r":null,"shelter_min_walk":3,"pop":14271,"hh":6794,"elderly65_r":0.271,"single_hh_r":0.4049,"source_level":"emd","flood_years":[2014],"landslide_hist_n":0},"geometry":{"type":"Polygon","coordinates":[[[129.08889,35.24368],[129.08804,35.23983],[129.09224,35.23767],[129.09729,35.23938],[129.09815,35.24323],[129.09395,35.24538],[129.08889,35.24368]]]}},{"type":"Feature","properties":{"h3":"8830c162b3fffff","emd_code":"2641059000","emd_name":"부곡3동","area_km2":0.5462,"edge":false,"slope_mean":17.61,"elev_mean":130.1,"flood_hist_n":0,"flood_depth_max_m":null,"flood_risk_100y":null,"semi_basement_r":null,"elderly_alone_r":0.1459,"bldg_age30_r":null,"shelter_min_walk":11,"pop":14271,"hh":6794,"elderly65_r":0.271,"single_hh_r":0.4049,"source_level":"emd","flood_years":[],"landslide_hist_n":0},"geometry":{"type":"Polygon","coordinates":[[[129.09815,35.24323],[129.09729,35.23938],[129.10149,35.23722],[129.10655,35.23892],[129.1074,35.24278],[129.1032,35.24493],[129.09815,35.24323]]]}},{"type":"Feature","properties":{"h3":"8830c162b5fffff","emd_code":"2641060000","emd_name":"장전1동","area_km2":0.5462,"edge":false,"slope_mean":4.62,"elev_mean":29.6,"flood_hist_n":1,"flood_depth_max_m":0.421,"flood_risk_100y":null,"semi_basement_r":null,"elderly_alone_r":0.0732,"bldg_age30_r":null,"shelter_min_walk":3,"pop":18153,"hh":12025,"elderly65_r":0.172,"single_hh_r":0.7171,"source_level":"emd","flood_years":[2014],"landslide_hist_n":0},"geometry":{"type":"Polygon","coordinates":[[[129.08298,35.23813],[129.08213,35.23427],[129.08633,35.23212],[129.09138,35.23382],[129.09224,35.23767],[129.08804,35.23983],[129.08298,35.23813]]]}},{"type":"Feature","properties":{"h3":"8830c162b7fffff","emd_code":"2641059000","emd_name":"부곡3동","area_km2":0.5463,"edge":false,"slope_mean":13.34,"elev_mean":87.8,"flood_hist_n":0,"flood_depth_max_m":null,"flood_risk_100y":null,"semi_basement_r":null,"elderly_alone_r":0.1459,"bldg_age30_r":null,"shelter_min_walk":5,"pop":14271,"hh":6794,"elderly65_r":0.271,"single_hh_r":0.4049,"source_level":"emd","flood_years":[],"landslide_hist_n":0},"geometry":{"type":"Polygon","coordinates":[[[129.09224,35.23767],[129.09138,35.23382],[129.09558,35.23166],[129.10064,35.23337],[129.10149,35.23722],[129.09729,35.23938],[129.09224,35.23767]]]}},{"type":"Feature","properties":{"h3":"8830c162b9fffff","emd_code":"2641068000","emd_name":"구서1동","area_km2":0.546,"edge":false,"slope_mean":6.27,"elev_mean":39.7,"flood_hist_n":1,"flood_depth_max_m":0.329,"flood_risk_100y":null,"semi_basement_r":null,"elderly_alone_r":0.1389,"bldg_age30_r":null,"shelter_min_walk":8,"pop":18235,"hh":8008,"elderly65_r":0.2479,"single_hh_r":0.3224,"source_level":"emd","flood_years":[2014],"landslide_hist_n":0},"geometry":{"type":"Polygon","coordinates":[[[129.08555,35.24969],[129.08469,35.24584],[129.08889,35.24368],[129.09395,35.24538],[129.0948,35.24924],[129.0906,35.25139],[129.08555,35.24969]]]}},{"type":"Feature","properties":{"h3":"8830c162bbfffff","emd_code":"2641068000","emd_name":"구서1동","area_km2":0.5461,"edge":false,"slope_mean":10.98,"elev_mean":63.9,"flood_hist_n":0,"flood_depth_max_m":null,"flood_risk_100y":null,"semi_basement_r":null,"elderly_alone_r":0.1389,"bldg_age30_r":null,"shelter_min_walk":11,"pop":18235,"hh":8008,"elderly65_r":0.2479,"single_hh_r":0.3224,"source_level":"emd","flood_years":[],"landslide_hist_n":0},"geometry":{"type":"Polygon","coordinates":[[[129.0948,35.24924],[129.09395,35.24538],[129.09815,35.24323],[129.1032,35.24493],[129.10406,35.24879],[129.09986,35.25094],[129.0948,35.24924]]]}},{"type":"Feature","properties":{"h3":"8830c162bdfffff","emd_code":"2641060000","emd_name":"장전1동","area_km2":0.5461,"edge":false,"slope_mean":10.56,"elev_mean":67.0,"flood_hist_n":0,"flood_depth_max_m":null,"flood_risk_100y":null,"semi_basement_r":null,"elderly_alone_r":0.0732,"bldg_age30_r":null,"shelter_min_walk":1,"pop":18153,"hh":12025,"elderly65_r":0.172,"single_hh_r":0.7171,"source_level":"emd","flood_years":[],"landslide_hist_n":0},"geometry":{"type":"Polygon","coordinates":[[[129.07964,35.24413],[129.07878,35.24028],[129.08298,35.23813],[129.08804,35.23983],[129.08889,35.24368],[129.08469,35.24584],[129.07964,35.24413]]]}},{"type":"Feature","properties":{"h3":"8830c162c1fffff","emd_code":"2641070000","emd_name":"금성동","area_km2":0.5456,"edge":false,"slope_mean":20.48,"elev_mean":558.4,"flood_hist_n":0,"flood_depth_max_m":null,"flood_risk_100y":null,"semi_basement_r":null,"elderly_alone_r":0.2831,"bldg_age30_r":null,"shelter_min_walk":23,"pop":854,"hh":438,"elderly65_r":0.3852,"single_hh_r":0.4726,"source_level":"emd","flood_years":[],"landslide_hist_n":0},"geometry":{"type":"Polygon","coordinates":[[[129.057,35.2686],[129.05614,35.26475],[129.06034,35.2626],[129.0654,35.2643],[129.06625,35.26816],[129.06205,35.27031],[129.057,35.2686]]]}},{"type":"Feature","properties":{"h3":"8830c162c3fffff","emd_code":"2641067000","emd_name":"남산동","area_km2":0.5456,"edge":false,"slope_mean":20.07,"elev_mean":378.4,"flood_hist_n":0,"flood_depth_max_m":null,"flood_risk_100y":null,"semi_basement_r":null,"elderly_alone_r":0.1912,"bldg_age30_r":null,"shelter_min_walk":25,"pop":25407,"hh":13820,"elderly65_r":0.324,"single_hh_r":0.5058,"source_level":"emd","flood_years":[],"landslide_hist_n":0},"geometry":{"type":"Polygon","coordinates":[[[129.06625,35.26816],[129.0654,35.2643],[129.0696,35.26215],[129.07465,35.26385],[129.07551,35.26771],[129.07131,35.26986],[129.06625,35.26816]]]}},{"type":"Feature","properties":{"h3":"8830c162c5fffff","emd_code":"2641070000","emd_name":"금성동","area_km2":0.5456,"edge":false,"slope_mean":13.87,"elev_mean":474.4,"flood_hist_n":0,"flood_depth_max_m":null,"flood_risk_100y":null,"semi_basement_r":null,"elderly_alone_r":0.2831,"bldg_age30_r":null,"shelter_min_walk":12,"pop":854,"hh":438,"elderly65_r":0.3852,"single_hh_r":0.4726,"source_level":"emd","flood_years":[],"landslide_hist_n":0},"geometry":{"type":"Polygon","coordinates":[[[129.05109,35.26305],[129.05024,35.2592],[129.05444,35.25704],[129.05949,35.25875],[129.06034,35.2626],[129.05614,35.26475],[129.05109,35.26305]]]}},{"type":"Feature","properties":{"h3":"8830c162c7fffff","emd_code":"2641067000","emd_name":"남산동","area_km2":0.5457,"edge":false,"slope_mean":18.2,"elev_mean":522.0,"flood_hist_n":0,"flood_depth_max_m":null,"flood_risk_100y":null,"semi_basement_r":null,"elderly_alone_r":0.1912,"bldg_age30_r":null,"shelter_min_walk":25,"pop":25407,"hh":13820,"elderly65_r":0.324,"single_hh_r":0.5058,"source_level":"emd","flood_years":[],"landslide_hist_n":0},"geometry":{"type":"Polygon","coordinates":[[[129.06034,35.2626],[129.05949,35.25875],[129.06369,35.2566],[129.06874,35.2583],[129.0696,35.26215],[129.0654,35.2643],[129.06034,35.2626]]]}},{"type":"Feature","properties":{"h3":"8830c162c9fffff","emd_code":"2641070000","emd_name":"금성동","area_km2":0.5455,"edge":false,"slope_mean":15.42,"elev_mean":598.1,"flood_hist_n":0,"flood_depth_max_m":null,"flood_risk_100y":null,"semi_basement_r":null,"elderly_alone_r":0.2831,"bldg_age30_r":null,"shelter_min_walk":26,"pop":854,"hh":438,"elderly65_r":0.3852,"single_hh_r":0.4726,"source_level":"emd","flood_years":[],"landslide_hist_n":0},"geometry":{"type":"Polygon","coordinates":[[[129.05365,35.27461],[129.0528,35.27075],[129.057,35.2686],[129.06205,35.27031],[129.06291,35.27416],[129.05871,35.27631],[129.05365,35.27461]]]}},{"type":"Feature","properties":{"h3":"8830c162cbfffff","emd_code":"2641067000","emd_name":"남산동","area_km2":0.5455,"edge":false,"slope_mean":21.1,"elev_mean":484.8,"flood_hist_n":0,"flood_depth_max_m":null,"flood_risk_100y":null,"semi_basement_r":null,"elderly_alone_r":0.1912,"bldg_age30_r":null,"shelter_min_walk":27,"pop":25407,"hh":13820,"elderly65_r":0.324,"single_hh_r":0.5058,"source_level":"emd","flood_years":[],"landslide_hist_n":0},"geometry":{"type":"Polygon","coordinates":[[[129.06291,35.27416],[129.06205,35.27031],[129.06625,35.26816],[129.07131,35.26986],[129.07216,35.27371],[129.06796,35.27586],[129.06291,35.27416]]]}},{"type":"Feature","properties":{"h3":"8830c162cdfffff","emd_code":"2641070000","emd_name":"금성동","area_km2":0.5455,"edge":false,"slope_mean":12.73,"elev_mean":478.3,"flood_hist_n":0,"flood_depth_max_m":null,"flood_risk_100y":null,"semi_basement_r":null,"elderly_alone_r":0.2831,"bldg_age30_r":null,"shelter_min_walk":13,"pop":854,"hh":438,"elderly65_r":0.3852,"single_hh_r":0.4726,"source_level":"emd","flood_years":[],"landslide_hist_n":0},"geometry":{"type":"Polygon","coordinates":[[[129.04774,35.26905],[129.04689,35.2652],[129.05109,35.26305],[129.05614,35.26475],[129.057,35.2686],[129.0528,35.27075],[129.04774,35.26905]]]}},{"type":"Feature","properties":{"h3":"8830c162d1fffff","emd_code":"2641067000","emd_name":"남산동","area_km2":0.5456,"edge":false,"slope_mean":11.54,"elev_mean":121.3,"flood_hist_n":0,"flood_depth_max_m":null,"flood_risk_100y":null,"semi_basement_r":null,"elderly_alone_r":0.1912,"bldg_age30_r":null,"shelter_min_walk":4,"pop":25407,"hh":13820,"elderly65_r":0.324,"single_hh_r":0.5058,"source_level":"emd","flood_years":[],"landslide_hist_n":0},"geometry":{"type":"Polygon","coordinates":[[[129.08142,35.27326],[129.08056,35.26941],[129.08476,35.26726],[129.08982,35.26896],[129.09067,35.27281],[129.08647,35.27496],[129.08142,35.27326]]]}},{"type":"Feature","properties":{"h3":"8830c162d3fffff","emd_code":"2641067000","emd_name":"남산동","area_km2":0.5457,"edge":false,"slope_mean":12.21,"elev_mean":97.5,"flood_hist_n":0,"flood_depth_max_m":null,"flood_risk_100y":null,"semi_basement_r":null,"elderly_alone_r":0.1912,"bldg_age30_r":null,"shelter_min_walk":2,"pop":25407,"hh":13820,"elderly65_r":0.324,"single_hh_r":0.5058,"source_level":"emd","flood_years":[],"landslide_hist_n":0},"geometry":{"type":"Polygon","coordinates":[[[129.09067,35.27281],[129.08982,35.26896],[129.09402,35.26681],[129.09907,35.26851],[129.09993,35.27236],[129.09573,35.27451],[129.09067,35.27281]]]}},{"type":"Feature","properties":{"h3":"8830c162d5fffff","emd_code":"2641067000","emd_name":"남산동","area_km2":0.5457,"edge":false,"slope_mean":15.22,"elev_mean":192.1,"flood_hist_n":0,"flood_depth_max_m":null,"flood_risk_100y":null,"semi_basement_r":null,"elderly_alone_r":0.1912,"bldg_age30_r":null,"shelter_min_walk":13,"pop":25407,"hh":13820,"elderly65_r":0.324,"single_hh_r":0.5058,"source_level":"emd","flood_years":[],"landslide_hist_n":0},"geometry":{"type":"Polygon","coordinates":[[[129.07551,35.26771],[129.07465,35.26385],[129.07885,35.2617],[129.08391,35.2634],[129.08476,35.26726],[129.08056,35.26941],[129.07551,35.26771]]]}},{"type":"Feature","properties":{"h3":"8830c162d7fffff","emd_code":"2641067000","emd_name":"남산동","area_km2":0.5457,"edge":false,"slope_mean":7.78,"elev_mean":76.1,"flood_hist_n":1,"flood_depth_max_m":0.147,"flood_risk_100y":null,"semi_basement_r":null,"elderly_alone_r":0.1912,"bldg_age30_r":null,"shelter_min_walk":3,"pop":25407,"hh":13820,"elderly65_r":0.324,"single_hh_r":0.5058,"source_level":"emd","flood_years":[2014],"landslide_hist_n":0},"geometry":{"type":"Polygon","coordinates":[[[129.08476,35.26726],[129.08391,35.2634],[129.08811,35.26125],[129.09316,35.26295],[129.09402,35.26681],[129.08982,35.26896],[129.08476,35.26726]]]}},{"type":"Feature","properties":{"h3":"8830c162d9fffff","emd_code":"2641066500","emd_name":"청룡노포동","area_km2":0.5455,"edge":false,"slope_mean":15.2,"elev_mean":182.7,"flood_hist_n":0,"flood_depth_max_m":null,"flood_risk_100y":null,"semi_basement_r":null,"elderly_alone_r":0.2129,"bldg_age30_r":null,"shelter_min_walk":5,"pop":8844,"hh":4308,"elderly65_r":0.3703,"single_hh_r":0.4041,"source_level":"emd","flood_years":[],"landslide_hist_n":0},"geometry":{"type":"Polygon","coordinates":[[[129.07807,35.27926],[129.07722,35.27541],[129.08142,35.27326],[129.08647,35.27496],[129.08733,35.27882],[129.08312,35.28097],[129.07807,35.27926]]]}},{"type":"Feature","properties":{"h3":"8830c162dbfffff","emd_code":"2641066500","emd_name":"청룡노포동","area_km2":0.5456,"edge":false,"slope_mean":10.81,"elev_mean":99.6,"flood_hist_n":0,"flood_depth_max_m":null,"flood_risk_100y":null,"semi_basement_r":null,"elderly_alone_r":0.2129,"bldg_age30_r":null,"shelter_min_walk":3,"pop":8844,"hh":4308,"elderly65_r":0.3703,"single_hh_r":0.4041,"source_level":"emd","flood_years":[],"landslide_hist_n":0},"geometry":{"type":"Polygon","coordinates":[[[129.08733,35.27882],[129.08647,35.27496],[129.09067,35.27281],[129.09573,35.27451],[129.09658,35.27836],[129.09238,35.28052],[129.08733,35.27882]]]}},{"type":"Feature","properties":{"h3":"8830c162ddfffff","emd_code":"2641067000","emd_name":"남산동","area_km2":0.5456,"edge":false,"slope_mean":19.62,"elev_mean":289.3,"flood_hist_n":0,"flood_depth_max_m":null,"flood_risk_100y":null,"semi_basement_r":null,"elderly_alone_r":0.1912,"bldg_age30_r":null,"shelter_min_walk":17,"pop":25407,"hh":13820,"elderly65_r":0.324,"single_hh_r":0.5058,"source_level":"emd","flood_years":[],"landslide_hist_n":0},"geometry":{"type":"Polygon","coordinates":[[[129.07216,35.27371],[129.07131,35.26986],[129.07551,35.26771],[129.08056,35.26941],[129.08142,35.27326],[129.07722,35.27541],[129.07216,35.27371]]]}},{"type":"Feature","properties":{"h3":"8830c162e1fffff","emd_code":"2641070000","emd_name":"금성동","area_km2":0.5458,"edge":false,"slope_mean":15.03,"elev_mean":329.4,"flood_hist_n":0,"flood_depth_max_m":null,"flood_risk_100y":null,"semi_basement_r":null,"elderly_alone_r":0.2831,"bldg_age30_r":null,"shelter_min_walk":20,"pop":854,"hh":438,"elderly65_r":0.3852,"single_hh_r":0.4726,"source_level":"emd","flood_years":[],"landslide_hist_n":0},"geometry":{"type":"Polygon","coordinates":[[[129.04853,35.25149],[129.04767,35.24763],[129.05187,35.24548],[129.05693,35.24718],[129.05778,35.25104],[129.05358,35.25319],[129.04853,35.25149]]]}},{"type":"Feature","properties":{"h3":"8830c162e3fffff","emd_code":"2641070000","emd_name":"금성동","area_km2":0.5459,"edge":false,"slope_mean":14.38,"elev_mean":400.1,"flood_hist_n":0,"flood_depth_max_m":null,"flood_risk_100y":null,"semi_basement_r":null,"elderly_alone_r":0.2831,"bldg_age30_r":null,"shelter_min_walk":28,"pop":854,"hh":438,"elderly65_r":0.3852,"single_hh_r":0.4726,"source_level":"emd","flood_years":[],"landslide_hist_n":0},"geometry":{"type":"Polygon","coordinates":[[[129.05778,35.25104],[129.05693,35.24718],[129.06113,35.24503],[129.06618,35.24674],[129.06704,35.25059],[129.06284,35.25274],[129.05778,35.25104]]]}},{"type":"Feature","properties":{"h3":"8830c162e5fffff","emd_code":"2641070000","emd_name":"금성동","area_km2":0.5459,"edge":true,"slope_mean":15.77,"elev_mean":370.8,"flood_hist_n":0,"flood_depth_max_m":null,"flood_risk_100y":null,"semi_basement_r":null,"elderly_alone_r":0.2831,"bldg_age30_r":null,"shelter_min_walk":27,"pop":854,"hh":438,"elderly65_r":0.3852,"single_hh_r":0.4726,"source_level":"emd","flood_years":[],"landslide_hist_n":0},"geometry":{"type":"Polygon","coordinates":[[[129.04262,35.24593],[129.04177,35.24207],[129.04597,35.23992],[129.05102,35.24163],[129.05187,35.24548],[129.04767,35.24763],[129.04262,35.24593]]]}},{"type":"Feature","properties":{"h3":"8830c162e7fffff","emd_code":"2641070000","emd_name":"금성동","area_km2":0.5459,"edge":false,"slope_mean":14.42,"elev_mean":379.2,"flood_hist_n":0,"flood_depth_max_m":null,"flood_risk_100y":null,"semi_basement_r":null,"elderly_alone_r":0.2831,"bldg_age30_r":null,"shelter_min_walk":31,"pop":854,"hh":438,"elderly65_r":0.3852,"single_hh_r":0.4726,"source_level":"emd","flood_years":[],"landslide_hist_n":0},"geometry":{"type":"Polygon","coordinates":[[[129.05187,35.24548],[129.05102,35.24163],[129.05522,35.23948],[129.06027,35.24118],[129.06113,35.24503],[129.05693,35.24718],[129.05187,35.24548]]]}},{"type":"Feature","properties":{"h3":"8830c162e9fffff","emd_code":"2641070000","emd_name":"금성동","area_km2":0.5457,"edge":false,"slope_mean":17.53,"elev_mean":340.6,"flood_hist_n":0,"flood_depth_max_m":null,"flood_risk_100y":null,"semi_basement_r":null,"elderly_alone_r":0.2831,"bldg_age30_r":null,"shelter_min_walk":9,"pop":854,"hh":438,"elderly65_r":0.3852,"single_hh_r":0.4726,"source_level":"emd","flood_years":[],"landslide_hist_n":0},"geometry":{"type":"Polygon","coordinates":[[[129.04518,35.25749],[129.04433,35.25364],[129.04853,35.25149],[129.05358,35.25319],[129.05444,35.25704],[129.05024,35.2592],[129.04518,35.25749]]]}},{"type":"Feature","properties":{"h3":"8830c162ebfffff","emd_code":"2641070000","emd_name":"금성동","area_km2":0.5458,"edge":false,"slope_mean":15.09,"elev_mean":418.8,"flood_hist_n":0,"flood_depth_max_m":null,"flood_risk_100y":null,"semi_basement_r":null,"elderly_alone_r":0.2831,"bldg_age30_r":null,"shelter_min_walk":19,"pop":854,"hh":438,"elderly65_r":0.3852,"single_hh_r":0.4726,"source_level":"emd","flood_years":[],"landslide_hist_n":0},"geometry":{"type":"Polygon","coordinates":[[[129.05444,35.25704],[129.05358,35.25319],[129.05778,35.25104],[129.06284,35.25274],[129.06369,35.2566],[129.05949,35.25875],[129.05444,35.25704]]]}},{"type":"Feature","properties":{"h3":"8830c162edfffff","emd_code":"2641070000","emd_name":"금성동","area_km2":0.5458,"edge":true,"slope_mean":16.71,"elev_mean":257.2,"flood_hist_n":1,"flood_depth_max_m":0.461,"flood_risk_100y":null,"semi_basement_r":null,"elderly_alone_r":0.2831,"bldg_age30_r":null,"shelter_min_walk":18,"pop":854,"hh":438,"elderly65_r":0.3852,"single_hh_r":0.4726,"source_level":"emd","flood_years":[2014],"landslide_hist_n":0},"geometry":{"type":"Polygon","coordinates":[[[129.03927,35.25193],[129.03842,35.24808],[129.04262,35.24593],[129.04767,35.24763],[129.04853,35.25149],[129.04433,35.25364],[129.03927,35.25193]]]}},{"type":"Feature","properties":{"h3":"8830c16701fffff","emd_code":"2641055500","emd_name":"금사회동동","area_km2":0.5462,"edge":false,"slope_mean":24.65,"elev_mean":290.1,"flood_hist_n":0,"flood_depth_max_m":null,"flood_risk_100y":null,"semi_basement_r":null,"elderly_alone_r":0.2706,"bldg_age30_r":null,"shelter_min_walk":39,"pop":6545,"hh":3839,"elderly65_r":0.4171,"single_hh_r":0.5387,"source_level":"emd","flood_years":[],"landslide_hist_n":0},"geometry":{"type":"Polygon","coordinates":[[[129.13774,35.25298],[129.13688,35.24913],[129.14108,35.24697],[129.14614,35.24867],[129.147,35.25253],[129.14279,35.25468],[129.13774,35.25298]]]}},{"type":"Feature","properties":{"h3":"8830c16705fffff","emd_code":"2641055500","emd_name":"금사회동동","area_km2":0.5463,"edge":false,"slope_mean":24.93,"elev_mean":185.1,"flood_hist_n":0,"flood_depth_max_m":null,"flood_risk_100y":null,"semi_basement_r":null,"elderly_alone_r":0.2706,"bldg_age30_r":null,"shelter_min_walk":35,"pop":6545,"hh":3839,"elderly65_r":0.4171,"single_hh_r":0.5387,"source_level":"emd","flood_years":[],"landslide_hist_n":0},"geometry":{"type":"Polygon","coordinates":[[[129.13183,35.24743],[129.13097,35.24357],[129.13517,35.24142],[129.14023,35.24312],[129.14108,35.24697],[129.13688,35.24913],[129.13183,35.24743]]]}},{"type":"Feature","properties":{"h3":"8830c16707fffff","emd_code":"2641055500","emd_name":"금사회동동","area_km2":0.5463,"edge":true,"slope_mean":25.26,"elev_mean":294.4,"flood_hist_n":0,"flood_depth_max_m":null,"flood_risk_100y":null,"semi_basement_r":null,"elderly_alone_r":0.2706,"bldg_age30_r":null,"shelter_min_walk":30,"pop":6545,"hh":3839,"elderly65_r":0.4171,"single_hh_r":0.5387,"source_level":"emd","flood_years":[],"landslide_hist_n":0},"geometry":{"type":"Polygon","coordinates":[[[129.14108,35.24697],[129.14023,35.24312],[129.14443,35.24096],[129.14949,35.24266],[129.15034,35.24652],[129.14614,35.24867],[129.14108,35.24697]]]}},{"type":"Feature","properties":{"h3":"8830c16709fffff","emd_code":"2641059000","emd_name":"부곡3동","area_km2":0.5461,"edge":false,"slope_mean":21.86,"elev_mean":256.6,"flood_hist_n":0,"flood_depth_max_m":null,"flood_risk_100y":null,"semi_basement_r":null,"elderly_alone_r":0.1459,"bldg_age30_r":null,"shelter_min_walk":32,"pop":14271,"hh":6794,"elderly65_r":0.271,"single_hh_r":0.4049,"source_level":"emd","flood_years":[],"landslide_hist_n":0},"geometry":{"type":"Polygon","coordinates":[[[129.13439,35.25899],[129.13354,35.25514],[129.13774,35.25298],[129.14279,35.25468],[129.14365,35.25854],[129.13945,35.26069],[129.13439,35.25899]]]}},{"type":"Feature","properties":{"h3":"8830c1670dfffff","emd_code":"2641059000","emd_name":"부곡3동","area_km2":0.5462,"edge":false,"slope_mean":25.5,"elev_mean":228.0,"flood_hist_n":0,"flood_depth_max_m":null,"flood_risk_100y":null,"semi_basement_r":null,"elderly_alone_r":0.1459,"bldg_age30_r":null,"shelter_min_walk":44,"pop":14271,"hh":6794,"elderly65_r":0.271,"single_hh_r":0.4049,"source_level":"emd","flood_years":[],"landslide_hist_n":0},"geometry":{"type":"Polygon","coordinates":[[[129.12848,35.25344],[129.12763,35.24958],[129.13183,35.24743],[129.13688,35.24913],[129.13774,35.25298],[129.13354,35.25514],[129.12848,35.25344]]]}},{"type":"Feature","properties":{"h3":"8830c16721fffff","emd_code":"2641055500","emd_name":"금사회동동","area_km2":0.5465,"edge":true,"slope_mean":15.71,"elev_mean":95.1,"flood_hist_n":0,"flood_depth_max_m":null,"flood_risk_100y":null,"semi_basement_r":null,"elderly_alone_r":0.2706,"bldg_age30_r":null,"shelter_min_walk":22,"pop":6545,"hh":3839,"elderly65_r":0.4171,"single_hh_r":0.5387,"source_level":"emd","flood_years":[],"landslide_hist_n":0},"geometry":{"type":"Polygon","coordinates":[[[129.12926,35.23586],[129.12841,35.23201],[129.13261,35.22985],[129.13767,35.23155],[129.13852,35.23541],[129.13432,35.23756],[129.12926,35.23586]]]}},{"type":"Feature","properties":{"h3":"8830c16725fffff","emd_code":"2641055500","emd_name":"금사회동동","area_km2":0.5465,"edge":false,"slope_mean":10.18,"elev_mean":45.8,"flood_hist_n":0,"flood_depth_max_m":null,"flood_risk_100y":null,"semi_basement_r":null,"elderly_alone_r":0.2706,"bldg_age30_r":null,"shelter_min_walk":23,"pop":6545,"hh":3839,"elderly65_r":0.4171,"single_hh_r":0.5387,"source_level":"emd","flood_years":[],"landslide_hist_n":0},"geometry":{"type":"Polygon","coordinates":[[[129.12335,35.23031],[129.1225,35.22645],[129.1267,35.22429],[129.13175,35.22599],[129.13261,35.22985],[129.12841,35.23201],[129.12335,35.23031]]]}},{"type":"Feature","properties":{"h3":"8830c16729fffff","emd_code":"2641055500","emd_name":"금사회동동","area_km2":0.5463,"edge":false,"slope_mean":24.26,"elev_mean":128.0,"flood_hist_n":0,"flood_depth_max_m":null,"flood_risk_100y":null,"semi_basement_r":null,"elderly_alone_r":0.2706,"bldg_age30_r":null,"shelter_min_walk":32,"pop":6545,"hh":3839,"elderly65_r":0.4171,"single_hh_r":0.5387,"source_level":"emd","flood_years":[],"landslide_hist_n":0},"geometry":{"type":"Polygon","coordinates":[[[129.12592,35.24187],[129.12506,35.23802],[129.12926,35.23586],[129.13432,35.23756],[129.13517,35.24142],[129.13097,35.24357],[129.12592,35.24187]]]}},{"type":"Feature","properties":{"h3":"8830c1672bfffff","emd_code":"2641055500","emd_name":"금사회동동","area_km2":0.5464,"edge":true,"slope_mean":18.25,"elev_mean":136.0,"flood_hist_n":0,"flood_depth_max_m":null,"flood_risk_100y":null,"semi_basement_r":null,"elderly_alone_r":0.2706,"bldg_age30_r":null,"shelter_min_walk":24,"pop":6545,"hh":3839,"elderly65_r":0.4171,"single_hh_r":0.5387,"source_level":"emd","flood_years":[],"landslide_hist_n":0},"geometry":{"type":"Polygon","coordinates":[[[129.13517,35.24142],[129.13432,35.23756],[129.13852,35.23541],[129.14358,35.23711],[129.14443,35.24096],[129.14023,35.24312],[129.13517,35.24142]]]}},{"type":"Feature","properties":{"h3":"8830c1672dfffff","emd_code":"2641055500","emd_name":"금사회동동","area_km2":0.5464,"edge":false,"slope_mean":14.66,"elev_mean":42.1,"flood_hist_n":0,"flood_depth_max_m":null,"flood_risk_100y":null,"semi_basement_r":null,"elderly_alone_r":0.2706,"bldg_age30_r":null,"shelter_min_walk":27,"pop":6545,"hh":3839,"elderly65_r":0.4171,"single_hh_r":0.5387,"source_level":"emd","flood_years":[],"landslide_hist_n":0},"geometry":{"type":"Polygon","coordinates":[[[129.12001,35.23632],[129.11915,35.23246],[129.12335,35.23031],[129.12841,35.23201],[129.12926,35.23586],[129.12506,35.23802],[129.12001,35.23632]]]}},{"type":"Feature","properties":{"h3":"8830c16741fffff","emd_code":"2641059000","emd_name":"부곡3동","area_km2":0.5459,"edge":true,"slope_mean":17.67,"elev_mean":86.2,"flood_hist_n":0,"flood_depth_max_m":null,"flood_risk_100y":null,"semi_basement_r":null,"elderly_alone_r":0.1459,"bldg_age30_r":null,"shelter_min_walk":37,"pop":14271,"hh":6794,"elderly65_r":0.271,"single_hh_r":0.4049,"source_level":"emd","flood_years":[],"landslide_hist_n":0},"geometry":{"type":"Polygon","coordinates":[[[129.12179,35.26545],[129.12093,35.2616],[129.12513,35.25944],[129.13019,35.26114],[129.13105,35.265],[129.12684,35.26715],[129.12179,35.26545]]]}},{"type":"Feature","properties":{"h3":"8830c16743fffff","emd_code":"2641059000","emd_name":"부곡3동","area_km2":0.546,"edge":true,"slope_mean":21.12,"elev_mean":183.3,"flood_hist_n":0,"flood_depth_max_m":null,"flood_risk_100y":null,"semi_basement_r":null,"elderly_alone_r":0.1459,"bldg_age30_r":null,"shelter_min_walk":27,"pop":14271,"hh":6794,"elderly65_r":0.271,"single_hh_r":0.4049,"source_level":"emd","flood_years":[],"landslide_hist_n":0},"geometry":{"type":"Polygon","coordinates":[[[129.13105,35.265],[129.13019,35.26114],[129.13439,35.25899],[129.13945,35.26069],[129.1403,35.26454],[129.1361,35.2667],[129.13105,35.265]]]}},{"type":"Feature","properties":{"h3":"8830c16745fffff","emd_code":"2641059000","emd_name":"부곡3동","area_km2":0.546,"edge":false,"slope_mean":17.61,"elev_mean":88.0,"flood_hist_n":0,"flood_depth_max_m":null,"flood_risk_100y":null,"semi_basement_r":null,"elderly_alone_r":0.1459,"bldg_age30_r":null,"shelter_min_walk":37,"pop":14271,"hh":6794,"elderly65_r":0.271,"single_hh_r":0.4049,"source_level":"emd","flood_years":[],"landslide_hist_n":0},"geometry":{"type":"Polygon","coordinates":[[[129.11588,35.2599],[129.11502,35.25604],[129.11922,35.25389],[129.12428,35.25559],[129.12513,35.25944],[129.12093,35.2616],[129.11588,35.2599]]]}},{"type":"Feature","properties":{"h3":"8830c16747fffff","emd_code":"2641059000","emd_name":"부곡3동","area_km2":0.546,"edge":false,"slope_mean":19.62,"elev_mean":140.1,"flood_hist_n":0,"flood_depth_max_m":null,"flood_risk_100y":null,"semi_basement_r":null,"elderly_alone_r":0.1459,"bldg_age30_r":null,"shelter_min_walk":39,"pop":14271,"hh":6794,"elderly65_r":0.271,"single_hh_r":0.4049,"source_level":"emd","flood_years":[],"landslide_hist_n":0},"geometry":{"type":"Polygon","coordinates":[[[129.12513,35.25944],[129.12428,35.25559],[129.12848,35.25344],[129.13354,35.25514],[129.13439,35.25899],[129.13019,35.26114],[129.12513,35.25944]]]}},{"type":"Feature","properties":{"h3":"8830c16749fffff","emd_code":"2641063500","emd_name":"선두구동","area_km2":0.5458,"edge":true,"slope_mean":19.43,"elev_mean":120.1,"flood_hist_n":0,"flood_depth_max_m":null,"flood_risk_100y":null,"semi_basement_r":null,"elderly_alone_r":0.269,"bldg_age30_r":null,"shelter_min_walk":38,"pop":1929,"hh":1108,"elderly65_r":0.4469,"single_hh_r":0.5433,"source_level":"emd","flood_years":[],"landslide_hist_n":0},"geometry":{"type":"Polygon","coordinates":[[[129.11844,35.27146],[129.11759,35.2676],[129.12179,35.26545],[129.12684,35.26715],[129.1277,35.271],[129.1235,35.27316],[129.11844,35.27146]]]}},{"type":"Feature","properties":{"h3":"8830c1674dfffff","emd_code":"2641063500","emd_name":"선두구동","area_km2":0.5459,"edge":false,"slope_mean":11.69,"elev_mean":66.7,"flood_hist_n":0,"flood_depth_max_m":null,"flood_risk_100y":null,"semi_basement_r":null,"elderly_alone_r":0.269,"bldg_age30_r":null,"shelter_min_walk":31,"pop":1929,"hh":1108,"elderly65_r":0.4469,"single_hh_r":0.5433,"source_level":"emd","flood_years":[],"landslide_hist_n":0},"geometry":{"type":"Polygon","coordinates":[[[129.11253,35.2659],[129.11168,35.26205],[129.11588,35.2599],[129.12093,35.2616],[129.12179,35.26545],[129.11759,35.2676],[129.11253,35.2659]]]}},{"type":"Feature","properties":{"h3":"8830c16761fffff","emd_code":"2641059000","emd_name":"부곡3동","area_km2":0.5462,"edge":false,"slope_mean":8.13,"elev_mean":48.6,"flood_hist_n":0,"flood_depth_max_m":null,"flood_risk_100y":null,"semi_basement_r":null,"elderly_alone_r":0.1459,"bldg_age30_r":null,"shelter_min_walk":33,"pop":14271,"hh":6794,"elderly65_r":0.271,"single_hh_r":0.4049,"source_level":"emd","flood_years":[],"landslide_hist_n":0},"geometry":{"type":"Polygon","coordinates":[[[129.11331,35.24833],[129.11246,35.24448],[129.11666,35.24233],[129.12172,35.24403],[129.12257,35.24788],[129.11837,35.25004],[129.11331,35.24833]]]}},{"type":"Feature","properties":{"h3":"8830c16763fffff","emd_code":"2641059000","emd_name":"부곡3동","area_km2":0.5462,"edge":false,"slope_mean":21.42,"elev_mean":114.4,"flood_hist_n":0,"flood_depth_max_m":null,"flood_risk_100y":null,"semi_basement_r":null,"elderly_alone_r":0.1459,"bldg_age30_r":null,"shelter_min_walk":42,"pop":14271,"hh":6794,"elderly65_r":0.271,"single_hh_r":0.4049,"source_level":"emd","flood_years":[],"landslide_hist_n":0},"geometry":{"type":"Polygon","coordinates":[[[129.12257,35.24788],[129.12172,35.24403],[129.12592,35.24187],[129.13097,35.24357],[129.13183,35.24743],[129.12763,35.24958],[129.12257,35.24788]]]}},{"type":"Feature","properties":{"h3":"8830c16765fffff","emd_code":"2641059000","emd_name":"부곡3동","area_km2":0.5462,"edge":false,"slope_mean":17.62,"elev_mean":86.3,"flood_hist_n":0,"flood_depth_max_m":null,"flood_risk_100y":null,"semi_basement_r":null,"elderly_alone_r":0.1459,"bldg_age30_r":null,"shelter_min_walk":23,"pop":14271,"hh":6794,"elderly65_r":0.271,"single_hh_r":0.4049,"source_level":"emd","flood_years":[],"landslide_hist_n":0},"geometry":{"type":"Polygon","coordinates":[[[129.1074,35.24278],[129.10655,35.23892],[129.11075,35.23677],[129.1158,35.23847],[129.11666,35.24233],[129.11246,35.24448],[129.1074,35.24278]]]}},{"type":"Feature","properties":{"h3":"8830c16767fffff","emd_code":"2641059000","emd_name":"부곡3동","area_km2":0.5463,"edge":false,"slope_mean":13.13,"elev_mean":58.8,"flood_hist_n":0,"flood_depth_max_m":null,"flood_risk_100y":null,"semi_basement_r":null,"elderly_alone_r":0.1459,"bldg_age30_r":null,"shelter_min_walk":34,"pop":14271,"hh":6794,"elderly65_r":0.271,"single_hh_r":0.4049,"source_level":"emd","flood_years":[],"landslide_hist_n":0},"geometry":{"type":"Polygon","coordinates":[[[129.11666,35.24233],[129.1158,35.23847],[129.12001,35.23632],[129.12506,35.23802],[129.12592,35.24187],[129.12172,35.24403],[129.11666,35.24233]]]}},{"type":"Feature","properties":{"h3":"8830c16769fffff","emd_code":"2641059000","emd_name":"부곡3동","area_km2":0.5461,"edge":false,"slope_mean":13.53,"elev_mean":67.9,"flood_hist_n":0,"flood_depth_max_m":null,"flood_risk_100y":null,"semi_basement_r":null,"elderly_alone_r":0.1459,"bldg_age30_r":null,"shelter_min_walk":28,"pop":14271,"hh":6794,"elderly65_r":0.271,"single_hh_r":0.4049,"source_level":"emd","flood_years":[],"landslide_hist_n":0},"geometry":{"type":"Polygon","coordinates":[[[129.10997,35.25434],[129.10911,35.25049],[129.11331,35.24833],[129.11837,35.25004],[129.11922,35.25389],[129.11502,35.25604],[129.10997,35.25434]]]}},{"type":"Feature","properties":{"h3":"8830c1676bfffff","emd_code":"2641059000","emd_name":"부곡3동","area_km2":0.5461,"edge":false,"slope_mean":15.15,"elev_mean":82.1,"flood_hist_n":0,"flood_depth_max_m":null,"flood_risk_100y":null,"semi_basement_r":null,"elderly_alone_r":0.1459,"bldg_age30_r":null,"shelter_min_walk":41,"pop":14271,"hh":6794,"elderly65_r":0.271,"single_hh_r":0.4049,"source_level":"emd","flood_years":[],"landslide_hist_n":0},"geometry":{"type":"Polygon","coordinates":[[[129.11922,35.25389],[129.11837,35.25004],[129.12257,35.24788],[129.12763,35.24958],[129.12848,35.25344],[129.12428,35.25559],[129.11922,35.25389]]]}},{"type":"Feature","properties":{"h3":"8830c1676dfffff","emd_code":"2641059000","emd_name":"부곡3동","area_km2":0.5461,"edge":false,"slope_mean":15.61,"elev_mean":92.7,"flood_hist_n":0,"flood_depth_max_m":null,"flood_risk_100y":null,"semi_basement_r":null,"elderly_alone_r":0.1459,"bldg_age30_r":null,"shelter_min_walk":22,"pop":14271,"hh":6794,"elderly65_r":0.271,"single_hh_r":0.4049,"source_level":"emd","flood_years":[],"landslide_hist_n":0},"geometry":{"type":"Polygon","coordinates":[[[129.10406,35.24879],[129.1032,35.24493],[129.1074,35.24278],[129.11246,35.24448],[129.11331,35.24833],[129.10911,35.25049],[129.10406,35.24879]]]}},{"type":"Feature","properties":{"h3":"8830c17503fffff","emd_code":"2641066500","emd_name":"청룡노포동","area_km2":0.5451,"edge":true,"slope_mean":26.68,"elev_mean":556.8,"flood_hist_n":0,"flood_depth_max_m":null,"flood_risk_100y":null,"semi_basement_r":null,"elderly_alone_r":0.2129,"bldg_age30_r":null,"shelter_min_walk":41,"pop":8844,"hh":4308,"elderly65_r":0.3703,"single_hh_r":0.4041,"source_level":"emd","flood_years":[],"landslide_hist_n":0},"geometry":{"type":"Polygon","coordinates":[[[129.05878,35.29772],[129.05792,35.29387],[129.06212,35.29172],[129.06718,35.29342],[129.06803,35.29727],[129.06383,35.29942],[129.05878,35.29772]]]}},{"type":"Feature","properties":{"h3":"8830c17507fffff","emd_code":"2641066500","emd_name":"청룡노포동","area_km2":0.5452,"edge":false,"slope_mean":14.04,"elev_mean":580.5,"flood_hist_n":0,"flood_depth_max_m":null,"flood_risk_100y":null,"semi_basement_r":null,"elderly_alone_r":0.2129,"bldg_age30_r":null,"shelter_min_walk":43,"pop":8844,"hh":4308,"elderly65_r":0.3703,"single_hh_r":0.4041,"source_level":"emd","flood_years":[],"landslide_hist_n":0},"geometry":{"type":"Polygon","coordinates":[[[129.05287,35.29216],[129.05201,35.28831],[129.05621,35.28616],[129.06127,35.28786],[129.06212,35.29172],[129.05792,35.29387],[129.05287,35.29216]]]}},{"type":"Feature","properties":{"h3":"8830c17513fffff","emd_code":"2641066500","emd_name":"청룡노포동","area_km2":0.5451,"edge":false,"slope_mean":15.82,"elev_mean":165.5,"flood_hist_n":0,"flood_depth_max_m":null,"flood_risk_100y":null,"semi_basement_r":null,"elderly_alone_r":0.2129,"bldg_age30_r":null,"shelter_min_walk":29,"pop":8844,"hh":4308,"elderly65_r":0.3703,"single_hh_r":0.4041,"source_level":"emd","flood_years":[],"landslide_hist_n":0},"geometry":{"type":"Polygon","coordinates":[[[129.0832,35.30237],[129.08234,35.29852],[129.08654,35.29637],[129.0916,35.29807],[129.09245,35.30192],[129.08825,35.30407],[129.0832,35.30237]]]}},{"type":"Feature","properties":{"h3":"8830c17517fffff","emd_code":"2641066500","emd_name":"청룡노포동","area_km2":0.5452,"edge":false,"slope_mean":16.7,"elev_mean":226.6,"flood_hist_n":0,"flood_depth_max_m":null,"flood_risk_100y":null,"semi_basement_r":null,"elderly_alone_r":0.2129,"bldg_age30_r":null,"shelter_min_walk":25,"pop":8844,"hh":4308,"elderly65_r":0.3703,"single_hh_r":0.4041,"source_level":"emd","flood_years":[],"landslide_hist_n":0},"geometry":{"type":"Polygon","coordinates":[[[129.07729,35.29682],[129.07643,35.29297],[129.08063,35.29082],[129.08569,35.29252],[129.08654,35.29637],[129.08234,35.29852],[129.07729,35.29682]]]}},{"type":"Feature","properties":{"h3":"8830c17521fffff","emd_code":"2641070000","emd_name":"금성동","area_km2":0.5453,"edge":true,"slope_mean":20.81,"elev_mean":605.8,"flood_hist_n":0,"flood_depth_max_m":null,"flood_risk_100y":null,"semi_basement_r":null,"elderly_alone_r":0.2831,"bldg_age30_r":null,"shelter_min_walk":31,"pop":854,"hh":438,"elderly65_r":0.3852,"single_hh_r":0.4726,"source_level":"emd","flood_years":[],"landslide_hist_n":0},"geometry":{"type":"Polygon","coordinates":[[[129.04105,35.28106],[129.0402,35.2772],[129.0444,35.27505],[129.04945,35.27676],[129.05031,35.28061],[129.0461,35.28276],[129.04105,35.28106]]]}},{"type":"Feature","properties":{"h3":"8830c17523fffff","emd_code":"2641066500","emd_name":"청룡노포동","area_km2":0.5454,"edge":false,"slope_mean":15.07,"elev_mean":660.0,"flood_hist_n":0,"flood_depth_max_m":null,"flood_risk_100y":null,"semi_basement_r":null,"elderly_alone_r":0.2129,"bldg_age30_r":null,"shelter_min_walk":32,"pop":8844,"hh":4308,"elderly65_r":0.3703,"single_hh_r":0.4041,"source_level":"emd","flood_years":[],"landslide_hist_n":0},"geometry":{"type":"Polygon","coordinates":[[[129.05031,35.28061],[129.04945,35.27676],[129.05365,35.27461],[129.05871,35.27631],[129.05956,35.28016],[129.05536,35.28231],[129.05031,35.28061]]]}},{"type":"Feature","properties":{"h3":"8830c17527fffff","emd_code":"2641070000","emd_name":"금성동","area_km2":0.5454,"edge":false,"slope_mean":17.41,"elev_mean":606.4,"flood_hist_n":0,"flood_depth_max_m":null,"flood_risk_100y":null,"semi_basement_r":null,"elderly_alone_r":0.2831,"bldg_age30_r":null,"shelter_min_walk":21,"pop":854,"hh":438,"elderly65_r":0.3852,"single_hh_r":0.4726,"source_level":"emd","flood_years":[],"landslide_hist_n":0},"geometry":{"type":"Polygon","coordinates":[[[129.0444,35.27505],[129.04354,35.2712],[129.04774,35.26905],[129.0528,35.27075],[129.05365,35.27461],[129.04945,35.27676],[129.0444,35.27505]]]}},{"type":"Feature","properties":{"h3":"8830c1752bfffff","emd_code":"2641066500","emd_name":"청룡노포동","area_km2":0.5452,"edge":false,"slope_mean":19.43,"elev_mean":662.3,"flood_hist_n":0,"flood_depth_max_m":null,"flood_risk_100y":null,"semi_basement_r":null,"elderly_alone_r":0.2129,"bldg_age30_r":null,"shelter_min_walk":41,"pop":8844,"hh":4308,"elderly65_r":0.3703,"single_hh_r":0.4041,"source_level":"emd","flood_years":[],"landslide_hist_n":0},"geometry":{"type":"Polygon","coordinates":[[[129.04696,35.28661],[129.0461,35.28276],[129.05031,35.28061],[129.05536,35.28231],[129.05621,35.28616],[129.05201,35.28831],[129.04696,35.28661]]]}},{"type":"Feature","properties":{"h3":"8830c17531fffff","emd_code":"2641066500","emd_name":"청룡노포동","area_km2":0.5453,"edge":false,"slope_mean":18.96,"elev_mean":368.7,"flood_hist_n":0,"flood_depth_max_m":null,"flood_risk_100y":null,"semi_basement_r":null,"elderly_alone_r":0.2129,"bldg_age30_r":null,"shelter_min_walk":23,"pop":8844,"hh":4308,"elderly65_r":0.3703,"single_hh_r":0.4041,"source_level":"emd","flood_years":[],"landslide_hist_n":0},"geometry":{"type":"Polygon","coordinates":[[[129.06547,35.28572],[129.06461,35.28186],[129.06881,35.27971],[129.07387,35.28142],[129.07472,35.28527],[129.07052,35.28742],[129.06547,35.28572]]]}},{"type":"Feature","properties":{"h3":"8830c17533fffff","emd_code":"2641066500","emd_name":"청룡노포동","area_km2":0.5454,"edge":false,"slope_mean":21.46,"elev_mean":314.2,"flood_hist_n":0,"flood_depth_max_m":null,"flood_risk_100y":null,"semi_basement_r":null,"elderly_alone_r":0.2129,"bldg_age30_r":null,"shelter_min_walk":11,"pop":8844,"hh":4308,"elderly65_r":0.3703,"single_hh_r":0.4041,"source_level":"emd","flood_years":[],"landslide_hist_n":0},"geometry":{"type":"Polygon","coordinates":[[[129.07472,35.28527],[129.07387,35.28142],[129.07807,35.27926],[129.08312,35.28097],[129.08398,35.28482],[129.07978,35.28697],[129.07472,35.28527]]]}},{"type":"Feature","properties":{"h3":"8830c17535fffff","emd_code":"2641066500","emd_name":"청룡노포동","area_km2":0.5454,"edge":false,"slope_mean":17.01,"elev_mean":518.7,"flood_hist_n":0,"flood_depth_max_m":null,"flood_risk_100y":null,"semi_basement_r":null,"elderly_alone_r":0.2129,"bldg_age30_r":null,"shelter_min_walk":29,"pop":8844,"hh":4308,"elderly65_r":0.3703,"single_hh_r":0.4041,"source_level":"emd","flood_years":[],"landslide_hist_n":0},"geometry":{"type":"Polygon","coordinates":[[[129.05956,35.28016],[129.05871,35.27631],[129.06291,35.27416],[129.06796,35.27586],[129.06881,35.27971],[129.06461,35.28186],[129.05956,35.28016]]]}},{"type":"Feature","properties":{"h3":"8830c17537fffff","emd_code":"2641066500","emd_name":"청룡노포동","area_km2":0.5455,"edge":false,"slope_mean":20.43,"elev_mean":320.6,"flood_hist_n":0,"flood_depth_max_m":null,"flood_risk_100y":null,"semi_basement_r":null,"elderly_alone_r":0.2129,"bldg_age30_r":null,"shelter_min_walk":17,"pop":8844,"hh":4308,"elderly65_r":0.3703,"single_hh_r":0.4041,"source_level":"emd","flood_years":[],"landslide_hist_n":0},"geometry":{"type":"Polygon","coordinates":[[[129.06881,35.27971],[129.06796,35.27586],[129.07216,35.27371],[129.07722,35.27541],[129.07807,35.27926],[129.07387,35.28142],[129.06881,35.27971]]]}},{"type":"Feature","properties":{"h3":"8830c17539fffff","emd_code":"2641066500","emd_name":"청룡노포동","area_km2":0.5452,"edge":false,"slope_mean":19.06,"elev_mean":442.7,"flood_hist_n":0,"flood_depth_max_m":null,"flood_risk_100y":null,"semi_basement_r":null,"elderly_alone_r":0.2129,"bldg_age30_r":null,"shelter_min_walk":31,"pop":8844,"hh":4308,"elderly65_r":0.3703,"single_hh_r":0.4041,"source_level":"emd","flood_years":[],"landslide_hist_n":0},"geometry":{"type":"Polygon","coordinates":[[[129.06212,35.29172],[129.06127,35.28786],[129.06547,35.28572],[129.07052,35.28742],[129.07138,35.29127],[129.06718,35.29342],[129.06212,35.29172]]]}},{"type":"Feature","properties":{"h3":"8830c1753bfffff","emd_code":"2641066500","emd_name":"청룡노포동","area_km2":0.5453,"edge":false,"slope_mean":25.95,"elev_mean":444.3,"flood_hist_n":0,"flood_depth_max_m":null,"flood_risk_100y":null,"semi_basement_r":null,"elderly_alone_r":0.2129,"bldg_age30_r":null,"shelter_min_walk":22,"pop":8844,"hh":4308,"elderly65_r":0.3703,"single_hh_r":0.4041,"source_level":"emd","flood_years":[],"landslide_hist_n":0},"geometry":{"type":"Polygon","coordinates":[[[129.07138,35.29127],[129.07052,35.28742],[129.07472,35.28527],[129.07978,35.28697],[129.08063,35.29082],[129.07643,35.29297],[129.07138,35.29127]]]}},{"type":"Feature","properties":{"h3":"8830c1753dfffff","emd_code":"2641066500","emd_name":"청룡노포동","area_km2":0.5453,"edge":false,"slope_mean":16.69,"elev_mean":544.1,"flood_hist_n":0,"flood_depth_max_m":null,"flood_risk_100y":null,"semi_basement_r":null,"elderly_alone_r":0.2129,"bldg_age30_r":null,"shelter_min_walk":35,"pop":8844,"hh":4308,"elderly65_r":0.3703,"single_hh_r":0.4041,"source_level":"emd","flood_years":[],"landslide_hist_n":0},"geometry":{"type":"Polygon","coordinates":[[[129.05621,35.28616],[129.05536,35.28231],[129.05956,35.28016],[129.06461,35.28186],[129.06547,35.28572],[129.06127,35.28786],[129.05621,35.28616]]]}},{"type":"Feature","properties":{"h3":"8830c17581fffff","emd_code":"2641063500","emd_name":"선두구동","area_km2":0.5454,"edge":false,"slope_mean":13.75,"elev_mean":117.4,"flood_hist_n":0,"flood_depth_max_m":null,"flood_risk_100y":null,"semi_basement_r":null,"elderly_alone_r":0.269,"bldg_age30_r":null,"shelter_min_walk":11,"pop":1929,"hh":1108,"elderly65_r":0.4469,"single_hh_r":0.5433,"source_level":"emd","flood_years":[],"landslide_hist_n":0},"geometry":{"type":"Polygon","coordinates":[[[129.11431,35.29502],[129.11346,35.29117],[129.11766,35.28902],[129.12271,35.29072],[129.12357,35.29457],[129.11937,35.29672],[129.11431,35.29502]]]}},{"type":"Feature","properties":{"h3":"8830c17583fffff","emd_code":"2641063500","emd_name":"선두구동","area_km2":0.5455,"edge":false,"slope_mean":19.63,"elev_mean":202.6,"flood_hist_n":0,"flood_depth_max_m":null,"flood_risk_100y":null,"semi_basement_r":null,"elderly_alone_r":0.269,"bldg_age30_r":null,"shelter_min_walk":22,"pop":1929,"hh":1108,"elderly65_r":0.4469,"single_hh_r":0.5433,"source_level":"emd","flood_years":[],"landslide_hist_n":0},"geometry":{"type":"Polygon","coordinates":[[[129.12357,35.29457],[129.12271,35.29072],[129.12692,35.28857],[129.13197,35.29026],[129.13283,35.29412],[129.12863,35.29627],[129.12357,35.29457]]]}},{"type":"Feature","properties":{"h3":"8830c17585fffff","emd_code":"2641063500","emd_name":"선두구동","area_km2":0.5455,"edge":false,"slope_mean":8.61,"elev_mean":69.1,"flood_hist_n":1,"flood_depth_max_m":0.904,"flood_risk_100y":null,"semi_basement_r":null,"elderly_alone_r":0.269,"bldg_age30_r":null,"shelter_min_walk":18,"pop":1929,"hh":1108,"elderly65_r":0.4469,"single_hh_r":0.5433,"source_level":"emd","flood_years":[2014],"landslide_hist_n":0},"geometry":{"type":"Polygon","coordinates":[[[129.1084,35.28947],[129.10755,35.28562],[129.11175,35.28347],[129.1168,35.28517],[129.11766,35.28902],[129.11346,35.29117],[129.1084,35.28947]]]}},{"type":"Feature","properties":{"h3":"8830c17587fffff","emd_code":"2641063500","emd_name":"선두구동","area_km2":0.5455,"edge":false,"slope_mean":16.1,"elev_mean":127.6,"flood_hist_n":0,"flood_depth_max_m":null,"flood_risk_100y":null,"semi_basement_r":null,"elderly_alone_r":0.269,"bldg_age30_r":null,"shelter_min_walk":22,"pop":1929,"hh":1108,"elderly65_r":0.4469,"single_hh_r":0.5433,"source_level":"emd","flood_years":[],"landslide_hist_n":0},"geometry":{"type":"Polygon","coordinates":[[[129.11766,35.28902],[129.1168,35.28517],[129.12101,35.28301],[129.12606,35.28471],[129.12692,35.28857],[129.12271,35.29072],[129.11766,35.28902]]]}},{"type":"Feature","properties":{"h3":"8830c17589fffff","emd_code":"2641063500","emd_name":"선두구동","area_km2":0.5453,"edge":false,"slope_mean":5.82,"elev_mean":82.4,"flood_hist_n":0,"flood_depth_max_m":null,"flood_risk_100y":null,"semi_basement_r":null,"elderly_alone_r":0.269,"bldg_age30_r":null,"shelter_min_walk":3,"pop":1929,"hh":1108,"elderly65_r":0.4469,"single_hh_r":0.5433,"source_level":"emd","flood_years":[],"landslide_hist_n":0},"geometry":{"type":"Polygon","coordinates":[[[129.11097,35.30102],[129.11011,35.29717],[129.11431,35.29502],[129.11937,35.29672],[129.12022,35.30057],[129.11602,35.30272],[129.11097,35.30102]]]}},{"type":"Feature","properties":{"h3":"8830c1758bfffff","emd_code":"2641063500","emd_name":"선두구동","area_km2":0.5453,"edge":false,"slope_mean":19.34,"elev_mean":164.2,"flood_hist_n":0,"flood_depth_max_m":null,"flood_risk_100y":null,"semi_basement_r":null,"elderly_alone_r":0.269,"bldg_age30_r":null,"shelter_min_walk":15,"pop":1929,"hh":1108,"elderly65_r":0.4469,"single_hh_r":0.5433,"source_level":"emd","flood_years":[],"landslide_hist_n":0},"geometry":{"type":"Polygon","coordinates":[[[129.12022,35.30057],[129.11937,35.29672],[129.12357,35.29457],[129.12863,35.29627],[129.12948,35.30012],[129.12528,35.30227],[129.12022,35.30057]]]}},{"type":"Feature","properties":{"h3":"8830c1758dfffff","emd_code":"2641063500","emd_name":"선두구동","area_km2":0.5454,"edge":false,"slope_mean":3.28,"elev_mean":57.3,"flood_hist_n":1,"flood_depth_max_m":0.255,"flood_risk_100y":null,"semi_basement_r":null,"elderly_alone_r":0.269,"bldg_age30_r":null,"shelter_min_walk":10,"pop":1929,"hh":1108,"elderly65_r":0.4469,"single_hh_r":0.5433,"source_level":"emd","flood_years":[2014],"landslide_hist_n":0},"geometry":{"type":"Polygon","coordinates":[[[129.10505,35.29547],[129.1042,35.29162],[129.1084,35.28947],[129.11346,35.29117],[129.11431,35.29502],[129.11011,35.29717],[129.10505,35.29547]]]}},{"type":"Feature","properties":{"h3":"8830c1759dfffff","emd_code":"2641063500","emd_name":"선두구동","area_km2":0.5454,"edge":true,"slope_mean":16.94,"elev_mean":169.5,"flood_hist_n":0,"flood_depth_max_m":null,"flood_risk_100y":null,"semi_basement_r":null,"elderly_alone_r":0.269,"bldg_age30_r":null,"shelter_min_walk":28,"pop":1929,"hh":1108,"elderly65_r":0.4469,"single_hh_r":0.5433,"source_level":"emd","flood_years":[],"landslide_hist_n":0},"geometry":{"type":"Polygon","coordinates":[[[129.12948,35.30012],[129.12863,35.29627],[129.13283,35.29412],[129.13788,35.29581],[129.13874,35.29967],[129.13454,35.30182],[129.12948,35.30012]]]}},{"type":"Feature","properties":{"h3":"8830c175a1fffff","emd_code":"2641063500","emd_name":"선두구동","area_km2":0.5457,"edge":false,"slope_mean":10.35,"elev_mean":55.2,"flood_hist_n":0,"flood_depth_max_m":null,"flood_risk_100y":null,"semi_basement_r":null,"elderly_alone_r":0.269,"bldg_age30_r":null,"shelter_min_walk":23,"pop":1929,"hh":1108,"elderly65_r":0.4469,"single_hh_r":0.5433,"source_level":"emd","flood_years":[],"landslide_hist_n":0},"geometry":{"type":"Polygon","coordinates":[[[129.10584,35.27791],[129.10498,35.27406],[129.10918,35.27191],[129.11424,35.27361],[129.11509,35.27746],[129.11089,35.27961],[129.10584,35.27791]]]}},{"type":"Feature","properties":{"h3":"8830c175a3fffff","emd_code":"2641063500","emd_name":"선두구동","area_km2":0.5457,"edge":false,"slope_mean":18.46,"elev_mean":127.7,"flood_hist_n":0,"flood_depth_max_m":null,"flood_risk_100y":null,"semi_basement_r":null,"elderly_alone_r":0.269,"bldg_age30_r":null,"shelter_min_walk":35,"pop":1929,"hh":1108,"elderly65_r":0.4469,"single_hh_r":0.5433,"source_level":"emd","flood_years":[],"landslide_hist_n":0},"geometry":{"type":"Polygon","coordinates":[[[129.11509,35.27746],[129.11424,35.27361],[129.11844,35.27146],[129.1235,35.27316],[129.12435,35.27701],[129.12015,35.27916],[129.11509,35.27746]]]}},{"type":"Feature","properties":{"h3":"8830c175a5fffff","emd_code":"2641063500","emd_name":"선두구동","area_km2":0.5457,"edge":false,"slope_mean":12.11,"elev_mean":76.5,"flood_hist_n":0,"flood_depth_max_m":null,"flood_risk_100y":null,"semi_basement_r":null,"elderly_alone_r":0.269,"bldg_age30_r":null,"shelter_min_walk":14,"pop":1929,"hh":1108,"elderly65_r":0.4469,"single_hh_r":0.5433,"source_level":"emd","flood_years":[],"landslide_hist_n":0},"geometry":{"type":"Polygon","coordinates":[[[129.09993,35.27236],[129.09907,35.26851],[129.10327,35.26636],[129.10833,35.26806],[129.10918,35.27191],[129.10498,35.27406],[129.09993,35.27236]]]}},{"type":"Feature","properties":{"h3":"8830c175a7fffff","emd_code":"2641063500","emd_name":"선두구동","area_km2":0.5458,"edge":false,"slope_mean":12.82,"elev_mean":64.3,"flood_hist_n":0,"flood_depth_max_m":null,"flood_risk_100y":null,"semi_basement_r":null,"elderly_alone_r":0.269,"bldg_age30_r":null,"shelter_min_walk":26,"pop":1929,"hh":1108,"elderly65_r":0.4469,"single_hh_r":0.5433,"source_level":"emd","flood_years":[],"landslide_hist_n":0},"geometry":{"type":"Polygon","coordinates":[[[129.10918,35.27191],[129.10833,35.26806],[129.11253,35.2659],[129.11759,35.2676],[129.11844,35.27146],[129.11424,35.27361],[129.10918,35.27191]]]}},{"type":"Feature","properties":{"h3":"8830c175a9fffff","emd_code":"2641063500","emd_name":"선두구동","area_km2":0.5455,"edge":false,"slope_mean":7.7,"elev_mean":52.6,"flood_hist_n":0,"flood_depth_max_m":null,"flood_risk_100y":null,"semi_basement_r":null,"elderly_alone_r":0.269,"bldg_age30_r":null,"shelter_min_walk":16,"pop":1929,"hh":1108,"elderly65_r":0.4469,"single_hh_r":0.5433,"source_level":"emd","flood_years":[],"landslide_hist_n":0},"geometry":{"type":"Polygon","coordinates":[[[129.10249,35.28392],[129.10164,35.28007],[129.10584,35.27791],[129.11089,35.27961],[129.11175,35.28347],[129.10755,35.28562],[129.10249,35.28392]]]}},{"type":"Feature","properties":{"h3":"8830c175abfffff","emd_code":"2641063500","emd_name":"선두구동","area_km2":0.5456,"edge":false,"slope_mean":13.45,"elev_mean":79.9,"flood_hist_n":0,"flood_depth_max_m":null,"flood_risk_100y":null,"semi_basement_r":null,"elderly_alone_r":0.269,"bldg_age30_r":null,"shelter_min_walk":28,"pop":1929,"hh":1108,"elderly65_r":0.4469,"single_hh_r":0.5433,"source_level":"emd","flood_years":[],"landslide_hist_n":0},"geometry":{"type":"Polygon","coordinates":[[[129.11175,35.28347],[129.11089,35.27961],[129.11509,35.27746],[129.12015,35.27916],[129.12101,35.28301],[129.1168,35.28517],[129.11175,35.28347]]]}},{"type":"Feature","properties":{"h3":"8830c175adfffff","emd_code":"2641063500","emd_name":"선두구동","area_km2":0.5456,"edge":false,"slope_mean":12.8,"elev_mean":92.1,"flood_hist_n":0,"flood_depth_max_m":null,"flood_risk_100y":null,"semi_basement_r":null,"elderly_alone_r":0.269,"bldg_age30_r":null,"shelter_min_walk":11,"pop":1929,"hh":1108,"elderly65_r":0.4469,"single_hh_r":0.5433,"source_level":"emd","flood_years":[],"landslide_hist_n":0},"geometry":{"type":"Polygon","coordinates":[[[129.09658,35.27836],[129.09573,35.27451],[129.09993,35.27236],[129.10498,35.27406],[129.10584,35.27791],[129.10164,35.28007],[129.09658,35.27836]]]}},{"type":"Feature","properties":{"h3":"8830c175b5fffff","emd_code":"2641063500","emd_name":"선두구동","area_km2":0.5458,"edge":true,"slope_mean":19.71,"elev_mean":137.5,"flood_hist_n":0,"flood_depth_max_m":null,"flood_risk_100y":null,"semi_basement_r":null,"elderly_alone_r":0.269,"bldg_age30_r":null,"shelter_min_walk":29,"pop":1929,"hh":1108,"elderly65_r":0.4469,"single_hh_r":0.5433,"source_level":"emd","flood_years":[],"landslide_hist_n":0},"geometry":{"type":"Polygon","coordinates":[[[129.12435,35.27701],[129.1235,35.27316],[129.1277,35.271],[129.13275,35.2727],[129.13361,35.27656],[129.12941,35.27871],[129.12435,35.27701]]]}},{"type":"Feature","properties":{"h3":"8830c175b9fffff","emd_code":"2641063500","emd_name":"선두구동","area_km2":0.5456,"edge":true,"slope_mean":18.83,"elev_mean":149.9,"flood_hist_n":0,"flood_depth_max_m":null,"flood_risk_100y":null,"semi_basement_r":null,"elderly_alone_r":0.269,"bldg_age30_r":null,"shelter_min_walk":31,"pop":1929,"hh":1108,"elderly65_r":0.4469,"single_hh_r":0.5433,"source_level":"emd","flood_years":[],"landslide_hist_n":0},"geometry":{"type":"Polygon","coordinates":[[[129.12692,35.28857],[129.12606,35.28471],[129.13026,35.28256],[129.13532,35.28426],[129.13617,35.28811],[129.13197,35.29026],[129.12692,35.28857]]]}},{"type":"Feature","properties":{"h3":"8830c175bdfffff","emd_code":"2641063500","emd_name":"선두구동","area_km2":0.5456,"edge":true,"slope_mean":18.53,"elev_mean":144.8,"flood_hist_n":0,"flood_depth_max_m":null,"flood_risk_100y":null,"semi_basement_r":null,"elderly_alone_r":0.269,"bldg_age30_r":null,"shelter_min_walk":33,"pop":1929,"hh":1108,"elderly65_r":0.4469,"single_hh_r":0.5433,"source_level":"emd","flood_years":[],"landslide_hist_n":0},"geometry":{"type":"Polygon","coordinates":[[[129.12101,35.28301],[129.12015,35.27916],[129.12435,35.27701],[129.12941,35.27871],[129.13026,35.28256],[129.12606,35.28471],[129.12101,35.28301]]]}},{"type":"Feature","properties":{"h3":"8830c175c1fffff","emd_code":"2641063500","emd_name":"선두구동","area_km2":0.5451,"edge":false,"slope_mean":16.88,"elev_mean":126.5,"flood_hist_n":0,"flood_depth_max_m":null,"flood_risk_100y":null,"semi_basement_r":null,"elderly_alone_r":0.269,"bldg_age30_r":null,"shelter_min_walk":19,"pop":1929,"hh":1108,"elderly65_r":0.4469,"single_hh_r":0.5433,"source_level":"emd","flood_years":[],"landslide_hist_n":0},"geometry":{"type":"Polygon","coordinates":[[[129.09836,35.30747],[129.09751,35.30362],[129.10171,35.30147],[129.10676,35.30317],[129.10762,35.30702],[129.10342,35.30917],[129.09836,35.30747]]]}},{"type":"Feature","properties":{"h3":"8830c175c3fffff","emd_code":"2641063500","emd_name":"선두구동","area_km2":0.5452,"edge":true,"slope_mean":3.77,"elev_mean":64.9,"flood_hist_n":1,"flood_depth_max_m":0.707,"flood_risk_100y":null,"semi_basement_r":null,"elderly_alone_r":0.269,"bldg_age30_r":null,"shelter_min_walk":11,"pop":1929,"hh":1108,"elderly65_r":0.4469,"single_hh_r":0.5433,"source_level":"emd","flood_years":[2014],"landslide_hist_n":0},"geometry":{"type":"Polygon","coordinates":[[[129.10762,35.30702],[129.10676,35.30317],[129.11097,35.30102],[129.11602,35.30272],[129.11688,35.30657],[129.11267,35.30872],[129.10762,35.30702]]]}},{"type":"Feature","properties":{"h3":"8830c175c5fffff","emd_code":"2641066500","emd_name":"청룡노포동","area_km2":0.5452,"edge":false,"slope_mean":17.36,"elev_mean":159.7,"flood_hist_n":0,"flood_depth_max_m":null,"flood_risk_100y":null,"semi_basement_r":null,"elderly_alone_r":0.2129,"bldg_age30_r":null,"shelter_min_walk":23,"pop":8844,"hh":4308,"elderly65_r":0.3703,"single_hh_r":0.4041,"source_level":"emd","flood_years":[],"landslide_hist_n":0},"geometry":{"type":"Polygon","coordinates":[[[129.09245,35.30192],[129.0916,35.29807],[129.0958,35.29592],[129.10085,35.29762],[129.10171,35.30147],[129.09751,35.30362],[129.09245,35.30192]]]}},{"type":"Feature","properties":{"h3":"8830c175c7fffff","emd_code":"2641063500","emd_name":"선두구동","area_km2":0.5452,"edge":false,"slope_mean":6.06,"elev_mean":64.5,"flood_hist_n":1,"flood_depth_max_m":0.919,"flood_risk_100y":null,"semi_basement_r":null,"elderly_alone_r":0.269,"bldg_age30_r":null,"shelter_min_walk":10,"pop":1929,"hh":1108,"elderly65_r":0.4469,"single_hh_r":0.5433,"source_level":"emd","flood_years":[2014],"landslide_hist_n":0},"geometry":{"type":"Polygon","coordinates":[[[129.10171,35.30147],[129.10085,35.29762],[129.10505,35.29547],[129.11011,35.29717],[129.11097,35.30102],[129.10676,35.30317],[129.10171,35.30147]]]}},{"type":"Feature","properties":{"h3":"8830c175cdfffff","emd_code":"2641066500","emd_name":"청룡노포동","area_km2":0.5451,"edge":true,"slope_mean":15.01,"elev_mean":184.0,"flood_hist_n":0,"flood_depth_max_m":null,"flood_risk_100y":null,"semi_basement_r":null,"elderly_alone_r":0.2129,"bldg_age30_r":null,"shelter_min_walk":30,"pop":8844,"hh":4308,"elderly65_r":0.3703,"single_hh_r":0.4041,"source_level":"emd","flood_years":[],"landslide_hist_n":0},"geometry":{"type":"Polygon","coordinates":[[[129.0891,35.30792],[129.08825,35.30407],[129.09245,35.30192],[129.09751,35.30362],[129.09836,35.30747],[129.09416,35.30962],[129.0891,35.30792]]]}},{"type":"Feature","properties":{"h3":"8830c175d5fffff","emd_code":"2641063500","emd_name":"선두구동","area_km2":0.5452,"edge":true,"slope_mean":14.05,"elev_mean":131.3,"flood_hist_n":0,"flood_depth_max_m":null,"flood_risk_100y":null,"semi_basement_r":null,"elderly_alone_r":0.269,"bldg_age30_r":null,"shelter_min_walk":15,"pop":1929,"hh":1108,"elderly65_r":0.4469,"single_hh_r":0.5433,"source_level":"emd","flood_years":[],"landslide_hist_n":0},"geometry":{"type":"Polygon","coordinates":[[[129.11688,35.30657],[129.11602,35.30272],[129.12022,35.30057],[129.12528,35.30227],[129.12613,35.30612],[129.12193,35.30827],[129.11688,35.30657]]]}},{"type":"Feature","properties":{"h3":"8830c175e1fffff","emd_code":"2641066500","emd_name":"청룡노포동","area_km2":0.5454,"edge":false,"slope_mean":10.13,"elev_mean":91.5,"flood_hist_n":1,"flood_depth_max_m":0.693,"flood_risk_100y":null,"semi_basement_r":null,"elderly_alone_r":0.2129,"bldg_age30_r":null,"shelter_min_walk":7,"pop":8844,"hh":4308,"elderly65_r":0.3703,"single_hh_r":0.4041,"source_level":"emd","flood_years":[2014],"landslide_hist_n":0},"geometry":{"type":"Polygon","coordinates":[[[129.08989,35.29037],[129.08903,35.28652],[129.09323,35.28437],[129.09829,35.28607],[129.09914,35.28992],[129.09494,35.29207],[129.08989,35.29037]]]}},{"type":"Feature","properties":{"h3":"8830c175e3fffff","emd_code":"2641066500","emd_name":"청룡노포동","area_km2":0.5454,"edge":false,"slope_mean":4.46,"elev_mean":51.5,"flood_hist_n":1,"flood_depth_max_m":0.904,"flood_risk_100y":null,"semi_basement_r":null,"elderly_alone_r":0.2129,"bldg_age30_r":null,"shelter_min_walk":13,"pop":8844,"hh":4308,"elderly65_r":0.3703,"single_hh_r":0.4041,"source_level":"emd","flood_years":[2014],"landslide_hist_n":0},"geometry":{"type":"Polygon","coordinates":[[[129.09914,35.28992],[129.09829,35.28607],[129.10249,35.28392],[129.10755,35.28562],[129.1084,35.28947],[129.1042,35.29162],[129.09914,35.28992]]]}},{"type":"Feature","properties":{"h3":"8830c175e5fffff","emd_code":"2641066500","emd_name":"청룡노포동","area_km2":0.5454,"edge":false,"slope_mean":15.57,"elev_mean":155.3,"flood_hist_n":0,"flood_depth_max_m":null,"flood_risk_100y":null,"semi_basement_r":null,"elderly_alone_r":0.2129,"bldg_age30_r":null,"shelter_min_walk":4,"pop":8844,"hh":4308,"elderly65_r":0.3703,"single_hh_r":0.4041,"source_level":"emd","flood_years":[],"landslide_hist_n":0},"geometry":{"type":"Polygon","coordinates":[[[129.08398,35.28482],[129.08312,35.28097],[129.08733,35.27882],[129.09238,35.28052],[129.09323,35.28437],[129.08903,35.28652],[129.08398,35.28482]]]}},{"type":"Feature","properties":{"h3":"8830c175e7fffff","emd_code":"2641066500","emd_name":"청룡노포동","area_km2":0.5455,"edge":false,"slope_mean":9.25,"elev_mean":79.5,"flood_hist_n":1,"flood_depth_max_m":0.01,"flood_risk_100y":null,"semi_basement_r":null,"elderly_alone_r":0.2129,"bldg_age30_r":null,"shelter_min_walk":5,"pop":8844,"hh":4308,"elderly65_r":0.3703,"single_hh_r":0.4041,"source_level":"emd","flood_years":[2014],"landslide_hist_n":0},"geometry":{"type":"Polygon","coordinates":[[[129.09323,35.28437],[129.09238,35.28052],[129.09658,35.27836],[129.10164,35.28007],[129.10249,35.28392],[129.09829,35.28607],[129.09323,35.28437]]]}},{"type":"Feature","properties":{"h3":"8830c175e9fffff","emd_code":"2641066500","emd_name":"청룡노포동","area_km2":0.5453,"edge":false,"slope_mean":10.79,"elev_mean":116.5,"flood_hist_n":0,"flood_depth_max_m":null,"flood_risk_100y":null,"semi_basement_r":null,"elderly_alone_r":0.2129,"bldg_age30_r":null,"shelter_min_walk":18,"pop":8844,"hh":4308,"elderly65_r":0.3703,"single_hh_r":0.4041,"source_level":"emd","flood_years":[],"landslide_hist_n":0},"geometry":{"type":"Polygon","coordinates":[[[129.08654,35.29637],[129.08569,35.29252],[129.08989,35.29037],[129.09494,35.29207],[129.0958,35.29592],[129.0916,35.29807],[129.08654,35.29637]]]}},{"type":"Feature","properties":{"h3":"8830c175ebfffff","emd_code":"2641066500","emd_name":"청룡노포동","area_km2":0.5453,"edge":false,"slope_mean":10.62,"elev_mean":79.3,"flood_hist_n":1,"flood_depth_max_m":0.743,"flood_risk_100y":null,"semi_basement_r":null,"elderly_alone_r":0.2129,"bldg_age30_r":null,"shelter_min_walk":18,"pop":8844,"hh":4308,"elderly65_r":0.3703,"single_hh_r":0.4041,"source_level":"emd","flood_years":[2014],"landslide_hist_n":0},"geometry":{"type":"Polygon","coordinates":[[[129.0958,35.29592],[129.09494,35.29207],[129.09914,35.28992],[129.1042,35.29162],[129.10505,35.29547],[129.10085,35.29762],[129.0958,35.29592]]]}},{"type":"Feature","properties":{"h3":"8830c175edfffff","emd_code":"2641066500","emd_name":"청룡노포동","area_km2":0.5453,"edge":false,"slope_mean":17.94,"elev_mean":228.0,"flood_hist_n":0,"flood_depth_max_m":null,"flood_risk_100y":null,"semi_basement_r":null,"elderly_alone_r":0.2129,"bldg_age30_r":null,"shelter_min_walk":14,"pop":8844,"hh":4308,"elderly65_r":0.3703,"single_hh_r":0.4041,"source_level":"emd","flood_years":[],"landslide_hist_n":0},"geometry":{"type":"Polygon","coordinates":[[[129.08063,35.29082],[129.07978,35.28697],[129.08398,35.28482],[129.08903,35.28652],[129.08989,35.29037],[129.08569,35.29252],[129.08063,35.29082]]]}}]}