{"type":"FeatureCollection","name":"grid_26470_h3r8","meta":{"sgg_code":"26470","h3_res":8,"n_cells":38,"dem":"Copernicus GLO-30 (bbox-mean)","crs":"EPSG:4326","jumin_basis":"2026-07","flood_src":"행안부 침수흔적도(전국, 재난안전데이터공유플랫폼)","landslide_src":"행안부 산사태 발생이력"},"features":[{"type":"Feature","properties":{"h3":"8830c16035fffff","emd_code":"2647062000","emd_name":"거제2동","area_km2":0.5467,"edge":true,"slope_mean":22.18,"elev_mean":269.4,"flood_hist_n":0,"flood_depth_max_m":null,"flood_risk_100y":null,"semi_basement_r":null,"elderly_alone_r":0.0647,"bldg_age30_r":null,"shelter_min_walk":7,"pop":24972,"hh":9092,"elderly65_r":0.1363,"single_hh_r":0.1909,"source_level":"emd","flood_years":[],"landslide_hist_n":0},"geometry":{"type":"Polygon","coordinates":[[[129.04163,35.1992],[129.04078,35.19535],[129.04497,35.19319],[129.05003,35.1949],[129.05088,35.19876],[129.04668,35.20091],[129.04163,35.1992]]]}},{"type":"Feature","properties":{"h3":"8830c160a1fffff","emd_code":"2647065000","emd_name":"연산1동","area_km2":0.5469,"edge":true,"slope_mean":4.1,"elev_mean":8.4,"flood_hist_n":3,"flood_depth_max_m":1.3,"flood_risk_100y":null,"semi_basement_r":null,"elderly_alone_r":0.1412,"bldg_age30_r":null,"shelter_min_walk":1,"pop":15277,"hh":6913,"elderly65_r":0.2684,"single_hh_r":0.3372,"source_level":"emd","flood_years":[2014,2017,2020],"landslide_hist_n":0},"geometry":{"type":"Polygon","coordinates":[[[129.0879,35.19695],[129.08704,35.19309],[129.09124,35.19094],[129.0963,35.19264],[129.09715,35.1965],[129.09295,35.19865],[129.0879,35.19695]]]}},{"type":"Feature","properties":{"h3":"8830c160a3fffff","emd_code":"2647073000","emd_name":"연산9동","area_km2":0.547,"edge":true,"slope_mean":3.58,"elev_mean":8.6,"flood_hist_n":1,"flood_depth_max_m":0.387,"flood_risk_100y":null,"semi_basement_r":null,"elderly_alone_r":0.1523,"bldg_age30_r":null,"shelter_min_walk":1,"pop":31014,"hh":14078,"elderly65_r":0.2769,"single_hh_r":0.3296,"source_level":"emd","flood_years":[2014],"landslide_hist_n":0},"geometry":{"type":"Polygon","coordinates":[[[129.09715,35.1965],[129.0963,35.19264],[129.1005,35.19048],[129.10555,35.19218],[129.10641,35.19604],[129.1022,35.1982],[129.09715,35.1965]]]}},{"type":"Feature","properties":{"h3":"8830c160a5fffff","emd_code":"2647065000","emd_name":"연산1동","area_km2":0.547,"edge":false,"slope_mean":4.68,"elev_mean":12.3,"flood_hist_n":3,"flood_depth_max_m":1.0,"flood_risk_100y":null,"semi_basement_r":null,"elderly_alone_r":0.1412,"bldg_age30_r":null,"shelter_min_walk":2,"pop":15277,"hh":6913,"elderly65_r":0.2684,"single_hh_r":0.3372,"source_level":"emd","flood_years":[2014,2017,2020],"landslide_hist_n":0},"geometry":{"type":"Polygon","coordinates":[[[129.08199,35.19139],[129.08113,35.18753],[129.08533,35.18537],[129.09039,35.18708],[129.09124,35.19094],[129.08704,35.19309],[129.08199,35.19139]]]}},{"type":"Feature","properties":{"h3":"8830c160a7fffff","emd_code":"2647072000","emd_name":"연산8동","area_km2":0.547,"edge":false,"slope_mean":5.84,"elev_mean":18.9,"flood_hist_n":3,"flood_depth_max_m":1.3,"flood_risk_100y":null,"semi_basement_r":null,"elderly_alone_r":0.1848,"bldg_age30_r":null,"shelter_min_walk":1,"pop":12649,"hh":5854,"elderly65_r":0.2678,"single_hh_r":0.3804,"source_level":"emd","flood_years":[2014,2017,2020],"landslide_hist_n":0},"geometry":{"type":"Polygon","coordinates":[[[129.09124,35.19094],[129.09039,35.18708],[129.09459,35.18492],[129.09964,35.18662],[129.1005,35.19048],[129.0963,35.19264],[129.09124,35.19094]]]}},{"type":"Feature","properties":{"h3":"8830c160adfffff","emd_code":"2647061000","emd_name":"거제1동","area_km2":0.5469,"edge":false,"slope_mean":4.62,"elev_mean":8.8,"flood_hist_n":3,"flood_depth_max_m":1.0,"flood_risk_100y":null,"semi_basement_r":null,"elderly_alone_r":0.1211,"bldg_age30_r":null,"shelter_min_walk":2,"pop":27555,"hh":11402,"elderly65_r":0.2218,"single_hh_r":0.2854,"source_level":"emd","flood_years":[2014,2017,2020],"landslide_hist_n":0},"geometry":{"type":"Polygon","coordinates":[[[129.07864,35.1974],[129.07779,35.19354],[129.08199,35.19139],[129.08704,35.19309],[129.0879,35.19695],[129.0837,35.19911],[129.07864,35.1974]]]}},{"type":"Feature","properties":{"h3":"8830c160e7fffff","emd_code":"2647061000","emd_name":"거제1동","area_km2":0.5468,"edge":true,"slope_mean":3.84,"elev_mean":10.0,"flood_hist_n":1,"flood_depth_max_m":0.878,"flood_risk_100y":null,"semi_basement_r":null,"elderly_alone_r":0.1211,"bldg_age30_r":null,"shelter_min_walk":2,"pop":27555,"hh":11402,"elderly65_r":0.2218,"single_hh_r":0.2854,"source_level":"emd","flood_years":[2014],"landslide_hist_n":0},"geometry":{"type":"Polygon","coordinates":[[[129.0753,35.20342],[129.07444,35.19956],[129.07864,35.1974],[129.0837,35.19911],[129.08455,35.20296],[129.08035,35.20512],[129.0753,35.20342]]]}},{"type":"Feature","properties":{"h3":"8830c16183fffff","emd_code":"2647063000","emd_name":"거제3동","area_km2":0.5472,"edge":true,"slope_mean":7.22,"elev_mean":36.1,"flood_hist_n":0,"flood_depth_max_m":null,"flood_risk_100y":null,"semi_basement_r":null,"elderly_alone_r":0.2015,"bldg_age30_r":null,"shelter_min_walk":4,"pop":8825,"hh":4556,"elderly65_r":0.3599,"single_hh_r":0.4489,"source_level":"emd","flood_years":[],"landslide_hist_n":0},"geometry":{"type":"Polygon","coordinates":[[[129.06426,35.1747],[129.06341,35.17084],[129.06761,35.16868],[129.07266,35.17039],[129.07352,35.17425],[129.06932,35.1764],[129.06426,35.1747]]]}},{"type":"Feature","properties":{"h3":"8830c1618bfffff","emd_code":"2647064000","emd_name":"거제4동","area_km2":0.5471,"edge":false,"slope_mean":10.84,"elev_mean":58.2,"flood_hist_n":0,"flood_depth_max_m":null,"flood_risk_100y":null,"semi_basement_r":null,"elderly_alone_r":0.1624,"bldg_age30_r":null,"shelter_min_walk":4,"pop":9167,"hh":4014,"elderly65_r":0.2894,"single_hh_r":0.3079,"source_level":"emd","flood_years":[],"landslide_hist_n":0},"geometry":{"type":"Polygon","coordinates":[[[129.06092,35.18071],[129.06006,35.17685],[129.06426,35.1747],[129.06932,35.1764],[129.07017,35.18026],[129.06597,35.18242],[129.06092,35.18071]]]}},{"type":"Feature","properties":{"h3":"8830c16191fffff","emd_code":"2647066000","emd_name":"연산2동","area_km2":0.5472,"edge":false,"slope_mean":4.62,"elev_mean":35.1,"flood_hist_n":0,"flood_depth_max_m":null,"flood_risk_100y":null,"semi_basement_r":null,"elderly_alone_r":0.1335,"bldg_age30_r":null,"shelter_min_walk":2,"pop":22870,"hh":11476,"elderly65_r":0.215,"single_hh_r":0.445,"source_level":"emd","flood_years":[],"landslide_hist_n":0},"geometry":{"type":"Polygon","coordinates":[[[129.07942,35.17981],[129.07857,35.17595],[129.08277,35.17379],[129.08782,35.1755],[129.08868,35.17936],[129.08448,35.18151],[129.07942,35.17981]]]}},{"type":"Feature","properties":{"h3":"8830c16193fffff","emd_code":"2647070000","emd_name":"연산6동","area_km2":0.5472,"edge":false,"slope_mean":15.15,"elev_mean":93.5,"flood_hist_n":0,"flood_depth_max_m":null,"flood_risk_100y":null,"semi_basement_r":null,"elderly_alone_r":0.2251,"bldg_age30_r":null,"shelter_min_walk":3,"pop":14945,"hh":7802,"elderly65_r":0.3285,"single_hh_r":0.4637,"source_level":"emd","flood_years":[],"landslide_hist_n":0},"geometry":{"type":"Polygon","coordinates":[[[129.08868,35.17936],[129.08782,35.1755],[129.09202,35.17334],[129.09708,35.17504],[129.09793,35.1789],[129.09373,35.18106],[129.08868,35.17936]]]}},{"type":"Feature","properties":{"h3":"8830c16195fffff","emd_code":"2647066000","emd_name":"연산2동","area_km2":0.5472,"edge":true,"slope_mean":10.56,"elev_mean":72.2,"flood_hist_n":0,"flood_depth_max_m":null,"flood_risk_100y":null,"semi_basement_r":null,"elderly_alone_r":0.1335,"bldg_age30_r":null,"shelter_min_walk":3,"pop":22870,"hh":11476,"elderly65_r":0.215,"single_hh_r":0.445,"source_level":"emd","flood_years":[],"landslide_hist_n":0},"geometry":{"type":"Polygon","coordinates":[[[129.07352,35.17425],[129.07266,35.17039],[129.07686,35.16823],[129.08192,35.16993],[129.08277,35.17379],[129.07857,35.17595],[129.07352,35.17425]]]}},{"type":"Feature","properties":{"h3":"8830c16197fffff","emd_code":"2647070000","emd_name":"연산6동","area_km2":0.5473,"edge":false,"slope_mean":17.06,"elev_mean":100.4,"flood_hist_n":0,"flood_depth_max_m":null,"flood_risk_100y":null,"semi_basement_r":null,"elderly_alone_r":0.2251,"bldg_age30_r":null,"shelter_min_walk":6,"pop":14945,"hh":7802,"elderly65_r":0.3285,"single_hh_r":0.4637,"source_level":"emd","flood_years":[],"landslide_hist_n":0},"geometry":{"type":"Polygon","coordinates":[[[129.08277,35.17379],[129.08192,35.16993],[129.08612,35.16778],[129.09117,35.16948],[129.09202,35.17334],[129.08782,35.1755],[129.08277,35.17379]]]}},{"type":"Feature","properties":{"h3":"8830c16199fffff","emd_code":"2647069000","emd_name":"연산5동","area_km2":0.5471,"edge":false,"slope_mean":4.46,"elev_mean":16.5,"flood_hist_n":3,"flood_depth_max_m":1.1,"flood_risk_100y":null,"semi_basement_r":null,"elderly_alone_r":0.12,"bldg_age30_r":null,"shelter_min_walk":4,"pop":17011,"hh":11299,"elderly65_r":0.2079,"single_hh_r":0.6777,"source_level":"emd","flood_years":[2014,2017,2020],"landslide_hist_n":0},"geometry":{"type":"Polygon","coordinates":[[[129.07608,35.18583],[129.07523,35.18197],[129.07942,35.17981],[129.08448,35.18151],[129.08533,35.18537],[129.08113,35.18753],[129.07608,35.18583]]]}},{"type":"Feature","properties":{"h3":"8830c1619bfffff","emd_code":"2647068000","emd_name":"연산4동","area_km2":0.5471,"edge":false,"slope_mean":11.42,"elev_mean":53.0,"flood_hist_n":0,"flood_depth_max_m":null,"flood_risk_100y":null,"semi_basement_r":null,"elderly_alone_r":0.1729,"bldg_age30_r":null,"shelter_min_walk":3,"pop":17359,"hh":9668,"elderly65_r":0.2932,"single_hh_r":0.5367,"source_level":"emd","flood_years":[],"landslide_hist_n":0},"geometry":{"type":"Polygon","coordinates":[[[129.08533,35.18537],[129.08448,35.18151],[129.08868,35.17936],[129.09373,35.18106],[129.09459,35.18492],[129.09039,35.18708],[129.08533,35.18537]]]}},{"type":"Feature","properties":{"h3":"8830c1619dfffff","emd_code":"2647069000","emd_name":"연산5동","area_km2":0.5471,"edge":false,"slope_mean":4.35,"elev_mean":20.7,"flood_hist_n":0,"flood_depth_max_m":null,"flood_risk_100y":null,"semi_basement_r":null,"elderly_alone_r":0.12,"bldg_age30_r":null,"shelter_min_walk":2,"pop":17011,"hh":11299,"elderly65_r":0.2079,"single_hh_r":0.6777,"source_level":"emd","flood_years":[],"landslide_hist_n":0},"geometry":{"type":"Polygon","coordinates":[[[129.07017,35.18026],[129.06932,35.1764],[129.07352,35.17425],[129.07857,35.17595],[129.07942,35.17981],[129.07523,35.18197],[129.07017,35.18026]]]}},{"type":"Feature","properties":{"h3":"8830c161b1fffff","emd_code":"2647066000","emd_name":"연산2동","area_km2":0.5474,"edge":true,"slope_mean":19.01,"elev_mean":199.9,"flood_hist_n":0,"flood_depth_max_m":null,"flood_risk_100y":null,"semi_basement_r":null,"elderly_alone_r":0.1335,"bldg_age30_r":null,"shelter_min_walk":6,"pop":22870,"hh":11476,"elderly65_r":0.215,"single_hh_r":0.445,"source_level":"emd","flood_years":[],"landslide_hist_n":0},"geometry":{"type":"Polygon","coordinates":[[[129.07096,35.16266],[129.0701,35.1588],[129.0743,35.15665],[129.07935,35.15835],[129.08021,35.16221],[129.07601,35.16437],[129.07096,35.16266]]]}},{"type":"Feature","properties":{"h3":"8830c161b3fffff","emd_code":"2647070000","emd_name":"연산6동","area_km2":0.5475,"edge":false,"slope_mean":23.13,"elev_mean":302.5,"flood_hist_n":0,"flood_depth_max_m":null,"flood_risk_100y":null,"semi_basement_r":null,"elderly_alone_r":0.2251,"bldg_age30_r":null,"shelter_min_walk":15,"pop":14945,"hh":7802,"elderly65_r":0.3285,"single_hh_r":0.4637,"source_level":"emd","flood_years":[],"landslide_hist_n":0},"geometry":{"type":"Polygon","coordinates":[[[129.08021,35.16221],[129.07935,35.15835],[129.08355,35.15619],[129.08861,35.1579],[129.08946,35.16176],[129.08526,35.16392],[129.08021,35.16221]]]}},{"type":"Feature","properties":{"h3":"8830c161bbfffff","emd_code":"2647066000","emd_name":"연산2동","area_km2":0.5474,"edge":false,"slope_mean":20.93,"elev_mean":203.9,"flood_hist_n":0,"flood_depth_max_m":null,"flood_risk_100y":null,"semi_basement_r":null,"elderly_alone_r":0.1335,"bldg_age30_r":null,"shelter_min_walk":9,"pop":22870,"hh":11476,"elderly65_r":0.215,"single_hh_r":0.445,"source_level":"emd","flood_years":[],"landslide_hist_n":0},"geometry":{"type":"Polygon","coordinates":[[[129.07686,35.16823],[129.07601,35.16437],[129.08021,35.16221],[129.08526,35.16392],[129.08612,35.16778],[129.08192,35.16993],[129.07686,35.16823]]]}},{"type":"Feature","properties":{"h3":"8830c161c3fffff","emd_code":"2647062000","emd_name":"거제2동","area_km2":0.5469,"edge":false,"slope_mean":14.37,"elev_mean":104.0,"flood_hist_n":0,"flood_depth_max_m":null,"flood_risk_100y":null,"semi_basement_r":null,"elderly_alone_r":0.0647,"bldg_age30_r":null,"shelter_min_walk":6,"pop":24972,"hh":9092,"elderly65_r":0.1363,"single_hh_r":0.1909,"source_level":"emd","flood_years":[],"landslide_hist_n":0},"geometry":{"type":"Polygon","coordinates":[[[129.04832,35.18718],[129.04747,35.18332],[129.05167,35.18116],[129.05672,35.18287],[129.05757,35.18673],[129.05337,35.18888],[129.04832,35.18718]]]}},{"type":"Feature","properties":{"h3":"8830c161cbfffff","emd_code":"2647062000","emd_name":"거제2동","area_km2":0.5468,"edge":false,"slope_mean":21.4,"elev_mean":182.7,"flood_hist_n":0,"flood_depth_max_m":null,"flood_risk_100y":null,"semi_basement_r":null,"elderly_alone_r":0.0647,"bldg_age30_r":null,"shelter_min_walk":6,"pop":24972,"hh":9092,"elderly65_r":0.1363,"single_hh_r":0.1909,"source_level":"emd","flood_years":[],"landslide_hist_n":0},"geometry":{"type":"Polygon","coordinates":[[[129.04497,35.19319],[129.04412,35.18933],[129.04832,35.18718],[129.05337,35.18888],[129.05423,35.19274],[129.05003,35.1949],[129.04497,35.19319]]]}},{"type":"Feature","properties":{"h3":"8830c161d1fffff","emd_code":"2647062000","emd_name":"거제2동","area_km2":0.5469,"edge":false,"slope_mean":6.13,"elev_mean":24.7,"flood_hist_n":1,"flood_depth_max_m":0.188,"flood_risk_100y":null,"semi_basement_r":null,"elderly_alone_r":0.0647,"bldg_age30_r":null,"shelter_min_walk":2,"pop":24972,"hh":9092,"elderly65_r":0.1363,"single_hh_r":0.1909,"source_level":"emd","flood_years":[2017],"landslide_hist_n":0},"geometry":{"type":"Polygon","coordinates":[[[129.06348,35.19229],[129.06263,35.18843],[129.06683,35.18628],[129.07188,35.18798],[129.07273,35.19184],[129.06853,35.194],[129.06348,35.19229]]]}},{"type":"Feature","properties":{"h3":"8830c161d3fffff","emd_code":"2647061000","emd_name":"거제1동","area_km2":0.5469,"edge":false,"slope_mean":4.87,"elev_mean":11.5,"flood_hist_n":3,"flood_depth_max_m":1.1,"flood_risk_100y":null,"semi_basement_r":null,"elderly_alone_r":0.1211,"bldg_age30_r":null,"shelter_min_walk":5,"pop":27555,"hh":11402,"elderly65_r":0.2218,"single_hh_r":0.2854,"source_level":"emd","flood_years":[2014,2017,2020],"landslide_hist_n":0},"geometry":{"type":"Polygon","coordinates":[[[129.07273,35.19184],[129.07188,35.18798],[129.07608,35.18583],[129.08113,35.18753],[129.08199,35.19139],[129.07779,35.19354],[129.07273,35.19184]]]}},{"type":"Feature","properties":{"h3":"8830c161d5fffff","emd_code":"2647062000","emd_name":"거제2동","area_km2":0.547,"edge":false,"slope_mean":17.52,"elev_mean":117.2,"flood_hist_n":0,"flood_depth_max_m":null,"flood_risk_100y":null,"semi_basement_r":null,"elderly_alone_r":0.0647,"bldg_age30_r":null,"shelter_min_walk":6,"pop":24972,"hh":9092,"elderly65_r":0.1363,"single_hh_r":0.1909,"source_level":"emd","flood_years":[],"landslide_hist_n":0},"geometry":{"type":"Polygon","coordinates":[[[129.05757,35.18673],[129.05672,35.18287],[129.06092,35.18071],[129.06597,35.18242],[129.06683,35.18628],[129.06263,35.18843],[129.05757,35.18673]]]}},{"type":"Feature","properties":{"h3":"8830c161d7fffff","emd_code":"2647063000","emd_name":"거제3동","area_km2":0.547,"edge":false,"slope_mean":6.25,"elev_mean":23.5,"flood_hist_n":3,"flood_depth_max_m":1.0,"flood_risk_100y":null,"semi_basement_r":null,"elderly_alone_r":0.2015,"bldg_age30_r":null,"shelter_min_walk":1,"pop":8825,"hh":4556,"elderly65_r":0.3599,"single_hh_r":0.4489,"source_level":"emd","flood_years":[2014,2017,2020],"landslide_hist_n":0},"geometry":{"type":"Polygon","coordinates":[[[129.06683,35.18628],[129.06597,35.18242],[129.07017,35.18026],[129.07523,35.18197],[129.07608,35.18583],[129.07188,35.18798],[129.06683,35.18628]]]}},{"type":"Feature","properties":{"h3":"8830c161d9fffff","emd_code":"2647062000","emd_name":"거제2동","area_km2":0.5468,"edge":true,"slope_mean":5.13,"elev_mean":22.0,"flood_hist_n":0,"flood_depth_max_m":null,"flood_risk_100y":null,"semi_basement_r":null,"elderly_alone_r":0.0647,"bldg_age30_r":null,"shelter_min_walk":3,"pop":24972,"hh":9092,"elderly65_r":0.1363,"single_hh_r":0.1909,"source_level":"emd","flood_years":[],"landslide_hist_n":0},"geometry":{"type":"Polygon","coordinates":[[[129.06013,35.19831],[129.05928,35.19445],[129.06348,35.19229],[129.06853,35.194],[129.06939,35.19785],[129.06519,35.20001],[129.06013,35.19831]]]}},{"type":"Feature","properties":{"h3":"8830c161dbfffff","emd_code":"2647061000","emd_name":"거제1동","area_km2":0.5468,"edge":false,"slope_mean":4.66,"elev_mean":14.5,"flood_hist_n":1,"flood_depth_max_m":0.465,"flood_risk_100y":null,"semi_basement_r":null,"elderly_alone_r":0.1211,"bldg_age30_r":null,"shelter_min_walk":4,"pop":27555,"hh":11402,"elderly65_r":0.2218,"single_hh_r":0.2854,"source_level":"emd","flood_years":[2014],"landslide_hist_n":0},"geometry":{"type":"Polygon","coordinates":[[[129.06939,35.19785],[129.06853,35.194],[129.07273,35.19184],[129.07779,35.19354],[129.07864,35.1974],[129.07444,35.19956],[129.06939,35.19785]]]}},{"type":"Feature","properties":{"h3":"8830c161ddfffff","emd_code":"2647062000","emd_name":"거제2동","area_km2":0.5468,"edge":false,"slope_mean":12.71,"elev_mean":57.1,"flood_hist_n":0,"flood_depth_max_m":null,"flood_risk_100y":null,"semi_basement_r":null,"elderly_alone_r":0.0647,"bldg_age30_r":null,"shelter_min_walk":5,"pop":24972,"hh":9092,"elderly65_r":0.1363,"single_hh_r":0.1909,"source_level":"emd","flood_years":[],"landslide_hist_n":0},"geometry":{"type":"Polygon","coordinates":[[[129.05423,35.19274],[129.05337,35.18888],[129.05757,35.18673],[129.06263,35.18843],[129.06348,35.19229],[129.05928,35.19445],[129.05423,35.19274]]]}},{"type":"Feature","properties":{"h3":"8830c16e41fffff","emd_code":"2647073000","emd_name":"연산9동","area_km2":0.5472,"edge":false,"slope_mean":8.59,"elev_mean":32.5,"flood_hist_n":0,"flood_depth_max_m":null,"flood_risk_100y":null,"semi_basement_r":null,"elderly_alone_r":0.1523,"bldg_age30_r":null,"shelter_min_walk":2,"pop":31014,"hh":14078,"elderly65_r":0.2769,"single_hh_r":0.3296,"source_level":"emd","flood_years":[],"landslide_hist_n":0},"geometry":{"type":"Polygon","coordinates":[[[129.10384,35.18447],[129.10299,35.18061],[129.10719,35.17845],[129.11224,35.18015],[129.1131,35.18401],[129.1089,35.18617],[129.10384,35.18447]]]}},{"type":"Feature","properties":{"h3":"8830c16e43fffff","emd_code":"2647073000","emd_name":"연산9동","area_km2":0.5473,"edge":true,"slope_mean":5.71,"elev_mean":10.9,"flood_hist_n":1,"flood_depth_max_m":0.974,"flood_risk_100y":null,"semi_basement_r":null,"elderly_alone_r":0.1523,"bldg_age30_r":null,"shelter_min_walk":2,"pop":31014,"hh":14078,"elderly65_r":0.2769,"single_hh_r":0.3296,"source_level":"emd","flood_years":[2017],"landslide_hist_n":0},"geometry":{"type":"Polygon","coordinates":[[[129.1131,35.18401],[129.11224,35.18015],[129.11644,35.17799],[129.1215,35.1797],[129.12235,35.18356],[129.11815,35.18571],[129.1131,35.18401]]]}},{"type":"Feature","properties":{"h3":"8830c16e45fffff","emd_code":"2647073000","emd_name":"연산9동","area_km2":0.5473,"edge":true,"slope_mean":10.8,"elev_mean":65.1,"flood_hist_n":0,"flood_depth_max_m":null,"flood_risk_100y":null,"semi_basement_r":null,"elderly_alone_r":0.1523,"bldg_age30_r":null,"shelter_min_walk":3,"pop":31014,"hh":14078,"elderly65_r":0.2769,"single_hh_r":0.3296,"source_level":"emd","flood_years":[],"landslide_hist_n":0},"geometry":{"type":"Polygon","coordinates":[[[129.09793,35.1789],[129.09708,35.17504],[129.10128,35.17289],[129.10633,35.17459],[129.10719,35.17845],[129.10299,35.18061],[129.09793,35.1789]]]}},{"type":"Feature","properties":{"h3":"8830c16e47fffff","emd_code":"2647073000","emd_name":"연산9동","area_km2":0.5473,"edge":true,"slope_mean":5.72,"elev_mean":21.4,"flood_hist_n":1,"flood_depth_max_m":0.35,"flood_risk_100y":null,"semi_basement_r":null,"elderly_alone_r":0.1523,"bldg_age30_r":null,"shelter_min_walk":5,"pop":31014,"hh":14078,"elderly65_r":0.2769,"single_hh_r":0.3296,"source_level":"emd","flood_years":[2017],"landslide_hist_n":0},"geometry":{"type":"Polygon","coordinates":[[[129.10719,35.17845],[129.10633,35.17459],[129.11053,35.17243],[129.11559,35.17413],[129.11644,35.17799],[129.11224,35.18015],[129.10719,35.17845]]]}},{"type":"Feature","properties":{"h3":"8830c16e49fffff","emd_code":"2647073000","emd_name":"연산9동","area_km2":0.5471,"edge":false,"slope_mean":4.61,"elev_mean":10.0,"flood_hist_n":2,"flood_depth_max_m":1.0,"flood_risk_100y":null,"semi_basement_r":null,"elderly_alone_r":0.1523,"bldg_age30_r":null,"shelter_min_walk":5,"pop":31014,"hh":14078,"elderly65_r":0.2769,"single_hh_r":0.3296,"source_level":"emd","flood_years":[2014,2020],"landslide_hist_n":0},"geometry":{"type":"Polygon","coordinates":[[[129.1005,35.19048],[129.09964,35.18662],[129.10384,35.18447],[129.1089,35.18617],[129.10975,35.19003],[129.10555,35.19218],[129.1005,35.19048]]]}},{"type":"Feature","properties":{"h3":"8830c16e4bfffff","emd_code":"2647073000","emd_name":"연산9동","area_km2":0.5471,"edge":true,"slope_mean":5.05,"elev_mean":9.5,"flood_hist_n":1,"flood_depth_max_m":0.486,"flood_risk_100y":null,"semi_basement_r":null,"elderly_alone_r":0.1523,"bldg_age30_r":null,"shelter_min_walk":5,"pop":31014,"hh":14078,"elderly65_r":0.2769,"single_hh_r":0.3296,"source_level":"emd","flood_years":[2014],"landslide_hist_n":0},"geometry":{"type":"Polygon","coordinates":[[[129.10975,35.19003],[129.1089,35.18617],[129.1131,35.18401],[129.11815,35.18571],[129.11901,35.18957],[129.11481,35.19173],[129.10975,35.19003]]]}},{"type":"Feature","properties":{"h3":"8830c16e4dfffff","emd_code":"2647072000","emd_name":"연산8동","area_km2":0.5472,"edge":false,"slope_mean":16.55,"elev_mean":90.0,"flood_hist_n":0,"flood_depth_max_m":null,"flood_risk_100y":null,"semi_basement_r":null,"elderly_alone_r":0.1848,"bldg_age30_r":null,"shelter_min_walk":3,"pop":12649,"hh":5854,"elderly65_r":0.2678,"single_hh_r":0.3804,"source_level":"emd","flood_years":[],"landslide_hist_n":0},"geometry":{"type":"Polygon","coordinates":[[[129.09459,35.18492],[129.09373,35.18106],[129.09793,35.1789],[129.10299,35.18061],[129.10384,35.18447],[129.09964,35.18662],[129.09459,35.18492]]]}},{"type":"Feature","properties":{"h3":"8830c16e65fffff","emd_code":"2647067000","emd_name":"연산3동","area_km2":0.5475,"edge":true,"slope_mean":23.54,"elev_mean":289.3,"flood_hist_n":0,"flood_depth_max_m":null,"flood_risk_100y":null,"semi_basement_r":null,"elderly_alone_r":0.2004,"bldg_age30_r":null,"shelter_min_walk":16,"pop":9936,"hh":4919,"elderly65_r":0.29,"single_hh_r":0.4186,"source_level":"emd","flood_years":[],"landslide_hist_n":0},"geometry":{"type":"Polygon","coordinates":[[[129.08946,35.16176],[129.08861,35.1579],[129.09281,35.15574],[129.09786,35.15744],[129.09872,35.1613],[129.09452,35.16346],[129.08946,35.16176]]]}},{"type":"Feature","properties":{"h3":"8830c16e69fffff","emd_code":"2647067000","emd_name":"연산3동","area_km2":0.5473,"edge":false,"slope_mean":13.79,"elev_mean":98.8,"flood_hist_n":0,"flood_depth_max_m":null,"flood_risk_100y":null,"semi_basement_r":null,"elderly_alone_r":0.2004,"bldg_age30_r":null,"shelter_min_walk":2,"pop":9936,"hh":4919,"elderly65_r":0.29,"single_hh_r":0.4186,"source_level":"emd","flood_years":[],"landslide_hist_n":0},"geometry":{"type":"Polygon","coordinates":[[[129.09202,35.17334],[129.09117,35.16948],[129.09537,35.16732],[129.10042,35.16903],[129.10128,35.17289],[129.09708,35.17504],[129.09202,35.17334]]]}},{"type":"Feature","properties":{"h3":"8830c16e6dfffff","emd_code":"2647067000","emd_name":"연산3동","area_km2":0.5474,"edge":false,"slope_mean":24.03,"elev_mean":226.3,"flood_hist_n":0,"flood_depth_max_m":null,"flood_risk_100y":null,"semi_basement_r":null,"elderly_alone_r":0.2004,"bldg_age30_r":null,"shelter_min_walk":12,"pop":9936,"hh":4919,"elderly65_r":0.29,"single_hh_r":0.4186,"source_level":"emd","flood_years":[],"landslide_hist_n":0},"geometry":{"type":"Polygon","coordinates":[[[129.08612,35.16778],[129.08526,35.16392],[129.08946,35.16176],[129.09452,35.16346],[129.09537,35.16732],[129.09117,35.16948],[129.08612,35.16778]]]}}]}