{"type":"FeatureCollection","name":"grid_26500_h3r8","meta":{"sgg_code":"26500","h3_res":8,"n_cells":37,"dem":"Copernicus GLO-30 (bbox-mean)","crs":"EPSG:4326","jumin_basis":"2026-07","flood_src":"행안부 침수흔적도(전국, 재난안전데이터공유플랫폼)","landslide_src":"행안부 산사태 발생이력"},"features":[{"type":"Feature","properties":{"h3":"8830c16193fffff","emd_code":"2650074000","emd_name":"망미1동","area_km2":0.5472,"edge":true,"slope_mean":14.85,"elev_mean":92.0,"flood_hist_n":0,"flood_depth_max_m":null,"flood_risk_100y":null,"semi_basement_r":null,"elderly_alone_r":0.2032,"bldg_age30_r":null,"shelter_min_walk":3,"pop":24789,"hh":11978,"elderly65_r":0.3377,"single_hh_r":0.393,"source_level":"emd","flood_years":[],"landslide_hist_n":0},"geometry":{"type":"Polygon","coordinates":[[[129.08868,35.17936],[129.08782,35.1755],[129.09202,35.17334],[129.09708,35.17504],[129.09793,35.1789],[129.09373,35.18106],[129.08868,35.17936]]]}},{"type":"Feature","properties":{"h3":"8830c16c4dfffff","emd_code":"2650066000","emd_name":"남천1동","area_km2":0.548,"edge":true,"slope_mean":0.3,"elev_mean":0.2,"flood_hist_n":0,"flood_depth_max_m":null,"flood_risk_100y":null,"semi_basement_r":null,"elderly_alone_r":0.1266,"bldg_age30_r":null,"shelter_min_walk":11,"pop":16314,"hh":7607,"elderly65_r":0.2296,"single_hh_r":0.4024,"source_level":"emd","flood_years":[],"landslide_hist_n":0},"geometry":{"type":"Polygon","coordinates":[[[129.11801,35.14278],[129.11715,35.13892],[129.12135,35.13676],[129.12641,35.13846],[129.12726,35.14233],[129.12306,35.14449],[129.11801,35.14278]]]}},{"type":"Feature","properties":{"h3":"8830c16e01fffff","emd_code":"2650073000","emd_name":"수영동","area_km2":0.5475,"edge":false,"slope_mean":3.52,"elev_mean":5.6,"flood_hist_n":3,"flood_depth_max_m":0.7,"flood_risk_100y":null,"semi_basement_r":null,"elderly_alone_r":0.219,"bldg_age30_r":null,"shelter_min_walk":4,"pop":13363,"hh":7690,"elderly65_r":0.3739,"single_hh_r":0.5438,"source_level":"emd","flood_years":[2014,2017,2020],"landslide_hist_n":0},"geometry":{"type":"Polygon","coordinates":[[[129.11979,35.17198],[129.11893,35.16811],[129.12313,35.16596],[129.12819,35.16766],[129.12904,35.17152],[129.12484,35.17368],[129.11979,35.17198]]]}},{"type":"Feature","properties":{"h3":"8830c16e05fffff","emd_code":"2650076000","emd_name":"광안1동","area_km2":0.5476,"edge":false,"slope_mean":7.28,"elev_mean":18.4,"flood_hist_n":3,"flood_depth_max_m":0.6,"flood_risk_100y":null,"semi_basement_r":null,"elderly_alone_r":0.1291,"bldg_age30_r":null,"shelter_min_walk":4,"pop":24264,"hh":14619,"elderly65_r":0.2502,"single_hh_r":0.6118,"source_level":"emd","flood_years":[2014,2017,2020],"landslide_hist_n":0},"geometry":{"type":"Polygon","coordinates":[[[129.11388,35.16641],[129.11302,35.16255],[129.11723,35.16039],[129.12228,35.1621],[129.12313,35.16596],[129.11893,35.16811],[129.11388,35.16641]]]}},{"type":"Feature","properties":{"h3":"8830c16e07fffff","emd_code":"2650080000","emd_name":"민락동","area_km2":0.5476,"edge":false,"slope_mean":9.81,"elev_mean":23.7,"flood_hist_n":0,"flood_depth_max_m":null,"flood_risk_100y":null,"semi_basement_r":null,"elderly_alone_r":0.1354,"bldg_age30_r":null,"shelter_min_walk":5,"pop":26901,"hh":13214,"elderly65_r":0.2545,"single_hh_r":0.4263,"source_level":"emd","flood_years":[],"landslide_hist_n":0},"geometry":{"type":"Polygon","coordinates":[[[129.12313,35.16596],[129.12228,35.1621],[129.12648,35.15994],[129.13154,35.16164],[129.13239,35.1655],[129.12819,35.16766],[129.12313,35.16596]]]}},{"type":"Feature","properties":{"h3":"8830c16e09fffff","emd_code":"2650075000","emd_name":"망미2동","area_km2":0.5474,"edge":true,"slope_mean":2.29,"elev_mean":4.7,"flood_hist_n":2,"flood_depth_max_m":0.55,"flood_risk_100y":null,"semi_basement_r":null,"elderly_alone_r":0.192,"bldg_age30_r":null,"shelter_min_walk":4,"pop":9432,"hh":4740,"elderly65_r":0.3182,"single_hh_r":0.416,"source_level":"emd","flood_years":[2017,2020],"landslide_hist_n":0},"geometry":{"type":"Polygon","coordinates":[[[129.11644,35.17799],[129.11559,35.17413],[129.11979,35.17198],[129.12484,35.17368],[129.1257,35.17754],[129.1215,35.1797],[129.11644,35.17799]]]}},{"type":"Feature","properties":{"h3":"8830c16e0dfffff","emd_code":"2650073000","emd_name":"수영동","area_km2":0.5474,"edge":false,"slope_mean":3.66,"elev_mean":11.3,"flood_hist_n":3,"flood_depth_max_m":0.7,"flood_risk_100y":null,"semi_basement_r":null,"elderly_alone_r":0.219,"bldg_age30_r":null,"shelter_min_walk":1,"pop":13363,"hh":7690,"elderly65_r":0.3739,"single_hh_r":0.5438,"source_level":"emd","flood_years":[2014,2017,2020],"landslide_hist_n":0},"geometry":{"type":"Polygon","coordinates":[[[129.11053,35.17243],[129.10968,35.16857],[129.11388,35.16641],[129.11893,35.16811],[129.11979,35.17198],[129.11559,35.17413],[129.11053,35.17243]]]}},{"type":"Feature","properties":{"h3":"8830c16e21fffff","emd_code":"2650077000","emd_name":"광안2동","area_km2":0.5477,"edge":false,"slope_mean":3.32,"elev_mean":10.5,"flood_hist_n":3,"flood_depth_max_m":0.871,"flood_risk_100y":null,"semi_basement_r":null,"elderly_alone_r":0.1264,"bldg_age30_r":null,"shelter_min_walk":1,"pop":17680,"hh":9877,"elderly65_r":0.2449,"single_hh_r":0.5439,"source_level":"emd","flood_years":[2014,2016,2020],"landslide_hist_n":0},"geometry":{"type":"Polygon","coordinates":[[[129.11132,35.15483],[129.11046,35.15097],[129.11466,35.14881],[129.11972,35.15051],[129.12057,35.15437],[129.11637,35.15653],[129.11132,35.15483]]]}},{"type":"Feature","properties":{"h3":"8830c16e23fffff","emd_code":"2650080000","emd_name":"민락동","area_km2":0.5478,"edge":true,"slope_mean":1.32,"elev_mean":1.7,"flood_hist_n":1,"flood_depth_max_m":0.48,"flood_risk_100y":null,"semi_basement_r":null,"elderly_alone_r":0.1354,"bldg_age30_r":null,"shelter_min_walk":4,"pop":26901,"hh":13214,"elderly65_r":0.2545,"single_hh_r":0.4263,"source_level":"emd","flood_years":[2016],"landslide_hist_n":0},"geometry":{"type":"Polygon","coordinates":[[[129.12057,35.15437],[129.11972,35.15051],[129.12392,35.14835],[129.12897,35.15005],[129.12983,35.15391],[129.12563,35.15607],[129.12057,35.15437]]]}},{"type":"Feature","properties":{"h3":"8830c16e25fffff","emd_code":"2650066000","emd_name":"남천1동","area_km2":0.5478,"edge":false,"slope_mean":8.35,"elev_mean":35.2,"flood_hist_n":0,"flood_depth_max_m":null,"flood_risk_100y":null,"semi_basement_r":null,"elderly_alone_r":0.1266,"bldg_age30_r":null,"shelter_min_walk":4,"pop":16314,"hh":7607,"elderly65_r":0.2296,"single_hh_r":0.4024,"source_level":"emd","flood_years":[],"landslide_hist_n":0},"geometry":{"type":"Polygon","coordinates":[[[129.10541,35.14926],[129.10455,35.1454],[129.10875,35.14324],[129.11381,35.14494],[129.11466,35.14881],[129.11046,35.15097],[129.10541,35.14926]]]}},{"type":"Feature","properties":{"h3":"8830c16e27fffff","emd_code":"2650067000","emd_name":"남천2동","area_km2":0.5479,"edge":true,"slope_mean":1.37,"elev_mean":2.3,"flood_hist_n":0,"flood_depth_max_m":null,"flood_risk_100y":null,"semi_basement_r":null,"elderly_alone_r":0.1123,"bldg_age30_r":null,"shelter_min_walk":6,"pop":13262,"hh":5671,"elderly65_r":0.2467,"single_hh_r":0.2918,"source_level":"emd","flood_years":[],"landslide_hist_n":0},"geometry":{"type":"Polygon","coordinates":[[[129.11466,35.14881],[129.11381,35.14494],[129.11801,35.14278],[129.12306,35.14449],[129.12392,35.14835],[129.11972,35.15051],[129.11466,35.14881]]]}},{"type":"Feature","properties":{"h3":"8830c16e29fffff","emd_code":"2650079000","emd_name":"광안4동","area_km2":0.5476,"edge":false,"slope_mean":4.84,"elev_mean":24.0,"flood_hist_n":0,"flood_depth_max_m":null,"flood_risk_100y":null,"semi_basement_r":null,"elderly_alone_r":0.1381,"bldg_age30_r":null,"shelter_min_walk":1,"pop":14043,"hh":6801,"elderly65_r":0.2517,"single_hh_r":0.4388,"source_level":"emd","flood_years":[],"landslide_hist_n":0},"geometry":{"type":"Polygon","coordinates":[[[129.10797,35.16085],[129.10712,35.15699],[129.11132,35.15483],[129.11637,35.15653],[129.11723,35.16039],[129.11302,35.16255],[129.10797,35.16085]]]}},{"type":"Feature","properties":{"h3":"8830c16e2bfffff","emd_code":"2650080000","emd_name":"민락동","area_km2":0.5477,"edge":false,"slope_mean":5.31,"elev_mean":17.4,"flood_hist_n":3,"flood_depth_max_m":0.617,"flood_risk_100y":null,"semi_basement_r":null,"elderly_alone_r":0.1354,"bldg_age30_r":null,"shelter_min_walk":4,"pop":26901,"hh":13214,"elderly65_r":0.2545,"single_hh_r":0.4263,"source_level":"emd","flood_years":[2014,2016,2020],"landslide_hist_n":0},"geometry":{"type":"Polygon","coordinates":[[[129.11723,35.16039],[129.11637,35.15653],[129.12057,35.15437],[129.12563,35.15607],[129.12648,35.15994],[129.12228,35.1621],[129.11723,35.16039]]]}},{"type":"Feature","properties":{"h3":"8830c16e2dfffff","emd_code":"2650079000","emd_name":"광안4동","area_km2":0.5477,"edge":false,"slope_mean":15.92,"elev_mean":97.0,"flood_hist_n":0,"flood_depth_max_m":null,"flood_risk_100y":null,"semi_basement_r":null,"elderly_alone_r":0.1381,"bldg_age30_r":null,"shelter_min_walk":4,"pop":14043,"hh":6801,"elderly65_r":0.2517,"single_hh_r":0.4388,"source_level":"emd","flood_years":[],"landslide_hist_n":0},"geometry":{"type":"Polygon","coordinates":[[[129.10206,35.15528],[129.10121,35.15142],[129.10541,35.14926],[129.11046,35.15097],[129.11132,35.15483],[129.10712,35.15699],[129.10206,35.15528]]]}},{"type":"Feature","properties":{"h3":"8830c16e31fffff","emd_code":"2650080000","emd_name":"민락동","area_km2":0.5478,"edge":true,"slope_mean":1.89,"elev_mean":2.3,"flood_hist_n":1,"flood_depth_max_m":0.132,"flood_risk_100y":null,"semi_basement_r":null,"elderly_alone_r":0.1354,"bldg_age30_r":null,"shelter_min_walk":5,"pop":26901,"hh":13214,"elderly65_r":0.2545,"single_hh_r":0.4263,"source_level":"emd","flood_years":[2016],"landslide_hist_n":0},"geometry":{"type":"Polygon","coordinates":[[[129.13574,35.15948],[129.13488,35.15562],[129.13908,35.15346],[129.14414,35.15516],[129.14499,35.15902],[129.14079,35.16118],[129.13574,35.15948]]]}},{"type":"Feature","properties":{"h3":"8830c16e35fffff","emd_code":"2650080000","emd_name":"민락동","area_km2":0.5478,"edge":true,"slope_mean":0.67,"elev_mean":0.7,"flood_hist_n":1,"flood_depth_max_m":0.48,"flood_risk_100y":null,"semi_basement_r":null,"elderly_alone_r":0.1354,"bldg_age30_r":null,"shelter_min_walk":9,"pop":26901,"hh":13214,"elderly65_r":0.2545,"single_hh_r":0.4263,"source_level":"emd","flood_years":[2016],"landslide_hist_n":0},"geometry":{"type":"Polygon","coordinates":[[[129.12983,35.15391],[129.12897,35.15005],[129.13317,35.14789],[129.13823,35.14959],[129.13908,35.15346],[129.13488,35.15562],[129.12983,35.15391]]]}},{"type":"Feature","properties":{"h3":"8830c16e39fffff","emd_code":"2650080000","emd_name":"민락동","area_km2":0.5477,"edge":true,"slope_mean":3.79,"elev_mean":5.5,"flood_hist_n":0,"flood_depth_max_m":null,"flood_risk_100y":null,"semi_basement_r":null,"elderly_alone_r":0.1354,"bldg_age30_r":null,"shelter_min_walk":9,"pop":26901,"hh":13214,"elderly65_r":0.2545,"single_hh_r":0.4263,"source_level":"emd","flood_years":[],"landslide_hist_n":0},"geometry":{"type":"Polygon","coordinates":[[[129.13239,35.1655],[129.13154,35.16164],[129.13574,35.15948],[129.14079,35.16118],[129.14165,35.16504],[129.13745,35.1672],[129.13239,35.1655]]]}},{"type":"Feature","properties":{"h3":"8830c16e3dfffff","emd_code":"2650080000","emd_name":"민락동","area_km2":0.5477,"edge":false,"slope_mean":6.36,"elev_mean":11.0,"flood_hist_n":1,"flood_depth_max_m":0.48,"flood_risk_100y":null,"semi_basement_r":null,"elderly_alone_r":0.1354,"bldg_age30_r":null,"shelter_min_walk":2,"pop":26901,"hh":13214,"elderly65_r":0.2545,"single_hh_r":0.4263,"source_level":"emd","flood_years":[2016],"landslide_hist_n":0},"geometry":{"type":"Polygon","coordinates":[[[129.12648,35.15994],[129.12563,35.15607],[129.12983,35.15391],[129.13488,35.15562],[129.13574,35.15948],[129.13154,35.16164],[129.12648,35.15994]]]}},{"type":"Feature","properties":{"h3":"8830c16e41fffff","emd_code":"2650074000","emd_name":"망미1동","area_km2":0.5472,"edge":true,"slope_mean":8.42,"elev_mean":32.1,"flood_hist_n":0,"flood_depth_max_m":null,"flood_risk_100y":null,"semi_basement_r":null,"elderly_alone_r":0.2032,"bldg_age30_r":null,"shelter_min_walk":2,"pop":24789,"hh":11978,"elderly65_r":0.3377,"single_hh_r":0.393,"source_level":"emd","flood_years":[],"landslide_hist_n":0},"geometry":{"type":"Polygon","coordinates":[[[129.10384,35.18447],[129.10299,35.18061],[129.10719,35.17845],[129.11224,35.18015],[129.1131,35.18401],[129.1089,35.18617],[129.10384,35.18447]]]}},{"type":"Feature","properties":{"h3":"8830c16e43fffff","emd_code":"2650075000","emd_name":"망미2동","area_km2":0.5473,"edge":false,"slope_mean":5.66,"elev_mean":10.8,"flood_hist_n":1,"flood_depth_max_m":0.974,"flood_risk_100y":null,"semi_basement_r":null,"elderly_alone_r":0.192,"bldg_age30_r":null,"shelter_min_walk":2,"pop":9432,"hh":4740,"elderly65_r":0.3182,"single_hh_r":0.416,"source_level":"emd","flood_years":[2017],"landslide_hist_n":0},"geometry":{"type":"Polygon","coordinates":[[[129.1131,35.18401],[129.11224,35.18015],[129.11644,35.17799],[129.1215,35.1797],[129.12235,35.18356],[129.11815,35.18571],[129.1131,35.18401]]]}},{"type":"Feature","properties":{"h3":"8830c16e45fffff","emd_code":"2650074000","emd_name":"망미1동","area_km2":0.5473,"edge":false,"slope_mean":11.25,"elev_mean":67.0,"flood_hist_n":0,"flood_depth_max_m":null,"flood_risk_100y":null,"semi_basement_r":null,"elderly_alone_r":0.2032,"bldg_age30_r":null,"shelter_min_walk":3,"pop":24789,"hh":11978,"elderly65_r":0.3377,"single_hh_r":0.393,"source_level":"emd","flood_years":[],"landslide_hist_n":0},"geometry":{"type":"Polygon","coordinates":[[[129.09793,35.1789],[129.09708,35.17504],[129.10128,35.17289],[129.10633,35.17459],[129.10719,35.17845],[129.10299,35.18061],[129.09793,35.1789]]]}},{"type":"Feature","properties":{"h3":"8830c16e47fffff","emd_code":"2650075000","emd_name":"망미2동","area_km2":0.5473,"edge":false,"slope_mean":6.03,"elev_mean":22.6,"flood_hist_n":1,"flood_depth_max_m":0.35,"flood_risk_100y":null,"semi_basement_r":null,"elderly_alone_r":0.192,"bldg_age30_r":null,"shelter_min_walk":5,"pop":9432,"hh":4740,"elderly65_r":0.3182,"single_hh_r":0.416,"source_level":"emd","flood_years":[2017],"landslide_hist_n":0},"geometry":{"type":"Polygon","coordinates":[[[129.10719,35.17845],[129.10633,35.17459],[129.11053,35.17243],[129.11559,35.17413],[129.11644,35.17799],[129.11224,35.18015],[129.10719,35.17845]]]}},{"type":"Feature","properties":{"h3":"8830c16e4bfffff","emd_code":"2650075000","emd_name":"망미2동","area_km2":0.5471,"edge":true,"slope_mean":5.04,"elev_mean":9.3,"flood_hist_n":1,"flood_depth_max_m":0.486,"flood_risk_100y":null,"semi_basement_r":null,"elderly_alone_r":0.192,"bldg_age30_r":null,"shelter_min_walk":5,"pop":9432,"hh":4740,"elderly65_r":0.3182,"single_hh_r":0.416,"source_level":"emd","flood_years":[2014],"landslide_hist_n":0},"geometry":{"type":"Polygon","coordinates":[[[129.10975,35.19003],[129.1089,35.18617],[129.1131,35.18401],[129.11815,35.18571],[129.11901,35.18957],[129.11481,35.19173],[129.10975,35.19003]]]}},{"type":"Feature","properties":{"h3":"8830c16e4dfffff","emd_code":"2650074000","emd_name":"망미1동","area_km2":0.5472,"edge":true,"slope_mean":16.55,"elev_mean":90.0,"flood_hist_n":0,"flood_depth_max_m":null,"flood_risk_100y":null,"semi_basement_r":null,"elderly_alone_r":0.2032,"bldg_age30_r":null,"shelter_min_walk":3,"pop":24789,"hh":11978,"elderly65_r":0.3377,"single_hh_r":0.393,"source_level":"emd","flood_years":[],"landslide_hist_n":0},"geometry":{"type":"Polygon","coordinates":[[[129.09459,35.18492],[129.09373,35.18106],[129.09793,35.1789],[129.10299,35.18061],[129.10384,35.18447],[129.09964,35.18662],[129.09459,35.18492]]]}},{"type":"Feature","properties":{"h3":"8830c16e61fffff","emd_code":"2650074000","emd_name":"망미1동","area_km2":0.5475,"edge":false,"slope_mean":24.28,"elev_mean":192.8,"flood_hist_n":0,"flood_depth_max_m":null,"flood_risk_100y":null,"semi_basement_r":null,"elderly_alone_r":0.2032,"bldg_age30_r":null,"shelter_min_walk":9,"pop":24789,"hh":11978,"elderly65_r":0.3377,"single_hh_r":0.393,"source_level":"emd","flood_years":[],"landslide_hist_n":0},"geometry":{"type":"Polygon","coordinates":[[[129.09537,35.16732],[129.09452,35.16346],[129.09872,35.1613],[129.10377,35.16301],[129.10462,35.16687],[129.10042,35.16903],[129.09537,35.16732]]]}},{"type":"Feature","properties":{"h3":"8830c16e63fffff","emd_code":"2650076000","emd_name":"광안1동","area_km2":0.5475,"edge":false,"slope_mean":9.17,"elev_mean":42.6,"flood_hist_n":0,"flood_depth_max_m":null,"flood_risk_100y":null,"semi_basement_r":null,"elderly_alone_r":0.1291,"bldg_age30_r":null,"shelter_min_walk":1,"pop":24264,"hh":14619,"elderly65_r":0.2502,"single_hh_r":0.6118,"source_level":"emd","flood_years":[],"landslide_hist_n":0},"geometry":{"type":"Polygon","coordinates":[[[129.10462,35.16687],[129.10377,35.16301],[129.10797,35.16085],[129.11302,35.16255],[129.11388,35.16641],[129.10968,35.16857],[129.10462,35.16687]]]}},{"type":"Feature","properties":{"h3":"8830c16e65fffff","emd_code":"2650076000","emd_name":"광안1동","area_km2":0.5475,"edge":true,"slope_mean":23.59,"elev_mean":292.8,"flood_hist_n":0,"flood_depth_max_m":null,"flood_risk_100y":null,"semi_basement_r":null,"elderly_alone_r":0.1291,"bldg_age30_r":null,"shelter_min_walk":16,"pop":24264,"hh":14619,"elderly65_r":0.2502,"single_hh_r":0.6118,"source_level":"emd","flood_years":[],"landslide_hist_n":0},"geometry":{"type":"Polygon","coordinates":[[[129.08946,35.16176],[129.08861,35.1579],[129.09281,35.15574],[129.09786,35.15744],[129.09872,35.1613],[129.09452,35.16346],[129.08946,35.16176]]]}},{"type":"Feature","properties":{"h3":"8830c16e67fffff","emd_code":"2650079000","emd_name":"광안4동","area_km2":0.5476,"edge":false,"slope_mean":20.84,"elev_mean":148.2,"flood_hist_n":0,"flood_depth_max_m":null,"flood_risk_100y":null,"semi_basement_r":null,"elderly_alone_r":0.1381,"bldg_age30_r":null,"shelter_min_walk":8,"pop":14043,"hh":6801,"elderly65_r":0.2517,"single_hh_r":0.4388,"source_level":"emd","flood_years":[],"landslide_hist_n":0},"geometry":{"type":"Polygon","coordinates":[[[129.09872,35.1613],[129.09786,35.15744],[129.10206,35.15528],[129.10712,35.15699],[129.10797,35.16085],[129.10377,35.16301],[129.09872,35.1613]]]}},{"type":"Feature","properties":{"h3":"8830c16e69fffff","emd_code":"2650074000","emd_name":"망미1동","area_km2":0.5473,"edge":true,"slope_mean":13.4,"elev_mean":95.2,"flood_hist_n":0,"flood_depth_max_m":null,"flood_risk_100y":null,"semi_basement_r":null,"elderly_alone_r":0.2032,"bldg_age30_r":null,"shelter_min_walk":2,"pop":24789,"hh":11978,"elderly65_r":0.3377,"single_hh_r":0.393,"source_level":"emd","flood_years":[],"landslide_hist_n":0},"geometry":{"type":"Polygon","coordinates":[[[129.09202,35.17334],[129.09117,35.16948],[129.09537,35.16732],[129.10042,35.16903],[129.10128,35.17289],[129.09708,35.17504],[129.09202,35.17334]]]}},{"type":"Feature","properties":{"h3":"8830c16e6bfffff","emd_code":"2650074000","emd_name":"망미1동","area_km2":0.5474,"edge":false,"slope_mean":7.07,"elev_mean":39.0,"flood_hist_n":0,"flood_depth_max_m":null,"flood_risk_100y":null,"semi_basement_r":null,"elderly_alone_r":0.2032,"bldg_age30_r":null,"shelter_min_walk":3,"pop":24789,"hh":11978,"elderly65_r":0.3377,"single_hh_r":0.393,"source_level":"emd","flood_years":[],"landslide_hist_n":0},"geometry":{"type":"Polygon","coordinates":[[[129.10128,35.17289],[129.10042,35.16903],[129.10462,35.16687],[129.10968,35.16857],[129.11053,35.17243],[129.10633,35.17459],[129.10128,35.17289]]]}},{"type":"Feature","properties":{"h3":"8830c16e6dfffff","emd_code":"2650074000","emd_name":"망미1동","area_km2":0.5474,"edge":true,"slope_mean":24.05,"elev_mean":219.4,"flood_hist_n":0,"flood_depth_max_m":null,"flood_risk_100y":null,"semi_basement_r":null,"elderly_alone_r":0.2032,"bldg_age30_r":null,"shelter_min_walk":12,"pop":24789,"hh":11978,"elderly65_r":0.3377,"single_hh_r":0.393,"source_level":"emd","flood_years":[],"landslide_hist_n":0},"geometry":{"type":"Polygon","coordinates":[[[129.08612,35.16778],[129.08526,35.16392],[129.08946,35.16176],[129.09452,35.16346],[129.09537,35.16732],[129.09117,35.16948],[129.08612,35.16778]]]}},{"type":"Feature","properties":{"h3":"8830c16f11fffff","emd_code":"2650066000","emd_name":"남천1동","area_km2":0.548,"edge":true,"slope_mean":5.24,"elev_mean":8.4,"flood_hist_n":0,"flood_depth_max_m":null,"flood_risk_100y":null,"semi_basement_r":null,"elderly_alone_r":0.1266,"bldg_age30_r":null,"shelter_min_walk":6,"pop":16314,"hh":7607,"elderly65_r":0.2296,"single_hh_r":0.4024,"source_level":"emd","flood_years":[],"landslide_hist_n":0},"geometry":{"type":"Polygon","coordinates":[[[129.10284,35.13767],[129.10199,35.13381],[129.10619,35.13165],[129.11124,35.13336],[129.1121,35.13722],[129.1079,35.13938],[129.10284,35.13767]]]}},{"type":"Feature","properties":{"h3":"8830c16f13fffff","emd_code":"2650066000","emd_name":"남천1동","area_km2":0.548,"edge":true,"slope_mean":2.58,"elev_mean":2.6,"flood_hist_n":0,"flood_depth_max_m":null,"flood_risk_100y":null,"semi_basement_r":null,"elderly_alone_r":0.1266,"bldg_age30_r":null,"shelter_min_walk":5,"pop":16314,"hh":7607,"elderly65_r":0.2296,"single_hh_r":0.4024,"source_level":"emd","flood_years":[],"landslide_hist_n":0},"geometry":{"type":"Polygon","coordinates":[[[129.1121,35.13722],[129.11124,35.13336],[129.11544,35.1312],[129.1205,35.1329],[129.12135,35.13676],[129.11715,35.13892],[129.1121,35.13722]]]}},{"type":"Feature","properties":{"h3":"8830c16f19fffff","emd_code":"2650066000","emd_name":"남천1동","area_km2":0.5479,"edge":false,"slope_mean":8.73,"elev_mean":28.0,"flood_hist_n":0,"flood_depth_max_m":null,"flood_risk_100y":null,"semi_basement_r":null,"elderly_alone_r":0.1266,"bldg_age30_r":null,"shelter_min_walk":1,"pop":16314,"hh":7607,"elderly65_r":0.2296,"single_hh_r":0.4024,"source_level":"emd","flood_years":[],"landslide_hist_n":0},"geometry":{"type":"Polygon","coordinates":[[[129.0995,35.1437],[129.09864,35.13983],[129.10284,35.13767],[129.1079,35.13938],[129.10875,35.14324],[129.10455,35.1454],[129.0995,35.1437]]]}},{"type":"Feature","properties":{"h3":"8830c16f1bfffff","emd_code":"2650067000","emd_name":"남천2동","area_km2":0.5479,"edge":false,"slope_mean":4.91,"elev_mean":12.7,"flood_hist_n":0,"flood_depth_max_m":null,"flood_risk_100y":null,"semi_basement_r":null,"elderly_alone_r":0.1123,"bldg_age30_r":null,"shelter_min_walk":1,"pop":13262,"hh":5671,"elderly65_r":0.2467,"single_hh_r":0.2918,"source_level":"emd","flood_years":[],"landslide_hist_n":0},"geometry":{"type":"Polygon","coordinates":[[[129.10875,35.14324],[129.1079,35.13938],[129.1121,35.13722],[129.11715,35.13892],[129.11801,35.14278],[129.11381,35.14494],[129.10875,35.14324]]]}},{"type":"Feature","properties":{"h3":"8830c16f53fffff","emd_code":"2650066000","emd_name":"남천1동","area_km2":0.5478,"edge":true,"slope_mean":16.35,"elev_mean":95.2,"flood_hist_n":0,"flood_depth_max_m":null,"flood_risk_100y":null,"semi_basement_r":null,"elderly_alone_r":0.1266,"bldg_age30_r":null,"shelter_min_walk":10,"pop":16314,"hh":7607,"elderly65_r":0.2296,"single_hh_r":0.4024,"source_level":"emd","flood_years":[],"landslide_hist_n":0},"geometry":{"type":"Polygon","coordinates":[[[129.09615,35.14972],[129.0953,35.14586],[129.0995,35.1437],[129.10455,35.1454],[129.10541,35.14926],[129.10121,35.15142],[129.09615,35.14972]]]}},{"type":"Feature","properties":{"h3":"8830c16f5bfffff","emd_code":"2650079000","emd_name":"광안4동","area_km2":0.5476,"edge":true,"slope_mean":22.27,"elev_mean":184.0,"flood_hist_n":0,"flood_depth_max_m":null,"flood_risk_100y":null,"semi_basement_r":null,"elderly_alone_r":0.1381,"bldg_age30_r":null,"shelter_min_walk":11,"pop":14043,"hh":6801,"elderly65_r":0.2517,"single_hh_r":0.4388,"source_level":"emd","flood_years":[],"landslide_hist_n":0},"geometry":{"type":"Polygon","coordinates":[[[129.09281,35.15574],[129.09195,35.15188],[129.09615,35.14972],[129.10121,35.15142],[129.10206,35.15528],[129.09786,35.15744],[129.09281,35.15574]]]}}]}