{"type":"FeatureCollection","name":"grid_26530_h3r8","meta":{"sgg_code":"26530","h3_res":8,"n_cells":89,"dem":"Copernicus GLO-30 (bbox-mean)","crs":"EPSG:4326","jumin_basis":"2026-07","flood_src":"행안부 침수흔적도(전국, 재난안전데이터공유플랫폼)","landslide_src":"행안부 산사태 발생이력"},"features":[{"type":"Feature","properties":{"h3":"8830c16101fffff","emd_code":"2653061000","emd_name":"덕포2동","area_km2":0.5468,"edge":false,"slope_mean":18.78,"elev_mean":137.3,"flood_hist_n":0,"flood_depth_max_m":null,"flood_risk_100y":null,"semi_basement_r":null,"elderly_alone_r":0.1686,"bldg_age30_r":null,"shelter_min_walk":7,"pop":11484,"hh":5559,"elderly65_r":0.2995,"single_hh_r":0.3977,"source_level":"emd","flood_years":[],"landslide_hist_n":0},"geometry":{"type":"Polygon","coordinates":[[[128.99025,35.17829],[128.9894,35.17443],[128.9936,35.17228],[128.99865,35.17398],[128.9995,35.17784],[128.99531,35.17999],[128.99025,35.17829]]]}},{"type":"Feature","properties":{"h3":"8830c16103fffff","emd_code":"2653059300","emd_name":"모라3동","area_km2":0.5468,"edge":false,"slope_mean":18.77,"elev_mean":261.0,"flood_hist_n":0,"flood_depth_max_m":null,"flood_risk_100y":null,"semi_basement_r":null,"elderly_alone_r":0.4224,"bldg_age30_r":null,"shelter_min_walk":14,"pop":8483,"hh":6011,"elderly65_r":0.478,"single_hh_r":0.6957,"source_level":"emd","flood_years":[],"landslide_hist_n":0},"geometry":{"type":"Polygon","coordinates":[[[128.9995,35.17784],[128.99865,35.17398],[129.00285,35.17183],[129.0079,35.17354],[129.00875,35.1774],[129.00456,35.17955],[128.9995,35.17784]]]}},{"type":"Feature","properties":{"h3":"8830c16105fffff","emd_code":"2653060000","emd_name":"덕포1동","area_km2":0.5469,"edge":false,"slope_mean":9.57,"elev_mean":44.6,"flood_hist_n":0,"flood_depth_max_m":null,"flood_risk_100y":null,"semi_basement_r":null,"elderly_alone_r":0.1636,"bldg_age30_r":null,"shelter_min_walk":1,"pop":11430,"hh":5526,"elderly65_r":0.2454,"single_hh_r":0.4121,"source_level":"emd","flood_years":[],"landslide_hist_n":0},"geometry":{"type":"Polygon","coordinates":[[[128.98435,35.17272],[128.9835,35.16886],[128.9877,35.16671],[128.99275,35.16841],[128.9936,35.17228],[128.9894,35.17443],[128.98435,35.17272]]]}},{"type":"Feature","properties":{"h3":"8830c16107fffff","emd_code":"2653062000","emd_name":"괘법동","area_km2":0.5469,"edge":false,"slope_mean":17.76,"elev_mean":172.4,"flood_hist_n":0,"flood_depth_max_m":null,"flood_risk_100y":null,"semi_basement_r":null,"elderly_alone_r":0.1237,"bldg_age30_r":null,"shelter_min_walk":10,"pop":24171,"hh":14944,"elderly65_r":0.228,"single_hh_r":0.6251,"source_level":"emd","flood_years":[],"landslide_hist_n":0},"geometry":{"type":"Polygon","coordinates":[[[128.9936,35.17228],[128.99275,35.16841],[128.99694,35.16626],[129.002,35.16797],[129.00285,35.17183],[128.99865,35.17398],[128.9936,35.17228]]]}},{"type":"Feature","properties":{"h3":"8830c16109fffff","emd_code":"2653059100","emd_name":"모라1동","area_km2":0.5467,"edge":false,"slope_mean":10.2,"elev_mean":48.1,"flood_hist_n":0,"flood_depth_max_m":null,"flood_risk_100y":null,"semi_basement_r":null,"elderly_alone_r":0.1723,"bldg_age30_r":null,"shelter_min_walk":3,"pop":25019,"hh":12090,"elderly65_r":0.3007,"single_hh_r":0.3938,"source_level":"emd","flood_years":[],"landslide_hist_n":0},"geometry":{"type":"Polygon","coordinates":[[[128.98691,35.1843],[128.98606,35.18044],[128.99025,35.17829],[128.99531,35.17999],[128.99616,35.18385],[128.99196,35.18601],[128.98691,35.1843]]]}},{"type":"Feature","properties":{"h3":"8830c1610bfffff","emd_code":"2653059300","emd_name":"모라3동","area_km2":0.5467,"edge":false,"slope_mean":16.22,"elev_mean":144.0,"flood_hist_n":0,"flood_depth_max_m":null,"flood_risk_100y":null,"semi_basement_r":null,"elderly_alone_r":0.4224,"bldg_age30_r":null,"shelter_min_walk":4,"pop":8483,"hh":6011,"elderly65_r":0.478,"single_hh_r":0.6957,"source_level":"emd","flood_years":[],"landslide_hist_n":0},"geometry":{"type":"Polygon","coordinates":[[[128.99616,35.18385],[128.99531,35.17999],[128.9995,35.17784],[129.00456,35.17955],[129.00541,35.18341],[129.00121,35.18556],[128.99616,35.18385]]]}},{"type":"Feature","properties":{"h3":"8830c1610dfffff","emd_code":"2653061000","emd_name":"덕포2동","area_km2":0.5467,"edge":false,"slope_mean":4.38,"elev_mean":10.6,"flood_hist_n":0,"flood_depth_max_m":null,"flood_risk_100y":null,"semi_basement_r":null,"elderly_alone_r":0.1686,"bldg_age30_r":null,"shelter_min_walk":3,"pop":11484,"hh":5559,"elderly65_r":0.2995,"single_hh_r":0.3977,"source_level":"emd","flood_years":[],"landslide_hist_n":0},"geometry":{"type":"Polygon","coordinates":[[[128.98101,35.17873],[128.98015,35.17487],[128.98435,35.17272],[128.9894,35.17443],[128.99025,35.17829],[128.98606,35.18044],[128.98101,35.17873]]]}},{"type":"Feature","properties":{"h3":"8830c16111fffff","emd_code":"2653059300","emd_name":"모라3동","area_km2":0.5468,"edge":false,"slope_mean":27.18,"elev_mean":482.8,"flood_hist_n":0,"flood_depth_max_m":null,"flood_risk_100y":null,"semi_basement_r":null,"elderly_alone_r":0.4224,"bldg_age30_r":null,"shelter_min_walk":19,"pop":8483,"hh":6011,"elderly65_r":0.478,"single_hh_r":0.6957,"source_level":"emd","flood_years":[],"landslide_hist_n":0},"geometry":{"type":"Polygon","coordinates":[[[129.01466,35.18296],[129.01381,35.1791],[129.018,35.17695],[129.02306,35.17865],[129.02391,35.18251],[129.01971,35.18467],[129.01466,35.18296]]]}},{"type":"Feature","properties":{"h3":"8830c16113fffff","emd_code":"2653059300","emd_name":"모라3동","area_km2":0.5469,"edge":true,"slope_mean":26.13,"elev_mean":378.1,"flood_hist_n":0,"flood_depth_max_m":null,"flood_risk_100y":null,"semi_basement_r":null,"elderly_alone_r":0.4224,"bldg_age30_r":null,"shelter_min_walk":10,"pop":8483,"hh":6011,"elderly65_r":0.478,"single_hh_r":0.6957,"source_level":"emd","flood_years":[],"landslide_hist_n":0},"geometry":{"type":"Polygon","coordinates":[[[129.02391,35.18251],[129.02306,35.17865],[129.02726,35.1765],[129.03231,35.1782],[129.03316,35.18206],[129.02896,35.18422],[129.02391,35.18251]]]}},{"type":"Feature","properties":{"h3":"8830c16115fffff","emd_code":"2653059300","emd_name":"모라3동","area_km2":0.5469,"edge":true,"slope_mean":24.58,"elev_mean":386.7,"flood_hist_n":0,"flood_depth_max_m":null,"flood_risk_100y":null,"semi_basement_r":null,"elderly_alone_r":0.4224,"bldg_age30_r":null,"shelter_min_walk":21,"pop":8483,"hh":6011,"elderly65_r":0.478,"single_hh_r":0.6957,"source_level":"emd","flood_years":[],"landslide_hist_n":0},"geometry":{"type":"Polygon","coordinates":[[[129.00875,35.1774],[129.0079,35.17354],[129.0121,35.17138],[129.01715,35.17309],[129.018,35.17695],[129.01381,35.1791],[129.00875,35.1774]]]}},{"type":"Feature","properties":{"h3":"8830c16119fffff","emd_code":"2653059300","emd_name":"모라3동","area_km2":0.5467,"edge":false,"slope_mean":25.13,"elev_mean":390.8,"flood_hist_n":0,"flood_depth_max_m":null,"flood_risk_100y":null,"semi_basement_r":null,"elderly_alone_r":0.4224,"bldg_age30_r":null,"shelter_min_walk":14,"pop":8483,"hh":6011,"elderly65_r":0.478,"single_hh_r":0.6957,"source_level":"emd","flood_years":[],"landslide_hist_n":0},"geometry":{"type":"Polygon","coordinates":[[[129.01131,35.18897],[129.01046,35.18511],[129.01466,35.18296],[129.01971,35.18467],[129.02056,35.18853],[129.01637,35.19068],[129.01131,35.18897]]]}},{"type":"Feature","properties":{"h3":"8830c1611bfffff","emd_code":"2653059300","emd_name":"모라3동","area_km2":0.5468,"edge":true,"slope_mean":24.52,"elev_mean":492.5,"flood_hist_n":0,"flood_depth_max_m":null,"flood_risk_100y":null,"semi_basement_r":null,"elderly_alone_r":0.4224,"bldg_age30_r":null,"shelter_min_walk":20,"pop":8483,"hh":6011,"elderly65_r":0.478,"single_hh_r":0.6957,"source_level":"emd","flood_years":[],"landslide_hist_n":0},"geometry":{"type":"Polygon","coordinates":[[[129.02056,35.18853],[129.01971,35.18467],[129.02391,35.18251],[129.02896,35.18422],[129.02982,35.18808],[129.02562,35.19023],[129.02056,35.18853]]]}},{"type":"Feature","properties":{"h3":"8830c1611dfffff","emd_code":"2653059300","emd_name":"모라3동","area_km2":0.5468,"edge":false,"slope_mean":21.61,"elev_mean":277.2,"flood_hist_n":0,"flood_depth_max_m":null,"flood_risk_100y":null,"semi_basement_r":null,"elderly_alone_r":0.4224,"bldg_age30_r":null,"shelter_min_walk":11,"pop":8483,"hh":6011,"elderly65_r":0.478,"single_hh_r":0.6957,"source_level":"emd","flood_years":[],"landslide_hist_n":0},"geometry":{"type":"Polygon","coordinates":[[[129.00541,35.18341],[129.00456,35.17955],[129.00875,35.1774],[129.01381,35.1791],[129.01466,35.18296],[129.01046,35.18511],[129.00541,35.18341]]]}},{"type":"Feature","properties":{"h3":"8830c16121fffff","emd_code":"2653062000","emd_name":"괘법동","area_km2":0.547,"edge":false,"slope_mean":4.77,"elev_mean":10.1,"flood_hist_n":0,"flood_depth_max_m":null,"flood_risk_100y":null,"semi_basement_r":null,"elderly_alone_r":0.1237,"bldg_age30_r":null,"shelter_min_walk":5,"pop":24171,"hh":14944,"elderly65_r":0.228,"single_hh_r":0.6251,"source_level":"emd","flood_years":[],"landslide_hist_n":0},"geometry":{"type":"Polygon","coordinates":[[[128.98179,35.16114],[128.98094,35.15728],[128.98514,35.15512],[128.99019,35.15683],[128.99104,35.16069],[128.98684,35.16285],[128.98179,35.16114]]]}},{"type":"Feature","properties":{"h3":"8830c16123fffff","emd_code":"2653064500","emd_name":"감전동","area_km2":0.5471,"edge":false,"slope_mean":15.05,"elev_mean":86.0,"flood_hist_n":0,"flood_depth_max_m":null,"flood_risk_100y":null,"semi_basement_r":null,"elderly_alone_r":0.2225,"bldg_age30_r":null,"shelter_min_walk":4,"pop":11173,"hh":6626,"elderly65_r":0.3418,"single_hh_r":0.5602,"source_level":"emd","flood_years":[],"landslide_hist_n":0},"geometry":{"type":"Polygon","coordinates":[[[128.99104,35.16069],[128.99019,35.15683],[128.99439,35.15468],[128.99944,35.15639],[129.00029,35.16025],[128.99609,35.1624],[128.99104,35.16069]]]}},{"type":"Feature","properties":{"h3":"8830c16125fffff","emd_code":"2653064500","emd_name":"감전동","area_km2":0.5471,"edge":false,"slope_mean":2.9,"elev_mean":5.0,"flood_hist_n":1,"flood_depth_max_m":0.52,"flood_risk_100y":null,"semi_basement_r":null,"elderly_alone_r":0.2225,"bldg_age30_r":null,"shelter_min_walk":3,"pop":11173,"hh":6626,"elderly65_r":0.3418,"single_hh_r":0.5602,"source_level":"emd","flood_years":[2014],"landslide_hist_n":0},"geometry":{"type":"Polygon","coordinates":[[[128.97589,35.15557],[128.97504,35.15171],[128.97923,35.14956],[128.98428,35.15126],[128.98514,35.15512],[128.98094,35.15728],[128.97589,35.15557]]]}},{"type":"Feature","properties":{"h3":"8830c16127fffff","emd_code":"2653064500","emd_name":"감전동","area_km2":0.5472,"edge":false,"slope_mean":3.97,"elev_mean":6.8,"flood_hist_n":1,"flood_depth_max_m":0.52,"flood_risk_100y":null,"semi_basement_r":null,"elderly_alone_r":0.2225,"bldg_age30_r":null,"shelter_min_walk":2,"pop":11173,"hh":6626,"elderly65_r":0.3418,"single_hh_r":0.5602,"source_level":"emd","flood_years":[2014],"landslide_hist_n":0},"geometry":{"type":"Polygon","coordinates":[[[128.98514,35.15512],[128.98428,35.15126],[128.98848,35.14911],[128.99353,35.15082],[128.99439,35.15468],[128.99019,35.15683],[128.98514,35.15512]]]}},{"type":"Feature","properties":{"h3":"8830c16129fffff","emd_code":"2653062000","emd_name":"괘법동","area_km2":0.5469,"edge":false,"slope_mean":4.83,"elev_mean":10.4,"flood_hist_n":1,"flood_depth_max_m":0.55,"flood_risk_100y":null,"semi_basement_r":null,"elderly_alone_r":0.1237,"bldg_age30_r":null,"shelter_min_walk":3,"pop":24171,"hh":14944,"elderly65_r":0.228,"single_hh_r":0.6251,"source_level":"emd","flood_years":[2014],"landslide_hist_n":0},"geometry":{"type":"Polygon","coordinates":[[[128.97845,35.16715],[128.97759,35.16329],[128.98179,35.16114],[128.98684,35.16285],[128.9877,35.16671],[128.9835,35.16886],[128.97845,35.16715]]]}},{"type":"Feature","properties":{"h3":"8830c1612bfffff","emd_code":"2653062000","emd_name":"괘법동","area_km2":0.547,"edge":false,"slope_mean":12.5,"elev_mean":77.1,"flood_hist_n":0,"flood_depth_max_m":null,"flood_risk_100y":null,"semi_basement_r":null,"elderly_alone_r":0.1237,"bldg_age30_r":null,"shelter_min_walk":8,"pop":24171,"hh":14944,"elderly65_r":0.228,"single_hh_r":0.6251,"source_level":"emd","flood_years":[],"landslide_hist_n":0},"geometry":{"type":"Polygon","coordinates":[[[128.9877,35.16671],[128.98684,35.16285],[128.99104,35.16069],[128.99609,35.1624],[128.99694,35.16626],[128.99275,35.16841],[128.9877,35.16671]]]}},{"type":"Feature","properties":{"h3":"8830c1612dfffff","emd_code":"2653062000","emd_name":"괘법동","area_km2":0.547,"edge":false,"slope_mean":3.08,"elev_mean":3.9,"flood_hist_n":1,"flood_depth_max_m":0.56,"flood_risk_100y":null,"semi_basement_r":null,"elderly_alone_r":0.1237,"bldg_age30_r":null,"shelter_min_walk":3,"pop":24171,"hh":14944,"elderly65_r":0.228,"single_hh_r":0.6251,"source_level":"emd","flood_years":[2014],"landslide_hist_n":0},"geometry":{"type":"Polygon","coordinates":[[[128.97254,35.16158],[128.97169,35.15772],[128.97589,35.15557],[128.98094,35.15728],[128.98179,35.16114],[128.97759,35.16329],[128.97254,35.16158]]]}},{"type":"Feature","properties":{"h3":"8830c16131fffff","emd_code":"2653066000","emd_name":"주례2동","area_km2":0.5471,"edge":false,"slope_mean":20.83,"elev_mean":262.4,"flood_hist_n":0,"flood_depth_max_m":null,"flood_risk_100y":null,"semi_basement_r":null,"elderly_alone_r":0.1216,"bldg_age30_r":null,"shelter_min_walk":14,"pop":20520,"hh":11206,"elderly65_r":0.2375,"single_hh_r":0.5285,"source_level":"emd","flood_years":[],"landslide_hist_n":0},"geometry":{"type":"Polygon","coordinates":[[[129.00619,35.16581],[129.00534,35.16195],[129.00954,35.1598],[129.01459,35.16151],[129.01544,35.16537],[129.01125,35.16752],[129.00619,35.16581]]]}},{"type":"Feature","properties":{"h3":"8830c16135fffff","emd_code":"2653065000","emd_name":"주례1동","area_km2":0.5471,"edge":false,"slope_mean":18.24,"elev_mean":150.8,"flood_hist_n":0,"flood_depth_max_m":null,"flood_risk_100y":null,"semi_basement_r":null,"elderly_alone_r":0.1381,"bldg_age30_r":null,"shelter_min_walk":7,"pop":15917,"hh":7055,"elderly65_r":0.2491,"single_hh_r":0.324,"source_level":"emd","flood_years":[],"landslide_hist_n":0},"geometry":{"type":"Polygon","coordinates":[[[129.00029,35.16025],[128.99944,35.15639],[129.00364,35.15423],[129.00869,35.15594],[129.00954,35.1598],[129.00534,35.16195],[129.00029,35.16025]]]}},{"type":"Feature","properties":{"h3":"8830c16137fffff","emd_code":"2653066000","emd_name":"주례2동","area_km2":0.5472,"edge":true,"slope_mean":15.58,"elev_mean":137.2,"flood_hist_n":0,"flood_depth_max_m":null,"flood_risk_100y":null,"semi_basement_r":null,"elderly_alone_r":0.1216,"bldg_age30_r":null,"shelter_min_walk":3,"pop":20520,"hh":11206,"elderly65_r":0.2375,"single_hh_r":0.5285,"source_level":"emd","flood_years":[],"landslide_hist_n":0},"geometry":{"type":"Polygon","coordinates":[[[129.00954,35.1598],[129.00869,35.15594],[129.01289,35.15378],[129.01794,35.15549],[129.01879,35.15935],[129.01459,35.16151],[129.00954,35.1598]]]}},{"type":"Feature","properties":{"h3":"8830c16139fffff","emd_code":"2653062000","emd_name":"괘법동","area_km2":0.547,"edge":false,"slope_mean":20.69,"elev_mean":305.3,"flood_hist_n":0,"flood_depth_max_m":null,"flood_risk_100y":null,"semi_basement_r":null,"elderly_alone_r":0.1237,"bldg_age30_r":null,"shelter_min_walk":23,"pop":24171,"hh":14944,"elderly65_r":0.228,"single_hh_r":0.6251,"source_level":"emd","flood_years":[],"landslide_hist_n":0},"geometry":{"type":"Polygon","coordinates":[[[129.00285,35.17183],[129.002,35.16797],[129.00619,35.16581],[129.01125,35.16752],[129.0121,35.17138],[129.0079,35.17354],[129.00285,35.17183]]]}},{"type":"Feature","properties":{"h3":"8830c1613bfffff","emd_code":"2653066000","emd_name":"주례2동","area_km2":0.547,"edge":true,"slope_mean":17.3,"elev_mean":284.3,"flood_hist_n":0,"flood_depth_max_m":null,"flood_risk_100y":null,"semi_basement_r":null,"elderly_alone_r":0.1216,"bldg_age30_r":null,"shelter_min_walk":15,"pop":20520,"hh":11206,"elderly65_r":0.2375,"single_hh_r":0.5285,"source_level":"emd","flood_years":[],"landslide_hist_n":0},"geometry":{"type":"Polygon","coordinates":[[[129.0121,35.17138],[129.01125,35.16752],[129.01544,35.16537],[129.0205,35.16707],[129.02135,35.17093],[129.01715,35.17309],[129.0121,35.17138]]]}},{"type":"Feature","properties":{"h3":"8830c1613dfffff","emd_code":"2653062000","emd_name":"괘법동","area_km2":0.547,"edge":false,"slope_mean":17.11,"elev_mean":195.6,"flood_hist_n":0,"flood_depth_max_m":null,"flood_risk_100y":null,"semi_basement_r":null,"elderly_alone_r":0.1237,"bldg_age30_r":null,"shelter_min_walk":16,"pop":24171,"hh":14944,"elderly65_r":0.228,"single_hh_r":0.6251,"source_level":"emd","flood_years":[],"landslide_hist_n":0},"geometry":{"type":"Polygon","coordinates":[[[128.99694,35.16626],[128.99609,35.1624],[129.00029,35.16025],[129.00534,35.16195],[129.00619,35.16581],[129.002,35.16797],[128.99694,35.16626]]]}},{"type":"Feature","properties":{"h3":"8830c16141fffff","emd_code":"2653058000","emd_name":"삼락동","area_km2":0.5465,"edge":false,"slope_mean":2.37,"elev_mean":3.6,"flood_hist_n":0,"flood_depth_max_m":null,"flood_risk_100y":null,"semi_basement_r":null,"elderly_alone_r":0.2674,"bldg_age30_r":null,"shelter_min_walk":9,"pop":4710,"hh":2775,"elderly65_r":0.3798,"single_hh_r":0.5701,"source_level":"emd","flood_years":[],"landslide_hist_n":0},"geometry":{"type":"Polygon","coordinates":[[[128.97431,35.19076],[128.97346,35.1869],[128.97766,35.18475],[128.98271,35.18645],[128.98356,35.19031],[128.97937,35.19246],[128.97431,35.19076]]]}},{"type":"Feature","properties":{"h3":"8830c16143fffff","emd_code":"2653059100","emd_name":"모라1동","area_km2":0.5466,"edge":false,"slope_mean":4.56,"elev_mean":12.6,"flood_hist_n":0,"flood_depth_max_m":null,"flood_risk_100y":null,"semi_basement_r":null,"elderly_alone_r":0.1723,"bldg_age30_r":null,"shelter_min_walk":1,"pop":25019,"hh":12090,"elderly65_r":0.3007,"single_hh_r":0.3938,"source_level":"emd","flood_years":[],"landslide_hist_n":0},"geometry":{"type":"Polygon","coordinates":[[[128.98356,35.19031],[128.98271,35.18645],[128.98691,35.1843],[128.99196,35.18601],[128.99281,35.18987],[128.98862,35.19202],[128.98356,35.19031]]]}},{"type":"Feature","properties":{"h3":"8830c16145fffff","emd_code":"2653058000","emd_name":"삼락동","area_km2":0.5466,"edge":false,"slope_mean":1.23,"elev_mean":2.3,"flood_hist_n":0,"flood_depth_max_m":null,"flood_risk_100y":null,"semi_basement_r":null,"elderly_alone_r":0.2674,"bldg_age30_r":null,"shelter_min_walk":9,"pop":4710,"hh":2775,"elderly65_r":0.3798,"single_hh_r":0.5701,"source_level":"emd","flood_years":[],"landslide_hist_n":0},"geometry":{"type":"Polygon","coordinates":[[[128.96841,35.18519],[128.96756,35.18133],[128.97176,35.17918],[128.97681,35.18089],[128.97766,35.18475],[128.97346,35.1869],[128.96841,35.18519]]]}},{"type":"Feature","properties":{"h3":"8830c16147fffff","emd_code":"2653059100","emd_name":"모라1동","area_km2":0.5466,"edge":false,"slope_mean":3.03,"elev_mean":5.6,"flood_hist_n":0,"flood_depth_max_m":null,"flood_risk_100y":null,"semi_basement_r":null,"elderly_alone_r":0.1723,"bldg_age30_r":null,"shelter_min_walk":4,"pop":25019,"hh":12090,"elderly65_r":0.3007,"single_hh_r":0.3938,"source_level":"emd","flood_years":[],"landslide_hist_n":0},"geometry":{"type":"Polygon","coordinates":[[[128.97766,35.18475],[128.97681,35.18089],[128.98101,35.17873],[128.98606,35.18044],[128.98691,35.1843],[128.98271,35.18645],[128.97766,35.18475]]]}},{"type":"Feature","properties":{"h3":"8830c16149fffff","emd_code":"2653058000","emd_name":"삼락동","area_km2":0.5464,"edge":true,"slope_mean":0.56,"elev_mean":0.5,"flood_hist_n":0,"flood_depth_max_m":null,"flood_risk_100y":null,"semi_basement_r":null,"elderly_alone_r":0.2674,"bldg_age30_r":null,"shelter_min_walk":19,"pop":4710,"hh":2775,"elderly65_r":0.3798,"single_hh_r":0.5701,"source_level":"emd","flood_years":[],"landslide_hist_n":0},"geometry":{"type":"Polygon","coordinates":[[[128.97097,35.19677],[128.97012,35.19291],[128.97431,35.19076],[128.97937,35.19246],[128.98022,35.19632],[128.97602,35.19847],[128.97097,35.19677]]]}},{"type":"Feature","properties":{"h3":"8830c1614bfffff","emd_code":"2653058000","emd_name":"삼락동","area_km2":0.5464,"edge":false,"slope_mean":2.2,"elev_mean":3.4,"flood_hist_n":0,"flood_depth_max_m":null,"flood_risk_100y":null,"semi_basement_r":null,"elderly_alone_r":0.2674,"bldg_age30_r":null,"shelter_min_walk":9,"pop":4710,"hh":2775,"elderly65_r":0.3798,"single_hh_r":0.5701,"source_level":"emd","flood_years":[],"landslide_hist_n":0},"geometry":{"type":"Polygon","coordinates":[[[128.98022,35.19632],[128.97937,35.19246],[128.98356,35.19031],[128.98862,35.19202],[128.98947,35.19588],[128.98527,35.19803],[128.98022,35.19632]]]}},{"type":"Feature","properties":{"h3":"8830c1614dfffff","emd_code":"2653058000","emd_name":"삼락동","area_km2":0.5465,"edge":true,"slope_mean":0.27,"elev_mean":0.3,"flood_hist_n":0,"flood_depth_max_m":null,"flood_risk_100y":null,"semi_basement_r":null,"elderly_alone_r":0.2674,"bldg_age30_r":null,"shelter_min_walk":18,"pop":4710,"hh":2775,"elderly65_r":0.3798,"single_hh_r":0.5701,"source_level":"emd","flood_years":[],"landslide_hist_n":0},"geometry":{"type":"Polygon","coordinates":[[[128.96507,35.1912],[128.96421,35.18734],[128.96841,35.18519],[128.97346,35.1869],[128.97431,35.19076],[128.97012,35.19291],[128.96507,35.1912]]]}},{"type":"Feature","properties":{"h3":"8830c16151fffff","emd_code":"2653059300","emd_name":"모라3동","area_km2":0.5465,"edge":true,"slope_mean":18.65,"elev_mean":156.9,"flood_hist_n":0,"flood_depth_max_m":null,"flood_risk_100y":null,"semi_basement_r":null,"elderly_alone_r":0.4224,"bldg_age30_r":null,"shelter_min_walk":4,"pop":8483,"hh":6011,"elderly65_r":0.478,"single_hh_r":0.6957,"source_level":"emd","flood_years":[],"landslide_hist_n":0},"geometry":{"type":"Polygon","coordinates":[[[128.99872,35.19543],[128.99787,35.19157],[129.00206,35.18942],[129.00712,35.19113],[129.00797,35.19498],[129.00377,35.19714],[128.99872,35.19543]]]}},{"type":"Feature","properties":{"h3":"8830c16153fffff","emd_code":"2653059300","emd_name":"모라3동","area_km2":0.5466,"edge":true,"slope_mean":20.92,"elev_mean":230.1,"flood_hist_n":1,"flood_depth_max_m":1.085,"flood_risk_100y":null,"semi_basement_r":null,"elderly_alone_r":0.4224,"bldg_age30_r":null,"shelter_min_walk":3,"pop":8483,"hh":6011,"elderly65_r":0.478,"single_hh_r":0.6957,"source_level":"emd","flood_years":[2014],"landslide_hist_n":0},"geometry":{"type":"Polygon","coordinates":[[[129.00797,35.19498],[129.00712,35.19113],[129.01131,35.18897],[129.01637,35.19068],[129.01722,35.19454],[129.01302,35.19669],[129.00797,35.19498]]]}},{"type":"Feature","properties":{"h3":"8830c16155fffff","emd_code":"2653059100","emd_name":"모라1동","area_km2":0.5466,"edge":false,"slope_mean":17.08,"elev_mean":111.6,"flood_hist_n":0,"flood_depth_max_m":null,"flood_risk_100y":null,"semi_basement_r":null,"elderly_alone_r":0.1723,"bldg_age30_r":null,"shelter_min_walk":5,"pop":25019,"hh":12090,"elderly65_r":0.3007,"single_hh_r":0.3938,"source_level":"emd","flood_years":[],"landslide_hist_n":0},"geometry":{"type":"Polygon","coordinates":[[[128.99281,35.18987],[128.99196,35.18601],[128.99616,35.18385],[129.00121,35.18556],[129.00206,35.18942],[128.99787,35.19157],[128.99281,35.18987]]]}},{"type":"Feature","properties":{"h3":"8830c16157fffff","emd_code":"2653059300","emd_name":"모라3동","area_km2":0.5467,"edge":false,"slope_mean":18.62,"elev_mean":198.3,"flood_hist_n":0,"flood_depth_max_m":null,"flood_risk_100y":null,"semi_basement_r":null,"elderly_alone_r":0.4224,"bldg_age30_r":null,"shelter_min_walk":7,"pop":8483,"hh":6011,"elderly65_r":0.478,"single_hh_r":0.6957,"source_level":"emd","flood_years":[],"landslide_hist_n":0},"geometry":{"type":"Polygon","coordinates":[[[129.00206,35.18942],[129.00121,35.18556],[129.00541,35.18341],[129.01046,35.18511],[129.01131,35.18897],[129.00712,35.19113],[129.00206,35.18942]]]}},{"type":"Feature","properties":{"h3":"8830c1615dfffff","emd_code":"2653059100","emd_name":"모라1동","area_km2":0.5465,"edge":false,"slope_mean":10.24,"elev_mean":47.0,"flood_hist_n":0,"flood_depth_max_m":null,"flood_risk_100y":null,"semi_basement_r":null,"elderly_alone_r":0.1723,"bldg_age30_r":null,"shelter_min_walk":3,"pop":25019,"hh":12090,"elderly65_r":0.3007,"single_hh_r":0.3938,"source_level":"emd","flood_years":[],"landslide_hist_n":0},"geometry":{"type":"Polygon","coordinates":[[[128.98947,35.19588],[128.98862,35.19202],[128.99281,35.18987],[128.99787,35.19157],[128.99872,35.19543],[128.99452,35.19758],[128.98947,35.19588]]]}},{"type":"Feature","properties":{"h3":"8830c16161fffff","emd_code":"2653058000","emd_name":"삼락동","area_km2":0.5468,"edge":false,"slope_mean":0.8,"elev_mean":1.2,"flood_hist_n":0,"flood_depth_max_m":null,"flood_risk_100y":null,"semi_basement_r":null,"elderly_alone_r":0.2674,"bldg_age30_r":null,"shelter_min_walk":10,"pop":4710,"hh":2775,"elderly65_r":0.3798,"single_hh_r":0.5701,"source_level":"emd","flood_years":[],"landslide_hist_n":0},"geometry":{"type":"Polygon","coordinates":[[[128.96585,35.17361],[128.965,35.16975],[128.9692,35.1676],[128.97425,35.16931],[128.9751,35.17317],[128.9709,35.17532],[128.96585,35.17361]]]}},{"type":"Feature","properties":{"h3":"8830c16163fffff","emd_code":"2653058000","emd_name":"삼락동","area_km2":0.5468,"edge":false,"slope_mean":3.01,"elev_mean":5.4,"flood_hist_n":1,"flood_depth_max_m":0.856,"flood_risk_100y":null,"semi_basement_r":null,"elderly_alone_r":0.2674,"bldg_age30_r":null,"shelter_min_walk":3,"pop":4710,"hh":2775,"elderly65_r":0.3798,"single_hh_r":0.5701,"source_level":"emd","flood_years":[2014],"landslide_hist_n":0},"geometry":{"type":"Polygon","coordinates":[[[128.9751,35.17317],[128.97425,35.16931],[128.97845,35.16715],[128.9835,35.16886],[128.98435,35.17272],[128.98015,35.17487],[128.9751,35.17317]]]}},{"type":"Feature","properties":{"h3":"8830c16165fffff","emd_code":"2653058000","emd_name":"삼락동","area_km2":0.5468,"edge":false,"slope_mean":1.0,"elev_mean":0.9,"flood_hist_n":0,"flood_depth_max_m":null,"flood_risk_100y":null,"semi_basement_r":null,"elderly_alone_r":0.2674,"bldg_age30_r":null,"shelter_min_walk":19,"pop":4710,"hh":2775,"elderly65_r":0.3798,"single_hh_r":0.5701,"source_level":"emd","flood_years":[],"landslide_hist_n":0},"geometry":{"type":"Polygon","coordinates":[[[128.95995,35.16804],[128.9591,35.16418],[128.9633,35.16203],[128.96835,35.16374],[128.9692,35.1676],[128.965,35.16975],[128.95995,35.16804]]]}},{"type":"Feature","properties":{"h3":"8830c16167fffff","emd_code":"2653058000","emd_name":"삼락동","area_km2":0.5469,"edge":false,"slope_mean":2.43,"elev_mean":2.4,"flood_hist_n":0,"flood_depth_max_m":null,"flood_risk_100y":null,"semi_basement_r":null,"elderly_alone_r":0.2674,"bldg_age30_r":null,"shelter_min_walk":7,"pop":4710,"hh":2775,"elderly65_r":0.3798,"single_hh_r":0.5701,"source_level":"emd","flood_years":[],"landslide_hist_n":0},"geometry":{"type":"Polygon","coordinates":[[[128.9692,35.1676],[128.96835,35.16374],[128.97254,35.16158],[128.97759,35.16329],[128.97845,35.16715],[128.97425,35.16931],[128.9692,35.1676]]]}},{"type":"Feature","properties":{"h3":"8830c16169fffff","emd_code":"2653058000","emd_name":"삼락동","area_km2":0.5466,"edge":false,"slope_mean":0.44,"elev_mean":0.9,"flood_hist_n":0,"flood_depth_max_m":null,"flood_risk_100y":null,"semi_basement_r":null,"elderly_alone_r":0.2674,"bldg_age30_r":null,"shelter_min_walk":13,"pop":4710,"hh":2775,"elderly65_r":0.3798,"single_hh_r":0.5701,"source_level":"emd","flood_years":[],"landslide_hist_n":0},"geometry":{"type":"Polygon","coordinates":[[[128.96251,35.17962],[128.96166,35.17576],[128.96585,35.17361],[128.9709,35.17532],[128.97176,35.17918],[128.96756,35.18133],[128.96251,35.17962]]]}},{"type":"Feature","properties":{"h3":"8830c1616bfffff","emd_code":"2653058000","emd_name":"삼락동","area_km2":0.5467,"edge":false,"slope_mean":2.15,"elev_mean":3.4,"flood_hist_n":0,"flood_depth_max_m":null,"flood_risk_100y":null,"semi_basement_r":null,"elderly_alone_r":0.2674,"bldg_age30_r":null,"shelter_min_walk":7,"pop":4710,"hh":2775,"elderly65_r":0.3798,"single_hh_r":0.5701,"source_level":"emd","flood_years":[],"landslide_hist_n":0},"geometry":{"type":"Polygon","coordinates":[[[128.97176,35.17918],[128.9709,35.17532],[128.9751,35.17317],[128.98015,35.17487],[128.98101,35.17873],[128.97681,35.18089],[128.97176,35.17918]]]}},{"type":"Feature","properties":{"h3":"8830c1616dfffff","emd_code":"2653058000","emd_name":"삼락동","area_km2":0.5467,"edge":true,"slope_mean":1.5,"elev_mean":1.7,"flood_hist_n":1,"flood_depth_max_m":0.98,"flood_risk_100y":null,"semi_basement_r":null,"elderly_alone_r":0.2674,"bldg_age30_r":null,"shelter_min_walk":15,"pop":4710,"hh":2775,"elderly65_r":0.3798,"single_hh_r":0.5701,"source_level":"emd","flood_years":[2015],"landslide_hist_n":0},"geometry":{"type":"Polygon","coordinates":[[[128.95661,35.17405],[128.95575,35.17019],[128.95995,35.16804],[128.965,35.16975],[128.96585,35.17361],[128.96166,35.17576],[128.95661,35.17405]]]}},{"type":"Feature","properties":{"h3":"8830c16337fffff","emd_code":"2653058000","emd_name":"삼락동","area_km2":0.5464,"edge":true,"slope_mean":3.34,"elev_mean":7.7,"flood_hist_n":0,"flood_depth_max_m":null,"flood_risk_100y":null,"semi_basement_r":null,"elderly_alone_r":0.2674,"bldg_age30_r":null,"shelter_min_walk":5,"pop":4710,"hh":2775,"elderly65_r":0.3798,"single_hh_r":0.5701,"source_level":"emd","flood_years":[],"landslide_hist_n":0},"geometry":{"type":"Polygon","coordinates":[[[128.98612,35.20189],[128.98527,35.19803],[128.98947,35.19588],[128.99452,35.19758],[128.99537,35.20144],[128.99117,35.20359],[128.98612,35.20189]]]}},{"type":"Feature","properties":{"h3":"8830c16859fffff","emd_code":"2653068000","emd_name":"엄궁동","area_km2":0.5477,"edge":true,"slope_mean":25.77,"elev_mean":341.6,"flood_hist_n":0,"flood_depth_max_m":null,"flood_risk_100y":null,"semi_basement_r":null,"elderly_alone_r":0.1144,"bldg_age30_r":null,"shelter_min_walk":13,"pop":22933,"hh":9504,"elderly65_r":0.2209,"single_hh_r":0.2587,"source_level":"emd","flood_years":[],"landslide_hist_n":0},"geometry":{"type":"Polygon","coordinates":[[[128.97746,35.12036],[128.97661,35.1165],[128.98081,35.11434],[128.98586,35.11605],[128.98671,35.11991],[128.98251,35.12207],[128.97746,35.12036]]]}},{"type":"Feature","properties":{"h3":"8830c16a03fffff","emd_code":"2653068000","emd_name":"엄궁동","area_km2":0.5473,"edge":false,"slope_mean":0.88,"elev_mean":1.2,"flood_hist_n":0,"flood_depth_max_m":null,"flood_risk_100y":null,"semi_basement_r":null,"elderly_alone_r":0.1144,"bldg_age30_r":null,"shelter_min_walk":11,"pop":22933,"hh":9504,"elderly65_r":0.2209,"single_hh_r":0.2587,"source_level":"emd","flood_years":[],"landslide_hist_n":0},"geometry":{"type":"Polygon","coordinates":[[[128.95818,35.13886],[128.95733,35.135],[128.96152,35.13284],[128.96657,35.13455],[128.96743,35.13841],[128.96323,35.14057],[128.95818,35.13886]]]}},{"type":"Feature","properties":{"h3":"8830c16a07fffff","emd_code":"2653068000","emd_name":"엄궁동","area_km2":0.5474,"edge":true,"slope_mean":0.09,"elev_mean":0.1,"flood_hist_n":0,"flood_depth_max_m":null,"flood_risk_100y":null,"semi_basement_r":null,"elderly_alone_r":0.1144,"bldg_age30_r":null,"shelter_min_walk":11,"pop":22933,"hh":9504,"elderly65_r":0.2209,"single_hh_r":0.2587,"source_level":"emd","flood_years":[],"landslide_hist_n":0},"geometry":{"type":"Polygon","coordinates":[[[128.95228,35.13329],[128.95142,35.12942],[128.95562,35.12727],[128.96067,35.12898],[128.96152,35.13284],[128.95733,35.135],[128.95228,35.13329]]]}},{"type":"Feature","properties":{"h3":"8830c16a0bfffff","emd_code":"2653058000","emd_name":"삼락동","area_km2":0.5472,"edge":true,"slope_mean":0.34,"elev_mean":0.5,"flood_hist_n":0,"flood_depth_max_m":null,"flood_risk_100y":null,"semi_basement_r":null,"elderly_alone_r":0.2674,"bldg_age30_r":null,"shelter_min_walk":15,"pop":4710,"hh":2775,"elderly65_r":0.3798,"single_hh_r":0.5701,"source_level":"emd","flood_years":[],"landslide_hist_n":0},"geometry":{"type":"Polygon","coordinates":[[[128.95483,35.14487],[128.95398,35.14101],[128.95818,35.13886],[128.96323,35.14057],[128.96408,35.14443],[128.95988,35.14658],[128.95483,35.14487]]]}},{"type":"Feature","properties":{"h3":"8830c16a11fffff","emd_code":"2653067000","emd_name":"학장동","area_km2":0.5473,"edge":false,"slope_mean":4.33,"elev_mean":9.0,"flood_hist_n":0,"flood_depth_max_m":null,"flood_risk_100y":null,"semi_basement_r":null,"elderly_alone_r":0.1817,"bldg_age30_r":null,"shelter_min_walk":6,"pop":24961,"hh":11862,"elderly65_r":0.2929,"single_hh_r":0.38,"source_level":"emd","flood_years":[],"landslide_hist_n":0},"geometry":{"type":"Polygon","coordinates":[[[128.97333,35.14399],[128.97248,35.14012],[128.97667,35.13797],[128.98173,35.13968],[128.98258,35.14354],[128.97838,35.14569],[128.97333,35.14399]]]}},{"type":"Feature","properties":{"h3":"8830c16a13fffff","emd_code":"2653067000","emd_name":"학장동","area_km2":0.5473,"edge":false,"slope_mean":9.69,"elev_mean":30.0,"flood_hist_n":0,"flood_depth_max_m":null,"flood_risk_100y":null,"semi_basement_r":null,"elderly_alone_r":0.1817,"bldg_age30_r":null,"shelter_min_walk":2,"pop":24961,"hh":11862,"elderly65_r":0.2929,"single_hh_r":0.38,"source_level":"emd","flood_years":[],"landslide_hist_n":0},"geometry":{"type":"Polygon","coordinates":[[[128.98258,35.14354],[128.98173,35.13968],[128.98592,35.13752],[128.99097,35.13923],[128.99183,35.14309],[128.98763,35.14525],[128.98258,35.14354]]]}},{"type":"Feature","properties":{"h3":"8830c16a15fffff","emd_code":"2653064500","emd_name":"감전동","area_km2":0.5474,"edge":false,"slope_mean":4.72,"elev_mean":9.5,"flood_hist_n":0,"flood_depth_max_m":null,"flood_risk_100y":null,"semi_basement_r":null,"elderly_alone_r":0.2225,"bldg_age30_r":null,"shelter_min_walk":7,"pop":11173,"hh":6626,"elderly65_r":0.3418,"single_hh_r":0.5602,"source_level":"emd","flood_years":[],"landslide_hist_n":0},"geometry":{"type":"Polygon","coordinates":[[[128.96743,35.13841],[128.96657,35.13455],[128.97077,35.1324],[128.97582,35.13411],[128.97667,35.13797],[128.97248,35.14012],[128.96743,35.13841]]]}},{"type":"Feature","properties":{"h3":"8830c16a17fffff","emd_code":"2653067000","emd_name":"학장동","area_km2":0.5474,"edge":false,"slope_mean":20.96,"elev_mean":129.6,"flood_hist_n":0,"flood_depth_max_m":null,"flood_risk_100y":null,"semi_basement_r":null,"elderly_alone_r":0.1817,"bldg_age30_r":null,"shelter_min_walk":4,"pop":24961,"hh":11862,"elderly65_r":0.2929,"single_hh_r":0.38,"source_level":"emd","flood_years":[],"landslide_hist_n":0},"geometry":{"type":"Polygon","coordinates":[[[128.97667,35.13797],[128.97582,35.13411],[128.98002,35.13195],[128.98507,35.13366],[128.98592,35.13752],[128.98173,35.13968],[128.97667,35.13797]]]}},{"type":"Feature","properties":{"h3":"8830c16a19fffff","emd_code":"2653064500","emd_name":"감전동","area_km2":0.5472,"edge":false,"slope_mean":2.9,"elev_mean":4.0,"flood_hist_n":0,"flood_depth_max_m":null,"flood_risk_100y":null,"semi_basement_r":null,"elderly_alone_r":0.2225,"bldg_age30_r":null,"shelter_min_walk":7,"pop":11173,"hh":6626,"elderly65_r":0.3418,"single_hh_r":0.5602,"source_level":"emd","flood_years":[],"landslide_hist_n":0},"geometry":{"type":"Polygon","coordinates":[[[128.96999,35.15],[128.96913,35.14614],[128.97333,35.14399],[128.97838,35.14569],[128.97923,35.14956],[128.97504,35.15171],[128.96999,35.15]]]}},{"type":"Feature","properties":{"h3":"8830c16a1bfffff","emd_code":"2653067000","emd_name":"학장동","area_km2":0.5472,"edge":false,"slope_mean":3.07,"elev_mean":5.5,"flood_hist_n":0,"flood_depth_max_m":null,"flood_risk_100y":null,"semi_basement_r":null,"elderly_alone_r":0.1817,"bldg_age30_r":null,"shelter_min_walk":5,"pop":24961,"hh":11862,"elderly65_r":0.2929,"single_hh_r":0.38,"source_level":"emd","flood_years":[],"landslide_hist_n":0},"geometry":{"type":"Polygon","coordinates":[[[128.97923,35.14956],[128.97838,35.14569],[128.98258,35.14354],[128.98763,35.14525],[128.98848,35.14911],[128.98428,35.15126],[128.97923,35.14956]]]}},{"type":"Feature","properties":{"h3":"8830c16a1dfffff","emd_code":"2653064500","emd_name":"감전동","area_km2":0.5472,"edge":false,"slope_mean":2.27,"elev_mean":3.1,"flood_hist_n":0,"flood_depth_max_m":null,"flood_risk_100y":null,"semi_basement_r":null,"elderly_alone_r":0.2225,"bldg_age30_r":null,"shelter_min_walk":3,"pop":11173,"hh":6626,"elderly65_r":0.3418,"single_hh_r":0.5602,"source_level":"emd","flood_years":[],"landslide_hist_n":0},"geometry":{"type":"Polygon","coordinates":[[[128.96408,35.14443],[128.96323,35.14057],[128.96743,35.13841],[128.97248,35.14012],[128.97333,35.14399],[128.96913,35.14614],[128.96408,35.14443]]]}},{"type":"Feature","properties":{"h3":"8830c16a31fffff","emd_code":"2653068000","emd_name":"엄궁동","area_km2":0.5475,"edge":false,"slope_mean":13.31,"elev_mean":58.7,"flood_hist_n":0,"flood_depth_max_m":null,"flood_risk_100y":null,"semi_basement_r":null,"elderly_alone_r":0.1144,"bldg_age30_r":null,"shelter_min_walk":2,"pop":22933,"hh":9504,"elderly65_r":0.2209,"single_hh_r":0.2587,"source_level":"emd","flood_years":[],"landslide_hist_n":0},"geometry":{"type":"Polygon","coordinates":[[[128.96487,35.12682],[128.96402,35.12296],[128.96821,35.12081],[128.97326,35.12252],[128.97412,35.12638],[128.96992,35.12853],[128.96487,35.12682]]]}},{"type":"Feature","properties":{"h3":"8830c16a33fffff","emd_code":"2653068000","emd_name":"엄궁동","area_km2":0.5476,"edge":false,"slope_mean":20.39,"elev_mean":177.5,"flood_hist_n":0,"flood_depth_max_m":null,"flood_risk_100y":null,"semi_basement_r":null,"elderly_alone_r":0.1144,"bldg_age30_r":null,"shelter_min_walk":4,"pop":22933,"hh":9504,"elderly65_r":0.2209,"single_hh_r":0.2587,"source_level":"emd","flood_years":[],"landslide_hist_n":0},"geometry":{"type":"Polygon","coordinates":[[[128.97412,35.12638],[128.97326,35.12252],[128.97746,35.12036],[128.98251,35.12207],[128.98336,35.12593],[128.97917,35.12809],[128.97412,35.12638]]]}},{"type":"Feature","properties":{"h3":"8830c16a35fffff","emd_code":"2653068000","emd_name":"엄궁동","area_km2":0.5476,"edge":true,"slope_mean":13.73,"elev_mean":53.4,"flood_hist_n":0,"flood_depth_max_m":null,"flood_risk_100y":null,"semi_basement_r":null,"elderly_alone_r":0.1144,"bldg_age30_r":null,"shelter_min_walk":5,"pop":22933,"hh":9504,"elderly65_r":0.2209,"single_hh_r":0.2587,"source_level":"emd","flood_years":[],"landslide_hist_n":0},"geometry":{"type":"Polygon","coordinates":[[[128.95897,35.12125],[128.95811,35.11739],[128.96231,35.11523],[128.96736,35.11694],[128.96821,35.12081],[128.96402,35.12296],[128.95897,35.12125]]]}},{"type":"Feature","properties":{"h3":"8830c16a37fffff","emd_code":"2653068000","emd_name":"엄궁동","area_km2":0.5477,"edge":true,"slope_mean":22.53,"elev_mean":214.4,"flood_hist_n":0,"flood_depth_max_m":null,"flood_risk_100y":null,"semi_basement_r":null,"elderly_alone_r":0.1144,"bldg_age30_r":null,"shelter_min_walk":9,"pop":22933,"hh":9504,"elderly65_r":0.2209,"single_hh_r":0.2587,"source_level":"emd","flood_years":[],"landslide_hist_n":0},"geometry":{"type":"Polygon","coordinates":[[[128.96821,35.12081],[128.96736,35.11694],[128.97156,35.11479],[128.97661,35.1165],[128.97746,35.12036],[128.97326,35.12252],[128.96821,35.12081]]]}},{"type":"Feature","properties":{"h3":"8830c16a39fffff","emd_code":"2653068000","emd_name":"엄궁동","area_km2":0.5474,"edge":false,"slope_mean":2.71,"elev_mean":4.0,"flood_hist_n":0,"flood_depth_max_m":null,"flood_risk_100y":null,"semi_basement_r":null,"elderly_alone_r":0.1144,"bldg_age30_r":null,"shelter_min_walk":2,"pop":22933,"hh":9504,"elderly65_r":0.2209,"single_hh_r":0.2587,"source_level":"emd","flood_years":[],"landslide_hist_n":0},"geometry":{"type":"Polygon","coordinates":[[[128.96152,35.13284],[128.96067,35.12898],[128.96487,35.12682],[128.96992,35.12853],[128.97077,35.1324],[128.96657,35.13455],[128.96152,35.13284]]]}},{"type":"Feature","properties":{"h3":"8830c16a3bfffff","emd_code":"2653068000","emd_name":"엄궁동","area_km2":0.5475,"edge":false,"slope_mean":14.23,"elev_mean":64.1,"flood_hist_n":0,"flood_depth_max_m":null,"flood_risk_100y":null,"semi_basement_r":null,"elderly_alone_r":0.1144,"bldg_age30_r":null,"shelter_min_walk":3,"pop":22933,"hh":9504,"elderly65_r":0.2209,"single_hh_r":0.2587,"source_level":"emd","flood_years":[],"landslide_hist_n":0},"geometry":{"type":"Polygon","coordinates":[[[128.97077,35.1324],[128.96992,35.12853],[128.97412,35.12638],[128.97917,35.12809],[128.98002,35.13195],[128.97582,35.13411],[128.97077,35.1324]]]}},{"type":"Feature","properties":{"h3":"8830c16a3dfffff","emd_code":"2653068000","emd_name":"엄궁동","area_km2":0.5475,"edge":false,"slope_mean":1.67,"elev_mean":2.6,"flood_hist_n":0,"flood_depth_max_m":null,"flood_risk_100y":null,"semi_basement_r":null,"elderly_alone_r":0.1144,"bldg_age30_r":null,"shelter_min_walk":11,"pop":22933,"hh":9504,"elderly65_r":0.2209,"single_hh_r":0.2587,"source_level":"emd","flood_years":[],"landslide_hist_n":0},"geometry":{"type":"Polygon","coordinates":[[[128.95562,35.12727],[128.95477,35.12341],[128.95897,35.12125],[128.96402,35.12296],[128.96487,35.12682],[128.96067,35.12898],[128.95562,35.12727]]]}},{"type":"Feature","properties":{"h3":"8830c16a51fffff","emd_code":"2653058000","emd_name":"삼락동","area_km2":0.547,"edge":false,"slope_mean":0.95,"elev_mean":0.8,"flood_hist_n":0,"flood_depth_max_m":null,"flood_risk_100y":null,"semi_basement_r":null,"elderly_alone_r":0.2674,"bldg_age30_r":null,"shelter_min_walk":21,"pop":4710,"hh":2775,"elderly65_r":0.3798,"single_hh_r":0.5701,"source_level":"emd","flood_years":[],"landslide_hist_n":0},"geometry":{"type":"Polygon","coordinates":[[[128.95739,35.15646],[128.95654,35.1526],[128.96074,35.15045],[128.96579,35.15215],[128.96664,35.15602],[128.96244,35.15817],[128.95739,35.15646]]]}},{"type":"Feature","properties":{"h3":"8830c16a53fffff","emd_code":"2653064500","emd_name":"감전동","area_km2":0.5471,"edge":false,"slope_mean":2.27,"elev_mean":2.5,"flood_hist_n":0,"flood_depth_max_m":null,"flood_risk_100y":null,"semi_basement_r":null,"elderly_alone_r":0.2225,"bldg_age30_r":null,"shelter_min_walk":8,"pop":11173,"hh":6626,"elderly65_r":0.3418,"single_hh_r":0.5602,"source_level":"emd","flood_years":[],"landslide_hist_n":0},"geometry":{"type":"Polygon","coordinates":[[[128.96664,35.15602],[128.96579,35.15215],[128.96999,35.15],[128.97504,35.15171],[128.97589,35.15557],[128.97169,35.15772],[128.96664,35.15602]]]}},{"type":"Feature","properties":{"h3":"8830c16a55fffff","emd_code":"2653058000","emd_name":"삼락동","area_km2":0.5471,"edge":true,"slope_mean":1.03,"elev_mean":1.1,"flood_hist_n":1,"flood_depth_max_m":0.6,"flood_risk_100y":null,"semi_basement_r":null,"elderly_alone_r":0.2674,"bldg_age30_r":null,"shelter_min_walk":17,"pop":4710,"hh":2775,"elderly65_r":0.3798,"single_hh_r":0.5701,"source_level":"emd","flood_years":[2019],"landslide_hist_n":0},"geometry":{"type":"Polygon","coordinates":[[[128.95149,35.15089],[128.95064,35.14703],[128.95483,35.14487],[128.95988,35.14658],[128.96074,35.15045],[128.95654,35.1526],[128.95149,35.15089]]]}},{"type":"Feature","properties":{"h3":"8830c16a57fffff","emd_code":"2653058000","emd_name":"삼락동","area_km2":0.5471,"edge":false,"slope_mean":0.7,"elev_mean":0.7,"flood_hist_n":0,"flood_depth_max_m":null,"flood_risk_100y":null,"semi_basement_r":null,"elderly_alone_r":0.2674,"bldg_age30_r":null,"shelter_min_walk":13,"pop":4710,"hh":2775,"elderly65_r":0.3798,"single_hh_r":0.5701,"source_level":"emd","flood_years":[],"landslide_hist_n":0},"geometry":{"type":"Polygon","coordinates":[[[128.96074,35.15045],[128.95988,35.14658],[128.96408,35.14443],[128.96913,35.14614],[128.96999,35.15],[128.96579,35.15215],[128.96074,35.15045]]]}},{"type":"Feature","properties":{"h3":"8830c16a59fffff","emd_code":"2653058000","emd_name":"삼락동","area_km2":0.5469,"edge":true,"slope_mean":1.34,"elev_mean":1.6,"flood_hist_n":0,"flood_depth_max_m":null,"flood_risk_100y":null,"semi_basement_r":null,"elderly_alone_r":0.2674,"bldg_age30_r":null,"shelter_min_walk":26,"pop":4710,"hh":2775,"elderly65_r":0.3798,"single_hh_r":0.5701,"source_level":"emd","flood_years":[],"landslide_hist_n":0},"geometry":{"type":"Polygon","coordinates":[[[128.95405,35.16247],[128.9532,35.15861],[128.95739,35.15646],[128.96244,35.15817],[128.9633,35.16203],[128.9591,35.16418],[128.95405,35.16247]]]}},{"type":"Feature","properties":{"h3":"8830c16a5bfffff","emd_code":"2653058000","emd_name":"삼락동","area_km2":0.5469,"edge":false,"slope_mean":0.89,"elev_mean":0.8,"flood_hist_n":0,"flood_depth_max_m":null,"flood_risk_100y":null,"semi_basement_r":null,"elderly_alone_r":0.2674,"bldg_age30_r":null,"shelter_min_walk":15,"pop":4710,"hh":2775,"elderly65_r":0.3798,"single_hh_r":0.5701,"source_level":"emd","flood_years":[],"landslide_hist_n":0},"geometry":{"type":"Polygon","coordinates":[[[128.9633,35.16203],[128.96244,35.15817],[128.96664,35.15602],[128.97169,35.15772],[128.97254,35.16158],[128.96835,35.16374],[128.9633,35.16203]]]}},{"type":"Feature","properties":{"h3":"8830c16a89fffff","emd_code":"2653066000","emd_name":"주례2동","area_km2":0.5475,"edge":true,"slope_mean":23.54,"elev_mean":319.3,"flood_hist_n":0,"flood_depth_max_m":null,"flood_risk_100y":null,"semi_basement_r":null,"elderly_alone_r":0.1216,"bldg_age30_r":null,"shelter_min_walk":12,"pop":20520,"hh":11206,"elderly65_r":0.2375,"single_hh_r":0.5285,"source_level":"emd","flood_years":[],"landslide_hist_n":0},"geometry":{"type":"Polygon","coordinates":[[[129.01033,35.1422],[129.00947,35.13833],[129.01367,35.13618],[129.01872,35.13789],[129.01958,35.14175],[129.01538,35.1439],[129.01033,35.1422]]]}},{"type":"Feature","properties":{"h3":"8830c16ac1fffff","emd_code":"2653066100","emd_name":"주례3동","area_km2":0.5473,"edge":false,"slope_mean":11.16,"elev_mean":55.4,"flood_hist_n":1,"flood_depth_max_m":0.581,"flood_risk_100y":null,"semi_basement_r":null,"elderly_alone_r":0.1627,"bldg_age30_r":null,"shelter_min_walk":6,"pop":11474,"hh":5476,"elderly65_r":0.2979,"single_hh_r":0.3859,"source_level":"emd","flood_years":[2014],"landslide_hist_n":0},"geometry":{"type":"Polygon","coordinates":[[[128.99773,35.14866],[128.99688,35.1448],[129.00108,35.14264],[129.00613,35.14435],[129.00698,35.14821],[129.00278,35.15037],[128.99773,35.14866]]]}},{"type":"Feature","properties":{"h3":"8830c16ac3fffff","emd_code":"2653066000","emd_name":"주례2동","area_km2":0.5474,"edge":false,"slope_mean":13.33,"elev_mean":116.7,"flood_hist_n":0,"flood_depth_max_m":null,"flood_risk_100y":null,"semi_basement_r":null,"elderly_alone_r":0.1216,"bldg_age30_r":null,"shelter_min_walk":1,"pop":20520,"hh":11206,"elderly65_r":0.2375,"single_hh_r":0.5285,"source_level":"emd","flood_years":[],"landslide_hist_n":0},"geometry":{"type":"Polygon","coordinates":[[[129.00698,35.14821],[129.00613,35.14435],[129.01033,35.1422],[129.01538,35.1439],[129.01623,35.14777],[129.01203,35.14992],[129.00698,35.14821]]]}},{"type":"Feature","properties":{"h3":"8830c16ac5fffff","emd_code":"2653066100","emd_name":"주례3동","area_km2":0.5474,"edge":false,"slope_mean":21.18,"elev_mean":114.6,"flood_hist_n":0,"flood_depth_max_m":null,"flood_risk_100y":null,"semi_basement_r":null,"elderly_alone_r":0.1627,"bldg_age30_r":null,"shelter_min_walk":5,"pop":11474,"hh":5476,"elderly65_r":0.2979,"single_hh_r":0.3859,"source_level":"emd","flood_years":[],"landslide_hist_n":0},"geometry":{"type":"Polygon","coordinates":[[[128.99183,35.14309],[128.99097,35.13923],[128.99517,35.13707],[129.00022,35.13878],[129.00108,35.14264],[128.99688,35.1448],[128.99183,35.14309]]]}},{"type":"Feature","properties":{"h3":"8830c16ac7fffff","emd_code":"2653066100","emd_name":"주례3동","area_km2":0.5474,"edge":false,"slope_mean":23.06,"elev_mean":245.8,"flood_hist_n":0,"flood_depth_max_m":null,"flood_risk_100y":null,"semi_basement_r":null,"elderly_alone_r":0.1627,"bldg_age30_r":null,"shelter_min_walk":10,"pop":11474,"hh":5476,"elderly65_r":0.2979,"single_hh_r":0.3859,"source_level":"emd","flood_years":[],"landslide_hist_n":0},"geometry":{"type":"Polygon","coordinates":[[[129.00108,35.14264],[129.00022,35.13878],[129.00442,35.13663],[129.00947,35.13833],[129.01033,35.1422],[129.00613,35.14435],[129.00108,35.14264]]]}},{"type":"Feature","properties":{"h3":"8830c16ac9fffff","emd_code":"2653065000","emd_name":"주례1동","area_km2":0.5472,"edge":false,"slope_mean":7.37,"elev_mean":32.6,"flood_hist_n":0,"flood_depth_max_m":null,"flood_risk_100y":null,"semi_basement_r":null,"elderly_alone_r":0.1381,"bldg_age30_r":null,"shelter_min_walk":3,"pop":15917,"hh":7055,"elderly65_r":0.2491,"single_hh_r":0.324,"source_level":"emd","flood_years":[],"landslide_hist_n":0},"geometry":{"type":"Polygon","coordinates":[[[128.99439,35.15468],[128.99353,35.15082],[128.99773,35.14866],[129.00278,35.15037],[129.00364,35.15423],[128.99944,35.15639],[128.99439,35.15468]]]}},{"type":"Feature","properties":{"h3":"8830c16acbfffff","emd_code":"2653066000","emd_name":"주례2동","area_km2":0.5473,"edge":false,"slope_mean":9.94,"elev_mean":55.8,"flood_hist_n":0,"flood_depth_max_m":null,"flood_risk_100y":null,"semi_basement_r":null,"elderly_alone_r":0.1216,"bldg_age30_r":null,"shelter_min_walk":5,"pop":20520,"hh":11206,"elderly65_r":0.2375,"single_hh_r":0.5285,"source_level":"emd","flood_years":[],"landslide_hist_n":0},"geometry":{"type":"Polygon","coordinates":[[[129.00364,35.15423],[129.00278,35.15037],[129.00698,35.14821],[129.01203,35.14992],[129.01289,35.15378],[129.00869,35.15594],[129.00364,35.15423]]]}},{"type":"Feature","properties":{"h3":"8830c16acdfffff","emd_code":"2653067000","emd_name":"학장동","area_km2":0.5473,"edge":false,"slope_mean":5.46,"elev_mean":14.3,"flood_hist_n":1,"flood_depth_max_m":0.52,"flood_risk_100y":null,"semi_basement_r":null,"elderly_alone_r":0.1817,"bldg_age30_r":null,"shelter_min_walk":3,"pop":24961,"hh":11862,"elderly65_r":0.2929,"single_hh_r":0.38,"source_level":"emd","flood_years":[2014],"landslide_hist_n":0},"geometry":{"type":"Polygon","coordinates":[[[128.98848,35.14911],[128.98763,35.14525],[128.99183,35.14309],[128.99688,35.1448],[128.99773,35.14866],[128.99353,35.15082],[128.98848,35.14911]]]}},{"type":"Feature","properties":{"h3":"8830c16ad5fffff","emd_code":"2653066000","emd_name":"주례2동","area_km2":0.5474,"edge":true,"slope_mean":11.83,"elev_mean":135.9,"flood_hist_n":0,"flood_depth_max_m":null,"flood_risk_100y":null,"semi_basement_r":null,"elderly_alone_r":0.1216,"bldg_age30_r":null,"shelter_min_walk":3,"pop":20520,"hh":11206,"elderly65_r":0.2375,"single_hh_r":0.5285,"source_level":"emd","flood_years":[],"landslide_hist_n":0},"geometry":{"type":"Polygon","coordinates":[[[129.01623,35.14777],[129.01538,35.1439],[129.01958,35.14175],[129.02463,35.14345],[129.02548,35.14732],[129.02128,35.14947],[129.01623,35.14777]]]}},{"type":"Feature","properties":{"h3":"8830c16addfffff","emd_code":"2653066000","emd_name":"주례2동","area_km2":0.5473,"edge":true,"slope_mean":6.79,"elev_mean":63.8,"flood_hist_n":0,"flood_depth_max_m":null,"flood_risk_100y":null,"semi_basement_r":null,"elderly_alone_r":0.1216,"bldg_age30_r":null,"shelter_min_walk":5,"pop":20520,"hh":11206,"elderly65_r":0.2375,"single_hh_r":0.5285,"source_level":"emd","flood_years":[],"landslide_hist_n":0},"geometry":{"type":"Polygon","coordinates":[[[129.01289,35.15378],[129.01203,35.14992],[129.01623,35.14777],[129.02128,35.14947],[129.02214,35.15333],[129.01794,35.15549],[129.01289,35.15378]]]}},{"type":"Feature","properties":{"h3":"8830c16ae1fffff","emd_code":"2653067000","emd_name":"학장동","area_km2":0.5476,"edge":false,"slope_mean":23.04,"elev_mean":248.4,"flood_hist_n":0,"flood_depth_max_m":null,"flood_risk_100y":null,"semi_basement_r":null,"elderly_alone_r":0.1817,"bldg_age30_r":null,"shelter_min_walk":6,"pop":24961,"hh":11862,"elderly65_r":0.2929,"single_hh_r":0.38,"source_level":"emd","flood_years":[],"landslide_hist_n":0},"geometry":{"type":"Polygon","coordinates":[[[128.98927,35.1315],[128.98842,35.12764],[128.99261,35.12548],[128.99766,35.12719],[128.99852,35.13106],[128.99432,35.13321],[128.98927,35.1315]]]}},{"type":"Feature","properties":{"h3":"8830c16ae3fffff","emd_code":"2653067000","emd_name":"학장동","area_km2":0.5476,"edge":true,"slope_mean":20.36,"elev_mean":249.9,"flood_hist_n":0,"flood_depth_max_m":null,"flood_risk_100y":null,"semi_basement_r":null,"elderly_alone_r":0.1817,"bldg_age30_r":null,"shelter_min_walk":11,"pop":24961,"hh":11862,"elderly65_r":0.2929,"single_hh_r":0.38,"source_level":"emd","flood_years":[],"landslide_hist_n":0},"geometry":{"type":"Polygon","coordinates":[[[128.99852,35.13106],[128.99766,35.12719],[129.00186,35.12504],[129.00691,35.12674],[129.00777,35.13061],[129.00357,35.13276],[128.99852,35.13106]]]}},{"type":"Feature","properties":{"h3":"8830c16ae5fffff","emd_code":"2653068000","emd_name":"엄궁동","area_km2":0.5476,"edge":true,"slope_mean":21.25,"elev_mean":375.3,"flood_hist_n":0,"flood_depth_max_m":null,"flood_risk_100y":null,"semi_basement_r":null,"elderly_alone_r":0.1144,"bldg_age30_r":null,"shelter_min_walk":14,"pop":22933,"hh":9504,"elderly65_r":0.2209,"single_hh_r":0.2587,"source_level":"emd","flood_years":[],"landslide_hist_n":0},"geometry":{"type":"Polygon","coordinates":[[[128.98336,35.12593],[128.98251,35.12207],[128.98671,35.11991],[128.99176,35.12162],[128.99261,35.12548],[128.98842,35.12764],[128.98336,35.12593]]]}},{"type":"Feature","properties":{"h3":"8830c16ae7fffff","emd_code":"2653067000","emd_name":"학장동","area_km2":0.5477,"edge":false,"slope_mean":26.52,"elev_mean":410.2,"flood_hist_n":0,"flood_depth_max_m":null,"flood_risk_100y":null,"semi_basement_r":null,"elderly_alone_r":0.1817,"bldg_age30_r":null,"shelter_min_walk":16,"pop":24961,"hh":11862,"elderly65_r":0.2929,"single_hh_r":0.38,"source_level":"emd","flood_years":[],"landslide_hist_n":0},"geometry":{"type":"Polygon","coordinates":[[[128.99261,35.12548],[128.99176,35.12162],[128.99596,35.11946],[129.00101,35.12117],[129.00186,35.12504],[128.99766,35.12719],[128.99261,35.12548]]]}},{"type":"Feature","properties":{"h3":"8830c16ae9fffff","emd_code":"2653067000","emd_name":"학장동","area_km2":0.5475,"edge":false,"slope_mean":21.01,"elev_mean":144.4,"flood_hist_n":0,"flood_depth_max_m":null,"flood_risk_100y":null,"semi_basement_r":null,"elderly_alone_r":0.1817,"bldg_age30_r":null,"shelter_min_walk":4,"pop":24961,"hh":11862,"elderly65_r":0.2929,"single_hh_r":0.38,"source_level":"emd","flood_years":[],"landslide_hist_n":0},"geometry":{"type":"Polygon","coordinates":[[[128.98592,35.13752],[128.98507,35.13366],[128.98927,35.1315],[128.99432,35.13321],[128.99517,35.13707],[128.99097,35.13923],[128.98592,35.13752]]]}},{"type":"Feature","properties":{"h3":"8830c16aebfffff","emd_code":"2653067000","emd_name":"학장동","area_km2":0.5475,"edge":false,"slope_mean":20.95,"elev_mean":151.4,"flood_hist_n":0,"flood_depth_max_m":null,"flood_risk_100y":null,"semi_basement_r":null,"elderly_alone_r":0.1817,"bldg_age30_r":null,"shelter_min_walk":6,"pop":24961,"hh":11862,"elderly65_r":0.2929,"single_hh_r":0.38,"source_level":"emd","flood_years":[],"landslide_hist_n":0},"geometry":{"type":"Polygon","coordinates":[[[128.99517,35.13707],[128.99432,35.13321],[128.99852,35.13106],[129.00357,35.13276],[129.00442,35.13663],[129.00022,35.13878],[128.99517,35.13707]]]}},{"type":"Feature","properties":{"h3":"8830c16aedfffff","emd_code":"2653068000","emd_name":"엄궁동","area_km2":0.5475,"edge":false,"slope_mean":26.28,"elev_mean":277.1,"flood_hist_n":0,"flood_depth_max_m":null,"flood_risk_100y":null,"semi_basement_r":null,"elderly_alone_r":0.1144,"bldg_age30_r":null,"shelter_min_walk":8,"pop":22933,"hh":9504,"elderly65_r":0.2209,"single_hh_r":0.2587,"source_level":"emd","flood_years":[],"landslide_hist_n":0},"geometry":{"type":"Polygon","coordinates":[[[128.98002,35.13195],[128.97917,35.12809],[128.98336,35.12593],[128.98842,35.12764],[128.98927,35.1315],[128.98507,35.13366],[128.98002,35.13195]]]}},{"type":"Feature","properties":{"h3":"8830c17893fffff","emd_code":"2653058000","emd_name":"삼락동","area_km2":0.5465,"edge":false,"slope_mean":0.95,"elev_mean":0.9,"flood_hist_n":0,"flood_depth_max_m":null,"flood_risk_100y":null,"semi_basement_r":null,"elderly_alone_r":0.2674,"bldg_age30_r":null,"shelter_min_walk":10,"pop":4710,"hh":2775,"elderly65_r":0.3798,"single_hh_r":0.5701,"source_level":"emd","flood_years":[],"landslide_hist_n":0},"geometry":{"type":"Polygon","coordinates":[[[128.95916,35.18563],[128.95831,35.18177],[128.96251,35.17962],[128.96756,35.18133],[128.96841,35.18519],[128.96421,35.18734],[128.95916,35.18563]]]}},{"type":"Feature","properties":{"h3":"8830c17897fffff","emd_code":"2653058000","emd_name":"삼락동","area_km2":0.5466,"edge":true,"slope_mean":1.98,"elev_mean":2.7,"flood_hist_n":1,"flood_depth_max_m":0.669,"flood_risk_100y":null,"semi_basement_r":null,"elderly_alone_r":0.2674,"bldg_age30_r":null,"shelter_min_walk":4,"pop":4710,"hh":2775,"elderly65_r":0.3798,"single_hh_r":0.5701,"source_level":"emd","flood_years":[2015],"landslide_hist_n":0},"geometry":{"type":"Polygon","coordinates":[[[128.95326,35.18007],[128.95241,35.17621],[128.95661,35.17405],[128.96166,35.17576],[128.96251,35.17962],[128.95831,35.18177],[128.95326,35.18007]]]}}]}