{"type":"FeatureCollection","name":"grid_27110_h3r8","meta":{"sgg_code":"27110","h3_res":8,"n_cells":23,"dem":"Copernicus GLO-30 (bbox-mean)","crs":"EPSG:4326","jumin_basis":"2026-07","flood_src":"행안부 침수흔적도(전국, 재난안전데이터공유플랫폼)","landslide_src":"행안부 산사태 발생이력"},"features":[{"type":"Feature","properties":{"h3":"8830c19005fffff","emd_code":"2711057500","emd_name":"성내2동","area_km2":0.5331,"edge":true,"slope_mean":3.89,"elev_mean":38.8,"flood_hist_n":0,"flood_depth_max_m":null,"flood_risk_100y":null,"semi_basement_r":null,"elderly_alone_r":0.1055,"bldg_age30_r":null,"shelter_min_walk":2,"pop":9263,"hh":5291,"elderly65_r":0.1491,"single_hh_r":0.5908,"source_level":"emd","flood_years":[],"landslide_hist_n":0},"geometry":{"type":"Polygon","coordinates":[[[128.58613,35.88159],[128.58528,35.87778],[128.58948,35.87568],[128.59453,35.87739],[128.59538,35.88119],[128.59118,35.88329],[128.58613,35.88159]]]}},{"type":"Feature","properties":{"h3":"8830c19007fffff","emd_code":"2711056500","emd_name":"성내1동","area_km2":0.5331,"edge":true,"slope_mean":4.3,"elev_mean":38.9,"flood_hist_n":0,"flood_depth_max_m":null,"flood_risk_100y":null,"semi_basement_r":null,"elderly_alone_r":0.106,"bldg_age30_r":null,"shelter_min_walk":4,"pop":5527,"hh":4000,"elderly65_r":0.1712,"single_hh_r":0.7642,"source_level":"emd","flood_years":[],"landslide_hist_n":0},"geometry":{"type":"Polygon","coordinates":[[[128.59538,35.88119],[128.59453,35.87739],[128.59872,35.87529],[128.60377,35.877],[128.60462,35.8808],[128.60042,35.8829],[128.59538,35.88119]]]}},{"type":"Feature","properties":{"h3":"8830c19021fffff","emd_code":"2711057500","emd_name":"성내2동","area_km2":0.5333,"edge":false,"slope_mean":4.78,"elev_mean":46.0,"flood_hist_n":0,"flood_depth_max_m":null,"flood_risk_100y":null,"semi_basement_r":null,"elderly_alone_r":0.1055,"bldg_age30_r":null,"shelter_min_walk":2,"pop":9263,"hh":5291,"elderly65_r":0.1491,"single_hh_r":0.5908,"source_level":"emd","flood_years":[],"landslide_hist_n":0},"geometry":{"type":"Polygon","coordinates":[[[128.58359,35.87017],[128.58274,35.86637],[128.58693,35.86427],[128.59198,35.86598],[128.59283,35.86978],[128.58863,35.87188],[128.58359,35.87017]]]}},{"type":"Feature","properties":{"h3":"8830c19023fffff","emd_code":"2711054500","emd_name":"삼덕동","area_km2":0.5333,"edge":false,"slope_mean":4.39,"elev_mean":47.6,"flood_hist_n":0,"flood_depth_max_m":null,"flood_risk_100y":null,"semi_basement_r":null,"elderly_alone_r":0.0753,"bldg_age30_r":null,"shelter_min_walk":3,"pop":7460,"hh":4594,"elderly65_r":0.1316,"single_hh_r":0.6598,"source_level":"emd","flood_years":[],"landslide_hist_n":0},"geometry":{"type":"Polygon","coordinates":[[[128.59283,35.86978],[128.59198,35.86598],[128.59618,35.86388],[128.60122,35.86558],[128.60207,35.86939],[128.59787,35.87149],[128.59283,35.86978]]]}},{"type":"Feature","properties":{"h3":"8830c19025fffff","emd_code":"2711067000","emd_name":"남산4동","area_km2":0.5333,"edge":false,"slope_mean":4.5,"elev_mean":53.0,"flood_hist_n":0,"flood_depth_max_m":null,"flood_risk_100y":null,"semi_basement_r":null,"elderly_alone_r":0.139,"bldg_age30_r":null,"shelter_min_walk":2,"pop":15842,"hh":6908,"elderly65_r":0.2255,"single_hh_r":0.302,"source_level":"emd","flood_years":[],"landslide_hist_n":0},"geometry":{"type":"Polygon","coordinates":[[[128.57769,35.86466],[128.57684,35.86086],[128.58104,35.85876],[128.58608,35.86047],[128.58693,35.86427],[128.58274,35.86637],[128.57769,35.86466]]]}},{"type":"Feature","properties":{"h3":"8830c19027fffff","emd_code":"2711065000","emd_name":"남산2동","area_km2":0.5334,"edge":false,"slope_mean":4.22,"elev_mean":50.1,"flood_hist_n":0,"flood_depth_max_m":null,"flood_risk_100y":null,"semi_basement_r":null,"elderly_alone_r":0.1189,"bldg_age30_r":null,"shelter_min_walk":6,"pop":7394,"hh":3465,"elderly65_r":0.1722,"single_hh_r":0.413,"source_level":"emd","flood_years":[],"landslide_hist_n":0},"geometry":{"type":"Polygon","coordinates":[[[128.58693,35.86427],[128.58608,35.86047],[128.59028,35.85837],[128.59533,35.86007],[128.59618,35.86388],[128.59198,35.86598],[128.58693,35.86427]]]}},{"type":"Feature","properties":{"h3":"8830c19029fffff","emd_code":"2711058500","emd_name":"성내3동","area_km2":0.5332,"edge":false,"slope_mean":3.3,"elev_mean":40.9,"flood_hist_n":0,"flood_depth_max_m":null,"flood_risk_100y":null,"semi_basement_r":null,"elderly_alone_r":0.075,"bldg_age30_r":null,"shelter_min_walk":3,"pop":13643,"hh":5801,"elderly65_r":0.1111,"single_hh_r":0.3191,"source_level":"emd","flood_years":[],"landslide_hist_n":0},"geometry":{"type":"Polygon","coordinates":[[[128.58024,35.87607],[128.57939,35.87227],[128.58359,35.87017],[128.58863,35.87188],[128.58948,35.87568],[128.58528,35.87778],[128.58024,35.87607]]]}},{"type":"Feature","properties":{"h3":"8830c1902bfffff","emd_code":"2711057500","emd_name":"성내2동","area_km2":0.5332,"edge":false,"slope_mean":4.22,"elev_mean":43.9,"flood_hist_n":0,"flood_depth_max_m":null,"flood_risk_100y":null,"semi_basement_r":null,"elderly_alone_r":0.1055,"bldg_age30_r":null,"shelter_min_walk":4,"pop":9263,"hh":5291,"elderly65_r":0.1491,"single_hh_r":0.5908,"source_level":"emd","flood_years":[],"landslide_hist_n":0},"geometry":{"type":"Polygon","coordinates":[[[128.58948,35.87568],[128.58863,35.87188],[128.59283,35.86978],[128.59787,35.87149],[128.59872,35.87529],[128.59453,35.87739],[128.58948,35.87568]]]}},{"type":"Feature","properties":{"h3":"8830c1902dfffff","emd_code":"2711059500","emd_name":"대신동","area_km2":0.5332,"edge":false,"slope_mean":4.96,"elev_mean":48.7,"flood_hist_n":0,"flood_depth_max_m":null,"flood_risk_100y":null,"semi_basement_r":null,"elderly_alone_r":0.1452,"bldg_age30_r":null,"shelter_min_walk":6,"pop":7249,"hh":3271,"elderly65_r":0.2366,"single_hh_r":0.3283,"source_level":"emd","flood_years":[],"landslide_hist_n":0},"geometry":{"type":"Polygon","coordinates":[[[128.57434,35.87056],[128.57349,35.86676],[128.57769,35.86466],[128.58274,35.86637],[128.58359,35.87017],[128.57939,35.87227],[128.57434,35.87056]]]}},{"type":"Feature","properties":{"h3":"8830c19031fffff","emd_code":"2711051700","emd_name":"동인동","area_km2":0.5333,"edge":false,"slope_mean":4.46,"elev_mean":46.2,"flood_hist_n":0,"flood_depth_max_m":null,"flood_risk_100y":null,"semi_basement_r":null,"elderly_alone_r":0.1386,"bldg_age30_r":null,"shelter_min_walk":1,"pop":10997,"hh":6299,"elderly65_r":0.1883,"single_hh_r":0.5741,"source_level":"emd","flood_years":[],"landslide_hist_n":0},"geometry":{"type":"Polygon","coordinates":[[[128.60797,35.8749],[128.60712,35.8711],[128.61132,35.869],[128.61636,35.8707],[128.61721,35.87451],[128.61301,35.8766],[128.60797,35.8749]]]}},{"type":"Feature","properties":{"h3":"8830c19035fffff","emd_code":"2711051700","emd_name":"동인동","area_km2":0.5334,"edge":false,"slope_mean":3.63,"elev_mean":46.7,"flood_hist_n":0,"flood_depth_max_m":null,"flood_risk_100y":null,"semi_basement_r":null,"elderly_alone_r":0.1386,"bldg_age30_r":null,"shelter_min_walk":2,"pop":10997,"hh":6299,"elderly65_r":0.1883,"single_hh_r":0.5741,"source_level":"emd","flood_years":[],"landslide_hist_n":0},"geometry":{"type":"Polygon","coordinates":[[[128.60207,35.86939],[128.60122,35.86558],[128.60542,35.86349],[128.61047,35.86519],[128.61132,35.869],[128.60712,35.8711],[128.60207,35.86939]]]}},{"type":"Feature","properties":{"h3":"8830c19037fffff","emd_code":"2711051700","emd_name":"동인동","area_km2":0.5334,"edge":true,"slope_mean":4.17,"elev_mean":48.1,"flood_hist_n":0,"flood_depth_max_m":null,"flood_risk_100y":null,"semi_basement_r":null,"elderly_alone_r":0.1386,"bldg_age30_r":null,"shelter_min_walk":4,"pop":10997,"hh":6299,"elderly65_r":0.1883,"single_hh_r":0.5741,"source_level":"emd","flood_years":[],"landslide_hist_n":0},"geometry":{"type":"Polygon","coordinates":[[[128.61132,35.869],[128.61047,35.86519],[128.61466,35.86309],[128.61971,35.8648],[128.62056,35.8686],[128.61636,35.8707],[128.61132,35.869]]]}},{"type":"Feature","properties":{"h3":"8830c1903dfffff","emd_code":"2711051700","emd_name":"동인동","area_km2":0.5333,"edge":false,"slope_mean":3.73,"elev_mean":42.8,"flood_hist_n":0,"flood_depth_max_m":null,"flood_risk_100y":null,"semi_basement_r":null,"elderly_alone_r":0.1386,"bldg_age30_r":null,"shelter_min_walk":3,"pop":10997,"hh":6299,"elderly65_r":0.1883,"single_hh_r":0.5741,"source_level":"emd","flood_years":[],"landslide_hist_n":0},"geometry":{"type":"Polygon","coordinates":[[[128.59872,35.87529],[128.59787,35.87149],[128.60207,35.86939],[128.60712,35.8711],[128.60797,35.8749],[128.60377,35.877],[128.59872,35.87529]]]}},{"type":"Feature","properties":{"h3":"8830c19063fffff","emd_code":"2711058500","emd_name":"성내3동","area_km2":0.533,"edge":true,"slope_mean":2.9,"elev_mean":37.0,"flood_hist_n":0,"flood_depth_max_m":null,"flood_risk_100y":null,"semi_basement_r":null,"elderly_alone_r":0.075,"bldg_age30_r":null,"shelter_min_walk":2,"pop":13643,"hh":5801,"elderly65_r":0.1111,"single_hh_r":0.3191,"source_level":"emd","flood_years":[],"landslide_hist_n":0},"geometry":{"type":"Polygon","coordinates":[[[128.57689,35.88198],[128.57604,35.87817],[128.58024,35.87607],[128.58528,35.87778],[128.58613,35.88159],[128.58194,35.88368],[128.57689,35.88198]]]}},{"type":"Feature","properties":{"h3":"8830c19067fffff","emd_code":"2711058500","emd_name":"성내3동","area_km2":0.5331,"edge":true,"slope_mean":4.7,"elev_mean":45.2,"flood_hist_n":0,"flood_depth_max_m":null,"flood_risk_100y":null,"semi_basement_r":null,"elderly_alone_r":0.075,"bldg_age30_r":null,"shelter_min_walk":6,"pop":13643,"hh":5801,"elderly65_r":0.1111,"single_hh_r":0.3191,"source_level":"emd","flood_years":[],"landslide_hist_n":0},"geometry":{"type":"Polygon","coordinates":[[[128.571,35.87647],[128.57015,35.87266],[128.57434,35.87056],[128.57939,35.87227],[128.58024,35.87607],[128.57604,35.87817],[128.571,35.87647]]]}},{"type":"Feature","properties":{"h3":"8830c19119fffff","emd_code":"2711067000","emd_name":"남산4동","area_km2":0.5334,"edge":true,"slope_mean":4.75,"elev_mean":60.4,"flood_hist_n":0,"flood_depth_max_m":null,"flood_risk_100y":null,"semi_basement_r":null,"elderly_alone_r":0.139,"bldg_age30_r":null,"shelter_min_walk":2,"pop":15842,"hh":6908,"elderly65_r":0.2255,"single_hh_r":0.302,"source_level":"emd","flood_years":[],"landslide_hist_n":0},"geometry":{"type":"Polygon","coordinates":[[[128.5718,35.85915],[128.57095,35.85534],[128.57514,35.85325],[128.58019,35.85495],[128.58104,35.85876],[128.57684,35.86086],[128.5718,35.85915]]]}},{"type":"Feature","properties":{"h3":"8830c1911bfffff","emd_code":"2711066000","emd_name":"남산3동","area_km2":0.5335,"edge":false,"slope_mean":3.96,"elev_mean":56.0,"flood_hist_n":0,"flood_depth_max_m":null,"flood_risk_100y":null,"semi_basement_r":null,"elderly_alone_r":0.1872,"bldg_age30_r":null,"shelter_min_walk":4,"pop":5779,"hh":2687,"elderly65_r":0.2872,"single_hh_r":0.4258,"source_level":"emd","flood_years":[],"landslide_hist_n":0},"geometry":{"type":"Polygon","coordinates":[[[128.58104,35.85876],[128.58019,35.85495],[128.58439,35.85285],[128.58943,35.85456],[128.59028,35.85837],[128.58608,35.86047],[128.58104,35.85876]]]}},{"type":"Feature","properties":{"h3":"8830c19153fffff","emd_code":"2711059500","emd_name":"대신동","area_km2":0.5333,"edge":true,"slope_mean":4.11,"elev_mean":52.2,"flood_hist_n":0,"flood_depth_max_m":null,"flood_risk_100y":null,"semi_basement_r":null,"elderly_alone_r":0.1452,"bldg_age30_r":null,"shelter_min_walk":2,"pop":7249,"hh":3271,"elderly65_r":0.2366,"single_hh_r":0.3283,"source_level":"emd","flood_years":[],"landslide_hist_n":0},"geometry":{"type":"Polygon","coordinates":[[[128.56845,35.86505],[128.5676,35.86125],[128.5718,35.85915],[128.57684,35.86086],[128.57769,35.86466],[128.57349,35.86676],[128.56845,35.86505]]]}},{"type":"Feature","properties":{"h3":"8830c191c1fffff","emd_code":"2711068000","emd_name":"대봉1동","area_km2":0.5336,"edge":false,"slope_mean":3.56,"elev_mean":52.9,"flood_hist_n":0,"flood_depth_max_m":null,"flood_risk_100y":null,"semi_basement_r":null,"elderly_alone_r":0.1287,"bldg_age30_r":null,"shelter_min_walk":4,"pop":7666,"hh":3521,"elderly65_r":0.2198,"single_hh_r":0.3928,"source_level":"emd","flood_years":[],"landslide_hist_n":0},"geometry":{"type":"Polygon","coordinates":[[[128.59952,35.85797],[128.59867,35.85417],[128.60287,35.85207],[128.60792,35.85378],[128.60877,35.85758],[128.60457,35.85968],[128.59952,35.85797]]]}},{"type":"Feature","properties":{"h3":"8830c191c3fffff","emd_code":"2711068000","emd_name":"대봉1동","area_km2":0.5336,"edge":true,"slope_mean":3.62,"elev_mean":53.6,"flood_hist_n":0,"flood_depth_max_m":null,"flood_risk_100y":null,"semi_basement_r":null,"elderly_alone_r":0.1287,"bldg_age30_r":null,"shelter_min_walk":4,"pop":7666,"hh":3521,"elderly65_r":0.2198,"single_hh_r":0.3928,"source_level":"emd","flood_years":[],"landslide_hist_n":0},"geometry":{"type":"Polygon","coordinates":[[[128.60877,35.85758],[128.60792,35.85378],[128.61211,35.85168],[128.61716,35.85338],[128.61801,35.85719],[128.61381,35.85929],[128.60877,35.85758]]]}},{"type":"Feature","properties":{"h3":"8830c191c9fffff","emd_code":"2711056500","emd_name":"성내1동","area_km2":0.5334,"edge":false,"slope_mean":4.0,"elev_mean":51.0,"flood_hist_n":0,"flood_depth_max_m":null,"flood_risk_100y":null,"semi_basement_r":null,"elderly_alone_r":0.106,"bldg_age30_r":null,"shelter_min_walk":1,"pop":5527,"hh":4000,"elderly65_r":0.1712,"single_hh_r":0.7642,"source_level":"emd","flood_years":[],"landslide_hist_n":0},"geometry":{"type":"Polygon","coordinates":[[[128.59618,35.86388],[128.59533,35.86007],[128.59952,35.85797],[128.60457,35.85968],[128.60542,35.86349],[128.60122,35.86558],[128.59618,35.86388]]]}},{"type":"Feature","properties":{"h3":"8830c191cbfffff","emd_code":"2711068000","emd_name":"대봉1동","area_km2":0.5335,"edge":true,"slope_mean":3.92,"elev_mean":49.2,"flood_hist_n":0,"flood_depth_max_m":null,"flood_risk_100y":null,"semi_basement_r":null,"elderly_alone_r":0.1287,"bldg_age30_r":null,"shelter_min_walk":4,"pop":7666,"hh":3521,"elderly65_r":0.2198,"single_hh_r":0.3928,"source_level":"emd","flood_years":[],"landslide_hist_n":0},"geometry":{"type":"Polygon","coordinates":[[[128.60542,35.86349],[128.60457,35.85968],[128.60877,35.85758],[128.61381,35.85929],[128.61466,35.86309],[128.61047,35.86519],[128.60542,35.86349]]]}},{"type":"Feature","properties":{"h3":"8830c191cdfffff","emd_code":"2711064000","emd_name":"남산1동","area_km2":0.5335,"edge":true,"slope_mean":4.14,"elev_mean":56.3,"flood_hist_n":0,"flood_depth_max_m":null,"flood_risk_100y":null,"semi_basement_r":null,"elderly_alone_r":0.1492,"bldg_age30_r":null,"shelter_min_walk":6,"pop":5062,"hh":2789,"elderly65_r":0.2056,"single_hh_r":0.5536,"source_level":"emd","flood_years":[],"landslide_hist_n":0},"geometry":{"type":"Polygon","coordinates":[[[128.59028,35.85837],[128.58943,35.85456],[128.59363,35.85246],[128.59867,35.85417],[128.59952,35.85797],[128.59533,35.86007],[128.59028,35.85837]]]}}]}