{"type":"FeatureCollection","name":"grid_27170_h3r8","meta":{"sgg_code":"27170","h3_res":8,"n_cells":49,"dem":"Copernicus GLO-30 (bbox-mean)","crs":"EPSG:4326","jumin_basis":"2026-07","flood_src":"행안부 침수흔적도(전국, 재난안전데이터공유플랫폼)","landslide_src":"행안부 산사태 발생이력"},"features":[{"type":"Feature","properties":{"h3":"8830c19029fffff","emd_code":"2717056500","emd_name":"비산2·3동","area_km2":0.5332,"edge":true,"slope_mean":3.43,"elev_mean":41.1,"flood_hist_n":0,"flood_depth_max_m":null,"flood_risk_100y":null,"semi_basement_r":null,"elderly_alone_r":0.3261,"bldg_age30_r":null,"shelter_min_walk":3,"pop":7550,"hh":4544,"elderly65_r":0.4242,"single_hh_r":0.5709,"source_level":"emd","flood_years":[],"landslide_hist_n":0},"geometry":{"type":"Polygon","coordinates":[[[128.58024,35.87607],[128.57939,35.87227],[128.58359,35.87017],[128.58863,35.87188],[128.58948,35.87568],[128.58528,35.87778],[128.58024,35.87607]]]}},{"type":"Feature","properties":{"h3":"8830c1902dfffff","emd_code":"2717052500","emd_name":"내당2·3동","area_km2":0.5332,"edge":true,"slope_mean":4.96,"elev_mean":48.5,"flood_hist_n":0,"flood_depth_max_m":null,"flood_risk_100y":null,"semi_basement_r":null,"elderly_alone_r":0.2655,"bldg_age30_r":null,"shelter_min_walk":6,"pop":8091,"hh":4565,"elderly65_r":0.3729,"single_hh_r":0.5203,"source_level":"emd","flood_years":[],"landslide_hist_n":0},"geometry":{"type":"Polygon","coordinates":[[[128.57434,35.87056],[128.57349,35.86676],[128.57769,35.86466],[128.58274,35.86637],[128.58359,35.87017],[128.57939,35.87227],[128.57434,35.87056]]]}},{"type":"Feature","properties":{"h3":"8830c19045fffff","emd_code":"2717069500","emd_name":"원대동","area_km2":0.5328,"edge":true,"slope_mean":2.25,"elev_mean":31.6,"flood_hist_n":0,"flood_depth_max_m":null,"flood_risk_100y":null,"semi_basement_r":null,"elderly_alone_r":0.1881,"bldg_age30_r":null,"shelter_min_walk":3,"pop":9963,"hh":5274,"elderly65_r":0.2818,"single_hh_r":0.4708,"source_level":"emd","flood_years":[],"landslide_hist_n":0},"geometry":{"type":"Polygon","coordinates":[[[128.5702,35.89377],[128.56935,35.88997],[128.57354,35.88788],[128.57859,35.88958],[128.57944,35.89338],[128.57524,35.89548],[128.5702,35.89377]]]}},{"type":"Feature","properties":{"h3":"8830c19061fffff","emd_code":"2717056500","emd_name":"비산2·3동","area_km2":0.533,"edge":false,"slope_mean":4.64,"elev_mean":42.0,"flood_hist_n":0,"flood_depth_max_m":null,"flood_risk_100y":null,"semi_basement_r":null,"elderly_alone_r":0.3261,"bldg_age30_r":null,"shelter_min_walk":3,"pop":7550,"hh":4544,"elderly65_r":0.4242,"single_hh_r":0.5709,"source_level":"emd","flood_years":[],"landslide_hist_n":0},"geometry":{"type":"Polygon","coordinates":[[[128.56765,35.88237],[128.5668,35.87856],[128.571,35.87647],[128.57604,35.87817],[128.57689,35.88198],[128.57269,35.88407],[128.56765,35.88237]]]}},{"type":"Feature","properties":{"h3":"8830c19063fffff","emd_code":"2717069500","emd_name":"원대동","area_km2":0.533,"edge":true,"slope_mean":2.88,"elev_mean":37.0,"flood_hist_n":0,"flood_depth_max_m":null,"flood_risk_100y":null,"semi_basement_r":null,"elderly_alone_r":0.1881,"bldg_age30_r":null,"shelter_min_walk":2,"pop":9963,"hh":5274,"elderly65_r":0.2818,"single_hh_r":0.4708,"source_level":"emd","flood_years":[],"landslide_hist_n":0},"geometry":{"type":"Polygon","coordinates":[[[128.57689,35.88198],[128.57604,35.87817],[128.58024,35.87607],[128.58528,35.87778],[128.58613,35.88159],[128.58194,35.88368],[128.57689,35.88198]]]}},{"type":"Feature","properties":{"h3":"8830c19065fffff","emd_code":"2717062000","emd_name":"평리1동","area_km2":0.5331,"edge":false,"slope_mean":4.37,"elev_mean":44.7,"flood_hist_n":0,"flood_depth_max_m":null,"flood_risk_100y":null,"semi_basement_r":null,"elderly_alone_r":0.2554,"bldg_age30_r":null,"shelter_min_walk":5,"pop":6126,"hh":3497,"elderly65_r":0.3691,"single_hh_r":0.5236,"source_level":"emd","flood_years":[],"landslide_hist_n":0},"geometry":{"type":"Polygon","coordinates":[[[128.56175,35.87685],[128.56091,35.87305],[128.5651,35.87095],[128.57015,35.87266],[128.571,35.87647],[128.5668,35.87856],[128.56175,35.87685]]]}},{"type":"Feature","properties":{"h3":"8830c19067fffff","emd_code":"2717056500","emd_name":"비산2·3동","area_km2":0.5331,"edge":false,"slope_mean":4.75,"elev_mean":45.4,"flood_hist_n":0,"flood_depth_max_m":null,"flood_risk_100y":null,"semi_basement_r":null,"elderly_alone_r":0.3261,"bldg_age30_r":null,"shelter_min_walk":6,"pop":7550,"hh":4544,"elderly65_r":0.4242,"single_hh_r":0.5709,"source_level":"emd","flood_years":[],"landslide_hist_n":0},"geometry":{"type":"Polygon","coordinates":[[[128.571,35.87647],[128.57015,35.87266],[128.57434,35.87056],[128.57939,35.87227],[128.58024,35.87607],[128.57604,35.87817],[128.571,35.87647]]]}},{"type":"Feature","properties":{"h3":"8830c19069fffff","emd_code":"2717059000","emd_name":"비산5동","area_km2":0.5329,"edge":false,"slope_mean":3.43,"elev_mean":32.9,"flood_hist_n":0,"flood_depth_max_m":null,"flood_risk_100y":null,"semi_basement_r":null,"elderly_alone_r":0.3004,"bldg_age30_r":null,"shelter_min_walk":2,"pop":4744,"hh":2939,"elderly65_r":0.4148,"single_hh_r":0.5985,"source_level":"emd","flood_years":[],"landslide_hist_n":0},"geometry":{"type":"Polygon","coordinates":[[[128.5643,35.88827],[128.56345,35.88446],[128.56765,35.88237],[128.57269,35.88407],[128.57354,35.88788],[128.56935,35.88997],[128.5643,35.88827]]]}},{"type":"Feature","properties":{"h3":"8830c1906bfffff","emd_code":"2717069500","emd_name":"원대동","area_km2":0.5329,"edge":false,"slope_mean":2.59,"elev_mean":33.6,"flood_hist_n":0,"flood_depth_max_m":null,"flood_risk_100y":null,"semi_basement_r":null,"elderly_alone_r":0.1881,"bldg_age30_r":null,"shelter_min_walk":2,"pop":9963,"hh":5274,"elderly65_r":0.2818,"single_hh_r":0.4708,"source_level":"emd","flood_years":[],"landslide_hist_n":0},"geometry":{"type":"Polygon","coordinates":[[[128.57354,35.88788],[128.57269,35.88407],[128.57689,35.88198],[128.58194,35.88368],[128.58279,35.88749],[128.57859,35.88958],[128.57354,35.88788]]]}},{"type":"Feature","properties":{"h3":"8830c1906dfffff","emd_code":"2717064000","emd_name":"평리3동","area_km2":0.5329,"edge":false,"slope_mean":3.17,"elev_mean":35.3,"flood_hist_n":0,"flood_depth_max_m":null,"flood_risk_100y":null,"semi_basement_r":null,"elderly_alone_r":0.1786,"bldg_age30_r":null,"shelter_min_walk":11,"pop":12090,"hh":6164,"elderly65_r":0.2687,"single_hh_r":0.444,"source_level":"emd","flood_years":[],"landslide_hist_n":0},"geometry":{"type":"Polygon","coordinates":[[[128.55841,35.88275],[128.55756,35.87895],[128.56175,35.87685],[128.5668,35.87856],[128.56765,35.88237],[128.56345,35.88446],[128.55841,35.88275]]]}},{"type":"Feature","properties":{"h3":"8830c19109fffff","emd_code":"2717054000","emd_name":"내당4동","area_km2":0.5334,"edge":true,"slope_mean":4.64,"elev_mean":40.6,"flood_hist_n":0,"flood_depth_max_m":null,"flood_risk_100y":null,"semi_basement_r":null,"elderly_alone_r":0.1863,"bldg_age30_r":null,"shelter_min_walk":5,"pop":14119,"hh":7656,"elderly65_r":0.3214,"single_hh_r":0.4961,"source_level":"emd","flood_years":[],"landslide_hist_n":0},"geometry":{"type":"Polygon","coordinates":[[[128.54742,35.85442],[128.54657,35.85061],[128.55077,35.84851],[128.55581,35.85022],[128.55666,35.85403],[128.55246,35.85612],[128.54742,35.85442]]]}},{"type":"Feature","properties":{"h3":"8830c19141fffff","emd_code":"2717067500","emd_name":"상중이동","area_km2":0.5332,"edge":true,"slope_mean":3.66,"elev_mean":43.8,"flood_hist_n":0,"flood_depth_max_m":null,"flood_risk_100y":null,"semi_basement_r":null,"elderly_alone_r":0.1813,"bldg_age30_r":null,"shelter_min_walk":4,"pop":16863,"hh":8236,"elderly65_r":0.2956,"single_hh_r":0.4212,"source_level":"emd","flood_years":[],"landslide_hist_n":0},"geometry":{"type":"Polygon","coordinates":[[[128.53483,35.86071],[128.53398,35.8569],[128.53818,35.8548],[128.54322,35.85651],[128.54407,35.86032],[128.53988,35.86241],[128.53483,35.86071]]]}},{"type":"Feature","properties":{"h3":"8830c19143fffff","emd_code":"2717054000","emd_name":"내당4동","area_km2":0.5333,"edge":false,"slope_mean":3.72,"elev_mean":40.3,"flood_hist_n":0,"flood_depth_max_m":null,"flood_risk_100y":null,"semi_basement_r":null,"elderly_alone_r":0.1863,"bldg_age30_r":null,"shelter_min_walk":5,"pop":14119,"hh":7656,"elderly65_r":0.3214,"single_hh_r":0.4961,"source_level":"emd","flood_years":[],"landslide_hist_n":0},"geometry":{"type":"Polygon","coordinates":[[[128.54407,35.86032],[128.54322,35.85651],[128.54742,35.85442],[128.55246,35.85612],[128.55331,35.85993],[128.54912,35.86203],[128.54407,35.86032]]]}},{"type":"Feature","properties":{"h3":"8830c19147fffff","emd_code":"2717067500","emd_name":"상중이동","area_km2":0.5333,"edge":true,"slope_mean":3.51,"elev_mean":38.6,"flood_hist_n":0,"flood_depth_max_m":null,"flood_risk_100y":null,"semi_basement_r":null,"elderly_alone_r":0.1813,"bldg_age30_r":null,"shelter_min_walk":4,"pop":16863,"hh":8236,"elderly65_r":0.2956,"single_hh_r":0.4212,"source_level":"emd","flood_years":[],"landslide_hist_n":0},"geometry":{"type":"Polygon","coordinates":[[[128.53818,35.8548],[128.53733,35.851],[128.54153,35.8489],[128.54657,35.85061],[128.54742,35.85442],[128.54322,35.85651],[128.53818,35.8548]]]}},{"type":"Feature","properties":{"h3":"8830c19149fffff","emd_code":"2717067500","emd_name":"상중이동","area_km2":0.5331,"edge":false,"slope_mean":4.17,"elev_mean":56.6,"flood_hist_n":0,"flood_depth_max_m":null,"flood_risk_100y":null,"semi_basement_r":null,"elderly_alone_r":0.1813,"bldg_age30_r":null,"shelter_min_walk":7,"pop":16863,"hh":8236,"elderly65_r":0.2956,"single_hh_r":0.4212,"source_level":"emd","flood_years":[],"landslide_hist_n":0},"geometry":{"type":"Polygon","coordinates":[[[128.53149,35.86661],[128.53064,35.8628],[128.53483,35.86071],[128.53988,35.86241],[128.54073,35.86622],[128.53653,35.86832],[128.53149,35.86661]]]}},{"type":"Feature","properties":{"h3":"8830c1914bfffff","emd_code":"2717067500","emd_name":"상중이동","area_km2":0.5331,"edge":false,"slope_mean":3.94,"elev_mean":47.8,"flood_hist_n":0,"flood_depth_max_m":null,"flood_risk_100y":null,"semi_basement_r":null,"elderly_alone_r":0.1813,"bldg_age30_r":null,"shelter_min_walk":8,"pop":16863,"hh":8236,"elderly65_r":0.2956,"single_hh_r":0.4212,"source_level":"emd","flood_years":[],"landslide_hist_n":0},"geometry":{"type":"Polygon","coordinates":[[[128.54073,35.86622],[128.53988,35.86241],[128.54407,35.86032],[128.54912,35.86203],[128.54997,35.86583],[128.54577,35.86793],[128.54073,35.86622]]]}},{"type":"Feature","properties":{"h3":"8830c1914dfffff","emd_code":"2717067500","emd_name":"상중이동","area_km2":0.5332,"edge":true,"slope_mean":4.65,"elev_mean":52.0,"flood_hist_n":0,"flood_depth_max_m":null,"flood_risk_100y":null,"semi_basement_r":null,"elderly_alone_r":0.1813,"bldg_age30_r":null,"shelter_min_walk":2,"pop":16863,"hh":8236,"elderly65_r":0.2956,"single_hh_r":0.4212,"source_level":"emd","flood_years":[],"landslide_hist_n":0},"geometry":{"type":"Polygon","coordinates":[[[128.52559,35.86109],[128.52474,35.85729],[128.52894,35.85519],[128.53398,35.8569],[128.53483,35.86071],[128.53064,35.8628],[128.52559,35.86109]]]}},{"type":"Feature","properties":{"h3":"8830c19151fffff","emd_code":"2717051000","emd_name":"내당1동","area_km2":0.5332,"edge":false,"slope_mean":4.3,"elev_mean":49.5,"flood_hist_n":0,"flood_depth_max_m":null,"flood_risk_100y":null,"semi_basement_r":null,"elderly_alone_r":0.1265,"bldg_age30_r":null,"shelter_min_walk":1,"pop":14683,"hh":6872,"elderly65_r":0.203,"single_hh_r":0.375,"source_level":"emd","flood_years":[],"landslide_hist_n":0},"geometry":{"type":"Polygon","coordinates":[[[128.55921,35.86544],[128.55836,35.86164],[128.56255,35.85954],[128.5676,35.86125],[128.56845,35.86505],[128.56425,35.86715],[128.55921,35.86544]]]}},{"type":"Feature","properties":{"h3":"8830c19153fffff","emd_code":"2717052500","emd_name":"내당2·3동","area_km2":0.5333,"edge":false,"slope_mean":4.12,"elev_mean":52.0,"flood_hist_n":0,"flood_depth_max_m":null,"flood_risk_100y":null,"semi_basement_r":null,"elderly_alone_r":0.2655,"bldg_age30_r":null,"shelter_min_walk":2,"pop":8091,"hh":4565,"elderly65_r":0.3729,"single_hh_r":0.5203,"source_level":"emd","flood_years":[],"landslide_hist_n":0},"geometry":{"type":"Polygon","coordinates":[[[128.56845,35.86505],[128.5676,35.86125],[128.5718,35.85915],[128.57684,35.86086],[128.57769,35.86466],[128.57349,35.86676],[128.56845,35.86505]]]}},{"type":"Feature","properties":{"h3":"8830c19155fffff","emd_code":"2717051000","emd_name":"내당1동","area_km2":0.5333,"edge":true,"slope_mean":4.55,"elev_mean":42.8,"flood_hist_n":0,"flood_depth_max_m":null,"flood_risk_100y":null,"semi_basement_r":null,"elderly_alone_r":0.1265,"bldg_age30_r":null,"shelter_min_walk":1,"pop":14683,"hh":6872,"elderly65_r":0.203,"single_hh_r":0.375,"source_level":"emd","flood_years":[],"landslide_hist_n":0},"geometry":{"type":"Polygon","coordinates":[[[128.55331,35.85993],[128.55246,35.85612],[128.55666,35.85403],[128.56171,35.85573],[128.56255,35.85954],[128.55836,35.86164],[128.55331,35.85993]]]}},{"type":"Feature","properties":{"h3":"8830c19157fffff","emd_code":"2717051000","emd_name":"내당1동","area_km2":0.5334,"edge":true,"slope_mean":5.38,"elev_mean":57.8,"flood_hist_n":0,"flood_depth_max_m":null,"flood_risk_100y":null,"semi_basement_r":null,"elderly_alone_r":0.1265,"bldg_age30_r":null,"shelter_min_walk":5,"pop":14683,"hh":6872,"elderly65_r":0.203,"single_hh_r":0.375,"source_level":"emd","flood_years":[],"landslide_hist_n":0},"geometry":{"type":"Polygon","coordinates":[[[128.56255,35.85954],[128.56171,35.85573],[128.5659,35.85364],[128.57095,35.85534],[128.5718,35.85915],[128.5676,35.86125],[128.56255,35.85954]]]}},{"type":"Feature","properties":{"h3":"8830c19159fffff","emd_code":"2717065000","emd_name":"평리4동","area_km2":0.5331,"edge":false,"slope_mean":3.7,"elev_mean":40.0,"flood_hist_n":0,"flood_depth_max_m":null,"flood_risk_100y":null,"semi_basement_r":null,"elderly_alone_r":0.1847,"bldg_age30_r":null,"shelter_min_walk":1,"pop":15025,"hh":7889,"elderly65_r":0.2878,"single_hh_r":0.4836,"source_level":"emd","flood_years":[],"landslide_hist_n":0},"geometry":{"type":"Polygon","coordinates":[[[128.55586,35.87134],[128.55501,35.86754],[128.55921,35.86544],[128.56425,35.86715],[128.5651,35.87095],[128.56091,35.87305],[128.55586,35.87134]]]}},{"type":"Feature","properties":{"h3":"8830c1915bfffff","emd_code":"2717058000","emd_name":"비산4동","area_km2":0.5332,"edge":false,"slope_mean":4.75,"elev_mean":51.0,"flood_hist_n":0,"flood_depth_max_m":null,"flood_risk_100y":null,"semi_basement_r":null,"elderly_alone_r":0.2334,"bldg_age30_r":null,"shelter_min_walk":2,"pop":8143,"hh":4335,"elderly65_r":0.3544,"single_hh_r":0.4699,"source_level":"emd","flood_years":[],"landslide_hist_n":0},"geometry":{"type":"Polygon","coordinates":[[[128.5651,35.87095],[128.56425,35.86715],[128.56845,35.86505],[128.57349,35.86676],[128.57434,35.87056],[128.57015,35.87266],[128.5651,35.87095]]]}},{"type":"Feature","properties":{"h3":"8830c1915dfffff","emd_code":"2717065000","emd_name":"평리4동","area_km2":0.5332,"edge":false,"slope_mean":4.31,"elev_mean":45.6,"flood_hist_n":0,"flood_depth_max_m":null,"flood_risk_100y":null,"semi_basement_r":null,"elderly_alone_r":0.1847,"bldg_age30_r":null,"shelter_min_walk":3,"pop":15025,"hh":7889,"elderly65_r":0.2878,"single_hh_r":0.4836,"source_level":"emd","flood_years":[],"landslide_hist_n":0},"geometry":{"type":"Polygon","coordinates":[[[128.54997,35.86583],[128.54912,35.86203],[128.55331,35.85993],[128.55836,35.86164],[128.55921,35.86544],[128.55501,35.86754],[128.54997,35.86583]]]}},{"type":"Feature","properties":{"h3":"8830c19301fffff","emd_code":"2717061000","emd_name":"비산7동","area_km2":0.5327,"edge":true,"slope_mean":4.16,"elev_mean":24.4,"flood_hist_n":0,"flood_depth_max_m":null,"flood_risk_100y":null,"semi_basement_r":null,"elderly_alone_r":0.2259,"bldg_age30_r":null,"shelter_min_walk":25,"pop":9260,"hh":5384,"elderly65_r":0.3156,"single_hh_r":0.5568,"source_level":"emd","flood_years":[],"landslide_hist_n":0},"geometry":{"type":"Polygon","coordinates":[[[128.52734,35.88982],[128.52649,35.88601],[128.53068,35.88392],[128.53573,35.88563],[128.53658,35.88943],[128.53238,35.89152],[128.52734,35.88982]]]}},{"type":"Feature","properties":{"h3":"8830c19303fffff","emd_code":"2717061000","emd_name":"비산7동","area_km2":0.5327,"edge":false,"slope_mean":3.56,"elev_mean":26.3,"flood_hist_n":0,"flood_depth_max_m":null,"flood_risk_100y":null,"semi_basement_r":null,"elderly_alone_r":0.2259,"bldg_age30_r":null,"shelter_min_walk":19,"pop":9260,"hh":5384,"elderly65_r":0.3156,"single_hh_r":0.5568,"source_level":"emd","flood_years":[],"landslide_hist_n":0},"geometry":{"type":"Polygon","coordinates":[[[128.53658,35.88943],[128.53573,35.88563],[128.53992,35.88353],[128.54497,35.88524],[128.54582,35.88904],[128.54162,35.89114],[128.53658,35.88943]]]}},{"type":"Feature","properties":{"h3":"8830c19305fffff","emd_code":"2717067500","emd_name":"상중이동","area_km2":0.5328,"edge":false,"slope_mean":12.9,"elev_mean":76.3,"flood_hist_n":0,"flood_depth_max_m":null,"flood_risk_100y":null,"semi_basement_r":null,"elderly_alone_r":0.1813,"bldg_age30_r":null,"shelter_min_walk":29,"pop":16863,"hh":8236,"elderly65_r":0.2956,"single_hh_r":0.4212,"source_level":"emd","flood_years":[],"landslide_hist_n":0},"geometry":{"type":"Polygon","coordinates":[[[128.52144,35.8843],[128.5206,35.8805],[128.52479,35.87841],[128.52984,35.88011],[128.53068,35.88392],[128.52649,35.88601],[128.52144,35.8843]]]}},{"type":"Feature","properties":{"h3":"8830c19307fffff","emd_code":"2717067500","emd_name":"상중이동","area_km2":0.5328,"edge":false,"slope_mean":4.71,"elev_mean":29.2,"flood_hist_n":0,"flood_depth_max_m":null,"flood_risk_100y":null,"semi_basement_r":null,"elderly_alone_r":0.1813,"bldg_age30_r":null,"shelter_min_walk":19,"pop":16863,"hh":8236,"elderly65_r":0.2956,"single_hh_r":0.4212,"source_level":"emd","flood_years":[],"landslide_hist_n":0},"geometry":{"type":"Polygon","coordinates":[[[128.53068,35.88392],[128.52984,35.88011],[128.53403,35.87802],[128.53908,35.87973],[128.53992,35.88353],[128.53573,35.88563],[128.53068,35.88392]]]}},{"type":"Feature","properties":{"h3":"8830c1930bfffff","emd_code":"2717061000","emd_name":"비산7동","area_km2":0.5326,"edge":true,"slope_mean":5.45,"elev_mean":29.3,"flood_hist_n":0,"flood_depth_max_m":null,"flood_risk_100y":null,"semi_basement_r":null,"elderly_alone_r":0.2259,"bldg_age30_r":null,"shelter_min_walk":12,"pop":9260,"hh":5384,"elderly65_r":0.3156,"single_hh_r":0.5568,"source_level":"emd","flood_years":[],"landslide_hist_n":0},"geometry":{"type":"Polygon","coordinates":[[[128.53323,35.89533],[128.53238,35.89152],[128.53658,35.88943],[128.54162,35.89114],[128.54247,35.89494],[128.53828,35.89703],[128.53323,35.89533]]]}},{"type":"Feature","properties":{"h3":"8830c1930dfffff","emd_code":"2717067500","emd_name":"상중이동","area_km2":0.5326,"edge":true,"slope_mean":11.81,"elev_mean":57.5,"flood_hist_n":0,"flood_depth_max_m":null,"flood_risk_100y":null,"semi_basement_r":null,"elderly_alone_r":0.1813,"bldg_age30_r":null,"shelter_min_walk":18,"pop":16863,"hh":8236,"elderly65_r":0.2956,"single_hh_r":0.4212,"source_level":"emd","flood_years":[],"landslide_hist_n":0},"geometry":{"type":"Polygon","coordinates":[[[128.5181,35.8902],[128.51725,35.8864],[128.52144,35.8843],[128.52649,35.88601],[128.52734,35.88982],[128.52314,35.89191],[128.5181,35.8902]]]}},{"type":"Feature","properties":{"h3":"8830c19311fffff","emd_code":"2717061000","emd_name":"비산7동","area_km2":0.5327,"edge":true,"slope_mean":3.29,"elev_mean":27.2,"flood_hist_n":0,"flood_depth_max_m":null,"flood_risk_100y":null,"semi_basement_r":null,"elderly_alone_r":0.2259,"bldg_age30_r":null,"shelter_min_walk":3,"pop":9260,"hh":5384,"elderly65_r":0.3156,"single_hh_r":0.5568,"source_level":"emd","flood_years":[],"landslide_hist_n":0},"geometry":{"type":"Polygon","coordinates":[[[128.55171,35.89455],[128.55086,35.89075],[128.55506,35.88865],[128.5601,35.89036],[128.56095,35.89416],[128.55676,35.89626],[128.55171,35.89455]]]}},{"type":"Feature","properties":{"h3":"8830c19313fffff","emd_code":"2717059000","emd_name":"비산5동","area_km2":0.5328,"edge":true,"slope_mean":2.61,"elev_mean":28.8,"flood_hist_n":0,"flood_depth_max_m":null,"flood_risk_100y":null,"semi_basement_r":null,"elderly_alone_r":0.3004,"bldg_age30_r":null,"shelter_min_walk":3,"pop":4744,"hh":2939,"elderly65_r":0.4148,"single_hh_r":0.5985,"source_level":"emd","flood_years":[],"landslide_hist_n":0},"geometry":{"type":"Polygon","coordinates":[[[128.56095,35.89416],[128.5601,35.89036],[128.5643,35.88827],[128.56935,35.88997],[128.5702,35.89377],[128.566,35.89587],[128.56095,35.89416]]]}},{"type":"Feature","properties":{"h3":"8830c19315fffff","emd_code":"2717061000","emd_name":"비산7동","area_km2":0.5328,"edge":false,"slope_mean":3.22,"elev_mean":28.4,"flood_hist_n":0,"flood_depth_max_m":null,"flood_risk_100y":null,"semi_basement_r":null,"elderly_alone_r":0.2259,"bldg_age30_r":null,"shelter_min_walk":10,"pop":9260,"hh":5384,"elderly65_r":0.3156,"single_hh_r":0.5568,"source_level":"emd","flood_years":[],"landslide_hist_n":0},"geometry":{"type":"Polygon","coordinates":[[[128.54582,35.88904],[128.54497,35.88524],[128.54917,35.88314],[128.55421,35.88485],[128.55506,35.88865],[128.55086,35.89075],[128.54582,35.88904]]]}},{"type":"Feature","properties":{"h3":"8830c19317fffff","emd_code":"2717061000","emd_name":"비산7동","area_km2":0.5328,"edge":false,"slope_mean":2.65,"elev_mean":28.9,"flood_hist_n":0,"flood_depth_max_m":null,"flood_risk_100y":null,"semi_basement_r":null,"elderly_alone_r":0.2259,"bldg_age30_r":null,"shelter_min_walk":8,"pop":9260,"hh":5384,"elderly65_r":0.3156,"single_hh_r":0.5568,"source_level":"emd","flood_years":[],"landslide_hist_n":0},"geometry":{"type":"Polygon","coordinates":[[[128.55506,35.88865],[128.55421,35.88485],[128.55841,35.88275],[128.56345,35.88446],[128.5643,35.88827],[128.5601,35.89036],[128.55506,35.88865]]]}},{"type":"Feature","properties":{"h3":"8830c19319fffff","emd_code":"2717061000","emd_name":"비산7동","area_km2":0.5326,"edge":true,"slope_mean":6.71,"elev_mean":31.4,"flood_hist_n":0,"flood_depth_max_m":null,"flood_risk_100y":null,"semi_basement_r":null,"elderly_alone_r":0.2259,"bldg_age30_r":null,"shelter_min_walk":8,"pop":9260,"hh":5384,"elderly65_r":0.3156,"single_hh_r":0.5568,"source_level":"emd","flood_years":[],"landslide_hist_n":0},"geometry":{"type":"Polygon","coordinates":[[[128.54836,35.90045],[128.54752,35.89665],[128.55171,35.89455],[128.55676,35.89626],[128.55761,35.90006],[128.55341,35.90216],[128.54836,35.90045]]]}},{"type":"Feature","properties":{"h3":"8830c1931dfffff","emd_code":"2717061000","emd_name":"비산7동","area_km2":0.5327,"edge":false,"slope_mean":3.36,"elev_mean":24.9,"flood_hist_n":0,"flood_depth_max_m":null,"flood_risk_100y":null,"semi_basement_r":null,"elderly_alone_r":0.2259,"bldg_age30_r":null,"shelter_min_walk":10,"pop":9260,"hh":5384,"elderly65_r":0.3156,"single_hh_r":0.5568,"source_level":"emd","flood_years":[],"landslide_hist_n":0},"geometry":{"type":"Polygon","coordinates":[[[128.54247,35.89494],[128.54162,35.89114],[128.54582,35.88904],[128.55086,35.89075],[128.55171,35.89455],[128.54752,35.89665],[128.54247,35.89494]]]}},{"type":"Feature","properties":{"h3":"8830c19321fffff","emd_code":"2717067500","emd_name":"상중이동","area_km2":0.5329,"edge":false,"slope_mean":18.55,"elev_mean":147.6,"flood_hist_n":0,"flood_depth_max_m":null,"flood_risk_100y":null,"semi_basement_r":null,"elderly_alone_r":0.1813,"bldg_age30_r":null,"shelter_min_walk":19,"pop":16863,"hh":8236,"elderly65_r":0.2956,"single_hh_r":0.4212,"source_level":"emd","flood_years":[],"landslide_hist_n":0},"geometry":{"type":"Polygon","coordinates":[[[128.5189,35.87289],[128.51805,35.86909],[128.52225,35.86699],[128.52729,35.8687],[128.52814,35.87251],[128.52394,35.8746],[128.5189,35.87289]]]}},{"type":"Feature","properties":{"h3":"8830c19323fffff","emd_code":"2717067500","emd_name":"상중이동","area_km2":0.533,"edge":false,"slope_mean":6.8,"elev_mean":66.1,"flood_hist_n":0,"flood_depth_max_m":null,"flood_risk_100y":null,"semi_basement_r":null,"elderly_alone_r":0.1813,"bldg_age30_r":null,"shelter_min_walk":15,"pop":16863,"hh":8236,"elderly65_r":0.2956,"single_hh_r":0.4212,"source_level":"emd","flood_years":[],"landslide_hist_n":0},"geometry":{"type":"Polygon","coordinates":[[[128.52814,35.87251],[128.52729,35.8687],[128.53149,35.86661],[128.53653,35.86832],[128.53738,35.87212],[128.53318,35.87422],[128.52814,35.87251]]]}},{"type":"Feature","properties":{"h3":"8830c19327fffff","emd_code":"2717067500","emd_name":"상중이동","area_km2":0.533,"edge":false,"slope_mean":9.98,"elev_mean":81.4,"flood_hist_n":0,"flood_depth_max_m":null,"flood_risk_100y":null,"semi_basement_r":null,"elderly_alone_r":0.1813,"bldg_age30_r":null,"shelter_min_walk":8,"pop":16863,"hh":8236,"elderly65_r":0.2956,"single_hh_r":0.4212,"source_level":"emd","flood_years":[],"landslide_hist_n":0},"geometry":{"type":"Polygon","coordinates":[[[128.52225,35.86699],[128.5214,35.86319],[128.52559,35.86109],[128.53064,35.8628],[128.53149,35.86661],[128.52729,35.8687],[128.52225,35.86699]]]}},{"type":"Feature","properties":{"h3":"8830c19329fffff","emd_code":"2717067500","emd_name":"상중이동","area_km2":0.5328,"edge":true,"slope_mean":20.43,"elev_mean":162.8,"flood_hist_n":0,"flood_depth_max_m":null,"flood_risk_100y":null,"semi_basement_r":null,"elderly_alone_r":0.1813,"bldg_age30_r":null,"shelter_min_walk":26,"pop":16863,"hh":8236,"elderly65_r":0.2956,"single_hh_r":0.4212,"source_level":"emd","flood_years":[],"landslide_hist_n":0},"geometry":{"type":"Polygon","coordinates":[[[128.51555,35.87879],[128.5147,35.87499],[128.5189,35.87289],[128.52394,35.8746],[128.52479,35.87841],[128.5206,35.8805],[128.51555,35.87879]]]}},{"type":"Feature","properties":{"h3":"8830c1932bfffff","emd_code":"2717067500","emd_name":"상중이동","area_km2":0.5329,"edge":false,"slope_mean":12.6,"elev_mean":68.2,"flood_hist_n":0,"flood_depth_max_m":null,"flood_risk_100y":null,"semi_basement_r":null,"elderly_alone_r":0.1813,"bldg_age30_r":null,"shelter_min_walk":25,"pop":16863,"hh":8236,"elderly65_r":0.2956,"single_hh_r":0.4212,"source_level":"emd","flood_years":[],"landslide_hist_n":0},"geometry":{"type":"Polygon","coordinates":[[[128.52479,35.87841],[128.52394,35.8746],[128.52814,35.87251],[128.53318,35.87422],[128.53403,35.87802],[128.52984,35.88011],[128.52479,35.87841]]]}},{"type":"Feature","properties":{"h3":"8830c19331fffff","emd_code":"2717066100","emd_name":"평리6동","area_km2":0.533,"edge":false,"slope_mean":5.35,"elev_mean":45.1,"flood_hist_n":0,"flood_depth_max_m":null,"flood_risk_100y":null,"semi_basement_r":null,"elderly_alone_r":0.1544,"bldg_age30_r":null,"shelter_min_walk":1,"pop":5391,"hh":2707,"elderly65_r":0.2406,"single_hh_r":0.4341,"source_level":"emd","flood_years":[],"landslide_hist_n":0},"geometry":{"type":"Polygon","coordinates":[[[128.54327,35.87763],[128.54242,35.87383],[128.54662,35.87173],[128.55166,35.87344],[128.55251,35.87724],[128.54832,35.87934],[128.54327,35.87763]]]}},{"type":"Feature","properties":{"h3":"8830c19333fffff","emd_code":"2717064000","emd_name":"평리3동","area_km2":0.533,"edge":false,"slope_mean":3.92,"elev_mean":37.9,"flood_hist_n":0,"flood_depth_max_m":null,"flood_risk_100y":null,"semi_basement_r":null,"elderly_alone_r":0.1786,"bldg_age30_r":null,"shelter_min_walk":1,"pop":12090,"hh":6164,"elderly65_r":0.2687,"single_hh_r":0.444,"source_level":"emd","flood_years":[],"landslide_hist_n":0},"geometry":{"type":"Polygon","coordinates":[[[128.55251,35.87724],[128.55166,35.87344],[128.55586,35.87134],[128.56091,35.87305],[128.56175,35.87685],[128.55756,35.87895],[128.55251,35.87724]]]}},{"type":"Feature","properties":{"h3":"8830c19335fffff","emd_code":"2717067500","emd_name":"상중이동","area_km2":0.533,"edge":false,"slope_mean":4.75,"elev_mean":53.6,"flood_hist_n":0,"flood_depth_max_m":null,"flood_risk_100y":null,"semi_basement_r":null,"elderly_alone_r":0.1813,"bldg_age30_r":null,"shelter_min_walk":10,"pop":16863,"hh":8236,"elderly65_r":0.2956,"single_hh_r":0.4212,"source_level":"emd","flood_years":[],"landslide_hist_n":0},"geometry":{"type":"Polygon","coordinates":[[[128.53738,35.87212],[128.53653,35.86832],[128.54073,35.86622],[128.54577,35.86793],[128.54662,35.87173],[128.54242,35.87383],[128.53738,35.87212]]]}},{"type":"Feature","properties":{"h3":"8830c19337fffff","emd_code":"2717067500","emd_name":"상중이동","area_km2":0.5331,"edge":false,"slope_mean":4.78,"elev_mean":49.0,"flood_hist_n":0,"flood_depth_max_m":null,"flood_risk_100y":null,"semi_basement_r":null,"elderly_alone_r":0.1813,"bldg_age30_r":null,"shelter_min_walk":3,"pop":16863,"hh":8236,"elderly65_r":0.2956,"single_hh_r":0.4212,"source_level":"emd","flood_years":[],"landslide_hist_n":0},"geometry":{"type":"Polygon","coordinates":[[[128.54662,35.87173],[128.54577,35.86793],[128.54997,35.86583],[128.55501,35.86754],[128.55586,35.87134],[128.55166,35.87344],[128.54662,35.87173]]]}},{"type":"Feature","properties":{"h3":"8830c19339fffff","emd_code":"2717066100","emd_name":"평리6동","area_km2":0.5329,"edge":false,"slope_mean":4.01,"elev_mean":30.4,"flood_hist_n":0,"flood_depth_max_m":null,"flood_risk_100y":null,"semi_basement_r":null,"elderly_alone_r":0.1544,"bldg_age30_r":null,"shelter_min_walk":10,"pop":5391,"hh":2707,"elderly65_r":0.2406,"single_hh_r":0.4341,"source_level":"emd","flood_years":[],"landslide_hist_n":0},"geometry":{"type":"Polygon","coordinates":[[[128.53992,35.88353],[128.53908,35.87973],[128.54327,35.87763],[128.54832,35.87934],[128.54917,35.88314],[128.54497,35.88524],[128.53992,35.88353]]]}},{"type":"Feature","properties":{"h3":"8830c1933bfffff","emd_code":"2717066100","emd_name":"평리6동","area_km2":0.5329,"edge":false,"slope_mean":3.62,"elev_mean":30.6,"flood_hist_n":0,"flood_depth_max_m":null,"flood_risk_100y":null,"semi_basement_r":null,"elderly_alone_r":0.1544,"bldg_age30_r":null,"shelter_min_walk":11,"pop":5391,"hh":2707,"elderly65_r":0.2406,"single_hh_r":0.4341,"source_level":"emd","flood_years":[],"landslide_hist_n":0},"geometry":{"type":"Polygon","coordinates":[[[128.54917,35.88314],[128.54832,35.87934],[128.55251,35.87724],[128.55756,35.87895],[128.55841,35.88275],[128.55421,35.88485],[128.54917,35.88314]]]}},{"type":"Feature","properties":{"h3":"8830c1933dfffff","emd_code":"2717067500","emd_name":"상중이동","area_km2":0.5329,"edge":false,"slope_mean":5.3,"elev_mean":38.2,"flood_hist_n":0,"flood_depth_max_m":null,"flood_risk_100y":null,"semi_basement_r":null,"elderly_alone_r":0.1813,"bldg_age30_r":null,"shelter_min_walk":12,"pop":16863,"hh":8236,"elderly65_r":0.2956,"single_hh_r":0.4212,"source_level":"emd","flood_years":[],"landslide_hist_n":0},"geometry":{"type":"Polygon","coordinates":[[[128.53403,35.87802],[128.53318,35.87422],[128.53738,35.87212],[128.54242,35.87383],[128.54327,35.87763],[128.53908,35.87973],[128.53403,35.87802]]]}},{"type":"Feature","properties":{"h3":"8830c19363fffff","emd_code":"2717067500","emd_name":"상중이동","area_km2":0.5327,"edge":true,"slope_mean":21.21,"elev_mean":155.1,"flood_hist_n":0,"flood_depth_max_m":null,"flood_risk_100y":null,"semi_basement_r":null,"elderly_alone_r":0.1813,"bldg_age30_r":null,"shelter_min_walk":25,"pop":16863,"hh":8236,"elderly65_r":0.2956,"single_hh_r":0.4212,"source_level":"emd","flood_years":[],"landslide_hist_n":0},"geometry":{"type":"Polygon","coordinates":[[[128.51221,35.88469],[128.51136,35.88089],[128.51555,35.87879],[128.5206,35.8805],[128.52144,35.8843],[128.51725,35.8864],[128.51221,35.88469]]]}}]}