{"type":"FeatureCollection","name":"grid_27200_h3r8","meta":{"sgg_code":"27200","h3_res":8,"n_cells":49,"dem":"Copernicus GLO-30 (bbox-mean)","crs":"EPSG:4326","jumin_basis":"2026-07","flood_src":"행안부 침수흔적도(전국, 재난안전데이터공유플랫폼)","landslide_src":"행안부 산사태 발생이력"},"features":[{"type":"Feature","properties":{"h3":"8830c19103fffff","emd_code":"2720059000","emd_name":"대명4동","area_km2":0.5335,"edge":true,"slope_mean":8.54,"elev_mean":64.9,"flood_hist_n":0,"flood_depth_max_m":null,"flood_risk_100y":null,"semi_basement_r":null,"elderly_alone_r":0.2313,"bldg_age30_r":null,"shelter_min_walk":7,"pop":9003,"hh":5387,"elderly65_r":0.3549,"single_hh_r":0.5807,"source_level":"emd","flood_years":[],"landslide_hist_n":0},"geometry":{"type":"Polygon","coordinates":[[[128.56001,35.84812],[128.55916,35.84432],[128.56336,35.84222],[128.5684,35.84393],[128.56925,35.84773],[128.56505,35.84983],[128.56001,35.84812]]]}},{"type":"Feature","properties":{"h3":"8830c19107fffff","emd_code":"2720065000","emd_name":"대명10동","area_km2":0.5336,"edge":true,"slope_mean":6.2,"elev_mean":50.9,"flood_hist_n":0,"flood_depth_max_m":null,"flood_risk_100y":null,"semi_basement_r":null,"elderly_alone_r":0.2277,"bldg_age30_r":null,"shelter_min_walk":5,"pop":7805,"hh":4748,"elderly65_r":0.3508,"single_hh_r":0.5914,"source_level":"emd","flood_years":[],"landslide_hist_n":0},"geometry":{"type":"Polygon","coordinates":[[[128.55411,35.84261],[128.55327,35.8388],[128.55746,35.8367],[128.56251,35.83841],[128.56336,35.84222],[128.55916,35.84432],[128.55411,35.84261]]]}},{"type":"Feature","properties":{"h3":"8830c19111fffff","emd_code":"2720058600","emd_name":"대명3동","area_km2":0.5335,"edge":false,"slope_mean":4.55,"elev_mean":65.1,"flood_hist_n":0,"flood_depth_max_m":null,"flood_risk_100y":null,"semi_basement_r":null,"elderly_alone_r":0.1934,"bldg_age30_r":null,"shelter_min_walk":6,"pop":12166,"hh":7378,"elderly65_r":0.2744,"single_hh_r":0.589,"source_level":"emd","flood_years":[],"landslide_hist_n":0},"geometry":{"type":"Polygon","coordinates":[[[128.57514,35.85325],[128.57429,35.84944],[128.57849,35.84734],[128.58354,35.84905],[128.58439,35.85285],[128.58019,35.85495],[128.57514,35.85325]]]}},{"type":"Feature","properties":{"h3":"8830c19113fffff","emd_code":"2720057100","emd_name":"대명2동","area_km2":0.5336,"edge":false,"slope_mean":4.88,"elev_mean":63.2,"flood_hist_n":0,"flood_depth_max_m":null,"flood_risk_100y":null,"semi_basement_r":null,"elderly_alone_r":0.1353,"bldg_age30_r":null,"shelter_min_walk":3,"pop":15229,"hh":8787,"elderly65_r":0.2003,"single_hh_r":0.5759,"source_level":"emd","flood_years":[],"landslide_hist_n":0},"geometry":{"type":"Polygon","coordinates":[[[128.58439,35.85285],[128.58354,35.84905],[128.58773,35.84695],[128.59278,35.84866],[128.59363,35.85246],[128.58943,35.85456],[128.58439,35.85285]]]}},{"type":"Feature","properties":{"h3":"8830c19115fffff","emd_code":"2720059000","emd_name":"대명4동","area_km2":0.5336,"edge":false,"slope_mean":4.91,"elev_mean":68.9,"flood_hist_n":0,"flood_depth_max_m":null,"flood_risk_100y":null,"semi_basement_r":null,"elderly_alone_r":0.2313,"bldg_age30_r":null,"shelter_min_walk":6,"pop":9003,"hh":5387,"elderly65_r":0.3549,"single_hh_r":0.5807,"source_level":"emd","flood_years":[],"landslide_hist_n":0},"geometry":{"type":"Polygon","coordinates":[[[128.56925,35.84773],[128.5684,35.84393],[128.5726,35.84183],[128.57764,35.84353],[128.57849,35.84734],[128.57429,35.84944],[128.56925,35.84773]]]}},{"type":"Feature","properties":{"h3":"8830c19117fffff","emd_code":"2720060000","emd_name":"대명5동","area_km2":0.5336,"edge":false,"slope_mean":4.87,"elev_mean":75.1,"flood_hist_n":0,"flood_depth_max_m":null,"flood_risk_100y":null,"semi_basement_r":null,"elderly_alone_r":0.1164,"bldg_age30_r":null,"shelter_min_walk":2,"pop":8896,"hh":4734,"elderly65_r":0.1937,"single_hh_r":0.508,"source_level":"emd","flood_years":[],"landslide_hist_n":0},"geometry":{"type":"Polygon","coordinates":[[[128.57849,35.84734],[128.57764,35.84353],[128.58184,35.84144],[128.58688,35.84314],[128.58773,35.84695],[128.58354,35.84905],[128.57849,35.84734]]]}},{"type":"Feature","properties":{"h3":"8830c19119fffff","emd_code":"2720058600","emd_name":"대명3동","area_km2":0.5334,"edge":false,"slope_mean":4.74,"elev_mean":60.4,"flood_hist_n":0,"flood_depth_max_m":null,"flood_risk_100y":null,"semi_basement_r":null,"elderly_alone_r":0.1934,"bldg_age30_r":null,"shelter_min_walk":2,"pop":12166,"hh":7378,"elderly65_r":0.2744,"single_hh_r":0.589,"source_level":"emd","flood_years":[],"landslide_hist_n":0},"geometry":{"type":"Polygon","coordinates":[[[128.5718,35.85915],[128.57095,35.85534],[128.57514,35.85325],[128.58019,35.85495],[128.58104,35.85876],[128.57684,35.86086],[128.5718,35.85915]]]}},{"type":"Feature","properties":{"h3":"8830c1911bfffff","emd_code":"2720057100","emd_name":"대명2동","area_km2":0.5335,"edge":true,"slope_mean":3.89,"elev_mean":55.7,"flood_hist_n":0,"flood_depth_max_m":null,"flood_risk_100y":null,"semi_basement_r":null,"elderly_alone_r":0.1353,"bldg_age30_r":null,"shelter_min_walk":4,"pop":15229,"hh":8787,"elderly65_r":0.2003,"single_hh_r":0.5759,"source_level":"emd","flood_years":[],"landslide_hist_n":0},"geometry":{"type":"Polygon","coordinates":[[[128.58104,35.85876],[128.58019,35.85495],[128.58439,35.85285],[128.58943,35.85456],[128.59028,35.85837],[128.58608,35.86047],[128.58104,35.85876]]]}},{"type":"Feature","properties":{"h3":"8830c1911dfffff","emd_code":"2720059000","emd_name":"대명4동","area_km2":0.5335,"edge":true,"slope_mean":7.29,"elev_mean":70.6,"flood_hist_n":0,"flood_depth_max_m":null,"flood_risk_100y":null,"semi_basement_r":null,"elderly_alone_r":0.2313,"bldg_age30_r":null,"shelter_min_walk":3,"pop":9003,"hh":5387,"elderly65_r":0.3549,"single_hh_r":0.5807,"source_level":"emd","flood_years":[],"landslide_hist_n":0},"geometry":{"type":"Polygon","coordinates":[[[128.5659,35.85364],[128.56505,35.84983],[128.56925,35.84773],[128.57429,35.84944],[128.57514,35.85325],[128.57095,35.85534],[128.5659,35.85364]]]}},{"type":"Feature","properties":{"h3":"8830c19123fffff","emd_code":"2720066000","emd_name":"대명11동","area_km2":0.5338,"edge":true,"slope_mean":6.32,"elev_mean":84.9,"flood_hist_n":0,"flood_depth_max_m":null,"flood_risk_100y":null,"semi_basement_r":null,"elderly_alone_r":0.2651,"bldg_age30_r":null,"shelter_min_walk":4,"pop":7152,"hh":4323,"elderly65_r":0.3786,"single_hh_r":0.5776,"source_level":"emd","flood_years":[],"landslide_hist_n":0},"geometry":{"type":"Polygon","coordinates":[[[128.55157,35.83119],[128.55072,35.82738],[128.55492,35.82528],[128.55996,35.82699],[128.56081,35.8308],[128.55661,35.8329],[128.55157,35.83119]]]}},{"type":"Feature","properties":{"h3":"8830c1912bfffff","emd_code":"2720066000","emd_name":"대명11동","area_km2":0.5337,"edge":true,"slope_mean":4.36,"elev_mean":51.2,"flood_hist_n":0,"flood_depth_max_m":null,"flood_risk_100y":null,"semi_basement_r":null,"elderly_alone_r":0.2651,"bldg_age30_r":null,"shelter_min_walk":2,"pop":7152,"hh":4323,"elderly65_r":0.3786,"single_hh_r":0.5776,"source_level":"emd","flood_years":[],"landslide_hist_n":0},"geometry":{"type":"Polygon","coordinates":[[[128.54822,35.83709],[128.54737,35.83329],[128.55157,35.83119],[128.55661,35.8329],[128.55746,35.8367],[128.55327,35.8388],[128.54822,35.83709]]]}},{"type":"Feature","properties":{"h3":"8830c19131fffff","emd_code":"2720061000","emd_name":"대명6동","area_km2":0.5338,"edge":false,"slope_mean":5.88,"elev_mean":89.6,"flood_hist_n":0,"flood_depth_max_m":null,"flood_risk_100y":null,"semi_basement_r":null,"elderly_alone_r":0.1797,"bldg_age30_r":null,"shelter_min_walk":7,"pop":10276,"hh":5705,"elderly65_r":0.2663,"single_hh_r":0.5311,"source_level":"emd","flood_years":[],"landslide_hist_n":0},"geometry":{"type":"Polygon","coordinates":[[[128.5667,35.83631],[128.56585,35.8325],[128.57005,35.83041],[128.57509,35.83211],[128.57594,35.83592],[128.57175,35.83802],[128.5667,35.83631]]]}},{"type":"Feature","properties":{"h3":"8830c19133fffff","emd_code":"2720064000","emd_name":"대명9동","area_km2":0.5338,"edge":false,"slope_mean":10.06,"elev_mean":113.9,"flood_hist_n":0,"flood_depth_max_m":null,"flood_risk_100y":null,"semi_basement_r":null,"elderly_alone_r":0.1859,"bldg_age30_r":null,"shelter_min_walk":4,"pop":13110,"hh":7800,"elderly65_r":0.2937,"single_hh_r":0.6005,"source_level":"emd","flood_years":[],"landslide_hist_n":0},"geometry":{"type":"Polygon","coordinates":[[[128.57594,35.83592],[128.57509,35.83211],[128.57929,35.83001],[128.58434,35.83172],[128.58519,35.83553],[128.58099,35.83763],[128.57594,35.83592]]]}},{"type":"Feature","properties":{"h3":"8830c19135fffff","emd_code":"2720066000","emd_name":"대명11동","area_km2":0.5338,"edge":false,"slope_mean":16.07,"elev_mean":161.5,"flood_hist_n":0,"flood_depth_max_m":null,"flood_risk_100y":null,"semi_basement_r":null,"elderly_alone_r":0.2651,"bldg_age30_r":null,"shelter_min_walk":3,"pop":7152,"hh":4323,"elderly65_r":0.3786,"single_hh_r":0.5776,"source_level":"emd","flood_years":[],"landslide_hist_n":0},"geometry":{"type":"Polygon","coordinates":[[[128.56081,35.8308],[128.55996,35.82699],[128.56416,35.82489],[128.5692,35.8266],[128.57005,35.83041],[128.56585,35.8325],[128.56081,35.8308]]]}},{"type":"Feature","properties":{"h3":"8830c19137fffff","emd_code":"2720061000","emd_name":"대명6동","area_km2":0.5339,"edge":false,"slope_mean":21.52,"elev_mean":216.2,"flood_hist_n":0,"flood_depth_max_m":null,"flood_risk_100y":null,"semi_basement_r":null,"elderly_alone_r":0.1797,"bldg_age30_r":null,"shelter_min_walk":6,"pop":10276,"hh":5705,"elderly65_r":0.2663,"single_hh_r":0.5311,"source_level":"emd","flood_years":[],"landslide_hist_n":0},"geometry":{"type":"Polygon","coordinates":[[[128.57005,35.83041],[128.5692,35.8266],[128.5734,35.8245],[128.57844,35.82621],[128.57929,35.83001],[128.57509,35.83211],[128.57005,35.83041]]]}},{"type":"Feature","properties":{"h3":"8830c19139fffff","emd_code":"2720065000","emd_name":"대명10동","area_km2":0.5337,"edge":false,"slope_mean":5.38,"elev_mean":63.2,"flood_hist_n":0,"flood_depth_max_m":null,"flood_risk_100y":null,"semi_basement_r":null,"elderly_alone_r":0.2277,"bldg_age30_r":null,"shelter_min_walk":3,"pop":7805,"hh":4748,"elderly65_r":0.3508,"single_hh_r":0.5914,"source_level":"emd","flood_years":[],"landslide_hist_n":0},"geometry":{"type":"Polygon","coordinates":[[[128.56336,35.84222],[128.56251,35.83841],[128.5667,35.83631],[128.57175,35.83802],[128.5726,35.84183],[128.5684,35.84393],[128.56336,35.84222]]]}},{"type":"Feature","properties":{"h3":"8830c1913bfffff","emd_code":"2720056000","emd_name":"대명1동","area_km2":0.5337,"edge":false,"slope_mean":3.01,"elev_mean":69.3,"flood_hist_n":0,"flood_depth_max_m":null,"flood_risk_100y":null,"semi_basement_r":null,"elderly_alone_r":0.1814,"bldg_age30_r":null,"shelter_min_walk":5,"pop":9242,"hh":5237,"elderly65_r":0.3033,"single_hh_r":0.5408,"source_level":"emd","flood_years":[],"landslide_hist_n":0},"geometry":{"type":"Polygon","coordinates":[[[128.5726,35.84183],[128.57175,35.83802],[128.57594,35.83592],[128.58099,35.83763],[128.58184,35.84144],[128.57764,35.84353],[128.5726,35.84183]]]}},{"type":"Feature","properties":{"h3":"8830c1913dfffff","emd_code":"2720066000","emd_name":"대명11동","area_km2":0.5337,"edge":false,"slope_mean":4.89,"elev_mean":68.6,"flood_hist_n":0,"flood_depth_max_m":null,"flood_risk_100y":null,"semi_basement_r":null,"elderly_alone_r":0.2651,"bldg_age30_r":null,"shelter_min_walk":5,"pop":7152,"hh":4323,"elderly65_r":0.3786,"single_hh_r":0.5776,"source_level":"emd","flood_years":[],"landslide_hist_n":0},"geometry":{"type":"Polygon","coordinates":[[[128.55746,35.8367],[128.55661,35.8329],[128.56081,35.8308],[128.56585,35.8325],[128.5667,35.83631],[128.56251,35.83841],[128.55746,35.8367]]]}},{"type":"Feature","properties":{"h3":"8830c1918dfffff","emd_code":"2720054000","emd_name":"봉덕2동","area_km2":0.5338,"edge":true,"slope_mean":3.04,"elev_mean":61.1,"flood_hist_n":0,"flood_depth_max_m":null,"flood_risk_100y":null,"semi_basement_r":null,"elderly_alone_r":0.1565,"bldg_age30_r":null,"shelter_min_walk":3,"pop":12852,"hh":5860,"elderly65_r":0.2707,"single_hh_r":0.35,"source_level":"emd","flood_years":[],"landslide_hist_n":0},"geometry":{"type":"Polygon","coordinates":[[[128.60622,35.84616],[128.60537,35.84236],[128.60957,35.84026],[128.61461,35.84196],[128.61546,35.84577],[128.61126,35.84787],[128.60622,35.84616]]]}},{"type":"Feature","properties":{"h3":"8830c191a1fffff","emd_code":"2720054000","emd_name":"봉덕2동","area_km2":0.5341,"edge":true,"slope_mean":9.16,"elev_mean":83.7,"flood_hist_n":0,"flood_depth_max_m":null,"flood_risk_100y":null,"semi_basement_r":null,"elderly_alone_r":0.1565,"bldg_age30_r":null,"shelter_min_walk":8,"pop":12852,"hh":5860,"elderly65_r":0.2707,"single_hh_r":0.35,"source_level":"emd","flood_years":[],"landslide_hist_n":0},"geometry":{"type":"Polygon","coordinates":[[[128.60702,35.82883],[128.60617,35.82503],[128.61036,35.82292],[128.61541,35.82463],[128.61626,35.82844],[128.61206,35.83054],[128.60702,35.82883]]]}},{"type":"Feature","properties":{"h3":"8830c191a5fffff","emd_code":"2720054000","emd_name":"봉덕2동","area_km2":0.5341,"edge":true,"slope_mean":21.74,"elev_mean":198.8,"flood_hist_n":0,"flood_depth_max_m":null,"flood_risk_100y":null,"semi_basement_r":null,"elderly_alone_r":0.1565,"bldg_age30_r":null,"shelter_min_walk":10,"pop":12852,"hh":5860,"elderly65_r":0.2707,"single_hh_r":0.35,"source_level":"emd","flood_years":[],"landslide_hist_n":0},"geometry":{"type":"Polygon","coordinates":[[[128.60112,35.82332],[128.60027,35.81951],[128.60447,35.81741],[128.60952,35.81912],[128.61036,35.82292],[128.60617,35.82503],[128.60112,35.82332]]]}},{"type":"Feature","properties":{"h3":"8830c191a9fffff","emd_code":"2720054000","emd_name":"봉덕2동","area_km2":0.534,"edge":true,"slope_mean":6.39,"elev_mean":74.8,"flood_hist_n":0,"flood_depth_max_m":null,"flood_risk_100y":null,"semi_basement_r":null,"elderly_alone_r":0.1565,"bldg_age30_r":null,"shelter_min_walk":4,"pop":12852,"hh":5860,"elderly65_r":0.2707,"single_hh_r":0.35,"source_level":"emd","flood_years":[],"landslide_hist_n":0},"geometry":{"type":"Polygon","coordinates":[[[128.60367,35.83474],[128.60282,35.83093],[128.60702,35.82883],[128.61206,35.83054],[128.61291,35.83435],[128.60872,35.83645],[128.60367,35.83474]]]}},{"type":"Feature","properties":{"h3":"8830c191adfffff","emd_code":"2720054000","emd_name":"봉덕2동","area_km2":0.534,"edge":false,"slope_mean":21.92,"elev_mean":164.1,"flood_hist_n":0,"flood_depth_max_m":null,"flood_risk_100y":null,"semi_basement_r":null,"elderly_alone_r":0.1565,"bldg_age30_r":null,"shelter_min_walk":13,"pop":12852,"hh":5860,"elderly65_r":0.2707,"single_hh_r":0.35,"source_level":"emd","flood_years":[],"landslide_hist_n":0},"geometry":{"type":"Polygon","coordinates":[[[128.59777,35.82923],[128.59693,35.82542],[128.60112,35.82332],[128.60617,35.82503],[128.60702,35.82883],[128.60282,35.83093],[128.59777,35.82923]]]}},{"type":"Feature","properties":{"h3":"8830c191c1fffff","emd_code":"2720051500","emd_name":"이천동","area_km2":0.5336,"edge":true,"slope_mean":3.64,"elev_mean":52.9,"flood_hist_n":0,"flood_depth_max_m":null,"flood_risk_100y":null,"semi_basement_r":null,"elderly_alone_r":0.1793,"bldg_age30_r":null,"shelter_min_walk":4,"pop":14245,"hh":6871,"elderly65_r":0.2565,"single_hh_r":0.4081,"source_level":"emd","flood_years":[],"landslide_hist_n":0},"geometry":{"type":"Polygon","coordinates":[[[128.59952,35.85797],[128.59867,35.85417],[128.60287,35.85207],[128.60792,35.85378],[128.60877,35.85758],[128.60457,35.85968],[128.59952,35.85797]]]}},{"type":"Feature","properties":{"h3":"8830c191c3fffff","emd_code":"2720051500","emd_name":"이천동","area_km2":0.5336,"edge":true,"slope_mean":3.62,"elev_mean":53.6,"flood_hist_n":0,"flood_depth_max_m":null,"flood_risk_100y":null,"semi_basement_r":null,"elderly_alone_r":0.1793,"bldg_age30_r":null,"shelter_min_walk":4,"pop":14245,"hh":6871,"elderly65_r":0.2565,"single_hh_r":0.4081,"source_level":"emd","flood_years":[],"landslide_hist_n":0},"geometry":{"type":"Polygon","coordinates":[[[128.60877,35.85758],[128.60792,35.85378],[128.61211,35.85168],[128.61716,35.85338],[128.61801,35.85719],[128.61381,35.85929],[128.60877,35.85758]]]}},{"type":"Feature","properties":{"h3":"8830c191c5fffff","emd_code":"2720051500","emd_name":"이천동","area_km2":0.5336,"edge":false,"slope_mean":3.2,"elev_mean":58.9,"flood_hist_n":0,"flood_depth_max_m":null,"flood_risk_100y":null,"semi_basement_r":null,"elderly_alone_r":0.1793,"bldg_age30_r":null,"shelter_min_walk":1,"pop":14245,"hh":6871,"elderly65_r":0.2565,"single_hh_r":0.4081,"source_level":"emd","flood_years":[],"landslide_hist_n":0},"geometry":{"type":"Polygon","coordinates":[[[128.59363,35.85246],[128.59278,35.84866],[128.59698,35.84656],[128.60202,35.84826],[128.60287,35.85207],[128.59867,35.85417],[128.59363,35.85246]]]}},{"type":"Feature","properties":{"h3":"8830c191c7fffff","emd_code":"2720051500","emd_name":"이천동","area_km2":0.5337,"edge":false,"slope_mean":3.31,"elev_mean":57.1,"flood_hist_n":0,"flood_depth_max_m":null,"flood_risk_100y":null,"semi_basement_r":null,"elderly_alone_r":0.1793,"bldg_age30_r":null,"shelter_min_walk":2,"pop":14245,"hh":6871,"elderly65_r":0.2565,"single_hh_r":0.4081,"source_level":"emd","flood_years":[],"landslide_hist_n":0},"geometry":{"type":"Polygon","coordinates":[[[128.60287,35.85207],[128.60202,35.84826],[128.60622,35.84616],[128.61126,35.84787],[128.61211,35.85168],[128.60792,35.85378],[128.60287,35.85207]]]}},{"type":"Feature","properties":{"h3":"8830c191cdfffff","emd_code":"2720057100","emd_name":"대명2동","area_km2":0.5335,"edge":false,"slope_mean":4.14,"elev_mean":56.3,"flood_hist_n":0,"flood_depth_max_m":null,"flood_risk_100y":null,"semi_basement_r":null,"elderly_alone_r":0.1353,"bldg_age30_r":null,"shelter_min_walk":6,"pop":15229,"hh":8787,"elderly65_r":0.2003,"single_hh_r":0.5759,"source_level":"emd","flood_years":[],"landslide_hist_n":0},"geometry":{"type":"Polygon","coordinates":[[[128.59028,35.85837],[128.58943,35.85456],[128.59363,35.85246],[128.59867,35.85417],[128.59952,35.85797],[128.59533,35.86007],[128.59028,35.85837]]]}},{"type":"Feature","properties":{"h3":"8830c191e1fffff","emd_code":"2720055000","emd_name":"봉덕3동","area_km2":0.5338,"edge":false,"slope_mean":3.96,"elev_mean":81.4,"flood_hist_n":0,"flood_depth_max_m":null,"flood_risk_100y":null,"semi_basement_r":null,"elderly_alone_r":0.2066,"bldg_age30_r":null,"shelter_min_walk":1,"pop":14003,"hh":7564,"elderly65_r":0.3211,"single_hh_r":0.5009,"source_level":"emd","flood_years":[],"landslide_hist_n":0},"geometry":{"type":"Polygon","coordinates":[[[128.59108,35.84104],[128.59023,35.83724],[128.59443,35.83514],[128.59947,35.83684],[128.60032,35.84065],[128.59613,35.84275],[128.59108,35.84104]]]}},{"type":"Feature","properties":{"h3":"8830c191e3fffff","emd_code":"2720054000","emd_name":"봉덕2동","area_km2":0.5339,"edge":false,"slope_mean":4.1,"elev_mean":69.4,"flood_hist_n":0,"flood_depth_max_m":null,"flood_risk_100y":null,"semi_basement_r":null,"elderly_alone_r":0.1565,"bldg_age30_r":null,"shelter_min_walk":5,"pop":12852,"hh":5860,"elderly65_r":0.2707,"single_hh_r":0.35,"source_level":"emd","flood_years":[],"landslide_hist_n":0},"geometry":{"type":"Polygon","coordinates":[[[128.60032,35.84065],[128.59947,35.83684],[128.60367,35.83474],[128.60872,35.83645],[128.60957,35.84026],[128.60537,35.84236],[128.60032,35.84065]]]}},{"type":"Feature","properties":{"h3":"8830c191e5fffff","emd_code":"2720055000","emd_name":"봉덕3동","area_km2":0.5339,"edge":false,"slope_mean":11.45,"elev_mean":125.2,"flood_hist_n":0,"flood_depth_max_m":null,"flood_risk_100y":null,"semi_basement_r":null,"elderly_alone_r":0.2066,"bldg_age30_r":null,"shelter_min_walk":5,"pop":14003,"hh":7564,"elderly65_r":0.3211,"single_hh_r":0.5009,"source_level":"emd","flood_years":[],"landslide_hist_n":0},"geometry":{"type":"Polygon","coordinates":[[[128.58519,35.83553],[128.58434,35.83172],[128.58853,35.82962],[128.59358,35.83133],[128.59443,35.83514],[128.59023,35.83724],[128.58519,35.83553]]]}},{"type":"Feature","properties":{"h3":"8830c191e7fffff","emd_code":"2720055000","emd_name":"봉덕3동","area_km2":0.5339,"edge":false,"slope_mean":11.52,"elev_mean":120.8,"flood_hist_n":0,"flood_depth_max_m":null,"flood_risk_100y":null,"semi_basement_r":null,"elderly_alone_r":0.2066,"bldg_age30_r":null,"shelter_min_walk":3,"pop":14003,"hh":7564,"elderly65_r":0.3211,"single_hh_r":0.5009,"source_level":"emd","flood_years":[],"landslide_hist_n":0},"geometry":{"type":"Polygon","coordinates":[[[128.59443,35.83514],[128.59358,35.83133],[128.59777,35.82923],[128.60282,35.83093],[128.60367,35.83474],[128.59947,35.83684],[128.59443,35.83514]]]}},{"type":"Feature","properties":{"h3":"8830c191e9fffff","emd_code":"2720055000","emd_name":"봉덕3동","area_km2":0.5337,"edge":false,"slope_mean":2.87,"elev_mean":70.1,"flood_hist_n":0,"flood_depth_max_m":null,"flood_risk_100y":null,"semi_basement_r":null,"elderly_alone_r":0.2066,"bldg_age30_r":null,"shelter_min_walk":6,"pop":14003,"hh":7564,"elderly65_r":0.3211,"single_hh_r":0.5009,"source_level":"emd","flood_years":[],"landslide_hist_n":0},"geometry":{"type":"Polygon","coordinates":[[[128.58773,35.84695],[128.58688,35.84314],[128.59108,35.84104],[128.59613,35.84275],[128.59698,35.84656],[128.59278,35.84866],[128.58773,35.84695]]]}},{"type":"Feature","properties":{"h3":"8830c191ebfffff","emd_code":"2720054000","emd_name":"봉덕2동","area_km2":0.5337,"edge":false,"slope_mean":2.55,"elev_mean":63.4,"flood_hist_n":0,"flood_depth_max_m":null,"flood_risk_100y":null,"semi_basement_r":null,"elderly_alone_r":0.1565,"bldg_age30_r":null,"shelter_min_walk":5,"pop":12852,"hh":5860,"elderly65_r":0.2707,"single_hh_r":0.35,"source_level":"emd","flood_years":[],"landslide_hist_n":0},"geometry":{"type":"Polygon","coordinates":[[[128.59698,35.84656],[128.59613,35.84275],[128.60032,35.84065],[128.60537,35.84236],[128.60622,35.84616],[128.60202,35.84826],[128.59698,35.84656]]]}},{"type":"Feature","properties":{"h3":"8830c191edfffff","emd_code":"2720055000","emd_name":"봉덕3동","area_km2":0.5338,"edge":false,"slope_mean":2.7,"elev_mean":79.9,"flood_hist_n":0,"flood_depth_max_m":null,"flood_risk_100y":null,"semi_basement_r":null,"elderly_alone_r":0.2066,"bldg_age30_r":null,"shelter_min_walk":6,"pop":14003,"hh":7564,"elderly65_r":0.3211,"single_hh_r":0.5009,"source_level":"emd","flood_years":[],"landslide_hist_n":0},"geometry":{"type":"Polygon","coordinates":[[[128.58184,35.84144],[128.58099,35.83763],[128.58519,35.83553],[128.59023,35.83724],[128.59108,35.84104],[128.58688,35.84314],[128.58184,35.84144]]]}},{"type":"Feature","properties":{"h3":"8830c19a83fffff","emd_code":"2720054000","emd_name":"봉덕2동","area_km2":0.5343,"edge":true,"slope_mean":21.02,"elev_mean":513.4,"flood_hist_n":0,"flood_depth_max_m":null,"flood_risk_100y":null,"semi_basement_r":null,"elderly_alone_r":0.1565,"bldg_age30_r":null,"shelter_min_walk":43,"pop":12852,"hh":5860,"elderly65_r":0.2707,"single_hh_r":0.35,"source_level":"emd","flood_years":[],"landslide_hist_n":0},"geometry":{"type":"Polygon","coordinates":[[[128.58344,35.80677],[128.58259,35.80296],[128.58678,35.80086],[128.59183,35.80257],[128.59268,35.80638],[128.58848,35.80848],[128.58344,35.80677]]]}},{"type":"Feature","properties":{"h3":"8830c19a89fffff","emd_code":"2720064000","emd_name":"대명9동","area_km2":0.5342,"edge":true,"slope_mean":28.34,"elev_mean":401.7,"flood_hist_n":0,"flood_depth_max_m":null,"flood_risk_100y":null,"semi_basement_r":null,"elderly_alone_r":0.1859,"bldg_age30_r":null,"shelter_min_walk":28,"pop":13110,"hh":7800,"elderly65_r":0.2937,"single_hh_r":0.6005,"source_level":"emd","flood_years":[],"landslide_hist_n":0},"geometry":{"type":"Polygon","coordinates":[[[128.57085,35.81307],[128.57,35.80926],[128.5742,35.80716],[128.57924,35.80887],[128.58009,35.81268],[128.57589,35.81478],[128.57085,35.81307]]]}},{"type":"Feature","properties":{"h3":"8830c19a8bfffff","emd_code":"2720054000","emd_name":"봉덕2동","area_km2":0.5342,"edge":false,"slope_mean":23.26,"elev_mean":534.0,"flood_hist_n":0,"flood_depth_max_m":null,"flood_risk_100y":null,"semi_basement_r":null,"elderly_alone_r":0.1565,"bldg_age30_r":null,"shelter_min_walk":36,"pop":12852,"hh":5860,"elderly65_r":0.2707,"single_hh_r":0.35,"source_level":"emd","flood_years":[],"landslide_hist_n":0},"geometry":{"type":"Polygon","coordinates":[[[128.58009,35.81268],[128.57924,35.80887],[128.58344,35.80677],[128.58848,35.80848],[128.58933,35.81229],[128.58514,35.81439],[128.58009,35.81268]]]}},{"type":"Feature","properties":{"h3":"8830c19a99fffff","emd_code":"2720054000","emd_name":"봉덕2동","area_km2":0.5342,"edge":false,"slope_mean":27.37,"elev_mean":396.7,"flood_hist_n":0,"flood_depth_max_m":null,"flood_risk_100y":null,"semi_basement_r":null,"elderly_alone_r":0.1565,"bldg_age30_r":null,"shelter_min_walk":21,"pop":12852,"hh":5860,"elderly65_r":0.2707,"single_hh_r":0.35,"source_level":"emd","flood_years":[],"landslide_hist_n":0},"geometry":{"type":"Polygon","coordinates":[[[128.59523,35.8178],[128.59438,35.81399],[128.59857,35.81189],[128.60362,35.8136],[128.60447,35.81741],[128.60027,35.81951],[128.59523,35.8178]]]}},{"type":"Feature","properties":{"h3":"8830c19a9dfffff","emd_code":"2720054000","emd_name":"봉덕2동","area_km2":0.5343,"edge":true,"slope_mean":25.74,"elev_mean":533.1,"flood_hist_n":0,"flood_depth_max_m":null,"flood_risk_100y":null,"semi_basement_r":null,"elderly_alone_r":0.1565,"bldg_age30_r":null,"shelter_min_walk":33,"pop":12852,"hh":5860,"elderly65_r":0.2707,"single_hh_r":0.35,"source_level":"emd","flood_years":[],"landslide_hist_n":0},"geometry":{"type":"Polygon","coordinates":[[[128.58933,35.81229],[128.58848,35.80848],[128.59268,35.80638],[128.59772,35.80808],[128.59857,35.81189],[128.59438,35.81399],[128.58933,35.81229]]]}},{"type":"Feature","properties":{"h3":"8830c19ac3fffff","emd_code":"2720061000","emd_name":"대명6동","area_km2":0.5341,"edge":true,"slope_mean":30.86,"elev_mean":493.5,"flood_hist_n":0,"flood_depth_max_m":null,"flood_risk_100y":null,"semi_basement_r":null,"elderly_alone_r":0.1797,"bldg_age30_r":null,"shelter_min_walk":24,"pop":10276,"hh":5705,"elderly65_r":0.2663,"single_hh_r":0.5311,"source_level":"emd","flood_years":[],"landslide_hist_n":0},"geometry":{"type":"Polygon","coordinates":[[[128.5675,35.81898],[128.56665,35.81517],[128.57085,35.81307],[128.57589,35.81478],[128.57674,35.81859],[128.57255,35.82069],[128.5675,35.81898]]]}},{"type":"Feature","properties":{"h3":"8830c19acbfffff","emd_code":"2720061000","emd_name":"대명6동","area_km2":0.5339,"edge":true,"slope_mean":29.63,"elev_mean":377.6,"flood_hist_n":0,"flood_depth_max_m":null,"flood_risk_100y":null,"semi_basement_r":null,"elderly_alone_r":0.1797,"bldg_age30_r":null,"shelter_min_walk":13,"pop":10276,"hh":5705,"elderly65_r":0.2663,"single_hh_r":0.5311,"source_level":"emd","flood_years":[],"landslide_hist_n":0},"geometry":{"type":"Polygon","coordinates":[[[128.56416,35.82489],[128.56331,35.82108],[128.5675,35.81898],[128.57255,35.82069],[128.5734,35.8245],[128.5692,35.8266],[128.56416,35.82489]]]}},{"type":"Feature","properties":{"h3":"8830c19ad1fffff","emd_code":"2720055000","emd_name":"봉덕3동","area_km2":0.534,"edge":false,"slope_mean":25.85,"elev_mean":323.6,"flood_hist_n":0,"flood_depth_max_m":null,"flood_risk_100y":null,"semi_basement_r":null,"elderly_alone_r":0.2066,"bldg_age30_r":null,"shelter_min_walk":20,"pop":14003,"hh":7564,"elderly65_r":0.3211,"single_hh_r":0.5009,"source_level":"emd","flood_years":[],"landslide_hist_n":0},"geometry":{"type":"Polygon","coordinates":[[[128.58264,35.82411],[128.58179,35.8203],[128.58598,35.8182],[128.59103,35.8199],[128.59188,35.82371],[128.58768,35.82581],[128.58264,35.82411]]]}},{"type":"Feature","properties":{"h3":"8830c19ad3fffff","emd_code":"2720054000","emd_name":"봉덕2동","area_km2":0.5341,"edge":false,"slope_mean":26.18,"elev_mean":298.2,"flood_hist_n":0,"flood_depth_max_m":null,"flood_risk_100y":null,"semi_basement_r":null,"elderly_alone_r":0.1565,"bldg_age30_r":null,"shelter_min_walk":20,"pop":12852,"hh":5860,"elderly65_r":0.2707,"single_hh_r":0.35,"source_level":"emd","flood_years":[],"landslide_hist_n":0},"geometry":{"type":"Polygon","coordinates":[[[128.59188,35.82371],[128.59103,35.8199],[128.59523,35.8178],[128.60027,35.81951],[128.60112,35.82332],[128.59693,35.82542],[128.59188,35.82371]]]}},{"type":"Feature","properties":{"h3":"8830c19ad5fffff","emd_code":"2720064000","emd_name":"대명9동","area_km2":0.5341,"edge":false,"slope_mean":27.16,"elev_mean":490.3,"flood_hist_n":0,"flood_depth_max_m":null,"flood_risk_100y":null,"semi_basement_r":null,"elderly_alone_r":0.1859,"bldg_age30_r":null,"shelter_min_walk":25,"pop":13110,"hh":7800,"elderly65_r":0.2937,"single_hh_r":0.6005,"source_level":"emd","flood_years":[],"landslide_hist_n":0},"geometry":{"type":"Polygon","coordinates":[[[128.57674,35.81859],[128.57589,35.81478],[128.58009,35.81268],[128.58514,35.81439],[128.58598,35.8182],[128.58179,35.8203],[128.57674,35.81859]]]}},{"type":"Feature","properties":{"h3":"8830c19ad7fffff","emd_code":"2720054000","emd_name":"봉덕2동","area_km2":0.5342,"edge":false,"slope_mean":26.35,"elev_mean":431.8,"flood_hist_n":0,"flood_depth_max_m":null,"flood_risk_100y":null,"semi_basement_r":null,"elderly_alone_r":0.1565,"bldg_age30_r":null,"shelter_min_walk":30,"pop":12852,"hh":5860,"elderly65_r":0.2707,"single_hh_r":0.35,"source_level":"emd","flood_years":[],"landslide_hist_n":0},"geometry":{"type":"Polygon","coordinates":[[[128.58598,35.8182],[128.58514,35.81439],[128.58933,35.81229],[128.59438,35.81399],[128.59523,35.8178],[128.59103,35.8199],[128.58598,35.8182]]]}},{"type":"Feature","properties":{"h3":"8830c19ad9fffff","emd_code":"2720064000","emd_name":"대명9동","area_km2":0.5339,"edge":false,"slope_mean":25.72,"elev_mean":259.8,"flood_hist_n":0,"flood_depth_max_m":null,"flood_risk_100y":null,"semi_basement_r":null,"elderly_alone_r":0.1859,"bldg_age30_r":null,"shelter_min_walk":10,"pop":13110,"hh":7800,"elderly65_r":0.2937,"single_hh_r":0.6005,"source_level":"emd","flood_years":[],"landslide_hist_n":0},"geometry":{"type":"Polygon","coordinates":[[[128.57929,35.83001],[128.57844,35.82621],[128.58264,35.82411],[128.58768,35.82581],[128.58853,35.82962],[128.58434,35.83172],[128.57929,35.83001]]]}},{"type":"Feature","properties":{"h3":"8830c19adbfffff","emd_code":"2720055000","emd_name":"봉덕3동","area_km2":0.534,"edge":false,"slope_mean":22.13,"elev_mean":217.8,"flood_hist_n":0,"flood_depth_max_m":null,"flood_risk_100y":null,"semi_basement_r":null,"elderly_alone_r":0.2066,"bldg_age30_r":null,"shelter_min_walk":11,"pop":14003,"hh":7564,"elderly65_r":0.3211,"single_hh_r":0.5009,"source_level":"emd","flood_years":[],"landslide_hist_n":0},"geometry":{"type":"Polygon","coordinates":[[[128.58853,35.82962],[128.58768,35.82581],[128.59188,35.82371],[128.59693,35.82542],[128.59777,35.82923],[128.59358,35.83133],[128.58853,35.82962]]]}},{"type":"Feature","properties":{"h3":"8830c19addfffff","emd_code":"2720064000","emd_name":"대명9동","area_km2":0.534,"edge":false,"slope_mean":29.74,"elev_mean":425.2,"flood_hist_n":0,"flood_depth_max_m":null,"flood_risk_100y":null,"semi_basement_r":null,"elderly_alone_r":0.1859,"bldg_age30_r":null,"shelter_min_walk":15,"pop":13110,"hh":7800,"elderly65_r":0.2937,"single_hh_r":0.6005,"source_level":"emd","flood_years":[],"landslide_hist_n":0},"geometry":{"type":"Polygon","coordinates":[[[128.5734,35.8245],[128.57255,35.82069],[128.57674,35.81859],[128.58179,35.8203],[128.58264,35.82411],[128.57844,35.82621],[128.5734,35.8245]]]}}]}