{"type":"FeatureCollection","name":"grid_27290_h3r8","meta":{"sgg_code":"27290","h3_res":8,"n_cells":154,"dem":"Copernicus GLO-30 (bbox-mean)","crs":"EPSG:4326","jumin_basis":"2026-07","flood_src":"행안부 침수흔적도(전국, 재난안전데이터공유플랫폼)","landslide_src":"행안부 산사태 발생이력"},"features":[{"type":"Feature","properties":{"h3":"8830c19101fffff","emd_code":"2729051500","emd_name":"성당동","area_km2":0.5335,"edge":false,"slope_mean":9.85,"elev_mean":63.7,"flood_hist_n":0,"flood_depth_max_m":null,"flood_risk_100y":null,"semi_basement_r":null,"elderly_alone_r":0.2002,"bldg_age30_r":null,"shelter_min_walk":5,"pop":19920,"hh":10060,"elderly65_r":0.2911,"single_hh_r":0.4502,"source_level":"emd","flood_years":[],"landslide_hist_n":0},"geometry":{"type":"Polygon","coordinates":[[[128.55077,35.84851],[128.54992,35.84471],[128.55411,35.84261],[128.55916,35.84432],[128.56001,35.84812],[128.55581,35.85022],[128.55077,35.84851]]]}},{"type":"Feature","properties":{"h3":"8830c19103fffff","emd_code":"2729051500","emd_name":"성당동","area_km2":0.5335,"edge":false,"slope_mean":8.56,"elev_mean":64.8,"flood_hist_n":0,"flood_depth_max_m":null,"flood_risk_100y":null,"semi_basement_r":null,"elderly_alone_r":0.2002,"bldg_age30_r":null,"shelter_min_walk":7,"pop":19920,"hh":10060,"elderly65_r":0.2911,"single_hh_r":0.4502,"source_level":"emd","flood_years":[],"landslide_hist_n":0},"geometry":{"type":"Polygon","coordinates":[[[128.56001,35.84812],[128.55916,35.84432],[128.56336,35.84222],[128.5684,35.84393],[128.56925,35.84773],[128.56505,35.84983],[128.56001,35.84812]]]}},{"type":"Feature","properties":{"h3":"8830c19105fffff","emd_code":"2729051500","emd_name":"성당동","area_km2":0.5336,"edge":false,"slope_mean":3.53,"elev_mean":38.8,"flood_hist_n":0,"flood_depth_max_m":null,"flood_risk_100y":null,"semi_basement_r":null,"elderly_alone_r":0.2002,"bldg_age30_r":null,"shelter_min_walk":4,"pop":19920,"hh":10060,"elderly65_r":0.2911,"single_hh_r":0.4502,"source_level":"emd","flood_years":[],"landslide_hist_n":0},"geometry":{"type":"Polygon","coordinates":[[[128.54487,35.843],[128.54403,35.83919],[128.54822,35.83709],[128.55327,35.8388],[128.55411,35.84261],[128.54992,35.84471],[128.54487,35.843]]]}},{"type":"Feature","properties":{"h3":"8830c19107fffff","emd_code":"2729051500","emd_name":"성당동","area_km2":0.5336,"edge":false,"slope_mean":6.2,"elev_mean":50.9,"flood_hist_n":0,"flood_depth_max_m":null,"flood_risk_100y":null,"semi_basement_r":null,"elderly_alone_r":0.2002,"bldg_age30_r":null,"shelter_min_walk":5,"pop":19920,"hh":10060,"elderly65_r":0.2911,"single_hh_r":0.4502,"source_level":"emd","flood_years":[],"landslide_hist_n":0},"geometry":{"type":"Polygon","coordinates":[[[128.55411,35.84261],[128.55327,35.8388],[128.55746,35.8367],[128.56251,35.83841],[128.56336,35.84222],[128.55916,35.84432],[128.55411,35.84261]]]}},{"type":"Feature","properties":{"h3":"8830c19109fffff","emd_code":"2729055000","emd_name":"두류3동","area_km2":0.5334,"edge":false,"slope_mean":4.5,"elev_mean":40.2,"flood_hist_n":0,"flood_depth_max_m":null,"flood_risk_100y":null,"semi_basement_r":null,"elderly_alone_r":0.1656,"bldg_age30_r":null,"shelter_min_walk":5,"pop":8931,"hh":4656,"elderly65_r":0.2782,"single_hh_r":0.4706,"source_level":"emd","flood_years":[],"landslide_hist_n":0},"geometry":{"type":"Polygon","coordinates":[[[128.54742,35.85442],[128.54657,35.85061],[128.55077,35.84851],[128.55581,35.85022],[128.55666,35.85403],[128.55246,35.85612],[128.54742,35.85442]]]}},{"type":"Feature","properties":{"h3":"8830c1910bfffff","emd_code":"2729055000","emd_name":"두류3동","area_km2":0.5334,"edge":false,"slope_mean":9.15,"elev_mean":63.6,"flood_hist_n":0,"flood_depth_max_m":null,"flood_risk_100y":null,"semi_basement_r":null,"elderly_alone_r":0.1656,"bldg_age30_r":null,"shelter_min_walk":1,"pop":8931,"hh":4656,"elderly65_r":0.2782,"single_hh_r":0.4706,"source_level":"emd","flood_years":[],"landslide_hist_n":0},"geometry":{"type":"Polygon","coordinates":[[[128.55666,35.85403],[128.55581,35.85022],[128.56001,35.84812],[128.56505,35.84983],[128.5659,35.85364],[128.56171,35.85573],[128.55666,35.85403]]]}},{"type":"Feature","properties":{"h3":"8830c1910dfffff","emd_code":"2729051500","emd_name":"성당동","area_km2":0.5334,"edge":false,"slope_mean":3.83,"elev_mean":37.8,"flood_hist_n":0,"flood_depth_max_m":null,"flood_risk_100y":null,"semi_basement_r":null,"elderly_alone_r":0.2002,"bldg_age30_r":null,"shelter_min_walk":4,"pop":19920,"hh":10060,"elderly65_r":0.2911,"single_hh_r":0.4502,"source_level":"emd","flood_years":[],"landslide_hist_n":0},"geometry":{"type":"Polygon","coordinates":[[[128.54153,35.8489],[128.54068,35.84509],[128.54487,35.843],[128.54992,35.84471],[128.55077,35.84851],[128.54657,35.85061],[128.54153,35.8489]]]}},{"type":"Feature","properties":{"h3":"8830c19119fffff","emd_code":"2729053500","emd_name":"두류1,2동","area_km2":0.5334,"edge":true,"slope_mean":4.76,"elev_mean":60.5,"flood_hist_n":0,"flood_depth_max_m":null,"flood_risk_100y":null,"semi_basement_r":null,"elderly_alone_r":0.1639,"bldg_age30_r":null,"shelter_min_walk":2,"pop":15672,"hh":9115,"elderly65_r":0.2612,"single_hh_r":0.5663,"source_level":"emd","flood_years":[],"landslide_hist_n":0},"geometry":{"type":"Polygon","coordinates":[[[128.5718,35.85915],[128.57095,35.85534],[128.57514,35.85325],[128.58019,35.85495],[128.58104,35.85876],[128.57684,35.86086],[128.5718,35.85915]]]}},{"type":"Feature","properties":{"h3":"8830c1911dfffff","emd_code":"2729051500","emd_name":"성당동","area_km2":0.5335,"edge":false,"slope_mean":7.37,"elev_mean":70.9,"flood_hist_n":0,"flood_depth_max_m":null,"flood_risk_100y":null,"semi_basement_r":null,"elderly_alone_r":0.2002,"bldg_age30_r":null,"shelter_min_walk":3,"pop":19920,"hh":10060,"elderly65_r":0.2911,"single_hh_r":0.4502,"source_level":"emd","flood_years":[],"landslide_hist_n":0},"geometry":{"type":"Polygon","coordinates":[[[128.5659,35.85364],[128.56505,35.84983],[128.56925,35.84773],[128.57429,35.84944],[128.57514,35.85325],[128.57095,35.85534],[128.5659,35.85364]]]}},{"type":"Feature","properties":{"h3":"8830c19121fffff","emd_code":"2729064000","emd_name":"송현2동","area_km2":0.5337,"edge":false,"slope_mean":5.26,"elev_mean":56.5,"flood_hist_n":0,"flood_depth_max_m":null,"flood_risk_100y":null,"semi_basement_r":null,"elderly_alone_r":0.2232,"bldg_age30_r":null,"shelter_min_walk":4,"pop":17618,"hh":9607,"elderly65_r":0.3198,"single_hh_r":0.5003,"source_level":"emd","flood_years":[],"landslide_hist_n":0},"geometry":{"type":"Polygon","coordinates":[[[128.54233,35.83158],[128.54148,35.82777],[128.54568,35.82567],[128.55072,35.82738],[128.55157,35.83119],[128.54737,35.83329],[128.54233,35.83158]]]}},{"type":"Feature","properties":{"h3":"8830c19123fffff","emd_code":"2729063000","emd_name":"송현1동","area_km2":0.5338,"edge":false,"slope_mean":6.31,"elev_mean":85.6,"flood_hist_n":0,"flood_depth_max_m":null,"flood_risk_100y":null,"semi_basement_r":null,"elderly_alone_r":0.2115,"bldg_age30_r":null,"shelter_min_walk":4,"pop":15927,"hh":9330,"elderly65_r":0.3116,"single_hh_r":0.5665,"source_level":"emd","flood_years":[],"landslide_hist_n":0},"geometry":{"type":"Polygon","coordinates":[[[128.55157,35.83119],[128.55072,35.82738],[128.55492,35.82528],[128.55996,35.82699],[128.56081,35.8308],[128.55661,35.8329],[128.55157,35.83119]]]}},{"type":"Feature","properties":{"h3":"8830c19125fffff","emd_code":"2729062400","emd_name":"상인1동","area_km2":0.5338,"edge":false,"slope_mean":7.27,"elev_mean":65.9,"flood_hist_n":0,"flood_depth_max_m":null,"flood_risk_100y":null,"semi_basement_r":null,"elderly_alone_r":0.1078,"bldg_age30_r":null,"shelter_min_walk":3,"pop":31919,"hh":12803,"elderly65_r":0.2229,"single_hh_r":0.231,"source_level":"emd","flood_years":[],"landslide_hist_n":0},"geometry":{"type":"Polygon","coordinates":[[[128.53644,35.82606],[128.53559,35.82225],[128.53978,35.82015],[128.54483,35.82186],[128.54568,35.82567],[128.54148,35.82777],[128.53644,35.82606]]]}},{"type":"Feature","properties":{"h3":"8830c19127fffff","emd_code":"2729063000","emd_name":"송현1동","area_km2":0.5339,"edge":false,"slope_mean":5.63,"elev_mean":82.0,"flood_hist_n":0,"flood_depth_max_m":null,"flood_risk_100y":null,"semi_basement_r":null,"elderly_alone_r":0.2115,"bldg_age30_r":null,"shelter_min_walk":4,"pop":15927,"hh":9330,"elderly65_r":0.3116,"single_hh_r":0.5665,"source_level":"emd","flood_years":[],"landslide_hist_n":0},"geometry":{"type":"Polygon","coordinates":[[[128.54568,35.82567],[128.54483,35.82186],[128.54902,35.81976],[128.55407,35.82147],[128.55492,35.82528],[128.55072,35.82738],[128.54568,35.82567]]]}},{"type":"Feature","properties":{"h3":"8830c19129fffff","emd_code":"2729065000","emd_name":"본동","area_km2":0.5336,"edge":false,"slope_mean":5.98,"elev_mean":46.3,"flood_hist_n":0,"flood_depth_max_m":null,"flood_risk_100y":null,"semi_basement_r":null,"elderly_alone_r":0.1766,"bldg_age30_r":null,"shelter_min_walk":2,"pop":13148,"hh":6932,"elderly65_r":0.2527,"single_hh_r":0.4812,"source_level":"emd","flood_years":[],"landslide_hist_n":0},"geometry":{"type":"Polygon","coordinates":[[[128.53898,35.83748],[128.53813,35.83367],[128.54233,35.83158],[128.54737,35.83329],[128.54822,35.83709],[128.54403,35.83919],[128.53898,35.83748]]]}},{"type":"Feature","properties":{"h3":"8830c1912bfffff","emd_code":"2729064000","emd_name":"송현2동","area_km2":0.5337,"edge":false,"slope_mean":4.33,"elev_mean":51.6,"flood_hist_n":0,"flood_depth_max_m":null,"flood_risk_100y":null,"semi_basement_r":null,"elderly_alone_r":0.2232,"bldg_age30_r":null,"shelter_min_walk":2,"pop":17618,"hh":9607,"elderly65_r":0.3198,"single_hh_r":0.5003,"source_level":"emd","flood_years":[],"landslide_hist_n":0},"geometry":{"type":"Polygon","coordinates":[[[128.54822,35.83709],[128.54737,35.83329],[128.55157,35.83119],[128.55661,35.8329],[128.55746,35.8367],[128.55327,35.8388],[128.54822,35.83709]]]}},{"type":"Feature","properties":{"h3":"8830c1912dfffff","emd_code":"2729060100","emd_name":"월성1동","area_km2":0.5337,"edge":false,"slope_mean":11.0,"elev_mean":71.6,"flood_hist_n":0,"flood_depth_max_m":null,"flood_risk_100y":null,"semi_basement_r":null,"elderly_alone_r":0.0512,"bldg_age30_r":null,"shelter_min_walk":4,"pop":39423,"hh":13352,"elderly65_r":0.0984,"single_hh_r":0.1305,"source_level":"emd","flood_years":[],"landslide_hist_n":0},"geometry":{"type":"Polygon","coordinates":[[[128.53309,35.83197],[128.53224,35.82816],[128.53644,35.82606],[128.54148,35.82777],[128.54233,35.83158],[128.53813,35.83367],[128.53309,35.83197]]]}},{"type":"Feature","properties":{"h3":"8830c19135fffff","emd_code":"2729063000","emd_name":"송현1동","area_km2":0.5338,"edge":true,"slope_mean":16.07,"elev_mean":161.5,"flood_hist_n":0,"flood_depth_max_m":null,"flood_risk_100y":null,"semi_basement_r":null,"elderly_alone_r":0.2115,"bldg_age30_r":null,"shelter_min_walk":3,"pop":15927,"hh":9330,"elderly65_r":0.3116,"single_hh_r":0.5665,"source_level":"emd","flood_years":[],"landslide_hist_n":0},"geometry":{"type":"Polygon","coordinates":[[[128.56081,35.8308],[128.55996,35.82699],[128.56416,35.82489],[128.5692,35.8266],[128.57005,35.83041],[128.56585,35.8325],[128.56081,35.8308]]]}},{"type":"Feature","properties":{"h3":"8830c1913dfffff","emd_code":"2729063000","emd_name":"송현1동","area_km2":0.5337,"edge":true,"slope_mean":4.91,"elev_mean":69.1,"flood_hist_n":0,"flood_depth_max_m":null,"flood_risk_100y":null,"semi_basement_r":null,"elderly_alone_r":0.2115,"bldg_age30_r":null,"shelter_min_walk":5,"pop":15927,"hh":9330,"elderly65_r":0.3116,"single_hh_r":0.5665,"source_level":"emd","flood_years":[],"landslide_hist_n":0},"geometry":{"type":"Polygon","coordinates":[[[128.55746,35.8367],[128.55661,35.8329],[128.56081,35.8308],[128.56585,35.8325],[128.5667,35.83631],[128.56251,35.83841],[128.55746,35.8367]]]}},{"type":"Feature","properties":{"h3":"8830c19141fffff","emd_code":"2729056300","emd_name":"죽전동","area_km2":0.5332,"edge":false,"slope_mean":3.62,"elev_mean":43.9,"flood_hist_n":0,"flood_depth_max_m":null,"flood_risk_100y":null,"semi_basement_r":null,"elderly_alone_r":0.1274,"bldg_age30_r":null,"shelter_min_walk":4,"pop":14344,"hh":7706,"elderly65_r":0.2269,"single_hh_r":0.497,"source_level":"emd","flood_years":[],"landslide_hist_n":0},"geometry":{"type":"Polygon","coordinates":[[[128.53483,35.86071],[128.53398,35.8569],[128.53818,35.8548],[128.54322,35.85651],[128.54407,35.86032],[128.53988,35.86241],[128.53483,35.86071]]]}},{"type":"Feature","properties":{"h3":"8830c19143fffff","emd_code":"2729056300","emd_name":"죽전동","area_km2":0.5333,"edge":true,"slope_mean":3.72,"elev_mean":40.3,"flood_hist_n":0,"flood_depth_max_m":null,"flood_risk_100y":null,"semi_basement_r":null,"elderly_alone_r":0.1274,"bldg_age30_r":null,"shelter_min_walk":5,"pop":14344,"hh":7706,"elderly65_r":0.2269,"single_hh_r":0.497,"source_level":"emd","flood_years":[],"landslide_hist_n":0},"geometry":{"type":"Polygon","coordinates":[[[128.54407,35.86032],[128.54322,35.85651],[128.54742,35.85442],[128.55246,35.85612],[128.55331,35.85993],[128.54912,35.86203],[128.54407,35.86032]]]}},{"type":"Feature","properties":{"h3":"8830c19145fffff","emd_code":"2729057100","emd_name":"용산1동","area_km2":0.5333,"edge":false,"slope_mean":3.78,"elev_mean":34.9,"flood_hist_n":0,"flood_depth_max_m":null,"flood_risk_100y":null,"semi_basement_r":null,"elderly_alone_r":0.0975,"bldg_age30_r":null,"shelter_min_walk":3,"pop":27808,"hh":12544,"elderly65_r":0.1916,"single_hh_r":0.3487,"source_level":"emd","flood_years":[],"landslide_hist_n":0},"geometry":{"type":"Polygon","coordinates":[[[128.52894,35.85519],[128.52809,35.85139],[128.53229,35.84929],[128.53733,35.851],[128.53818,35.8548],[128.53398,35.8569],[128.52894,35.85519]]]}},{"type":"Feature","properties":{"h3":"8830c19147fffff","emd_code":"2729056300","emd_name":"죽전동","area_km2":0.5333,"edge":false,"slope_mean":3.51,"elev_mean":38.6,"flood_hist_n":0,"flood_depth_max_m":null,"flood_risk_100y":null,"semi_basement_r":null,"elderly_alone_r":0.1274,"bldg_age30_r":null,"shelter_min_walk":4,"pop":14344,"hh":7706,"elderly65_r":0.2269,"single_hh_r":0.497,"source_level":"emd","flood_years":[],"landslide_hist_n":0},"geometry":{"type":"Polygon","coordinates":[[[128.53818,35.8548],[128.53733,35.851],[128.54153,35.8489],[128.54657,35.85061],[128.54742,35.85442],[128.54322,35.85651],[128.53818,35.8548]]]}},{"type":"Feature","properties":{"h3":"8830c19149fffff","emd_code":"2729057100","emd_name":"용산1동","area_km2":0.5331,"edge":true,"slope_mean":4.25,"elev_mean":57.1,"flood_hist_n":0,"flood_depth_max_m":null,"flood_risk_100y":null,"semi_basement_r":null,"elderly_alone_r":0.0975,"bldg_age30_r":null,"shelter_min_walk":7,"pop":27808,"hh":12544,"elderly65_r":0.1916,"single_hh_r":0.3487,"source_level":"emd","flood_years":[],"landslide_hist_n":0},"geometry":{"type":"Polygon","coordinates":[[[128.53149,35.86661],[128.53064,35.8628],[128.53483,35.86071],[128.53988,35.86241],[128.54073,35.86622],[128.53653,35.86832],[128.53149,35.86661]]]}},{"type":"Feature","properties":{"h3":"8830c1914dfffff","emd_code":"2729057100","emd_name":"용산1동","area_km2":0.5332,"edge":false,"slope_mean":4.7,"elev_mean":52.5,"flood_hist_n":0,"flood_depth_max_m":null,"flood_risk_100y":null,"semi_basement_r":null,"elderly_alone_r":0.0975,"bldg_age30_r":null,"shelter_min_walk":2,"pop":27808,"hh":12544,"elderly65_r":0.1916,"single_hh_r":0.3487,"source_level":"emd","flood_years":[],"landslide_hist_n":0},"geometry":{"type":"Polygon","coordinates":[[[128.52559,35.86109],[128.52474,35.85729],[128.52894,35.85519],[128.53398,35.8569],[128.53483,35.86071],[128.53064,35.8628],[128.52559,35.86109]]]}},{"type":"Feature","properties":{"h3":"8830c19153fffff","emd_code":"2729053500","emd_name":"두류1,2동","area_km2":0.5333,"edge":true,"slope_mean":4.12,"elev_mean":52.0,"flood_hist_n":0,"flood_depth_max_m":null,"flood_risk_100y":null,"semi_basement_r":null,"elderly_alone_r":0.1639,"bldg_age30_r":null,"shelter_min_walk":2,"pop":15672,"hh":9115,"elderly65_r":0.2612,"single_hh_r":0.5663,"source_level":"emd","flood_years":[],"landslide_hist_n":0},"geometry":{"type":"Polygon","coordinates":[[[128.56845,35.86505],[128.5676,35.86125],[128.5718,35.85915],[128.57684,35.86086],[128.57769,35.86466],[128.57349,35.86676],[128.56845,35.86505]]]}},{"type":"Feature","properties":{"h3":"8830c19155fffff","emd_code":"2729055000","emd_name":"두류3동","area_km2":0.5333,"edge":false,"slope_mean":4.47,"elev_mean":42.4,"flood_hist_n":0,"flood_depth_max_m":null,"flood_risk_100y":null,"semi_basement_r":null,"elderly_alone_r":0.1656,"bldg_age30_r":null,"shelter_min_walk":1,"pop":8931,"hh":4656,"elderly65_r":0.2782,"single_hh_r":0.4706,"source_level":"emd","flood_years":[],"landslide_hist_n":0},"geometry":{"type":"Polygon","coordinates":[[[128.55331,35.85993],[128.55246,35.85612],[128.55666,35.85403],[128.56171,35.85573],[128.56255,35.85954],[128.55836,35.86164],[128.55331,35.85993]]]}},{"type":"Feature","properties":{"h3":"8830c19157fffff","emd_code":"2729053500","emd_name":"두류1,2동","area_km2":0.5334,"edge":false,"slope_mean":5.29,"elev_mean":57.3,"flood_hist_n":0,"flood_depth_max_m":null,"flood_risk_100y":null,"semi_basement_r":null,"elderly_alone_r":0.1639,"bldg_age30_r":null,"shelter_min_walk":5,"pop":15672,"hh":9115,"elderly65_r":0.2612,"single_hh_r":0.5663,"source_level":"emd","flood_years":[],"landslide_hist_n":0},"geometry":{"type":"Polygon","coordinates":[[[128.56255,35.85954],[128.56171,35.85573],[128.5659,35.85364],[128.57095,35.85534],[128.5718,35.85915],[128.5676,35.86125],[128.56255,35.85954]]]}},{"type":"Feature","properties":{"h3":"8830c19161fffff","emd_code":"2729056800","emd_name":"장기동","area_km2":0.5335,"edge":false,"slope_mean":3.69,"elev_mean":29.5,"flood_hist_n":0,"flood_depth_max_m":null,"flood_risk_100y":null,"semi_basement_r":null,"elderly_alone_r":0.1256,"bldg_age30_r":null,"shelter_min_walk":3,"pop":15347,"hh":7078,"elderly65_r":0.2165,"single_hh_r":0.3651,"source_level":"emd","flood_years":[],"landslide_hist_n":0},"geometry":{"type":"Polygon","coordinates":[[[128.52639,35.84377],[128.52555,35.83997],[128.52974,35.83787],[128.53479,35.83958],[128.53563,35.84339],[128.53144,35.84548],[128.52639,35.84377]]]}},{"type":"Feature","properties":{"h3":"8830c19163fffff","emd_code":"2729059000","emd_name":"본리동","area_km2":0.5335,"edge":false,"slope_mean":3.66,"elev_mean":33.5,"flood_hist_n":0,"flood_depth_max_m":null,"flood_risk_100y":null,"semi_basement_r":null,"elderly_alone_r":0.0905,"bldg_age30_r":null,"shelter_min_walk":1,"pop":22993,"hh":9869,"elderly65_r":0.17,"single_hh_r":0.3036,"source_level":"emd","flood_years":[],"landslide_hist_n":0},"geometry":{"type":"Polygon","coordinates":[[[128.53563,35.84339],[128.53479,35.83958],[128.53898,35.83748],[128.54403,35.83919],[128.54487,35.843],[128.54068,35.84509],[128.53563,35.84339]]]}},{"type":"Feature","properties":{"h3":"8830c19165fffff","emd_code":"2729060200","emd_name":"월성2동","area_km2":0.5335,"edge":false,"slope_mean":2.89,"elev_mean":28.1,"flood_hist_n":0,"flood_depth_max_m":null,"flood_risk_100y":null,"semi_basement_r":null,"elderly_alone_r":0.3358,"bldg_age30_r":null,"shelter_min_walk":5,"pop":13435,"hh":7898,"elderly65_r":0.3908,"single_hh_r":0.5713,"source_level":"emd","flood_years":[],"landslide_hist_n":0},"geometry":{"type":"Polygon","coordinates":[[[128.5205,35.83826],[128.51965,35.83445],[128.52385,35.83235],[128.52889,35.83406],[128.52974,35.83787],[128.52555,35.83997],[128.5205,35.83826]]]}},{"type":"Feature","properties":{"h3":"8830c19167fffff","emd_code":"2729065000","emd_name":"본동","area_km2":0.5336,"edge":false,"slope_mean":5.08,"elev_mean":43.2,"flood_hist_n":0,"flood_depth_max_m":null,"flood_risk_100y":null,"semi_basement_r":null,"elderly_alone_r":0.1766,"bldg_age30_r":null,"shelter_min_walk":2,"pop":13148,"hh":6932,"elderly65_r":0.2527,"single_hh_r":0.4812,"source_level":"emd","flood_years":[],"landslide_hist_n":0},"geometry":{"type":"Polygon","coordinates":[[[128.52974,35.83787],[128.52889,35.83406],[128.53309,35.83197],[128.53813,35.83367],[128.53898,35.83748],[128.53479,35.83958],[128.52974,35.83787]]]}},{"type":"Feature","properties":{"h3":"8830c19169fffff","emd_code":"2729056800","emd_name":"장기동","area_km2":0.5333,"edge":false,"slope_mean":4.9,"elev_mean":30.4,"flood_hist_n":0,"flood_depth_max_m":null,"flood_risk_100y":null,"semi_basement_r":null,"elderly_alone_r":0.1256,"bldg_age30_r":null,"shelter_min_walk":1,"pop":15347,"hh":7078,"elderly65_r":0.2165,"single_hh_r":0.3651,"source_level":"emd","flood_years":[],"landslide_hist_n":0},"geometry":{"type":"Polygon","coordinates":[[[128.52305,35.84968],[128.5222,35.84587],[128.52639,35.84377],[128.53144,35.84548],[128.53229,35.84929],[128.52809,35.85139],[128.52305,35.84968]]]}},{"type":"Feature","properties":{"h3":"8830c1916bfffff","emd_code":"2729055500","emd_name":"감삼동","area_km2":0.5334,"edge":false,"slope_mean":3.89,"elev_mean":32.1,"flood_hist_n":0,"flood_depth_max_m":null,"flood_risk_100y":null,"semi_basement_r":null,"elderly_alone_r":0.0893,"bldg_age30_r":null,"shelter_min_walk":1,"pop":31125,"hh":13793,"elderly65_r":0.1657,"single_hh_r":0.3474,"source_level":"emd","flood_years":[],"landslide_hist_n":0},"geometry":{"type":"Polygon","coordinates":[[[128.53229,35.84929],[128.53144,35.84548],[128.53563,35.84339],[128.54068,35.84509],[128.54153,35.8489],[128.53733,35.851],[128.53229,35.84929]]]}},{"type":"Feature","properties":{"h3":"8830c1916dfffff","emd_code":"2729056800","emd_name":"장기동","area_km2":0.5334,"edge":false,"slope_mean":8.9,"elev_mean":40.4,"flood_hist_n":0,"flood_depth_max_m":null,"flood_risk_100y":null,"semi_basement_r":null,"elderly_alone_r":0.1256,"bldg_age30_r":null,"shelter_min_walk":10,"pop":15347,"hh":7078,"elderly65_r":0.2165,"single_hh_r":0.3651,"source_level":"emd","flood_years":[],"landslide_hist_n":0},"geometry":{"type":"Polygon","coordinates":[[[128.51716,35.84416],[128.51631,35.84035],[128.5205,35.83826],[128.52555,35.83997],[128.52639,35.84377],[128.5222,35.84587],[128.51716,35.84416]]]}},{"type":"Feature","properties":{"h3":"8830c19321fffff","emd_code":"2729057200","emd_name":"용산2동","area_km2":0.5329,"edge":true,"slope_mean":18.75,"elev_mean":149.2,"flood_hist_n":0,"flood_depth_max_m":null,"flood_risk_100y":null,"semi_basement_r":null,"elderly_alone_r":0.1134,"bldg_age30_r":null,"shelter_min_walk":19,"pop":24584,"hh":11186,"elderly65_r":0.209,"single_hh_r":0.3358,"source_level":"emd","flood_years":[],"landslide_hist_n":0},"geometry":{"type":"Polygon","coordinates":[[[128.5189,35.87289],[128.51805,35.86909],[128.52225,35.86699],[128.52729,35.8687],[128.52814,35.87251],[128.52394,35.8746],[128.5189,35.87289]]]}},{"type":"Feature","properties":{"h3":"8830c19325fffff","emd_code":"2729057200","emd_name":"용산2동","area_km2":0.533,"edge":false,"slope_mean":19.11,"elev_mean":160.4,"flood_hist_n":0,"flood_depth_max_m":null,"flood_risk_100y":null,"semi_basement_r":null,"elderly_alone_r":0.1134,"bldg_age30_r":null,"shelter_min_walk":11,"pop":24584,"hh":11186,"elderly65_r":0.209,"single_hh_r":0.3358,"source_level":"emd","flood_years":[],"landslide_hist_n":0},"geometry":{"type":"Polygon","coordinates":[[[128.51301,35.86738],[128.51216,35.86358],[128.51635,35.86148],[128.5214,35.86319],[128.52225,35.86699],[128.51805,35.86909],[128.51301,35.86738]]]}},{"type":"Feature","properties":{"h3":"8830c19327fffff","emd_code":"2729057200","emd_name":"용산2동","area_km2":0.533,"edge":true,"slope_mean":10.0,"elev_mean":82.2,"flood_hist_n":0,"flood_depth_max_m":null,"flood_risk_100y":null,"semi_basement_r":null,"elderly_alone_r":0.1134,"bldg_age30_r":null,"shelter_min_walk":8,"pop":24584,"hh":11186,"elderly65_r":0.209,"single_hh_r":0.3358,"source_level":"emd","flood_years":[],"landslide_hist_n":0},"geometry":{"type":"Polygon","coordinates":[[[128.52225,35.86699],[128.5214,35.86319],[128.52559,35.86109],[128.53064,35.8628],[128.53149,35.86661],[128.52729,35.8687],[128.52225,35.86699]]]}},{"type":"Feature","properties":{"h3":"8830c1932dfffff","emd_code":"2729057600","emd_name":"이곡1동","area_km2":0.5329,"edge":true,"slope_mean":18.22,"elev_mean":171.0,"flood_hist_n":0,"flood_depth_max_m":null,"flood_risk_100y":null,"semi_basement_r":null,"elderly_alone_r":0.1014,"bldg_age30_r":null,"shelter_min_walk":18,"pop":19663,"hh":8934,"elderly65_r":0.1952,"single_hh_r":0.346,"source_level":"emd","flood_years":[],"landslide_hist_n":0},"geometry":{"type":"Polygon","coordinates":[[[128.50966,35.87328],[128.50881,35.86947],[128.51301,35.86738],[128.51805,35.86909],[128.5189,35.87289],[128.5147,35.87499],[128.50966,35.87328]]]}},{"type":"Feature","properties":{"h3":"8830c19811fffff","emd_code":"2729062800","emd_name":"도원동","area_km2":0.5348,"edge":true,"slope_mean":29.76,"elev_mean":505.8,"flood_hist_n":0,"flood_depth_max_m":null,"flood_risk_100y":null,"semi_basement_r":null,"elderly_alone_r":0.153,"bldg_age30_r":null,"shelter_min_walk":60,"pop":30857,"hh":13666,"elderly65_r":0.2771,"single_hh_r":0.2985,"source_level":"emd","flood_years":[],"landslide_hist_n":0},"geometry":{"type":"Polygon","coordinates":[[[128.55732,35.77326],[128.55647,35.76945],[128.56066,35.76734],[128.56571,35.76905],[128.56656,35.77287],[128.56236,35.77497],[128.55732,35.77326]]]}},{"type":"Feature","properties":{"h3":"8830c19819fffff","emd_code":"2729062800","emd_name":"도원동","area_km2":0.5347,"edge":false,"slope_mean":28.83,"elev_mean":446.7,"flood_hist_n":0,"flood_depth_max_m":null,"flood_risk_100y":null,"semi_basement_r":null,"elderly_alone_r":0.153,"bldg_age30_r":null,"shelter_min_walk":50,"pop":30857,"hh":13666,"elderly65_r":0.2771,"single_hh_r":0.2985,"source_level":"emd","flood_years":[],"landslide_hist_n":0},"geometry":{"type":"Polygon","coordinates":[[[128.55397,35.77917],[128.55312,35.77536],[128.55732,35.77326],[128.56236,35.77497],[128.56321,35.77878],[128.55901,35.78088],[128.55397,35.77917]]]}},{"type":"Feature","properties":{"h3":"8830c1981bfffff","emd_code":"2729062800","emd_name":"도원동","area_km2":0.5347,"edge":true,"slope_mean":29.41,"elev_mean":499.3,"flood_hist_n":0,"flood_depth_max_m":null,"flood_risk_100y":null,"semi_basement_r":null,"elderly_alone_r":0.153,"bldg_age30_r":null,"shelter_min_walk":54,"pop":30857,"hh":13666,"elderly65_r":0.2771,"single_hh_r":0.2985,"source_level":"emd","flood_years":[],"landslide_hist_n":0},"geometry":{"type":"Polygon","coordinates":[[[128.56321,35.77878],[128.56236,35.77497],[128.56656,35.77287],[128.5716,35.77458],[128.57245,35.77839],[128.56825,35.78049],[128.56321,35.77878]]]}},{"type":"Feature","properties":{"h3":"8830c1981dfffff","emd_code":"2729062800","emd_name":"도원동","area_km2":0.5347,"edge":true,"slope_mean":27.54,"elev_mean":538.4,"flood_hist_n":0,"flood_depth_max_m":null,"flood_risk_100y":null,"semi_basement_r":null,"elderly_alone_r":0.153,"bldg_age30_r":null,"shelter_min_walk":52,"pop":30857,"hh":13666,"elderly65_r":0.2771,"single_hh_r":0.2985,"source_level":"emd","flood_years":[],"landslide_hist_n":0},"geometry":{"type":"Polygon","coordinates":[[[128.54808,35.77365],[128.54723,35.76984],[128.55142,35.76774],[128.55647,35.76945],[128.55732,35.77326],[128.55312,35.77536],[128.54808,35.77365]]]}},{"type":"Feature","properties":{"h3":"8830c19851fffff","emd_code":"2729062800","emd_name":"도원동","area_km2":0.5345,"edge":true,"slope_mean":26.98,"elev_mean":334.3,"flood_hist_n":0,"flood_depth_max_m":null,"flood_risk_100y":null,"semi_basement_r":null,"elderly_alone_r":0.153,"bldg_age30_r":null,"shelter_min_walk":31,"pop":30857,"hh":13666,"elderly65_r":0.2771,"single_hh_r":0.2985,"source_level":"emd","flood_years":[],"landslide_hist_n":0},"geometry":{"type":"Polygon","coordinates":[[[128.54138,35.78548],[128.54054,35.78167],[128.54473,35.77956],[128.54977,35.78127],[128.55062,35.78509],[128.54643,35.78719],[128.54138,35.78548]]]}},{"type":"Feature","properties":{"h3":"8830c19853fffff","emd_code":"2729062800","emd_name":"도원동","area_km2":0.5346,"edge":false,"slope_mean":25.8,"elev_mean":292.2,"flood_hist_n":0,"flood_depth_max_m":null,"flood_risk_100y":null,"semi_basement_r":null,"elderly_alone_r":0.153,"bldg_age30_r":null,"shelter_min_walk":39,"pop":30857,"hh":13666,"elderly65_r":0.2771,"single_hh_r":0.2985,"source_level":"emd","flood_years":[],"landslide_hist_n":0},"geometry":{"type":"Polygon","coordinates":[[[128.55062,35.78509],[128.54977,35.78127],[128.55397,35.77917],[128.55901,35.78088],[128.55986,35.78469],[128.55567,35.7868],[128.55062,35.78509]]]}},{"type":"Feature","properties":{"h3":"8830c19857fffff","emd_code":"2729062800","emd_name":"도원동","area_km2":0.5346,"edge":true,"slope_mean":28.65,"elev_mean":397.6,"flood_hist_n":0,"flood_depth_max_m":null,"flood_risk_100y":null,"semi_basement_r":null,"elderly_alone_r":0.153,"bldg_age30_r":null,"shelter_min_walk":41,"pop":30857,"hh":13666,"elderly65_r":0.2771,"single_hh_r":0.2985,"source_level":"emd","flood_years":[],"landslide_hist_n":0},"geometry":{"type":"Polygon","coordinates":[[[128.54473,35.77956],[128.54388,35.77575],[128.54808,35.77365],[128.55312,35.77536],[128.55397,35.77917],[128.54977,35.78127],[128.54473,35.77956]]]}},{"type":"Feature","properties":{"h3":"8830c19859fffff","emd_code":"2729062800","emd_name":"도원동","area_km2":0.5344,"edge":false,"slope_mean":27.39,"elev_mean":300.4,"flood_hist_n":0,"flood_depth_max_m":null,"flood_risk_100y":null,"semi_basement_r":null,"elderly_alone_r":0.153,"bldg_age30_r":null,"shelter_min_walk":21,"pop":30857,"hh":13666,"elderly65_r":0.2771,"single_hh_r":0.2985,"source_level":"emd","flood_years":[],"landslide_hist_n":0},"geometry":{"type":"Polygon","coordinates":[[[128.53804,35.79139],[128.53719,35.78758],[128.54138,35.78548],[128.54643,35.78719],[128.54728,35.791],[128.54308,35.7931],[128.53804,35.79139]]]}},{"type":"Feature","properties":{"h3":"8830c1985bfffff","emd_code":"2729062800","emd_name":"도원동","area_km2":0.5344,"edge":false,"slope_mean":20.15,"elev_mean":206.0,"flood_hist_n":0,"flood_depth_max_m":null,"flood_risk_100y":null,"semi_basement_r":null,"elderly_alone_r":0.153,"bldg_age30_r":null,"shelter_min_walk":29,"pop":30857,"hh":13666,"elderly65_r":0.2771,"single_hh_r":0.2985,"source_level":"emd","flood_years":[],"landslide_hist_n":0},"geometry":{"type":"Polygon","coordinates":[[[128.54728,35.791],[128.54643,35.78719],[128.55062,35.78509],[128.55567,35.7868],[128.55652,35.79061],[128.55232,35.79271],[128.54728,35.791]]]}},{"type":"Feature","properties":{"h3":"8830c1985dfffff","emd_code":"2729061500","emd_name":"진천동","area_km2":0.5345,"edge":true,"slope_mean":22.18,"elev_mean":212.1,"flood_hist_n":0,"flood_depth_max_m":null,"flood_risk_100y":null,"semi_basement_r":null,"elderly_alone_r":0.1176,"bldg_age30_r":null,"shelter_min_walk":24,"pop":49267,"hh":21613,"elderly65_r":0.212,"single_hh_r":0.3267,"source_level":"emd","flood_years":[],"landslide_hist_n":0},"geometry":{"type":"Polygon","coordinates":[[[128.53215,35.78587],[128.5313,35.78206],[128.53549,35.77996],[128.54054,35.78167],[128.54138,35.78548],[128.53719,35.78758],[128.53215,35.78587]]]}},{"type":"Feature","properties":{"h3":"8830c19a01fffff","emd_code":"2729061500","emd_name":"진천동","area_km2":0.534,"edge":false,"slope_mean":7.89,"elev_mean":46.8,"flood_hist_n":0,"flood_depth_max_m":null,"flood_risk_100y":null,"semi_basement_r":null,"elderly_alone_r":0.1176,"bldg_age30_r":null,"shelter_min_walk":3,"pop":49267,"hh":21613,"elderly65_r":0.212,"single_hh_r":0.3267,"source_level":"emd","flood_years":[],"landslide_hist_n":0},"geometry":{"type":"Polygon","coordinates":[[[128.50952,35.80989],[128.50867,35.80608],[128.51287,35.80399],[128.51791,35.8057],[128.51876,35.80951],[128.51456,35.8116],[128.50952,35.80989]]]}},{"type":"Feature","properties":{"h3":"8830c19a03fffff","emd_code":"2729061500","emd_name":"진천동","area_km2":0.534,"edge":false,"slope_mean":5.86,"elev_mean":47.0,"flood_hist_n":0,"flood_depth_max_m":null,"flood_risk_100y":null,"semi_basement_r":null,"elderly_alone_r":0.1176,"bldg_age30_r":null,"shelter_min_walk":1,"pop":49267,"hh":21613,"elderly65_r":0.212,"single_hh_r":0.3267,"source_level":"emd","flood_years":[],"landslide_hist_n":0},"geometry":{"type":"Polygon","coordinates":[[[128.51876,35.80951],[128.51791,35.8057],[128.52211,35.8036],[128.52715,35.80531],[128.528,35.80912],[128.5238,35.81122],[128.51876,35.80951]]]}},{"type":"Feature","properties":{"h3":"8830c19a05fffff","emd_code":"2729061500","emd_name":"진천동","area_km2":0.534,"edge":true,"slope_mean":5.06,"elev_mean":47.0,"flood_hist_n":0,"flood_depth_max_m":null,"flood_risk_100y":null,"semi_basement_r":null,"elderly_alone_r":0.1176,"bldg_age30_r":null,"shelter_min_walk":6,"pop":49267,"hh":21613,"elderly65_r":0.212,"single_hh_r":0.3267,"source_level":"emd","flood_years":[],"landslide_hist_n":0},"geometry":{"type":"Polygon","coordinates":[[[128.50363,35.80437],[128.50278,35.80056],[128.50698,35.79846],[128.51202,35.80018],[128.51287,35.80399],[128.50867,35.80608],[128.50363,35.80437]]]}},{"type":"Feature","properties":{"h3":"8830c19a07fffff","emd_code":"2729061500","emd_name":"진천동","area_km2":0.5341,"edge":false,"slope_mean":14.43,"elev_mean":83.0,"flood_hist_n":0,"flood_depth_max_m":null,"flood_risk_100y":null,"semi_basement_r":null,"elderly_alone_r":0.1176,"bldg_age30_r":null,"shelter_min_walk":9,"pop":49267,"hh":21613,"elderly65_r":0.212,"single_hh_r":0.3267,"source_level":"emd","flood_years":[],"landslide_hist_n":0},"geometry":{"type":"Polygon","coordinates":[[[128.51287,35.80399],[128.51202,35.80018],[128.51621,35.79808],[128.52126,35.79979],[128.52211,35.8036],[128.51791,35.8057],[128.51287,35.80399]]]}},{"type":"Feature","properties":{"h3":"8830c19a09fffff","emd_code":"2729061700","emd_name":"유천동","area_km2":0.5338,"edge":false,"slope_mean":4.6,"elev_mean":30.1,"flood_hist_n":0,"flood_depth_max_m":null,"flood_risk_100y":null,"semi_basement_r":null,"elderly_alone_r":0.0336,"bldg_age30_r":null,"shelter_min_walk":1,"pop":32864,"hh":11048,"elderly65_r":0.073,"single_hh_r":0.1189,"source_level":"emd","flood_years":[],"landslide_hist_n":0},"geometry":{"type":"Polygon","coordinates":[[[128.50617,35.8158],[128.50533,35.81199],[128.50952,35.80989],[128.51456,35.8116],[128.51541,35.81541],[128.51122,35.81751],[128.50617,35.8158]]]}},{"type":"Feature","properties":{"h3":"8830c19a0bfffff","emd_code":"2729061700","emd_name":"유천동","area_km2":0.5339,"edge":false,"slope_mean":3.96,"elev_mean":36.3,"flood_hist_n":0,"flood_depth_max_m":null,"flood_risk_100y":null,"semi_basement_r":null,"elderly_alone_r":0.0336,"bldg_age30_r":null,"shelter_min_walk":4,"pop":32864,"hh":11048,"elderly65_r":0.073,"single_hh_r":0.1189,"source_level":"emd","flood_years":[],"landslide_hist_n":0},"geometry":{"type":"Polygon","coordinates":[[[128.51541,35.81541],[128.51456,35.8116],[128.51876,35.80951],[128.5238,35.81122],[128.52465,35.81502],[128.52046,35.81712],[128.51541,35.81541]]]}},{"type":"Feature","properties":{"h3":"8830c19a0dfffff","emd_code":"2729061500","emd_name":"진천동","area_km2":0.5339,"edge":true,"slope_mean":6.7,"elev_mean":43.4,"flood_hist_n":0,"flood_depth_max_m":null,"flood_risk_100y":null,"semi_basement_r":null,"elderly_alone_r":0.1176,"bldg_age30_r":null,"shelter_min_walk":5,"pop":49267,"hh":21613,"elderly65_r":0.212,"single_hh_r":0.3267,"source_level":"emd","flood_years":[],"landslide_hist_n":0},"geometry":{"type":"Polygon","coordinates":[[[128.50028,35.81028],[128.49944,35.80647],[128.50363,35.80437],[128.50867,35.80608],[128.50952,35.80989],[128.50533,35.81199],[128.50028,35.81028]]]}},{"type":"Feature","properties":{"h3":"8830c19a11fffff","emd_code":"2729062500","emd_name":"상인2동","area_km2":0.534,"edge":false,"slope_mean":3.2,"elev_mean":60.2,"flood_hist_n":0,"flood_depth_max_m":null,"flood_risk_100y":null,"semi_basement_r":null,"elderly_alone_r":0.1403,"bldg_age30_r":null,"shelter_min_walk":4,"pop":16737,"hh":8748,"elderly65_r":0.2439,"single_hh_r":0.4709,"source_level":"emd","flood_years":[],"landslide_hist_n":0},"geometry":{"type":"Polygon","coordinates":[[[128.53389,35.81464],[128.53304,35.81083],[128.53724,35.80873],[128.54228,35.81044],[128.54313,35.81425],[128.53893,35.81634],[128.53389,35.81464]]]}},{"type":"Feature","properties":{"h3":"8830c19a13fffff","emd_code":"2729062600","emd_name":"상인3동","area_km2":0.534,"edge":false,"slope_mean":6.3,"elev_mean":85.3,"flood_hist_n":0,"flood_depth_max_m":null,"flood_risk_100y":null,"semi_basement_r":null,"elderly_alone_r":0.3663,"bldg_age30_r":null,"shelter_min_walk":1,"pop":9445,"hh":5946,"elderly65_r":0.4543,"single_hh_r":0.5997,"source_level":"emd","flood_years":[],"landslide_hist_n":0},"geometry":{"type":"Polygon","coordinates":[[[128.54313,35.81425],[128.54228,35.81044],[128.54648,35.80834],[128.55152,35.81005],[128.55237,35.81386],[128.54817,35.81595],[128.54313,35.81425]]]}},{"type":"Feature","properties":{"h3":"8830c19a15fffff","emd_code":"2729062800","emd_name":"도원동","area_km2":0.534,"edge":false,"slope_mean":4.91,"elev_mean":56.3,"flood_hist_n":0,"flood_depth_max_m":null,"flood_risk_100y":null,"semi_basement_r":null,"elderly_alone_r":0.153,"bldg_age30_r":null,"shelter_min_walk":2,"pop":30857,"hh":13666,"elderly65_r":0.2771,"single_hh_r":0.2985,"source_level":"emd","flood_years":[],"landslide_hist_n":0},"geometry":{"type":"Polygon","coordinates":[[[128.528,35.80912],[128.52715,35.80531],[128.53134,35.80321],[128.53639,35.80492],[128.53724,35.80873],[128.53304,35.81083],[128.528,35.80912]]]}},{"type":"Feature","properties":{"h3":"8830c19a17fffff","emd_code":"2729062800","emd_name":"도원동","area_km2":0.5341,"edge":false,"slope_mean":6.0,"elev_mean":74.2,"flood_hist_n":0,"flood_depth_max_m":null,"flood_risk_100y":null,"semi_basement_r":null,"elderly_alone_r":0.153,"bldg_age30_r":null,"shelter_min_walk":1,"pop":30857,"hh":13666,"elderly65_r":0.2771,"single_hh_r":0.2985,"source_level":"emd","flood_years":[],"landslide_hist_n":0},"geometry":{"type":"Polygon","coordinates":[[[128.53724,35.80873],[128.53639,35.80492],[128.54058,35.80282],[128.54563,35.80453],[128.54648,35.80834],[128.54228,35.81044],[128.53724,35.80873]]]}},{"type":"Feature","properties":{"h3":"8830c19a19fffff","emd_code":"2729062400","emd_name":"상인1동","area_km2":0.5339,"edge":false,"slope_mean":3.84,"elev_mean":51.2,"flood_hist_n":0,"flood_depth_max_m":null,"flood_risk_100y":null,"semi_basement_r":null,"elderly_alone_r":0.1078,"bldg_age30_r":null,"shelter_min_walk":2,"pop":31919,"hh":12803,"elderly65_r":0.2229,"single_hh_r":0.231,"source_level":"emd","flood_years":[],"landslide_hist_n":0},"geometry":{"type":"Polygon","coordinates":[[[128.53054,35.82054],[128.52969,35.81673],[128.53389,35.81464],[128.53893,35.81634],[128.53978,35.82015],[128.53559,35.82225],[128.53054,35.82054]]]}},{"type":"Feature","properties":{"h3":"8830c19a1bfffff","emd_code":"2729062400","emd_name":"상인1동","area_km2":0.5339,"edge":false,"slope_mean":4.86,"elev_mean":69.6,"flood_hist_n":0,"flood_depth_max_m":null,"flood_risk_100y":null,"semi_basement_r":null,"elderly_alone_r":0.1078,"bldg_age30_r":null,"shelter_min_walk":3,"pop":31919,"hh":12803,"elderly65_r":0.2229,"single_hh_r":0.231,"source_level":"emd","flood_years":[],"landslide_hist_n":0},"geometry":{"type":"Polygon","coordinates":[[[128.53978,35.82015],[128.53893,35.81634],[128.54313,35.81425],[128.54817,35.81595],[128.54902,35.81976],[128.54483,35.82186],[128.53978,35.82015]]]}},{"type":"Feature","properties":{"h3":"8830c19a1dfffff","emd_code":"2729061500","emd_name":"진천동","area_km2":0.5339,"edge":false,"slope_mean":3.4,"elev_mean":48.0,"flood_hist_n":0,"flood_depth_max_m":null,"flood_risk_100y":null,"semi_basement_r":null,"elderly_alone_r":0.1176,"bldg_age30_r":null,"shelter_min_walk":3,"pop":49267,"hh":21613,"elderly65_r":0.212,"single_hh_r":0.3267,"source_level":"emd","flood_years":[],"landslide_hist_n":0},"geometry":{"type":"Polygon","coordinates":[[[128.52465,35.81502],[128.5238,35.81122],[128.528,35.80912],[128.53304,35.81083],[128.53389,35.81464],[128.52969,35.81673],[128.52465,35.81502]]]}},{"type":"Feature","properties":{"h3":"8830c19a31fffff","emd_code":"2729061500","emd_name":"진천동","area_km2":0.5342,"edge":false,"slope_mean":12.14,"elev_mean":103.3,"flood_hist_n":0,"flood_depth_max_m":null,"flood_risk_100y":null,"semi_basement_r":null,"elderly_alone_r":0.1176,"bldg_age30_r":null,"shelter_min_walk":2,"pop":49267,"hh":21613,"elderly65_r":0.212,"single_hh_r":0.3267,"source_level":"emd","flood_years":[],"landslide_hist_n":0},"geometry":{"type":"Polygon","coordinates":[[[128.52545,35.79769],[128.5246,35.79388],[128.5288,35.79178],[128.53384,35.79349],[128.53469,35.7973],[128.5305,35.7994],[128.52545,35.79769]]]}},{"type":"Feature","properties":{"h3":"8830c19a33fffff","emd_code":"2729061500","emd_name":"진천동","area_km2":0.5343,"edge":false,"slope_mean":21.59,"elev_mean":204.9,"flood_hist_n":0,"flood_depth_max_m":null,"flood_risk_100y":null,"semi_basement_r":null,"elderly_alone_r":0.1176,"bldg_age30_r":null,"shelter_min_walk":13,"pop":49267,"hh":21613,"elderly65_r":0.212,"single_hh_r":0.3267,"source_level":"emd","flood_years":[],"landslide_hist_n":0},"geometry":{"type":"Polygon","coordinates":[[[128.53469,35.7973],[128.53384,35.79349],[128.53804,35.79139],[128.54308,35.7931],[128.54393,35.79691],[128.53973,35.79901],[128.53469,35.7973]]]}},{"type":"Feature","properties":{"h3":"8830c19a35fffff","emd_code":"2729061500","emd_name":"진천동","area_km2":0.5343,"edge":true,"slope_mean":13.95,"elev_mean":106.4,"flood_hist_n":0,"flood_depth_max_m":null,"flood_risk_100y":null,"semi_basement_r":null,"elderly_alone_r":0.1176,"bldg_age30_r":null,"shelter_min_walk":14,"pop":49267,"hh":21613,"elderly65_r":0.212,"single_hh_r":0.3267,"source_level":"emd","flood_years":[],"landslide_hist_n":0},"geometry":{"type":"Polygon","coordinates":[[[128.51956,35.79217],[128.51871,35.78836],[128.52291,35.78626],[128.52795,35.78797],[128.5288,35.79178],[128.5246,35.79388],[128.51956,35.79217]]]}},{"type":"Feature","properties":{"h3":"8830c19a37fffff","emd_code":"2729061500","emd_name":"진천동","area_km2":0.5343,"edge":false,"slope_mean":23.5,"elev_mean":202.6,"flood_hist_n":0,"flood_depth_max_m":null,"flood_risk_100y":null,"semi_basement_r":null,"elderly_alone_r":0.1176,"bldg_age30_r":null,"shelter_min_walk":13,"pop":49267,"hh":21613,"elderly65_r":0.212,"single_hh_r":0.3267,"source_level":"emd","flood_years":[],"landslide_hist_n":0},"geometry":{"type":"Polygon","coordinates":[[[128.5288,35.79178],[128.52795,35.78797],[128.53215,35.78587],[128.53719,35.78758],[128.53804,35.79139],[128.53384,35.79349],[128.5288,35.79178]]]}},{"type":"Feature","properties":{"h3":"8830c19a39fffff","emd_code":"2729061500","emd_name":"진천동","area_km2":0.5341,"edge":false,"slope_mean":10.19,"elev_mean":76.1,"flood_hist_n":0,"flood_depth_max_m":null,"flood_risk_100y":null,"semi_basement_r":null,"elderly_alone_r":0.1176,"bldg_age30_r":null,"shelter_min_walk":9,"pop":49267,"hh":21613,"elderly65_r":0.212,"single_hh_r":0.3267,"source_level":"emd","flood_years":[],"landslide_hist_n":0},"geometry":{"type":"Polygon","coordinates":[[[128.52211,35.8036],[128.52126,35.79979],[128.52545,35.79769],[128.5305,35.7994],[128.53134,35.80321],[128.52715,35.80531],[128.52211,35.8036]]]}},{"type":"Feature","properties":{"h3":"8830c19a3bfffff","emd_code":"2729061500","emd_name":"진천동","area_km2":0.5342,"edge":false,"slope_mean":10.08,"elev_mean":90.6,"flood_hist_n":0,"flood_depth_max_m":null,"flood_risk_100y":null,"semi_basement_r":null,"elderly_alone_r":0.1176,"bldg_age30_r":null,"shelter_min_walk":6,"pop":49267,"hh":21613,"elderly65_r":0.212,"single_hh_r":0.3267,"source_level":"emd","flood_years":[],"landslide_hist_n":0},"geometry":{"type":"Polygon","coordinates":[[[128.53134,35.80321],[128.5305,35.7994],[128.53469,35.7973],[128.53973,35.79901],[128.54058,35.80282],[128.53639,35.80492],[128.53134,35.80321]]]}},{"type":"Feature","properties":{"h3":"8830c19a3dfffff","emd_code":"2729061500","emd_name":"진천동","area_km2":0.5342,"edge":false,"slope_mean":16.13,"elev_mean":114.0,"flood_hist_n":0,"flood_depth_max_m":null,"flood_risk_100y":null,"semi_basement_r":null,"elderly_alone_r":0.1176,"bldg_age30_r":null,"shelter_min_walk":13,"pop":49267,"hh":21613,"elderly65_r":0.212,"single_hh_r":0.3267,"source_level":"emd","flood_years":[],"landslide_hist_n":0},"geometry":{"type":"Polygon","coordinates":[[[128.51621,35.79808],[128.51537,35.79427],[128.51956,35.79217],[128.5246,35.79388],[128.52545,35.79769],[128.52126,35.79979],[128.51621,35.79808]]]}},{"type":"Feature","properties":{"h3":"8830c19a41fffff","emd_code":"2729060200","emd_name":"월성2동","area_km2":0.5337,"edge":false,"slope_mean":3.5,"elev_mean":21.7,"flood_hist_n":0,"flood_depth_max_m":null,"flood_risk_100y":null,"semi_basement_r":null,"elderly_alone_r":0.3358,"bldg_age30_r":null,"shelter_min_walk":19,"pop":13435,"hh":7898,"elderly65_r":0.3908,"single_hh_r":0.5713,"source_level":"emd","flood_years":[],"landslide_hist_n":0},"geometry":{"type":"Polygon","coordinates":[[[128.49359,35.82209],[128.49274,35.81828],[128.49694,35.81619],[128.50198,35.8179],[128.50283,35.82171],[128.49863,35.8238],[128.49359,35.82209]]]}},{"type":"Feature","properties":{"h3":"8830c19a43fffff","emd_code":"2729060200","emd_name":"월성2동","area_km2":0.5337,"edge":false,"slope_mean":4.11,"elev_mean":24.9,"flood_hist_n":0,"flood_depth_max_m":null,"flood_risk_100y":null,"semi_basement_r":null,"elderly_alone_r":0.3358,"bldg_age30_r":null,"shelter_min_walk":10,"pop":13435,"hh":7898,"elderly65_r":0.3908,"single_hh_r":0.5713,"source_level":"emd","flood_years":[],"landslide_hist_n":0},"geometry":{"type":"Polygon","coordinates":[[[128.50283,35.82171],[128.50198,35.8179],[128.50617,35.8158],[128.51122,35.81751],[128.51207,35.82132],[128.50787,35.82342],[128.50283,35.82171]]]}},{"type":"Feature","properties":{"h3":"8830c19a45fffff","emd_code":"2729060200","emd_name":"월성2동","area_km2":0.5337,"edge":true,"slope_mean":6.99,"elev_mean":30.8,"flood_hist_n":0,"flood_depth_max_m":null,"flood_risk_100y":null,"semi_basement_r":null,"elderly_alone_r":0.3358,"bldg_age30_r":null,"shelter_min_walk":12,"pop":13435,"hh":7898,"elderly65_r":0.3908,"single_hh_r":0.5713,"source_level":"emd","flood_years":[],"landslide_hist_n":0},"geometry":{"type":"Polygon","coordinates":[[[128.4877,35.81657],[128.48685,35.81276],[128.49105,35.81067],[128.49609,35.81238],[128.49694,35.81619],[128.49274,35.81828],[128.4877,35.81657]]]}},{"type":"Feature","properties":{"h3":"8830c19a47fffff","emd_code":"2729060200","emd_name":"월성2동","area_km2":0.5338,"edge":true,"slope_mean":2.79,"elev_mean":24.7,"flood_hist_n":0,"flood_depth_max_m":null,"flood_risk_100y":null,"semi_basement_r":null,"elderly_alone_r":0.3358,"bldg_age30_r":null,"shelter_min_walk":11,"pop":13435,"hh":7898,"elderly65_r":0.3908,"single_hh_r":0.5713,"source_level":"emd","flood_years":[],"landslide_hist_n":0},"geometry":{"type":"Polygon","coordinates":[[[128.49694,35.81619],[128.49609,35.81238],[128.50028,35.81028],[128.50533,35.81199],[128.50617,35.8158],[128.50198,35.8179],[128.49694,35.81619]]]}},{"type":"Feature","properties":{"h3":"8830c19a49fffff","emd_code":"2729060200","emd_name":"월성2동","area_km2":0.5336,"edge":false,"slope_mean":2.71,"elev_mean":21.9,"flood_hist_n":0,"flood_depth_max_m":null,"flood_risk_100y":null,"semi_basement_r":null,"elderly_alone_r":0.3358,"bldg_age30_r":null,"shelter_min_walk":16,"pop":13435,"hh":7898,"elderly65_r":0.3908,"single_hh_r":0.5713,"source_level":"emd","flood_years":[],"landslide_hist_n":0},"geometry":{"type":"Polygon","coordinates":[[[128.49024,35.828],[128.4894,35.82419],[128.49359,35.82209],[128.49863,35.8238],[128.49948,35.82761],[128.49529,35.82971],[128.49024,35.828]]]}},{"type":"Feature","properties":{"h3":"8830c19a4bfffff","emd_code":"2729060200","emd_name":"월성2동","area_km2":0.5336,"edge":false,"slope_mean":3.0,"elev_mean":25.0,"flood_hist_n":0,"flood_depth_max_m":null,"flood_risk_100y":null,"semi_basement_r":null,"elderly_alone_r":0.3358,"bldg_age30_r":null,"shelter_min_walk":18,"pop":13435,"hh":7898,"elderly65_r":0.3908,"single_hh_r":0.5713,"source_level":"emd","flood_years":[],"landslide_hist_n":0},"geometry":{"type":"Polygon","coordinates":[[[128.49948,35.82761],[128.49863,35.8238],[128.50283,35.82171],[128.50787,35.82342],[128.50872,35.82722],[128.50452,35.82932],[128.49948,35.82761]]]}},{"type":"Feature","properties":{"h3":"8830c19a4dfffff","emd_code":"2729060200","emd_name":"월성2동","area_km2":0.5336,"edge":false,"slope_mean":3.75,"elev_mean":18.1,"flood_hist_n":0,"flood_depth_max_m":null,"flood_risk_100y":null,"semi_basement_r":null,"elderly_alone_r":0.3358,"bldg_age30_r":null,"shelter_min_walk":20,"pop":13435,"hh":7898,"elderly65_r":0.3908,"single_hh_r":0.5713,"source_level":"emd","flood_years":[],"landslide_hist_n":0},"geometry":{"type":"Polygon","coordinates":[[[128.48435,35.82248],[128.48351,35.81867],[128.4877,35.81657],[128.49274,35.81828],[128.49359,35.82209],[128.4894,35.82419],[128.48435,35.82248]]]}},{"type":"Feature","properties":{"h3":"8830c19a51fffff","emd_code":"2729060100","emd_name":"월성1동","area_km2":0.5337,"edge":false,"slope_mean":2.95,"elev_mean":30.8,"flood_hist_n":0,"flood_depth_max_m":null,"flood_risk_100y":null,"semi_basement_r":null,"elderly_alone_r":0.0512,"bldg_age30_r":null,"shelter_min_walk":4,"pop":39423,"hh":13352,"elderly65_r":0.0984,"single_hh_r":0.1305,"source_level":"emd","flood_years":[],"landslide_hist_n":0},"geometry":{"type":"Polygon","coordinates":[[[128.51796,35.82684],[128.51711,35.82303],[128.5213,35.82093],[128.52635,35.82264],[128.5272,35.82645],[128.523,35.82855],[128.51796,35.82684]]]}},{"type":"Feature","properties":{"h3":"8830c19a53fffff","emd_code":"2729060100","emd_name":"월성1동","area_km2":0.5338,"edge":false,"slope_mean":4.69,"elev_mean":43.5,"flood_hist_n":0,"flood_depth_max_m":null,"flood_risk_100y":null,"semi_basement_r":null,"elderly_alone_r":0.0512,"bldg_age30_r":null,"shelter_min_walk":2,"pop":39423,"hh":13352,"elderly65_r":0.0984,"single_hh_r":0.1305,"source_level":"emd","flood_years":[],"landslide_hist_n":0},"geometry":{"type":"Polygon","coordinates":[[[128.5272,35.82645],[128.52635,35.82264],[128.53054,35.82054],[128.53559,35.82225],[128.53644,35.82606],[128.53224,35.82816],[128.5272,35.82645]]]}},{"type":"Feature","properties":{"h3":"8830c19a55fffff","emd_code":"2729061700","emd_name":"유천동","area_km2":0.5338,"edge":false,"slope_mean":2.51,"elev_mean":29.9,"flood_hist_n":0,"flood_depth_max_m":null,"flood_risk_100y":null,"semi_basement_r":null,"elderly_alone_r":0.0336,"bldg_age30_r":null,"shelter_min_walk":5,"pop":32864,"hh":11048,"elderly65_r":0.073,"single_hh_r":0.1189,"source_level":"emd","flood_years":[],"landslide_hist_n":0},"geometry":{"type":"Polygon","coordinates":[[[128.51207,35.82132],[128.51122,35.81751],[128.51541,35.81541],[128.52046,35.81712],[128.5213,35.82093],[128.51711,35.82303],[128.51207,35.82132]]]}},{"type":"Feature","properties":{"h3":"8830c19a57fffff","emd_code":"2729060100","emd_name":"월성1동","area_km2":0.5338,"edge":false,"slope_mean":3.74,"elev_mean":40.5,"flood_hist_n":0,"flood_depth_max_m":null,"flood_risk_100y":null,"semi_basement_r":null,"elderly_alone_r":0.0512,"bldg_age30_r":null,"shelter_min_walk":3,"pop":39423,"hh":13352,"elderly65_r":0.0984,"single_hh_r":0.1305,"source_level":"emd","flood_years":[],"landslide_hist_n":0},"geometry":{"type":"Polygon","coordinates":[[[128.5213,35.82093],[128.52046,35.81712],[128.52465,35.81502],[128.52969,35.81673],[128.53054,35.82054],[128.52635,35.82264],[128.5213,35.82093]]]}},{"type":"Feature","properties":{"h3":"8830c19a59fffff","emd_code":"2729060200","emd_name":"월성2동","area_km2":0.5336,"edge":false,"slope_mean":4.23,"elev_mean":26.0,"flood_hist_n":0,"flood_depth_max_m":null,"flood_risk_100y":null,"semi_basement_r":null,"elderly_alone_r":0.3358,"bldg_age30_r":null,"shelter_min_walk":8,"pop":13435,"hh":7898,"elderly65_r":0.3908,"single_hh_r":0.5713,"source_level":"emd","flood_years":[],"landslide_hist_n":0},"geometry":{"type":"Polygon","coordinates":[[[128.51461,35.83274],[128.51376,35.82893],[128.51796,35.82684],[128.523,35.82855],[128.52385,35.83235],[128.51965,35.83445],[128.51461,35.83274]]]}},{"type":"Feature","properties":{"h3":"8830c19a5bfffff","emd_code":"2729060200","emd_name":"월성2동","area_km2":0.5336,"edge":false,"slope_mean":3.92,"elev_mean":37.7,"flood_hist_n":0,"flood_depth_max_m":null,"flood_risk_100y":null,"semi_basement_r":null,"elderly_alone_r":0.3358,"bldg_age30_r":null,"shelter_min_walk":4,"pop":13435,"hh":7898,"elderly65_r":0.3908,"single_hh_r":0.5713,"source_level":"emd","flood_years":[],"landslide_hist_n":0},"geometry":{"type":"Polygon","coordinates":[[[128.52385,35.83235],[128.523,35.82855],[128.5272,35.82645],[128.53224,35.82816],[128.53309,35.83197],[128.52889,35.83406],[128.52385,35.83235]]]}},{"type":"Feature","properties":{"h3":"8830c19a5dfffff","emd_code":"2729060200","emd_name":"월성2동","area_km2":0.5337,"edge":false,"slope_mean":3.96,"elev_mean":25.2,"flood_hist_n":0,"flood_depth_max_m":null,"flood_risk_100y":null,"semi_basement_r":null,"elderly_alone_r":0.3358,"bldg_age30_r":null,"shelter_min_walk":14,"pop":13435,"hh":7898,"elderly65_r":0.3908,"single_hh_r":0.5713,"source_level":"emd","flood_years":[],"landslide_hist_n":0},"geometry":{"type":"Polygon","coordinates":[[[128.50872,35.82722],[128.50787,35.82342],[128.51207,35.82132],[128.51711,35.82303],[128.51796,35.82684],[128.51376,35.82893],[128.50872,35.82722]]]}},{"type":"Feature","properties":{"h3":"8830c19a81fffff","emd_code":"2729062800","emd_name":"도원동","area_km2":0.5343,"edge":false,"slope_mean":24.47,"elev_mean":369.5,"flood_hist_n":0,"flood_depth_max_m":null,"flood_risk_100y":null,"semi_basement_r":null,"elderly_alone_r":0.153,"bldg_age30_r":null,"shelter_min_walk":32,"pop":30857,"hh":13666,"elderly65_r":0.2771,"single_hh_r":0.2985,"source_level":"emd","flood_years":[],"landslide_hist_n":0},"geometry":{"type":"Polygon","coordinates":[[[128.5742,35.80716],[128.57335,35.80335],[128.57754,35.80125],[128.58259,35.80296],[128.58344,35.80677],[128.57924,35.80887],[128.5742,35.80716]]]}},{"type":"Feature","properties":{"h3":"8830c19a83fffff","emd_code":"2729062800","emd_name":"도원동","area_km2":0.5343,"edge":true,"slope_mean":20.78,"elev_mean":515.3,"flood_hist_n":0,"flood_depth_max_m":null,"flood_risk_100y":null,"semi_basement_r":null,"elderly_alone_r":0.153,"bldg_age30_r":null,"shelter_min_walk":43,"pop":30857,"hh":13666,"elderly65_r":0.2771,"single_hh_r":0.2985,"source_level":"emd","flood_years":[],"landslide_hist_n":0},"geometry":{"type":"Polygon","coordinates":[[[128.58344,35.80677],[128.58259,35.80296],[128.58678,35.80086],[128.59183,35.80257],[128.59268,35.80638],[128.58848,35.80848],[128.58344,35.80677]]]}},{"type":"Feature","properties":{"h3":"8830c19a85fffff","emd_code":"2729062800","emd_name":"도원동","area_km2":0.5344,"edge":false,"slope_mean":30.16,"elev_mean":529.8,"flood_hist_n":0,"flood_depth_max_m":null,"flood_risk_100y":null,"semi_basement_r":null,"elderly_alone_r":0.153,"bldg_age30_r":null,"shelter_min_walk":27,"pop":30857,"hh":13666,"elderly65_r":0.2771,"single_hh_r":0.2985,"source_level":"emd","flood_years":[],"landslide_hist_n":0},"geometry":{"type":"Polygon","coordinates":[[[128.5683,35.80164],[128.56745,35.79783],[128.57165,35.79573],[128.57669,35.79744],[128.57754,35.80125],[128.57335,35.80335],[128.5683,35.80164]]]}},{"type":"Feature","properties":{"h3":"8830c19a87fffff","emd_code":"2729062800","emd_name":"도원동","area_km2":0.5344,"edge":false,"slope_mean":23.37,"elev_mean":517.6,"flood_hist_n":0,"flood_depth_max_m":null,"flood_risk_100y":null,"semi_basement_r":null,"elderly_alone_r":0.153,"bldg_age30_r":null,"shelter_min_walk":39,"pop":30857,"hh":13666,"elderly65_r":0.2771,"single_hh_r":0.2985,"source_level":"emd","flood_years":[],"landslide_hist_n":0},"geometry":{"type":"Polygon","coordinates":[[[128.57754,35.80125],[128.57669,35.79744],[128.58089,35.79534],[128.58594,35.79705],[128.58678,35.80086],[128.58259,35.80296],[128.57754,35.80125]]]}},{"type":"Feature","properties":{"h3":"8830c19a89fffff","emd_code":"2729062600","emd_name":"상인3동","area_km2":0.5342,"edge":false,"slope_mean":28.19,"elev_mean":400.9,"flood_hist_n":0,"flood_depth_max_m":null,"flood_risk_100y":null,"semi_basement_r":null,"elderly_alone_r":0.3663,"bldg_age30_r":null,"shelter_min_walk":28,"pop":9445,"hh":5946,"elderly65_r":0.4543,"single_hh_r":0.5997,"source_level":"emd","flood_years":[],"landslide_hist_n":0},"geometry":{"type":"Polygon","coordinates":[[[128.57085,35.81307],[128.57,35.80926],[128.5742,35.80716],[128.57924,35.80887],[128.58009,35.81268],[128.57589,35.81478],[128.57085,35.81307]]]}},{"type":"Feature","properties":{"h3":"8830c19a8bfffff","emd_code":"2729062800","emd_name":"도원동","area_km2":0.5342,"edge":true,"slope_mean":23.39,"elev_mean":533.1,"flood_hist_n":0,"flood_depth_max_m":null,"flood_risk_100y":null,"semi_basement_r":null,"elderly_alone_r":0.153,"bldg_age30_r":null,"shelter_min_walk":36,"pop":30857,"hh":13666,"elderly65_r":0.2771,"single_hh_r":0.2985,"source_level":"emd","flood_years":[],"landslide_hist_n":0},"geometry":{"type":"Polygon","coordinates":[[[128.58009,35.81268],[128.57924,35.80887],[128.58344,35.80677],[128.58848,35.80848],[128.58933,35.81229],[128.58514,35.81439],[128.58009,35.81268]]]}},{"type":"Feature","properties":{"h3":"8830c19a8dfffff","emd_code":"2729062800","emd_name":"도원동","area_km2":0.5342,"edge":false,"slope_mean":26.15,"elev_mean":283.3,"flood_hist_n":0,"flood_depth_max_m":null,"flood_risk_100y":null,"semi_basement_r":null,"elderly_alone_r":0.153,"bldg_age30_r":null,"shelter_min_walk":19,"pop":30857,"hh":13666,"elderly65_r":0.2771,"single_hh_r":0.2985,"source_level":"emd","flood_years":[],"landslide_hist_n":0},"geometry":{"type":"Polygon","coordinates":[[[128.56496,35.80756],[128.56411,35.80375],[128.5683,35.80164],[128.57335,35.80335],[128.5742,35.80716],[128.57,35.80926],[128.56496,35.80756]]]}},{"type":"Feature","properties":{"h3":"8830c19aa1fffff","emd_code":"2729062800","emd_name":"도원동","area_km2":0.5345,"edge":true,"slope_mean":28.25,"elev_mean":653.9,"flood_hist_n":0,"flood_depth_max_m":null,"flood_risk_100y":null,"semi_basement_r":null,"elderly_alone_r":0.153,"bldg_age30_r":null,"shelter_min_walk":38,"pop":30857,"hh":13666,"elderly65_r":0.2771,"single_hh_r":0.2985,"source_level":"emd","flood_years":[],"landslide_hist_n":0},"geometry":{"type":"Polygon","coordinates":[[[128.56576,35.79021],[128.56491,35.7864],[128.5691,35.7843],[128.57415,35.78601],[128.575,35.78982],[128.5708,35.79192],[128.56576,35.79021]]]}},{"type":"Feature","properties":{"h3":"8830c19aa5fffff","emd_code":"2729062800","emd_name":"도원동","area_km2":0.5346,"edge":false,"slope_mean":31.59,"elev_mean":455.6,"flood_hist_n":0,"flood_depth_max_m":null,"flood_risk_100y":null,"semi_basement_r":null,"elderly_alone_r":0.153,"bldg_age30_r":null,"shelter_min_walk":43,"pop":30857,"hh":13666,"elderly65_r":0.2771,"single_hh_r":0.2985,"source_level":"emd","flood_years":[],"landslide_hist_n":0},"geometry":{"type":"Polygon","coordinates":[[[128.55986,35.78469],[128.55901,35.78088],[128.56321,35.77878],[128.56825,35.78049],[128.5691,35.7843],[128.56491,35.7864],[128.55986,35.78469]]]}},{"type":"Feature","properties":{"h3":"8830c19aa7fffff","emd_code":"2729062800","emd_name":"도원동","area_km2":0.5347,"edge":true,"slope_mean":31.79,"elev_mean":571.5,"flood_hist_n":0,"flood_depth_max_m":null,"flood_risk_100y":null,"semi_basement_r":null,"elderly_alone_r":0.153,"bldg_age30_r":null,"shelter_min_walk":49,"pop":30857,"hh":13666,"elderly65_r":0.2771,"single_hh_r":0.2985,"source_level":"emd","flood_years":[],"landslide_hist_n":0},"geometry":{"type":"Polygon","coordinates":[[[128.5691,35.7843],[128.56825,35.78049],[128.57245,35.77839],[128.57749,35.7801],[128.57834,35.78391],[128.57415,35.78601],[128.5691,35.7843]]]}},{"type":"Feature","properties":{"h3":"8830c19aa9fffff","emd_code":"2729062800","emd_name":"도원동","area_km2":0.5344,"edge":false,"slope_mean":29.08,"elev_mean":590.1,"flood_hist_n":0,"flood_depth_max_m":null,"flood_risk_100y":null,"semi_basement_r":null,"elderly_alone_r":0.153,"bldg_age30_r":null,"shelter_min_walk":27,"pop":30857,"hh":13666,"elderly65_r":0.2771,"single_hh_r":0.2985,"source_level":"emd","flood_years":[],"landslide_hist_n":0},"geometry":{"type":"Polygon","coordinates":[[[128.56241,35.79613],[128.56156,35.79232],[128.56576,35.79021],[128.5708,35.79192],[128.57165,35.79573],[128.56745,35.79783],[128.56241,35.79613]]]}},{"type":"Feature","properties":{"h3":"8830c19aabfffff","emd_code":"2729062800","emd_name":"도원동","area_km2":0.5345,"edge":true,"slope_mean":26.16,"elev_mean":597.8,"flood_hist_n":0,"flood_depth_max_m":null,"flood_risk_100y":null,"semi_basement_r":null,"elderly_alone_r":0.153,"bldg_age30_r":null,"shelter_min_walk":36,"pop":30857,"hh":13666,"elderly65_r":0.2771,"single_hh_r":0.2985,"source_level":"emd","flood_years":[],"landslide_hist_n":0},"geometry":{"type":"Polygon","coordinates":[[[128.57165,35.79573],[128.5708,35.79192],[128.575,35.78982],[128.58004,35.79153],[128.58089,35.79534],[128.57669,35.79744],[128.57165,35.79573]]]}},{"type":"Feature","properties":{"h3":"8830c19aadfffff","emd_code":"2729062800","emd_name":"도원동","area_km2":0.5345,"edge":false,"slope_mean":27.07,"elev_mean":355.7,"flood_hist_n":0,"flood_depth_max_m":null,"flood_risk_100y":null,"semi_basement_r":null,"elderly_alone_r":0.153,"bldg_age30_r":null,"shelter_min_walk":33,"pop":30857,"hh":13666,"elderly65_r":0.2771,"single_hh_r":0.2985,"source_level":"emd","flood_years":[],"landslide_hist_n":0},"geometry":{"type":"Polygon","coordinates":[[[128.55652,35.79061],[128.55567,35.7868],[128.55986,35.78469],[128.56491,35.7864],[128.56576,35.79021],[128.56156,35.79232],[128.55652,35.79061]]]}},{"type":"Feature","properties":{"h3":"8830c19ac1fffff","emd_code":"2729063000","emd_name":"송현1동","area_km2":0.534,"edge":false,"slope_mean":30.68,"elev_mean":404.2,"flood_hist_n":0,"flood_depth_max_m":null,"flood_risk_100y":null,"semi_basement_r":null,"elderly_alone_r":0.2115,"bldg_age30_r":null,"shelter_min_walk":13,"pop":15927,"hh":9330,"elderly65_r":0.3116,"single_hh_r":0.5665,"source_level":"emd","flood_years":[],"landslide_hist_n":0},"geometry":{"type":"Polygon","coordinates":[[[128.55826,35.81937],[128.55741,35.81556],[128.56161,35.81346],[128.56665,35.81517],[128.5675,35.81898],[128.56331,35.82108],[128.55826,35.81937]]]}},{"type":"Feature","properties":{"h3":"8830c19ac3fffff","emd_code":"2729062600","emd_name":"상인3동","area_km2":0.5341,"edge":false,"slope_mean":30.89,"elev_mean":494.5,"flood_hist_n":0,"flood_depth_max_m":null,"flood_risk_100y":null,"semi_basement_r":null,"elderly_alone_r":0.3663,"bldg_age30_r":null,"shelter_min_walk":24,"pop":9445,"hh":5946,"elderly65_r":0.4543,"single_hh_r":0.5997,"source_level":"emd","flood_years":[],"landslide_hist_n":0},"geometry":{"type":"Polygon","coordinates":[[[128.5675,35.81898],[128.56665,35.81517],[128.57085,35.81307],[128.57589,35.81478],[128.57674,35.81859],[128.57255,35.82069],[128.5675,35.81898]]]}},{"type":"Feature","properties":{"h3":"8830c19ac5fffff","emd_code":"2729062600","emd_name":"상인3동","area_km2":0.5341,"edge":false,"slope_mean":21.59,"elev_mean":219.4,"flood_hist_n":0,"flood_depth_max_m":null,"flood_risk_100y":null,"semi_basement_r":null,"elderly_alone_r":0.3663,"bldg_age30_r":null,"shelter_min_walk":5,"pop":9445,"hh":5946,"elderly65_r":0.4543,"single_hh_r":0.5997,"source_level":"emd","flood_years":[],"landslide_hist_n":0},"geometry":{"type":"Polygon","coordinates":[[[128.55237,35.81386],[128.55152,35.81005],[128.55572,35.80795],[128.56076,35.80966],[128.56161,35.81346],[128.55741,35.81556],[128.55237,35.81386]]]}},{"type":"Feature","properties":{"h3":"8830c19ac7fffff","emd_code":"2729062600","emd_name":"상인3동","area_km2":0.5341,"edge":false,"slope_mean":27.45,"elev_mean":305.2,"flood_hist_n":0,"flood_depth_max_m":null,"flood_risk_100y":null,"semi_basement_r":null,"elderly_alone_r":0.3663,"bldg_age30_r":null,"shelter_min_walk":16,"pop":9445,"hh":5946,"elderly65_r":0.4543,"single_hh_r":0.5997,"source_level":"emd","flood_years":[],"landslide_hist_n":0},"geometry":{"type":"Polygon","coordinates":[[[128.56161,35.81346],[128.56076,35.80966],[128.56496,35.80756],[128.57,35.80926],[128.57085,35.81307],[128.56665,35.81517],[128.56161,35.81346]]]}},{"type":"Feature","properties":{"h3":"8830c19ac9fffff","emd_code":"2729063000","emd_name":"송현1동","area_km2":0.5339,"edge":false,"slope_mean":18.89,"elev_mean":194.1,"flood_hist_n":0,"flood_depth_max_m":null,"flood_risk_100y":null,"semi_basement_r":null,"elderly_alone_r":0.2115,"bldg_age30_r":null,"shelter_min_walk":9,"pop":15927,"hh":9330,"elderly65_r":0.3116,"single_hh_r":0.5665,"source_level":"emd","flood_years":[],"landslide_hist_n":0},"geometry":{"type":"Polygon","coordinates":[[[128.55492,35.82528],[128.55407,35.82147],[128.55826,35.81937],[128.56331,35.82108],[128.56416,35.82489],[128.55996,35.82699],[128.55492,35.82528]]]}},{"type":"Feature","properties":{"h3":"8830c19acbfffff","emd_code":"2729063000","emd_name":"송현1동","area_km2":0.5339,"edge":false,"slope_mean":29.57,"elev_mean":381.8,"flood_hist_n":0,"flood_depth_max_m":null,"flood_risk_100y":null,"semi_basement_r":null,"elderly_alone_r":0.2115,"bldg_age30_r":null,"shelter_min_walk":13,"pop":15927,"hh":9330,"elderly65_r":0.3116,"single_hh_r":0.5665,"source_level":"emd","flood_years":[],"landslide_hist_n":0},"geometry":{"type":"Polygon","coordinates":[[[128.56416,35.82489],[128.56331,35.82108],[128.5675,35.81898],[128.57255,35.82069],[128.5734,35.8245],[128.5692,35.8266],[128.56416,35.82489]]]}},{"type":"Feature","properties":{"h3":"8830c19acdfffff","emd_code":"2729062600","emd_name":"상인3동","area_km2":0.534,"edge":false,"slope_mean":17.4,"elev_mean":173.2,"flood_hist_n":0,"flood_depth_max_m":null,"flood_risk_100y":null,"semi_basement_r":null,"elderly_alone_r":0.3663,"bldg_age30_r":null,"shelter_min_walk":4,"pop":9445,"hh":5946,"elderly65_r":0.4543,"single_hh_r":0.5997,"source_level":"emd","flood_years":[],"landslide_hist_n":0},"geometry":{"type":"Polygon","coordinates":[[[128.54902,35.81976],[128.54817,35.81595],[128.55237,35.81386],[128.55741,35.81556],[128.55826,35.81937],[128.55407,35.82147],[128.54902,35.81976]]]}},{"type":"Feature","properties":{"h3":"8830c19ad5fffff","emd_code":"2729062600","emd_name":"상인3동","area_km2":0.5341,"edge":true,"slope_mean":27.16,"elev_mean":490.3,"flood_hist_n":0,"flood_depth_max_m":null,"flood_risk_100y":null,"semi_basement_r":null,"elderly_alone_r":0.3663,"bldg_age30_r":null,"shelter_min_walk":25,"pop":9445,"hh":5946,"elderly65_r":0.4543,"single_hh_r":0.5997,"source_level":"emd","flood_years":[],"landslide_hist_n":0},"geometry":{"type":"Polygon","coordinates":[[[128.57674,35.81859],[128.57589,35.81478],[128.58009,35.81268],[128.58514,35.81439],[128.58598,35.8182],[128.58179,35.8203],[128.57674,35.81859]]]}},{"type":"Feature","properties":{"h3":"8830c19ae1fffff","emd_code":"2729062800","emd_name":"도원동","area_km2":0.5343,"edge":false,"slope_mean":19.33,"elev_mean":199.8,"flood_hist_n":0,"flood_depth_max_m":null,"flood_risk_100y":null,"semi_basement_r":null,"elderly_alone_r":0.153,"bldg_age30_r":null,"shelter_min_walk":12,"pop":30857,"hh":13666,"elderly65_r":0.2771,"single_hh_r":0.2985,"source_level":"emd","flood_years":[],"landslide_hist_n":0},"geometry":{"type":"Polygon","coordinates":[[[128.54982,35.80243],[128.54897,35.79862],[128.55317,35.79652],[128.55821,35.79823],[128.55906,35.80204],[128.55487,35.80414],[128.54982,35.80243]]]}},{"type":"Feature","properties":{"h3":"8830c19ae3fffff","emd_code":"2729062800","emd_name":"도원동","area_km2":0.5343,"edge":false,"slope_mean":30.83,"elev_mean":408.4,"flood_hist_n":0,"flood_depth_max_m":null,"flood_risk_100y":null,"semi_basement_r":null,"elderly_alone_r":0.153,"bldg_age30_r":null,"shelter_min_walk":17,"pop":30857,"hh":13666,"elderly65_r":0.2771,"single_hh_r":0.2985,"source_level":"emd","flood_years":[],"landslide_hist_n":0},"geometry":{"type":"Polygon","coordinates":[[[128.55906,35.80204],[128.55821,35.79823],[128.56241,35.79613],[128.56745,35.79783],[128.5683,35.80164],[128.56411,35.80375],[128.55906,35.80204]]]}},{"type":"Feature","properties":{"h3":"8830c19ae5fffff","emd_code":"2729062800","emd_name":"도원동","area_km2":0.5343,"edge":false,"slope_mean":16.06,"elev_mean":150.4,"flood_hist_n":0,"flood_depth_max_m":null,"flood_risk_100y":null,"semi_basement_r":null,"elderly_alone_r":0.153,"bldg_age30_r":null,"shelter_min_walk":19,"pop":30857,"hh":13666,"elderly65_r":0.2771,"single_hh_r":0.2985,"source_level":"emd","flood_years":[],"landslide_hist_n":0},"geometry":{"type":"Polygon","coordinates":[[[128.54393,35.79691],[128.54308,35.7931],[128.54728,35.791],[128.55232,35.79271],[128.55317,35.79652],[128.54897,35.79862],[128.54393,35.79691]]]}},{"type":"Feature","properties":{"h3":"8830c19ae7fffff","emd_code":"2729062800","emd_name":"도원동","area_km2":0.5344,"edge":false,"slope_mean":24.13,"elev_mean":298.4,"flood_hist_n":0,"flood_depth_max_m":null,"flood_risk_100y":null,"semi_basement_r":null,"elderly_alone_r":0.153,"bldg_age30_r":null,"shelter_min_walk":22,"pop":30857,"hh":13666,"elderly65_r":0.2771,"single_hh_r":0.2985,"source_level":"emd","flood_years":[],"landslide_hist_n":0},"geometry":{"type":"Polygon","coordinates":[[[128.55317,35.79652],[128.55232,35.79271],[128.55652,35.79061],[128.56156,35.79232],[128.56241,35.79613],[128.55821,35.79823],[128.55317,35.79652]]]}},{"type":"Feature","properties":{"h3":"8830c19ae9fffff","emd_code":"2729062800","emd_name":"도원동","area_km2":0.5341,"edge":false,"slope_mean":8.19,"elev_mean":106.0,"flood_hist_n":0,"flood_depth_max_m":null,"flood_risk_100y":null,"semi_basement_r":null,"elderly_alone_r":0.153,"bldg_age30_r":null,"shelter_min_walk":3,"pop":30857,"hh":13666,"elderly65_r":0.2771,"single_hh_r":0.2985,"source_level":"emd","flood_years":[],"landslide_hist_n":0},"geometry":{"type":"Polygon","coordinates":[[[128.54648,35.80834],[128.54563,35.80453],[128.54982,35.80243],[128.55487,35.80414],[128.55572,35.80795],[128.55152,35.81005],[128.54648,35.80834]]]}},{"type":"Feature","properties":{"h3":"8830c19aebfffff","emd_code":"2729062800","emd_name":"도원동","area_km2":0.5342,"edge":false,"slope_mean":20.65,"elev_mean":197.0,"flood_hist_n":0,"flood_depth_max_m":null,"flood_risk_100y":null,"semi_basement_r":null,"elderly_alone_r":0.153,"bldg_age30_r":null,"shelter_min_walk":7,"pop":30857,"hh":13666,"elderly65_r":0.2771,"single_hh_r":0.2985,"source_level":"emd","flood_years":[],"landslide_hist_n":0},"geometry":{"type":"Polygon","coordinates":[[[128.55572,35.80795],[128.55487,35.80414],[128.55906,35.80204],[128.56411,35.80375],[128.56496,35.80756],[128.56076,35.80966],[128.55572,35.80795]]]}},{"type":"Feature","properties":{"h3":"8830c19aedfffff","emd_code":"2729062800","emd_name":"도원동","area_km2":0.5342,"edge":false,"slope_mean":12.98,"elev_mean":125.4,"flood_hist_n":0,"flood_depth_max_m":null,"flood_risk_100y":null,"semi_basement_r":null,"elderly_alone_r":0.153,"bldg_age30_r":null,"shelter_min_walk":10,"pop":30857,"hh":13666,"elderly65_r":0.2771,"single_hh_r":0.2985,"source_level":"emd","flood_years":[],"landslide_hist_n":0},"geometry":{"type":"Polygon","coordinates":[[[128.54058,35.80282],[128.53973,35.79901],[128.54393,35.79691],[128.54897,35.79862],[128.54982,35.80243],[128.54563,35.80453],[128.54058,35.80282]]]}},{"type":"Feature","properties":{"h3":"8830c56481fffff","emd_code":"2729058500","emd_name":"신당동","area_km2":0.5331,"edge":false,"slope_mean":3.88,"elev_mean":25.7,"flood_hist_n":0,"flood_depth_max_m":null,"flood_risk_100y":null,"semi_basement_r":null,"elderly_alone_r":0.1353,"bldg_age30_r":null,"shelter_min_walk":4,"pop":27882,"hh":17322,"elderly65_r":0.21,"single_hh_r":0.6459,"source_level":"emd","flood_years":[],"landslide_hist_n":0},"geometry":{"type":"Polygon","coordinates":[[[128.4861,35.85122],[128.48525,35.84741],[128.48944,35.84532],[128.49448,35.84703],[128.49533,35.85084],[128.49114,35.85293],[128.4861,35.85122]]]}},{"type":"Feature","properties":{"h3":"8830c56483fffff","emd_code":"2729058500","emd_name":"신당동","area_km2":0.5332,"edge":false,"slope_mean":3.09,"elev_mean":28.4,"flood_hist_n":0,"flood_depth_max_m":null,"flood_risk_100y":null,"semi_basement_r":null,"elderly_alone_r":0.1353,"bldg_age30_r":null,"shelter_min_walk":5,"pop":27882,"hh":17322,"elderly65_r":0.21,"single_hh_r":0.6459,"source_level":"emd","flood_years":[],"landslide_hist_n":0},"geometry":{"type":"Polygon","coordinates":[[[128.49533,35.85084],[128.49448,35.84703],[128.49868,35.84493],[128.50372,35.84664],[128.50457,35.85045],[128.50038,35.85255],[128.49533,35.85084]]]}},{"type":"Feature","properties":{"h3":"8830c56485fffff","emd_code":"2729058500","emd_name":"신당동","area_km2":0.5332,"edge":false,"slope_mean":4.38,"elev_mean":26.5,"flood_hist_n":0,"flood_depth_max_m":null,"flood_risk_100y":null,"semi_basement_r":null,"elderly_alone_r":0.1353,"bldg_age30_r":null,"shelter_min_walk":7,"pop":27882,"hh":17322,"elderly65_r":0.21,"single_hh_r":0.6459,"source_level":"emd","flood_years":[],"landslide_hist_n":0},"geometry":{"type":"Polygon","coordinates":[[[128.4802,35.8457],[128.47936,35.8419],[128.48355,35.8398],[128.48859,35.84151],[128.48944,35.84532],[128.48525,35.84741],[128.4802,35.8457]]]}},{"type":"Feature","properties":{"h3":"8830c56487fffff","emd_code":"2729058500","emd_name":"신당동","area_km2":0.5333,"edge":false,"slope_mean":3.66,"elev_mean":26.8,"flood_hist_n":0,"flood_depth_max_m":null,"flood_risk_100y":null,"semi_basement_r":null,"elderly_alone_r":0.1353,"bldg_age30_r":null,"shelter_min_walk":8,"pop":27882,"hh":17322,"elderly65_r":0.21,"single_hh_r":0.6459,"source_level":"emd","flood_years":[],"landslide_hist_n":0},"geometry":{"type":"Polygon","coordinates":[[[128.48944,35.84532],[128.48859,35.84151],[128.49279,35.83942],[128.49783,35.84113],[128.49868,35.84493],[128.49448,35.84703],[128.48944,35.84532]]]}},{"type":"Feature","properties":{"h3":"8830c56489fffff","emd_code":"2729058500","emd_name":"신당동","area_km2":0.533,"edge":false,"slope_mean":7.23,"elev_mean":41.8,"flood_hist_n":0,"flood_depth_max_m":null,"flood_risk_100y":null,"semi_basement_r":null,"elderly_alone_r":0.1353,"bldg_age30_r":null,"shelter_min_walk":9,"pop":27882,"hh":17322,"elderly65_r":0.21,"single_hh_r":0.6459,"source_level":"emd","flood_years":[],"landslide_hist_n":0},"geometry":{"type":"Polygon","coordinates":[[[128.48275,35.85712],[128.4819,35.85331],[128.4861,35.85122],[128.49114,35.85293],[128.49199,35.85674],[128.48779,35.85883],[128.48275,35.85712]]]}},{"type":"Feature","properties":{"h3":"8830c5648bfffff","emd_code":"2729058500","emd_name":"신당동","area_km2":0.5331,"edge":false,"slope_mean":3.01,"elev_mean":28.2,"flood_hist_n":0,"flood_depth_max_m":null,"flood_risk_100y":null,"semi_basement_r":null,"elderly_alone_r":0.1353,"bldg_age30_r":null,"shelter_min_walk":5,"pop":27882,"hh":17322,"elderly65_r":0.21,"single_hh_r":0.6459,"source_level":"emd","flood_years":[],"landslide_hist_n":0},"geometry":{"type":"Polygon","coordinates":[[[128.49199,35.85674],[128.49114,35.85293],[128.49533,35.85084],[128.50038,35.85255],[128.50122,35.85635],[128.49703,35.85845],[128.49199,35.85674]]]}},{"type":"Feature","properties":{"h3":"8830c5648dfffff","emd_code":"2729058500","emd_name":"신당동","area_km2":0.5331,"edge":false,"slope_mean":3.85,"elev_mean":27.9,"flood_hist_n":0,"flood_depth_max_m":null,"flood_risk_100y":null,"semi_basement_r":null,"elderly_alone_r":0.1353,"bldg_age30_r":null,"shelter_min_walk":5,"pop":27882,"hh":17322,"elderly65_r":0.21,"single_hh_r":0.6459,"source_level":"emd","flood_years":[],"landslide_hist_n":0},"geometry":{"type":"Polygon","coordinates":[[[128.47686,35.8516],[128.47601,35.8478],[128.4802,35.8457],[128.48525,35.84741],[128.4861,35.85122],[128.4819,35.85331],[128.47686,35.8516]]]}},{"type":"Feature","properties":{"h3":"8830c56491fffff","emd_code":"2729057600","emd_name":"이곡1동","area_km2":0.5332,"edge":false,"slope_mean":5.4,"elev_mean":47.4,"flood_hist_n":0,"flood_depth_max_m":null,"flood_risk_100y":null,"semi_basement_r":null,"elderly_alone_r":0.1014,"bldg_age30_r":null,"shelter_min_walk":3,"pop":19663,"hh":8934,"elderly65_r":0.1952,"single_hh_r":0.346,"source_level":"emd","flood_years":[],"landslide_hist_n":0},"geometry":{"type":"Polygon","coordinates":[[[128.51046,35.85597],[128.50961,35.85216],[128.51381,35.85006],[128.51885,35.85177],[128.5197,35.85558],[128.51551,35.85767],[128.51046,35.85597]]]}},{"type":"Feature","properties":{"h3":"8830c56493fffff","emd_code":"2729057100","emd_name":"용산1동","area_km2":0.5332,"edge":false,"slope_mean":4.13,"elev_mean":41.4,"flood_hist_n":0,"flood_depth_max_m":null,"flood_risk_100y":null,"semi_basement_r":null,"elderly_alone_r":0.0975,"bldg_age30_r":null,"shelter_min_walk":5,"pop":27808,"hh":12544,"elderly65_r":0.1916,"single_hh_r":0.3487,"source_level":"emd","flood_years":[],"landslide_hist_n":0},"geometry":{"type":"Polygon","coordinates":[[[128.5197,35.85558],[128.51885,35.85177],[128.52305,35.84968],[128.52809,35.85139],[128.52894,35.85519],[128.52474,35.85729],[128.5197,35.85558]]]}},{"type":"Feature","properties":{"h3":"8830c56495fffff","emd_code":"2729057600","emd_name":"이곡1동","area_km2":0.5332,"edge":false,"slope_mean":3.73,"elev_mean":36.6,"flood_hist_n":0,"flood_depth_max_m":null,"flood_risk_100y":null,"semi_basement_r":null,"elderly_alone_r":0.1014,"bldg_age30_r":null,"shelter_min_walk":5,"pop":19663,"hh":8934,"elderly65_r":0.1952,"single_hh_r":0.346,"source_level":"emd","flood_years":[],"landslide_hist_n":0},"geometry":{"type":"Polygon","coordinates":[[[128.50457,35.85045],[128.50372,35.84664],[128.50792,35.84455],[128.51296,35.84626],[128.51381,35.85006],[128.50961,35.85216],[128.50457,35.85045]]]}},{"type":"Feature","properties":{"h3":"8830c56497fffff","emd_code":"2729056800","emd_name":"장기동","area_km2":0.5333,"edge":false,"slope_mean":7.75,"elev_mean":46.6,"flood_hist_n":0,"flood_depth_max_m":null,"flood_risk_100y":null,"semi_basement_r":null,"elderly_alone_r":0.1256,"bldg_age30_r":null,"shelter_min_walk":4,"pop":15347,"hh":7078,"elderly65_r":0.2165,"single_hh_r":0.3651,"source_level":"emd","flood_years":[],"landslide_hist_n":0},"geometry":{"type":"Polygon","coordinates":[[[128.51381,35.85006],[128.51296,35.84626],[128.51716,35.84416],[128.5222,35.84587],[128.52305,35.84968],[128.51885,35.85177],[128.51381,35.85006]]]}},{"type":"Feature","properties":{"h3":"8830c56499fffff","emd_code":"2729057600","emd_name":"이곡1동","area_km2":0.5331,"edge":false,"slope_mean":9.1,"elev_mean":65.9,"flood_hist_n":0,"flood_depth_max_m":null,"flood_risk_100y":null,"semi_basement_r":null,"elderly_alone_r":0.1014,"bldg_age30_r":null,"shelter_min_walk":1,"pop":19663,"hh":8934,"elderly65_r":0.1952,"single_hh_r":0.346,"source_level":"emd","flood_years":[],"landslide_hist_n":0},"geometry":{"type":"Polygon","coordinates":[[[128.50712,35.86187],[128.50627,35.85806],[128.51046,35.85597],[128.51551,35.85767],[128.51635,35.86148],[128.51216,35.86358],[128.50712,35.86187]]]}},{"type":"Feature","properties":{"h3":"8830c5649bfffff","emd_code":"2729057200","emd_name":"용산2동","area_km2":0.5331,"edge":false,"slope_mean":7.41,"elev_mean":69.8,"flood_hist_n":0,"flood_depth_max_m":null,"flood_risk_100y":null,"semi_basement_r":null,"elderly_alone_r":0.1134,"bldg_age30_r":null,"shelter_min_walk":2,"pop":24584,"hh":11186,"elderly65_r":0.209,"single_hh_r":0.3358,"source_level":"emd","flood_years":[],"landslide_hist_n":0},"geometry":{"type":"Polygon","coordinates":[[[128.51635,35.86148],[128.51551,35.85767],[128.5197,35.85558],[128.52474,35.85729],[128.52559,35.86109],[128.5214,35.86319],[128.51635,35.86148]]]}},{"type":"Feature","properties":{"h3":"8830c5649dfffff","emd_code":"2729057700","emd_name":"이곡2동","area_km2":0.5331,"edge":false,"slope_mean":4.64,"elev_mean":35.0,"flood_hist_n":0,"flood_depth_max_m":null,"flood_risk_100y":null,"semi_basement_r":null,"elderly_alone_r":0.1155,"bldg_age30_r":null,"shelter_min_walk":4,"pop":14054,"hh":6891,"elderly65_r":0.2537,"single_hh_r":0.3918,"source_level":"emd","flood_years":[],"landslide_hist_n":0},"geometry":{"type":"Polygon","coordinates":[[[128.50122,35.85635],[128.50038,35.85255],[128.50457,35.85045],[128.50961,35.85216],[128.51046,35.85597],[128.50627,35.85806],[128.50122,35.85635]]]}},{"type":"Feature","properties":{"h3":"8830c564a1fffff","emd_code":"2729058500","emd_name":"신당동","area_km2":0.5334,"edge":false,"slope_mean":2.57,"elev_mean":19.7,"flood_hist_n":0,"flood_depth_max_m":null,"flood_risk_100y":null,"semi_basement_r":null,"elderly_alone_r":0.1353,"bldg_age30_r":null,"shelter_min_walk":10,"pop":27882,"hh":17322,"elderly65_r":0.21,"single_hh_r":0.6459,"source_level":"emd","flood_years":[],"landslide_hist_n":0},"geometry":{"type":"Polygon","coordinates":[[[128.47766,35.83428],[128.47681,35.83048],[128.48101,35.82838],[128.48605,35.83009],[128.4869,35.8339],[128.4827,35.83599],[128.47766,35.83428]]]}},{"type":"Feature","properties":{"h3":"8830c564a3fffff","emd_code":"2729060200","emd_name":"월성2동","area_km2":0.5334,"edge":false,"slope_mean":3.68,"elev_mean":23.8,"flood_hist_n":0,"flood_depth_max_m":null,"flood_risk_100y":null,"semi_basement_r":null,"elderly_alone_r":0.3358,"bldg_age30_r":null,"shelter_min_walk":6,"pop":13435,"hh":7898,"elderly65_r":0.3908,"single_hh_r":0.5713,"source_level":"emd","flood_years":[],"landslide_hist_n":0},"geometry":{"type":"Polygon","coordinates":[[[128.4869,35.8339],[128.48605,35.83009],[128.49024,35.828],[128.49529,35.82971],[128.49614,35.83351],[128.49194,35.83561],[128.4869,35.8339]]]}},{"type":"Feature","properties":{"h3":"8830c564a5fffff","emd_code":"2729060200","emd_name":"월성2동","area_km2":0.5335,"edge":true,"slope_mean":1.5,"elev_mean":15.3,"flood_hist_n":0,"flood_depth_max_m":null,"flood_risk_100y":null,"semi_basement_r":null,"elderly_alone_r":0.3358,"bldg_age30_r":null,"shelter_min_walk":22,"pop":13435,"hh":7898,"elderly65_r":0.3908,"single_hh_r":0.5713,"source_level":"emd","flood_years":[],"landslide_hist_n":0},"geometry":{"type":"Polygon","coordinates":[[[128.47177,35.82876],[128.47092,35.82496],[128.47512,35.82286],[128.48016,35.82457],[128.48101,35.82838],[128.47681,35.83048],[128.47177,35.82876]]]}},{"type":"Feature","properties":{"h3":"8830c564a7fffff","emd_code":"2729060200","emd_name":"월성2동","area_km2":0.5335,"edge":false,"slope_mean":2.64,"elev_mean":16.8,"flood_hist_n":0,"flood_depth_max_m":null,"flood_risk_100y":null,"semi_basement_r":null,"elderly_alone_r":0.3358,"bldg_age30_r":null,"shelter_min_walk":15,"pop":13435,"hh":7898,"elderly65_r":0.3908,"single_hh_r":0.5713,"source_level":"emd","flood_years":[],"landslide_hist_n":0},"geometry":{"type":"Polygon","coordinates":[[[128.48101,35.82838],[128.48016,35.82457],[128.48435,35.82248],[128.4894,35.82419],[128.49024,35.828],[128.48605,35.83009],[128.48101,35.82838]]]}},{"type":"Feature","properties":{"h3":"8830c564a9fffff","emd_code":"2729058500","emd_name":"신당동","area_km2":0.5333,"edge":false,"slope_mean":3.01,"elev_mean":23.5,"flood_hist_n":0,"flood_depth_max_m":null,"flood_risk_100y":null,"semi_basement_r":null,"elderly_alone_r":0.1353,"bldg_age30_r":null,"shelter_min_walk":14,"pop":27882,"hh":17322,"elderly65_r":0.21,"single_hh_r":0.6459,"source_level":"emd","flood_years":[],"landslide_hist_n":0},"geometry":{"type":"Polygon","coordinates":[[[128.47431,35.84019],[128.47347,35.83638],[128.47766,35.83428],[128.4827,35.83599],[128.48355,35.8398],[128.47936,35.8419],[128.47431,35.84019]]]}},{"type":"Feature","properties":{"h3":"8830c564abfffff","emd_code":"2729058500","emd_name":"신당동","area_km2":0.5333,"edge":false,"slope_mean":3.65,"elev_mean":24.7,"flood_hist_n":0,"flood_depth_max_m":null,"flood_risk_100y":null,"semi_basement_r":null,"elderly_alone_r":0.1353,"bldg_age30_r":null,"shelter_min_walk":5,"pop":27882,"hh":17322,"elderly65_r":0.21,"single_hh_r":0.6459,"source_level":"emd","flood_years":[],"landslide_hist_n":0},"geometry":{"type":"Polygon","coordinates":[[[128.48355,35.8398],[128.4827,35.83599],[128.4869,35.8339],[128.49194,35.83561],[128.49279,35.83942],[128.48859,35.84151],[128.48355,35.8398]]]}},{"type":"Feature","properties":{"h3":"8830c564adfffff","emd_code":"2729058500","emd_name":"신당동","area_km2":0.5333,"edge":false,"slope_mean":1.52,"elev_mean":16.1,"flood_hist_n":0,"flood_depth_max_m":null,"flood_risk_100y":null,"semi_basement_r":null,"elderly_alone_r":0.1353,"bldg_age30_r":null,"shelter_min_walk":22,"pop":27882,"hh":17322,"elderly65_r":0.21,"single_hh_r":0.6459,"source_level":"emd","flood_years":[],"landslide_hist_n":0},"geometry":{"type":"Polygon","coordinates":[[[128.46842,35.83467],[128.46758,35.83086],[128.47177,35.82876],[128.47681,35.83048],[128.47766,35.83428],[128.47347,35.83638],[128.46842,35.83467]]]}},{"type":"Feature","properties":{"h3":"8830c564b1fffff","emd_code":"2729057700","emd_name":"이곡2동","area_km2":0.5334,"edge":false,"slope_mean":5.18,"elev_mean":33.8,"flood_hist_n":0,"flood_depth_max_m":null,"flood_risk_100y":null,"semi_basement_r":null,"elderly_alone_r":0.1155,"bldg_age30_r":null,"shelter_min_walk":2,"pop":14054,"hh":6891,"elderly65_r":0.2537,"single_hh_r":0.3918,"source_level":"emd","flood_years":[],"landslide_hist_n":0},"geometry":{"type":"Polygon","coordinates":[[[128.50203,35.83903],[128.50118,35.83522],[128.50537,35.83313],[128.51042,35.83484],[128.51126,35.83864],[128.50707,35.84074],[128.50203,35.83903]]]}},{"type":"Feature","properties":{"h3":"8830c564b3fffff","emd_code":"2729056800","emd_name":"장기동","area_km2":0.5335,"edge":false,"slope_mean":7.03,"elev_mean":35.6,"flood_hist_n":0,"flood_depth_max_m":null,"flood_risk_100y":null,"semi_basement_r":null,"elderly_alone_r":0.1256,"bldg_age30_r":null,"shelter_min_walk":6,"pop":15347,"hh":7078,"elderly65_r":0.2165,"single_hh_r":0.3651,"source_level":"emd","flood_years":[],"landslide_hist_n":0},"geometry":{"type":"Polygon","coordinates":[[[128.51126,35.83864],[128.51042,35.83484],[128.51461,35.83274],[128.51965,35.83445],[128.5205,35.83826],[128.51631,35.84035],[128.51126,35.83864]]]}},{"type":"Feature","properties":{"h3":"8830c564b5fffff","emd_code":"2729060200","emd_name":"월성2동","area_km2":0.5335,"edge":false,"slope_mean":2.9,"elev_mean":25.7,"flood_hist_n":0,"flood_depth_max_m":null,"flood_risk_100y":null,"semi_basement_r":null,"elderly_alone_r":0.3358,"bldg_age30_r":null,"shelter_min_walk":11,"pop":13435,"hh":7898,"elderly65_r":0.3908,"single_hh_r":0.5713,"source_level":"emd","flood_years":[],"landslide_hist_n":0},"geometry":{"type":"Polygon","coordinates":[[[128.49614,35.83351],[128.49529,35.82971],[128.49948,35.82761],[128.50452,35.82932],[128.50537,35.83313],[128.50118,35.83522],[128.49614,35.83351]]]}},{"type":"Feature","properties":{"h3":"8830c564b7fffff","emd_code":"2729060200","emd_name":"월성2동","area_km2":0.5335,"edge":false,"slope_mean":3.2,"elev_mean":26.2,"flood_hist_n":0,"flood_depth_max_m":null,"flood_risk_100y":null,"semi_basement_r":null,"elderly_alone_r":0.3358,"bldg_age30_r":null,"shelter_min_walk":7,"pop":13435,"hh":7898,"elderly65_r":0.3908,"single_hh_r":0.5713,"source_level":"emd","flood_years":[],"landslide_hist_n":0},"geometry":{"type":"Polygon","coordinates":[[[128.50537,35.83313],[128.50452,35.82932],[128.50872,35.82722],[128.51376,35.82893],[128.51461,35.83274],[128.51042,35.83484],[128.50537,35.83313]]]}},{"type":"Feature","properties":{"h3":"8830c564b9fffff","emd_code":"2729057700","emd_name":"이곡2동","area_km2":0.5333,"edge":false,"slope_mean":6.18,"elev_mean":39.8,"flood_hist_n":0,"flood_depth_max_m":null,"flood_risk_100y":null,"semi_basement_r":null,"elderly_alone_r":0.1155,"bldg_age30_r":null,"shelter_min_walk":6,"pop":14054,"hh":6891,"elderly65_r":0.2537,"single_hh_r":0.3918,"source_level":"emd","flood_years":[],"landslide_hist_n":0},"geometry":{"type":"Polygon","coordinates":[[[128.49868,35.84493],[128.49783,35.84113],[128.50203,35.83903],[128.50707,35.84074],[128.50792,35.84455],[128.50372,35.84664],[128.49868,35.84493]]]}},{"type":"Feature","properties":{"h3":"8830c564bbfffff","emd_code":"2729056800","emd_name":"장기동","area_km2":0.5334,"edge":false,"slope_mean":6.21,"elev_mean":44.5,"flood_hist_n":0,"flood_depth_max_m":null,"flood_risk_100y":null,"semi_basement_r":null,"elderly_alone_r":0.1256,"bldg_age30_r":null,"shelter_min_walk":9,"pop":15347,"hh":7078,"elderly65_r":0.2165,"single_hh_r":0.3651,"source_level":"emd","flood_years":[],"landslide_hist_n":0},"geometry":{"type":"Polygon","coordinates":[[[128.50792,35.84455],[128.50707,35.84074],[128.51126,35.83864],[128.51631,35.84035],[128.51716,35.84416],[128.51296,35.84626],[128.50792,35.84455]]]}},{"type":"Feature","properties":{"h3":"8830c564bdfffff","emd_code":"2729058500","emd_name":"신당동","area_km2":0.5334,"edge":false,"slope_mean":3.03,"elev_mean":26.3,"flood_hist_n":0,"flood_depth_max_m":null,"flood_risk_100y":null,"semi_basement_r":null,"elderly_alone_r":0.1353,"bldg_age30_r":null,"shelter_min_walk":12,"pop":27882,"hh":17322,"elderly65_r":0.21,"single_hh_r":0.6459,"source_level":"emd","flood_years":[],"landslide_hist_n":0},"geometry":{"type":"Polygon","coordinates":[[[128.49279,35.83942],[128.49194,35.83561],[128.49614,35.83351],[128.50118,35.83522],[128.50203,35.83903],[128.49783,35.84113],[128.49279,35.83942]]]}},{"type":"Feature","properties":{"h3":"8830c564c1fffff","emd_code":"2729058500","emd_name":"신당동","area_km2":0.5329,"edge":false,"slope_mean":13.74,"elev_mean":56.1,"flood_hist_n":0,"flood_depth_max_m":null,"flood_risk_100y":null,"semi_basement_r":null,"elderly_alone_r":0.1353,"bldg_age30_r":null,"shelter_min_walk":8,"pop":27882,"hh":17322,"elderly65_r":0.21,"single_hh_r":0.6459,"source_level":"emd","flood_years":[],"landslide_hist_n":0},"geometry":{"type":"Polygon","coordinates":[[[128.47016,35.8634],[128.46932,35.8596],[128.47351,35.8575],[128.47855,35.85921],[128.4794,35.86302],[128.47521,35.86511],[128.47016,35.8634]]]}},{"type":"Feature","properties":{"h3":"8830c564c3fffff","emd_code":"2729058500","emd_name":"신당동","area_km2":0.5329,"edge":false,"slope_mean":16.88,"elev_mean":106.0,"flood_hist_n":0,"flood_depth_max_m":null,"flood_risk_100y":null,"semi_basement_r":null,"elderly_alone_r":0.1353,"bldg_age30_r":null,"shelter_min_walk":11,"pop":27882,"hh":17322,"elderly65_r":0.21,"single_hh_r":0.6459,"source_level":"emd","flood_years":[],"landslide_hist_n":0},"geometry":{"type":"Polygon","coordinates":[[[128.4794,35.86302],[128.47855,35.85921],[128.48275,35.85712],[128.48779,35.85883],[128.48864,35.86264],[128.48444,35.86473],[128.4794,35.86302]]]}},{"type":"Feature","properties":{"h3":"8830c564c5fffff","emd_code":"2729058500","emd_name":"신당동","area_km2":0.5329,"edge":true,"slope_mean":5.5,"elev_mean":25.4,"flood_hist_n":0,"flood_depth_max_m":null,"flood_risk_100y":null,"semi_basement_r":null,"elderly_alone_r":0.1353,"bldg_age30_r":null,"shelter_min_walk":2,"pop":27882,"hh":17322,"elderly65_r":0.21,"single_hh_r":0.6459,"source_level":"emd","flood_years":[],"landslide_hist_n":0},"geometry":{"type":"Polygon","coordinates":[[[128.46428,35.85789],[128.46343,35.85408],[128.46762,35.85199],[128.47266,35.8537],[128.47351,35.8575],[128.46932,35.8596],[128.46428,35.85789]]]}},{"type":"Feature","properties":{"h3":"8830c564c7fffff","emd_code":"2729058500","emd_name":"신당동","area_km2":0.533,"edge":false,"slope_mean":12.84,"elev_mean":50.8,"flood_hist_n":0,"flood_depth_max_m":null,"flood_risk_100y":null,"semi_basement_r":null,"elderly_alone_r":0.1353,"bldg_age30_r":null,"shelter_min_walk":3,"pop":27882,"hh":17322,"elderly65_r":0.21,"single_hh_r":0.6459,"source_level":"emd","flood_years":[],"landslide_hist_n":0},"geometry":{"type":"Polygon","coordinates":[[[128.47351,35.8575],[128.47266,35.8537],[128.47686,35.8516],[128.4819,35.85331],[128.48275,35.85712],[128.47855,35.85921],[128.47351,35.8575]]]}},{"type":"Feature","properties":{"h3":"8830c564cbfffff","emd_code":"2729058500","emd_name":"신당동","area_km2":0.5328,"edge":true,"slope_mean":20.53,"elev_mean":132.2,"flood_hist_n":0,"flood_depth_max_m":null,"flood_risk_100y":null,"semi_basement_r":null,"elderly_alone_r":0.1353,"bldg_age30_r":null,"shelter_min_walk":12,"pop":27882,"hh":17322,"elderly65_r":0.21,"single_hh_r":0.6459,"source_level":"emd","flood_years":[],"landslide_hist_n":0},"geometry":{"type":"Polygon","coordinates":[[[128.47606,35.86892],[128.47521,35.86511],[128.4794,35.86302],[128.48444,35.86473],[128.48529,35.86853],[128.4811,35.87063],[128.47606,35.86892]]]}},{"type":"Feature","properties":{"h3":"8830c564d1fffff","emd_code":"2729058500","emd_name":"신당동","area_km2":0.5329,"edge":true,"slope_mean":16.27,"elev_mean":99.4,"flood_hist_n":0,"flood_depth_max_m":null,"flood_risk_100y":null,"semi_basement_r":null,"elderly_alone_r":0.1353,"bldg_age30_r":null,"shelter_min_walk":6,"pop":27882,"hh":17322,"elderly65_r":0.21,"single_hh_r":0.6459,"source_level":"emd","flood_years":[],"landslide_hist_n":0},"geometry":{"type":"Polygon","coordinates":[[[128.49453,35.86815],[128.49368,35.86435],[128.49788,35.86225],[128.50292,35.86396],[128.50377,35.86777],[128.49957,35.86986],[128.49453,35.86815]]]}},{"type":"Feature","properties":{"h3":"8830c564d3fffff","emd_code":"2729057600","emd_name":"이곡1동","area_km2":0.5329,"edge":false,"slope_mean":20.54,"elev_mean":150.8,"flood_hist_n":0,"flood_depth_max_m":null,"flood_risk_100y":null,"semi_basement_r":null,"elderly_alone_r":0.1014,"bldg_age30_r":null,"shelter_min_walk":10,"pop":19663,"hh":8934,"elderly65_r":0.1952,"single_hh_r":0.346,"source_level":"emd","flood_years":[],"landslide_hist_n":0},"geometry":{"type":"Polygon","coordinates":[[[128.50377,35.86777],[128.50292,35.86396],[128.50712,35.86187],[128.51216,35.86358],[128.51301,35.86738],[128.50881,35.86947],[128.50377,35.86777]]]}},{"type":"Feature","properties":{"h3":"8830c564d5fffff","emd_code":"2729058500","emd_name":"신당동","area_km2":0.533,"edge":false,"slope_mean":9.89,"elev_mean":58.9,"flood_hist_n":0,"flood_depth_max_m":null,"flood_risk_100y":null,"semi_basement_r":null,"elderly_alone_r":0.1353,"bldg_age30_r":null,"shelter_min_walk":2,"pop":27882,"hh":17322,"elderly65_r":0.21,"single_hh_r":0.6459,"source_level":"emd","flood_years":[],"landslide_hist_n":0},"geometry":{"type":"Polygon","coordinates":[[[128.48864,35.86264],[128.48779,35.85883],[128.49199,35.85674],[128.49703,35.85845],[128.49788,35.86225],[128.49368,35.86435],[128.48864,35.86264]]]}},{"type":"Feature","properties":{"h3":"8830c564d7fffff","emd_code":"2729057700","emd_name":"이곡2동","area_km2":0.533,"edge":false,"slope_mean":9.47,"elev_mean":63.5,"flood_hist_n":0,"flood_depth_max_m":null,"flood_risk_100y":null,"semi_basement_r":null,"elderly_alone_r":0.1155,"bldg_age30_r":null,"shelter_min_walk":2,"pop":14054,"hh":6891,"elderly65_r":0.2537,"single_hh_r":0.3918,"source_level":"emd","flood_years":[],"landslide_hist_n":0},"geometry":{"type":"Polygon","coordinates":[[[128.49788,35.86225],[128.49703,35.85845],[128.50122,35.85635],[128.50627,35.85806],[128.50712,35.86187],[128.50292,35.86396],[128.49788,35.86225]]]}},{"type":"Feature","properties":{"h3":"8830c564ddfffff","emd_code":"2729058500","emd_name":"신당동","area_km2":0.5329,"edge":false,"slope_mean":14.67,"elev_mean":85.4,"flood_hist_n":0,"flood_depth_max_m":null,"flood_risk_100y":null,"semi_basement_r":null,"elderly_alone_r":0.1353,"bldg_age30_r":null,"shelter_min_walk":4,"pop":27882,"hh":17322,"elderly65_r":0.21,"single_hh_r":0.6459,"source_level":"emd","flood_years":[],"landslide_hist_n":0},"geometry":{"type":"Polygon","coordinates":[[[128.48529,35.86853],[128.48444,35.86473],[128.48864,35.86264],[128.49368,35.86435],[128.49453,35.86815],[128.49034,35.87024],[128.48529,35.86853]]]}},{"type":"Feature","properties":{"h3":"8830c564e3fffff","emd_code":"2729058500","emd_name":"신당동","area_km2":0.5332,"edge":false,"slope_mean":3.61,"elev_mean":25.4,"flood_hist_n":0,"flood_depth_max_m":null,"flood_risk_100y":null,"semi_basement_r":null,"elderly_alone_r":0.1353,"bldg_age30_r":null,"shelter_min_walk":10,"pop":27882,"hh":17322,"elderly65_r":0.21,"single_hh_r":0.6459,"source_level":"emd","flood_years":[],"landslide_hist_n":0},"geometry":{"type":"Polygon","coordinates":[[[128.47097,35.84609],[128.47012,35.84228],[128.47431,35.84019],[128.47936,35.8419],[128.4802,35.8457],[128.47601,35.8478],[128.47097,35.84609]]]}},{"type":"Feature","properties":{"h3":"8830c564e7fffff","emd_code":"2729058500","emd_name":"신당동","area_km2":0.5332,"edge":true,"slope_mean":2.34,"elev_mean":17.5,"flood_hist_n":0,"flood_depth_max_m":null,"flood_risk_100y":null,"semi_basement_r":null,"elderly_alone_r":0.1353,"bldg_age30_r":null,"shelter_min_walk":20,"pop":27882,"hh":17322,"elderly65_r":0.21,"single_hh_r":0.6459,"source_level":"emd","flood_years":[],"landslide_hist_n":0},"geometry":{"type":"Polygon","coordinates":[[[128.46508,35.84057],[128.46423,35.83676],[128.46842,35.83467],[128.47347,35.83638],[128.47431,35.84019],[128.47012,35.84228],[128.46508,35.84057]]]}},{"type":"Feature","properties":{"h3":"8830c564ebfffff","emd_code":"2729058500","emd_name":"신당동","area_km2":0.533,"edge":false,"slope_mean":5.26,"elev_mean":25.7,"flood_hist_n":0,"flood_depth_max_m":null,"flood_risk_100y":null,"semi_basement_r":null,"elderly_alone_r":0.1353,"bldg_age30_r":null,"shelter_min_walk":4,"pop":27882,"hh":17322,"elderly65_r":0.21,"single_hh_r":0.6459,"source_level":"emd","flood_years":[],"landslide_hist_n":0},"geometry":{"type":"Polygon","coordinates":[[[128.46762,35.85199],[128.46677,35.84818],[128.47097,35.84609],[128.47601,35.8478],[128.47686,35.8516],[128.47266,35.8537],[128.46762,35.85199]]]}},{"type":"Feature","properties":{"h3":"8830c56593fffff","emd_code":"2729060200","emd_name":"월성2동","area_km2":0.5337,"edge":true,"slope_mean":7.94,"elev_mean":30.0,"flood_hist_n":0,"flood_depth_max_m":null,"flood_risk_100y":null,"semi_basement_r":null,"elderly_alone_r":0.3358,"bldg_age30_r":null,"shelter_min_walk":13,"pop":13435,"hh":7898,"elderly65_r":0.3908,"single_hh_r":0.5713,"source_level":"emd","flood_years":[],"landslide_hist_n":0},"geometry":{"type":"Polygon","coordinates":[[[128.47846,35.81696],[128.47762,35.81315],[128.48181,35.81105],[128.48685,35.81276],[128.4877,35.81657],[128.48351,35.81867],[128.47846,35.81696]]]}},{"type":"Feature","properties":{"h3":"8830c5659bfffff","emd_code":"2729060200","emd_name":"월성2동","area_km2":0.5336,"edge":true,"slope_mean":1.67,"elev_mean":15.0,"flood_hist_n":0,"flood_depth_max_m":null,"flood_risk_100y":null,"semi_basement_r":null,"elderly_alone_r":0.3358,"bldg_age30_r":null,"shelter_min_walk":24,"pop":13435,"hh":7898,"elderly65_r":0.3908,"single_hh_r":0.5713,"source_level":"emd","flood_years":[],"landslide_hist_n":0},"geometry":{"type":"Polygon","coordinates":[[[128.47512,35.82286],[128.47427,35.81905],[128.47846,35.81696],[128.48351,35.81867],[128.48435,35.82248],[128.48016,35.82457],[128.47512,35.82286]]]}}]}