{"type":"FeatureCollection","name":"grid_28125_h3r8","meta":{"sgg_code":"28125","h3_res":8,"n_cells":71,"dem":"Copernicus GLO-30 (bbox-mean)","crs":"EPSG:4326","jumin_basis":"2026-07","flood_src":"행안부 침수흔적도(전국, 재난안전데이터공유플랫폼)","landslide_src":"행안부 산사태 발생이력"},"features":[{"type":"Feature","properties":{"h3":"8830e01693fffff","emd_code":"2812552000","emd_name":"연안동","area_km2":0.5017,"edge":false,"slope_mean":1.61,"elev_mean":3.3,"flood_hist_n":0,"flood_depth_max_m":null,"flood_risk_100y":null,"semi_basement_r":null,"elderly_alone_r":0.2291,"bldg_age30_r":null,"shelter_min_walk":15,"pop":4928,"hh":2828,"elderly65_r":0.3634,"single_hh_r":0.5534,"source_level":"emd","flood_years":[],"landslide_hist_n":0},"geometry":{"type":"Polygon","coordinates":[[[126.59825,37.44691],[126.59771,37.45124],[126.59353,37.45317],[126.58988,37.45078],[126.59042,37.44645],[126.5946,37.44452],[126.59825,37.44691]]]}},{"type":"Feature","properties":{"h3":"8830e01697fffff","emd_code":"2812552000","emd_name":"연안동","area_km2":0.5017,"edge":true,"slope_mean":0.95,"elev_mean":1.6,"flood_hist_n":0,"flood_depth_max_m":null,"flood_risk_100y":null,"semi_basement_r":null,"elderly_alone_r":0.2291,"bldg_age30_r":null,"shelter_min_walk":26,"pop":4928,"hh":2828,"elderly65_r":0.3634,"single_hh_r":0.5534,"source_level":"emd","flood_years":[],"landslide_hist_n":0},"geometry":{"type":"Polygon","coordinates":[[[126.59514,37.4402],[126.5946,37.44452],[126.59042,37.44645],[126.58678,37.44406],[126.58732,37.43974],[126.59149,37.4378],[126.59514,37.4402]]]}},{"type":"Feature","properties":{"h3":"8830e0169bfffff","emd_code":"2812552000","emd_name":"연안동","area_km2":0.5017,"edge":true,"slope_mean":0.01,"elev_mean":0.0,"flood_hist_n":0,"flood_depth_max_m":null,"flood_risk_100y":null,"semi_basement_r":null,"elderly_alone_r":0.2291,"bldg_age30_r":null,"shelter_min_walk":16,"pop":4928,"hh":2828,"elderly65_r":0.3634,"single_hh_r":0.5534,"source_level":"emd","flood_years":[],"landslide_hist_n":0},"geometry":{"type":"Polygon","coordinates":[[[126.59353,37.45317],[126.59299,37.45749],[126.58881,37.45943],[126.58517,37.45703],[126.5857,37.45271],[126.58988,37.45078],[126.59353,37.45317]]]}},{"type":"Feature","properties":{"h3":"8830e0aa01fffff","emd_code":"2812562000","emd_name":"송현3동","area_km2":0.5025,"edge":false,"slope_mean":5.45,"elev_mean":9.3,"flood_hist_n":0,"flood_depth_max_m":null,"flood_risk_100y":null,"semi_basement_r":null,"elderly_alone_r":0.3009,"bldg_age30_r":null,"shelter_min_walk":12,"pop":2544,"hh":1512,"elderly65_r":0.4072,"single_hh_r":0.5582,"source_level":"emd","flood_years":[],"landslide_hist_n":0},"geometry":{"type":"Polygon","coordinates":[[[126.64824,37.48906],[126.64771,37.49339],[126.64352,37.49532],[126.63987,37.49293],[126.64041,37.4886],[126.64459,37.48667],[126.64824,37.48906]]]}},{"type":"Feature","properties":{"h3":"8830e0aa03fffff","emd_code":"2812562000","emd_name":"송현3동","area_km2":0.5026,"edge":true,"slope_mean":3.34,"elev_mean":8.0,"flood_hist_n":0,"flood_depth_max_m":null,"flood_risk_100y":null,"semi_basement_r":null,"elderly_alone_r":0.3009,"bldg_age30_r":null,"shelter_min_walk":9,"pop":2544,"hh":1512,"elderly65_r":0.4072,"single_hh_r":0.5582,"source_level":"emd","flood_years":[],"landslide_hist_n":0},"geometry":{"type":"Polygon","coordinates":[[[126.65608,37.48952],[126.65555,37.49385],[126.65136,37.49578],[126.64771,37.49339],[126.64824,37.48906],[126.65243,37.48713],[126.65608,37.48952]]]}},{"type":"Feature","properties":{"h3":"8830e0aa05fffff","emd_code":"2812562000","emd_name":"송현3동","area_km2":0.5025,"edge":false,"slope_mean":6.72,"elev_mean":13.1,"flood_hist_n":0,"flood_depth_max_m":null,"flood_risk_100y":null,"semi_basement_r":null,"elderly_alone_r":0.3009,"bldg_age30_r":null,"shelter_min_walk":8,"pop":2544,"hh":1512,"elderly65_r":0.4072,"single_hh_r":0.5582,"source_level":"emd","flood_years":[],"landslide_hist_n":0},"geometry":{"type":"Polygon","coordinates":[[[126.64513,37.48234],[126.64459,37.48667],[126.64041,37.4886],[126.63676,37.48621],[126.63729,37.48188],[126.64148,37.47995],[126.64513,37.48234]]]}},{"type":"Feature","properties":{"h3":"8830e0aa07fffff","emd_code":"2812567000","emd_name":"송림6동","area_km2":0.5026,"edge":false,"slope_mean":3.22,"elev_mean":8.8,"flood_hist_n":0,"flood_depth_max_m":null,"flood_risk_100y":null,"semi_basement_r":null,"elderly_alone_r":0.1457,"bldg_age30_r":null,"shelter_min_walk":1,"pop":7671,"hh":3515,"elderly65_r":0.2392,"single_hh_r":0.373,"source_level":"emd","flood_years":[],"landslide_hist_n":0},"geometry":{"type":"Polygon","coordinates":[[[126.65296,37.4828],[126.65243,37.48713],[126.64824,37.48906],[126.64459,37.48667],[126.64513,37.48234],[126.64931,37.48041],[126.65296,37.4828]]]}},{"type":"Feature","properties":{"h3":"8830e0aa09fffff","emd_code":"2812562000","emd_name":"송현3동","area_km2":0.5025,"edge":true,"slope_mean":2.12,"elev_mean":3.8,"flood_hist_n":0,"flood_depth_max_m":null,"flood_risk_100y":null,"semi_basement_r":null,"elderly_alone_r":0.3009,"bldg_age30_r":null,"shelter_min_walk":24,"pop":2544,"hh":1512,"elderly65_r":0.4072,"single_hh_r":0.5582,"source_level":"emd","flood_years":[],"landslide_hist_n":0},"geometry":{"type":"Polygon","coordinates":[[[126.64352,37.49532],[126.64299,37.49965],[126.6388,37.50158],[126.63515,37.49919],[126.63569,37.49486],[126.63987,37.49293],[126.64352,37.49532]]]}},{"type":"Feature","properties":{"h3":"8830e0aa0dfffff","emd_code":"2812562000","emd_name":"송현3동","area_km2":0.5024,"edge":false,"slope_mean":6.79,"elev_mean":11.0,"flood_hist_n":0,"flood_depth_max_m":null,"flood_risk_100y":null,"semi_basement_r":null,"elderly_alone_r":0.3009,"bldg_age30_r":null,"shelter_min_walk":16,"pop":2544,"hh":1512,"elderly65_r":0.4072,"single_hh_r":0.5582,"source_level":"emd","flood_years":[],"landslide_hist_n":0},"geometry":{"type":"Polygon","coordinates":[[[126.64041,37.4886],[126.63987,37.49293],[126.63569,37.49486],[126.63204,37.49247],[126.63257,37.48814],[126.63676,37.48621],[126.64041,37.4886]]]}},{"type":"Feature","properties":{"h3":"8830e0aa21fffff","emd_code":"2812568000","emd_name":"금창동","area_km2":0.5025,"edge":false,"slope_mean":6.28,"elev_mean":21.9,"flood_hist_n":0,"flood_depth_max_m":null,"flood_risk_100y":null,"semi_basement_r":null,"elderly_alone_r":0.3257,"bldg_age30_r":null,"shelter_min_walk":1,"pop":2091,"hh":1219,"elderly65_r":0.4495,"single_hh_r":0.5562,"source_level":"emd","flood_years":[],"landslide_hist_n":0},"geometry":{"type":"Polygon","coordinates":[[[126.64673,37.46936],[126.64619,37.47369],[126.64201,37.47562],[126.63836,37.47323],[126.63889,37.4689],[126.64308,37.46697],[126.64673,37.46936]]]}},{"type":"Feature","properties":{"h3":"8830e0aa23fffff","emd_code":"2812565000","emd_name":"송림3·5동","area_km2":0.5026,"edge":false,"slope_mean":7.3,"elev_mean":31.7,"flood_hist_n":0,"flood_depth_max_m":null,"flood_risk_100y":null,"semi_basement_r":null,"elderly_alone_r":0.1662,"bldg_age30_r":null,"shelter_min_walk":1,"pop":5036,"hh":2311,"elderly65_r":0.2836,"single_hh_r":0.3721,"source_level":"emd","flood_years":[],"landslide_hist_n":0},"geometry":{"type":"Polygon","coordinates":[[[126.65456,37.46982],[126.65403,37.47414],[126.64985,37.47608],[126.64619,37.47369],[126.64673,37.46936],[126.65091,37.46743],[126.65456,37.46982]]]}},{"type":"Feature","properties":{"h3":"8830e0aa25fffff","emd_code":"2812553000","emd_name":"신흥동","area_km2":0.5024,"edge":false,"slope_mean":5.11,"elev_mean":14.9,"flood_hist_n":0,"flood_depth_max_m":null,"flood_risk_100y":null,"semi_basement_r":null,"elderly_alone_r":0.1545,"bldg_age30_r":null,"shelter_min_walk":4,"pop":14081,"hh":7056,"elderly65_r":0.2452,"single_hh_r":0.4442,"source_level":"emd","flood_years":[],"landslide_hist_n":0},"geometry":{"type":"Polygon","coordinates":[[[126.64361,37.46264],[126.64308,37.46697],[126.63889,37.4689],[126.63525,37.46651],[126.63578,37.46218],[126.63996,37.46025],[126.64361,37.46264]]]}},{"type":"Feature","properties":{"h3":"8830e0aa29fffff","emd_code":"2812561000","emd_name":"송현1·2동","area_km2":0.5024,"edge":false,"slope_mean":6.85,"elev_mean":20.6,"flood_hist_n":0,"flood_depth_max_m":null,"flood_risk_100y":null,"semi_basement_r":null,"elderly_alone_r":0.1464,"bldg_age30_r":null,"shelter_min_walk":4,"pop":9316,"hh":4276,"elderly65_r":0.2794,"single_hh_r":0.3592,"source_level":"emd","flood_years":[],"landslide_hist_n":0},"geometry":{"type":"Polygon","coordinates":[[[126.64201,37.47562],[126.64148,37.47995],[126.63729,37.48188],[126.63364,37.47949],[126.63418,37.47516],[126.63836,37.47323],[126.64201,37.47562]]]}},{"type":"Feature","properties":{"h3":"8830e0aa2bfffff","emd_code":"2812567000","emd_name":"송림6동","area_km2":0.5025,"edge":false,"slope_mean":5.81,"elev_mean":16.1,"flood_hist_n":0,"flood_depth_max_m":null,"flood_risk_100y":null,"semi_basement_r":null,"elderly_alone_r":0.1457,"bldg_age30_r":null,"shelter_min_walk":4,"pop":7671,"hh":3515,"elderly65_r":0.2392,"single_hh_r":0.373,"source_level":"emd","flood_years":[],"landslide_hist_n":0},"geometry":{"type":"Polygon","coordinates":[[[126.64985,37.47608],[126.64931,37.48041],[126.64513,37.48234],[126.64148,37.47995],[126.64201,37.47562],[126.64619,37.47369],[126.64985,37.47608]]]}},{"type":"Feature","properties":{"h3":"8830e0aa2dfffff","emd_code":"2812555000","emd_name":"율목동","area_km2":0.5023,"edge":false,"slope_mean":5.53,"elev_mean":17.5,"flood_hist_n":0,"flood_depth_max_m":null,"flood_risk_100y":null,"semi_basement_r":null,"elderly_alone_r":0.2817,"bldg_age30_r":null,"shelter_min_walk":4,"pop":3027,"hh":1892,"elderly65_r":0.3485,"single_hh_r":0.6099,"source_level":"emd","flood_years":[],"landslide_hist_n":0},"geometry":{"type":"Polygon","coordinates":[[[126.63889,37.4689],[126.63836,37.47323],[126.63418,37.47516],[126.63053,37.47277],[126.63106,37.46844],[126.63525,37.46651],[126.63889,37.4689]]]}},{"type":"Feature","properties":{"h3":"8830e0aa31fffff","emd_code":"2812566000","emd_name":"송림4동","area_km2":0.5027,"edge":true,"slope_mean":3.65,"elev_mean":9.6,"flood_hist_n":0,"flood_depth_max_m":null,"flood_risk_100y":null,"semi_basement_r":null,"elderly_alone_r":0.0783,"bldg_age30_r":null,"shelter_min_walk":6,"pop":5872,"hh":2491,"elderly65_r":0.1829,"single_hh_r":0.2838,"source_level":"emd","flood_years":[],"landslide_hist_n":0},"geometry":{"type":"Polygon","coordinates":[[[126.66552,37.477],[126.66499,37.48132],[126.6608,37.48326],[126.65715,37.48087],[126.65768,37.47654],[126.66187,37.4746],[126.66552,37.477]]]}},{"type":"Feature","properties":{"h3":"8830e0aa39fffff","emd_code":"2812566000","emd_name":"송림4동","area_km2":0.5027,"edge":false,"slope_mean":3.73,"elev_mean":9.2,"flood_hist_n":0,"flood_depth_max_m":null,"flood_risk_100y":null,"semi_basement_r":null,"elderly_alone_r":0.0783,"bldg_age30_r":null,"shelter_min_walk":4,"pop":5872,"hh":2491,"elderly65_r":0.1829,"single_hh_r":0.2838,"source_level":"emd","flood_years":[],"landslide_hist_n":0},"geometry":{"type":"Polygon","coordinates":[[[126.6608,37.48326],[126.66027,37.48759],[126.65608,37.48952],[126.65243,37.48713],[126.65296,37.4828],[126.65715,37.48087],[126.6608,37.48326]]]}},{"type":"Feature","properties":{"h3":"8830e0aa3bfffff","emd_code":"2812566000","emd_name":"송림4동","area_km2":0.5028,"edge":true,"slope_mean":4.48,"elev_mean":9.9,"flood_hist_n":0,"flood_depth_max_m":null,"flood_risk_100y":null,"semi_basement_r":null,"elderly_alone_r":0.0783,"bldg_age30_r":null,"shelter_min_walk":6,"pop":5872,"hh":2491,"elderly65_r":0.1829,"single_hh_r":0.2838,"source_level":"emd","flood_years":[],"landslide_hist_n":0},"geometry":{"type":"Polygon","coordinates":[[[126.66864,37.48372],[126.66811,37.48804],[126.66392,37.48998],[126.66027,37.48759],[126.6608,37.48326],[126.66499,37.48132],[126.66864,37.48372]]]}},{"type":"Feature","properties":{"h3":"8830e0aa3dfffff","emd_code":"2812566000","emd_name":"송림4동","area_km2":0.5026,"edge":false,"slope_mean":6.52,"elev_mean":21.0,"flood_hist_n":0,"flood_depth_max_m":null,"flood_risk_100y":null,"semi_basement_r":null,"elderly_alone_r":0.0783,"bldg_age30_r":null,"shelter_min_walk":3,"pop":5872,"hh":2491,"elderly65_r":0.1829,"single_hh_r":0.2838,"source_level":"emd","flood_years":[],"landslide_hist_n":0},"geometry":{"type":"Polygon","coordinates":[[[126.65768,37.47654],[126.65715,37.48087],[126.65296,37.4828],[126.64931,37.48041],[126.64985,37.47608],[126.65403,37.47414],[126.65768,37.47654]]]}},{"type":"Feature","properties":{"h3":"8830e0aa47fffff","emd_code":"2812562000","emd_name":"송현3동","area_km2":0.5024,"edge":true,"slope_mean":1.79,"elev_mean":2.5,"flood_hist_n":0,"flood_depth_max_m":null,"flood_risk_100y":null,"semi_basement_r":null,"elderly_alone_r":0.3009,"bldg_age30_r":null,"shelter_min_walk":22,"pop":2544,"hh":1512,"elderly65_r":0.4072,"single_hh_r":0.5582,"source_level":"emd","flood_years":[],"landslide_hist_n":0},"geometry":{"type":"Polygon","coordinates":[[[126.63569,37.49486],[126.63515,37.49919],[126.63097,37.50112],[126.62732,37.49873],[126.62785,37.4944],[126.63204,37.49247],[126.63569,37.49486]]]}},{"type":"Feature","properties":{"h3":"8830e0aa61fffff","emd_code":"2812558000","emd_name":"만석동","area_km2":0.5022,"edge":false,"slope_mean":4.83,"elev_mean":13.6,"flood_hist_n":0,"flood_depth_max_m":null,"flood_risk_100y":null,"semi_basement_r":null,"elderly_alone_r":0.2213,"bldg_age30_r":null,"shelter_min_walk":3,"pop":6030,"hh":3046,"elderly65_r":0.3101,"single_hh_r":0.4435,"source_level":"emd","flood_years":[],"landslide_hist_n":0},"geometry":{"type":"Polygon","coordinates":[[[126.62946,37.48142],[126.62892,37.48575],[126.62474,37.48768],[126.62109,37.48529],[126.62162,37.48096],[126.62581,37.47903],[126.62946,37.48142]]]}},{"type":"Feature","properties":{"h3":"8830e0aa63fffff","emd_code":"2812560000","emd_name":"화수2동","area_km2":0.5024,"edge":false,"slope_mean":5.33,"elev_mean":11.2,"flood_hist_n":0,"flood_depth_max_m":null,"flood_risk_100y":null,"semi_basement_r":null,"elderly_alone_r":0.2625,"bldg_age30_r":null,"shelter_min_walk":7,"pop":6518,"hh":3551,"elderly65_r":0.3817,"single_hh_r":0.4985,"source_level":"emd","flood_years":[],"landslide_hist_n":0},"geometry":{"type":"Polygon","coordinates":[[[126.63729,37.48188],[126.63676,37.48621],[126.63257,37.48814],[126.62892,37.48575],[126.62946,37.48142],[126.63364,37.47949],[126.63729,37.48188]]]}},{"type":"Feature","properties":{"h3":"8830e0aa65fffff","emd_code":"2812557000","emd_name":"개항동","area_km2":0.5022,"edge":false,"slope_mean":9.17,"elev_mean":30.1,"flood_hist_n":0,"flood_depth_max_m":null,"flood_risk_100y":null,"semi_basement_r":null,"elderly_alone_r":0.2375,"bldg_age30_r":null,"shelter_min_walk":5,"pop":6424,"hh":3815,"elderly65_r":0.3587,"single_hh_r":0.5696,"source_level":"emd","flood_years":[],"landslide_hist_n":0},"geometry":{"type":"Polygon","coordinates":[[[126.62634,37.4747],[126.62581,37.47903],[126.62162,37.48096],[126.61798,37.47857],[126.61851,37.47424],[126.6227,37.47231],[126.62634,37.4747]]]}},{"type":"Feature","properties":{"h3":"8830e0aa67fffff","emd_code":"2812556000","emd_name":"동인천동","area_km2":0.5023,"edge":false,"slope_mean":5.96,"elev_mean":19.3,"flood_hist_n":0,"flood_depth_max_m":null,"flood_risk_100y":null,"semi_basement_r":null,"elderly_alone_r":0.303,"bldg_age30_r":null,"shelter_min_walk":3,"pop":5163,"hh":3274,"elderly65_r":0.3833,"single_hh_r":0.6436,"source_level":"emd","flood_years":[],"landslide_hist_n":0},"geometry":{"type":"Polygon","coordinates":[[[126.63418,37.47516],[126.63364,37.47949],[126.62946,37.48142],[126.62581,37.47903],[126.62634,37.4747],[126.63053,37.47277],[126.63418,37.47516]]]}},{"type":"Feature","properties":{"h3":"8830e0aa69fffff","emd_code":"2812558000","emd_name":"만석동","area_km2":0.5022,"edge":false,"slope_mean":3.0,"elev_mean":4.8,"flood_hist_n":0,"flood_depth_max_m":null,"flood_risk_100y":null,"semi_basement_r":null,"elderly_alone_r":0.2213,"bldg_age30_r":null,"shelter_min_walk":7,"pop":6030,"hh":3046,"elderly65_r":0.3101,"single_hh_r":0.4435,"source_level":"emd","flood_years":[],"landslide_hist_n":0},"geometry":{"type":"Polygon","coordinates":[[[126.62474,37.48768],[126.6242,37.49201],[126.62002,37.49394],[126.61637,37.49155],[126.61691,37.48722],[126.62109,37.48529],[126.62474,37.48768]]]}},{"type":"Feature","properties":{"h3":"8830e0aa6bfffff","emd_code":"2812560000","emd_name":"화수2동","area_km2":0.5023,"edge":true,"slope_mean":4.43,"elev_mean":6.9,"flood_hist_n":0,"flood_depth_max_m":null,"flood_risk_100y":null,"semi_basement_r":null,"elderly_alone_r":0.2625,"bldg_age30_r":null,"shelter_min_walk":11,"pop":6518,"hh":3551,"elderly65_r":0.3817,"single_hh_r":0.4985,"source_level":"emd","flood_years":[],"landslide_hist_n":0},"geometry":{"type":"Polygon","coordinates":[[[126.63257,37.48814],[126.63204,37.49247],[126.62785,37.4944],[126.6242,37.49201],[126.62474,37.48768],[126.62892,37.48575],[126.63257,37.48814]]]}},{"type":"Feature","properties":{"h3":"8830e0aa6dfffff","emd_code":"2812557000","emd_name":"개항동","area_km2":0.5021,"edge":false,"slope_mean":4.38,"elev_mean":8.1,"flood_hist_n":0,"flood_depth_max_m":null,"flood_risk_100y":null,"semi_basement_r":null,"elderly_alone_r":0.2375,"bldg_age30_r":null,"shelter_min_walk":7,"pop":6424,"hh":3815,"elderly65_r":0.3587,"single_hh_r":0.5696,"source_level":"emd","flood_years":[],"landslide_hist_n":0},"geometry":{"type":"Polygon","coordinates":[[[126.62162,37.48096],[126.62109,37.48529],[126.61691,37.48722],[126.61326,37.48483],[126.61379,37.4805],[126.61798,37.47857],[126.62162,37.48096]]]}},{"type":"Feature","properties":{"h3":"8830e0ab01fffff","emd_code":"2812553000","emd_name":"신흥동","area_km2":0.5021,"edge":false,"slope_mean":3.02,"elev_mean":8.7,"flood_hist_n":0,"flood_depth_max_m":null,"flood_risk_100y":null,"semi_basement_r":null,"elderly_alone_r":0.1545,"bldg_age30_r":null,"shelter_min_walk":10,"pop":14081,"hh":7056,"elderly65_r":0.2452,"single_hh_r":0.4442,"source_level":"emd","flood_years":[],"landslide_hist_n":0},"geometry":{"type":"Polygon","coordinates":[[[126.62644,37.44203],[126.62591,37.44635],[126.62172,37.44829],[126.61808,37.4459],[126.61861,37.44157],[126.62279,37.43964],[126.62644,37.44203]]]}},{"type":"Feature","properties":{"h3":"8830e0ab03fffff","emd_code":"2812553000","emd_name":"신흥동","area_km2":0.5022,"edge":false,"slope_mean":2.94,"elev_mean":6.6,"flood_hist_n":0,"flood_depth_max_m":null,"flood_risk_100y":null,"semi_basement_r":null,"elderly_alone_r":0.1545,"bldg_age30_r":null,"shelter_min_walk":7,"pop":14081,"hh":7056,"elderly65_r":0.2452,"single_hh_r":0.4442,"source_level":"emd","flood_years":[],"landslide_hist_n":0},"geometry":{"type":"Polygon","coordinates":[[[126.63427,37.44249],[126.63373,37.44681],[126.62955,37.44875],[126.62591,37.44635],[126.62644,37.44203],[126.63062,37.44009],[126.63427,37.44249]]]}},{"type":"Feature","properties":{"h3":"8830e0ab05fffff","emd_code":"2812553000","emd_name":"신흥동","area_km2":0.502,"edge":false,"slope_mean":3.56,"elev_mean":8.6,"flood_hist_n":0,"flood_depth_max_m":null,"flood_risk_100y":null,"semi_basement_r":null,"elderly_alone_r":0.1545,"bldg_age30_r":null,"shelter_min_walk":14,"pop":14081,"hh":7056,"elderly65_r":0.2452,"single_hh_r":0.4442,"source_level":"emd","flood_years":[],"landslide_hist_n":0},"geometry":{"type":"Polygon","coordinates":[[[126.62333,37.43531],[126.62279,37.43964],[126.61861,37.44157],[126.61497,37.43918],[126.6155,37.43485],[126.61968,37.43292],[126.62333,37.43531]]]}},{"type":"Feature","properties":{"h3":"8830e0ab07fffff","emd_code":"2812553000","emd_name":"신흥동","area_km2":0.5021,"edge":false,"slope_mean":3.06,"elev_mean":8.4,"flood_hist_n":0,"flood_depth_max_m":null,"flood_risk_100y":null,"semi_basement_r":null,"elderly_alone_r":0.1545,"bldg_age30_r":null,"shelter_min_walk":5,"pop":14081,"hh":7056,"elderly65_r":0.2452,"single_hh_r":0.4442,"source_level":"emd","flood_years":[],"landslide_hist_n":0},"geometry":{"type":"Polygon","coordinates":[[[126.63116,37.43577],[126.63062,37.44009],[126.62644,37.44203],[126.62279,37.43964],[126.62333,37.43531],[126.62751,37.43338],[126.63116,37.43577]]]}},{"type":"Feature","properties":{"h3":"8830e0ab09fffff","emd_code":"2812552000","emd_name":"연안동","area_km2":0.502,"edge":false,"slope_mean":3.24,"elev_mean":8.9,"flood_hist_n":0,"flood_depth_max_m":null,"flood_risk_100y":null,"semi_basement_r":null,"elderly_alone_r":0.2291,"bldg_age30_r":null,"shelter_min_walk":19,"pop":4928,"hh":2828,"elderly65_r":0.3634,"single_hh_r":0.5534,"source_level":"emd","flood_years":[],"landslide_hist_n":0},"geometry":{"type":"Polygon","coordinates":[[[126.62172,37.44829],[126.62119,37.45261],[126.61701,37.45455],[126.61336,37.45216],[126.6139,37.44783],[126.61808,37.4459],[126.62172,37.44829]]]}},{"type":"Feature","properties":{"h3":"8830e0ab0bfffff","emd_code":"2812552000","emd_name":"연안동","area_km2":0.5022,"edge":false,"slope_mean":2.95,"elev_mean":8.2,"flood_hist_n":0,"flood_depth_max_m":null,"flood_risk_100y":null,"semi_basement_r":null,"elderly_alone_r":0.2291,"bldg_age30_r":null,"shelter_min_walk":9,"pop":4928,"hh":2828,"elderly65_r":0.3634,"single_hh_r":0.5534,"source_level":"emd","flood_years":[],"landslide_hist_n":0},"geometry":{"type":"Polygon","coordinates":[[[126.62955,37.44875],[126.62902,37.45307],[126.62484,37.45501],[126.62119,37.45261],[126.62172,37.44829],[126.62591,37.44635],[126.62955,37.44875]]]}},{"type":"Feature","properties":{"h3":"8830e0ab0dfffff","emd_code":"2812552000","emd_name":"연안동","area_km2":0.502,"edge":true,"slope_mean":2.66,"elev_mean":5.1,"flood_hist_n":0,"flood_depth_max_m":null,"flood_risk_100y":null,"semi_basement_r":null,"elderly_alone_r":0.2291,"bldg_age30_r":null,"shelter_min_walk":20,"pop":4928,"hh":2828,"elderly65_r":0.3634,"single_hh_r":0.5534,"source_level":"emd","flood_years":[],"landslide_hist_n":0},"geometry":{"type":"Polygon","coordinates":[[[126.61861,37.44157],[126.61808,37.4459],[126.6139,37.44783],[126.61025,37.44544],[126.61079,37.44111],[126.61497,37.43918],[126.61861,37.44157]]]}},{"type":"Feature","properties":{"h3":"8830e0ab19fffff","emd_code":"2812553000","emd_name":"신흥동","area_km2":0.5023,"edge":true,"slope_mean":3.74,"elev_mean":8.7,"flood_hist_n":0,"flood_depth_max_m":null,"flood_risk_100y":null,"semi_basement_r":null,"elderly_alone_r":0.1545,"bldg_age30_r":null,"shelter_min_walk":2,"pop":14081,"hh":7056,"elderly65_r":0.2452,"single_hh_r":0.4442,"source_level":"emd","flood_years":[],"landslide_hist_n":0},"geometry":{"type":"Polygon","coordinates":[[[126.6405,37.45592],[126.63996,37.46025],[126.63578,37.46218],[126.63213,37.45979],[126.63267,37.45546],[126.63685,37.45353],[126.6405,37.45592]]]}},{"type":"Feature","properties":{"h3":"8830e0ab1dfffff","emd_code":"2812553000","emd_name":"신흥동","area_km2":0.5023,"edge":true,"slope_mean":3.74,"elev_mean":8.4,"flood_hist_n":0,"flood_depth_max_m":null,"flood_risk_100y":null,"semi_basement_r":null,"elderly_alone_r":0.1545,"bldg_age30_r":null,"shelter_min_walk":3,"pop":14081,"hh":7056,"elderly65_r":0.2452,"single_hh_r":0.4442,"source_level":"emd","flood_years":[],"landslide_hist_n":0},"geometry":{"type":"Polygon","coordinates":[[[126.63738,37.4492],[126.63685,37.45353],[126.63267,37.45546],[126.62902,37.45307],[126.62955,37.44875],[126.63373,37.44681],[126.63738,37.4492]]]}},{"type":"Feature","properties":{"h3":"8830e0ab29fffff","emd_code":"2812553000","emd_name":"신흥동","area_km2":0.502,"edge":false,"slope_mean":2.48,"elev_mean":4.6,"flood_hist_n":0,"flood_depth_max_m":null,"flood_risk_100y":null,"semi_basement_r":null,"elderly_alone_r":0.1545,"bldg_age30_r":null,"shelter_min_walk":24,"pop":14081,"hh":7056,"elderly65_r":0.2452,"single_hh_r":0.4442,"source_level":"emd","flood_years":[],"landslide_hist_n":0},"geometry":{"type":"Polygon","coordinates":[[[126.62022,37.4286],[126.61968,37.43292],[126.6155,37.43485],[126.61186,37.43246],[126.61239,37.42814],[126.61657,37.4262],[126.62022,37.4286]]]}},{"type":"Feature","properties":{"h3":"8830e0ab2bfffff","emd_code":"2812553000","emd_name":"신흥동","area_km2":0.5021,"edge":false,"slope_mean":3.06,"elev_mean":5.6,"flood_hist_n":0,"flood_depth_max_m":null,"flood_risk_100y":null,"semi_basement_r":null,"elderly_alone_r":0.1545,"bldg_age30_r":null,"shelter_min_walk":17,"pop":14081,"hh":7056,"elderly65_r":0.2452,"single_hh_r":0.4442,"source_level":"emd","flood_years":[],"landslide_hist_n":0},"geometry":{"type":"Polygon","coordinates":[[[126.62804,37.42905],[126.62751,37.43338],[126.62333,37.43531],[126.61968,37.43292],[126.62022,37.4286],[126.6244,37.42666],[126.62804,37.42905]]]}},{"type":"Feature","properties":{"h3":"8830e0ab39fffff","emd_code":"2812553000","emd_name":"신흥동","area_km2":0.5023,"edge":true,"slope_mean":2.77,"elev_mean":3.8,"flood_hist_n":0,"flood_depth_max_m":null,"flood_risk_100y":null,"semi_basement_r":null,"elderly_alone_r":0.1545,"bldg_age30_r":null,"shelter_min_walk":9,"pop":14081,"hh":7056,"elderly65_r":0.2452,"single_hh_r":0.4442,"source_level":"emd","flood_years":[],"landslide_hist_n":0},"geometry":{"type":"Polygon","coordinates":[[[126.63898,37.43622],[126.63845,37.44055],[126.63427,37.44249],[126.63062,37.44009],[126.63116,37.43577],[126.63534,37.43383],[126.63898,37.43622]]]}},{"type":"Feature","properties":{"h3":"8830e0ab3dfffff","emd_code":"2812553000","emd_name":"신흥동","area_km2":0.5022,"edge":false,"slope_mean":2.76,"elev_mean":4.4,"flood_hist_n":0,"flood_depth_max_m":null,"flood_risk_100y":null,"semi_basement_r":null,"elderly_alone_r":0.1545,"bldg_age30_r":null,"shelter_min_walk":16,"pop":14081,"hh":7056,"elderly65_r":0.2452,"single_hh_r":0.4442,"source_level":"emd","flood_years":[],"landslide_hist_n":0},"geometry":{"type":"Polygon","coordinates":[[[126.63587,37.42951],[126.63534,37.43383],[126.63116,37.43577],[126.62751,37.43338],[126.62804,37.42905],[126.63222,37.42712],[126.63587,37.42951]]]}},{"type":"Feature","properties":{"h3":"8830e0ab41fffff","emd_code":"2812552000","emd_name":"연안동","area_km2":0.5019,"edge":false,"slope_mean":3.15,"elev_mean":7.4,"flood_hist_n":0,"flood_depth_max_m":null,"flood_risk_100y":null,"semi_basement_r":null,"elderly_alone_r":0.2291,"bldg_age30_r":null,"shelter_min_walk":4,"pop":4928,"hh":2828,"elderly65_r":0.3634,"single_hh_r":0.5534,"source_level":"emd","flood_years":[],"landslide_hist_n":0},"geometry":{"type":"Polygon","coordinates":[[[126.60918,37.45409],[126.60864,37.45841],[126.60446,37.46035],[126.60082,37.45795],[126.60135,37.45363],[126.60553,37.4517],[126.60918,37.45409]]]}},{"type":"Feature","properties":{"h3":"8830e0ab43fffff","emd_code":"2812552000","emd_name":"연안동","area_km2":0.502,"edge":false,"slope_mean":2.62,"elev_mean":7.2,"flood_hist_n":0,"flood_depth_max_m":null,"flood_risk_100y":null,"semi_basement_r":null,"elderly_alone_r":0.2291,"bldg_age30_r":null,"shelter_min_walk":15,"pop":4928,"hh":2828,"elderly65_r":0.3634,"single_hh_r":0.5534,"source_level":"emd","flood_years":[],"landslide_hist_n":0},"geometry":{"type":"Polygon","coordinates":[[[126.61701,37.45455],[126.61647,37.45887],[126.61229,37.46081],[126.60864,37.45841],[126.60918,37.45409],[126.61336,37.45216],[126.61701,37.45455]]]}},{"type":"Feature","properties":{"h3":"8830e0ab45fffff","emd_code":"2812552000","emd_name":"연안동","area_km2":0.5018,"edge":false,"slope_mean":2.68,"elev_mean":7.7,"flood_hist_n":0,"flood_depth_max_m":null,"flood_risk_100y":null,"semi_basement_r":null,"elderly_alone_r":0.2291,"bldg_age30_r":null,"shelter_min_walk":10,"pop":4928,"hh":2828,"elderly65_r":0.3634,"single_hh_r":0.5534,"source_level":"emd","flood_years":[],"landslide_hist_n":0},"geometry":{"type":"Polygon","coordinates":[[[126.60607,37.44737],[126.60553,37.4517],[126.60135,37.45363],[126.59771,37.45124],[126.59825,37.44691],[126.60243,37.44498],[126.60607,37.44737]]]}},{"type":"Feature","properties":{"h3":"8830e0ab47fffff","emd_code":"2812552000","emd_name":"연안동","area_km2":0.5019,"edge":true,"slope_mean":2.21,"elev_mean":3.6,"flood_hist_n":0,"flood_depth_max_m":null,"flood_risk_100y":null,"semi_basement_r":null,"elderly_alone_r":0.2291,"bldg_age30_r":null,"shelter_min_walk":14,"pop":4928,"hh":2828,"elderly65_r":0.3634,"single_hh_r":0.5534,"source_level":"emd","flood_years":[],"landslide_hist_n":0},"geometry":{"type":"Polygon","coordinates":[[[126.6139,37.44783],[126.61336,37.45216],[126.60918,37.45409],[126.60553,37.4517],[126.60607,37.44737],[126.61025,37.44544],[126.6139,37.44783]]]}},{"type":"Feature","properties":{"h3":"8830e0ab49fffff","emd_code":"2812552000","emd_name":"연안동","area_km2":0.5018,"edge":false,"slope_mean":2.43,"elev_mean":5.2,"flood_hist_n":0,"flood_depth_max_m":null,"flood_risk_100y":null,"semi_basement_r":null,"elderly_alone_r":0.2291,"bldg_age30_r":null,"shelter_min_walk":11,"pop":4928,"hh":2828,"elderly65_r":0.3634,"single_hh_r":0.5534,"source_level":"emd","flood_years":[],"landslide_hist_n":0},"geometry":{"type":"Polygon","coordinates":[[[126.60446,37.46035],[126.60393,37.46467],[126.59974,37.4666],[126.5961,37.46421],[126.59664,37.45989],[126.60082,37.45795],[126.60446,37.46035]]]}},{"type":"Feature","properties":{"h3":"8830e0ab4bfffff","emd_code":"2812552000","emd_name":"연안동","area_km2":0.502,"edge":true,"slope_mean":0.95,"elev_mean":5.5,"flood_hist_n":0,"flood_depth_max_m":null,"flood_risk_100y":null,"semi_basement_r":null,"elderly_alone_r":0.2291,"bldg_age30_r":null,"shelter_min_walk":15,"pop":4928,"hh":2828,"elderly65_r":0.3634,"single_hh_r":0.5534,"source_level":"emd","flood_years":[],"landslide_hist_n":0},"geometry":{"type":"Polygon","coordinates":[[[126.61229,37.46081],[126.61175,37.46513],[126.60757,37.46706],[126.60393,37.46467],[126.60446,37.46035],[126.60864,37.45841],[126.61229,37.46081]]]}},{"type":"Feature","properties":{"h3":"8830e0ab4dfffff","emd_code":"2812552000","emd_name":"연안동","area_km2":0.5018,"edge":true,"slope_mean":2.09,"elev_mean":2.8,"flood_hist_n":0,"flood_depth_max_m":null,"flood_risk_100y":null,"semi_basement_r":null,"elderly_alone_r":0.2291,"bldg_age30_r":null,"shelter_min_walk":6,"pop":4928,"hh":2828,"elderly65_r":0.3634,"single_hh_r":0.5534,"source_level":"emd","flood_years":[],"landslide_hist_n":0},"geometry":{"type":"Polygon","coordinates":[[[126.60135,37.45363],[126.60082,37.45795],[126.59664,37.45989],[126.59299,37.45749],[126.59353,37.45317],[126.59771,37.45124],[126.60135,37.45363]]]}},{"type":"Feature","properties":{"h3":"8830e0ab51fffff","emd_code":"2812551000","emd_name":"신포동","area_km2":0.5022,"edge":false,"slope_mean":2.49,"elev_mean":6.6,"flood_hist_n":0,"flood_depth_max_m":null,"flood_risk_100y":null,"semi_basement_r":null,"elderly_alone_r":0.2644,"bldg_age30_r":null,"shelter_min_walk":9,"pop":4411,"hh":2470,"elderly65_r":0.3364,"single_hh_r":0.5632,"source_level":"emd","flood_years":[],"landslide_hist_n":0},"geometry":{"type":"Polygon","coordinates":[[[126.62795,37.46172],[126.62741,37.46605],[126.62323,37.46798],[126.61958,37.46559],[126.62012,37.46127],[126.6243,37.45933],[126.62795,37.46172]]]}},{"type":"Feature","properties":{"h3":"8830e0ab53fffff","emd_code":"2812553000","emd_name":"신흥동","area_km2":0.5023,"edge":false,"slope_mean":4.05,"elev_mean":10.0,"flood_hist_n":0,"flood_depth_max_m":null,"flood_risk_100y":null,"semi_basement_r":null,"elderly_alone_r":0.1545,"bldg_age30_r":null,"shelter_min_walk":2,"pop":14081,"hh":7056,"elderly65_r":0.2452,"single_hh_r":0.4442,"source_level":"emd","flood_years":[],"landslide_hist_n":0},"geometry":{"type":"Polygon","coordinates":[[[126.63578,37.46218],[126.63525,37.46651],[126.63106,37.46844],[126.62741,37.46605],[126.62795,37.46172],[126.63213,37.45979],[126.63578,37.46218]]]}},{"type":"Feature","properties":{"h3":"8830e0ab55fffff","emd_code":"2812552000","emd_name":"연안동","area_km2":0.5021,"edge":false,"slope_mean":3.26,"elev_mean":7.9,"flood_hist_n":0,"flood_depth_max_m":null,"flood_risk_100y":null,"semi_basement_r":null,"elderly_alone_r":0.2291,"bldg_age30_r":null,"shelter_min_walk":16,"pop":4928,"hh":2828,"elderly65_r":0.3634,"single_hh_r":0.5534,"source_level":"emd","flood_years":[],"landslide_hist_n":0},"geometry":{"type":"Polygon","coordinates":[[[126.62484,37.45501],[126.6243,37.45933],[126.62012,37.46127],[126.61647,37.45887],[126.61701,37.45455],[126.62119,37.45261],[126.62484,37.45501]]]}},{"type":"Feature","properties":{"h3":"8830e0ab57fffff","emd_code":"2812552000","emd_name":"연안동","area_km2":0.5022,"edge":false,"slope_mean":3.63,"elev_mean":8.3,"flood_hist_n":0,"flood_depth_max_m":null,"flood_risk_100y":null,"semi_basement_r":null,"elderly_alone_r":0.2291,"bldg_age30_r":null,"shelter_min_walk":7,"pop":4928,"hh":2828,"elderly65_r":0.3634,"single_hh_r":0.5534,"source_level":"emd","flood_years":[],"landslide_hist_n":0},"geometry":{"type":"Polygon","coordinates":[[[126.63267,37.45546],[126.63213,37.45979],[126.62795,37.46172],[126.6243,37.45933],[126.62484,37.45501],[126.62902,37.45307],[126.63267,37.45546]]]}},{"type":"Feature","properties":{"h3":"8830e0ab59fffff","emd_code":"2812551000","emd_name":"신포동","area_km2":0.5021,"edge":false,"slope_mean":3.47,"elev_mean":9.1,"flood_hist_n":0,"flood_depth_max_m":null,"flood_risk_100y":null,"semi_basement_r":null,"elderly_alone_r":0.2644,"bldg_age30_r":null,"shelter_min_walk":4,"pop":4411,"hh":2470,"elderly65_r":0.3364,"single_hh_r":0.5632,"source_level":"emd","flood_years":[],"landslide_hist_n":0},"geometry":{"type":"Polygon","coordinates":[[[126.62323,37.46798],[126.6227,37.47231],[126.61851,37.47424],[126.61487,37.47185],[126.6154,37.46752],[126.61958,37.46559],[126.62323,37.46798]]]}},{"type":"Feature","properties":{"h3":"8830e0ab5bfffff","emd_code":"2812551000","emd_name":"신포동","area_km2":0.5022,"edge":false,"slope_mean":5.59,"elev_mean":17.8,"flood_hist_n":0,"flood_depth_max_m":null,"flood_risk_100y":null,"semi_basement_r":null,"elderly_alone_r":0.2644,"bldg_age30_r":null,"shelter_min_walk":4,"pop":4411,"hh":2470,"elderly65_r":0.3364,"single_hh_r":0.5632,"source_level":"emd","flood_years":[],"landslide_hist_n":0},"geometry":{"type":"Polygon","coordinates":[[[126.63106,37.46844],[126.63053,37.47277],[126.62634,37.4747],[126.6227,37.47231],[126.62323,37.46798],[126.62741,37.46605],[126.63106,37.46844]]]}},{"type":"Feature","properties":{"h3":"8830e0ab5dfffff","emd_code":"2812551000","emd_name":"신포동","area_km2":0.5021,"edge":true,"slope_mean":0.98,"elev_mean":5.5,"flood_hist_n":0,"flood_depth_max_m":null,"flood_risk_100y":null,"semi_basement_r":null,"elderly_alone_r":0.2644,"bldg_age30_r":null,"shelter_min_walk":16,"pop":4411,"hh":2470,"elderly65_r":0.3364,"single_hh_r":0.5632,"source_level":"emd","flood_years":[],"landslide_hist_n":0},"geometry":{"type":"Polygon","coordinates":[[[126.62012,37.46127],[126.61958,37.46559],[126.6154,37.46752],[126.61175,37.46513],[126.61229,37.46081],[126.61647,37.45887],[126.62012,37.46127]]]}},{"type":"Feature","properties":{"h3":"8830e0ab61fffff","emd_code":"2812552000","emd_name":"연안동","area_km2":0.5018,"edge":true,"slope_mean":0.45,"elev_mean":0.7,"flood_hist_n":0,"flood_depth_max_m":null,"flood_risk_100y":null,"semi_basement_r":null,"elderly_alone_r":0.2291,"bldg_age30_r":null,"shelter_min_walk":32,"pop":4928,"hh":2828,"elderly65_r":0.3634,"single_hh_r":0.5534,"source_level":"emd","flood_years":[],"landslide_hist_n":0},"geometry":{"type":"Polygon","coordinates":[[[126.60768,37.4344],[126.60714,37.43872],[126.60296,37.44066],[126.59932,37.43826],[126.59985,37.43394],[126.60403,37.43201],[126.60768,37.4344]]]}},{"type":"Feature","properties":{"h3":"8830e0ab63fffff","emd_code":"2812552000","emd_name":"연안동","area_km2":0.5019,"edge":true,"slope_mean":1.67,"elev_mean":2.6,"flood_hist_n":0,"flood_depth_max_m":null,"flood_risk_100y":null,"semi_basement_r":null,"elderly_alone_r":0.2291,"bldg_age30_r":null,"shelter_min_walk":24,"pop":4928,"hh":2828,"elderly65_r":0.3634,"single_hh_r":0.5534,"source_level":"emd","flood_years":[],"landslide_hist_n":0},"geometry":{"type":"Polygon","coordinates":[[[126.6155,37.43485],[126.61497,37.43918],[126.61079,37.44111],[126.60714,37.43872],[126.60768,37.4344],[126.61186,37.43246],[126.6155,37.43485]]]}},{"type":"Feature","properties":{"h3":"8830e0ab67fffff","emd_code":"2812553000","emd_name":"신흥동","area_km2":0.5019,"edge":true,"slope_mean":0.88,"elev_mean":1.0,"flood_hist_n":0,"flood_depth_max_m":null,"flood_risk_100y":null,"semi_basement_r":null,"elderly_alone_r":0.1545,"bldg_age30_r":null,"shelter_min_walk":30,"pop":14081,"hh":7056,"elderly65_r":0.2452,"single_hh_r":0.4442,"source_level":"emd","flood_years":[],"landslide_hist_n":0},"geometry":{"type":"Polygon","coordinates":[[[126.61239,37.42814],[126.61186,37.43246],[126.60768,37.4344],[126.60403,37.43201],[126.60457,37.42768],[126.60875,37.42575],[126.61239,37.42814]]]}},{"type":"Feature","properties":{"h3":"8830e0ab69fffff","emd_code":"2812552000","emd_name":"연안동","area_km2":0.5018,"edge":false,"slope_mean":2.62,"elev_mean":7.6,"flood_hist_n":0,"flood_depth_max_m":null,"flood_risk_100y":null,"semi_basement_r":null,"elderly_alone_r":0.2291,"bldg_age30_r":null,"shelter_min_walk":22,"pop":4928,"hh":2828,"elderly65_r":0.3634,"single_hh_r":0.5534,"source_level":"emd","flood_years":[],"landslide_hist_n":0},"geometry":{"type":"Polygon","coordinates":[[[126.60296,37.44066],[126.60243,37.44498],[126.59825,37.44691],[126.5946,37.44452],[126.59514,37.4402],[126.59932,37.43826],[126.60296,37.44066]]]}},{"type":"Feature","properties":{"h3":"8830e0ab6bfffff","emd_code":"2812552000","emd_name":"연안동","area_km2":0.5019,"edge":true,"slope_mean":1.38,"elev_mean":2.3,"flood_hist_n":0,"flood_depth_max_m":null,"flood_risk_100y":null,"semi_basement_r":null,"elderly_alone_r":0.2291,"bldg_age30_r":null,"shelter_min_walk":22,"pop":4928,"hh":2828,"elderly65_r":0.3634,"single_hh_r":0.5534,"source_level":"emd","flood_years":[],"landslide_hist_n":0},"geometry":{"type":"Polygon","coordinates":[[[126.61079,37.44111],[126.61025,37.44544],[126.60607,37.44737],[126.60243,37.44498],[126.60296,37.44066],[126.60714,37.43872],[126.61079,37.44111]]]}},{"type":"Feature","properties":{"h3":"8830e0ab6dfffff","emd_code":"2812552000","emd_name":"연안동","area_km2":0.5017,"edge":true,"slope_mean":0.65,"elev_mean":1.4,"flood_hist_n":0,"flood_depth_max_m":null,"flood_risk_100y":null,"semi_basement_r":null,"elderly_alone_r":0.2291,"bldg_age30_r":null,"shelter_min_walk":34,"pop":4928,"hh":2828,"elderly65_r":0.3634,"single_hh_r":0.5534,"source_level":"emd","flood_years":[],"landslide_hist_n":0},"geometry":{"type":"Polygon","coordinates":[[[126.59985,37.43394],[126.59932,37.43826],[126.59514,37.4402],[126.59149,37.4378],[126.59203,37.43348],[126.59621,37.43155],[126.59985,37.43394]]]}},{"type":"Feature","properties":{"h3":"8830e0b995fffff","emd_code":"2812557000","emd_name":"개항동","area_km2":0.502,"edge":true,"slope_mean":0.59,"elev_mean":0.5,"flood_hist_n":0,"flood_depth_max_m":null,"flood_risk_100y":null,"semi_basement_r":null,"elderly_alone_r":0.2375,"bldg_age30_r":null,"shelter_min_walk":24,"pop":6424,"hh":3815,"elderly65_r":0.3587,"single_hh_r":0.5696,"source_level":"emd","flood_years":[],"landslide_hist_n":0},"geometry":{"type":"Polygon","coordinates":[[[126.60907,37.48676],[126.60854,37.49108],[126.60435,37.49302],[126.60071,37.49062],[126.60124,37.4863],[126.60543,37.48437],[126.60907,37.48676]]]}},{"type":"Feature","properties":{"h3":"8830e0b997fffff","emd_code":"2812558000","emd_name":"만석동","area_km2":0.5021,"edge":true,"slope_mean":1.86,"elev_mean":1.9,"flood_hist_n":0,"flood_depth_max_m":null,"flood_risk_100y":null,"semi_basement_r":null,"elderly_alone_r":0.2213,"bldg_age30_r":null,"shelter_min_walk":14,"pop":6030,"hh":3046,"elderly65_r":0.3101,"single_hh_r":0.4435,"source_level":"emd","flood_years":[],"landslide_hist_n":0},"geometry":{"type":"Polygon","coordinates":[[[126.61691,37.48722],[126.61637,37.49155],[126.61219,37.49348],[126.60854,37.49108],[126.60907,37.48676],[126.61326,37.48483],[126.61691,37.48722]]]}},{"type":"Feature","properties":{"h3":"8830e0b9a3fffff","emd_code":"2812557000","emd_name":"개항동","area_km2":0.5018,"edge":true,"slope_mean":2.62,"elev_mean":4.0,"flood_hist_n":0,"flood_depth_max_m":null,"flood_risk_100y":null,"semi_basement_r":null,"elderly_alone_r":0.2375,"bldg_age30_r":null,"shelter_min_walk":23,"pop":6424,"hh":3815,"elderly65_r":0.3587,"single_hh_r":0.5696,"source_level":"emd","flood_years":[],"landslide_hist_n":0},"geometry":{"type":"Polygon","coordinates":[[[126.59974,37.4666],[126.59921,37.47093],[126.59503,37.47286],[126.59138,37.47047],[126.59192,37.46614],[126.5961,37.46421],[126.59974,37.4666]]]}},{"type":"Feature","properties":{"h3":"8830e0b9a7fffff","emd_code":"2812552000","emd_name":"연안동","area_km2":0.5017,"edge":true,"slope_mean":0.55,"elev_mean":0.6,"flood_hist_n":0,"flood_depth_max_m":null,"flood_risk_100y":null,"semi_basement_r":null,"elderly_alone_r":0.2291,"bldg_age30_r":null,"shelter_min_walk":16,"pop":4928,"hh":2828,"elderly65_r":0.3634,"single_hh_r":0.5534,"source_level":"emd","flood_years":[],"landslide_hist_n":0},"geometry":{"type":"Polygon","coordinates":[[[126.59664,37.45989],[126.5961,37.46421],[126.59192,37.46614],[126.58827,37.46375],[126.58881,37.45943],[126.59299,37.45749],[126.59664,37.45989]]]}},{"type":"Feature","properties":{"h3":"8830e0b9b1fffff","emd_code":"2812557000","emd_name":"개항동","area_km2":0.502,"edge":false,"slope_mean":5.94,"elev_mean":15.5,"flood_hist_n":0,"flood_depth_max_m":null,"flood_risk_100y":null,"semi_basement_r":null,"elderly_alone_r":0.2375,"bldg_age30_r":null,"shelter_min_walk":14,"pop":6424,"hh":3815,"elderly65_r":0.3587,"single_hh_r":0.5696,"source_level":"emd","flood_years":[],"landslide_hist_n":0},"geometry":{"type":"Polygon","coordinates":[[[126.61068,37.47378],[126.61015,37.47811],[126.60596,37.48004],[126.60232,37.47765],[126.60285,37.47332],[126.60704,37.47139],[126.61068,37.47378]]]}},{"type":"Feature","properties":{"h3":"8830e0b9b3fffff","emd_code":"2812557000","emd_name":"개항동","area_km2":0.5021,"edge":false,"slope_mean":3.68,"elev_mean":8.1,"flood_hist_n":0,"flood_depth_max_m":null,"flood_risk_100y":null,"semi_basement_r":null,"elderly_alone_r":0.2375,"bldg_age30_r":null,"shelter_min_walk":4,"pop":6424,"hh":3815,"elderly65_r":0.3587,"single_hh_r":0.5696,"source_level":"emd","flood_years":[],"landslide_hist_n":0},"geometry":{"type":"Polygon","coordinates":[[[126.61851,37.47424],[126.61798,37.47857],[126.61379,37.4805],[126.61015,37.47811],[126.61068,37.47378],[126.61487,37.47185],[126.61851,37.47424]]]}},{"type":"Feature","properties":{"h3":"8830e0b9b5fffff","emd_code":"2812557000","emd_name":"개항동","area_km2":0.5019,"edge":false,"slope_mean":10.54,"elev_mean":29.7,"flood_hist_n":0,"flood_depth_max_m":null,"flood_risk_100y":null,"semi_basement_r":null,"elderly_alone_r":0.2375,"bldg_age30_r":null,"shelter_min_walk":21,"pop":6424,"hh":3815,"elderly65_r":0.3587,"single_hh_r":0.5696,"source_level":"emd","flood_years":[],"landslide_hist_n":0},"geometry":{"type":"Polygon","coordinates":[[[126.60757,37.46706],[126.60704,37.47139],[126.60285,37.47332],[126.59921,37.47093],[126.59974,37.4666],[126.60393,37.46467],[126.60757,37.46706]]]}},{"type":"Feature","properties":{"h3":"8830e0b9b7fffff","emd_code":"2812557000","emd_name":"개항동","area_km2":0.502,"edge":true,"slope_mean":1.0,"elev_mean":5.1,"flood_hist_n":0,"flood_depth_max_m":null,"flood_risk_100y":null,"semi_basement_r":null,"elderly_alone_r":0.2375,"bldg_age30_r":null,"shelter_min_walk":12,"pop":6424,"hh":3815,"elderly65_r":0.3587,"single_hh_r":0.5696,"source_level":"emd","flood_years":[],"landslide_hist_n":0},"geometry":{"type":"Polygon","coordinates":[[[126.6154,37.46752],[126.61487,37.47185],[126.61068,37.47378],[126.60704,37.47139],[126.60757,37.46706],[126.61175,37.46513],[126.6154,37.46752]]]}},{"type":"Feature","properties":{"h3":"8830e0b9b9fffff","emd_code":"2812557000","emd_name":"개항동","area_km2":0.5019,"edge":false,"slope_mean":2.58,"elev_mean":3.6,"flood_hist_n":0,"flood_depth_max_m":null,"flood_risk_100y":null,"semi_basement_r":null,"elderly_alone_r":0.2375,"bldg_age30_r":null,"shelter_min_walk":23,"pop":6424,"hh":3815,"elderly65_r":0.3587,"single_hh_r":0.5696,"source_level":"emd","flood_years":[],"landslide_hist_n":0},"geometry":{"type":"Polygon","coordinates":[[[126.60596,37.48004],[126.60543,37.48437],[126.60124,37.4863],[126.5976,37.4839],[126.59813,37.47958],[126.60232,37.47765],[126.60596,37.48004]]]}},{"type":"Feature","properties":{"h3":"8830e0b9bbfffff","emd_code":"2812557000","emd_name":"개항동","area_km2":0.502,"edge":true,"slope_mean":4.3,"elev_mean":5.0,"flood_hist_n":0,"flood_depth_max_m":null,"flood_risk_100y":null,"semi_basement_r":null,"elderly_alone_r":0.2375,"bldg_age30_r":null,"shelter_min_walk":14,"pop":6424,"hh":3815,"elderly65_r":0.3587,"single_hh_r":0.5696,"source_level":"emd","flood_years":[],"landslide_hist_n":0},"geometry":{"type":"Polygon","coordinates":[[[126.61379,37.4805],[126.61326,37.48483],[126.60907,37.48676],[126.60543,37.48437],[126.60596,37.48004],[126.61015,37.47811],[126.61379,37.4805]]]}},{"type":"Feature","properties":{"h3":"8830e0b9bdfffff","emd_code":"2812557000","emd_name":"개항동","area_km2":0.5019,"edge":false,"slope_mean":5.87,"elev_mean":15.2,"flood_hist_n":0,"flood_depth_max_m":null,"flood_risk_100y":null,"semi_basement_r":null,"elderly_alone_r":0.2375,"bldg_age30_r":null,"shelter_min_walk":24,"pop":6424,"hh":3815,"elderly65_r":0.3587,"single_hh_r":0.5696,"source_level":"emd","flood_years":[],"landslide_hist_n":0},"geometry":{"type":"Polygon","coordinates":[[[126.60285,37.47332],[126.60232,37.47765],[126.59813,37.47958],[126.59449,37.47719],[126.59503,37.47286],[126.59921,37.47093],[126.60285,37.47332]]]}}]}