{"type":"FeatureCollection","name":"grid_28177_h3r8","meta":{"sgg_code":"28177","h3_res":8,"n_cells":68,"dem":"Copernicus GLO-30 (bbox-mean)","crs":"EPSG:4326","jumin_basis":"2026-07","flood_src":"행안부 침수흔적도(전국, 재난안전데이터공유플랫폼)","landslide_src":"행안부 산사태 발생이력"},"features":[{"type":"Feature","properties":{"h3":"8830e0a801fffff","emd_code":"2817768000","emd_name":"주안7동","area_km2":0.5029,"edge":false,"slope_mean":4.13,"elev_mean":25.1,"flood_hist_n":0,"flood_depth_max_m":null,"flood_risk_100y":null,"semi_basement_r":null,"elderly_alone_r":0.2031,"bldg_age30_r":null,"shelter_min_walk":5,"pop":12045,"hh":6179,"elderly65_r":0.3072,"single_hh_r":0.4496,"source_level":"emd","flood_years":[],"landslide_hist_n":0},"geometry":{"type":"Polygon","coordinates":[[[126.68127,37.44522],[126.68074,37.44955],[126.67655,37.45148],[126.6729,37.44909],[126.67343,37.44476],[126.67761,37.44283],[126.68127,37.44522]]]}},{"type":"Feature","properties":{"h3":"8830e0a803fffff","emd_code":"2817769000","emd_name":"주안8동","area_km2":0.503,"edge":false,"slope_mean":7.27,"elev_mean":34.1,"flood_hist_n":1,"flood_depth_max_m":0.307,"flood_risk_100y":null,"semi_basement_r":null,"elderly_alone_r":0.1631,"bldg_age30_r":null,"shelter_min_walk":4,"pop":18386,"hh":8862,"elderly65_r":0.2691,"single_hh_r":0.4012,"source_level":"emd","flood_years":[2018],"landslide_hist_n":0},"geometry":{"type":"Polygon","coordinates":[[[126.6891,37.44567],[126.68857,37.45],[126.68439,37.45194],[126.68074,37.44955],[126.68127,37.44522],[126.68545,37.44328],[126.6891,37.44567]]]}},{"type":"Feature","properties":{"h3":"8830e0a805fffff","emd_code":"2817759000","emd_name":"학익2동","area_km2":0.5028,"edge":false,"slope_mean":5.97,"elev_mean":36.0,"flood_hist_n":0,"flood_depth_max_m":null,"flood_risk_100y":null,"semi_basement_r":null,"elderly_alone_r":0.1631,"bldg_age30_r":null,"shelter_min_walk":1,"pop":17470,"hh":8381,"elderly65_r":0.2686,"single_hh_r":0.402,"source_level":"emd","flood_years":[],"landslide_hist_n":0},"geometry":{"type":"Polygon","coordinates":[[[126.67815,37.4385],[126.67761,37.44283],[126.67343,37.44476],[126.66978,37.44237],[126.67031,37.43804],[126.67449,37.43611],[126.67815,37.4385]]]}},{"type":"Feature","properties":{"h3":"8830e0a807fffff","emd_code":"2817771000","emd_name":"문학동","area_km2":0.5029,"edge":false,"slope_mean":8.7,"elev_mean":52.0,"flood_hist_n":0,"flood_depth_max_m":null,"flood_risk_100y":null,"semi_basement_r":null,"elderly_alone_r":0.1206,"bldg_age30_r":null,"shelter_min_walk":5,"pop":13820,"hh":7896,"elderly65_r":0.1821,"single_hh_r":0.5811,"source_level":"emd","flood_years":[],"landslide_hist_n":0},"geometry":{"type":"Polygon","coordinates":[[[126.68598,37.43895],[126.68545,37.44328],[126.68127,37.44522],[126.67761,37.44283],[126.67815,37.4385],[126.68233,37.43656],[126.68598,37.43895]]]}},{"type":"Feature","properties":{"h3":"8830e0a809fffff","emd_code":"2817763000","emd_name":"주안2동","area_km2":0.5028,"edge":false,"slope_mean":3.35,"elev_mean":20.9,"flood_hist_n":0,"flood_depth_max_m":null,"flood_risk_100y":null,"semi_basement_r":null,"elderly_alone_r":0.1545,"bldg_age30_r":null,"shelter_min_walk":3,"pop":22937,"hh":11395,"elderly65_r":0.2315,"single_hh_r":0.4238,"source_level":"emd","flood_years":[],"landslide_hist_n":0},"geometry":{"type":"Polygon","coordinates":[[[126.67655,37.45148],[126.67602,37.45581],[126.67183,37.45775],[126.66818,37.45536],[126.66871,37.45103],[126.6729,37.44909],[126.67655,37.45148]]]}},{"type":"Feature","properties":{"h3":"8830e0a80bfffff","emd_code":"2817765000","emd_name":"주안4동","area_km2":0.5029,"edge":false,"slope_mean":3.05,"elev_mean":16.9,"flood_hist_n":0,"flood_depth_max_m":null,"flood_risk_100y":null,"semi_basement_r":null,"elderly_alone_r":0.1673,"bldg_age30_r":null,"shelter_min_walk":7,"pop":19667,"hh":9578,"elderly65_r":0.2497,"single_hh_r":0.4187,"source_level":"emd","flood_years":[],"landslide_hist_n":0},"geometry":{"type":"Polygon","coordinates":[[[126.68439,37.45194],[126.68386,37.45627],[126.67967,37.4582],[126.67602,37.45581],[126.67655,37.45148],[126.68074,37.44955],[126.68439,37.45194]]]}},{"type":"Feature","properties":{"h3":"8830e0a80dfffff","emd_code":"2817764000","emd_name":"주안3동","area_km2":0.5028,"edge":false,"slope_mean":4.02,"elev_mean":22.0,"flood_hist_n":0,"flood_depth_max_m":null,"flood_risk_100y":null,"semi_basement_r":null,"elderly_alone_r":0.1635,"bldg_age30_r":null,"shelter_min_walk":3,"pop":12063,"hh":6203,"elderly65_r":0.2408,"single_hh_r":0.4598,"source_level":"emd","flood_years":[],"landslide_hist_n":0},"geometry":{"type":"Polygon","coordinates":[[[126.67343,37.44476],[126.6729,37.44909],[126.66871,37.45103],[126.66506,37.44864],[126.6656,37.44431],[126.66978,37.44237],[126.67343,37.44476]]]}},{"type":"Feature","properties":{"h3":"8830e0a811fffff","emd_code":"2817765000","emd_name":"주안4동","area_km2":0.5031,"edge":true,"slope_mean":5.24,"elev_mean":24.8,"flood_hist_n":0,"flood_depth_max_m":null,"flood_risk_100y":null,"semi_basement_r":null,"elderly_alone_r":0.1673,"bldg_age30_r":null,"shelter_min_walk":4,"pop":19667,"hh":9578,"elderly65_r":0.2497,"single_hh_r":0.4187,"source_level":"emd","flood_years":[],"landslide_hist_n":0},"geometry":{"type":"Polygon","coordinates":[[[126.70007,37.45285],[126.69954,37.45717],[126.69535,37.45911],[126.6917,37.45672],[126.69223,37.45239],[126.69641,37.45045],[126.70007,37.45285]]]}},{"type":"Feature","properties":{"h3":"8830e0a815fffff","emd_code":"2817770000","emd_name":"관교동","area_km2":0.5031,"edge":false,"slope_mean":4.36,"elev_mean":18.0,"flood_hist_n":1,"flood_depth_max_m":0.307,"flood_risk_100y":null,"semi_basement_r":null,"elderly_alone_r":0.1342,"bldg_age30_r":null,"shelter_min_walk":5,"pop":13770,"hh":6235,"elderly65_r":0.2725,"single_hh_r":0.3621,"source_level":"emd","flood_years":[2018],"landslide_hist_n":0},"geometry":{"type":"Polygon","coordinates":[[[126.69694,37.44613],[126.69641,37.45045],[126.69223,37.45239],[126.68857,37.45],[126.6891,37.44567],[126.69329,37.44373],[126.69694,37.44613]]]}},{"type":"Feature","properties":{"h3":"8830e0a819fffff","emd_code":"2817767000","emd_name":"주안6동","area_km2":0.5031,"edge":false,"slope_mean":5.27,"elev_mean":20.6,"flood_hist_n":0,"flood_depth_max_m":null,"flood_risk_100y":null,"semi_basement_r":null,"elderly_alone_r":0.1372,"bldg_age30_r":null,"shelter_min_walk":2,"pop":20873,"hh":10321,"elderly65_r":0.2203,"single_hh_r":0.4471,"source_level":"emd","flood_years":[],"landslide_hist_n":0},"geometry":{"type":"Polygon","coordinates":[[[126.69535,37.45911],[126.69482,37.46344],[126.69063,37.46538],[126.68698,37.46299],[126.68751,37.45866],[126.6917,37.45672],[126.69535,37.45911]]]}},{"type":"Feature","properties":{"h3":"8830e0a81bfffff","emd_code":"2817767000","emd_name":"주안6동","area_km2":0.5032,"edge":true,"slope_mean":4.25,"elev_mean":16.8,"flood_hist_n":0,"flood_depth_max_m":null,"flood_risk_100y":null,"semi_basement_r":null,"elderly_alone_r":0.1372,"bldg_age30_r":null,"shelter_min_walk":3,"pop":20873,"hh":10321,"elderly65_r":0.2203,"single_hh_r":0.4471,"source_level":"emd","flood_years":[],"landslide_hist_n":0},"geometry":{"type":"Polygon","coordinates":[[[126.70319,37.45957],[126.70266,37.4639],[126.69847,37.46583],[126.69482,37.46344],[126.69535,37.45911],[126.69954,37.45717],[126.70319,37.45957]]]}},{"type":"Feature","properties":{"h3":"8830e0a81dfffff","emd_code":"2817765000","emd_name":"주안4동","area_km2":0.503,"edge":false,"slope_mean":3.25,"elev_mean":16.1,"flood_hist_n":1,"flood_depth_max_m":0.307,"flood_risk_100y":null,"semi_basement_r":null,"elderly_alone_r":0.1673,"bldg_age30_r":null,"shelter_min_walk":6,"pop":19667,"hh":9578,"elderly65_r":0.2497,"single_hh_r":0.4187,"source_level":"emd","flood_years":[2018],"landslide_hist_n":0},"geometry":{"type":"Polygon","coordinates":[[[126.69223,37.45239],[126.6917,37.45672],[126.68751,37.45866],[126.68386,37.45627],[126.68439,37.45194],[126.68857,37.45],[126.69223,37.45239]]]}},{"type":"Feature","properties":{"h3":"8830e0a821fffff","emd_code":"2817758000","emd_name":"학익1동","area_km2":0.5028,"edge":true,"slope_mean":14.11,"elev_mean":80.4,"flood_hist_n":0,"flood_depth_max_m":null,"flood_risk_100y":null,"semi_basement_r":null,"elderly_alone_r":0.0856,"bldg_age30_r":null,"shelter_min_walk":7,"pop":41447,"hh":17208,"elderly65_r":0.1645,"single_hh_r":0.3117,"source_level":"emd","flood_years":[],"landslide_hist_n":0},"geometry":{"type":"Polygon","coordinates":[[[126.67974,37.42551],[126.67921,37.42984],[126.67503,37.43178],[126.67138,37.42939],[126.67191,37.42506],[126.67609,37.42312],[126.67974,37.42551]]]}},{"type":"Feature","properties":{"h3":"8830e0a823fffff","emd_code":"2817771000","emd_name":"문학동","area_km2":0.5029,"edge":true,"slope_mean":14.69,"elev_mean":81.7,"flood_hist_n":0,"flood_depth_max_m":null,"flood_risk_100y":null,"semi_basement_r":null,"elderly_alone_r":0.1206,"bldg_age30_r":null,"shelter_min_walk":8,"pop":13820,"hh":7896,"elderly65_r":0.1821,"single_hh_r":0.5811,"source_level":"emd","flood_years":[],"landslide_hist_n":0},"geometry":{"type":"Polygon","coordinates":[[[126.68758,37.42597],[126.68705,37.4303],[126.68286,37.43223],[126.67921,37.42984],[126.67974,37.42551],[126.68392,37.42358],[126.68758,37.42597]]]}},{"type":"Feature","properties":{"h3":"8830e0a829fffff","emd_code":"2817758000","emd_name":"학익1동","area_km2":0.5027,"edge":false,"slope_mean":17.84,"elev_mean":97.5,"flood_hist_n":0,"flood_depth_max_m":null,"flood_risk_100y":null,"semi_basement_r":null,"elderly_alone_r":0.0856,"bldg_age30_r":null,"shelter_min_walk":9,"pop":41447,"hh":17208,"elderly65_r":0.1645,"single_hh_r":0.3117,"source_level":"emd","flood_years":[],"landslide_hist_n":0},"geometry":{"type":"Polygon","coordinates":[[[126.67503,37.43178],[126.67449,37.43611],[126.67031,37.43804],[126.66666,37.43565],[126.66719,37.43133],[126.67138,37.42939],[126.67503,37.43178]]]}},{"type":"Feature","properties":{"h3":"8830e0a82bfffff","emd_code":"2817771000","emd_name":"문학동","area_km2":0.5029,"edge":false,"slope_mean":14.7,"elev_mean":98.5,"flood_hist_n":0,"flood_depth_max_m":null,"flood_risk_100y":null,"semi_basement_r":null,"elderly_alone_r":0.1206,"bldg_age30_r":null,"shelter_min_walk":8,"pop":13820,"hh":7896,"elderly65_r":0.1821,"single_hh_r":0.5811,"source_level":"emd","flood_years":[],"landslide_hist_n":0},"geometry":{"type":"Polygon","coordinates":[[[126.68286,37.43223],[126.68233,37.43656],[126.67815,37.4385],[126.67449,37.43611],[126.67503,37.43178],[126.67921,37.42984],[126.68286,37.43223]]]}},{"type":"Feature","properties":{"h3":"8830e0a831fffff","emd_code":"2817771000","emd_name":"문학동","area_km2":0.5031,"edge":false,"slope_mean":7.79,"elev_mean":28.6,"flood_hist_n":0,"flood_depth_max_m":null,"flood_risk_100y":null,"semi_basement_r":null,"elderly_alone_r":0.1206,"bldg_age30_r":null,"shelter_min_walk":5,"pop":13820,"hh":7896,"elderly65_r":0.1821,"single_hh_r":0.5811,"source_level":"emd","flood_years":[],"landslide_hist_n":0},"geometry":{"type":"Polygon","coordinates":[[[126.69854,37.43314],[126.698,37.43747],[126.69382,37.43941],[126.69017,37.43701],[126.6907,37.43269],[126.69488,37.43075],[126.69854,37.43314]]]}},{"type":"Feature","properties":{"h3":"8830e0a833fffff","emd_code":"2817770000","emd_name":"관교동","area_km2":0.5032,"edge":true,"slope_mean":3.62,"elev_mean":10.6,"flood_hist_n":0,"flood_depth_max_m":null,"flood_risk_100y":null,"semi_basement_r":null,"elderly_alone_r":0.1342,"bldg_age30_r":null,"shelter_min_walk":6,"pop":13770,"hh":6235,"elderly65_r":0.2725,"single_hh_r":0.3621,"source_level":"emd","flood_years":[],"landslide_hist_n":0},"geometry":{"type":"Polygon","coordinates":[[[126.70637,37.43359],[126.70584,37.43792],[126.70166,37.43986],[126.698,37.43747],[126.69854,37.43314],[126.70272,37.4312],[126.70637,37.43359]]]}},{"type":"Feature","properties":{"h3":"8830e0a839fffff","emd_code":"2817771000","emd_name":"문학동","area_km2":0.503,"edge":false,"slope_mean":11.27,"elev_mean":51.6,"flood_hist_n":0,"flood_depth_max_m":null,"flood_risk_100y":null,"semi_basement_r":null,"elderly_alone_r":0.1206,"bldg_age30_r":null,"shelter_min_walk":7,"pop":13820,"hh":7896,"elderly65_r":0.1821,"single_hh_r":0.5811,"source_level":"emd","flood_years":[],"landslide_hist_n":0},"geometry":{"type":"Polygon","coordinates":[[[126.69382,37.43941],[126.69329,37.44373],[126.6891,37.44567],[126.68545,37.44328],[126.68598,37.43895],[126.69017,37.43701],[126.69382,37.43941]]]}},{"type":"Feature","properties":{"h3":"8830e0a83bfffff","emd_code":"2817770000","emd_name":"관교동","area_km2":0.5031,"edge":false,"slope_mean":4.44,"elev_mean":13.4,"flood_hist_n":0,"flood_depth_max_m":null,"flood_risk_100y":null,"semi_basement_r":null,"elderly_alone_r":0.1342,"bldg_age30_r":null,"shelter_min_walk":1,"pop":13770,"hh":6235,"elderly65_r":0.2725,"single_hh_r":0.3621,"source_level":"emd","flood_years":[],"landslide_hist_n":0},"geometry":{"type":"Polygon","coordinates":[[[126.70166,37.43986],[126.70113,37.44419],[126.69694,37.44613],[126.69329,37.44373],[126.69382,37.43941],[126.698,37.43747],[126.70166,37.43986]]]}},{"type":"Feature","properties":{"h3":"8830e0a83dfffff","emd_code":"2817771000","emd_name":"문학동","area_km2":0.503,"edge":false,"slope_mean":11.06,"elev_mean":64.3,"flood_hist_n":0,"flood_depth_max_m":null,"flood_risk_100y":null,"semi_basement_r":null,"elderly_alone_r":0.1206,"bldg_age30_r":null,"shelter_min_walk":5,"pop":13820,"hh":7896,"elderly65_r":0.1821,"single_hh_r":0.5811,"source_level":"emd","flood_years":[],"landslide_hist_n":0},"geometry":{"type":"Polygon","coordinates":[[[126.6907,37.43269],[126.69017,37.43701],[126.68598,37.43895],[126.68233,37.43656],[126.68286,37.43223],[126.68705,37.4303],[126.6907,37.43269]]]}},{"type":"Feature","properties":{"h3":"8830e0a841fffff","emd_code":"2817753000","emd_name":"숭의4동","area_km2":0.5027,"edge":false,"slope_mean":9.12,"elev_mean":49.9,"flood_hist_n":0,"flood_depth_max_m":null,"flood_risk_100y":null,"semi_basement_r":null,"elderly_alone_r":0.1713,"bldg_age30_r":null,"shelter_min_walk":6,"pop":16885,"hh":8325,"elderly65_r":0.2401,"single_hh_r":0.4323,"source_level":"emd","flood_years":[],"landslide_hist_n":0},"geometry":{"type":"Polygon","coordinates":[[[126.664,37.45729],[126.66347,37.46162],[126.65928,37.46355],[126.65563,37.46116],[126.65616,37.45684],[126.66035,37.4549],[126.664,37.45729]]]}},{"type":"Feature","properties":{"h3":"8830e0a843fffff","emd_code":"2817760000","emd_name":"도화1동","area_km2":0.5028,"edge":false,"slope_mean":8.4,"elev_mean":42.2,"flood_hist_n":0,"flood_depth_max_m":null,"flood_risk_100y":null,"semi_basement_r":null,"elderly_alone_r":0.1632,"bldg_age30_r":null,"shelter_min_walk":6,"pop":20303,"hh":10285,"elderly65_r":0.24,"single_hh_r":0.4501,"source_level":"emd","flood_years":[],"landslide_hist_n":0},"geometry":{"type":"Polygon","coordinates":[[[126.67183,37.45775],[126.6713,37.46208],[126.66712,37.46401],[126.66347,37.46162],[126.664,37.45729],[126.66818,37.45536],[126.67183,37.45775]]]}},{"type":"Feature","properties":{"h3":"8830e0a845fffff","emd_code":"2817754000","emd_name":"용현1·4동","area_km2":0.5026,"edge":false,"slope_mean":5.66,"elev_mean":29.5,"flood_hist_n":0,"flood_depth_max_m":null,"flood_risk_100y":null,"semi_basement_r":null,"elderly_alone_r":0.1365,"bldg_age30_r":null,"shelter_min_walk":10,"pop":17271,"hh":11697,"elderly65_r":0.2567,"single_hh_r":0.708,"source_level":"emd","flood_years":[],"landslide_hist_n":0},"geometry":{"type":"Polygon","coordinates":[[[126.66088,37.45057],[126.66035,37.4549],[126.65616,37.45684],[126.65251,37.45444],[126.65305,37.45012],[126.65723,37.44818],[126.66088,37.45057]]]}},{"type":"Feature","properties":{"h3":"8830e0a847fffff","emd_code":"2817754000","emd_name":"용현1·4동","area_km2":0.5027,"edge":false,"slope_mean":3.7,"elev_mean":27.0,"flood_hist_n":0,"flood_depth_max_m":null,"flood_risk_100y":null,"semi_basement_r":null,"elderly_alone_r":0.1365,"bldg_age30_r":null,"shelter_min_walk":3,"pop":17271,"hh":11697,"elderly65_r":0.2567,"single_hh_r":0.708,"source_level":"emd","flood_years":[],"landslide_hist_n":0},"geometry":{"type":"Polygon","coordinates":[[[126.66871,37.45103],[126.66818,37.45536],[126.664,37.45729],[126.66035,37.4549],[126.66088,37.45057],[126.66506,37.44864],[126.66871,37.45103]]]}},{"type":"Feature","properties":{"h3":"8830e0a849fffff","emd_code":"2817753000","emd_name":"숭의4동","area_km2":0.5026,"edge":false,"slope_mean":4.44,"elev_mean":23.9,"flood_hist_n":1,"flood_depth_max_m":0.667,"flood_risk_100y":null,"semi_basement_r":null,"elderly_alone_r":0.1713,"bldg_age30_r":null,"shelter_min_walk":2,"pop":16885,"hh":8325,"elderly65_r":0.2401,"single_hh_r":0.4323,"source_level":"emd","flood_years":[2018],"landslide_hist_n":0},"geometry":{"type":"Polygon","coordinates":[[[126.65928,37.46355],[126.65875,37.46788],[126.65456,37.46982],[126.65091,37.46743],[126.65145,37.4631],[126.65563,37.46116],[126.65928,37.46355]]]}},{"type":"Feature","properties":{"h3":"8830e0a84bfffff","emd_code":"2817760000","emd_name":"도화1동","area_km2":0.5027,"edge":false,"slope_mean":6.51,"elev_mean":28.4,"flood_hist_n":0,"flood_depth_max_m":null,"flood_risk_100y":null,"semi_basement_r":null,"elderly_alone_r":0.1632,"bldg_age30_r":null,"shelter_min_walk":3,"pop":20303,"hh":10285,"elderly65_r":0.24,"single_hh_r":0.4501,"source_level":"emd","flood_years":[],"landslide_hist_n":0},"geometry":{"type":"Polygon","coordinates":[[[126.66712,37.46401],[126.66658,37.46834],[126.6624,37.47027],[126.65875,37.46788],[126.65928,37.46355],[126.66347,37.46162],[126.66712,37.46401]]]}},{"type":"Feature","properties":{"h3":"8830e0a84dfffff","emd_code":"2817756000","emd_name":"용현3동","area_km2":0.5025,"edge":false,"slope_mean":5.67,"elev_mean":24.3,"flood_hist_n":0,"flood_depth_max_m":null,"flood_risk_100y":null,"semi_basement_r":null,"elderly_alone_r":0.2306,"bldg_age30_r":null,"shelter_min_walk":3,"pop":6540,"hh":4103,"elderly65_r":0.3387,"single_hh_r":0.6181,"source_level":"emd","flood_years":[],"landslide_hist_n":0},"geometry":{"type":"Polygon","coordinates":[[[126.65616,37.45684],[126.65563,37.46116],[126.65145,37.4631],[126.6478,37.46071],[126.64833,37.45638],[126.65251,37.45444],[126.65616,37.45684]]]}},{"type":"Feature","properties":{"h3":"8830e0a851fffff","emd_code":"2817766000","emd_name":"주안5동","area_km2":0.5029,"edge":false,"slope_mean":4.56,"elev_mean":13.6,"flood_hist_n":0,"flood_depth_max_m":null,"flood_risk_100y":null,"semi_basement_r":null,"elderly_alone_r":0.1623,"bldg_age30_r":null,"shelter_min_walk":4,"pop":18919,"hh":10005,"elderly65_r":0.2485,"single_hh_r":0.4895,"source_level":"emd","flood_years":[],"landslide_hist_n":0},"geometry":{"type":"Polygon","coordinates":[[[126.68279,37.46492],[126.68226,37.46925],[126.67808,37.47119],[126.67442,37.4688],[126.67495,37.46447],[126.67914,37.46253],[126.68279,37.46492]]]}},{"type":"Feature","properties":{"h3":"8830e0a853fffff","emd_code":"2817766000","emd_name":"주안5동","area_km2":0.5031,"edge":false,"slope_mean":4.51,"elev_mean":12.0,"flood_hist_n":0,"flood_depth_max_m":null,"flood_risk_100y":null,"semi_basement_r":null,"elderly_alone_r":0.1623,"bldg_age30_r":null,"shelter_min_walk":4,"pop":18919,"hh":10005,"elderly65_r":0.2485,"single_hh_r":0.4895,"source_level":"emd","flood_years":[],"landslide_hist_n":0},"geometry":{"type":"Polygon","coordinates":[[[126.69063,37.46538],[126.6901,37.46971],[126.68592,37.47164],[126.68226,37.46925],[126.68279,37.46492],[126.68698,37.46299],[126.69063,37.46538]]]}},{"type":"Feature","properties":{"h3":"8830e0a855fffff","emd_code":"2817760000","emd_name":"도화1동","area_km2":0.5029,"edge":false,"slope_mean":4.83,"elev_mean":22.6,"flood_hist_n":0,"flood_depth_max_m":null,"flood_risk_100y":null,"semi_basement_r":null,"elderly_alone_r":0.1632,"bldg_age30_r":null,"shelter_min_walk":2,"pop":20303,"hh":10285,"elderly65_r":0.24,"single_hh_r":0.4501,"source_level":"emd","flood_years":[],"landslide_hist_n":0},"geometry":{"type":"Polygon","coordinates":[[[126.67967,37.4582],[126.67914,37.46253],[126.67495,37.46447],[126.6713,37.46208],[126.67183,37.45775],[126.67602,37.45581],[126.67967,37.4582]]]}},{"type":"Feature","properties":{"h3":"8830e0a857fffff","emd_code":"2817762000","emd_name":"주안1동","area_km2":0.503,"edge":false,"slope_mean":5.28,"elev_mean":21.1,"flood_hist_n":0,"flood_depth_max_m":null,"flood_risk_100y":null,"semi_basement_r":null,"elderly_alone_r":0.0933,"bldg_age30_r":null,"shelter_min_walk":5,"pop":19944,"hh":12345,"elderly65_r":0.1597,"single_hh_r":0.6326,"source_level":"emd","flood_years":[],"landslide_hist_n":0},"geometry":{"type":"Polygon","coordinates":[[[126.68751,37.45866],[126.68698,37.46299],[126.68279,37.46492],[126.67914,37.46253],[126.67967,37.4582],[126.68386,37.45627],[126.68751,37.45866]]]}},{"type":"Feature","properties":{"h3":"8830e0a859fffff","emd_code":"2817761000","emd_name":"도화2·3동","area_km2":0.5029,"edge":false,"slope_mean":3.47,"elev_mean":9.6,"flood_hist_n":0,"flood_depth_max_m":null,"flood_risk_100y":null,"semi_basement_r":null,"elderly_alone_r":0.1161,"bldg_age30_r":null,"shelter_min_walk":8,"pop":28863,"hh":13101,"elderly65_r":0.1923,"single_hh_r":0.3745,"source_level":"emd","flood_years":[],"landslide_hist_n":0},"geometry":{"type":"Polygon","coordinates":[[[126.67808,37.47119],[126.67754,37.47552],[126.67336,37.47745],[126.6697,37.47506],[126.67024,37.47073],[126.67442,37.4688],[126.67808,37.47119]]]}},{"type":"Feature","properties":{"h3":"8830e0a85bfffff","emd_code":"2817766000","emd_name":"주안5동","area_km2":0.503,"edge":false,"slope_mean":3.9,"elev_mean":9.4,"flood_hist_n":0,"flood_depth_max_m":null,"flood_risk_100y":null,"semi_basement_r":null,"elderly_alone_r":0.1623,"bldg_age30_r":null,"shelter_min_walk":1,"pop":18919,"hh":10005,"elderly65_r":0.2485,"single_hh_r":0.4895,"source_level":"emd","flood_years":[],"landslide_hist_n":0},"geometry":{"type":"Polygon","coordinates":[[[126.68592,37.47164],[126.68538,37.47597],[126.6812,37.47791],[126.67754,37.47552],[126.67808,37.47119],[126.68226,37.46925],[126.68592,37.47164]]]}},{"type":"Feature","properties":{"h3":"8830e0a85dfffff","emd_code":"2817761000","emd_name":"도화2·3동","area_km2":0.5028,"edge":false,"slope_mean":4.54,"elev_mean":15.3,"flood_hist_n":0,"flood_depth_max_m":null,"flood_risk_100y":null,"semi_basement_r":null,"elderly_alone_r":0.1161,"bldg_age30_r":null,"shelter_min_walk":4,"pop":28863,"hh":13101,"elderly65_r":0.1923,"single_hh_r":0.3745,"source_level":"emd","flood_years":[],"landslide_hist_n":0},"geometry":{"type":"Polygon","coordinates":[[[126.67495,37.46447],[126.67442,37.4688],[126.67024,37.47073],[126.66658,37.46834],[126.66712,37.46401],[126.6713,37.46208],[126.67495,37.46447]]]}},{"type":"Feature","properties":{"h3":"8830e0a861fffff","emd_code":"2817758000","emd_name":"학익1동","area_km2":0.5026,"edge":false,"slope_mean":9.52,"elev_mean":38.0,"flood_hist_n":0,"flood_depth_max_m":null,"flood_risk_100y":null,"semi_basement_r":null,"elderly_alone_r":0.0856,"bldg_age30_r":null,"shelter_min_walk":2,"pop":41447,"hh":17208,"elderly65_r":0.1645,"single_hh_r":0.3117,"source_level":"emd","flood_years":[],"landslide_hist_n":0},"geometry":{"type":"Polygon","coordinates":[[[126.66248,37.43759],[126.66195,37.44192],[126.65776,37.44385],[126.65411,37.44146],[126.65465,37.43714],[126.65883,37.4352],[126.66248,37.43759]]]}},{"type":"Feature","properties":{"h3":"8830e0a863fffff","emd_code":"2817758000","emd_name":"학익1동","area_km2":0.5027,"edge":false,"slope_mean":8.39,"elev_mean":31.7,"flood_hist_n":0,"flood_depth_max_m":null,"flood_risk_100y":null,"semi_basement_r":null,"elderly_alone_r":0.0856,"bldg_age30_r":null,"shelter_min_walk":2,"pop":41447,"hh":17208,"elderly65_r":0.1645,"single_hh_r":0.3117,"source_level":"emd","flood_years":[],"landslide_hist_n":0},"geometry":{"type":"Polygon","coordinates":[[[126.67031,37.43804],[126.66978,37.44237],[126.6656,37.44431],[126.66195,37.44192],[126.66248,37.43759],[126.66666,37.43565],[126.67031,37.43804]]]}},{"type":"Feature","properties":{"h3":"8830e0a865fffff","emd_code":"2817758000","emd_name":"학익1동","area_km2":0.5025,"edge":true,"slope_mean":14.76,"elev_mean":62.1,"flood_hist_n":0,"flood_depth_max_m":null,"flood_risk_100y":null,"semi_basement_r":null,"elderly_alone_r":0.0856,"bldg_age30_r":null,"shelter_min_walk":10,"pop":41447,"hh":17208,"elderly65_r":0.1645,"single_hh_r":0.3117,"source_level":"emd","flood_years":[],"landslide_hist_n":0},"geometry":{"type":"Polygon","coordinates":[[[126.65936,37.43087],[126.65883,37.4352],[126.65465,37.43714],[126.651,37.43474],[126.65153,37.43042],[126.65571,37.42848],[126.65936,37.43087]]]}},{"type":"Feature","properties":{"h3":"8830e0a867fffff","emd_code":"2817758000","emd_name":"학익1동","area_km2":0.5026,"edge":true,"slope_mean":16.01,"elev_mean":72.3,"flood_hist_n":0,"flood_depth_max_m":null,"flood_risk_100y":null,"semi_basement_r":null,"elderly_alone_r":0.0856,"bldg_age30_r":null,"shelter_min_walk":10,"pop":41447,"hh":17208,"elderly65_r":0.1645,"single_hh_r":0.3117,"source_level":"emd","flood_years":[],"landslide_hist_n":0},"geometry":{"type":"Polygon","coordinates":[[[126.66719,37.43133],[126.66666,37.43565],[126.66248,37.43759],[126.65883,37.4352],[126.65936,37.43087],[126.66354,37.42894],[126.66719,37.43133]]]}},{"type":"Feature","properties":{"h3":"8830e0a869fffff","emd_code":"2817758000","emd_name":"학익1동","area_km2":0.5025,"edge":false,"slope_mean":3.68,"elev_mean":10.9,"flood_hist_n":0,"flood_depth_max_m":null,"flood_risk_100y":null,"semi_basement_r":null,"elderly_alone_r":0.0856,"bldg_age30_r":null,"shelter_min_walk":6,"pop":41447,"hh":17208,"elderly65_r":0.1645,"single_hh_r":0.3117,"source_level":"emd","flood_years":[],"landslide_hist_n":0},"geometry":{"type":"Polygon","coordinates":[[[126.65776,37.44385],[126.65723,37.44818],[126.65305,37.45012],[126.6494,37.44773],[126.64993,37.4434],[126.65411,37.44146],[126.65776,37.44385]]]}},{"type":"Feature","properties":{"h3":"8830e0a86bfffff","emd_code":"2817758000","emd_name":"학익1동","area_km2":0.5026,"edge":false,"slope_mean":5.48,"elev_mean":22.1,"flood_hist_n":0,"flood_depth_max_m":null,"flood_risk_100y":null,"semi_basement_r":null,"elderly_alone_r":0.0856,"bldg_age30_r":null,"shelter_min_walk":1,"pop":41447,"hh":17208,"elderly65_r":0.1645,"single_hh_r":0.3117,"source_level":"emd","flood_years":[],"landslide_hist_n":0},"geometry":{"type":"Polygon","coordinates":[[[126.6656,37.44431],[126.66506,37.44864],[126.66088,37.45057],[126.65723,37.44818],[126.65776,37.44385],[126.66195,37.44192],[126.6656,37.44431]]]}},{"type":"Feature","properties":{"h3":"8830e0a86dfffff","emd_code":"2817758000","emd_name":"학익1동","area_km2":0.5025,"edge":false,"slope_mean":8.0,"elev_mean":25.9,"flood_hist_n":0,"flood_depth_max_m":null,"flood_risk_100y":null,"semi_basement_r":null,"elderly_alone_r":0.0856,"bldg_age30_r":null,"shelter_min_walk":5,"pop":41447,"hh":17208,"elderly65_r":0.1645,"single_hh_r":0.3117,"source_level":"emd","flood_years":[],"landslide_hist_n":0},"geometry":{"type":"Polygon","coordinates":[[[126.65465,37.43714],[126.65411,37.44146],[126.64993,37.4434],[126.64628,37.44101],[126.64681,37.43668],[126.651,37.43474],[126.65465,37.43714]]]}},{"type":"Feature","properties":{"h3":"8830e0a8edfffff","emd_code":"2817770000","emd_name":"관교동","area_km2":0.5032,"edge":true,"slope_mean":4.15,"elev_mean":13.6,"flood_hist_n":0,"flood_depth_max_m":null,"flood_risk_100y":null,"semi_basement_r":null,"elderly_alone_r":0.1342,"bldg_age30_r":null,"shelter_min_walk":4,"pop":13770,"hh":6235,"elderly65_r":0.2725,"single_hh_r":0.3621,"source_level":"emd","flood_years":[],"landslide_hist_n":0},"geometry":{"type":"Polygon","coordinates":[[[126.7095,37.44031],[126.70897,37.44464],[126.70478,37.44658],[126.70113,37.44419],[126.70166,37.43986],[126.70584,37.43792],[126.7095,37.44031]]]}},{"type":"Feature","properties":{"h3":"8830e0aa21fffff","emd_code":"2817752000","emd_name":"숭의1·3동","area_km2":0.5025,"edge":true,"slope_mean":6.31,"elev_mean":22.3,"flood_hist_n":0,"flood_depth_max_m":null,"flood_risk_100y":null,"semi_basement_r":null,"elderly_alone_r":0.125,"bldg_age30_r":null,"shelter_min_walk":1,"pop":17485,"hh":8560,"elderly65_r":0.195,"single_hh_r":0.4155,"source_level":"emd","flood_years":[],"landslide_hist_n":0},"geometry":{"type":"Polygon","coordinates":[[[126.64673,37.46936],[126.64619,37.47369],[126.64201,37.47562],[126.63836,37.47323],[126.63889,37.4689],[126.64308,37.46697],[126.64673,37.46936]]]}},{"type":"Feature","properties":{"h3":"8830e0aa23fffff","emd_code":"2817761000","emd_name":"도화2·3동","area_km2":0.5026,"edge":true,"slope_mean":7.32,"elev_mean":32.0,"flood_hist_n":0,"flood_depth_max_m":null,"flood_risk_100y":null,"semi_basement_r":null,"elderly_alone_r":0.1161,"bldg_age30_r":null,"shelter_min_walk":1,"pop":28863,"hh":13101,"elderly65_r":0.1923,"single_hh_r":0.3745,"source_level":"emd","flood_years":[],"landslide_hist_n":0},"geometry":{"type":"Polygon","coordinates":[[[126.65456,37.46982],[126.65403,37.47414],[126.64985,37.47608],[126.64619,37.47369],[126.64673,37.46936],[126.65091,37.46743],[126.65456,37.46982]]]}},{"type":"Feature","properties":{"h3":"8830e0aa25fffff","emd_code":"2817752000","emd_name":"숭의1·3동","area_km2":0.5024,"edge":true,"slope_mean":5.1,"elev_mean":14.9,"flood_hist_n":0,"flood_depth_max_m":null,"flood_risk_100y":null,"semi_basement_r":null,"elderly_alone_r":0.125,"bldg_age30_r":null,"shelter_min_walk":4,"pop":17485,"hh":8560,"elderly65_r":0.195,"single_hh_r":0.4155,"source_level":"emd","flood_years":[],"landslide_hist_n":0},"geometry":{"type":"Polygon","coordinates":[[[126.64361,37.46264],[126.64308,37.46697],[126.63889,37.4689],[126.63525,37.46651],[126.63578,37.46218],[126.63996,37.46025],[126.64361,37.46264]]]}},{"type":"Feature","properties":{"h3":"8830e0aa27fffff","emd_code":"2817752000","emd_name":"숭의1·3동","area_km2":0.5025,"edge":false,"slope_mean":4.63,"elev_mean":20.8,"flood_hist_n":0,"flood_depth_max_m":null,"flood_risk_100y":null,"semi_basement_r":null,"elderly_alone_r":0.125,"bldg_age30_r":null,"shelter_min_walk":2,"pop":17485,"hh":8560,"elderly65_r":0.195,"single_hh_r":0.4155,"source_level":"emd","flood_years":[],"landslide_hist_n":0},"geometry":{"type":"Polygon","coordinates":[[[126.65145,37.4631],[126.65091,37.46743],[126.64673,37.46936],[126.64308,37.46697],[126.64361,37.46264],[126.6478,37.46071],[126.65145,37.4631]]]}},{"type":"Feature","properties":{"h3":"8830e0aa31fffff","emd_code":"2817761000","emd_name":"도화2·3동","area_km2":0.5027,"edge":false,"slope_mean":3.86,"elev_mean":9.9,"flood_hist_n":0,"flood_depth_max_m":null,"flood_risk_100y":null,"semi_basement_r":null,"elderly_alone_r":0.1161,"bldg_age30_r":null,"shelter_min_walk":6,"pop":28863,"hh":13101,"elderly65_r":0.1923,"single_hh_r":0.3745,"source_level":"emd","flood_years":[],"landslide_hist_n":0},"geometry":{"type":"Polygon","coordinates":[[[126.66552,37.477],[126.66499,37.48132],[126.6608,37.48326],[126.65715,37.48087],[126.65768,37.47654],[126.66187,37.4746],[126.66552,37.477]]]}},{"type":"Feature","properties":{"h3":"8830e0aa33fffff","emd_code":"2817761000","emd_name":"도화2·3동","area_km2":0.5028,"edge":true,"slope_mean":4.19,"elev_mean":10.3,"flood_hist_n":0,"flood_depth_max_m":null,"flood_risk_100y":null,"semi_basement_r":null,"elderly_alone_r":0.1161,"bldg_age30_r":null,"shelter_min_walk":2,"pop":28863,"hh":13101,"elderly65_r":0.1923,"single_hh_r":0.3745,"source_level":"emd","flood_years":[],"landslide_hist_n":0},"geometry":{"type":"Polygon","coordinates":[[[126.67336,37.47745],[126.67283,37.48178],[126.66864,37.48372],[126.66499,37.48132],[126.66552,37.477],[126.6697,37.47506],[126.67336,37.47745]]]}},{"type":"Feature","properties":{"h3":"8830e0aa35fffff","emd_code":"2817761000","emd_name":"도화2·3동","area_km2":0.5027,"edge":false,"slope_mean":6.67,"elev_mean":26.4,"flood_hist_n":0,"flood_depth_max_m":null,"flood_risk_100y":null,"semi_basement_r":null,"elderly_alone_r":0.1161,"bldg_age30_r":null,"shelter_min_walk":6,"pop":28863,"hh":13101,"elderly65_r":0.1923,"single_hh_r":0.3745,"source_level":"emd","flood_years":[],"landslide_hist_n":0},"geometry":{"type":"Polygon","coordinates":[[[126.6624,37.47027],[126.66187,37.4746],[126.65768,37.47654],[126.65403,37.47414],[126.65456,37.46982],[126.65875,37.46788],[126.6624,37.47027]]]}},{"type":"Feature","properties":{"h3":"8830e0aa37fffff","emd_code":"2817761000","emd_name":"도화2·3동","area_km2":0.5028,"edge":false,"slope_mean":4.37,"elev_mean":15.1,"flood_hist_n":0,"flood_depth_max_m":null,"flood_risk_100y":null,"semi_basement_r":null,"elderly_alone_r":0.1161,"bldg_age30_r":null,"shelter_min_walk":2,"pop":28863,"hh":13101,"elderly65_r":0.1923,"single_hh_r":0.3745,"source_level":"emd","flood_years":[],"landslide_hist_n":0},"geometry":{"type":"Polygon","coordinates":[[[126.67024,37.47073],[126.6697,37.47506],[126.66552,37.477],[126.66187,37.4746],[126.6624,37.47027],[126.66658,37.46834],[126.67024,37.47073]]]}},{"type":"Feature","properties":{"h3":"8830e0aa39fffff","emd_code":"2817761000","emd_name":"도화2·3동","area_km2":0.5027,"edge":true,"slope_mean":3.65,"elev_mean":9.1,"flood_hist_n":0,"flood_depth_max_m":null,"flood_risk_100y":null,"semi_basement_r":null,"elderly_alone_r":0.1161,"bldg_age30_r":null,"shelter_min_walk":4,"pop":28863,"hh":13101,"elderly65_r":0.1923,"single_hh_r":0.3745,"source_level":"emd","flood_years":[],"landslide_hist_n":0},"geometry":{"type":"Polygon","coordinates":[[[126.6608,37.48326],[126.66027,37.48759],[126.65608,37.48952],[126.65243,37.48713],[126.65296,37.4828],[126.65715,37.48087],[126.6608,37.48326]]]}},{"type":"Feature","properties":{"h3":"8830e0aa3dfffff","emd_code":"2817761000","emd_name":"도화2·3동","area_km2":0.5026,"edge":true,"slope_mean":6.52,"elev_mean":21.0,"flood_hist_n":0,"flood_depth_max_m":null,"flood_risk_100y":null,"semi_basement_r":null,"elderly_alone_r":0.1161,"bldg_age30_r":null,"shelter_min_walk":3,"pop":28863,"hh":13101,"elderly65_r":0.1923,"single_hh_r":0.3745,"source_level":"emd","flood_years":[],"landslide_hist_n":0},"geometry":{"type":"Polygon","coordinates":[[[126.65768,37.47654],[126.65715,37.48087],[126.65296,37.4828],[126.64931,37.48041],[126.64985,37.47608],[126.65403,37.47414],[126.65768,37.47654]]]}},{"type":"Feature","properties":{"h3":"8830e0aaa5fffff","emd_code":"2817766000","emd_name":"주안5동","area_km2":0.5032,"edge":true,"slope_mean":3.44,"elev_mean":10.9,"flood_hist_n":0,"flood_depth_max_m":null,"flood_risk_100y":null,"semi_basement_r":null,"elderly_alone_r":0.1623,"bldg_age30_r":null,"shelter_min_walk":2,"pop":18919,"hh":10005,"elderly65_r":0.2485,"single_hh_r":0.4895,"source_level":"emd","flood_years":[],"landslide_hist_n":0},"geometry":{"type":"Polygon","coordinates":[[[126.69847,37.46583],[126.69794,37.47016],[126.69376,37.4721],[126.6901,37.46971],[126.69063,37.46538],[126.69482,37.46344],[126.69847,37.46583]]]}},{"type":"Feature","properties":{"h3":"8830e0aaadfffff","emd_code":"2817766000","emd_name":"주안5동","area_km2":0.5031,"edge":true,"slope_mean":3.85,"elev_mean":10.2,"flood_hist_n":0,"flood_depth_max_m":null,"flood_risk_100y":null,"semi_basement_r":null,"elderly_alone_r":0.1623,"bldg_age30_r":null,"shelter_min_walk":8,"pop":18919,"hh":10005,"elderly65_r":0.2485,"single_hh_r":0.4895,"source_level":"emd","flood_years":[],"landslide_hist_n":0},"geometry":{"type":"Polygon","coordinates":[[[126.69376,37.4721],[126.69323,37.47643],[126.68904,37.47837],[126.68538,37.47597],[126.68592,37.47164],[126.6901,37.46971],[126.69376,37.4721]]]}},{"type":"Feature","properties":{"h3":"8830e0ab03fffff","emd_code":"2817757000","emd_name":"용현5동","area_km2":0.5022,"edge":true,"slope_mean":2.94,"elev_mean":6.6,"flood_hist_n":0,"flood_depth_max_m":null,"flood_risk_100y":null,"semi_basement_r":null,"elderly_alone_r":0.1065,"bldg_age30_r":null,"shelter_min_walk":7,"pop":44048,"hh":19850,"elderly65_r":0.1912,"single_hh_r":0.382,"source_level":"emd","flood_years":[],"landslide_hist_n":0},"geometry":{"type":"Polygon","coordinates":[[[126.63427,37.44249],[126.63373,37.44681],[126.62955,37.44875],[126.62591,37.44635],[126.62644,37.44203],[126.63062,37.44009],[126.63427,37.44249]]]}},{"type":"Feature","properties":{"h3":"8830e0ab11fffff","emd_code":"2817757000","emd_name":"용현5동","area_km2":0.5024,"edge":false,"slope_mean":4.02,"elev_mean":9.6,"flood_hist_n":0,"flood_depth_max_m":null,"flood_risk_100y":null,"semi_basement_r":null,"elderly_alone_r":0.1065,"bldg_age30_r":null,"shelter_min_walk":1,"pop":44048,"hh":19850,"elderly65_r":0.1912,"single_hh_r":0.382,"source_level":"emd","flood_years":[],"landslide_hist_n":0},"geometry":{"type":"Polygon","coordinates":[[[126.64521,37.44966],[126.64468,37.45399],[126.6405,37.45592],[126.63685,37.45353],[126.63738,37.4492],[126.64156,37.44727],[126.64521,37.44966]]]}},{"type":"Feature","properties":{"h3":"8830e0ab13fffff","emd_code":"2817754000","emd_name":"용현1·4동","area_km2":0.5025,"edge":false,"slope_mean":4.16,"elev_mean":15.1,"flood_hist_n":0,"flood_depth_max_m":null,"flood_risk_100y":null,"semi_basement_r":null,"elderly_alone_r":0.1365,"bldg_age30_r":null,"shelter_min_walk":7,"pop":17271,"hh":11697,"elderly65_r":0.2567,"single_hh_r":0.708,"source_level":"emd","flood_years":[],"landslide_hist_n":0},"geometry":{"type":"Polygon","coordinates":[[[126.65305,37.45012],[126.65251,37.45444],[126.64833,37.45638],[126.64468,37.45399],[126.64521,37.44966],[126.6494,37.44773],[126.65305,37.45012]]]}},{"type":"Feature","properties":{"h3":"8830e0ab15fffff","emd_code":"2817757000","emd_name":"용현5동","area_km2":0.5023,"edge":false,"slope_mean":3.67,"elev_mean":7.5,"flood_hist_n":0,"flood_depth_max_m":null,"flood_risk_100y":null,"semi_basement_r":null,"elderly_alone_r":0.1065,"bldg_age30_r":null,"shelter_min_walk":3,"pop":44048,"hh":19850,"elderly65_r":0.1912,"single_hh_r":0.382,"source_level":"emd","flood_years":[],"landslide_hist_n":0},"geometry":{"type":"Polygon","coordinates":[[[126.6421,37.44294],[126.64156,37.44727],[126.63738,37.4492],[126.63373,37.44681],[126.63427,37.44249],[126.63845,37.44055],[126.6421,37.44294]]]}},{"type":"Feature","properties":{"h3":"8830e0ab17fffff","emd_code":"2817757000","emd_name":"용현5동","area_km2":0.5024,"edge":false,"slope_mean":3.1,"elev_mean":7.4,"flood_hist_n":0,"flood_depth_max_m":null,"flood_risk_100y":null,"semi_basement_r":null,"elderly_alone_r":0.1065,"bldg_age30_r":null,"shelter_min_walk":5,"pop":44048,"hh":19850,"elderly65_r":0.1912,"single_hh_r":0.382,"source_level":"emd","flood_years":[],"landslide_hist_n":0},"geometry":{"type":"Polygon","coordinates":[[[126.64993,37.4434],[126.6494,37.44773],[126.64521,37.44966],[126.64156,37.44727],[126.6421,37.44294],[126.64628,37.44101],[126.64993,37.4434]]]}},{"type":"Feature","properties":{"h3":"8830e0ab19fffff","emd_code":"2817755000","emd_name":"용현2동","area_km2":0.5023,"edge":false,"slope_mean":3.74,"elev_mean":8.7,"flood_hist_n":0,"flood_depth_max_m":null,"flood_risk_100y":null,"semi_basement_r":null,"elderly_alone_r":0.1235,"bldg_age30_r":null,"shelter_min_walk":2,"pop":22570,"hh":10377,"elderly65_r":0.1936,"single_hh_r":0.3957,"source_level":"emd","flood_years":[],"landslide_hist_n":0},"geometry":{"type":"Polygon","coordinates":[[[126.6405,37.45592],[126.63996,37.46025],[126.63578,37.46218],[126.63213,37.45979],[126.63267,37.45546],[126.63685,37.45353],[126.6405,37.45592]]]}},{"type":"Feature","properties":{"h3":"8830e0ab1bfffff","emd_code":"2817752000","emd_name":"숭의1·3동","area_km2":0.5024,"edge":false,"slope_mean":3.55,"elev_mean":11.7,"flood_hist_n":0,"flood_depth_max_m":null,"flood_risk_100y":null,"semi_basement_r":null,"elderly_alone_r":0.125,"bldg_age30_r":null,"shelter_min_walk":6,"pop":17485,"hh":8560,"elderly65_r":0.195,"single_hh_r":0.4155,"source_level":"emd","flood_years":[],"landslide_hist_n":0},"geometry":{"type":"Polygon","coordinates":[[[126.64833,37.45638],[126.6478,37.46071],[126.64361,37.46264],[126.63996,37.46025],[126.6405,37.45592],[126.64468,37.45399],[126.64833,37.45638]]]}},{"type":"Feature","properties":{"h3":"8830e0ab1dfffff","emd_code":"2817757000","emd_name":"용현5동","area_km2":0.5023,"edge":false,"slope_mean":3.77,"elev_mean":8.3,"flood_hist_n":0,"flood_depth_max_m":null,"flood_risk_100y":null,"semi_basement_r":null,"elderly_alone_r":0.1065,"bldg_age30_r":null,"shelter_min_walk":3,"pop":44048,"hh":19850,"elderly65_r":0.1912,"single_hh_r":0.382,"source_level":"emd","flood_years":[],"landslide_hist_n":0},"geometry":{"type":"Polygon","coordinates":[[[126.63738,37.4492],[126.63685,37.45353],[126.63267,37.45546],[126.62902,37.45307],[126.62955,37.44875],[126.63373,37.44681],[126.63738,37.4492]]]}},{"type":"Feature","properties":{"h3":"8830e0ab31fffff","emd_code":"2817758000","emd_name":"학익1동","area_km2":0.5023,"edge":false,"slope_mean":7.33,"elev_mean":14.3,"flood_hist_n":0,"flood_depth_max_m":null,"flood_risk_100y":null,"semi_basement_r":null,"elderly_alone_r":0.0856,"bldg_age30_r":null,"shelter_min_walk":9,"pop":41447,"hh":17208,"elderly65_r":0.1645,"single_hh_r":0.3117,"source_level":"emd","flood_years":[],"landslide_hist_n":0},"geometry":{"type":"Polygon","coordinates":[[[126.6437,37.42996],[126.64317,37.43429],[126.63898,37.43622],[126.63534,37.43383],[126.63587,37.42951],[126.64005,37.42757],[126.6437,37.42996]]]}},{"type":"Feature","properties":{"h3":"8830e0ab33fffff","emd_code":"2817758000","emd_name":"학익1동","area_km2":0.5024,"edge":true,"slope_mean":10.09,"elev_mean":28.9,"flood_hist_n":0,"flood_depth_max_m":null,"flood_risk_100y":null,"semi_basement_r":null,"elderly_alone_r":0.0856,"bldg_age30_r":null,"shelter_min_walk":9,"pop":41447,"hh":17208,"elderly65_r":0.1645,"single_hh_r":0.3117,"source_level":"emd","flood_years":[],"landslide_hist_n":0},"geometry":{"type":"Polygon","coordinates":[[[126.65153,37.43042],[126.651,37.43474],[126.64681,37.43668],[126.64317,37.43429],[126.6437,37.42996],[126.64788,37.42803],[126.65153,37.43042]]]}},{"type":"Feature","properties":{"h3":"8830e0ab39fffff","emd_code":"2817758000","emd_name":"학익1동","area_km2":0.5023,"edge":false,"slope_mean":2.79,"elev_mean":3.8,"flood_hist_n":0,"flood_depth_max_m":null,"flood_risk_100y":null,"semi_basement_r":null,"elderly_alone_r":0.0856,"bldg_age30_r":null,"shelter_min_walk":9,"pop":41447,"hh":17208,"elderly65_r":0.1645,"single_hh_r":0.3117,"source_level":"emd","flood_years":[],"landslide_hist_n":0},"geometry":{"type":"Polygon","coordinates":[[[126.63898,37.43622],[126.63845,37.44055],[126.63427,37.44249],[126.63062,37.44009],[126.63116,37.43577],[126.63534,37.43383],[126.63898,37.43622]]]}},{"type":"Feature","properties":{"h3":"8830e0ab3bfffff","emd_code":"2817758000","emd_name":"학익1동","area_km2":0.5024,"edge":false,"slope_mean":4.2,"elev_mean":9.4,"flood_hist_n":0,"flood_depth_max_m":null,"flood_risk_100y":null,"semi_basement_r":null,"elderly_alone_r":0.0856,"bldg_age30_r":null,"shelter_min_walk":5,"pop":41447,"hh":17208,"elderly65_r":0.1645,"single_hh_r":0.3117,"source_level":"emd","flood_years":[],"landslide_hist_n":0},"geometry":{"type":"Polygon","coordinates":[[[126.64681,37.43668],[126.64628,37.44101],[126.6421,37.44294],[126.63845,37.44055],[126.63898,37.43622],[126.64317,37.43429],[126.64681,37.43668]]]}},{"type":"Feature","properties":{"h3":"8830e0ab3dfffff","emd_code":"2817758000","emd_name":"학익1동","area_km2":0.5022,"edge":true,"slope_mean":2.76,"elev_mean":4.4,"flood_hist_n":0,"flood_depth_max_m":null,"flood_risk_100y":null,"semi_basement_r":null,"elderly_alone_r":0.0856,"bldg_age30_r":null,"shelter_min_walk":16,"pop":41447,"hh":17208,"elderly65_r":0.1645,"single_hh_r":0.3117,"source_level":"emd","flood_years":[],"landslide_hist_n":0},"geometry":{"type":"Polygon","coordinates":[[[126.63587,37.42951],[126.63534,37.43383],[126.63116,37.43577],[126.62751,37.43338],[126.62804,37.42905],[126.63222,37.42712],[126.63587,37.42951]]]}}]}