{"type":"FeatureCollection","name":"grid_28200_h3r8","meta":{"sgg_code":"28200","h3_res":8,"n_cells":150,"dem":"Copernicus GLO-30 (bbox-mean)","crs":"EPSG:4326","jumin_basis":"2026-07","flood_src":"행안부 침수흔적도(전국, 재난안전데이터공유플랫폼)","landslide_src":"행안부 산사태 발생이력"},"features":[{"type":"Feature","properties":{"h3":"8830e006dbfffff","emd_code":"2820071000","emd_name":"논현고잔동","area_km2":0.5029,"edge":true,"slope_mean":1.17,"elev_mean":1.4,"flood_hist_n":0,"flood_depth_max_m":null,"flood_risk_100y":null,"semi_basement_r":null,"elderly_alone_r":0.0864,"bldg_age30_r":null,"shelter_min_walk":23,"pop":39119,"hh":15703,"elderly65_r":0.1372,"single_hh_r":0.2934,"source_level":"emd","flood_years":[],"landslide_hist_n":0},"geometry":{"type":"Polygon","coordinates":[[[126.69707,37.38074],[126.69654,37.38507],[126.69235,37.38701],[126.6887,37.38462],[126.68924,37.3803],[126.69342,37.37836],[126.69707,37.38074]]]}},{"type":"Feature","properties":{"h3":"8830e03241fffff","emd_code":"2820069000","emd_name":"논현1동","area_km2":0.5038,"edge":false,"slope_mean":2.25,"elev_mean":5.9,"flood_hist_n":0,"flood_depth_max_m":null,"flood_risk_100y":null,"semi_basement_r":null,"elderly_alone_r":0.1192,"bldg_age30_r":null,"shelter_min_walk":7,"pop":31010,"hh":14250,"elderly65_r":0.1858,"single_hh_r":0.4013,"source_level":"emd","flood_years":[],"landslide_hist_n":0},"geometry":{"type":"Polygon","coordinates":[[[126.75188,37.41658],[126.75136,37.42091],[126.74717,37.42285],[126.74351,37.42046],[126.74404,37.41613],[126.74823,37.41419],[126.75188,37.41658]]]}},{"type":"Feature","properties":{"h3":"8830e03243fffff","emd_code":"2820065500","emd_name":"서창2동","area_km2":0.5039,"edge":true,"slope_mean":2.16,"elev_mean":5.5,"flood_hist_n":0,"flood_depth_max_m":null,"flood_risk_100y":null,"semi_basement_r":null,"elderly_alone_r":0.1254,"bldg_age30_r":null,"shelter_min_walk":6,"pop":37301,"hh":15740,"elderly65_r":0.1637,"single_hh_r":0.3414,"source_level":"emd","flood_years":[],"landslide_hist_n":0},"geometry":{"type":"Polygon","coordinates":[[[126.75973,37.41702],[126.7592,37.42136],[126.75501,37.4233],[126.75136,37.42091],[126.75188,37.41658],[126.75607,37.41463],[126.75973,37.41702]]]}},{"type":"Feature","properties":{"h3":"8830e03245fffff","emd_code":"2820069000","emd_name":"논현1동","area_km2":0.5037,"edge":false,"slope_mean":1.48,"elev_mean":4.1,"flood_hist_n":0,"flood_depth_max_m":null,"flood_risk_100y":null,"semi_basement_r":null,"elderly_alone_r":0.1192,"bldg_age30_r":null,"shelter_min_walk":12,"pop":31010,"hh":14250,"elderly65_r":0.1858,"single_hh_r":0.4013,"source_level":"emd","flood_years":[],"landslide_hist_n":0},"geometry":{"type":"Polygon","coordinates":[[[126.74875,37.40986],[126.74823,37.41419],[126.74404,37.41613],[126.74038,37.41374],[126.74091,37.40941],[126.7451,37.40747],[126.74875,37.40986]]]}},{"type":"Feature","properties":{"h3":"8830e03247fffff","emd_code":"2820069000","emd_name":"논현1동","area_km2":0.5038,"edge":true,"slope_mean":2.23,"elev_mean":4.9,"flood_hist_n":0,"flood_depth_max_m":null,"flood_risk_100y":null,"semi_basement_r":null,"elderly_alone_r":0.1192,"bldg_age30_r":null,"shelter_min_walk":15,"pop":31010,"hh":14250,"elderly65_r":0.1858,"single_hh_r":0.4013,"source_level":"emd","flood_years":[],"landslide_hist_n":0},"geometry":{"type":"Polygon","coordinates":[[[126.7566,37.4103],[126.75607,37.41463],[126.75188,37.41658],[126.74823,37.41419],[126.74875,37.40986],[126.75294,37.40791],[126.7566,37.4103]]]}},{"type":"Feature","properties":{"h3":"8830e03249fffff","emd_code":"2820065500","emd_name":"서창2동","area_km2":0.5037,"edge":false,"slope_mean":2.66,"elev_mean":7.3,"flood_hist_n":0,"flood_depth_max_m":null,"flood_risk_100y":null,"semi_basement_r":null,"elderly_alone_r":0.1254,"bldg_age30_r":null,"shelter_min_walk":3,"pop":37301,"hh":15740,"elderly65_r":0.1637,"single_hh_r":0.3414,"source_level":"emd","flood_years":[],"landslide_hist_n":0},"geometry":{"type":"Polygon","coordinates":[[[126.74717,37.42285],[126.74664,37.42718],[126.74246,37.42912],[126.7388,37.42673],[126.73933,37.4224],[126.74351,37.42046],[126.74717,37.42285]]]}},{"type":"Feature","properties":{"h3":"8830e0324bfffff","emd_code":"2820065500","emd_name":"서창2동","area_km2":0.5038,"edge":false,"slope_mean":5.41,"elev_mean":14.6,"flood_hist_n":0,"flood_depth_max_m":null,"flood_risk_100y":null,"semi_basement_r":null,"elderly_alone_r":0.1254,"bldg_age30_r":null,"shelter_min_walk":6,"pop":37301,"hh":15740,"elderly65_r":0.1637,"single_hh_r":0.3414,"source_level":"emd","flood_years":[],"landslide_hist_n":0},"geometry":{"type":"Polygon","coordinates":[[[126.75501,37.4233],[126.75449,37.42763],[126.7503,37.42957],[126.74664,37.42718],[126.74717,37.42285],[126.75136,37.42091],[126.75501,37.4233]]]}},{"type":"Feature","properties":{"h3":"8830e0324dfffff","emd_code":"2820069000","emd_name":"논현1동","area_km2":0.5037,"edge":false,"slope_mean":4.81,"elev_mean":10.3,"flood_hist_n":0,"flood_depth_max_m":null,"flood_risk_100y":null,"semi_basement_r":null,"elderly_alone_r":0.1192,"bldg_age30_r":null,"shelter_min_walk":11,"pop":31010,"hh":14250,"elderly65_r":0.1858,"single_hh_r":0.4013,"source_level":"emd","flood_years":[],"landslide_hist_n":0},"geometry":{"type":"Polygon","coordinates":[[[126.74404,37.41613],[126.74351,37.42046],[126.73933,37.4224],[126.73567,37.42001],[126.7362,37.41568],[126.74038,37.41374],[126.74404,37.41613]]]}},{"type":"Feature","properties":{"h3":"8830e03251fffff","emd_code":"2820065000","emd_name":"장수서창동","area_km2":0.5041,"edge":true,"slope_mean":7.75,"elev_mean":20.3,"flood_hist_n":0,"flood_depth_max_m":null,"flood_risk_100y":null,"semi_basement_r":null,"elderly_alone_r":0.1352,"bldg_age30_r":null,"shelter_min_walk":21,"pop":18083,"hh":7804,"elderly65_r":0.2454,"single_hh_r":0.3266,"source_level":"emd","flood_years":[],"landslide_hist_n":0},"geometry":{"type":"Polygon","coordinates":[[[126.77071,37.42419],[126.77018,37.42852],[126.76599,37.43047],[126.76233,37.42808],[126.76286,37.42375],[126.76705,37.4218],[126.77071,37.42419]]]}},{"type":"Feature","properties":{"h3":"8830e03259fffff","emd_code":"2820065000","emd_name":"장수서창동","area_km2":0.504,"edge":false,"slope_mean":7.56,"elev_mean":15.9,"flood_hist_n":0,"flood_depth_max_m":null,"flood_risk_100y":null,"semi_basement_r":null,"elderly_alone_r":0.1352,"bldg_age30_r":null,"shelter_min_walk":15,"pop":18083,"hh":7804,"elderly65_r":0.2454,"single_hh_r":0.3266,"source_level":"emd","flood_years":[],"landslide_hist_n":0},"geometry":{"type":"Polygon","coordinates":[[[126.76599,37.43047],[126.76547,37.4348],[126.76128,37.43674],[126.75762,37.43435],[126.75815,37.43002],[126.76233,37.42808],[126.76599,37.43047]]]}},{"type":"Feature","properties":{"h3":"8830e0325bfffff","emd_code":"2820065000","emd_name":"장수서창동","area_km2":0.5041,"edge":false,"slope_mean":2.66,"elev_mean":8.9,"flood_hist_n":1,"flood_depth_max_m":0.5,"flood_risk_100y":null,"semi_basement_r":null,"elderly_alone_r":0.1352,"bldg_age30_r":null,"shelter_min_walk":24,"pop":18083,"hh":7804,"elderly65_r":0.2454,"single_hh_r":0.3266,"source_level":"emd","flood_years":[2017],"landslide_hist_n":0},"geometry":{"type":"Polygon","coordinates":[[[126.77384,37.43091],[126.77332,37.43525],[126.76913,37.43719],[126.76547,37.4348],[126.76599,37.43047],[126.77018,37.42852],[126.77384,37.43091]]]}},{"type":"Feature","properties":{"h3":"8830e0325dfffff","emd_code":"2820065500","emd_name":"서창2동","area_km2":0.5039,"edge":true,"slope_mean":6.26,"elev_mean":14.0,"flood_hist_n":0,"flood_depth_max_m":null,"flood_risk_100y":null,"semi_basement_r":null,"elderly_alone_r":0.1254,"bldg_age30_r":null,"shelter_min_walk":12,"pop":37301,"hh":15740,"elderly65_r":0.1637,"single_hh_r":0.3414,"source_level":"emd","flood_years":[],"landslide_hist_n":0},"geometry":{"type":"Polygon","coordinates":[[[126.76286,37.42375],[126.76233,37.42808],[126.75815,37.43002],[126.75449,37.42763],[126.75501,37.4233],[126.7592,37.42136],[126.76286,37.42375]]]}},{"type":"Feature","properties":{"h3":"8830e03261fffff","emd_code":"2820069000","emd_name":"논현1동","area_km2":0.5037,"edge":true,"slope_mean":2.2,"elev_mean":3.9,"flood_hist_n":0,"flood_depth_max_m":null,"flood_risk_100y":null,"semi_basement_r":null,"elderly_alone_r":0.1192,"bldg_age30_r":null,"shelter_min_walk":15,"pop":31010,"hh":14250,"elderly65_r":0.1858,"single_hh_r":0.4013,"source_level":"emd","flood_years":[],"landslide_hist_n":0},"geometry":{"type":"Polygon","coordinates":[[[126.75034,37.39686],[126.74981,37.40119],[126.74562,37.40314],[126.74197,37.40075],[126.74249,37.39642],[126.74668,37.39448],[126.75034,37.39686]]]}},{"type":"Feature","properties":{"h3":"8830e03269fffff","emd_code":"2820069000","emd_name":"논현1동","area_km2":0.5036,"edge":false,"slope_mean":3.01,"elev_mean":6.4,"flood_hist_n":0,"flood_depth_max_m":null,"flood_risk_100y":null,"semi_basement_r":null,"elderly_alone_r":0.1192,"bldg_age30_r":null,"shelter_min_walk":5,"pop":31010,"hh":14250,"elderly65_r":0.1858,"single_hh_r":0.4013,"source_level":"emd","flood_years":[],"landslide_hist_n":0},"geometry":{"type":"Polygon","coordinates":[[[126.74562,37.40314],[126.7451,37.40747],[126.74091,37.40941],[126.73725,37.40702],[126.73778,37.40269],[126.74197,37.40075],[126.74562,37.40314]]]}},{"type":"Feature","properties":{"h3":"8830e0326bfffff","emd_code":"2820069000","emd_name":"논현1동","area_km2":0.5038,"edge":true,"slope_mean":2.1,"elev_mean":4.2,"flood_hist_n":0,"flood_depth_max_m":null,"flood_risk_100y":null,"semi_basement_r":null,"elderly_alone_r":0.1192,"bldg_age30_r":null,"shelter_min_walk":15,"pop":31010,"hh":14250,"elderly65_r":0.1858,"single_hh_r":0.4013,"source_level":"emd","flood_years":[],"landslide_hist_n":0},"geometry":{"type":"Polygon","coordinates":[[[126.75347,37.40358],[126.75294,37.40791],[126.74875,37.40986],[126.7451,37.40747],[126.74562,37.40314],[126.74981,37.40119],[126.75347,37.40358]]]}},{"type":"Feature","properties":{"h3":"8830e0326dfffff","emd_code":"2820069000","emd_name":"논현1동","area_km2":0.5036,"edge":false,"slope_mean":3.53,"elev_mean":5.8,"flood_hist_n":0,"flood_depth_max_m":null,"flood_risk_100y":null,"semi_basement_r":null,"elderly_alone_r":0.1192,"bldg_age30_r":null,"shelter_min_walk":8,"pop":31010,"hh":14250,"elderly65_r":0.1858,"single_hh_r":0.4013,"source_level":"emd","flood_years":[],"landslide_hist_n":0},"geometry":{"type":"Polygon","coordinates":[[[126.74249,37.39642],[126.74197,37.40075],[126.73778,37.40269],[126.73413,37.4003],[126.73465,37.39597],[126.73884,37.39403],[126.74249,37.39642]]]}},{"type":"Feature","properties":{"h3":"8830e03349fffff","emd_code":"2820071000","emd_name":"논현고잔동","area_km2":0.5033,"edge":true,"slope_mean":1.2,"elev_mean":2.6,"flood_hist_n":0,"flood_depth_max_m":null,"flood_risk_100y":null,"semi_basement_r":null,"elderly_alone_r":0.0864,"bldg_age30_r":null,"shelter_min_walk":16,"pop":39119,"hh":15703,"elderly65_r":0.1372,"single_hh_r":0.2934,"source_level":"emd","flood_years":[],"landslide_hist_n":0},"geometry":{"type":"Polygon","coordinates":[[[126.72528,37.37582],[126.72475,37.38015],[126.72057,37.38209],[126.71691,37.3797],[126.71744,37.37537],[126.72162,37.37343],[126.72528,37.37582]]]}},{"type":"Feature","properties":{"h3":"8830e0a811fffff","emd_code":"2820052100","emd_name":"구월3동","area_km2":0.5031,"edge":false,"slope_mean":5.24,"elev_mean":24.8,"flood_hist_n":0,"flood_depth_max_m":null,"flood_risk_100y":null,"semi_basement_r":null,"elderly_alone_r":0.0793,"bldg_age30_r":null,"shelter_min_walk":4,"pop":28004,"hh":17552,"elderly65_r":0.1542,"single_hh_r":0.6493,"source_level":"emd","flood_years":[],"landslide_hist_n":0},"geometry":{"type":"Polygon","coordinates":[[[126.70007,37.45285],[126.69954,37.45717],[126.69535,37.45911],[126.6917,37.45672],[126.69223,37.45239],[126.69641,37.45045],[126.70007,37.45285]]]}},{"type":"Feature","properties":{"h3":"8830e0a813fffff","emd_code":"2820051000","emd_name":"구월1동","area_km2":0.5033,"edge":false,"slope_mean":5.97,"elev_mean":30.2,"flood_hist_n":0,"flood_depth_max_m":null,"flood_risk_100y":null,"semi_basement_r":null,"elderly_alone_r":0.1225,"bldg_age30_r":null,"shelter_min_walk":1,"pop":30025,"hh":13895,"elderly65_r":0.1931,"single_hh_r":0.4001,"source_level":"emd","flood_years":[],"landslide_hist_n":0},"geometry":{"type":"Polygon","coordinates":[[[126.70791,37.4533],[126.70738,37.45763],[126.70319,37.45957],[126.69954,37.45717],[126.70007,37.45285],[126.70425,37.45091],[126.70791,37.4533]]]}},{"type":"Feature","properties":{"h3":"8830e0a815fffff","emd_code":"2820052100","emd_name":"구월3동","area_km2":0.5031,"edge":true,"slope_mean":4.39,"elev_mean":18.0,"flood_hist_n":1,"flood_depth_max_m":0.307,"flood_risk_100y":null,"semi_basement_r":null,"elderly_alone_r":0.0793,"bldg_age30_r":null,"shelter_min_walk":5,"pop":28004,"hh":17552,"elderly65_r":0.1542,"single_hh_r":0.6493,"source_level":"emd","flood_years":[2018],"landslide_hist_n":0},"geometry":{"type":"Polygon","coordinates":[[[126.69694,37.44613],[126.69641,37.45045],[126.69223,37.45239],[126.68857,37.45],[126.6891,37.44567],[126.69329,37.44373],[126.69694,37.44613]]]}},{"type":"Feature","properties":{"h3":"8830e0a817fffff","emd_code":"2820052100","emd_name":"구월3동","area_km2":0.5032,"edge":false,"slope_mean":5.32,"elev_mean":19.3,"flood_hist_n":0,"flood_depth_max_m":null,"flood_risk_100y":null,"semi_basement_r":null,"elderly_alone_r":0.0793,"bldg_age30_r":null,"shelter_min_walk":2,"pop":28004,"hh":17552,"elderly65_r":0.1542,"single_hh_r":0.6493,"source_level":"emd","flood_years":[],"landslide_hist_n":0},"geometry":{"type":"Polygon","coordinates":[[[126.70478,37.44658],[126.70425,37.45091],[126.70007,37.45285],[126.69641,37.45045],[126.69694,37.44613],[126.70113,37.44419],[126.70478,37.44658]]]}},{"type":"Feature","properties":{"h3":"8830e0a819fffff","emd_code":"2820053000","emd_name":"간석1동","area_km2":0.5031,"edge":true,"slope_mean":5.27,"elev_mean":20.6,"flood_hist_n":0,"flood_depth_max_m":null,"flood_risk_100y":null,"semi_basement_r":null,"elderly_alone_r":0.1471,"bldg_age30_r":null,"shelter_min_walk":2,"pop":18413,"hh":9500,"elderly65_r":0.2411,"single_hh_r":0.4638,"source_level":"emd","flood_years":[],"landslide_hist_n":0},"geometry":{"type":"Polygon","coordinates":[[[126.69535,37.45911],[126.69482,37.46344],[126.69063,37.46538],[126.68698,37.46299],[126.68751,37.45866],[126.6917,37.45672],[126.69535,37.45911]]]}},{"type":"Feature","properties":{"h3":"8830e0a81bfffff","emd_code":"2820053000","emd_name":"간석1동","area_km2":0.5032,"edge":false,"slope_mean":4.25,"elev_mean":16.8,"flood_hist_n":0,"flood_depth_max_m":null,"flood_risk_100y":null,"semi_basement_r":null,"elderly_alone_r":0.1471,"bldg_age30_r":null,"shelter_min_walk":3,"pop":18413,"hh":9500,"elderly65_r":0.2411,"single_hh_r":0.4638,"source_level":"emd","flood_years":[],"landslide_hist_n":0},"geometry":{"type":"Polygon","coordinates":[[[126.70319,37.45957],[126.70266,37.4639],[126.69847,37.46583],[126.69482,37.46344],[126.69535,37.45911],[126.69954,37.45717],[126.70319,37.45957]]]}},{"type":"Feature","properties":{"h3":"8830e0a833fffff","emd_code":"2820051000","emd_name":"구월1동","area_km2":0.5032,"edge":true,"slope_mean":3.62,"elev_mean":10.6,"flood_hist_n":0,"flood_depth_max_m":null,"flood_risk_100y":null,"semi_basement_r":null,"elderly_alone_r":0.1225,"bldg_age30_r":null,"shelter_min_walk":6,"pop":30025,"hh":13895,"elderly65_r":0.1931,"single_hh_r":0.4001,"source_level":"emd","flood_years":[],"landslide_hist_n":0},"geometry":{"type":"Polygon","coordinates":[[[126.70637,37.43359],[126.70584,37.43792],[126.70166,37.43986],[126.698,37.43747],[126.69854,37.43314],[126.70272,37.4312],[126.70637,37.43359]]]}},{"type":"Feature","properties":{"h3":"8830e0a83bfffff","emd_code":"2820052100","emd_name":"구월3동","area_km2":0.5031,"edge":true,"slope_mean":4.44,"elev_mean":13.4,"flood_hist_n":0,"flood_depth_max_m":null,"flood_risk_100y":null,"semi_basement_r":null,"elderly_alone_r":0.0793,"bldg_age30_r":null,"shelter_min_walk":1,"pop":28004,"hh":17552,"elderly65_r":0.1542,"single_hh_r":0.6493,"source_level":"emd","flood_years":[],"landslide_hist_n":0},"geometry":{"type":"Polygon","coordinates":[[[126.70166,37.43986],[126.70113,37.44419],[126.69694,37.44613],[126.69329,37.44373],[126.69382,37.43941],[126.698,37.43747],[126.70166,37.43986]]]}},{"type":"Feature","properties":{"h3":"8830e0a853fffff","emd_code":"2820055100","emd_name":"간석4동","area_km2":0.5031,"edge":true,"slope_mean":4.51,"elev_mean":12.0,"flood_hist_n":0,"flood_depth_max_m":null,"flood_risk_100y":null,"semi_basement_r":null,"elderly_alone_r":0.1354,"bldg_age30_r":null,"shelter_min_walk":4,"pop":27636,"hh":13762,"elderly65_r":0.2262,"single_hh_r":0.4448,"source_level":"emd","flood_years":[],"landslide_hist_n":0},"geometry":{"type":"Polygon","coordinates":[[[126.69063,37.46538],[126.6901,37.46971],[126.68592,37.47164],[126.68226,37.46925],[126.68279,37.46492],[126.68698,37.46299],[126.69063,37.46538]]]}},{"type":"Feature","properties":{"h3":"8830e0a881fffff","emd_code":"2820056000","emd_name":"만수1동","area_km2":0.5036,"edge":false,"slope_mean":4.29,"elev_mean":21.1,"flood_hist_n":0,"flood_depth_max_m":null,"flood_risk_100y":null,"semi_basement_r":null,"elderly_alone_r":0.2454,"bldg_age30_r":null,"shelter_min_walk":3,"pop":15020,"hh":8740,"elderly65_r":0.3084,"single_hh_r":0.5563,"source_level":"emd","flood_years":[],"landslide_hist_n":0},"geometry":{"type":"Polygon","coordinates":[[[126.73616,37.44839],[126.73563,37.45272],[126.73144,37.45466],[126.72778,37.45226],[126.72831,37.44793],[126.7325,37.44599],[126.73616,37.44839]]]}},{"type":"Feature","properties":{"h3":"8830e0a883fffff","emd_code":"2820056000","emd_name":"만수1동","area_km2":0.5037,"edge":false,"slope_mean":5.95,"elev_mean":27.0,"flood_hist_n":0,"flood_depth_max_m":null,"flood_risk_100y":null,"semi_basement_r":null,"elderly_alone_r":0.2454,"bldg_age30_r":null,"shelter_min_walk":4,"pop":15020,"hh":8740,"elderly65_r":0.3084,"single_hh_r":0.5563,"source_level":"emd","flood_years":[],"landslide_hist_n":0},"geometry":{"type":"Polygon","coordinates":[[[126.744,37.44884],[126.74347,37.45317],[126.73929,37.45511],[126.73563,37.45272],[126.73616,37.44839],[126.74034,37.44645],[126.744,37.44884]]]}},{"type":"Feature","properties":{"h3":"8830e0a885fffff","emd_code":"2820066000","emd_name":"남촌도림동","area_km2":0.5036,"edge":false,"slope_mean":9.61,"elev_mean":31.0,"flood_hist_n":0,"flood_depth_max_m":null,"flood_risk_100y":null,"semi_basement_r":null,"elderly_alone_r":0.1594,"bldg_age30_r":null,"shelter_min_walk":7,"pop":18548,"hh":8912,"elderly65_r":0.2621,"single_hh_r":0.3992,"source_level":"emd","flood_years":[],"landslide_hist_n":0},"geometry":{"type":"Polygon","coordinates":[[[126.73303,37.44166],[126.7325,37.44599],[126.72831,37.44793],[126.72465,37.44554],[126.72518,37.44121],[126.72937,37.43927],[126.73303,37.44166]]]}},{"type":"Feature","properties":{"h3":"8830e0a887fffff","emd_code":"2820058300","emd_name":"만수6동","area_km2":0.5037,"edge":false,"slope_mean":3.87,"elev_mean":13.2,"flood_hist_n":0,"flood_depth_max_m":null,"flood_risk_100y":null,"semi_basement_r":null,"elderly_alone_r":0.1739,"bldg_age30_r":null,"shelter_min_walk":1,"pop":21606,"hh":10154,"elderly65_r":0.2685,"single_hh_r":0.395,"source_level":"emd","flood_years":[],"landslide_hist_n":0},"geometry":{"type":"Polygon","coordinates":[[[126.74087,37.44211],[126.74034,37.44645],[126.73616,37.44839],[126.7325,37.44599],[126.73303,37.44166],[126.73721,37.43972],[126.74087,37.44211]]]}},{"type":"Feature","properties":{"h3":"8830e0a889fffff","emd_code":"2820058200","emd_name":"만수5동","area_km2":0.5036,"edge":false,"slope_mean":4.4,"elev_mean":32.2,"flood_hist_n":0,"flood_depth_max_m":null,"flood_risk_100y":null,"semi_basement_r":null,"elderly_alone_r":0.1987,"bldg_age30_r":null,"shelter_min_walk":2,"pop":13880,"hh":7515,"elderly65_r":0.3032,"single_hh_r":0.4921,"source_level":"emd","flood_years":[],"landslide_hist_n":0},"geometry":{"type":"Polygon","coordinates":[[[126.73144,37.45466],[126.73091,37.45899],[126.72672,37.46093],[126.72307,37.45853],[126.72359,37.4542],[126.72778,37.45226],[126.73144,37.45466]]]}},{"type":"Feature","properties":{"h3":"8830e0a88bfffff","emd_code":"2820058100","emd_name":"만수4동","area_km2":0.5037,"edge":false,"slope_mean":5.06,"elev_mean":36.7,"flood_hist_n":0,"flood_depth_max_m":null,"flood_risk_100y":null,"semi_basement_r":null,"elderly_alone_r":0.1549,"bldg_age30_r":null,"shelter_min_walk":1,"pop":18014,"hh":8727,"elderly65_r":0.2591,"single_hh_r":0.3937,"source_level":"emd","flood_years":[],"landslide_hist_n":0},"geometry":{"type":"Polygon","coordinates":[[[126.73929,37.45511],[126.73876,37.45944],[126.73457,37.46138],[126.73091,37.45899],[126.73144,37.45466],[126.73563,37.45272],[126.73929,37.45511]]]}},{"type":"Feature","properties":{"h3":"8830e0a88dfffff","emd_code":"2820052200","emd_name":"구월4동","area_km2":0.5035,"edge":false,"slope_mean":5.76,"elev_mean":29.0,"flood_hist_n":0,"flood_depth_max_m":null,"flood_risk_100y":null,"semi_basement_r":null,"elderly_alone_r":0.2201,"bldg_age30_r":null,"shelter_min_walk":4,"pop":12585,"hh":7457,"elderly65_r":0.2948,"single_hh_r":0.5797,"source_level":"emd","flood_years":[],"landslide_hist_n":0},"geometry":{"type":"Polygon","coordinates":[[[126.72831,37.44793],[126.72778,37.45226],[126.72359,37.4542],[126.71994,37.45181],[126.72047,37.44748],[126.72465,37.44554],[126.72831,37.44793]]]}},{"type":"Feature","properties":{"h3":"8830e0a891fffff","emd_code":"2820065000","emd_name":"장수서창동","area_km2":0.5039,"edge":false,"slope_mean":8.52,"elev_mean":36.4,"flood_hist_n":0,"flood_depth_max_m":null,"flood_risk_100y":null,"semi_basement_r":null,"elderly_alone_r":0.1352,"bldg_age30_r":null,"shelter_min_walk":10,"pop":18083,"hh":7804,"elderly65_r":0.2454,"single_hh_r":0.3266,"source_level":"emd","flood_years":[],"landslide_hist_n":0},"geometry":{"type":"Polygon","coordinates":[[[126.75498,37.45601],[126.75445,37.46034],[126.75027,37.46228],[126.74661,37.45989],[126.74713,37.45556],[126.75132,37.45362],[126.75498,37.45601]]]}},{"type":"Feature","properties":{"h3":"8830e0a893fffff","emd_code":"2820065000","emd_name":"장수서창동","area_km2":0.504,"edge":false,"slope_mean":10.6,"elev_mean":51.4,"flood_hist_n":0,"flood_depth_max_m":null,"flood_risk_100y":null,"semi_basement_r":null,"elderly_alone_r":0.1352,"bldg_age30_r":null,"shelter_min_walk":16,"pop":18083,"hh":7804,"elderly65_r":0.2454,"single_hh_r":0.3266,"source_level":"emd","flood_years":[],"landslide_hist_n":0},"geometry":{"type":"Polygon","coordinates":[[[126.76283,37.45646],[126.7623,37.46079],[126.75812,37.46273],[126.75445,37.46034],[126.75498,37.45601],[126.75917,37.45407],[126.76283,37.45646]]]}},{"type":"Feature","properties":{"h3":"8830e0a895fffff","emd_code":"2820065000","emd_name":"장수서창동","area_km2":0.5039,"edge":false,"slope_mean":8.91,"elev_mean":30.9,"flood_hist_n":0,"flood_depth_max_m":null,"flood_risk_100y":null,"semi_basement_r":null,"elderly_alone_r":0.1352,"bldg_age30_r":null,"shelter_min_walk":3,"pop":18083,"hh":7804,"elderly65_r":0.2454,"single_hh_r":0.3266,"source_level":"emd","flood_years":[],"landslide_hist_n":0},"geometry":{"type":"Polygon","coordinates":[[[126.75185,37.44929],[126.75132,37.45362],[126.74713,37.45556],[126.74347,37.45317],[126.744,37.44884],[126.74819,37.4469],[126.75185,37.44929]]]}},{"type":"Feature","properties":{"h3":"8830e0a897fffff","emd_code":"2820065000","emd_name":"장수서창동","area_km2":0.504,"edge":false,"slope_mean":10.43,"elev_mean":47.0,"flood_hist_n":0,"flood_depth_max_m":null,"flood_risk_100y":null,"semi_basement_r":null,"elderly_alone_r":0.1352,"bldg_age30_r":null,"shelter_min_walk":8,"pop":18083,"hh":7804,"elderly65_r":0.2454,"single_hh_r":0.3266,"source_level":"emd","flood_years":[],"landslide_hist_n":0},"geometry":{"type":"Polygon","coordinates":[[[126.7597,37.44974],[126.75917,37.45407],[126.75498,37.45601],[126.75132,37.45362],[126.75185,37.44929],[126.75604,37.44735],[126.7597,37.44974]]]}},{"type":"Feature","properties":{"h3":"8830e0a899fffff","emd_code":"2820065000","emd_name":"장수서창동","area_km2":0.5039,"edge":false,"slope_mean":13.96,"elev_mean":79.8,"flood_hist_n":0,"flood_depth_max_m":null,"flood_risk_100y":null,"semi_basement_r":null,"elderly_alone_r":0.1352,"bldg_age30_r":null,"shelter_min_walk":9,"pop":18083,"hh":7804,"elderly65_r":0.2454,"single_hh_r":0.3266,"source_level":"emd","flood_years":[],"landslide_hist_n":0},"geometry":{"type":"Polygon","coordinates":[[[126.75027,37.46228],[126.74974,37.46661],[126.74555,37.46855],[126.74189,37.46616],[126.74242,37.46183],[126.74661,37.45989],[126.75027,37.46228]]]}},{"type":"Feature","properties":{"h3":"8830e0a89bfffff","emd_code":"2820065000","emd_name":"장수서창동","area_km2":0.504,"edge":false,"slope_mean":9.0,"elev_mean":53.4,"flood_hist_n":0,"flood_depth_max_m":null,"flood_risk_100y":null,"semi_basement_r":null,"elderly_alone_r":0.1352,"bldg_age30_r":null,"shelter_min_walk":19,"pop":18083,"hh":7804,"elderly65_r":0.2454,"single_hh_r":0.3266,"source_level":"emd","flood_years":[],"landslide_hist_n":0},"geometry":{"type":"Polygon","coordinates":[[[126.75812,37.46273],[126.75759,37.46706],[126.7534,37.469],[126.74974,37.46661],[126.75027,37.46228],[126.75445,37.46034],[126.75812,37.46273]]]}},{"type":"Feature","properties":{"h3":"8830e0a89dfffff","emd_code":"2820065000","emd_name":"장수서창동","area_km2":0.5038,"edge":false,"slope_mean":14.77,"elev_mean":68.2,"flood_hist_n":0,"flood_depth_max_m":null,"flood_risk_100y":null,"semi_basement_r":null,"elderly_alone_r":0.1352,"bldg_age30_r":null,"shelter_min_walk":7,"pop":18083,"hh":7804,"elderly65_r":0.2454,"single_hh_r":0.3266,"source_level":"emd","flood_years":[],"landslide_hist_n":0},"geometry":{"type":"Polygon","coordinates":[[[126.74713,37.45556],[126.74661,37.45989],[126.74242,37.46183],[126.73876,37.45944],[126.73929,37.45511],[126.74347,37.45317],[126.74713,37.45556]]]}},{"type":"Feature","properties":{"h3":"8830e0a8a1fffff","emd_code":"2820066000","emd_name":"남촌도림동","area_km2":0.5036,"edge":false,"slope_mean":9.67,"elev_mean":28.4,"flood_hist_n":0,"flood_depth_max_m":null,"flood_risk_100y":null,"semi_basement_r":null,"elderly_alone_r":0.1594,"bldg_age30_r":null,"shelter_min_walk":14,"pop":18548,"hh":8912,"elderly65_r":0.2621,"single_hh_r":0.3992,"source_level":"emd","flood_years":[],"landslide_hist_n":0},"geometry":{"type":"Polygon","coordinates":[[[126.73461,37.42867],[126.73408,37.433],[126.7299,37.43494],[126.72624,37.43255],[126.72677,37.42822],[126.73096,37.42628],[126.73461,37.42867]]]}},{"type":"Feature","properties":{"h3":"8830e0a8a3fffff","emd_code":"2820065500","emd_name":"서창2동","area_km2":0.5037,"edge":false,"slope_mean":3.29,"elev_mean":8.1,"flood_hist_n":0,"flood_depth_max_m":null,"flood_risk_100y":null,"semi_basement_r":null,"elderly_alone_r":0.1254,"bldg_age30_r":null,"shelter_min_walk":6,"pop":37301,"hh":15740,"elderly65_r":0.1637,"single_hh_r":0.3414,"source_level":"emd","flood_years":[],"landslide_hist_n":0},"geometry":{"type":"Polygon","coordinates":[[[126.74246,37.42912],[126.74193,37.43345],[126.73774,37.43539],[126.73408,37.433],[126.73461,37.42867],[126.7388,37.42673],[126.74246,37.42912]]]}},{"type":"Feature","properties":{"h3":"8830e0a8a5fffff","emd_code":"2820066000","emd_name":"남촌도림동","area_km2":0.5035,"edge":false,"slope_mean":10.93,"elev_mean":32.8,"flood_hist_n":0,"flood_depth_max_m":null,"flood_risk_100y":null,"semi_basement_r":null,"elderly_alone_r":0.1594,"bldg_age30_r":null,"shelter_min_walk":5,"pop":18548,"hh":8912,"elderly65_r":0.2621,"single_hh_r":0.3992,"source_level":"emd","flood_years":[],"landslide_hist_n":0},"geometry":{"type":"Polygon","coordinates":[[[126.73148,37.42195],[126.73096,37.42628],[126.72677,37.42822],[126.72311,37.42583],[126.72364,37.4215],[126.72783,37.41956],[126.73148,37.42195]]]}},{"type":"Feature","properties":{"h3":"8830e0a8a7fffff","emd_code":"2820066000","emd_name":"남촌도림동","area_km2":0.5036,"edge":false,"slope_mean":4.87,"elev_mean":12.1,"flood_hist_n":0,"flood_depth_max_m":null,"flood_risk_100y":null,"semi_basement_r":null,"elderly_alone_r":0.1594,"bldg_age30_r":null,"shelter_min_walk":7,"pop":18548,"hh":8912,"elderly65_r":0.2621,"single_hh_r":0.3992,"source_level":"emd","flood_years":[],"landslide_hist_n":0},"geometry":{"type":"Polygon","coordinates":[[[126.73933,37.4224],[126.7388,37.42673],[126.73461,37.42867],[126.73096,37.42628],[126.73148,37.42195],[126.73567,37.42001],[126.73933,37.4224]]]}},{"type":"Feature","properties":{"h3":"8830e0a8a9fffff","emd_code":"2820066000","emd_name":"남촌도림동","area_km2":0.5035,"edge":false,"slope_mean":8.23,"elev_mean":32.8,"flood_hist_n":0,"flood_depth_max_m":null,"flood_risk_100y":null,"semi_basement_r":null,"elderly_alone_r":0.1594,"bldg_age30_r":null,"shelter_min_walk":14,"pop":18548,"hh":8912,"elderly65_r":0.2621,"single_hh_r":0.3992,"source_level":"emd","flood_years":[],"landslide_hist_n":0},"geometry":{"type":"Polygon","coordinates":[[[126.7299,37.43494],[126.72937,37.43927],[126.72518,37.44121],[126.72153,37.43882],[126.72206,37.43449],[126.72624,37.43255],[126.7299,37.43494]]]}},{"type":"Feature","properties":{"h3":"8830e0a8abfffff","emd_code":"2820066000","emd_name":"남촌도림동","area_km2":0.5036,"edge":false,"slope_mean":5.49,"elev_mean":15.2,"flood_hist_n":0,"flood_depth_max_m":null,"flood_risk_100y":null,"semi_basement_r":null,"elderly_alone_r":0.1594,"bldg_age30_r":null,"shelter_min_walk":6,"pop":18548,"hh":8912,"elderly65_r":0.2621,"single_hh_r":0.3992,"source_level":"emd","flood_years":[],"landslide_hist_n":0},"geometry":{"type":"Polygon","coordinates":[[[126.73774,37.43539],[126.73721,37.43972],[126.73303,37.44166],[126.72937,37.43927],[126.7299,37.43494],[126.73408,37.433],[126.73774,37.43539]]]}},{"type":"Feature","properties":{"h3":"8830e0a8adfffff","emd_code":"2820066000","emd_name":"남촌도림동","area_km2":0.5035,"edge":false,"slope_mean":6.69,"elev_mean":19.7,"flood_hist_n":0,"flood_depth_max_m":null,"flood_risk_100y":null,"semi_basement_r":null,"elderly_alone_r":0.1594,"bldg_age30_r":null,"shelter_min_walk":7,"pop":18548,"hh":8912,"elderly65_r":0.2621,"single_hh_r":0.3992,"source_level":"emd","flood_years":[],"landslide_hist_n":0},"geometry":{"type":"Polygon","coordinates":[[[126.72677,37.42822],[126.72624,37.43255],[126.72206,37.43449],[126.7184,37.4321],[126.71893,37.42777],[126.72311,37.42583],[126.72677,37.42822]]]}},{"type":"Feature","properties":{"h3":"8830e0a8b1fffff","emd_code":"2820065000","emd_name":"장수서창동","area_km2":0.5038,"edge":false,"slope_mean":5.66,"elev_mean":21.6,"flood_hist_n":0,"flood_depth_max_m":null,"flood_risk_100y":null,"semi_basement_r":null,"elderly_alone_r":0.1352,"bldg_age30_r":null,"shelter_min_walk":2,"pop":18083,"hh":7804,"elderly65_r":0.2454,"single_hh_r":0.3266,"source_level":"emd","flood_years":[],"landslide_hist_n":0},"geometry":{"type":"Polygon","coordinates":[[[126.75343,37.43629],[126.7529,37.44062],[126.74872,37.44256],[126.74506,37.44017],[126.74559,37.43584],[126.74977,37.4339],[126.75343,37.43629]]]}},{"type":"Feature","properties":{"h3":"8830e0a8b3fffff","emd_code":"2820065000","emd_name":"장수서창동","area_km2":0.504,"edge":false,"slope_mean":8.43,"elev_mean":25.8,"flood_hist_n":0,"flood_depth_max_m":null,"flood_risk_100y":null,"semi_basement_r":null,"elderly_alone_r":0.1352,"bldg_age30_r":null,"shelter_min_walk":9,"pop":18083,"hh":7804,"elderly65_r":0.2454,"single_hh_r":0.3266,"source_level":"emd","flood_years":[],"landslide_hist_n":0},"geometry":{"type":"Polygon","coordinates":[[[126.76128,37.43674],[126.76075,37.44107],[126.75656,37.44301],[126.7529,37.44062],[126.75343,37.43629],[126.75762,37.43435],[126.76128,37.43674]]]}},{"type":"Feature","properties":{"h3":"8830e0a8b5fffff","emd_code":"2820065500","emd_name":"서창2동","area_km2":0.5038,"edge":false,"slope_mean":2.75,"elev_mean":8.6,"flood_hist_n":0,"flood_depth_max_m":null,"flood_risk_100y":null,"semi_basement_r":null,"elderly_alone_r":0.1254,"bldg_age30_r":null,"shelter_min_walk":3,"pop":37301,"hh":15740,"elderly65_r":0.1637,"single_hh_r":0.3414,"source_level":"emd","flood_years":[],"landslide_hist_n":0},"geometry":{"type":"Polygon","coordinates":[[[126.7503,37.42957],[126.74977,37.4339],[126.74559,37.43584],[126.74193,37.43345],[126.74246,37.42912],[126.74664,37.42718],[126.7503,37.42957]]]}},{"type":"Feature","properties":{"h3":"8830e0a8b7fffff","emd_code":"2820065500","emd_name":"서창2동","area_km2":0.5039,"edge":false,"slope_mean":8.6,"elev_mean":21.2,"flood_hist_n":0,"flood_depth_max_m":null,"flood_risk_100y":null,"semi_basement_r":null,"elderly_alone_r":0.1254,"bldg_age30_r":null,"shelter_min_walk":7,"pop":37301,"hh":15740,"elderly65_r":0.1637,"single_hh_r":0.3414,"source_level":"emd","flood_years":[],"landslide_hist_n":0},"geometry":{"type":"Polygon","coordinates":[[[126.75815,37.43002],[126.75762,37.43435],[126.75343,37.43629],[126.74977,37.4339],[126.7503,37.42957],[126.75449,37.42763],[126.75815,37.43002]]]}},{"type":"Feature","properties":{"h3":"8830e0a8b9fffff","emd_code":"2820058300","emd_name":"만수6동","area_km2":0.5038,"edge":false,"slope_mean":6.6,"elev_mean":20.4,"flood_hist_n":0,"flood_depth_max_m":null,"flood_risk_100y":null,"semi_basement_r":null,"elderly_alone_r":0.1739,"bldg_age30_r":null,"shelter_min_walk":7,"pop":21606,"hh":10154,"elderly65_r":0.2685,"single_hh_r":0.395,"source_level":"emd","flood_years":[],"landslide_hist_n":0},"geometry":{"type":"Polygon","coordinates":[[[126.74872,37.44256],[126.74819,37.4469],[126.744,37.44884],[126.74034,37.44645],[126.74087,37.44211],[126.74506,37.44017],[126.74872,37.44256]]]}},{"type":"Feature","properties":{"h3":"8830e0a8bbfffff","emd_code":"2820065000","emd_name":"장수서창동","area_km2":0.5039,"edge":false,"slope_mean":9.84,"elev_mean":34.8,"flood_hist_n":0,"flood_depth_max_m":null,"flood_risk_100y":null,"semi_basement_r":null,"elderly_alone_r":0.1352,"bldg_age30_r":null,"shelter_min_walk":12,"pop":18083,"hh":7804,"elderly65_r":0.2454,"single_hh_r":0.3266,"source_level":"emd","flood_years":[],"landslide_hist_n":0},"geometry":{"type":"Polygon","coordinates":[[[126.75656,37.44301],[126.75604,37.44735],[126.75185,37.44929],[126.74819,37.4469],[126.74872,37.44256],[126.7529,37.44062],[126.75656,37.44301]]]}},{"type":"Feature","properties":{"h3":"8830e0a8bdfffff","emd_code":"2820058300","emd_name":"만수6동","area_km2":0.5037,"edge":false,"slope_mean":6.11,"elev_mean":16.6,"flood_hist_n":0,"flood_depth_max_m":null,"flood_risk_100y":null,"semi_basement_r":null,"elderly_alone_r":0.1739,"bldg_age30_r":null,"shelter_min_walk":5,"pop":21606,"hh":10154,"elderly65_r":0.2685,"single_hh_r":0.395,"source_level":"emd","flood_years":[],"landslide_hist_n":0},"geometry":{"type":"Polygon","coordinates":[[[126.74559,37.43584],[126.74506,37.44017],[126.74087,37.44211],[126.73721,37.43972],[126.73774,37.43539],[126.74193,37.43345],[126.74559,37.43584]]]}},{"type":"Feature","properties":{"h3":"8830e0a8c1fffff","emd_code":"2820054000","emd_name":"간석2동","area_km2":0.5034,"edge":false,"slope_mean":5.98,"elev_mean":37.5,"flood_hist_n":0,"flood_depth_max_m":null,"flood_risk_100y":null,"semi_basement_r":null,"elderly_alone_r":0.129,"bldg_age30_r":null,"shelter_min_walk":1,"pop":20315,"hh":9292,"elderly65_r":0.228,"single_hh_r":0.3968,"source_level":"emd","flood_years":[],"landslide_hist_n":0},"geometry":{"type":"Polygon","coordinates":[[[126.71888,37.46047],[126.71835,37.4648],[126.71416,37.46674],[126.7105,37.46435],[126.71103,37.46002],[126.71522,37.45808],[126.71888,37.46047]]]}},{"type":"Feature","properties":{"h3":"8830e0a8c3fffff","emd_code":"2820058000","emd_name":"만수3동","area_km2":0.5035,"edge":false,"slope_mean":9.31,"elev_mean":58.0,"flood_hist_n":0,"flood_depth_max_m":null,"flood_risk_100y":null,"semi_basement_r":null,"elderly_alone_r":0.1437,"bldg_age30_r":null,"shelter_min_walk":2,"pop":15545,"hh":7002,"elderly65_r":0.2304,"single_hh_r":0.3565,"source_level":"emd","flood_years":[],"landslide_hist_n":0},"geometry":{"type":"Polygon","coordinates":[[[126.72672,37.46093],[126.72619,37.46526],[126.72201,37.46719],[126.71835,37.4648],[126.71888,37.46047],[126.72307,37.45853],[126.72672,37.46093]]]}},{"type":"Feature","properties":{"h3":"8830e0a8c5fffff","emd_code":"2820052000","emd_name":"구월2동","area_km2":0.5034,"edge":false,"slope_mean":5.73,"elev_mean":30.4,"flood_hist_n":0,"flood_depth_max_m":null,"flood_risk_100y":null,"semi_basement_r":null,"elderly_alone_r":0.0918,"bldg_age30_r":null,"shelter_min_walk":1,"pop":36473,"hh":13913,"elderly65_r":0.1776,"single_hh_r":0.2233,"source_level":"emd","flood_years":[],"landslide_hist_n":0},"geometry":{"type":"Polygon","coordinates":[[[126.71575,37.45375],[126.71522,37.45808],[126.71103,37.46002],[126.70738,37.45763],[126.70791,37.4533],[126.71209,37.45136],[126.71575,37.45375]]]}},{"type":"Feature","properties":{"h3":"8830e0a8c7fffff","emd_code":"2820052000","emd_name":"구월2동","area_km2":0.5035,"edge":false,"slope_mean":5.1,"elev_mean":36.5,"flood_hist_n":0,"flood_depth_max_m":null,"flood_risk_100y":null,"semi_basement_r":null,"elderly_alone_r":0.0918,"bldg_age30_r":null,"shelter_min_walk":1,"pop":36473,"hh":13913,"elderly65_r":0.1776,"single_hh_r":0.2233,"source_level":"emd","flood_years":[],"landslide_hist_n":0},"geometry":{"type":"Polygon","coordinates":[[[126.72359,37.4542],[126.72307,37.45853],[126.71888,37.46047],[126.71522,37.45808],[126.71575,37.45375],[126.71994,37.45181],[126.72359,37.4542]]]}},{"type":"Feature","properties":{"h3":"8830e0a8c9fffff","emd_code":"2820055000","emd_name":"간석3동","area_km2":0.5034,"edge":false,"slope_mean":8.29,"elev_mean":39.2,"flood_hist_n":0,"flood_depth_max_m":null,"flood_risk_100y":null,"semi_basement_r":null,"elderly_alone_r":0.1711,"bldg_age30_r":null,"shelter_min_walk":4,"pop":24716,"hh":12559,"elderly65_r":0.2523,"single_hh_r":0.4523,"source_level":"emd","flood_years":[],"landslide_hist_n":0},"geometry":{"type":"Polygon","coordinates":[[[126.71416,37.46674],[126.71363,37.47107],[126.70944,37.47301],[126.70579,37.47062],[126.70632,37.46629],[126.7105,37.46435],[126.71416,37.46674]]]}},{"type":"Feature","properties":{"h3":"8830e0a8cbfffff","emd_code":"2820055000","emd_name":"간석3동","area_km2":0.5035,"edge":false,"slope_mean":16.51,"elev_mean":91.5,"flood_hist_n":0,"flood_depth_max_m":null,"flood_risk_100y":null,"semi_basement_r":null,"elderly_alone_r":0.1711,"bldg_age30_r":null,"shelter_min_walk":7,"pop":24716,"hh":12559,"elderly65_r":0.2523,"single_hh_r":0.4523,"source_level":"emd","flood_years":[],"landslide_hist_n":0},"geometry":{"type":"Polygon","coordinates":[[[126.72201,37.46719],[126.72148,37.47153],[126.71729,37.47346],[126.71363,37.47107],[126.71416,37.46674],[126.71835,37.4648],[126.72201,37.46719]]]}},{"type":"Feature","properties":{"h3":"8830e0a8cdfffff","emd_code":"2820053000","emd_name":"간석1동","area_km2":0.5033,"edge":false,"slope_mean":4.73,"elev_mean":23.3,"flood_hist_n":0,"flood_depth_max_m":null,"flood_risk_100y":null,"semi_basement_r":null,"elderly_alone_r":0.1471,"bldg_age30_r":null,"shelter_min_walk":3,"pop":18413,"hh":9500,"elderly65_r":0.2411,"single_hh_r":0.4638,"source_level":"emd","flood_years":[],"landslide_hist_n":0},"geometry":{"type":"Polygon","coordinates":[[[126.71103,37.46002],[126.7105,37.46435],[126.70632,37.46629],[126.70266,37.4639],[126.70319,37.45957],[126.70738,37.45763],[126.71103,37.46002]]]}},{"type":"Feature","properties":{"h3":"8830e0a8d1fffff","emd_code":"2820057000","emd_name":"만수2동","area_km2":0.5037,"edge":false,"slope_mean":19.71,"elev_mean":129.0,"flood_hist_n":0,"flood_depth_max_m":null,"flood_risk_100y":null,"semi_basement_r":null,"elderly_alone_r":0.1325,"bldg_age30_r":null,"shelter_min_walk":8,"pop":21916,"hh":9546,"elderly65_r":0.23,"single_hh_r":0.3278,"source_level":"emd","flood_years":[],"landslide_hist_n":0},"geometry":{"type":"Polygon","coordinates":[[[126.7377,37.4681],[126.73717,37.47243],[126.73298,37.47437],[126.72932,37.47198],[126.72985,37.46765],[126.73404,37.46571],[126.7377,37.4681]]]}},{"type":"Feature","properties":{"h3":"8830e0a8d3fffff","emd_code":"2820057000","emd_name":"만수2동","area_km2":0.5038,"edge":true,"slope_mean":14.67,"elev_mean":90.2,"flood_hist_n":0,"flood_depth_max_m":null,"flood_risk_100y":null,"semi_basement_r":null,"elderly_alone_r":0.1325,"bldg_age30_r":null,"shelter_min_walk":10,"pop":21916,"hh":9546,"elderly65_r":0.23,"single_hh_r":0.3278,"source_level":"emd","flood_years":[],"landslide_hist_n":0},"geometry":{"type":"Polygon","coordinates":[[[126.74555,37.46855],[126.74502,37.47288],[126.74083,37.47482],[126.73717,37.47243],[126.7377,37.4681],[126.74189,37.46616],[126.74555,37.46855]]]}},{"type":"Feature","properties":{"h3":"8830e0a8d5fffff","emd_code":"2820057000","emd_name":"만수2동","area_km2":0.5037,"edge":false,"slope_mean":11.88,"elev_mean":76.5,"flood_hist_n":0,"flood_depth_max_m":null,"flood_risk_100y":null,"semi_basement_r":null,"elderly_alone_r":0.1325,"bldg_age30_r":null,"shelter_min_walk":3,"pop":21916,"hh":9546,"elderly65_r":0.23,"single_hh_r":0.3278,"source_level":"emd","flood_years":[],"landslide_hist_n":0},"geometry":{"type":"Polygon","coordinates":[[[126.73457,37.46138],[126.73404,37.46571],[126.72985,37.46765],[126.72619,37.46526],[126.72672,37.46093],[126.73091,37.45899],[126.73457,37.46138]]]}},{"type":"Feature","properties":{"h3":"8830e0a8d7fffff","emd_code":"2820057000","emd_name":"만수2동","area_km2":0.5038,"edge":false,"slope_mean":8.28,"elev_mean":63.7,"flood_hist_n":0,"flood_depth_max_m":null,"flood_risk_100y":null,"semi_basement_r":null,"elderly_alone_r":0.1325,"bldg_age30_r":null,"shelter_min_walk":4,"pop":21916,"hh":9546,"elderly65_r":0.23,"single_hh_r":0.3278,"source_level":"emd","flood_years":[],"landslide_hist_n":0},"geometry":{"type":"Polygon","coordinates":[[[126.74242,37.46183],[126.74189,37.46616],[126.7377,37.4681],[126.73404,37.46571],[126.73457,37.46138],[126.73876,37.45944],[126.74242,37.46183]]]}},{"type":"Feature","properties":{"h3":"8830e0a8d9fffff","emd_code":"2820058000","emd_name":"만수3동","area_km2":0.5037,"edge":true,"slope_mean":17.4,"elev_mean":123.3,"flood_hist_n":0,"flood_depth_max_m":null,"flood_risk_100y":null,"semi_basement_r":null,"elderly_alone_r":0.1437,"bldg_age30_r":null,"shelter_min_walk":13,"pop":15545,"hh":7002,"elderly65_r":0.2304,"single_hh_r":0.3565,"source_level":"emd","flood_years":[],"landslide_hist_n":0},"geometry":{"type":"Polygon","coordinates":[[[126.73298,37.47437],[126.73245,37.4787],[126.72826,37.48064],[126.72461,37.47825],[126.72513,37.47392],[126.72932,37.47198],[126.73298,37.47437]]]}},{"type":"Feature","properties":{"h3":"8830e0a8ddfffff","emd_code":"2820058000","emd_name":"만수3동","area_km2":0.5036,"edge":false,"slope_mean":18.09,"elev_mean":109.2,"flood_hist_n":0,"flood_depth_max_m":null,"flood_risk_100y":null,"semi_basement_r":null,"elderly_alone_r":0.1437,"bldg_age30_r":null,"shelter_min_walk":10,"pop":15545,"hh":7002,"elderly65_r":0.2304,"single_hh_r":0.3565,"source_level":"emd","flood_years":[],"landslide_hist_n":0},"geometry":{"type":"Polygon","coordinates":[[[126.72985,37.46765],[126.72932,37.47198],[126.72513,37.47392],[126.72148,37.47153],[126.72201,37.46719],[126.72619,37.46526],[126.72985,37.46765]]]}},{"type":"Feature","properties":{"h3":"8830e0a8e1fffff","emd_code":"2820051000","emd_name":"구월1동","area_km2":0.5034,"edge":false,"slope_mean":5.52,"elev_mean":16.9,"flood_hist_n":0,"flood_depth_max_m":null,"flood_risk_100y":null,"semi_basement_r":null,"elderly_alone_r":0.1225,"bldg_age30_r":null,"shelter_min_walk":3,"pop":30025,"hh":13895,"elderly65_r":0.1931,"single_hh_r":0.4001,"source_level":"emd","flood_years":[],"landslide_hist_n":0},"geometry":{"type":"Polygon","coordinates":[[[126.71734,37.44076],[126.71681,37.44509],[126.71262,37.44703],[126.70897,37.44464],[126.7095,37.44031],[126.71368,37.43837],[126.71734,37.44076]]]}},{"type":"Feature","properties":{"h3":"8830e0a8e3fffff","emd_code":"2820052200","emd_name":"구월4동","area_km2":0.5035,"edge":false,"slope_mean":6.59,"elev_mean":24.2,"flood_hist_n":0,"flood_depth_max_m":null,"flood_risk_100y":null,"semi_basement_r":null,"elderly_alone_r":0.2201,"bldg_age30_r":null,"shelter_min_walk":8,"pop":12585,"hh":7457,"elderly65_r":0.2948,"single_hh_r":0.5797,"source_level":"emd","flood_years":[],"landslide_hist_n":0},"geometry":{"type":"Polygon","coordinates":[[[126.72518,37.44121],[126.72465,37.44554],[126.72047,37.44748],[126.71681,37.44509],[126.71734,37.44076],[126.72153,37.43882],[126.72518,37.44121]]]}},{"type":"Feature","properties":{"h3":"8830e0a8e5fffff","emd_code":"2820051000","emd_name":"구월1동","area_km2":0.5033,"edge":false,"slope_mean":2.46,"elev_mean":8.8,"flood_hist_n":1,"flood_depth_max_m":0.41,"flood_risk_100y":null,"semi_basement_r":null,"elderly_alone_r":0.1225,"bldg_age30_r":null,"shelter_min_walk":9,"pop":30025,"hh":13895,"elderly65_r":0.1931,"single_hh_r":0.4001,"source_level":"emd","flood_years":[2012],"landslide_hist_n":0},"geometry":{"type":"Polygon","coordinates":[[[126.71421,37.43404],[126.71368,37.43837],[126.7095,37.44031],[126.70584,37.43792],[126.70637,37.43359],[126.71056,37.43165],[126.71421,37.43404]]]}},{"type":"Feature","properties":{"h3":"8830e0a8e7fffff","emd_code":"2820066000","emd_name":"남촌도림동","area_km2":0.5034,"edge":false,"slope_mean":5.15,"elev_mean":17.3,"flood_hist_n":0,"flood_depth_max_m":null,"flood_risk_100y":null,"semi_basement_r":null,"elderly_alone_r":0.1594,"bldg_age30_r":null,"shelter_min_walk":7,"pop":18548,"hh":8912,"elderly65_r":0.2621,"single_hh_r":0.3992,"source_level":"emd","flood_years":[],"landslide_hist_n":0},"geometry":{"type":"Polygon","coordinates":[[[126.72206,37.43449],[126.72153,37.43882],[126.71734,37.44076],[126.71368,37.43837],[126.71421,37.43404],[126.7184,37.4321],[126.72206,37.43449]]]}},{"type":"Feature","properties":{"h3":"8830e0a8e9fffff","emd_code":"2820051000","emd_name":"구월1동","area_km2":0.5033,"edge":false,"slope_mean":5.38,"elev_mean":25.5,"flood_hist_n":0,"flood_depth_max_m":null,"flood_risk_100y":null,"semi_basement_r":null,"elderly_alone_r":0.1225,"bldg_age30_r":null,"shelter_min_walk":6,"pop":30025,"hh":13895,"elderly65_r":0.1931,"single_hh_r":0.4001,"source_level":"emd","flood_years":[],"landslide_hist_n":0},"geometry":{"type":"Polygon","coordinates":[[[126.71262,37.44703],[126.71209,37.45136],[126.70791,37.4533],[126.70425,37.45091],[126.70478,37.44658],[126.70897,37.44464],[126.71262,37.44703]]]}},{"type":"Feature","properties":{"h3":"8830e0a8ebfffff","emd_code":"2820051000","emd_name":"구월1동","area_km2":0.5034,"edge":false,"slope_mean":5.71,"elev_mean":30.8,"flood_hist_n":0,"flood_depth_max_m":null,"flood_risk_100y":null,"semi_basement_r":null,"elderly_alone_r":0.1225,"bldg_age30_r":null,"shelter_min_walk":1,"pop":30025,"hh":13895,"elderly65_r":0.1931,"single_hh_r":0.4001,"source_level":"emd","flood_years":[],"landslide_hist_n":0},"geometry":{"type":"Polygon","coordinates":[[[126.72047,37.44748],[126.71994,37.45181],[126.71575,37.45375],[126.71209,37.45136],[126.71262,37.44703],[126.71681,37.44509],[126.72047,37.44748]]]}},{"type":"Feature","properties":{"h3":"8830e0a8edfffff","emd_code":"2820051000","emd_name":"구월1동","area_km2":0.5032,"edge":false,"slope_mean":4.15,"elev_mean":13.6,"flood_hist_n":0,"flood_depth_max_m":null,"flood_risk_100y":null,"semi_basement_r":null,"elderly_alone_r":0.1225,"bldg_age30_r":null,"shelter_min_walk":4,"pop":30025,"hh":13895,"elderly65_r":0.1931,"single_hh_r":0.4001,"source_level":"emd","flood_years":[],"landslide_hist_n":0},"geometry":{"type":"Polygon","coordinates":[[[126.7095,37.44031],[126.70897,37.44464],[126.70478,37.44658],[126.70113,37.44419],[126.70166,37.43986],[126.70584,37.43792],[126.7095,37.44031]]]}},{"type":"Feature","properties":{"h3":"8830e0a913fffff","emd_code":"2820071000","emd_name":"논현고잔동","area_km2":0.5028,"edge":true,"slope_mean":5.47,"elev_mean":10.8,"flood_hist_n":0,"flood_depth_max_m":null,"flood_risk_100y":null,"semi_basement_r":null,"elderly_alone_r":0.0864,"bldg_age30_r":null,"shelter_min_walk":1,"pop":39119,"hh":15703,"elderly65_r":0.1372,"single_hh_r":0.2934,"source_level":"emd","flood_years":[],"landslide_hist_n":0},"geometry":{"type":"Polygon","coordinates":[[[126.68605,37.40626],[126.68552,37.41059],[126.68134,37.41253],[126.67769,37.41014],[126.67822,37.40581],[126.6824,37.40387],[126.68605,37.40626]]]}},{"type":"Feature","properties":{"h3":"8830e0a917fffff","emd_code":"2820071000","emd_name":"논현고잔동","area_km2":0.5028,"edge":false,"slope_mean":4.44,"elev_mean":8.7,"flood_hist_n":0,"flood_depth_max_m":null,"flood_risk_100y":null,"semi_basement_r":null,"elderly_alone_r":0.0864,"bldg_age30_r":null,"shelter_min_walk":6,"pop":39119,"hh":15703,"elderly65_r":0.1372,"single_hh_r":0.2934,"source_level":"emd","flood_years":[],"landslide_hist_n":0},"geometry":{"type":"Polygon","coordinates":[[[126.68293,37.39955],[126.6824,37.40387],[126.67822,37.40581],[126.67457,37.40342],[126.6751,37.3991],[126.67928,37.39716],[126.68293,37.39955]]]}},{"type":"Feature","properties":{"h3":"8830e0a931fffff","emd_code":"2820071000","emd_name":"논현고잔동","area_km2":0.5026,"edge":true,"slope_mean":2.19,"elev_mean":3.7,"flood_hist_n":0,"flood_depth_max_m":null,"flood_risk_100y":null,"semi_basement_r":null,"elderly_alone_r":0.0864,"bldg_age30_r":null,"shelter_min_walk":6,"pop":39119,"hh":15703,"elderly65_r":0.1372,"single_hh_r":0.2934,"source_level":"emd","flood_years":[],"landslide_hist_n":0},"geometry":{"type":"Polygon","coordinates":[[[126.67669,37.38611],[126.67616,37.39044],[126.67198,37.39238],[126.66833,37.38999],[126.66887,37.38566],[126.67305,37.38373],[126.67669,37.38611]]]}},{"type":"Feature","properties":{"h3":"8830e0a933fffff","emd_code":"2820071000","emd_name":"논현고잔동","area_km2":0.5027,"edge":false,"slope_mean":2.04,"elev_mean":2.8,"flood_hist_n":0,"flood_depth_max_m":null,"flood_risk_100y":null,"semi_basement_r":null,"elderly_alone_r":0.0864,"bldg_age30_r":null,"shelter_min_walk":8,"pop":39119,"hh":15703,"elderly65_r":0.1372,"single_hh_r":0.2934,"source_level":"emd","flood_years":[],"landslide_hist_n":0},"geometry":{"type":"Polygon","coordinates":[[[126.68452,37.38656],[126.68399,37.39089],[126.67981,37.39283],[126.67616,37.39044],[126.67669,37.38611],[126.68087,37.38417],[126.68452,37.38656]]]}},{"type":"Feature","properties":{"h3":"8830e0a939fffff","emd_code":"2820071000","emd_name":"논현고잔동","area_km2":0.5026,"edge":true,"slope_mean":3.97,"elev_mean":7.8,"flood_hist_n":0,"flood_depth_max_m":null,"flood_risk_100y":null,"semi_basement_r":null,"elderly_alone_r":0.0864,"bldg_age30_r":null,"shelter_min_walk":10,"pop":39119,"hh":15703,"elderly65_r":0.1372,"single_hh_r":0.2934,"source_level":"emd","flood_years":[],"landslide_hist_n":0},"geometry":{"type":"Polygon","coordinates":[[[126.67198,37.39238],[126.67145,37.39671],[126.66727,37.39865],[126.66362,37.39626],[126.66415,37.39193],[126.66833,37.38999],[126.67198,37.39238]]]}},{"type":"Feature","properties":{"h3":"8830e0a93bfffff","emd_code":"2820071000","emd_name":"논현고잔동","area_km2":0.5027,"edge":false,"slope_mean":2.6,"elev_mean":4.7,"flood_hist_n":0,"flood_depth_max_m":null,"flood_risk_100y":null,"semi_basement_r":null,"elderly_alone_r":0.0864,"bldg_age30_r":null,"shelter_min_walk":6,"pop":39119,"hh":15703,"elderly65_r":0.1372,"single_hh_r":0.2934,"source_level":"emd","flood_years":[],"landslide_hist_n":0},"geometry":{"type":"Polygon","coordinates":[[[126.67981,37.39283],[126.67928,37.39716],[126.6751,37.3991],[126.67145,37.39671],[126.67198,37.39238],[126.67616,37.39044],[126.67981,37.39283]]]}},{"type":"Feature","properties":{"h3":"8830e0a981fffff","emd_code":"2820070000","emd_name":"논현2동","area_km2":0.5032,"edge":false,"slope_mean":6.01,"elev_mean":13.7,"flood_hist_n":0,"flood_depth_max_m":null,"flood_risk_100y":null,"semi_basement_r":null,"elderly_alone_r":0.1237,"bldg_age30_r":null,"shelter_min_walk":2,"pop":30553,"hh":15359,"elderly65_r":0.2126,"single_hh_r":0.4626,"source_level":"emd","flood_years":[],"landslide_hist_n":0},"geometry":{"type":"Polygon","coordinates":[[[126.71427,37.40135],[126.71374,37.40567],[126.70955,37.40761],[126.7059,37.40523],[126.70643,37.4009],[126.71061,37.39896],[126.71427,37.40135]]]}},{"type":"Feature","properties":{"h3":"8830e0a983fffff","emd_code":"2820070000","emd_name":"논현2동","area_km2":0.5033,"edge":false,"slope_mean":7.09,"elev_mean":24.8,"flood_hist_n":0,"flood_depth_max_m":null,"flood_risk_100y":null,"semi_basement_r":null,"elderly_alone_r":0.1237,"bldg_age30_r":null,"shelter_min_walk":2,"pop":30553,"hh":15359,"elderly65_r":0.2126,"single_hh_r":0.4626,"source_level":"emd","flood_years":[],"landslide_hist_n":0},"geometry":{"type":"Polygon","coordinates":[[[126.7221,37.40179],[126.72158,37.40612],[126.71739,37.40806],[126.71374,37.40567],[126.71427,37.40135],[126.71845,37.39941],[126.7221,37.40179]]]}},{"type":"Feature","properties":{"h3":"8830e0a985fffff","emd_code":"2820071000","emd_name":"논현고잔동","area_km2":0.5031,"edge":false,"slope_mean":3.77,"elev_mean":9.1,"flood_hist_n":0,"flood_depth_max_m":null,"flood_risk_100y":null,"semi_basement_r":null,"elderly_alone_r":0.0864,"bldg_age30_r":null,"shelter_min_walk":11,"pop":39119,"hh":15703,"elderly65_r":0.1372,"single_hh_r":0.2934,"source_level":"emd","flood_years":[],"landslide_hist_n":0},"geometry":{"type":"Polygon","coordinates":[[[126.71114,37.39463],[126.71061,37.39896],[126.70643,37.4009],[126.70278,37.39851],[126.70331,37.39418],[126.70749,37.39224],[126.71114,37.39463]]]}},{"type":"Feature","properties":{"h3":"8830e0a987fffff","emd_code":"2820071000","emd_name":"논현고잔동","area_km2":0.5032,"edge":false,"slope_mean":5.2,"elev_mean":12.8,"flood_hist_n":0,"flood_depth_max_m":null,"flood_risk_100y":null,"semi_basement_r":null,"elderly_alone_r":0.0864,"bldg_age30_r":null,"shelter_min_walk":10,"pop":39119,"hh":15703,"elderly65_r":0.1372,"single_hh_r":0.2934,"source_level":"emd","flood_years":[],"landslide_hist_n":0},"geometry":{"type":"Polygon","coordinates":[[[126.71898,37.39508],[126.71845,37.39941],[126.71427,37.40135],[126.71061,37.39896],[126.71114,37.39463],[126.71533,37.39269],[126.71898,37.39508]]]}},{"type":"Feature","properties":{"h3":"8830e0a989fffff","emd_code":"2820070000","emd_name":"논현2동","area_km2":0.5032,"edge":false,"slope_mean":4.53,"elev_mean":11.4,"flood_hist_n":0,"flood_depth_max_m":null,"flood_risk_100y":null,"semi_basement_r":null,"elderly_alone_r":0.1237,"bldg_age30_r":null,"shelter_min_walk":8,"pop":30553,"hh":15359,"elderly65_r":0.2126,"single_hh_r":0.4626,"source_level":"emd","flood_years":[],"landslide_hist_n":0},"geometry":{"type":"Polygon","coordinates":[[[126.70955,37.40761],[126.70902,37.41194],[126.70484,37.41388],[126.70119,37.41149],[126.70172,37.40717],[126.7059,37.40523],[126.70955,37.40761]]]}},{"type":"Feature","properties":{"h3":"8830e0a98bfffff","emd_code":"2820070000","emd_name":"논현2동","area_km2":0.5033,"edge":false,"slope_mean":9.03,"elev_mean":29.4,"flood_hist_n":0,"flood_depth_max_m":null,"flood_risk_100y":null,"semi_basement_r":null,"elderly_alone_r":0.1237,"bldg_age30_r":null,"shelter_min_walk":2,"pop":30553,"hh":15359,"elderly65_r":0.2126,"single_hh_r":0.4626,"source_level":"emd","flood_years":[],"landslide_hist_n":0},"geometry":{"type":"Polygon","coordinates":[[[126.71739,37.40806],[126.71686,37.41239],[126.71268,37.41433],[126.70902,37.41194],[126.70955,37.40761],[126.71374,37.40567],[126.71739,37.40806]]]}},{"type":"Feature","properties":{"h3":"8830e0a98dfffff","emd_code":"2820071000","emd_name":"논현고잔동","area_km2":0.5031,"edge":false,"slope_mean":4.16,"elev_mean":9.1,"flood_hist_n":0,"flood_depth_max_m":null,"flood_risk_100y":null,"semi_basement_r":null,"elderly_alone_r":0.0864,"bldg_age30_r":null,"shelter_min_walk":7,"pop":39119,"hh":15703,"elderly65_r":0.1372,"single_hh_r":0.2934,"source_level":"emd","flood_years":[],"landslide_hist_n":0},"geometry":{"type":"Polygon","coordinates":[[[126.70643,37.4009],[126.7059,37.40523],[126.70172,37.40717],[126.69807,37.40478],[126.6986,37.40045],[126.70278,37.39851],[126.70643,37.4009]]]}},{"type":"Feature","properties":{"h3":"8830e0a991fffff","emd_code":"2820066000","emd_name":"남촌도림동","area_km2":0.5035,"edge":false,"slope_mean":12.23,"elev_mean":46.7,"flood_hist_n":0,"flood_depth_max_m":null,"flood_risk_100y":null,"semi_basement_r":null,"elderly_alone_r":0.1594,"bldg_age30_r":null,"shelter_min_walk":8,"pop":18548,"hh":8912,"elderly65_r":0.2621,"single_hh_r":0.3992,"source_level":"emd","flood_years":[],"landslide_hist_n":0},"geometry":{"type":"Polygon","coordinates":[[[126.73307,37.40896],[126.73254,37.41329],[126.72836,37.41523],[126.7247,37.41284],[126.72523,37.40851],[126.72941,37.40657],[126.73307,37.40896]]]}},{"type":"Feature","properties":{"h3":"8830e0a993fffff","emd_code":"2820069000","emd_name":"논현1동","area_km2":0.5036,"edge":false,"slope_mean":6.74,"elev_mean":20.2,"flood_hist_n":0,"flood_depth_max_m":null,"flood_risk_100y":null,"semi_basement_r":null,"elderly_alone_r":0.1192,"bldg_age30_r":null,"shelter_min_walk":4,"pop":31010,"hh":14250,"elderly65_r":0.1858,"single_hh_r":0.4013,"source_level":"emd","flood_years":[],"landslide_hist_n":0},"geometry":{"type":"Polygon","coordinates":[[[126.74091,37.40941],[126.74038,37.41374],[126.7362,37.41568],[126.73254,37.41329],[126.73307,37.40896],[126.73725,37.40702],[126.74091,37.40941]]]}},{"type":"Feature","properties":{"h3":"8830e0a995fffff","emd_code":"2820069000","emd_name":"논현1동","area_km2":0.5034,"edge":false,"slope_mean":6.71,"elev_mean":19.5,"flood_hist_n":0,"flood_depth_max_m":null,"flood_risk_100y":null,"semi_basement_r":null,"elderly_alone_r":0.1192,"bldg_age30_r":null,"shelter_min_walk":5,"pop":31010,"hh":14250,"elderly65_r":0.1858,"single_hh_r":0.4013,"source_level":"emd","flood_years":[],"landslide_hist_n":0},"geometry":{"type":"Polygon","coordinates":[[[126.72994,37.40224],[126.72941,37.40657],[126.72523,37.40851],[126.72158,37.40612],[126.7221,37.40179],[126.72629,37.39985],[126.72994,37.40224]]]}},{"type":"Feature","properties":{"h3":"8830e0a997fffff","emd_code":"2820069000","emd_name":"논현1동","area_km2":0.5035,"edge":false,"slope_mean":4.6,"elev_mean":11.0,"flood_hist_n":0,"flood_depth_max_m":null,"flood_risk_100y":null,"semi_basement_r":null,"elderly_alone_r":0.1192,"bldg_age30_r":null,"shelter_min_walk":3,"pop":31010,"hh":14250,"elderly65_r":0.1858,"single_hh_r":0.4013,"source_level":"emd","flood_years":[],"landslide_hist_n":0},"geometry":{"type":"Polygon","coordinates":[[[126.73778,37.40269],[126.73725,37.40702],[126.73307,37.40896],[126.72941,37.40657],[126.72994,37.40224],[126.73413,37.4003],[126.73778,37.40269]]]}},{"type":"Feature","properties":{"h3":"8830e0a999fffff","emd_code":"2820066000","emd_name":"남촌도림동","area_km2":0.5034,"edge":false,"slope_mean":6.22,"elev_mean":17.3,"flood_hist_n":0,"flood_depth_max_m":null,"flood_risk_100y":null,"semi_basement_r":null,"elderly_alone_r":0.1594,"bldg_age30_r":null,"shelter_min_walk":8,"pop":18548,"hh":8912,"elderly65_r":0.2621,"single_hh_r":0.3992,"source_level":"emd","flood_years":[],"landslide_hist_n":0},"geometry":{"type":"Polygon","coordinates":[[[126.72836,37.41523],[126.72783,37.41956],[126.72364,37.4215],[126.71999,37.41911],[126.72052,37.41478],[126.7247,37.41284],[126.72836,37.41523]]]}},{"type":"Feature","properties":{"h3":"8830e0a99bfffff","emd_code":"2820066000","emd_name":"남촌도림동","area_km2":0.5035,"edge":false,"slope_mean":8.77,"elev_mean":27.6,"flood_hist_n":0,"flood_depth_max_m":null,"flood_risk_100y":null,"semi_basement_r":null,"elderly_alone_r":0.1594,"bldg_age30_r":null,"shelter_min_walk":2,"pop":18548,"hh":8912,"elderly65_r":0.2621,"single_hh_r":0.3992,"source_level":"emd","flood_years":[],"landslide_hist_n":0},"geometry":{"type":"Polygon","coordinates":[[[126.7362,37.41568],[126.73567,37.42001],[126.73148,37.42195],[126.72783,37.41956],[126.72836,37.41523],[126.73254,37.41329],[126.7362,37.41568]]]}},{"type":"Feature","properties":{"h3":"8830e0a99dfffff","emd_code":"2820066000","emd_name":"남촌도림동","area_km2":0.5034,"edge":false,"slope_mean":9.9,"elev_mean":34.1,"flood_hist_n":0,"flood_depth_max_m":null,"flood_risk_100y":null,"semi_basement_r":null,"elderly_alone_r":0.1594,"bldg_age30_r":null,"shelter_min_walk":9,"pop":18548,"hh":8912,"elderly65_r":0.2621,"single_hh_r":0.3992,"source_level":"emd","flood_years":[],"landslide_hist_n":0},"geometry":{"type":"Polygon","coordinates":[[[126.72523,37.40851],[126.7247,37.41284],[126.72052,37.41478],[126.71686,37.41239],[126.71739,37.40806],[126.72158,37.40612],[126.72523,37.40851]]]}},{"type":"Feature","properties":{"h3":"8830e0a9a1fffff","emd_code":"2820071000","emd_name":"논현고잔동","area_km2":0.5031,"edge":false,"slope_mean":3.86,"elev_mean":7.1,"flood_hist_n":0,"flood_depth_max_m":null,"flood_risk_100y":null,"semi_basement_r":null,"elderly_alone_r":0.0864,"bldg_age30_r":null,"shelter_min_walk":18,"pop":39119,"hh":15703,"elderly65_r":0.1372,"single_hh_r":0.2934,"source_level":"emd","flood_years":[],"landslide_hist_n":0},"geometry":{"type":"Polygon","coordinates":[[[126.71273,37.38164],[126.7122,37.38597],[126.70802,37.38791],[126.70437,37.38552],[126.7049,37.38119],[126.70908,37.37925],[126.71273,37.38164]]]}},{"type":"Feature","properties":{"h3":"8830e0a9a3fffff","emd_code":"2820071000","emd_name":"논현고잔동","area_km2":0.5032,"edge":false,"slope_mean":3.93,"elev_mean":9.1,"flood_hist_n":0,"flood_depth_max_m":null,"flood_risk_100y":null,"semi_basement_r":null,"elderly_alone_r":0.0864,"bldg_age30_r":null,"shelter_min_walk":9,"pop":39119,"hh":15703,"elderly65_r":0.1372,"single_hh_r":0.2934,"source_level":"emd","flood_years":[],"landslide_hist_n":0},"geometry":{"type":"Polygon","coordinates":[[[126.72057,37.38209],[126.72004,37.38642],[126.71586,37.38836],[126.7122,37.38597],[126.71273,37.38164],[126.71691,37.3797],[126.72057,37.38209]]]}},{"type":"Feature","properties":{"h3":"8830e0a9a7fffff","emd_code":"2820071000","emd_name":"논현고잔동","area_km2":0.5032,"edge":true,"slope_mean":0.37,"elev_mean":0.2,"flood_hist_n":0,"flood_depth_max_m":null,"flood_risk_100y":null,"semi_basement_r":null,"elderly_alone_r":0.0864,"bldg_age30_r":null,"shelter_min_walk":20,"pop":39119,"hh":15703,"elderly65_r":0.1372,"single_hh_r":0.2934,"source_level":"emd","flood_years":[],"landslide_hist_n":0},"geometry":{"type":"Polygon","coordinates":[[[126.71744,37.37537],[126.71691,37.3797],[126.71273,37.38164],[126.70908,37.37925],[126.70961,37.37492],[126.71379,37.37298],[126.71744,37.37537]]]}},{"type":"Feature","properties":{"h3":"8830e0a9a9fffff","emd_code":"2820071000","emd_name":"논현고잔동","area_km2":0.5031,"edge":false,"slope_mean":4.63,"elev_mean":9.9,"flood_hist_n":0,"flood_depth_max_m":null,"flood_risk_100y":null,"semi_basement_r":null,"elderly_alone_r":0.0864,"bldg_age30_r":null,"shelter_min_walk":23,"pop":39119,"hh":15703,"elderly65_r":0.1372,"single_hh_r":0.2934,"source_level":"emd","flood_years":[],"landslide_hist_n":0},"geometry":{"type":"Polygon","coordinates":[[[126.70802,37.38791],[126.70749,37.39224],[126.70331,37.39418],[126.69966,37.39179],[126.70019,37.38746],[126.70437,37.38552],[126.70802,37.38791]]]}},{"type":"Feature","properties":{"h3":"8830e0a9abfffff","emd_code":"2820071000","emd_name":"논현고잔동","area_km2":0.5032,"edge":false,"slope_mean":4.28,"elev_mean":11.2,"flood_hist_n":0,"flood_depth_max_m":null,"flood_risk_100y":null,"semi_basement_r":null,"elderly_alone_r":0.0864,"bldg_age30_r":null,"shelter_min_walk":14,"pop":39119,"hh":15703,"elderly65_r":0.1372,"single_hh_r":0.2934,"source_level":"emd","flood_years":[],"landslide_hist_n":0},"geometry":{"type":"Polygon","coordinates":[[[126.71586,37.38836],[126.71533,37.39269],[126.71114,37.39463],[126.70749,37.39224],[126.70802,37.38791],[126.7122,37.38597],[126.71586,37.38836]]]}},{"type":"Feature","properties":{"h3":"8830e0a9adfffff","emd_code":"2820071000","emd_name":"논현고잔동","area_km2":0.503,"edge":true,"slope_mean":2.15,"elev_mean":3.5,"flood_hist_n":0,"flood_depth_max_m":null,"flood_risk_100y":null,"semi_basement_r":null,"elderly_alone_r":0.0864,"bldg_age30_r":null,"shelter_min_walk":28,"pop":39119,"hh":15703,"elderly65_r":0.1372,"single_hh_r":0.2934,"source_level":"emd","flood_years":[],"landslide_hist_n":0},"geometry":{"type":"Polygon","coordinates":[[[126.7049,37.38119],[126.70437,37.38552],[126.70019,37.38746],[126.69654,37.38507],[126.69707,37.38074],[126.70125,37.3788],[126.7049,37.38119]]]}},{"type":"Feature","properties":{"h3":"8830e0a9b1fffff","emd_code":"2820071000","emd_name":"논현고잔동","area_km2":0.5034,"edge":false,"slope_mean":3.77,"elev_mean":8.1,"flood_hist_n":0,"flood_depth_max_m":null,"flood_risk_100y":null,"semi_basement_r":null,"elderly_alone_r":0.0864,"bldg_age30_r":null,"shelter_min_walk":2,"pop":39119,"hh":15703,"elderly65_r":0.1372,"single_hh_r":0.2934,"source_level":"emd","flood_years":[],"landslide_hist_n":0},"geometry":{"type":"Polygon","coordinates":[[[126.73153,37.38925],[126.731,37.39358],[126.72682,37.39552],[126.72316,37.39313],[126.72369,37.38881],[126.72787,37.38686],[126.73153,37.38925]]]}},{"type":"Feature","properties":{"h3":"8830e0a9b3fffff","emd_code":"2820071000","emd_name":"논현고잔동","area_km2":0.5035,"edge":true,"slope_mean":3.48,"elev_mean":4.8,"flood_hist_n":0,"flood_depth_max_m":null,"flood_risk_100y":null,"semi_basement_r":null,"elderly_alone_r":0.0864,"bldg_age30_r":null,"shelter_min_walk":6,"pop":39119,"hh":15703,"elderly65_r":0.1372,"single_hh_r":0.2934,"source_level":"emd","flood_years":[],"landslide_hist_n":0},"geometry":{"type":"Polygon","coordinates":[[[126.73937,37.3897],[126.73884,37.39403],[126.73465,37.39597],[126.731,37.39358],[126.73153,37.38925],[126.73571,37.38731],[126.73937,37.3897]]]}},{"type":"Feature","properties":{"h3":"8830e0a9b5fffff","emd_code":"2820071000","emd_name":"논현고잔동","area_km2":0.5033,"edge":false,"slope_mean":2.6,"elev_mean":5.2,"flood_hist_n":0,"flood_depth_max_m":null,"flood_risk_100y":null,"semi_basement_r":null,"elderly_alone_r":0.0864,"bldg_age30_r":null,"shelter_min_walk":6,"pop":39119,"hh":15703,"elderly65_r":0.1372,"single_hh_r":0.2934,"source_level":"emd","flood_years":[],"landslide_hist_n":0},"geometry":{"type":"Polygon","coordinates":[[[126.7284,37.38253],[126.72787,37.38686],[126.72369,37.38881],[126.72004,37.38642],[126.72057,37.38209],[126.72475,37.38015],[126.7284,37.38253]]]}},{"type":"Feature","properties":{"h3":"8830e0a9b9fffff","emd_code":"2820071000","emd_name":"논현고잔동","area_km2":0.5034,"edge":false,"slope_mean":5.9,"elev_mean":14.2,"flood_hist_n":0,"flood_depth_max_m":null,"flood_risk_100y":null,"semi_basement_r":null,"elderly_alone_r":0.0864,"bldg_age30_r":null,"shelter_min_walk":2,"pop":39119,"hh":15703,"elderly65_r":0.1372,"single_hh_r":0.2934,"source_level":"emd","flood_years":[],"landslide_hist_n":0},"geometry":{"type":"Polygon","coordinates":[[[126.72682,37.39552],[126.72629,37.39985],[126.7221,37.40179],[126.71845,37.39941],[126.71898,37.39508],[126.72316,37.39313],[126.72682,37.39552]]]}},{"type":"Feature","properties":{"h3":"8830e0a9bbfffff","emd_code":"2820071000","emd_name":"논현고잔동","area_km2":0.5035,"edge":false,"slope_mean":4.94,"elev_mean":9.5,"flood_hist_n":0,"flood_depth_max_m":null,"flood_risk_100y":null,"semi_basement_r":null,"elderly_alone_r":0.0864,"bldg_age30_r":null,"shelter_min_walk":3,"pop":39119,"hh":15703,"elderly65_r":0.1372,"single_hh_r":0.2934,"source_level":"emd","flood_years":[],"landslide_hist_n":0},"geometry":{"type":"Polygon","coordinates":[[[126.73465,37.39597],[126.73413,37.4003],[126.72994,37.40224],[126.72629,37.39985],[126.72682,37.39552],[126.731,37.39358],[126.73465,37.39597]]]}},{"type":"Feature","properties":{"h3":"8830e0a9bdfffff","emd_code":"2820071000","emd_name":"논현고잔동","area_km2":0.5033,"edge":false,"slope_mean":4.67,"elev_mean":12.0,"flood_hist_n":0,"flood_depth_max_m":null,"flood_risk_100y":null,"semi_basement_r":null,"elderly_alone_r":0.0864,"bldg_age30_r":null,"shelter_min_walk":6,"pop":39119,"hh":15703,"elderly65_r":0.1372,"single_hh_r":0.2934,"source_level":"emd","flood_years":[],"landslide_hist_n":0},"geometry":{"type":"Polygon","coordinates":[[[126.72369,37.38881],[126.72316,37.39313],[126.71898,37.39508],[126.71533,37.39269],[126.71586,37.38836],[126.72004,37.38642],[126.72369,37.38881]]]}},{"type":"Feature","properties":{"h3":"8830e0a9c1fffff","emd_code":"2820070000","emd_name":"논현2동","area_km2":0.503,"edge":true,"slope_mean":4.83,"elev_mean":9.2,"flood_hist_n":0,"flood_depth_max_m":null,"flood_risk_100y":null,"semi_basement_r":null,"elderly_alone_r":0.1237,"bldg_age30_r":null,"shelter_min_walk":4,"pop":30553,"hh":15359,"elderly65_r":0.2126,"single_hh_r":0.4626,"source_level":"emd","flood_years":[],"landslide_hist_n":0},"geometry":{"type":"Polygon","coordinates":[[[126.697,37.41343],[126.69647,37.41776],[126.69229,37.4197],[126.68864,37.41731],[126.68917,37.41298],[126.69335,37.41104],[126.697,37.41343]]]}},{"type":"Feature","properties":{"h3":"8830e0a9c3fffff","emd_code":"2820066000","emd_name":"남촌도림동","area_km2":0.5031,"edge":false,"slope_mean":4.17,"elev_mean":9.0,"flood_hist_n":0,"flood_depth_max_m":null,"flood_risk_100y":null,"semi_basement_r":null,"elderly_alone_r":0.1594,"bldg_age30_r":null,"shelter_min_walk":10,"pop":18548,"hh":8912,"elderly65_r":0.2621,"single_hh_r":0.3992,"source_level":"emd","flood_years":[],"landslide_hist_n":0},"geometry":{"type":"Polygon","coordinates":[[[126.70484,37.41388],[126.70431,37.41821],[126.70013,37.42015],[126.69647,37.41776],[126.697,37.41343],[126.70119,37.41149],[126.70484,37.41388]]]}},{"type":"Feature","properties":{"h3":"8830e0a9c5fffff","emd_code":"2820071000","emd_name":"논현고잔동","area_km2":0.5029,"edge":false,"slope_mean":6.34,"elev_mean":11.3,"flood_hist_n":0,"flood_depth_max_m":null,"flood_risk_100y":null,"semi_basement_r":null,"elderly_alone_r":0.0864,"bldg_age30_r":null,"shelter_min_walk":6,"pop":39119,"hh":15703,"elderly65_r":0.1372,"single_hh_r":0.2934,"source_level":"emd","flood_years":[],"landslide_hist_n":0},"geometry":{"type":"Polygon","coordinates":[[[126.69388,37.40671],[126.69335,37.41104],[126.68917,37.41298],[126.68552,37.41059],[126.68605,37.40626],[126.69023,37.40433],[126.69388,37.40671]]]}},{"type":"Feature","properties":{"h3":"8830e0a9c7fffff","emd_code":"2820070000","emd_name":"논현2동","area_km2":0.503,"edge":false,"slope_mean":4.19,"elev_mean":8.9,"flood_hist_n":0,"flood_depth_max_m":null,"flood_risk_100y":null,"semi_basement_r":null,"elderly_alone_r":0.1237,"bldg_age30_r":null,"shelter_min_walk":7,"pop":30553,"hh":15359,"elderly65_r":0.2126,"single_hh_r":0.4626,"source_level":"emd","flood_years":[],"landslide_hist_n":0},"geometry":{"type":"Polygon","coordinates":[[[126.70172,37.40717],[126.70119,37.41149],[126.697,37.41343],[126.69335,37.41104],[126.69388,37.40671],[126.69807,37.40478],[126.70172,37.40717]]]}},{"type":"Feature","properties":{"h3":"8830e0a9cbfffff","emd_code":"2820066000","emd_name":"남촌도림동","area_km2":0.5031,"edge":true,"slope_mean":5.2,"elev_mean":13.6,"flood_hist_n":0,"flood_depth_max_m":null,"flood_risk_100y":null,"semi_basement_r":null,"elderly_alone_r":0.1594,"bldg_age30_r":null,"shelter_min_walk":7,"pop":18548,"hh":8912,"elderly65_r":0.2621,"single_hh_r":0.3992,"source_level":"emd","flood_years":[],"landslide_hist_n":0},"geometry":{"type":"Polygon","coordinates":[[[126.70013,37.42015],[126.6996,37.42448],[126.69541,37.42642],[126.69176,37.42403],[126.69229,37.4197],[126.69647,37.41776],[126.70013,37.42015]]]}},{"type":"Feature","properties":{"h3":"8830e0a9d1fffff","emd_code":"2820066000","emd_name":"남촌도림동","area_km2":0.5033,"edge":false,"slope_mean":2.06,"elev_mean":7.3,"flood_hist_n":0,"flood_depth_max_m":null,"flood_risk_100y":null,"semi_basement_r":null,"elderly_alone_r":0.1594,"bldg_age30_r":null,"shelter_min_walk":13,"pop":18548,"hh":8912,"elderly65_r":0.2621,"single_hh_r":0.3992,"source_level":"emd","flood_years":[],"landslide_hist_n":0},"geometry":{"type":"Polygon","coordinates":[[[126.7158,37.42105],[126.71527,37.42538],[126.71109,37.42732],[126.70743,37.42493],[126.70796,37.4206],[126.71215,37.41866],[126.7158,37.42105]]]}},{"type":"Feature","properties":{"h3":"8830e0a9d3fffff","emd_code":"2820066000","emd_name":"남촌도림동","area_km2":0.5034,"edge":false,"slope_mean":3.96,"elev_mean":11.9,"flood_hist_n":0,"flood_depth_max_m":null,"flood_risk_100y":null,"semi_basement_r":null,"elderly_alone_r":0.1594,"bldg_age30_r":null,"shelter_min_walk":10,"pop":18548,"hh":8912,"elderly65_r":0.2621,"single_hh_r":0.3992,"source_level":"emd","flood_years":[],"landslide_hist_n":0},"geometry":{"type":"Polygon","coordinates":[[[126.72364,37.4215],[126.72311,37.42583],[126.71893,37.42777],[126.71527,37.42538],[126.7158,37.42105],[126.71999,37.41911],[126.72364,37.4215]]]}},{"type":"Feature","properties":{"h3":"8830e0a9d5fffff","emd_code":"2820066000","emd_name":"남촌도림동","area_km2":0.5032,"edge":false,"slope_mean":3.6,"elev_mean":10.1,"flood_hist_n":0,"flood_depth_max_m":null,"flood_risk_100y":null,"semi_basement_r":null,"elderly_alone_r":0.1594,"bldg_age30_r":null,"shelter_min_walk":7,"pop":18548,"hh":8912,"elderly65_r":0.2621,"single_hh_r":0.3992,"source_level":"emd","flood_years":[],"landslide_hist_n":0},"geometry":{"type":"Polygon","coordinates":[[[126.71268,37.41433],[126.71215,37.41866],[126.70796,37.4206],[126.70431,37.41821],[126.70484,37.41388],[126.70902,37.41194],[126.71268,37.41433]]]}},{"type":"Feature","properties":{"h3":"8830e0a9d7fffff","emd_code":"2820066000","emd_name":"남촌도림동","area_km2":0.5033,"edge":false,"slope_mean":5.49,"elev_mean":15.2,"flood_hist_n":0,"flood_depth_max_m":null,"flood_risk_100y":null,"semi_basement_r":null,"elderly_alone_r":0.1594,"bldg_age30_r":null,"shelter_min_walk":8,"pop":18548,"hh":8912,"elderly65_r":0.2621,"single_hh_r":0.3992,"source_level":"emd","flood_years":[],"landslide_hist_n":0},"geometry":{"type":"Polygon","coordinates":[[[126.72052,37.41478],[126.71999,37.41911],[126.7158,37.42105],[126.71215,37.41866],[126.71268,37.41433],[126.71686,37.41239],[126.72052,37.41478]]]}},{"type":"Feature","properties":{"h3":"8830e0a9d9fffff","emd_code":"2820066000","emd_name":"남촌도림동","area_km2":0.5032,"edge":false,"slope_mean":2.32,"elev_mean":6.8,"flood_hist_n":0,"flood_depth_max_m":null,"flood_risk_100y":null,"semi_basement_r":null,"elderly_alone_r":0.1594,"bldg_age30_r":null,"shelter_min_walk":9,"pop":18548,"hh":8912,"elderly65_r":0.2621,"single_hh_r":0.3992,"source_level":"emd","flood_years":[],"landslide_hist_n":0},"geometry":{"type":"Polygon","coordinates":[[[126.71109,37.42732],[126.71056,37.43165],[126.70637,37.43359],[126.70272,37.4312],[126.70325,37.42687],[126.70743,37.42493],[126.71109,37.42732]]]}},{"type":"Feature","properties":{"h3":"8830e0a9dbfffff","emd_code":"2820066000","emd_name":"남촌도림동","area_km2":0.5033,"edge":false,"slope_mean":3.51,"elev_mean":11.5,"flood_hist_n":1,"flood_depth_max_m":0.197,"flood_risk_100y":null,"semi_basement_r":null,"elderly_alone_r":0.1594,"bldg_age30_r":null,"shelter_min_walk":3,"pop":18548,"hh":8912,"elderly65_r":0.2621,"single_hh_r":0.3992,"source_level":"emd","flood_years":[2013],"landslide_hist_n":0},"geometry":{"type":"Polygon","coordinates":[[[126.71893,37.42777],[126.7184,37.4321],[126.71421,37.43404],[126.71056,37.43165],[126.71109,37.42732],[126.71527,37.42538],[126.71893,37.42777]]]}},{"type":"Feature","properties":{"h3":"8830e0a9ddfffff","emd_code":"2820066000","emd_name":"남촌도림동","area_km2":0.5032,"edge":false,"slope_mean":3.59,"elev_mean":7.7,"flood_hist_n":0,"flood_depth_max_m":null,"flood_risk_100y":null,"semi_basement_r":null,"elderly_alone_r":0.1594,"bldg_age30_r":null,"shelter_min_walk":3,"pop":18548,"hh":8912,"elderly65_r":0.2621,"single_hh_r":0.3992,"source_level":"emd","flood_years":[],"landslide_hist_n":0},"geometry":{"type":"Polygon","coordinates":[[[126.70796,37.4206],[126.70743,37.42493],[126.70325,37.42687],[126.6996,37.42448],[126.70013,37.42015],[126.70431,37.41821],[126.70796,37.4206]]]}},{"type":"Feature","properties":{"h3":"8830e0a9e1fffff","emd_code":"2820071000","emd_name":"논현고잔동","area_km2":0.5029,"edge":false,"slope_mean":3.85,"elev_mean":7.5,"flood_hist_n":0,"flood_depth_max_m":null,"flood_risk_100y":null,"semi_basement_r":null,"elderly_alone_r":0.0864,"bldg_age30_r":null,"shelter_min_walk":17,"pop":39119,"hh":15703,"elderly65_r":0.1372,"single_hh_r":0.2934,"source_level":"emd","flood_years":[],"landslide_hist_n":0},"geometry":{"type":"Polygon","coordinates":[[[126.69547,37.39373],[126.69494,37.39806],[126.69076,37.4],[126.68711,37.39761],[126.68764,37.39328],[126.69182,37.39134],[126.69547,37.39373]]]}},{"type":"Feature","properties":{"h3":"8830e0a9e3fffff","emd_code":"2820071000","emd_name":"논현고잔동","area_km2":0.503,"edge":false,"slope_mean":3.49,"elev_mean":8.8,"flood_hist_n":0,"flood_depth_max_m":null,"flood_risk_100y":null,"semi_basement_r":null,"elderly_alone_r":0.0864,"bldg_age30_r":null,"shelter_min_walk":14,"pop":39119,"hh":15703,"elderly65_r":0.1372,"single_hh_r":0.2934,"source_level":"emd","flood_years":[],"landslide_hist_n":0},"geometry":{"type":"Polygon","coordinates":[[[126.70331,37.39418],[126.70278,37.39851],[126.6986,37.40045],[126.69494,37.39806],[126.69547,37.39373],[126.69966,37.39179],[126.70331,37.39418]]]}},{"type":"Feature","properties":{"h3":"8830e0a9e5fffff","emd_code":"2820071000","emd_name":"논현고잔동","area_km2":0.5029,"edge":false,"slope_mean":3.12,"elev_mean":5.7,"flood_hist_n":0,"flood_depth_max_m":null,"flood_risk_100y":null,"semi_basement_r":null,"elderly_alone_r":0.0864,"bldg_age30_r":null,"shelter_min_walk":17,"pop":39119,"hh":15703,"elderly65_r":0.1372,"single_hh_r":0.2934,"source_level":"emd","flood_years":[],"landslide_hist_n":0},"geometry":{"type":"Polygon","coordinates":[[[126.69235,37.38701],[126.69182,37.39134],[126.68764,37.39328],[126.68399,37.39089],[126.68452,37.38656],[126.6887,37.38462],[126.69235,37.38701]]]}},{"type":"Feature","properties":{"h3":"8830e0a9e7fffff","emd_code":"2820071000","emd_name":"논현고잔동","area_km2":0.503,"edge":false,"slope_mean":3.44,"elev_mean":8.1,"flood_hist_n":0,"flood_depth_max_m":null,"flood_risk_100y":null,"semi_basement_r":null,"elderly_alone_r":0.0864,"bldg_age30_r":null,"shelter_min_walk":25,"pop":39119,"hh":15703,"elderly65_r":0.1372,"single_hh_r":0.2934,"source_level":"emd","flood_years":[],"landslide_hist_n":0},"geometry":{"type":"Polygon","coordinates":[[[126.70019,37.38746],[126.69966,37.39179],[126.69547,37.39373],[126.69182,37.39134],[126.69235,37.38701],[126.69654,37.38507],[126.70019,37.38746]]]}},{"type":"Feature","properties":{"h3":"8830e0a9e9fffff","emd_code":"2820071000","emd_name":"논현고잔동","area_km2":0.5029,"edge":false,"slope_mean":4.8,"elev_mean":9.1,"flood_hist_n":0,"flood_depth_max_m":null,"flood_risk_100y":null,"semi_basement_r":null,"elderly_alone_r":0.0864,"bldg_age30_r":null,"shelter_min_walk":9,"pop":39119,"hh":15703,"elderly65_r":0.1372,"single_hh_r":0.2934,"source_level":"emd","flood_years":[],"landslide_hist_n":0},"geometry":{"type":"Polygon","coordinates":[[[126.69076,37.4],[126.69023,37.40433],[126.68605,37.40626],[126.6824,37.40387],[126.68293,37.39955],[126.68711,37.39761],[126.69076,37.4]]]}},{"type":"Feature","properties":{"h3":"8830e0a9ebfffff","emd_code":"2820071000","emd_name":"논현고잔동","area_km2":0.503,"edge":false,"slope_mean":3.71,"elev_mean":8.5,"flood_hist_n":0,"flood_depth_max_m":null,"flood_risk_100y":null,"semi_basement_r":null,"elderly_alone_r":0.0864,"bldg_age30_r":null,"shelter_min_walk":5,"pop":39119,"hh":15703,"elderly65_r":0.1372,"single_hh_r":0.2934,"source_level":"emd","flood_years":[],"landslide_hist_n":0},"geometry":{"type":"Polygon","coordinates":[[[126.6986,37.40045],[126.69807,37.40478],[126.69388,37.40671],[126.69023,37.40433],[126.69076,37.4],[126.69494,37.39806],[126.6986,37.40045]]]}},{"type":"Feature","properties":{"h3":"8830e0a9edfffff","emd_code":"2820071000","emd_name":"논현고잔동","area_km2":0.5028,"edge":false,"slope_mean":3.38,"elev_mean":8.3,"flood_hist_n":0,"flood_depth_max_m":null,"flood_risk_100y":null,"semi_basement_r":null,"elderly_alone_r":0.0864,"bldg_age30_r":null,"shelter_min_walk":14,"pop":39119,"hh":15703,"elderly65_r":0.1372,"single_hh_r":0.2934,"source_level":"emd","flood_years":[],"landslide_hist_n":0},"geometry":{"type":"Polygon","coordinates":[[[126.68764,37.39328],[126.68711,37.39761],[126.68293,37.39955],[126.67928,37.39716],[126.67981,37.39283],[126.68399,37.39089],[126.68764,37.39328]]]}},{"type":"Feature","properties":{"h3":"8830e0aaa3fffff","emd_code":"2820055000","emd_name":"간석3동","area_km2":0.5033,"edge":true,"slope_mean":8.7,"elev_mean":42.5,"flood_hist_n":0,"flood_depth_max_m":null,"flood_risk_100y":null,"semi_basement_r":null,"elderly_alone_r":0.1711,"bldg_age30_r":null,"shelter_min_walk":5,"pop":24716,"hh":12559,"elderly65_r":0.2523,"single_hh_r":0.4523,"source_level":"emd","flood_years":[],"landslide_hist_n":0},"geometry":{"type":"Polygon","coordinates":[[[126.70944,37.47301],[126.70891,37.47734],[126.70473,37.47928],[126.70107,37.47688],[126.7016,37.47255],[126.70579,37.47062],[126.70944,37.47301]]]}},{"type":"Feature","properties":{"h3":"8830e0aaa5fffff","emd_code":"2820055100","emd_name":"간석4동","area_km2":0.5032,"edge":false,"slope_mean":3.44,"elev_mean":10.9,"flood_hist_n":0,"flood_depth_max_m":null,"flood_risk_100y":null,"semi_basement_r":null,"elderly_alone_r":0.1354,"bldg_age30_r":null,"shelter_min_walk":2,"pop":27636,"hh":13762,"elderly65_r":0.2262,"single_hh_r":0.4448,"source_level":"emd","flood_years":[],"landslide_hist_n":0},"geometry":{"type":"Polygon","coordinates":[[[126.69847,37.46583],[126.69794,37.47016],[126.69376,37.4721],[126.6901,37.46971],[126.69063,37.46538],[126.69482,37.46344],[126.69847,37.46583]]]}},{"type":"Feature","properties":{"h3":"8830e0aaa7fffff","emd_code":"2820055100","emd_name":"간석4동","area_km2":0.5033,"edge":true,"slope_mean":3.74,"elev_mean":16.8,"flood_hist_n":0,"flood_depth_max_m":null,"flood_risk_100y":null,"semi_basement_r":null,"elderly_alone_r":0.1354,"bldg_age30_r":null,"shelter_min_walk":7,"pop":27636,"hh":13762,"elderly65_r":0.2262,"single_hh_r":0.4448,"source_level":"emd","flood_years":[],"landslide_hist_n":0},"geometry":{"type":"Polygon","coordinates":[[[126.70632,37.46629],[126.70579,37.47062],[126.7016,37.47255],[126.69794,37.47016],[126.69847,37.46583],[126.70266,37.4639],[126.70632,37.46629]]]}},{"type":"Feature","properties":{"h3":"8830e0aaadfffff","emd_code":"2820055100","emd_name":"간석4동","area_km2":0.5031,"edge":true,"slope_mean":3.85,"elev_mean":10.2,"flood_hist_n":0,"flood_depth_max_m":null,"flood_risk_100y":null,"semi_basement_r":null,"elderly_alone_r":0.1354,"bldg_age30_r":null,"shelter_min_walk":8,"pop":27636,"hh":13762,"elderly65_r":0.2262,"single_hh_r":0.4448,"source_level":"emd","flood_years":[],"landslide_hist_n":0},"geometry":{"type":"Polygon","coordinates":[[[126.69376,37.4721],[126.69323,37.47643],[126.68904,37.47837],[126.68538,37.47597],[126.68592,37.47164],[126.6901,37.46971],[126.69376,37.4721]]]}},{"type":"Feature","properties":{"h3":"8830e0aab5fffff","emd_code":"2820055000","emd_name":"간석3동","area_km2":0.5034,"edge":false,"slope_mean":15.57,"elev_mean":76.7,"flood_hist_n":0,"flood_depth_max_m":null,"flood_risk_100y":null,"semi_basement_r":null,"elderly_alone_r":0.1711,"bldg_age30_r":null,"shelter_min_walk":6,"pop":24716,"hh":12559,"elderly65_r":0.2523,"single_hh_r":0.4523,"source_level":"emd","flood_years":[],"landslide_hist_n":0},"geometry":{"type":"Polygon","coordinates":[[[126.71729,37.47346],[126.71676,37.47779],[126.71257,37.47973],[126.70891,37.47734],[126.70944,37.47301],[126.71363,37.47107],[126.71729,37.47346]]]}},{"type":"Feature","properties":{"h3":"8830e0aab7fffff","emd_code":"2820055000","emd_name":"간석3동","area_km2":0.5036,"edge":true,"slope_mean":11.95,"elev_mean":75.8,"flood_hist_n":0,"flood_depth_max_m":null,"flood_risk_100y":null,"semi_basement_r":null,"elderly_alone_r":0.1711,"bldg_age30_r":null,"shelter_min_walk":15,"pop":24716,"hh":12559,"elderly65_r":0.2523,"single_hh_r":0.4523,"source_level":"emd","flood_years":[],"landslide_hist_n":0},"geometry":{"type":"Polygon","coordinates":[[[126.72513,37.47392],[126.72461,37.47825],[126.72042,37.48019],[126.71676,37.47779],[126.71729,37.47346],[126.72148,37.47153],[126.72513,37.47392]]]}},{"type":"Feature","properties":{"h3":"8830e0aabdfffff","emd_code":"2820055000","emd_name":"간석3동","area_km2":0.5034,"edge":true,"slope_mean":9.9,"elev_mean":49.3,"flood_hist_n":0,"flood_depth_max_m":null,"flood_risk_100y":null,"semi_basement_r":null,"elderly_alone_r":0.1711,"bldg_age30_r":null,"shelter_min_walk":2,"pop":24716,"hh":12559,"elderly65_r":0.2523,"single_hh_r":0.4523,"source_level":"emd","flood_years":[],"landslide_hist_n":0},"geometry":{"type":"Polygon","coordinates":[[[126.71257,37.47973],[126.71204,37.48406],[126.70785,37.486],[126.70419,37.48361],[126.70473,37.47928],[126.70891,37.47734],[126.71257,37.47973]]]}},{"type":"Feature","properties":{"h3":"8830e0ad09fffff","emd_code":"2820065000","emd_name":"장수서창동","area_km2":0.5044,"edge":true,"slope_mean":15.03,"elev_mean":92.9,"flood_hist_n":0,"flood_depth_max_m":null,"flood_risk_100y":null,"semi_basement_r":null,"elderly_alone_r":0.1352,"bldg_age30_r":null,"shelter_min_walk":45,"pop":18083,"hh":7804,"elderly65_r":0.2454,"single_hh_r":0.3266,"source_level":"emd","flood_years":[],"landslide_hist_n":0},"geometry":{"type":"Polygon","coordinates":[[[126.78639,37.45781],[126.78586,37.46214],[126.78167,37.46408],[126.77801,37.46169],[126.77854,37.45736],[126.78273,37.45542],[126.78639,37.45781]]]}},{"type":"Feature","properties":{"h3":"8830e0ad0dfffff","emd_code":"2820065000","emd_name":"장수서창동","area_km2":0.5043,"edge":false,"slope_mean":23.98,"elev_mean":165.1,"flood_hist_n":0,"flood_depth_max_m":null,"flood_risk_100y":null,"semi_basement_r":null,"elderly_alone_r":0.1352,"bldg_age30_r":null,"shelter_min_walk":39,"pop":18083,"hh":7804,"elderly65_r":0.2454,"single_hh_r":0.3266,"source_level":"emd","flood_years":[],"landslide_hist_n":0},"geometry":{"type":"Polygon","coordinates":[[[126.78325,37.45108],[126.78273,37.45542],[126.77854,37.45736],[126.77487,37.45497],[126.7754,37.45063],[126.77959,37.44869],[126.78325,37.45108]]]}},{"type":"Feature","properties":{"h3":"8830e0ad41fffff","emd_code":"2820065000","emd_name":"장수서창동","area_km2":0.5042,"edge":false,"slope_mean":13.01,"elev_mean":106.0,"flood_hist_n":0,"flood_depth_max_m":null,"flood_risk_100y":null,"semi_basement_r":null,"elderly_alone_r":0.1352,"bldg_age30_r":null,"shelter_min_walk":29,"pop":18083,"hh":7804,"elderly65_r":0.2454,"single_hh_r":0.3266,"source_level":"emd","flood_years":[],"landslide_hist_n":0},"geometry":{"type":"Polygon","coordinates":[[[126.77382,37.46363],[126.77329,37.46796],[126.7691,37.46991],[126.76544,37.46751],[126.76597,37.46318],[126.77016,37.46124],[126.77382,37.46363]]]}},{"type":"Feature","properties":{"h3":"8830e0ad43fffff","emd_code":"2820065000","emd_name":"장수서창동","area_km2":0.5043,"edge":false,"slope_mean":17.44,"elev_mean":129.3,"flood_hist_n":0,"flood_depth_max_m":null,"flood_risk_100y":null,"semi_basement_r":null,"elderly_alone_r":0.1352,"bldg_age30_r":null,"shelter_min_walk":37,"pop":18083,"hh":7804,"elderly65_r":0.2454,"single_hh_r":0.3266,"source_level":"emd","flood_years":[],"landslide_hist_n":0},"geometry":{"type":"Polygon","coordinates":[[[126.78167,37.46408],[126.78115,37.46841],[126.77696,37.47036],[126.77329,37.46796],[126.77382,37.46363],[126.77801,37.46169],[126.78167,37.46408]]]}},{"type":"Feature","properties":{"h3":"8830e0ad45fffff","emd_code":"2820065000","emd_name":"장수서창동","area_km2":0.5041,"edge":false,"slope_mean":10.56,"elev_mean":63.4,"flood_hist_n":0,"flood_depth_max_m":null,"flood_risk_100y":null,"semi_basement_r":null,"elderly_alone_r":0.1352,"bldg_age30_r":null,"shelter_min_walk":25,"pop":18083,"hh":7804,"elderly65_r":0.2454,"single_hh_r":0.3266,"source_level":"emd","flood_years":[],"landslide_hist_n":0},"geometry":{"type":"Polygon","coordinates":[[[126.77068,37.45691],[126.77016,37.46124],[126.76597,37.46318],[126.7623,37.46079],[126.76283,37.45646],[126.76702,37.45452],[126.77068,37.45691]]]}},{"type":"Feature","properties":{"h3":"8830e0ad47fffff","emd_code":"2820065000","emd_name":"장수서창동","area_km2":0.5043,"edge":false,"slope_mean":11.89,"elev_mean":86.8,"flood_hist_n":0,"flood_depth_max_m":null,"flood_risk_100y":null,"semi_basement_r":null,"elderly_alone_r":0.1352,"bldg_age30_r":null,"shelter_min_walk":35,"pop":18083,"hh":7804,"elderly65_r":0.2454,"single_hh_r":0.3266,"source_level":"emd","flood_years":[],"landslide_hist_n":0},"geometry":{"type":"Polygon","coordinates":[[[126.77854,37.45736],[126.77801,37.46169],[126.77382,37.46363],[126.77016,37.46124],[126.77068,37.45691],[126.77487,37.45497],[126.77854,37.45736]]]}},{"type":"Feature","properties":{"h3":"8830e0ad49fffff","emd_code":"2820065000","emd_name":"장수서창동","area_km2":0.5042,"edge":true,"slope_mean":15.3,"elev_mean":149.7,"flood_hist_n":0,"flood_depth_max_m":null,"flood_risk_100y":null,"semi_basement_r":null,"elderly_alone_r":0.1352,"bldg_age30_r":null,"shelter_min_walk":18,"pop":18083,"hh":7804,"elderly65_r":0.2454,"single_hh_r":0.3266,"source_level":"emd","flood_years":[],"landslide_hist_n":0},"geometry":{"type":"Polygon","coordinates":[[[126.7691,37.46991],[126.76858,37.47424],[126.76439,37.47618],[126.76072,37.47379],[126.76125,37.46945],[126.76544,37.46751],[126.7691,37.46991]]]}},{"type":"Feature","properties":{"h3":"8830e0ad4bfffff","emd_code":"2820065000","emd_name":"장수서창동","area_km2":0.5043,"edge":true,"slope_mean":16.46,"elev_mean":123.6,"flood_hist_n":0,"flood_depth_max_m":null,"flood_risk_100y":null,"semi_basement_r":null,"elderly_alone_r":0.1352,"bldg_age30_r":null,"shelter_min_walk":27,"pop":18083,"hh":7804,"elderly65_r":0.2454,"single_hh_r":0.3266,"source_level":"emd","flood_years":[],"landslide_hist_n":0},"geometry":{"type":"Polygon","coordinates":[[[126.77696,37.47036],[126.77643,37.47469],[126.77224,37.47663],[126.76858,37.47424],[126.7691,37.46991],[126.77329,37.46796],[126.77696,37.47036]]]}},{"type":"Feature","properties":{"h3":"8830e0ad4dfffff","emd_code":"2820065000","emd_name":"장수서창동","area_km2":0.5041,"edge":false,"slope_mean":15.18,"elev_mean":110.6,"flood_hist_n":0,"flood_depth_max_m":null,"flood_risk_100y":null,"semi_basement_r":null,"elderly_alone_r":0.1352,"bldg_age30_r":null,"shelter_min_walk":22,"pop":18083,"hh":7804,"elderly65_r":0.2454,"single_hh_r":0.3266,"source_level":"emd","flood_years":[],"landslide_hist_n":0},"geometry":{"type":"Polygon","coordinates":[[[126.76597,37.46318],[126.76544,37.46751],[126.76125,37.46945],[126.75759,37.46706],[126.75812,37.46273],[126.7623,37.46079],[126.76597,37.46318]]]}},{"type":"Feature","properties":{"h3":"8830e0ad5dfffff","emd_code":"2820065000","emd_name":"장수서창동","area_km2":0.5044,"edge":true,"slope_mean":16.84,"elev_mean":128.6,"flood_hist_n":0,"flood_depth_max_m":null,"flood_risk_100y":null,"semi_basement_r":null,"elderly_alone_r":0.1352,"bldg_age30_r":null,"shelter_min_walk":37,"pop":18083,"hh":7804,"elderly65_r":0.2454,"single_hh_r":0.3266,"source_level":"emd","flood_years":[],"landslide_hist_n":0},"geometry":{"type":"Polygon","coordinates":[[[126.78481,37.47081],[126.78429,37.47514],[126.78009,37.47708],[126.77643,37.47469],[126.77696,37.47036],[126.78115,37.46841],[126.78481,37.47081]]]}},{"type":"Feature","properties":{"h3":"8830e0ad61fffff","emd_code":"2820065000","emd_name":"장수서창동","area_km2":0.5041,"edge":false,"slope_mean":13.64,"elev_mean":70.9,"flood_hist_n":0,"flood_depth_max_m":null,"flood_risk_100y":null,"semi_basement_r":null,"elderly_alone_r":0.1352,"bldg_age30_r":null,"shelter_min_walk":26,"pop":18083,"hh":7804,"elderly65_r":0.2454,"single_hh_r":0.3266,"source_level":"emd","flood_years":[],"landslide_hist_n":0},"geometry":{"type":"Polygon","coordinates":[[[126.77226,37.44391],[126.77174,37.44824],[126.76755,37.45019],[126.76389,37.44779],[126.76441,37.44346],[126.7686,37.44152],[126.77226,37.44391]]]}},{"type":"Feature","properties":{"h3":"8830e0ad63fffff","emd_code":"2820065000","emd_name":"장수서창동","area_km2":0.5042,"edge":true,"slope_mean":14.5,"elev_mean":85.5,"flood_hist_n":0,"flood_depth_max_m":null,"flood_risk_100y":null,"semi_basement_r":null,"elderly_alone_r":0.1352,"bldg_age30_r":null,"shelter_min_walk":36,"pop":18083,"hh":7804,"elderly65_r":0.2454,"single_hh_r":0.3266,"source_level":"emd","flood_years":[],"landslide_hist_n":0},"geometry":{"type":"Polygon","coordinates":[[[126.78011,37.44436],[126.77959,37.44869],[126.7754,37.45063],[126.77174,37.44824],[126.77226,37.44391],[126.77645,37.44197],[126.78011,37.44436]]]}},{"type":"Feature","properties":{"h3":"8830e0ad65fffff","emd_code":"2820065000","emd_name":"장수서창동","area_km2":0.5041,"edge":false,"slope_mean":6.24,"elev_mean":21.6,"flood_hist_n":0,"flood_depth_max_m":null,"flood_risk_100y":null,"semi_basement_r":null,"elderly_alone_r":0.1352,"bldg_age30_r":null,"shelter_min_walk":18,"pop":18083,"hh":7804,"elderly65_r":0.2454,"single_hh_r":0.3266,"source_level":"emd","flood_years":[],"landslide_hist_n":0},"geometry":{"type":"Polygon","coordinates":[[[126.76913,37.43719],[126.7686,37.44152],[126.76441,37.44346],[126.76075,37.44107],[126.76128,37.43674],[126.76547,37.4348],[126.76913,37.43719]]]}},{"type":"Feature","properties":{"h3":"8830e0ad67fffff","emd_code":"2820065000","emd_name":"장수서창동","area_km2":0.5042,"edge":true,"slope_mean":4.49,"elev_mean":24.4,"flood_hist_n":0,"flood_depth_max_m":null,"flood_risk_100y":null,"semi_basement_r":null,"elderly_alone_r":0.1352,"bldg_age30_r":null,"shelter_min_walk":29,"pop":18083,"hh":7804,"elderly65_r":0.2454,"single_hh_r":0.3266,"source_level":"emd","flood_years":[],"landslide_hist_n":0},"geometry":{"type":"Polygon","coordinates":[[[126.77698,37.43764],[126.77645,37.44197],[126.77226,37.44391],[126.7686,37.44152],[126.76913,37.43719],[126.77332,37.43525],[126.77698,37.43764]]]}},{"type":"Feature","properties":{"h3":"8830e0ad69fffff","emd_code":"2820065000","emd_name":"장수서창동","area_km2":0.5041,"edge":false,"slope_mean":15.43,"elev_mean":96.3,"flood_hist_n":0,"flood_depth_max_m":null,"flood_risk_100y":null,"semi_basement_r":null,"elderly_alone_r":0.1352,"bldg_age30_r":null,"shelter_min_walk":18,"pop":18083,"hh":7804,"elderly65_r":0.2454,"single_hh_r":0.3266,"source_level":"emd","flood_years":[],"landslide_hist_n":0},"geometry":{"type":"Polygon","coordinates":[[[126.76755,37.45019],[126.76702,37.45452],[126.76283,37.45646],[126.75917,37.45407],[126.7597,37.44974],[126.76389,37.44779],[126.76755,37.45019]]]}},{"type":"Feature","properties":{"h3":"8830e0ad6bfffff","emd_code":"2820065000","emd_name":"장수서창동","area_km2":0.5042,"edge":false,"slope_mean":12.08,"elev_mean":85.3,"flood_hist_n":0,"flood_depth_max_m":null,"flood_risk_100y":null,"semi_basement_r":null,"elderly_alone_r":0.1352,"bldg_age30_r":null,"shelter_min_walk":29,"pop":18083,"hh":7804,"elderly65_r":0.2454,"single_hh_r":0.3266,"source_level":"emd","flood_years":[],"landslide_hist_n":0},"geometry":{"type":"Polygon","coordinates":[[[126.7754,37.45063],[126.77487,37.45497],[126.77068,37.45691],[126.76702,37.45452],[126.76755,37.45019],[126.77174,37.44824],[126.7754,37.45063]]]}},{"type":"Feature","properties":{"h3":"8830e0ad6dfffff","emd_code":"2820065000","emd_name":"장수서창동","area_km2":0.504,"edge":false,"slope_mean":10.94,"elev_mean":52.5,"flood_hist_n":0,"flood_depth_max_m":null,"flood_risk_100y":null,"semi_basement_r":null,"elderly_alone_r":0.1352,"bldg_age30_r":null,"shelter_min_walk":18,"pop":18083,"hh":7804,"elderly65_r":0.2454,"single_hh_r":0.3266,"source_level":"emd","flood_years":[],"landslide_hist_n":0},"geometry":{"type":"Polygon","coordinates":[[[126.76441,37.44346],[126.76389,37.44779],[126.7597,37.44974],[126.75604,37.44735],[126.75656,37.44301],[126.76075,37.44107],[126.76441,37.44346]]]}},{"type":"Feature","properties":{"h3":"8830e0af27fffff","emd_code":"2820065000","emd_name":"장수서창동","area_km2":0.504,"edge":true,"slope_mean":13.98,"elev_mean":82.9,"flood_hist_n":0,"flood_depth_max_m":null,"flood_risk_100y":null,"semi_basement_r":null,"elderly_alone_r":0.1352,"bldg_age30_r":null,"shelter_min_walk":10,"pop":18083,"hh":7804,"elderly65_r":0.2454,"single_hh_r":0.3266,"source_level":"emd","flood_years":[],"landslide_hist_n":0},"geometry":{"type":"Polygon","coordinates":[[[126.76125,37.46945],[126.76072,37.47379],[126.75653,37.47573],[126.75287,37.47334],[126.7534,37.469],[126.75759,37.46706],[126.76125,37.46945]]]}}]}