{"type":"FeatureCollection","name":"grid_28237_h3r8","meta":{"sgg_code":"28237","h3_res":8,"n_cells":88,"dem":"Copernicus GLO-30 (bbox-mean)","crs":"EPSG:4326","jumin_basis":"2026-07","flood_src":"행안부 침수흔적도(전국, 재난안전데이터공유플랫폼)","landslide_src":"행안부 산사태 발생이력"},"features":[{"type":"Feature","properties":{"h3":"8830e0a133fffff","emd_code":"2823759100","emd_name":"청천1동","area_km2":0.5033,"edge":true,"slope_mean":11.6,"elev_mean":68.4,"flood_hist_n":0,"flood_depth_max_m":null,"flood_risk_100y":null,"semi_basement_r":null,"elderly_alone_r":0.0773,"bldg_age30_r":null,"shelter_min_walk":9,"pop":22709,"hh":9690,"elderly65_r":0.1371,"single_hh_r":0.2937,"source_level":"emd","flood_years":[],"landslide_hist_n":0},"geometry":{"type":"Polygon","coordinates":[[[126.69523,37.52451],[126.69469,37.52884],[126.6905,37.53077],[126.68685,37.52838],[126.68738,37.52405],[126.69157,37.52212],[126.69523,37.52451]]]}},{"type":"Feature","properties":{"h3":"8830e0a135fffff","emd_code":"2823759100","emd_name":"청천1동","area_km2":0.5031,"edge":true,"slope_mean":8.02,"elev_mean":41.4,"flood_hist_n":0,"flood_depth_max_m":null,"flood_risk_100y":null,"semi_basement_r":null,"elderly_alone_r":0.0773,"bldg_age30_r":null,"shelter_min_walk":2,"pop":22709,"hh":9690,"elderly65_r":0.1371,"single_hh_r":0.2937,"source_level":"emd","flood_years":[],"landslide_hist_n":0},"geometry":{"type":"Polygon","coordinates":[[[126.68425,37.51733],[126.68372,37.52166],[126.67953,37.52359],[126.67587,37.5212],[126.67641,37.51687],[126.6806,37.51493],[126.68425,37.51733]]]}},{"type":"Feature","properties":{"h3":"8830e0a137fffff","emd_code":"2823759100","emd_name":"청천1동","area_km2":0.5032,"edge":false,"slope_mean":10.72,"elev_mean":62.4,"flood_hist_n":0,"flood_depth_max_m":null,"flood_risk_100y":null,"semi_basement_r":null,"elderly_alone_r":0.0773,"bldg_age30_r":null,"shelter_min_walk":8,"pop":22709,"hh":9690,"elderly65_r":0.1371,"single_hh_r":0.2937,"source_level":"emd","flood_years":[],"landslide_hist_n":0},"geometry":{"type":"Polygon","coordinates":[[[126.6921,37.51779],[126.69157,37.52212],[126.68738,37.52405],[126.68372,37.52166],[126.68425,37.51733],[126.68844,37.51539],[126.6921,37.51779]]]}},{"type":"Feature","properties":{"h3":"8830e0a1a1fffff","emd_code":"2823759200","emd_name":"청천2동","area_km2":0.5037,"edge":false,"slope_mean":5.1,"elev_mean":19.3,"flood_hist_n":0,"flood_depth_max_m":null,"flood_risk_100y":null,"semi_basement_r":null,"elderly_alone_r":0.117,"bldg_age30_r":null,"shelter_min_walk":8,"pop":32595,"hh":14585,"elderly65_r":0.2047,"single_hh_r":0.3457,"source_level":"emd","flood_years":[],"landslide_hist_n":0},"geometry":{"type":"Polygon","coordinates":[[[126.7235,37.51962],[126.72297,37.52395],[126.71878,37.52588],[126.71512,37.52349],[126.71565,37.51916],[126.71984,37.51722],[126.7235,37.51962]]]}},{"type":"Feature","properties":{"h3":"8830e0a1a3fffff","emd_code":"2823764100","emd_name":"갈산1동","area_km2":0.5038,"edge":false,"slope_mean":4.49,"elev_mean":19.5,"flood_hist_n":0,"flood_depth_max_m":null,"flood_risk_100y":null,"semi_basement_r":null,"elderly_alone_r":0.1269,"bldg_age30_r":null,"shelter_min_walk":2,"pop":13871,"hh":6666,"elderly65_r":0.2363,"single_hh_r":0.3932,"source_level":"emd","flood_years":[],"landslide_hist_n":0},"geometry":{"type":"Polygon","coordinates":[[[126.73135,37.52007],[126.73082,37.52441],[126.72663,37.52634],[126.72297,37.52395],[126.7235,37.51962],[126.72769,37.51768],[126.73135,37.52007]]]}},{"type":"Feature","properties":{"h3":"8830e0a1a5fffff","emd_code":"2823759200","emd_name":"청천2동","area_km2":0.5036,"edge":false,"slope_mean":4.73,"elev_mean":18.0,"flood_hist_n":0,"flood_depth_max_m":null,"flood_risk_100y":null,"semi_basement_r":null,"elderly_alone_r":0.117,"bldg_age30_r":null,"shelter_min_walk":8,"pop":32595,"hh":14585,"elderly65_r":0.2047,"single_hh_r":0.3457,"source_level":"emd","flood_years":[],"landslide_hist_n":0},"geometry":{"type":"Polygon","coordinates":[[[126.72037,37.51289],[126.71984,37.51722],[126.71565,37.51916],[126.71199,37.51677],[126.71252,37.51244],[126.71671,37.5105],[126.72037,37.51289]]]}},{"type":"Feature","properties":{"h3":"8830e0a1a7fffff","emd_code":"2823764100","emd_name":"갈산1동","area_km2":0.5037,"edge":false,"slope_mean":4.54,"elev_mean":14.7,"flood_hist_n":0,"flood_depth_max_m":null,"flood_risk_100y":null,"semi_basement_r":null,"elderly_alone_r":0.1269,"bldg_age30_r":null,"shelter_min_walk":1,"pop":13871,"hh":6666,"elderly65_r":0.2363,"single_hh_r":0.3932,"source_level":"emd","flood_years":[],"landslide_hist_n":0},"geometry":{"type":"Polygon","coordinates":[[[126.72822,37.51335],[126.72769,37.51768],[126.7235,37.51962],[126.71984,37.51722],[126.72037,37.51289],[126.72456,37.51096],[126.72822,37.51335]]]}},{"type":"Feature","properties":{"h3":"8830e0a1a9fffff","emd_code":"2823759200","emd_name":"청천2동","area_km2":0.5036,"edge":true,"slope_mean":4.56,"elev_mean":27.5,"flood_hist_n":0,"flood_depth_max_m":null,"flood_risk_100y":null,"semi_basement_r":null,"elderly_alone_r":0.117,"bldg_age30_r":null,"shelter_min_walk":3,"pop":32595,"hh":14585,"elderly65_r":0.2047,"single_hh_r":0.3457,"source_level":"emd","flood_years":[],"landslide_hist_n":0},"geometry":{"type":"Polygon","coordinates":[[[126.71878,37.52588],[126.71825,37.53022],[126.71405,37.53215],[126.71039,37.52976],[126.71092,37.52543],[126.71512,37.52349],[126.71878,37.52588]]]}},{"type":"Feature","properties":{"h3":"8830e0a1adfffff","emd_code":"2823759200","emd_name":"청천2동","area_km2":0.5035,"edge":false,"slope_mean":4.66,"elev_mean":22.0,"flood_hist_n":0,"flood_depth_max_m":null,"flood_risk_100y":null,"semi_basement_r":null,"elderly_alone_r":0.117,"bldg_age30_r":null,"shelter_min_walk":5,"pop":32595,"hh":14585,"elderly65_r":0.2047,"single_hh_r":0.3457,"source_level":"emd","flood_years":[],"landslide_hist_n":0},"geometry":{"type":"Polygon","coordinates":[[[126.71565,37.51916],[126.71512,37.52349],[126.71092,37.52543],[126.70727,37.52303],[126.7078,37.5187],[126.71199,37.51677],[126.71565,37.51916]]]}},{"type":"Feature","properties":{"h3":"8830e0a1b5fffff","emd_code":"2823764600","emd_name":"삼산1동","area_km2":0.5039,"edge":false,"slope_mean":3.65,"elev_mean":15.0,"flood_hist_n":0,"flood_depth_max_m":null,"flood_risk_100y":null,"semi_basement_r":null,"elderly_alone_r":0.1668,"bldg_age30_r":null,"shelter_min_walk":4,"pop":30892,"hh":13947,"elderly65_r":0.2152,"single_hh_r":0.3571,"source_level":"emd","flood_years":[],"landslide_hist_n":0},"geometry":{"type":"Polygon","coordinates":[[[126.7392,37.52053],[126.73868,37.52486],[126.73448,37.5268],[126.73082,37.52441],[126.73135,37.52007],[126.73554,37.51814],[126.7392,37.52053]]]}},{"type":"Feature","properties":{"h3":"8830e0a1b7fffff","emd_code":"2823764600","emd_name":"삼산1동","area_km2":0.504,"edge":false,"slope_mean":4.42,"elev_mean":13.5,"flood_hist_n":0,"flood_depth_max_m":null,"flood_risk_100y":null,"semi_basement_r":null,"elderly_alone_r":0.1668,"bldg_age30_r":null,"shelter_min_walk":2,"pop":30892,"hh":13947,"elderly65_r":0.2152,"single_hh_r":0.3571,"source_level":"emd","flood_years":[],"landslide_hist_n":0},"geometry":{"type":"Polygon","coordinates":[[[126.74706,37.52099],[126.74653,37.52532],[126.74234,37.52726],[126.73868,37.52486],[126.7392,37.52053],[126.7434,37.51859],[126.74706,37.52099]]]}},{"type":"Feature","properties":{"h3":"8830e0a1e5fffff","emd_code":"2823759100","emd_name":"청천1동","area_km2":0.5034,"edge":true,"slope_mean":7.59,"elev_mean":52.4,"flood_hist_n":0,"flood_depth_max_m":null,"flood_risk_100y":null,"semi_basement_r":null,"elderly_alone_r":0.0773,"bldg_age30_r":null,"shelter_min_walk":2,"pop":22709,"hh":9690,"elderly65_r":0.1371,"single_hh_r":0.2937,"source_level":"emd","flood_years":[],"landslide_hist_n":0},"geometry":{"type":"Polygon","coordinates":[[[126.70307,37.52497],[126.70254,37.5293],[126.69835,37.53123],[126.69469,37.52884],[126.69523,37.52451],[126.69942,37.52257],[126.70307,37.52497]]]}},{"type":"Feature","properties":{"h3":"8830e0a1e7fffff","emd_code":"2823759200","emd_name":"청천2동","area_km2":0.5035,"edge":true,"slope_mean":3.58,"elev_mean":34.9,"flood_hist_n":0,"flood_depth_max_m":null,"flood_risk_100y":null,"semi_basement_r":null,"elderly_alone_r":0.117,"bldg_age30_r":null,"shelter_min_walk":7,"pop":32595,"hh":14585,"elderly65_r":0.2047,"single_hh_r":0.3457,"source_level":"emd","flood_years":[],"landslide_hist_n":0},"geometry":{"type":"Polygon","coordinates":[[[126.71092,37.52543],[126.71039,37.52976],[126.7062,37.53169],[126.70254,37.5293],[126.70307,37.52497],[126.70727,37.52303],[126.71092,37.52543]]]}},{"type":"Feature","properties":{"h3":"8830e0a85bfffff","emd_code":"2823768000","emd_name":"십정1동","area_km2":0.503,"edge":true,"slope_mean":3.92,"elev_mean":9.4,"flood_hist_n":0,"flood_depth_max_m":null,"flood_risk_100y":null,"semi_basement_r":null,"elderly_alone_r":0.1223,"bldg_age30_r":null,"shelter_min_walk":1,"pop":23598,"hh":10748,"elderly65_r":0.1849,"single_hh_r":0.3485,"source_level":"emd","flood_years":[],"landslide_hist_n":0},"geometry":{"type":"Polygon","coordinates":[[[126.68592,37.47164],[126.68538,37.47597],[126.6812,37.47791],[126.67754,37.47552],[126.67808,37.47119],[126.68226,37.46925],[126.68592,37.47164]]]}},{"type":"Feature","properties":{"h3":"8830e0a899fffff","emd_code":"2823767000","emd_name":"일신동","area_km2":0.5039,"edge":true,"slope_mean":13.97,"elev_mean":79.8,"flood_hist_n":0,"flood_depth_max_m":null,"flood_risk_100y":null,"semi_basement_r":null,"elderly_alone_r":0.131,"bldg_age30_r":null,"shelter_min_walk":9,"pop":11074,"hh":4999,"elderly65_r":0.2595,"single_hh_r":0.3509,"source_level":"emd","flood_years":[],"landslide_hist_n":0},"geometry":{"type":"Polygon","coordinates":[[[126.75027,37.46228],[126.74974,37.46661],[126.74555,37.46855],[126.74189,37.46616],[126.74242,37.46183],[126.74661,37.45989],[126.75027,37.46228]]]}},{"type":"Feature","properties":{"h3":"8830e0a89bfffff","emd_code":"2823767000","emd_name":"일신동","area_km2":0.504,"edge":true,"slope_mean":8.8,"elev_mean":52.7,"flood_hist_n":0,"flood_depth_max_m":null,"flood_risk_100y":null,"semi_basement_r":null,"elderly_alone_r":0.131,"bldg_age30_r":null,"shelter_min_walk":19,"pop":11074,"hh":4999,"elderly65_r":0.2595,"single_hh_r":0.3509,"source_level":"emd","flood_years":[],"landslide_hist_n":0},"geometry":{"type":"Polygon","coordinates":[[[126.75812,37.46273],[126.75759,37.46706],[126.7534,37.469],[126.74974,37.46661],[126.75027,37.46228],[126.75445,37.46034],[126.75812,37.46273]]]}},{"type":"Feature","properties":{"h3":"8830e0a8c9fffff","emd_code":"2823769000","emd_name":"십정2동","area_km2":0.5034,"edge":true,"slope_mean":8.24,"elev_mean":38.8,"flood_hist_n":0,"flood_depth_max_m":null,"flood_risk_100y":null,"semi_basement_r":null,"elderly_alone_r":0.1885,"bldg_age30_r":null,"shelter_min_walk":4,"pop":20404,"hh":11293,"elderly65_r":0.2765,"single_hh_r":0.533,"source_level":"emd","flood_years":[],"landslide_hist_n":0},"geometry":{"type":"Polygon","coordinates":[[[126.71416,37.46674],[126.71363,37.47107],[126.70944,37.47301],[126.70579,37.47062],[126.70632,37.46629],[126.7105,37.46435],[126.71416,37.46674]]]}},{"type":"Feature","properties":{"h3":"8830e0a8d1fffff","emd_code":"2823767000","emd_name":"일신동","area_km2":0.5037,"edge":true,"slope_mean":19.73,"elev_mean":129.1,"flood_hist_n":0,"flood_depth_max_m":null,"flood_risk_100y":null,"semi_basement_r":null,"elderly_alone_r":0.131,"bldg_age30_r":null,"shelter_min_walk":8,"pop":11074,"hh":4999,"elderly65_r":0.2595,"single_hh_r":0.3509,"source_level":"emd","flood_years":[],"landslide_hist_n":0},"geometry":{"type":"Polygon","coordinates":[[[126.7377,37.4681],[126.73717,37.47243],[126.73298,37.47437],[126.72932,37.47198],[126.72985,37.46765],[126.73404,37.46571],[126.7377,37.4681]]]}},{"type":"Feature","properties":{"h3":"8830e0a8d3fffff","emd_code":"2823767000","emd_name":"일신동","area_km2":0.5038,"edge":false,"slope_mean":14.67,"elev_mean":90.2,"flood_hist_n":0,"flood_depth_max_m":null,"flood_risk_100y":null,"semi_basement_r":null,"elderly_alone_r":0.131,"bldg_age30_r":null,"shelter_min_walk":10,"pop":11074,"hh":4999,"elderly65_r":0.2595,"single_hh_r":0.3509,"source_level":"emd","flood_years":[],"landslide_hist_n":0},"geometry":{"type":"Polygon","coordinates":[[[126.74555,37.46855],[126.74502,37.47288],[126.74083,37.47482],[126.73717,37.47243],[126.7377,37.4681],[126.74189,37.46616],[126.74555,37.46855]]]}},{"type":"Feature","properties":{"h3":"8830e0a8d9fffff","emd_code":"2823752000","emd_name":"부평2동","area_km2":0.5037,"edge":false,"slope_mean":17.19,"elev_mean":121.9,"flood_hist_n":0,"flood_depth_max_m":null,"flood_risk_100y":null,"semi_basement_r":null,"elderly_alone_r":0.1407,"bldg_age30_r":null,"shelter_min_walk":13,"pop":16709,"hh":8472,"elderly65_r":0.2147,"single_hh_r":0.4464,"source_level":"emd","flood_years":[],"landslide_hist_n":0},"geometry":{"type":"Polygon","coordinates":[[[126.73298,37.47437],[126.73245,37.4787],[126.72826,37.48064],[126.72461,37.47825],[126.72513,37.47392],[126.72932,37.47198],[126.73298,37.47437]]]}},{"type":"Feature","properties":{"h3":"8830e0a8dbfffff","emd_code":"2823767000","emd_name":"일신동","area_km2":0.5038,"edge":false,"slope_mean":14.14,"elev_mean":81.3,"flood_hist_n":0,"flood_depth_max_m":null,"flood_risk_100y":null,"semi_basement_r":null,"elderly_alone_r":0.131,"bldg_age30_r":null,"shelter_min_walk":13,"pop":11074,"hh":4999,"elderly65_r":0.2595,"single_hh_r":0.3509,"source_level":"emd","flood_years":[],"landslide_hist_n":0},"geometry":{"type":"Polygon","coordinates":[[[126.74083,37.47482],[126.7403,37.47915],[126.73611,37.48109],[126.73245,37.4787],[126.73298,37.47437],[126.73717,37.47243],[126.74083,37.47482]]]}},{"type":"Feature","properties":{"h3":"8830e0a8ddfffff","emd_code":"2823752000","emd_name":"부평2동","area_km2":0.5036,"edge":true,"slope_mean":17.86,"elev_mean":107.2,"flood_hist_n":0,"flood_depth_max_m":null,"flood_risk_100y":null,"semi_basement_r":null,"elderly_alone_r":0.1407,"bldg_age30_r":null,"shelter_min_walk":10,"pop":16709,"hh":8472,"elderly65_r":0.2147,"single_hh_r":0.4464,"source_level":"emd","flood_years":[],"landslide_hist_n":0},"geometry":{"type":"Polygon","coordinates":[[[126.72985,37.46765],[126.72932,37.47198],[126.72513,37.47392],[126.72148,37.47153],[126.72201,37.46719],[126.72619,37.46526],[126.72985,37.46765]]]}},{"type":"Feature","properties":{"h3":"8830e0aa81fffff","emd_code":"2823757000","emd_name":"산곡1동","area_km2":0.5033,"edge":false,"slope_mean":10.08,"elev_mean":49.3,"flood_hist_n":0,"flood_depth_max_m":null,"flood_risk_100y":null,"semi_basement_r":null,"elderly_alone_r":0.1096,"bldg_age30_r":null,"shelter_min_walk":8,"pop":14142,"hh":6241,"elderly65_r":0.1911,"single_hh_r":0.32,"source_level":"emd","flood_years":[],"landslide_hist_n":0},"geometry":{"type":"Polygon","coordinates":[[[126.70313,37.49227],[126.7026,37.4966],[126.69841,37.49853],[126.69476,37.49614],[126.69529,37.49181],[126.69948,37.48987],[126.70313,37.49227]]]}},{"type":"Feature","properties":{"h3":"8830e0aa83fffff","emd_code":"2823758100","emd_name":"산곡3동","area_km2":0.5034,"edge":false,"slope_mean":3.99,"elev_mean":27.2,"flood_hist_n":0,"flood_depth_max_m":null,"flood_risk_100y":null,"semi_basement_r":null,"elderly_alone_r":0.1639,"bldg_age30_r":null,"shelter_min_walk":1,"pop":19594,"hh":8525,"elderly65_r":0.2944,"single_hh_r":0.3214,"source_level":"emd","flood_years":[],"landslide_hist_n":0},"geometry":{"type":"Polygon","coordinates":[[[126.71098,37.49272],[126.71045,37.49705],[126.70626,37.49899],[126.7026,37.4966],[126.70313,37.49227],[126.70732,37.49033],[126.71098,37.49272]]]}},{"type":"Feature","properties":{"h3":"8830e0aa85fffff","emd_code":"2823768000","emd_name":"십정1동","area_km2":0.5032,"edge":true,"slope_mean":14.13,"elev_mean":60.9,"flood_hist_n":0,"flood_depth_max_m":null,"flood_risk_100y":null,"semi_basement_r":null,"elderly_alone_r":0.1223,"bldg_age30_r":null,"shelter_min_walk":12,"pop":23598,"hh":10748,"elderly65_r":0.1849,"single_hh_r":0.3485,"source_level":"emd","flood_years":[],"landslide_hist_n":0},"geometry":{"type":"Polygon","coordinates":[[[126.70001,37.48554],[126.69948,37.48987],[126.69529,37.49181],[126.69163,37.48942],[126.69216,37.48509],[126.69635,37.48315],[126.70001,37.48554]]]}},{"type":"Feature","properties":{"h3":"8830e0aa87fffff","emd_code":"2823758100","emd_name":"산곡3동","area_km2":0.5033,"edge":false,"slope_mean":9.92,"elev_mean":55.6,"flood_hist_n":0,"flood_depth_max_m":null,"flood_risk_100y":null,"semi_basement_r":null,"elderly_alone_r":0.1639,"bldg_age30_r":null,"shelter_min_walk":4,"pop":19594,"hh":8525,"elderly65_r":0.2944,"single_hh_r":0.3214,"source_level":"emd","flood_years":[],"landslide_hist_n":0},"geometry":{"type":"Polygon","coordinates":[[[126.70785,37.486],[126.70732,37.49033],[126.70313,37.49227],[126.69948,37.48987],[126.70001,37.48554],[126.70419,37.48361],[126.70785,37.486]]]}},{"type":"Feature","properties":{"h3":"8830e0aa89fffff","emd_code":"2823757000","emd_name":"산곡1동","area_km2":0.5033,"edge":false,"slope_mean":14.79,"elev_mean":71.0,"flood_hist_n":0,"flood_depth_max_m":null,"flood_risk_100y":null,"semi_basement_r":null,"elderly_alone_r":0.1096,"bldg_age30_r":null,"shelter_min_walk":7,"pop":14142,"hh":6241,"elderly65_r":0.1911,"single_hh_r":0.32,"source_level":"emd","flood_years":[],"landslide_hist_n":0},"geometry":{"type":"Polygon","coordinates":[[[126.69841,37.49853],[126.69788,37.50286],[126.69369,37.5048],[126.69004,37.5024],[126.69057,37.49807],[126.69476,37.49614],[126.69841,37.49853]]]}},{"type":"Feature","properties":{"h3":"8830e0aa8bfffff","emd_code":"2823758000","emd_name":"산곡2동","area_km2":0.5034,"edge":false,"slope_mean":5.64,"elev_mean":28.2,"flood_hist_n":0,"flood_depth_max_m":null,"flood_risk_100y":null,"semi_basement_r":null,"elderly_alone_r":0.0831,"bldg_age30_r":null,"shelter_min_walk":6,"pop":28463,"hh":10599,"elderly65_r":0.1964,"single_hh_r":0.1931,"source_level":"emd","flood_years":[],"landslide_hist_n":0},"geometry":{"type":"Polygon","coordinates":[[[126.70626,37.49899],[126.70573,37.50332],[126.70154,37.50525],[126.69788,37.50286],[126.69841,37.49853],[126.7026,37.4966],[126.70626,37.49899]]]}},{"type":"Feature","properties":{"h3":"8830e0aa8dfffff","emd_code":"2823757000","emd_name":"산곡1동","area_km2":0.5032,"edge":true,"slope_mean":12.15,"elev_mean":53.8,"flood_hist_n":0,"flood_depth_max_m":null,"flood_risk_100y":null,"semi_basement_r":null,"elderly_alone_r":0.1096,"bldg_age30_r":null,"shelter_min_walk":7,"pop":14142,"hh":6241,"elderly65_r":0.1911,"single_hh_r":0.32,"source_level":"emd","flood_years":[],"landslide_hist_n":0},"geometry":{"type":"Polygon","coordinates":[[[126.69529,37.49181],[126.69476,37.49614],[126.69057,37.49807],[126.68691,37.49568],[126.68744,37.49135],[126.69163,37.48942],[126.69529,37.49181]]]}},{"type":"Feature","properties":{"h3":"8830e0aa91fffff","emd_code":"2823751000","emd_name":"부평1동","area_km2":0.5036,"edge":false,"slope_mean":3.9,"elev_mean":15.8,"flood_hist_n":0,"flood_depth_max_m":null,"flood_risk_100y":null,"semi_basement_r":null,"elderly_alone_r":0.0988,"bldg_age30_r":null,"shelter_min_walk":4,"pop":34435,"hh":17395,"elderly65_r":0.2091,"single_hh_r":0.4604,"source_level":"emd","flood_years":[],"landslide_hist_n":0},"geometry":{"type":"Polygon","coordinates":[[[126.72196,37.4999],[126.72143,37.50423],[126.71724,37.50617],[126.71358,37.50378],[126.71411,37.49944],[126.7183,37.49751],[126.72196,37.4999]]]}},{"type":"Feature","properties":{"h3":"8830e0aa93fffff","emd_code":"2823754000","emd_name":"부평4동","area_km2":0.5037,"edge":false,"slope_mean":3.83,"elev_mean":14.0,"flood_hist_n":0,"flood_depth_max_m":null,"flood_risk_100y":null,"semi_basement_r":null,"elderly_alone_r":0.1296,"bldg_age30_r":null,"shelter_min_walk":5,"pop":32930,"hh":17835,"elderly65_r":0.2047,"single_hh_r":0.5161,"source_level":"emd","flood_years":[],"landslide_hist_n":0},"geometry":{"type":"Polygon","coordinates":[[[126.72981,37.50036],[126.72928,37.50469],[126.72509,37.50662],[126.72143,37.50423],[126.72196,37.4999],[126.72615,37.49796],[126.72981,37.50036]]]}},{"type":"Feature","properties":{"h3":"8830e0aa95fffff","emd_code":"2823758100","emd_name":"산곡3동","area_km2":0.5035,"edge":false,"slope_mean":3.36,"elev_mean":20.8,"flood_hist_n":0,"flood_depth_max_m":null,"flood_risk_100y":null,"semi_basement_r":null,"elderly_alone_r":0.1639,"bldg_age30_r":null,"shelter_min_walk":8,"pop":19594,"hh":8525,"elderly65_r":0.2944,"single_hh_r":0.3214,"source_level":"emd","flood_years":[],"landslide_hist_n":0},"geometry":{"type":"Polygon","coordinates":[[[126.71883,37.49318],[126.7183,37.49751],[126.71411,37.49944],[126.71045,37.49705],[126.71098,37.49272],[126.71517,37.49078],[126.71883,37.49318]]]}},{"type":"Feature","properties":{"h3":"8830e0aa97fffff","emd_code":"2823751000","emd_name":"부평1동","area_km2":0.5036,"edge":false,"slope_mean":4.58,"elev_mean":19.3,"flood_hist_n":0,"flood_depth_max_m":null,"flood_risk_100y":null,"semi_basement_r":null,"elderly_alone_r":0.0988,"bldg_age30_r":null,"shelter_min_walk":3,"pop":34435,"hh":17395,"elderly65_r":0.2091,"single_hh_r":0.4604,"source_level":"emd","flood_years":[],"landslide_hist_n":0},"geometry":{"type":"Polygon","coordinates":[[[126.72668,37.49363],[126.72615,37.49796],[126.72196,37.4999],[126.7183,37.49751],[126.71883,37.49318],[126.72302,37.49124],[126.72668,37.49363]]]}},{"type":"Feature","properties":{"h3":"8830e0aa99fffff","emd_code":"2823759200","emd_name":"청천2동","area_km2":0.5035,"edge":false,"slope_mean":4.6,"elev_mean":17.2,"flood_hist_n":0,"flood_depth_max_m":null,"flood_risk_100y":null,"semi_basement_r":null,"elderly_alone_r":0.117,"bldg_age30_r":null,"shelter_min_walk":5,"pop":32595,"hh":14585,"elderly65_r":0.2047,"single_hh_r":0.3457,"source_level":"emd","flood_years":[],"landslide_hist_n":0},"geometry":{"type":"Polygon","coordinates":[[[126.71724,37.50617],[126.71671,37.5105],[126.71252,37.51244],[126.70886,37.51004],[126.70939,37.50571],[126.71358,37.50378],[126.71724,37.50617]]]}},{"type":"Feature","properties":{"h3":"8830e0aa9bfffff","emd_code":"2823764100","emd_name":"갈산1동","area_km2":0.5036,"edge":false,"slope_mean":4.22,"elev_mean":14.3,"flood_hist_n":0,"flood_depth_max_m":null,"flood_risk_100y":null,"semi_basement_r":null,"elderly_alone_r":0.1269,"bldg_age30_r":null,"shelter_min_walk":1,"pop":13871,"hh":6666,"elderly65_r":0.2363,"single_hh_r":0.3932,"source_level":"emd","flood_years":[],"landslide_hist_n":0},"geometry":{"type":"Polygon","coordinates":[[[126.72509,37.50662],[126.72456,37.51096],[126.72037,37.51289],[126.71671,37.5105],[126.71724,37.50617],[126.72143,37.50423],[126.72509,37.50662]]]}},{"type":"Feature","properties":{"h3":"8830e0aa9dfffff","emd_code":"2823758200","emd_name":"산곡4동","area_km2":0.5035,"edge":false,"slope_mean":3.96,"elev_mean":16.6,"flood_hist_n":0,"flood_depth_max_m":null,"flood_risk_100y":null,"semi_basement_r":null,"elderly_alone_r":0.1168,"bldg_age30_r":null,"shelter_min_walk":1,"pop":16126,"hh":6559,"elderly65_r":0.2283,"single_hh_r":0.268,"source_level":"emd","flood_years":[],"landslide_hist_n":0},"geometry":{"type":"Polygon","coordinates":[[[126.71411,37.49944],[126.71358,37.50378],[126.70939,37.50571],[126.70573,37.50332],[126.70626,37.49899],[126.71045,37.49705],[126.71411,37.49944]]]}},{"type":"Feature","properties":{"h3":"8830e0aaa1fffff","emd_code":"2823768000","emd_name":"십정1동","area_km2":0.5032,"edge":false,"slope_mean":5.08,"elev_mean":19.9,"flood_hist_n":0,"flood_depth_max_m":null,"flood_risk_100y":null,"semi_basement_r":null,"elderly_alone_r":0.1223,"bldg_age30_r":null,"shelter_min_walk":1,"pop":23598,"hh":10748,"elderly65_r":0.1849,"single_hh_r":0.3485,"source_level":"emd","flood_years":[],"landslide_hist_n":0},"geometry":{"type":"Polygon","coordinates":[[[126.7016,37.47255],[126.70107,37.47688],[126.69688,37.47882],[126.69323,37.47643],[126.69376,37.4721],[126.69794,37.47016],[126.7016,37.47255]]]}},{"type":"Feature","properties":{"h3":"8830e0aaa3fffff","emd_code":"2823769000","emd_name":"십정2동","area_km2":0.5033,"edge":false,"slope_mean":8.71,"elev_mean":42.5,"flood_hist_n":0,"flood_depth_max_m":null,"flood_risk_100y":null,"semi_basement_r":null,"elderly_alone_r":0.1885,"bldg_age30_r":null,"shelter_min_walk":5,"pop":20404,"hh":11293,"elderly65_r":0.2765,"single_hh_r":0.533,"source_level":"emd","flood_years":[],"landslide_hist_n":0},"geometry":{"type":"Polygon","coordinates":[[[126.70944,37.47301],[126.70891,37.47734],[126.70473,37.47928],[126.70107,37.47688],[126.7016,37.47255],[126.70579,37.47062],[126.70944,37.47301]]]}},{"type":"Feature","properties":{"h3":"8830e0aaa5fffff","emd_code":"2823769000","emd_name":"십정2동","area_km2":0.5032,"edge":true,"slope_mean":3.55,"elev_mean":10.8,"flood_hist_n":0,"flood_depth_max_m":null,"flood_risk_100y":null,"semi_basement_r":null,"elderly_alone_r":0.1885,"bldg_age30_r":null,"shelter_min_walk":2,"pop":20404,"hh":11293,"elderly65_r":0.2765,"single_hh_r":0.533,"source_level":"emd","flood_years":[],"landslide_hist_n":0},"geometry":{"type":"Polygon","coordinates":[[[126.69847,37.46583],[126.69794,37.47016],[126.69376,37.4721],[126.6901,37.46971],[126.69063,37.46538],[126.69482,37.46344],[126.69847,37.46583]]]}},{"type":"Feature","properties":{"h3":"8830e0aaa7fffff","emd_code":"2823769000","emd_name":"십정2동","area_km2":0.5033,"edge":false,"slope_mean":3.75,"elev_mean":16.7,"flood_hist_n":0,"flood_depth_max_m":null,"flood_risk_100y":null,"semi_basement_r":null,"elderly_alone_r":0.1885,"bldg_age30_r":null,"shelter_min_walk":7,"pop":20404,"hh":11293,"elderly65_r":0.2765,"single_hh_r":0.533,"source_level":"emd","flood_years":[],"landslide_hist_n":0},"geometry":{"type":"Polygon","coordinates":[[[126.70632,37.46629],[126.70579,37.47062],[126.7016,37.47255],[126.69794,37.47016],[126.69847,37.46583],[126.70266,37.4639],[126.70632,37.46629]]]}},{"type":"Feature","properties":{"h3":"8830e0aaa9fffff","emd_code":"2823768000","emd_name":"십정1동","area_km2":0.5032,"edge":false,"slope_mean":7.55,"elev_mean":22.7,"flood_hist_n":0,"flood_depth_max_m":null,"flood_risk_100y":null,"semi_basement_r":null,"elderly_alone_r":0.1223,"bldg_age30_r":null,"shelter_min_walk":7,"pop":23598,"hh":10748,"elderly65_r":0.1849,"single_hh_r":0.3485,"source_level":"emd","flood_years":[],"landslide_hist_n":0},"geometry":{"type":"Polygon","coordinates":[[[126.69688,37.47882],[126.69635,37.48315],[126.69216,37.48509],[126.68851,37.48269],[126.68904,37.47837],[126.69323,37.47643],[126.69688,37.47882]]]}},{"type":"Feature","properties":{"h3":"8830e0aaabfffff","emd_code":"2823768000","emd_name":"십정1동","area_km2":0.5033,"edge":false,"slope_mean":10.27,"elev_mean":47.6,"flood_hist_n":0,"flood_depth_max_m":null,"flood_risk_100y":null,"semi_basement_r":null,"elderly_alone_r":0.1223,"bldg_age30_r":null,"shelter_min_walk":1,"pop":23598,"hh":10748,"elderly65_r":0.1849,"single_hh_r":0.3485,"source_level":"emd","flood_years":[],"landslide_hist_n":0},"geometry":{"type":"Polygon","coordinates":[[[126.70473,37.47928],[126.70419,37.48361],[126.70001,37.48554],[126.69635,37.48315],[126.69688,37.47882],[126.70107,37.47688],[126.70473,37.47928]]]}},{"type":"Feature","properties":{"h3":"8830e0aaadfffff","emd_code":"2823768000","emd_name":"십정1동","area_km2":0.5031,"edge":false,"slope_mean":3.84,"elev_mean":10.0,"flood_hist_n":0,"flood_depth_max_m":null,"flood_risk_100y":null,"semi_basement_r":null,"elderly_alone_r":0.1223,"bldg_age30_r":null,"shelter_min_walk":8,"pop":23598,"hh":10748,"elderly65_r":0.1849,"single_hh_r":0.3485,"source_level":"emd","flood_years":[],"landslide_hist_n":0},"geometry":{"type":"Polygon","coordinates":[[[126.69376,37.4721],[126.69323,37.47643],[126.68904,37.47837],[126.68538,37.47597],[126.68592,37.47164],[126.6901,37.46971],[126.69376,37.4721]]]}},{"type":"Feature","properties":{"h3":"8830e0aab1fffff","emd_code":"2823752000","emd_name":"부평2동","area_km2":0.5035,"edge":false,"slope_mean":14.87,"elev_mean":72.2,"flood_hist_n":0,"flood_depth_max_m":null,"flood_risk_100y":null,"semi_basement_r":null,"elderly_alone_r":0.1407,"bldg_age30_r":null,"shelter_min_walk":5,"pop":16709,"hh":8472,"elderly65_r":0.2147,"single_hh_r":0.4464,"source_level":"emd","flood_years":[],"landslide_hist_n":0},"geometry":{"type":"Polygon","coordinates":[[[126.72042,37.48019],[126.71989,37.48452],[126.7157,37.48645],[126.71204,37.48406],[126.71257,37.47973],[126.71676,37.47779],[126.72042,37.48019]]]}},{"type":"Feature","properties":{"h3":"8830e0aab3fffff","emd_code":"2823756000","emd_name":"부평6동","area_km2":0.5036,"edge":false,"slope_mean":11.25,"elev_mean":69.3,"flood_hist_n":0,"flood_depth_max_m":null,"flood_risk_100y":null,"semi_basement_r":null,"elderly_alone_r":0.1159,"bldg_age30_r":null,"shelter_min_walk":7,"pop":19135,"hh":9352,"elderly65_r":0.1969,"single_hh_r":0.4183,"source_level":"emd","flood_years":[],"landslide_hist_n":0},"geometry":{"type":"Polygon","coordinates":[[[126.72826,37.48064],[126.72774,37.48497],[126.72355,37.48691],[126.71989,37.48452],[126.72042,37.48019],[126.72461,37.47825],[126.72826,37.48064]]]}},{"type":"Feature","properties":{"h3":"8830e0aab5fffff","emd_code":"2823752000","emd_name":"부평2동","area_km2":0.5034,"edge":true,"slope_mean":15.82,"elev_mean":77.1,"flood_hist_n":0,"flood_depth_max_m":null,"flood_risk_100y":null,"semi_basement_r":null,"elderly_alone_r":0.1407,"bldg_age30_r":null,"shelter_min_walk":6,"pop":16709,"hh":8472,"elderly65_r":0.2147,"single_hh_r":0.4464,"source_level":"emd","flood_years":[],"landslide_hist_n":0},"geometry":{"type":"Polygon","coordinates":[[[126.71729,37.47346],[126.71676,37.47779],[126.71257,37.47973],[126.70891,37.47734],[126.70944,37.47301],[126.71363,37.47107],[126.71729,37.47346]]]}},{"type":"Feature","properties":{"h3":"8830e0aab7fffff","emd_code":"2823752000","emd_name":"부평2동","area_km2":0.5036,"edge":false,"slope_mean":12.03,"elev_mean":74.7,"flood_hist_n":0,"flood_depth_max_m":null,"flood_risk_100y":null,"semi_basement_r":null,"elderly_alone_r":0.1407,"bldg_age30_r":null,"shelter_min_walk":15,"pop":16709,"hh":8472,"elderly65_r":0.2147,"single_hh_r":0.4464,"source_level":"emd","flood_years":[],"landslide_hist_n":0},"geometry":{"type":"Polygon","coordinates":[[[126.72513,37.47392],[126.72461,37.47825],[126.72042,37.48019],[126.71676,37.47779],[126.71729,37.47346],[126.72148,37.47153],[126.72513,37.47392]]]}},{"type":"Feature","properties":{"h3":"8830e0aab9fffff","emd_code":"2823753000","emd_name":"부평3동","area_km2":0.5035,"edge":false,"slope_mean":5.11,"elev_mean":33.1,"flood_hist_n":0,"flood_depth_max_m":null,"flood_risk_100y":null,"semi_basement_r":null,"elderly_alone_r":0.1711,"bldg_age30_r":null,"shelter_min_walk":4,"pop":13914,"hh":6943,"elderly65_r":0.2383,"single_hh_r":0.4412,"source_level":"emd","flood_years":[],"landslide_hist_n":0},"geometry":{"type":"Polygon","coordinates":[[[126.7157,37.48645],[126.71517,37.49078],[126.71098,37.49272],[126.70732,37.49033],[126.70785,37.486],[126.71204,37.48406],[126.7157,37.48645]]]}},{"type":"Feature","properties":{"h3":"8830e0aabbfffff","emd_code":"2823752000","emd_name":"부평2동","area_km2":0.5036,"edge":false,"slope_mean":4.93,"elev_mean":31.7,"flood_hist_n":0,"flood_depth_max_m":null,"flood_risk_100y":null,"semi_basement_r":null,"elderly_alone_r":0.1407,"bldg_age30_r":null,"shelter_min_walk":3,"pop":16709,"hh":8472,"elderly65_r":0.2147,"single_hh_r":0.4464,"source_level":"emd","flood_years":[],"landslide_hist_n":0},"geometry":{"type":"Polygon","coordinates":[[[126.72355,37.48691],[126.72302,37.49124],[126.71883,37.49318],[126.71517,37.49078],[126.7157,37.48645],[126.71989,37.48452],[126.72355,37.48691]]]}},{"type":"Feature","properties":{"h3":"8830e0aabdfffff","emd_code":"2823753000","emd_name":"부평3동","area_km2":0.5034,"edge":false,"slope_mean":9.56,"elev_mean":48.6,"flood_hist_n":0,"flood_depth_max_m":null,"flood_risk_100y":null,"semi_basement_r":null,"elderly_alone_r":0.1711,"bldg_age30_r":null,"shelter_min_walk":2,"pop":13914,"hh":6943,"elderly65_r":0.2383,"single_hh_r":0.4412,"source_level":"emd","flood_years":[],"landslide_hist_n":0},"geometry":{"type":"Polygon","coordinates":[[[126.71257,37.47973],[126.71204,37.48406],[126.70785,37.486],[126.70419,37.48361],[126.70473,37.47928],[126.70891,37.47734],[126.71257,37.47973]]]}},{"type":"Feature","properties":{"h3":"8830e0aac3fffff","emd_code":"2823757000","emd_name":"산곡1동","area_km2":0.5032,"edge":false,"slope_mean":18.7,"elev_mean":104.2,"flood_hist_n":0,"flood_depth_max_m":null,"flood_risk_100y":null,"semi_basement_r":null,"elderly_alone_r":0.1096,"bldg_age30_r":null,"shelter_min_walk":5,"pop":14142,"hh":6241,"elderly65_r":0.1911,"single_hh_r":0.32,"source_level":"emd","flood_years":[],"landslide_hist_n":0},"geometry":{"type":"Polygon","coordinates":[[[126.69369,37.5048],[126.69316,37.50913],[126.68897,37.51106],[126.68532,37.50867],[126.68585,37.50434],[126.69004,37.5024],[126.69369,37.5048]]]}},{"type":"Feature","properties":{"h3":"8830e0aac7fffff","emd_code":"2823757000","emd_name":"산곡1동","area_km2":0.5031,"edge":true,"slope_mean":15.39,"elev_mean":68.3,"flood_hist_n":0,"flood_depth_max_m":null,"flood_risk_100y":null,"semi_basement_r":null,"elderly_alone_r":0.1096,"bldg_age30_r":null,"shelter_min_walk":10,"pop":14142,"hh":6241,"elderly65_r":0.1911,"single_hh_r":0.32,"source_level":"emd","flood_years":[],"landslide_hist_n":0},"geometry":{"type":"Polygon","coordinates":[[[126.69057,37.49807],[126.69004,37.5024],[126.68585,37.50434],[126.68219,37.50195],[126.68272,37.49762],[126.68691,37.49568],[126.69057,37.49807]]]}},{"type":"Feature","properties":{"h3":"8830e0aacbfffff","emd_code":"2823759100","emd_name":"청천1동","area_km2":0.5032,"edge":true,"slope_mean":17.83,"elev_mean":109.1,"flood_hist_n":0,"flood_depth_max_m":null,"flood_risk_100y":null,"semi_basement_r":null,"elderly_alone_r":0.0773,"bldg_age30_r":null,"shelter_min_walk":6,"pop":22709,"hh":9690,"elderly65_r":0.1371,"single_hh_r":0.2937,"source_level":"emd","flood_years":[],"landslide_hist_n":0},"geometry":{"type":"Polygon","coordinates":[[[126.68897,37.51106],[126.68844,37.51539],[126.68425,37.51733],[126.6806,37.51493],[126.68113,37.5106],[126.68532,37.50867],[126.68897,37.51106]]]}},{"type":"Feature","properties":{"h3":"8830e0aad1fffff","emd_code":"2823759100","emd_name":"청천1동","area_km2":0.5034,"edge":false,"slope_mean":5.81,"elev_mean":35.6,"flood_hist_n":0,"flood_depth_max_m":null,"flood_risk_100y":null,"semi_basement_r":null,"elderly_alone_r":0.0773,"bldg_age30_r":null,"shelter_min_walk":2,"pop":22709,"hh":9690,"elderly65_r":0.1371,"single_hh_r":0.2937,"source_level":"emd","flood_years":[],"landslide_hist_n":0},"geometry":{"type":"Polygon","coordinates":[[[126.70467,37.51198],[126.70414,37.51631],[126.69995,37.51824],[126.69629,37.51585],[126.69682,37.51152],[126.70101,37.50958],[126.70467,37.51198]]]}},{"type":"Feature","properties":{"h3":"8830e0aad3fffff","emd_code":"2823759200","emd_name":"청천2동","area_km2":0.5035,"edge":false,"slope_mean":4.17,"elev_mean":19.3,"flood_hist_n":0,"flood_depth_max_m":null,"flood_risk_100y":null,"semi_basement_r":null,"elderly_alone_r":0.117,"bldg_age30_r":null,"shelter_min_walk":2,"pop":32595,"hh":14585,"elderly65_r":0.2047,"single_hh_r":0.3457,"source_level":"emd","flood_years":[],"landslide_hist_n":0},"geometry":{"type":"Polygon","coordinates":[[[126.71252,37.51244],[126.71199,37.51677],[126.7078,37.5187],[126.70414,37.51631],[126.70467,37.51198],[126.70886,37.51004],[126.71252,37.51244]]]}},{"type":"Feature","properties":{"h3":"8830e0aad5fffff","emd_code":"2823757000","emd_name":"산곡1동","area_km2":0.5033,"edge":false,"slope_mean":9.18,"elev_mean":48.0,"flood_hist_n":0,"flood_depth_max_m":null,"flood_risk_100y":null,"semi_basement_r":null,"elderly_alone_r":0.1096,"bldg_age30_r":null,"shelter_min_walk":3,"pop":14142,"hh":6241,"elderly65_r":0.1911,"single_hh_r":0.32,"source_level":"emd","flood_years":[],"landslide_hist_n":0},"geometry":{"type":"Polygon","coordinates":[[[126.70154,37.50525],[126.70101,37.50958],[126.69682,37.51152],[126.69316,37.50913],[126.69369,37.5048],[126.69788,37.50286],[126.70154,37.50525]]]}},{"type":"Feature","properties":{"h3":"8830e0aad7fffff","emd_code":"2823758000","emd_name":"산곡2동","area_km2":0.5034,"edge":false,"slope_mean":4.18,"elev_mean":20.6,"flood_hist_n":0,"flood_depth_max_m":null,"flood_risk_100y":null,"semi_basement_r":null,"elderly_alone_r":0.0831,"bldg_age30_r":null,"shelter_min_walk":2,"pop":28463,"hh":10599,"elderly65_r":0.1964,"single_hh_r":0.1931,"source_level":"emd","flood_years":[],"landslide_hist_n":0},"geometry":{"type":"Polygon","coordinates":[[[126.70939,37.50571],[126.70886,37.51004],[126.70467,37.51198],[126.70101,37.50958],[126.70154,37.50525],[126.70573,37.50332],[126.70939,37.50571]]]}},{"type":"Feature","properties":{"h3":"8830e0aad9fffff","emd_code":"2823759100","emd_name":"청천1동","area_km2":0.5033,"edge":false,"slope_mean":10.59,"elev_mean":55.3,"flood_hist_n":0,"flood_depth_max_m":null,"flood_risk_100y":null,"semi_basement_r":null,"elderly_alone_r":0.0773,"bldg_age30_r":null,"shelter_min_walk":3,"pop":22709,"hh":9690,"elderly65_r":0.1371,"single_hh_r":0.2937,"source_level":"emd","flood_years":[],"landslide_hist_n":0},"geometry":{"type":"Polygon","coordinates":[[[126.69995,37.51824],[126.69942,37.52257],[126.69523,37.52451],[126.69157,37.52212],[126.6921,37.51779],[126.69629,37.51585],[126.69995,37.51824]]]}},{"type":"Feature","properties":{"h3":"8830e0aadbfffff","emd_code":"2823759100","emd_name":"청천1동","area_km2":0.5034,"edge":false,"slope_mean":3.82,"elev_mean":27.2,"flood_hist_n":0,"flood_depth_max_m":null,"flood_risk_100y":null,"semi_basement_r":null,"elderly_alone_r":0.0773,"bldg_age30_r":null,"shelter_min_walk":5,"pop":22709,"hh":9690,"elderly65_r":0.1371,"single_hh_r":0.2937,"source_level":"emd","flood_years":[],"landslide_hist_n":0},"geometry":{"type":"Polygon","coordinates":[[[126.7078,37.5187],[126.70727,37.52303],[126.70307,37.52497],[126.69942,37.52257],[126.69995,37.51824],[126.70414,37.51631],[126.7078,37.5187]]]}},{"type":"Feature","properties":{"h3":"8830e0aaddfffff","emd_code":"2823759100","emd_name":"청천1동","area_km2":0.5033,"edge":false,"slope_mean":14.77,"elev_mean":75.5,"flood_hist_n":0,"flood_depth_max_m":null,"flood_risk_100y":null,"semi_basement_r":null,"elderly_alone_r":0.0773,"bldg_age30_r":null,"shelter_min_walk":10,"pop":22709,"hh":9690,"elderly65_r":0.1371,"single_hh_r":0.2937,"source_level":"emd","flood_years":[],"landslide_hist_n":0},"geometry":{"type":"Polygon","coordinates":[[[126.69682,37.51152],[126.69629,37.51585],[126.6921,37.51779],[126.68844,37.51539],[126.68897,37.51106],[126.69316,37.50913],[126.69682,37.51152]]]}},{"type":"Feature","properties":{"h3":"8830e0ad49fffff","emd_code":"2823767000","emd_name":"일신동","area_km2":0.5042,"edge":false,"slope_mean":15.27,"elev_mean":148.4,"flood_hist_n":0,"flood_depth_max_m":null,"flood_risk_100y":null,"semi_basement_r":null,"elderly_alone_r":0.131,"bldg_age30_r":null,"shelter_min_walk":18,"pop":11074,"hh":4999,"elderly65_r":0.2595,"single_hh_r":0.3509,"source_level":"emd","flood_years":[],"landslide_hist_n":0},"geometry":{"type":"Polygon","coordinates":[[[126.7691,37.46991],[126.76858,37.47424],[126.76439,37.47618],[126.76072,37.47379],[126.76125,37.46945],[126.76544,37.46751],[126.7691,37.46991]]]}},{"type":"Feature","properties":{"h3":"8830e0af0dfffff","emd_code":"2823766100","emd_name":"부개3동","area_km2":0.504,"edge":true,"slope_mean":5.27,"elev_mean":16.2,"flood_hist_n":0,"flood_depth_max_m":null,"flood_risk_100y":null,"semi_basement_r":null,"elderly_alone_r":0.1164,"bldg_age30_r":null,"shelter_min_walk":6,"pop":27057,"hh":12014,"elderly65_r":0.207,"single_hh_r":0.3417,"source_level":"emd","flood_years":[],"landslide_hist_n":0},"geometry":{"type":"Polygon","coordinates":[[[126.75023,37.49499],[126.7497,37.49933],[126.74551,37.50127],[126.74185,37.49887],[126.74238,37.49454],[126.74657,37.4926],[126.75023,37.49499]]]}},{"type":"Feature","properties":{"h3":"8830e0af21fffff","emd_code":"2823767000","emd_name":"일신동","area_km2":0.504,"edge":false,"slope_mean":7.42,"elev_mean":32.0,"flood_hist_n":0,"flood_depth_max_m":null,"flood_risk_100y":null,"semi_basement_r":null,"elderly_alone_r":0.131,"bldg_age30_r":null,"shelter_min_walk":2,"pop":11074,"hh":4999,"elderly65_r":0.2595,"single_hh_r":0.3509,"source_level":"emd","flood_years":[],"landslide_hist_n":0},"geometry":{"type":"Polygon","coordinates":[[[126.75653,37.47573],[126.756,37.48006],[126.75181,37.482],[126.74815,37.47961],[126.74868,37.47528],[126.75287,37.47334],[126.75653,37.47573]]]}},{"type":"Feature","properties":{"h3":"8830e0af23fffff","emd_code":"2823767000","emd_name":"일신동","area_km2":0.5041,"edge":true,"slope_mean":12.27,"elev_mean":76.1,"flood_hist_n":0,"flood_depth_max_m":null,"flood_risk_100y":null,"semi_basement_r":null,"elderly_alone_r":0.131,"bldg_age30_r":null,"shelter_min_walk":10,"pop":11074,"hh":4999,"elderly65_r":0.2595,"single_hh_r":0.3509,"source_level":"emd","flood_years":[],"landslide_hist_n":0},"geometry":{"type":"Polygon","coordinates":[[[126.76439,37.47618],[126.76386,37.48051],[126.75967,37.48245],[126.756,37.48006],[126.75653,37.47573],[126.76072,37.47379],[126.76439,37.47618]]]}},{"type":"Feature","properties":{"h3":"8830e0af25fffff","emd_code":"2823767000","emd_name":"일신동","area_km2":0.5039,"edge":false,"slope_mean":6.11,"elev_mean":40.3,"flood_hist_n":0,"flood_depth_max_m":null,"flood_risk_100y":null,"semi_basement_r":null,"elderly_alone_r":0.131,"bldg_age30_r":null,"shelter_min_walk":10,"pop":11074,"hh":4999,"elderly65_r":0.2595,"single_hh_r":0.3509,"source_level":"emd","flood_years":[],"landslide_hist_n":0},"geometry":{"type":"Polygon","coordinates":[[[126.7534,37.469],[126.75287,37.47334],[126.74868,37.47528],[126.74502,37.47288],[126.74555,37.46855],[126.74974,37.46661],[126.7534,37.469]]]}},{"type":"Feature","properties":{"h3":"8830e0af27fffff","emd_code":"2823767000","emd_name":"일신동","area_km2":0.504,"edge":false,"slope_mean":13.7,"elev_mean":80.1,"flood_hist_n":0,"flood_depth_max_m":null,"flood_risk_100y":null,"semi_basement_r":null,"elderly_alone_r":0.131,"bldg_age30_r":null,"shelter_min_walk":10,"pop":11074,"hh":4999,"elderly65_r":0.2595,"single_hh_r":0.3509,"source_level":"emd","flood_years":[],"landslide_hist_n":0},"geometry":{"type":"Polygon","coordinates":[[[126.76125,37.46945],[126.76072,37.47379],[126.75653,37.47573],[126.75287,37.47334],[126.7534,37.469],[126.75759,37.46706],[126.76125,37.46945]]]}},{"type":"Feature","properties":{"h3":"8830e0af29fffff","emd_code":"2823767000","emd_name":"일신동","area_km2":0.5039,"edge":false,"slope_mean":4.1,"elev_mean":19.2,"flood_hist_n":0,"flood_depth_max_m":null,"flood_risk_100y":null,"semi_basement_r":null,"elderly_alone_r":0.131,"bldg_age30_r":null,"shelter_min_walk":6,"pop":11074,"hh":4999,"elderly65_r":0.2595,"single_hh_r":0.3509,"source_level":"emd","flood_years":[],"landslide_hist_n":0},"geometry":{"type":"Polygon","coordinates":[[[126.75181,37.482],[126.75129,37.48633],[126.7471,37.48827],[126.74343,37.48588],[126.74396,37.48155],[126.74815,37.47961],[126.75181,37.482]]]}},{"type":"Feature","properties":{"h3":"8830e0af2bfffff","emd_code":"2823767000","emd_name":"일신동","area_km2":0.5041,"edge":true,"slope_mean":5.38,"elev_mean":26.3,"flood_hist_n":0,"flood_depth_max_m":null,"flood_risk_100y":null,"semi_basement_r":null,"elderly_alone_r":0.131,"bldg_age30_r":null,"shelter_min_walk":14,"pop":11074,"hh":4999,"elderly65_r":0.2595,"single_hh_r":0.3509,"source_level":"emd","flood_years":[],"landslide_hist_n":0},"geometry":{"type":"Polygon","coordinates":[[[126.75967,37.48245],[126.75914,37.48678],[126.75495,37.48872],[126.75129,37.48633],[126.75181,37.482],[126.756,37.48006],[126.75967,37.48245]]]}},{"type":"Feature","properties":{"h3":"8830e0af2dfffff","emd_code":"2823767000","emd_name":"일신동","area_km2":0.5039,"edge":false,"slope_mean":3.45,"elev_mean":31.4,"flood_hist_n":0,"flood_depth_max_m":null,"flood_risk_100y":null,"semi_basement_r":null,"elderly_alone_r":0.131,"bldg_age30_r":null,"shelter_min_walk":8,"pop":11074,"hh":4999,"elderly65_r":0.2595,"single_hh_r":0.3509,"source_level":"emd","flood_years":[],"landslide_hist_n":0},"geometry":{"type":"Polygon","coordinates":[[[126.74868,37.47528],[126.74815,37.47961],[126.74396,37.48155],[126.7403,37.47915],[126.74083,37.47482],[126.74502,37.47288],[126.74868,37.47528]]]}},{"type":"Feature","properties":{"h3":"8830e0af41fffff","emd_code":"2823764800","emd_name":"삼산2동","area_km2":0.5039,"edge":false,"slope_mean":4.87,"elev_mean":12.1,"flood_hist_n":0,"flood_depth_max_m":null,"flood_risk_100y":null,"semi_basement_r":null,"elderly_alone_r":0.0988,"bldg_age30_r":null,"shelter_min_walk":3,"pop":26739,"hh":10244,"elderly65_r":0.1683,"single_hh_r":0.2272,"source_level":"emd","flood_years":[],"landslide_hist_n":0},"geometry":{"type":"Polygon","coordinates":[[[126.74079,37.50754],[126.74026,37.51187],[126.73607,37.51381],[126.73241,37.51141],[126.73294,37.50708],[126.73713,37.50514],[126.74079,37.50754]]]}},{"type":"Feature","properties":{"h3":"8830e0af43fffff","emd_code":"2823764800","emd_name":"삼산2동","area_km2":0.504,"edge":true,"slope_mean":3.92,"elev_mean":11.8,"flood_hist_n":0,"flood_depth_max_m":null,"flood_risk_100y":null,"semi_basement_r":null,"elderly_alone_r":0.0988,"bldg_age30_r":null,"shelter_min_walk":8,"pop":26739,"hh":10244,"elderly65_r":0.1683,"single_hh_r":0.2272,"source_level":"emd","flood_years":[],"landslide_hist_n":0},"geometry":{"type":"Polygon","coordinates":[[[126.74865,37.50799],[126.74812,37.51232],[126.74393,37.51426],[126.74026,37.51187],[126.74079,37.50754],[126.74498,37.5056],[126.74865,37.50799]]]}},{"type":"Feature","properties":{"h3":"8830e0af45fffff","emd_code":"2823755000","emd_name":"부평5동","area_km2":0.5038,"edge":false,"slope_mean":3.22,"elev_mean":12.4,"flood_hist_n":0,"flood_depth_max_m":null,"flood_risk_100y":null,"semi_basement_r":null,"elderly_alone_r":0.1058,"bldg_age30_r":null,"shelter_min_walk":4,"pop":32926,"hh":16558,"elderly65_r":0.1676,"single_hh_r":0.4565,"source_level":"emd","flood_years":[],"landslide_hist_n":0},"geometry":{"type":"Polygon","coordinates":[[[126.73766,37.50081],[126.73713,37.50514],[126.73294,37.50708],[126.72928,37.50469],[126.72981,37.50036],[126.734,37.49842],[126.73766,37.50081]]]}},{"type":"Feature","properties":{"h3":"8830e0af47fffff","emd_code":"2823766100","emd_name":"부개3동","area_km2":0.5039,"edge":false,"slope_mean":4.39,"elev_mean":13.1,"flood_hist_n":0,"flood_depth_max_m":null,"flood_risk_100y":null,"semi_basement_r":null,"elderly_alone_r":0.1164,"bldg_age30_r":null,"shelter_min_walk":1,"pop":27057,"hh":12014,"elderly65_r":0.207,"single_hh_r":0.3417,"source_level":"emd","flood_years":[],"landslide_hist_n":0},"geometry":{"type":"Polygon","coordinates":[[[126.74551,37.50127],[126.74498,37.5056],[126.74079,37.50754],[126.73713,37.50514],[126.73766,37.50081],[126.74185,37.49887],[126.74551,37.50127]]]}},{"type":"Feature","properties":{"h3":"8830e0af49fffff","emd_code":"2823764100","emd_name":"갈산1동","area_km2":0.5038,"edge":false,"slope_mean":3.72,"elev_mean":14.3,"flood_hist_n":0,"flood_depth_max_m":null,"flood_risk_100y":null,"semi_basement_r":null,"elderly_alone_r":0.1269,"bldg_age30_r":null,"shelter_min_walk":8,"pop":13871,"hh":6666,"elderly65_r":0.2363,"single_hh_r":0.3932,"source_level":"emd","flood_years":[],"landslide_hist_n":0},"geometry":{"type":"Polygon","coordinates":[[[126.73607,37.51381],[126.73554,37.51814],[126.73135,37.52007],[126.72769,37.51768],[126.72822,37.51335],[126.73241,37.51141],[126.73607,37.51381]]]}},{"type":"Feature","properties":{"h3":"8830e0af4bfffff","emd_code":"2823764800","emd_name":"삼산2동","area_km2":0.5039,"edge":false,"slope_mean":3.94,"elev_mean":12.2,"flood_hist_n":0,"flood_depth_max_m":null,"flood_risk_100y":null,"semi_basement_r":null,"elderly_alone_r":0.0988,"bldg_age30_r":null,"shelter_min_walk":6,"pop":26739,"hh":10244,"elderly65_r":0.1683,"single_hh_r":0.2272,"source_level":"emd","flood_years":[],"landslide_hist_n":0},"geometry":{"type":"Polygon","coordinates":[[[126.74393,37.51426],[126.7434,37.51859],[126.7392,37.52053],[126.73554,37.51814],[126.73607,37.51381],[126.74026,37.51187],[126.74393,37.51426]]]}},{"type":"Feature","properties":{"h3":"8830e0af4dfffff","emd_code":"2823764200","emd_name":"갈산2동","area_km2":0.5038,"edge":false,"slope_mean":3.33,"elev_mean":12.2,"flood_hist_n":0,"flood_depth_max_m":null,"flood_risk_100y":null,"semi_basement_r":null,"elderly_alone_r":0.1855,"bldg_age30_r":null,"shelter_min_walk":2,"pop":16969,"hh":8077,"elderly65_r":0.2782,"single_hh_r":0.4183,"source_level":"emd","flood_years":[],"landslide_hist_n":0},"geometry":{"type":"Polygon","coordinates":[[[126.73294,37.50708],[126.73241,37.51141],[126.72822,37.51335],[126.72456,37.51096],[126.72509,37.50662],[126.72928,37.50469],[126.73294,37.50708]]]}},{"type":"Feature","properties":{"h3":"8830e0af51fffff","emd_code":"2823764600","emd_name":"삼산1동","area_km2":0.5041,"edge":false,"slope_mean":2.9,"elev_mean":8.9,"flood_hist_n":0,"flood_depth_max_m":null,"flood_risk_100y":null,"semi_basement_r":null,"elderly_alone_r":0.1668,"bldg_age30_r":null,"shelter_min_walk":15,"pop":30892,"hh":13947,"elderly65_r":0.2152,"single_hh_r":0.3571,"source_level":"emd","flood_years":[],"landslide_hist_n":0},"geometry":{"type":"Polygon","coordinates":[[[126.75964,37.51517],[126.75911,37.5195],[126.75492,37.52144],[126.75125,37.51905],[126.75178,37.51472],[126.75597,37.51278],[126.75964,37.51517]]]}},{"type":"Feature","properties":{"h3":"8830e0af53fffff","emd_code":"2823764600","emd_name":"삼산1동","area_km2":0.5043,"edge":true,"slope_mean":4.23,"elev_mean":12.4,"flood_hist_n":0,"flood_depth_max_m":null,"flood_risk_100y":null,"semi_basement_r":null,"elderly_alone_r":0.1668,"bldg_age30_r":null,"shelter_min_walk":25,"pop":30892,"hh":13947,"elderly65_r":0.2152,"single_hh_r":0.3571,"source_level":"emd","flood_years":[],"landslide_hist_n":0},"geometry":{"type":"Polygon","coordinates":[[[126.76749,37.51562],[126.76697,37.51996],[126.76277,37.5219],[126.75911,37.5195],[126.75964,37.51517],[126.76383,37.51323],[126.76749,37.51562]]]}},{"type":"Feature","properties":{"h3":"8830e0af59fffff","emd_code":"2823764600","emd_name":"삼산1동","area_km2":0.5041,"edge":false,"slope_mean":3.22,"elev_mean":9.7,"flood_hist_n":0,"flood_depth_max_m":null,"flood_risk_100y":null,"semi_basement_r":null,"elderly_alone_r":0.1668,"bldg_age30_r":null,"shelter_min_walk":8,"pop":30892,"hh":13947,"elderly65_r":0.2152,"single_hh_r":0.3571,"source_level":"emd","flood_years":[],"landslide_hist_n":0},"geometry":{"type":"Polygon","coordinates":[[[126.75492,37.52144],[126.75439,37.52577],[126.75019,37.52771],[126.74653,37.52532],[126.74706,37.52099],[126.75125,37.51905],[126.75492,37.52144]]]}},{"type":"Feature","properties":{"h3":"8830e0af5bfffff","emd_code":"2823764600","emd_name":"삼산1동","area_km2":0.5042,"edge":false,"slope_mean":2.88,"elev_mean":8.3,"flood_hist_n":0,"flood_depth_max_m":null,"flood_risk_100y":null,"semi_basement_r":null,"elderly_alone_r":0.1668,"bldg_age30_r":null,"shelter_min_walk":18,"pop":30892,"hh":13947,"elderly65_r":0.2152,"single_hh_r":0.3571,"source_level":"emd","flood_years":[],"landslide_hist_n":0},"geometry":{"type":"Polygon","coordinates":[[[126.76277,37.5219],[126.76225,37.52623],[126.75805,37.52817],[126.75439,37.52577],[126.75492,37.52144],[126.75911,37.5195],[126.76277,37.5219]]]}},{"type":"Feature","properties":{"h3":"8830e0af5dfffff","emd_code":"2823764800","emd_name":"삼산2동","area_km2":0.504,"edge":false,"slope_mean":4.55,"elev_mean":12.2,"flood_hist_n":0,"flood_depth_max_m":null,"flood_risk_100y":null,"semi_basement_r":null,"elderly_alone_r":0.0988,"bldg_age30_r":null,"shelter_min_walk":5,"pop":26739,"hh":10244,"elderly65_r":0.1683,"single_hh_r":0.2272,"source_level":"emd","flood_years":[],"landslide_hist_n":0},"geometry":{"type":"Polygon","coordinates":[[[126.75178,37.51472],[126.75125,37.51905],[126.74706,37.52099],[126.7434,37.51859],[126.74393,37.51426],[126.74812,37.51232],[126.75178,37.51472]]]}},{"type":"Feature","properties":{"h3":"8830e0af61fffff","emd_code":"2823766000","emd_name":"부개2동","area_km2":0.5038,"edge":false,"slope_mean":3.65,"elev_mean":21.5,"flood_hist_n":0,"flood_depth_max_m":null,"flood_risk_100y":null,"semi_basement_r":null,"elderly_alone_r":0.1185,"bldg_age30_r":null,"shelter_min_walk":3,"pop":18743,"hh":8340,"elderly65_r":0.2159,"single_hh_r":0.3426,"source_level":"emd","flood_years":[],"landslide_hist_n":0},"geometry":{"type":"Polygon","coordinates":[[[126.73925,37.48782],[126.73872,37.49215],[126.73453,37.49409],[126.73087,37.49169],[126.73139,37.48736],[126.73558,37.48542],[126.73925,37.48782]]]}},{"type":"Feature","properties":{"h3":"8830e0af63fffff","emd_code":"2823766000","emd_name":"부개2동","area_km2":0.5039,"edge":true,"slope_mean":3.94,"elev_mean":19.1,"flood_hist_n":0,"flood_depth_max_m":null,"flood_risk_100y":null,"semi_basement_r":null,"elderly_alone_r":0.1185,"bldg_age30_r":null,"shelter_min_walk":5,"pop":18743,"hh":8340,"elderly65_r":0.2159,"single_hh_r":0.3426,"source_level":"emd","flood_years":[],"landslide_hist_n":0},"geometry":{"type":"Polygon","coordinates":[[[126.7471,37.48827],[126.74657,37.4926],[126.74238,37.49454],[126.73872,37.49215],[126.73925,37.48782],[126.74343,37.48588],[126.7471,37.48827]]]}},{"type":"Feature","properties":{"h3":"8830e0af65fffff","emd_code":"2823765000","emd_name":"부개1동","area_km2":0.5037,"edge":false,"slope_mean":10.21,"elev_mean":59.6,"flood_hist_n":0,"flood_depth_max_m":null,"flood_risk_100y":null,"semi_basement_r":null,"elderly_alone_r":0.1949,"bldg_age30_r":null,"shelter_min_walk":2,"pop":14636,"hh":7652,"elderly65_r":0.3079,"single_hh_r":0.4707,"source_level":"emd","flood_years":[],"landslide_hist_n":0},"geometry":{"type":"Polygon","coordinates":[[[126.73611,37.48109],[126.73558,37.48542],[126.73139,37.48736],[126.72774,37.48497],[126.72826,37.48064],[126.73245,37.4787],[126.73611,37.48109]]]}},{"type":"Feature","properties":{"h3":"8830e0af67fffff","emd_code":"2823765000","emd_name":"부개1동","area_km2":0.5038,"edge":false,"slope_mean":3.61,"elev_mean":28.3,"flood_hist_n":0,"flood_depth_max_m":null,"flood_risk_100y":null,"semi_basement_r":null,"elderly_alone_r":0.1949,"bldg_age30_r":null,"shelter_min_walk":4,"pop":14636,"hh":7652,"elderly65_r":0.3079,"single_hh_r":0.4707,"source_level":"emd","flood_years":[],"landslide_hist_n":0},"geometry":{"type":"Polygon","coordinates":[[[126.74396,37.48155],[126.74343,37.48588],[126.73925,37.48782],[126.73558,37.48542],[126.73611,37.48109],[126.7403,37.47915],[126.74396,37.48155]]]}},{"type":"Feature","properties":{"h3":"8830e0af69fffff","emd_code":"2823755000","emd_name":"부평5동","area_km2":0.5037,"edge":false,"slope_mean":4.13,"elev_mean":16.1,"flood_hist_n":0,"flood_depth_max_m":null,"flood_risk_100y":null,"semi_basement_r":null,"elderly_alone_r":0.1058,"bldg_age30_r":null,"shelter_min_walk":1,"pop":32926,"hh":16558,"elderly65_r":0.1676,"single_hh_r":0.4565,"source_level":"emd","flood_years":[],"landslide_hist_n":0},"geometry":{"type":"Polygon","coordinates":[[[126.73453,37.49409],[126.734,37.49842],[126.72981,37.50036],[126.72615,37.49796],[126.72668,37.49363],[126.73087,37.49169],[126.73453,37.49409]]]}},{"type":"Feature","properties":{"h3":"8830e0af6bfffff","emd_code":"2823766000","emd_name":"부개2동","area_km2":0.5039,"edge":false,"slope_mean":3.43,"elev_mean":14.6,"flood_hist_n":0,"flood_depth_max_m":null,"flood_risk_100y":null,"semi_basement_r":null,"elderly_alone_r":0.1185,"bldg_age30_r":null,"shelter_min_walk":2,"pop":18743,"hh":8340,"elderly65_r":0.2159,"single_hh_r":0.3426,"source_level":"emd","flood_years":[],"landslide_hist_n":0},"geometry":{"type":"Polygon","coordinates":[[[126.74238,37.49454],[126.74185,37.49887],[126.73766,37.50081],[126.734,37.49842],[126.73453,37.49409],[126.73872,37.49215],[126.74238,37.49454]]]}},{"type":"Feature","properties":{"h3":"8830e0af6dfffff","emd_code":"2823751000","emd_name":"부평1동","area_km2":0.5037,"edge":false,"slope_mean":4.88,"elev_mean":26.4,"flood_hist_n":0,"flood_depth_max_m":null,"flood_risk_100y":null,"semi_basement_r":null,"elderly_alone_r":0.0988,"bldg_age30_r":null,"shelter_min_walk":1,"pop":34435,"hh":17395,"elderly65_r":0.2091,"single_hh_r":0.4604,"source_level":"emd","flood_years":[],"landslide_hist_n":0},"geometry":{"type":"Polygon","coordinates":[[[126.73139,37.48736],[126.73087,37.49169],[126.72668,37.49363],[126.72302,37.49124],[126.72355,37.48691],[126.72774,37.48497],[126.73139,37.48736]]]}}]}