{"type":"FeatureCollection","name":"grid_28245_h3r8","meta":{"sgg_code":"28245","h3_res":8,"n_cells":121,"dem":"Copernicus GLO-30 (bbox-mean)","crs":"EPSG:4326","jumin_basis":"2026-07","flood_src":"행안부 침수흔적도(전국, 재난안전데이터공유플랫폼)","landslide_src":"행안부 산사태 발생이력"},"features":[{"type":"Feature","properties":{"h3":"8830e0a001fffff","emd_code":"2824571000","emd_name":"계양1동","area_km2":0.5034,"edge":true,"slope_mean":10.49,"elev_mean":44.4,"flood_hist_n":0,"flood_depth_max_m":null,"flood_risk_100y":null,"semi_basement_r":null,"elderly_alone_r":0.133,"bldg_age30_r":null,"shelter_min_walk":14,"pop":18443,"hh":8193,"elderly65_r":0.2391,"single_hh_r":0.342,"source_level":"emd","flood_years":[],"landslide_hist_n":0},"geometry":{"type":"Polygon","coordinates":[[[126.69197,37.58319],[126.69144,37.58752],[126.68725,37.58946],[126.68358,37.58706],[126.68412,37.58273],[126.68831,37.5808],[126.69197,37.58319]]]}},{"type":"Feature","properties":{"h3":"8830e0a003fffff","emd_code":"2824571000","emd_name":"계양1동","area_km2":0.5035,"edge":true,"slope_mean":9.78,"elev_mean":46.6,"flood_hist_n":0,"flood_depth_max_m":null,"flood_risk_100y":null,"semi_basement_r":null,"elderly_alone_r":0.133,"bldg_age30_r":null,"shelter_min_walk":10,"pop":18443,"hh":8193,"elderly65_r":0.2391,"single_hh_r":0.342,"source_level":"emd","flood_years":[],"landslide_hist_n":0},"geometry":{"type":"Polygon","coordinates":[[[126.69983,37.58366],[126.69929,37.58799],[126.6951,37.58992],[126.69144,37.58752],[126.69197,37.58319],[126.69616,37.58126],[126.69983,37.58366]]]}},{"type":"Feature","properties":{"h3":"8830e0a005fffff","emd_code":"2824571000","emd_name":"계양1동","area_km2":0.5033,"edge":false,"slope_mean":12.02,"elev_mean":51.3,"flood_hist_n":0,"flood_depth_max_m":null,"flood_risk_100y":null,"semi_basement_r":null,"elderly_alone_r":0.133,"bldg_age30_r":null,"shelter_min_walk":16,"pop":18443,"hh":8193,"elderly65_r":0.2391,"single_hh_r":0.342,"source_level":"emd","flood_years":[],"landslide_hist_n":0},"geometry":{"type":"Polygon","coordinates":[[[126.68884,37.57647],[126.68831,37.5808],[126.68412,37.58273],[126.68046,37.58033],[126.68099,37.576],[126.68518,37.57407],[126.68884,37.57647]]]}},{"type":"Feature","properties":{"h3":"8830e0a007fffff","emd_code":"2824571000","emd_name":"계양1동","area_km2":0.5034,"edge":false,"slope_mean":13.37,"elev_mean":61.9,"flood_hist_n":0,"flood_depth_max_m":null,"flood_risk_100y":null,"semi_basement_r":null,"elderly_alone_r":0.133,"bldg_age30_r":null,"shelter_min_walk":21,"pop":18443,"hh":8193,"elderly65_r":0.2391,"single_hh_r":0.342,"source_level":"emd","flood_years":[],"landslide_hist_n":0},"geometry":{"type":"Polygon","coordinates":[[[126.6967,37.57693],[126.69616,37.58126],[126.69197,37.58319],[126.68831,37.5808],[126.68884,37.57647],[126.69304,37.57453],[126.6967,37.57693]]]}},{"type":"Feature","properties":{"h3":"8830e0a00dfffff","emd_code":"2824571000","emd_name":"계양1동","area_km2":0.5033,"edge":true,"slope_mean":7.76,"elev_mean":29.7,"flood_hist_n":0,"flood_depth_max_m":null,"flood_risk_100y":null,"semi_basement_r":null,"elderly_alone_r":0.133,"bldg_age30_r":null,"shelter_min_walk":5,"pop":18443,"hh":8193,"elderly65_r":0.2391,"single_hh_r":0.342,"source_level":"emd","flood_years":[],"landslide_hist_n":0},"geometry":{"type":"Polygon","coordinates":[[[126.68412,37.58273],[126.68358,37.58706],[126.67939,37.58899],[126.67573,37.5866],[126.67626,37.58227],[126.68046,37.58033],[126.68412,37.58273]]]}},{"type":"Feature","properties":{"h3":"8830e0a02bfffff","emd_code":"2824571000","emd_name":"계양1동","area_km2":0.5034,"edge":true,"slope_mean":10.62,"elev_mean":35.8,"flood_hist_n":0,"flood_depth_max_m":null,"flood_risk_100y":null,"semi_basement_r":null,"elderly_alone_r":0.133,"bldg_age30_r":null,"shelter_min_walk":10,"pop":18443,"hh":8193,"elderly65_r":0.2391,"single_hh_r":0.342,"source_level":"emd","flood_years":[],"landslide_hist_n":0},"geometry":{"type":"Polygon","coordinates":[[[126.69357,37.5702],[126.69304,37.57453],[126.68884,37.57647],[126.68518,37.57407],[126.68571,37.56974],[126.68991,37.56781],[126.69357,37.5702]]]}},{"type":"Feature","properties":{"h3":"8830e0a031fffff","emd_code":"2824571000","emd_name":"계양1동","area_km2":0.5036,"edge":false,"slope_mean":13.25,"elev_mean":44.2,"flood_hist_n":0,"flood_depth_max_m":null,"flood_risk_100y":null,"semi_basement_r":null,"elderly_alone_r":0.133,"bldg_age30_r":null,"shelter_min_walk":25,"pop":18443,"hh":8193,"elderly65_r":0.2391,"single_hh_r":0.342,"source_level":"emd","flood_years":[],"landslide_hist_n":0},"geometry":{"type":"Polygon","coordinates":[[[126.70928,37.57113],[126.70875,37.57546],[126.70455,37.57739],[126.70089,37.575],[126.70142,37.57067],[126.70561,37.56873],[126.70928,37.57113]]]}},{"type":"Feature","properties":{"h3":"8830e0a033fffff","emd_code":"2824571000","emd_name":"계양1동","area_km2":0.5037,"edge":false,"slope_mean":6.58,"elev_mean":24.7,"flood_hist_n":0,"flood_depth_max_m":null,"flood_risk_100y":null,"semi_basement_r":null,"elderly_alone_r":0.133,"bldg_age30_r":null,"shelter_min_walk":26,"pop":18443,"hh":8193,"elderly65_r":0.2391,"single_hh_r":0.342,"source_level":"emd","flood_years":[],"landslide_hist_n":0},"geometry":{"type":"Polygon","coordinates":[[[126.71713,37.57159],[126.7166,37.57592],[126.71241,37.57786],[126.70875,37.57546],[126.70928,37.57113],[126.71347,37.56919],[126.71713,37.57159]]]}},{"type":"Feature","properties":{"h3":"8830e0a035fffff","emd_code":"2824571000","emd_name":"계양1동","area_km2":0.5035,"edge":false,"slope_mean":12.68,"elev_mean":68.0,"flood_hist_n":0,"flood_depth_max_m":null,"flood_risk_100y":null,"semi_basement_r":null,"elderly_alone_r":0.133,"bldg_age30_r":null,"shelter_min_walk":21,"pop":18443,"hh":8193,"elderly65_r":0.2391,"single_hh_r":0.342,"source_level":"emd","flood_years":[],"landslide_hist_n":0},"geometry":{"type":"Polygon","coordinates":[[[126.70615,37.5644],[126.70561,37.56873],[126.70142,37.57067],[126.69776,37.56827],[126.69829,37.56394],[126.70248,37.56201],[126.70615,37.5644]]]}},{"type":"Feature","properties":{"h3":"8830e0a037fffff","emd_code":"2824571000","emd_name":"계양1동","area_km2":0.5036,"edge":false,"slope_mean":11.83,"elev_mean":69.7,"flood_hist_n":0,"flood_depth_max_m":null,"flood_risk_100y":null,"semi_basement_r":null,"elderly_alone_r":0.133,"bldg_age30_r":null,"shelter_min_walk":31,"pop":18443,"hh":8193,"elderly65_r":0.2391,"single_hh_r":0.342,"source_level":"emd","flood_years":[],"landslide_hist_n":0},"geometry":{"type":"Polygon","coordinates":[[[126.714,37.56486],[126.71347,37.56919],[126.70928,37.57113],[126.70561,37.56873],[126.70615,37.5644],[126.71034,37.56247],[126.714,37.56486]]]}},{"type":"Feature","properties":{"h3":"8830e0a039fffff","emd_code":"2824571000","emd_name":"계양1동","area_km2":0.5036,"edge":false,"slope_mean":9.99,"elev_mean":38.3,"flood_hist_n":0,"flood_depth_max_m":null,"flood_risk_100y":null,"semi_basement_r":null,"elderly_alone_r":0.133,"bldg_age30_r":null,"shelter_min_walk":16,"pop":18443,"hh":8193,"elderly65_r":0.2391,"single_hh_r":0.342,"source_level":"emd","flood_years":[],"landslide_hist_n":0},"geometry":{"type":"Polygon","coordinates":[[[126.70455,37.57739],[126.70402,37.58172],[126.69983,37.58366],[126.69616,37.58126],[126.6967,37.57693],[126.70089,37.575],[126.70455,37.57739]]]}},{"type":"Feature","properties":{"h3":"8830e0a03bfffff","emd_code":"2824571000","emd_name":"계양1동","area_km2":0.5037,"edge":true,"slope_mean":7.23,"elev_mean":30.1,"flood_hist_n":0,"flood_depth_max_m":null,"flood_risk_100y":null,"semi_basement_r":null,"elderly_alone_r":0.133,"bldg_age30_r":null,"shelter_min_walk":14,"pop":18443,"hh":8193,"elderly65_r":0.2391,"single_hh_r":0.342,"source_level":"emd","flood_years":[],"landslide_hist_n":0},"geometry":{"type":"Polygon","coordinates":[[[126.71241,37.57786],[126.71188,37.58219],[126.70768,37.58412],[126.70402,37.58172],[126.70455,37.57739],[126.70875,37.57546],[126.71241,37.57786]]]}},{"type":"Feature","properties":{"h3":"8830e0a03dfffff","emd_code":"2824571000","emd_name":"계양1동","area_km2":0.5035,"edge":true,"slope_mean":13.69,"elev_mean":48.1,"flood_hist_n":0,"flood_depth_max_m":null,"flood_risk_100y":null,"semi_basement_r":null,"elderly_alone_r":0.133,"bldg_age30_r":null,"shelter_min_walk":17,"pop":18443,"hh":8193,"elderly65_r":0.2391,"single_hh_r":0.342,"source_level":"emd","flood_years":[],"landslide_hist_n":0},"geometry":{"type":"Polygon","coordinates":[[[126.70142,37.57067],[126.70089,37.575],[126.6967,37.57693],[126.69304,37.57453],[126.69357,37.5702],[126.69776,37.56827],[126.70142,37.57067]]]}},{"type":"Feature","properties":{"h3":"8830e0a081fffff","emd_code":"2824571000","emd_name":"계양1동","area_km2":0.5042,"edge":false,"slope_mean":1.62,"elev_mean":8.7,"flood_hist_n":1,"flood_depth_max_m":1.22,"flood_risk_100y":null,"semi_basement_r":null,"elderly_alone_r":0.133,"bldg_age30_r":null,"shelter_min_walk":20,"pop":18443,"hh":8193,"elderly65_r":0.2391,"single_hh_r":0.342,"source_level":"emd","flood_years":[2006],"landslide_hist_n":0},"geometry":{"type":"Polygon","coordinates":[[[126.74699,37.58643],[126.74646,37.59076],[126.74226,37.5927],[126.73859,37.5903],[126.73912,37.58597],[126.74332,37.58403],[126.74699,37.58643]]]}},{"type":"Feature","properties":{"h3":"8830e0a085fffff","emd_code":"2824571000","emd_name":"계양1동","area_km2":0.5041,"edge":false,"slope_mean":2.48,"elev_mean":12.1,"flood_hist_n":1,"flood_depth_max_m":0.74,"flood_risk_100y":null,"semi_basement_r":null,"elderly_alone_r":0.133,"bldg_age30_r":null,"shelter_min_walk":10,"pop":18443,"hh":8193,"elderly65_r":0.2391,"single_hh_r":0.342,"source_level":"emd","flood_years":[2006],"landslide_hist_n":0},"geometry":{"type":"Polygon","coordinates":[[[126.74385,37.5797],[126.74332,37.58403],[126.73912,37.58597],[126.73546,37.58357],[126.73599,37.57924],[126.74018,37.5773],[126.74385,37.5797]]]}},{"type":"Feature","properties":{"h3":"8830e0a087fffff","emd_code":"2824571000","emd_name":"계양1동","area_km2":0.5042,"edge":false,"slope_mean":3.19,"elev_mean":12.7,"flood_hist_n":1,"flood_depth_max_m":0.8,"flood_risk_100y":null,"semi_basement_r":null,"elderly_alone_r":0.133,"bldg_age30_r":null,"shelter_min_walk":20,"pop":18443,"hh":8193,"elderly65_r":0.2391,"single_hh_r":0.342,"source_level":"emd","flood_years":[2006],"landslide_hist_n":0},"geometry":{"type":"Polygon","coordinates":[[[126.75171,37.58016],[126.75118,37.58449],[126.74699,37.58643],[126.74332,37.58403],[126.74385,37.5797],[126.74804,37.57776],[126.75171,37.58016]]]}},{"type":"Feature","properties":{"h3":"8830e0a089fffff","emd_code":"2824571000","emd_name":"계양1동","area_km2":0.5041,"edge":true,"slope_mean":1.46,"elev_mean":7.8,"flood_hist_n":1,"flood_depth_max_m":1.25,"flood_risk_100y":null,"semi_basement_r":null,"elderly_alone_r":0.133,"bldg_age30_r":null,"shelter_min_walk":26,"pop":18443,"hh":8193,"elderly65_r":0.2391,"single_hh_r":0.342,"source_level":"emd","flood_years":[2006],"landslide_hist_n":0},"geometry":{"type":"Polygon","coordinates":[[[126.74226,37.5927],[126.74173,37.59703],[126.73753,37.59897],[126.73387,37.59657],[126.7344,37.59224],[126.73859,37.5903],[126.74226,37.5927]]]}},{"type":"Feature","properties":{"h3":"8830e0a08bfffff","emd_code":"2824571000","emd_name":"계양1동","area_km2":0.5042,"edge":true,"slope_mean":2.6,"elev_mean":10.0,"flood_hist_n":1,"flood_depth_max_m":1.22,"flood_risk_100y":null,"semi_basement_r":null,"elderly_alone_r":0.133,"bldg_age30_r":null,"shelter_min_walk":31,"pop":18443,"hh":8193,"elderly65_r":0.2391,"single_hh_r":0.342,"source_level":"emd","flood_years":[2006],"landslide_hist_n":0},"geometry":{"type":"Polygon","coordinates":[[[126.75012,37.59316],[126.7496,37.59749],[126.7454,37.59943],[126.74173,37.59703],[126.74226,37.5927],[126.74646,37.59076],[126.75012,37.59316]]]}},{"type":"Feature","properties":{"h3":"8830e0a08dfffff","emd_code":"2824571000","emd_name":"계양1동","area_km2":0.5041,"edge":false,"slope_mean":2.12,"elev_mean":9.8,"flood_hist_n":1,"flood_depth_max_m":1.22,"flood_risk_100y":null,"semi_basement_r":null,"elderly_alone_r":0.133,"bldg_age30_r":null,"shelter_min_walk":14,"pop":18443,"hh":8193,"elderly65_r":0.2391,"single_hh_r":0.342,"source_level":"emd","flood_years":[2006],"landslide_hist_n":0},"geometry":{"type":"Polygon","coordinates":[[[126.73912,37.58597],[126.73859,37.5903],[126.7344,37.59224],[126.73073,37.58984],[126.73126,37.58551],[126.73546,37.58357],[126.73912,37.58597]]]}},{"type":"Feature","properties":{"h3":"8830e0a097fffff","emd_code":"2824573000","emd_name":"계양3동","area_km2":0.5045,"edge":true,"slope_mean":2.59,"elev_mean":8.4,"flood_hist_n":1,"flood_depth_max_m":1.2,"flood_risk_100y":null,"semi_basement_r":null,"elderly_alone_r":0.1055,"bldg_age30_r":null,"shelter_min_walk":40,"pop":22782,"hh":9700,"elderly65_r":0.1838,"single_hh_r":0.3147,"source_level":"emd","flood_years":[2006],"landslide_hist_n":0},"geometry":{"type":"Polygon","coordinates":[[[126.77058,37.58781],[126.77005,37.59214],[126.76586,37.59408],[126.76219,37.59168],[126.76272,37.58735],[126.76691,37.58541],[126.77058,37.58781]]]}},{"type":"Feature","properties":{"h3":"8830e0a0a1fffff","emd_code":"2824573000","emd_name":"계양3동","area_km2":0.5041,"edge":false,"slope_mean":6.31,"elev_mean":17.7,"flood_hist_n":0,"flood_depth_max_m":null,"flood_risk_100y":null,"semi_basement_r":null,"elderly_alone_r":0.1055,"bldg_age30_r":null,"shelter_min_walk":10,"pop":22782,"hh":9700,"elderly65_r":0.1838,"single_hh_r":0.3147,"source_level":"emd","flood_years":[],"landslide_hist_n":0},"geometry":{"type":"Polygon","coordinates":[[[126.74544,37.5667],[126.74491,37.57104],[126.74071,37.57297],[126.73705,37.57058],[126.73758,37.56624],[126.74177,37.56431],[126.74544,37.5667]]]}},{"type":"Feature","properties":{"h3":"8830e0a0a3fffff","emd_code":"2824573000","emd_name":"계양3동","area_km2":0.5042,"edge":false,"slope_mean":5.14,"elev_mean":13.4,"flood_hist_n":0,"flood_depth_max_m":null,"flood_risk_100y":null,"semi_basement_r":null,"elderly_alone_r":0.1055,"bldg_age30_r":null,"shelter_min_walk":1,"pop":22782,"hh":9700,"elderly65_r":0.1838,"single_hh_r":0.3147,"source_level":"emd","flood_years":[],"landslide_hist_n":0},"geometry":{"type":"Polygon","coordinates":[[[126.7533,37.56716],[126.75277,37.57149],[126.74857,37.57343],[126.74491,37.57104],[126.74544,37.5667],[126.74963,37.56477],[126.7533,37.56716]]]}},{"type":"Feature","properties":{"h3":"8830e0a0a5fffff","emd_code":"2824571000","emd_name":"계양1동","area_km2":0.504,"edge":false,"slope_mean":14.25,"elev_mean":54.5,"flood_hist_n":0,"flood_depth_max_m":null,"flood_risk_100y":null,"semi_basement_r":null,"elderly_alone_r":0.133,"bldg_age30_r":null,"shelter_min_walk":15,"pop":18443,"hh":8193,"elderly65_r":0.2391,"single_hh_r":0.342,"source_level":"emd","flood_years":[],"landslide_hist_n":0},"geometry":{"type":"Polygon","coordinates":[[[126.7423,37.55998],[126.74177,37.56431],[126.73758,37.56624],[126.73391,37.56385],[126.73444,37.55952],[126.73863,37.55758],[126.7423,37.55998]]]}},{"type":"Feature","properties":{"h3":"8830e0a0a7fffff","emd_code":"2824573000","emd_name":"계양3동","area_km2":0.5041,"edge":false,"slope_mean":9.29,"elev_mean":30.0,"flood_hist_n":0,"flood_depth_max_m":null,"flood_risk_100y":null,"semi_basement_r":null,"elderly_alone_r":0.1055,"bldg_age30_r":null,"shelter_min_walk":10,"pop":22782,"hh":9700,"elderly65_r":0.1838,"single_hh_r":0.3147,"source_level":"emd","flood_years":[],"landslide_hist_n":0},"geometry":{"type":"Polygon","coordinates":[[[126.75016,37.56043],[126.74963,37.56477],[126.74544,37.5667],[126.74177,37.56431],[126.7423,37.55998],[126.74649,37.55804],[126.75016,37.56043]]]}},{"type":"Feature","properties":{"h3":"8830e0a0a9fffff","emd_code":"2824571000","emd_name":"계양1동","area_km2":0.504,"edge":false,"slope_mean":3.6,"elev_mean":11.5,"flood_hist_n":0,"flood_depth_max_m":null,"flood_risk_100y":null,"semi_basement_r":null,"elderly_alone_r":0.133,"bldg_age30_r":null,"shelter_min_walk":10,"pop":18443,"hh":8193,"elderly65_r":0.2391,"single_hh_r":0.342,"source_level":"emd","flood_years":[],"landslide_hist_n":0},"geometry":{"type":"Polygon","coordinates":[[[126.74071,37.57297],[126.74018,37.5773],[126.73599,37.57924],[126.73232,37.57684],[126.73285,37.57251],[126.73705,37.57058],[126.74071,37.57297]]]}},{"type":"Feature","properties":{"h3":"8830e0a0abfffff","emd_code":"2824571000","emd_name":"계양1동","area_km2":0.5042,"edge":false,"slope_mean":2.54,"elev_mean":8.1,"flood_hist_n":0,"flood_depth_max_m":null,"flood_risk_100y":null,"semi_basement_r":null,"elderly_alone_r":0.133,"bldg_age30_r":null,"shelter_min_walk":11,"pop":18443,"hh":8193,"elderly65_r":0.2391,"single_hh_r":0.342,"source_level":"emd","flood_years":[],"landslide_hist_n":0},"geometry":{"type":"Polygon","coordinates":[[[126.74857,37.57343],[126.74804,37.57776],[126.74385,37.5797],[126.74018,37.5773],[126.74071,37.57297],[126.74491,37.57104],[126.74857,37.57343]]]}},{"type":"Feature","properties":{"h3":"8830e0a0adfffff","emd_code":"2824571000","emd_name":"계양1동","area_km2":0.504,"edge":false,"slope_mean":9.27,"elev_mean":29.5,"flood_hist_n":0,"flood_depth_max_m":null,"flood_risk_100y":null,"semi_basement_r":null,"elderly_alone_r":0.133,"bldg_age30_r":null,"shelter_min_walk":19,"pop":18443,"hh":8193,"elderly65_r":0.2391,"single_hh_r":0.342,"source_level":"emd","flood_years":[],"landslide_hist_n":0},"geometry":{"type":"Polygon","coordinates":[[[126.73758,37.56624],[126.73705,37.57058],[126.73285,37.57251],[126.72919,37.57012],[126.72972,37.56578],[126.73391,37.56385],[126.73758,37.56624]]]}},{"type":"Feature","properties":{"h3":"8830e0a0b1fffff","emd_code":"2824571000","emd_name":"계양1동","area_km2":0.5044,"edge":false,"slope_mean":2.77,"elev_mean":6.3,"flood_hist_n":1,"flood_depth_max_m":0.67,"flood_risk_100y":null,"semi_basement_r":null,"elderly_alone_r":0.133,"bldg_age30_r":null,"shelter_min_walk":17,"pop":18443,"hh":8193,"elderly65_r":0.2391,"single_hh_r":0.342,"source_level":"emd","flood_years":[2006],"landslide_hist_n":0},"geometry":{"type":"Polygon","coordinates":[[[126.7643,37.57435],[126.76377,37.57868],[126.75958,37.58062],[126.75591,37.57822],[126.75644,37.57389],[126.76063,37.57195],[126.7643,37.57435]]]}},{"type":"Feature","properties":{"h3":"8830e0a0b3fffff","emd_code":"2824573000","emd_name":"계양3동","area_km2":0.5045,"edge":false,"slope_mean":2.02,"elev_mean":7.3,"flood_hist_n":1,"flood_depth_max_m":0.53,"flood_risk_100y":null,"semi_basement_r":null,"elderly_alone_r":0.1055,"bldg_age30_r":null,"shelter_min_walk":26,"pop":22782,"hh":9700,"elderly65_r":0.1838,"single_hh_r":0.3147,"source_level":"emd","flood_years":[2006],"landslide_hist_n":0},"geometry":{"type":"Polygon","coordinates":[[[126.77217,37.57481],[126.77164,37.57914],[126.76744,37.58108],[126.76377,37.57868],[126.7643,37.57435],[126.7685,37.57241],[126.77217,37.57481]]]}},{"type":"Feature","properties":{"h3":"8830e0a0b5fffff","emd_code":"2824573000","emd_name":"계양3동","area_km2":0.5043,"edge":false,"slope_mean":3.71,"elev_mean":8.3,"flood_hist_n":0,"flood_depth_max_m":null,"flood_risk_100y":null,"semi_basement_r":null,"elderly_alone_r":0.1055,"bldg_age30_r":null,"shelter_min_walk":9,"pop":22782,"hh":9700,"elderly65_r":0.1838,"single_hh_r":0.3147,"source_level":"emd","flood_years":[],"landslide_hist_n":0},"geometry":{"type":"Polygon","coordinates":[[[126.76116,37.56762],[126.76063,37.57195],[126.75644,37.57389],[126.75277,37.57149],[126.7533,37.56716],[126.75749,37.56522],[126.76116,37.56762]]]}},{"type":"Feature","properties":{"h3":"8830e0a0b7fffff","emd_code":"2824573000","emd_name":"계양3동","area_km2":0.5044,"edge":false,"slope_mean":1.93,"elev_mean":6.1,"flood_hist_n":0,"flood_depth_max_m":null,"flood_risk_100y":null,"semi_basement_r":null,"elderly_alone_r":0.1055,"bldg_age30_r":null,"shelter_min_walk":19,"pop":22782,"hh":9700,"elderly65_r":0.1838,"single_hh_r":0.3147,"source_level":"emd","flood_years":[],"landslide_hist_n":0},"geometry":{"type":"Polygon","coordinates":[[[126.76902,37.56808],[126.7685,37.57241],[126.7643,37.57435],[126.76063,37.57195],[126.76116,37.56762],[126.76536,37.56568],[126.76902,37.56808]]]}},{"type":"Feature","properties":{"h3":"8830e0a0b9fffff","emd_code":"2824571000","emd_name":"계양1동","area_km2":0.5043,"edge":true,"slope_mean":4.13,"elev_mean":11.3,"flood_hist_n":1,"flood_depth_max_m":0.67,"flood_risk_100y":null,"semi_basement_r":null,"elderly_alone_r":0.133,"bldg_age30_r":null,"shelter_min_walk":23,"pop":18443,"hh":8193,"elderly65_r":0.2391,"single_hh_r":0.342,"source_level":"emd","flood_years":[2006],"landslide_hist_n":0},"geometry":{"type":"Polygon","coordinates":[[[126.75958,37.58062],[126.75905,37.58495],[126.75485,37.58689],[126.75118,37.58449],[126.75171,37.58016],[126.75591,37.57822],[126.75958,37.58062]]]}},{"type":"Feature","properties":{"h3":"8830e0a0bbfffff","emd_code":"2824573000","emd_name":"계양3동","area_km2":0.5044,"edge":false,"slope_mean":1.39,"elev_mean":6.4,"flood_hist_n":1,"flood_depth_max_m":1.21,"flood_risk_100y":null,"semi_basement_r":null,"elderly_alone_r":0.1055,"bldg_age30_r":null,"shelter_min_walk":28,"pop":22782,"hh":9700,"elderly65_r":0.1838,"single_hh_r":0.3147,"source_level":"emd","flood_years":[2006],"landslide_hist_n":0},"geometry":{"type":"Polygon","coordinates":[[[126.76744,37.58108],[126.76691,37.58541],[126.76272,37.58735],[126.75905,37.58495],[126.75958,37.58062],[126.76377,37.57868],[126.76744,37.58108]]]}},{"type":"Feature","properties":{"h3":"8830e0a0bdfffff","emd_code":"2824571000","emd_name":"계양1동","area_km2":0.5043,"edge":false,"slope_mean":3.45,"elev_mean":6.8,"flood_hist_n":1,"flood_depth_max_m":0.8,"flood_risk_100y":null,"semi_basement_r":null,"elderly_alone_r":0.133,"bldg_age30_r":null,"shelter_min_walk":11,"pop":18443,"hh":8193,"elderly65_r":0.2391,"single_hh_r":0.342,"source_level":"emd","flood_years":[2006],"landslide_hist_n":0},"geometry":{"type":"Polygon","coordinates":[[[126.75644,37.57389],[126.75591,37.57822],[126.75171,37.58016],[126.74804,37.57776],[126.74857,37.57343],[126.75277,37.57149],[126.75644,37.57389]]]}},{"type":"Feature","properties":{"h3":"8830e0a0c5fffff","emd_code":"2824571000","emd_name":"계양1동","area_km2":0.5039,"edge":true,"slope_mean":3.74,"elev_mean":11.8,"flood_hist_n":1,"flood_depth_max_m":0.8,"flood_risk_100y":null,"semi_basement_r":null,"elderly_alone_r":0.133,"bldg_age30_r":null,"shelter_min_walk":10,"pop":18443,"hh":8193,"elderly65_r":0.2391,"single_hh_r":0.342,"source_level":"emd","flood_years":[2006],"landslide_hist_n":0},"geometry":{"type":"Polygon","coordinates":[[[126.72654,37.59177],[126.726,37.59611],[126.72181,37.59804],[126.71814,37.59564],[126.71867,37.59131],[126.72287,37.58938],[126.72654,37.59177]]]}},{"type":"Feature","properties":{"h3":"8830e0a0c7fffff","emd_code":"2824571000","emd_name":"계양1동","area_km2":0.504,"edge":true,"slope_mean":2.9,"elev_mean":9.4,"flood_hist_n":1,"flood_depth_max_m":1.13,"flood_risk_100y":null,"semi_basement_r":null,"elderly_alone_r":0.133,"bldg_age30_r":null,"shelter_min_walk":20,"pop":18443,"hh":8193,"elderly65_r":0.2391,"single_hh_r":0.342,"source_level":"emd","flood_years":[2006],"landslide_hist_n":0},"geometry":{"type":"Polygon","coordinates":[[[126.7344,37.59224],[126.73387,37.59657],[126.72967,37.5985],[126.726,37.59611],[126.72654,37.59177],[126.73073,37.58984],[126.7344,37.59224]]]}},{"type":"Feature","properties":{"h3":"8830e0a0e1fffff","emd_code":"2824571000","emd_name":"계양1동","area_km2":0.5039,"edge":false,"slope_mean":9.68,"elev_mean":34.4,"flood_hist_n":0,"flood_depth_max_m":null,"flood_risk_100y":null,"semi_basement_r":null,"elderly_alone_r":0.133,"bldg_age30_r":null,"shelter_min_walk":11,"pop":18443,"hh":8193,"elderly65_r":0.2391,"single_hh_r":0.342,"source_level":"emd","flood_years":[],"landslide_hist_n":0},"geometry":{"type":"Polygon","coordinates":[[[126.72813,37.57878],[126.7276,37.58311],[126.7234,37.58505],[126.71974,37.58265],[126.72027,37.57832],[126.72446,37.57638],[126.72813,37.57878]]]}},{"type":"Feature","properties":{"h3":"8830e0a0e3fffff","emd_code":"2824571000","emd_name":"계양1동","area_km2":0.504,"edge":false,"slope_mean":5.24,"elev_mean":18.6,"flood_hist_n":0,"flood_depth_max_m":null,"flood_risk_100y":null,"semi_basement_r":null,"elderly_alone_r":0.133,"bldg_age30_r":null,"shelter_min_walk":3,"pop":18443,"hh":8193,"elderly65_r":0.2391,"single_hh_r":0.342,"source_level":"emd","flood_years":[],"landslide_hist_n":0},"geometry":{"type":"Polygon","coordinates":[[[126.73599,37.57924],[126.73546,37.58357],[126.73126,37.58551],[126.7276,37.58311],[126.72813,37.57878],[126.73232,37.57684],[126.73599,37.57924]]]}},{"type":"Feature","properties":{"h3":"8830e0a0e5fffff","emd_code":"2824571000","emd_name":"계양1동","area_km2":0.5038,"edge":false,"slope_mean":8.44,"elev_mean":24.5,"flood_hist_n":0,"flood_depth_max_m":null,"flood_risk_100y":null,"semi_basement_r":null,"elderly_alone_r":0.133,"bldg_age30_r":null,"shelter_min_walk":18,"pop":18443,"hh":8193,"elderly65_r":0.2391,"single_hh_r":0.342,"source_level":"emd","flood_years":[],"landslide_hist_n":0},"geometry":{"type":"Polygon","coordinates":[[[126.72499,37.57205],[126.72446,37.57638],[126.72027,37.57832],[126.7166,37.57592],[126.71713,37.57159],[126.72133,37.56965],[126.72499,37.57205]]]}},{"type":"Feature","properties":{"h3":"8830e0a0e7fffff","emd_code":"2824571000","emd_name":"계양1동","area_km2":0.5039,"edge":false,"slope_mean":5.86,"elev_mean":19.3,"flood_hist_n":0,"flood_depth_max_m":null,"flood_risk_100y":null,"semi_basement_r":null,"elderly_alone_r":0.133,"bldg_age30_r":null,"shelter_min_walk":10,"pop":18443,"hh":8193,"elderly65_r":0.2391,"single_hh_r":0.342,"source_level":"emd","flood_years":[],"landslide_hist_n":0},"geometry":{"type":"Polygon","coordinates":[[[126.73285,37.57251],[126.73232,37.57684],[126.72813,37.57878],[126.72446,37.57638],[126.72499,37.57205],[126.72919,37.57012],[126.73285,37.57251]]]}},{"type":"Feature","properties":{"h3":"8830e0a0e9fffff","emd_code":"2824571000","emd_name":"계양1동","area_km2":0.5038,"edge":true,"slope_mean":5.68,"elev_mean":18.0,"flood_hist_n":0,"flood_depth_max_m":null,"flood_risk_100y":null,"semi_basement_r":null,"elderly_alone_r":0.133,"bldg_age30_r":null,"shelter_min_walk":5,"pop":18443,"hh":8193,"elderly65_r":0.2391,"single_hh_r":0.342,"source_level":"emd","flood_years":[],"landslide_hist_n":0},"geometry":{"type":"Polygon","coordinates":[[[126.7234,37.58505],[126.72287,37.58938],[126.71867,37.59131],[126.71501,37.58891],[126.71554,37.58458],[126.71974,37.58265],[126.7234,37.58505]]]}},{"type":"Feature","properties":{"h3":"8830e0a0ebfffff","emd_code":"2824571000","emd_name":"계양1동","area_km2":0.5039,"edge":false,"slope_mean":7.59,"elev_mean":19.1,"flood_hist_n":0,"flood_depth_max_m":null,"flood_risk_100y":null,"semi_basement_r":null,"elderly_alone_r":0.133,"bldg_age30_r":null,"shelter_min_walk":14,"pop":18443,"hh":8193,"elderly65_r":0.2391,"single_hh_r":0.342,"source_level":"emd","flood_years":[],"landslide_hist_n":0},"geometry":{"type":"Polygon","coordinates":[[[126.73126,37.58551],[126.73073,37.58984],[126.72654,37.59177],[126.72287,37.58938],[126.7234,37.58505],[126.7276,37.58311],[126.73126,37.58551]]]}},{"type":"Feature","properties":{"h3":"8830e0a0edfffff","emd_code":"2824571000","emd_name":"계양1동","area_km2":0.5038,"edge":true,"slope_mean":5.42,"elev_mean":20.1,"flood_hist_n":0,"flood_depth_max_m":null,"flood_risk_100y":null,"semi_basement_r":null,"elderly_alone_r":0.133,"bldg_age30_r":null,"shelter_min_walk":15,"pop":18443,"hh":8193,"elderly65_r":0.2391,"single_hh_r":0.342,"source_level":"emd","flood_years":[],"landslide_hist_n":0},"geometry":{"type":"Polygon","coordinates":[[[126.72027,37.57832],[126.71974,37.58265],[126.71554,37.58458],[126.71188,37.58219],[126.71241,37.57786],[126.7166,37.57592],[126.72027,37.57832]]]}},{"type":"Feature","properties":{"h3":"8830e0a117fffff","emd_code":"2824560200","emd_name":"효성2동","area_km2":0.5033,"edge":true,"slope_mean":17.45,"elev_mean":114.6,"flood_hist_n":0,"flood_depth_max_m":null,"flood_risk_100y":null,"semi_basement_r":null,"elderly_alone_r":0.1166,"bldg_age30_r":null,"shelter_min_walk":13,"pop":29075,"hh":12642,"elderly65_r":0.2196,"single_hh_r":0.3068,"source_level":"emd","flood_years":[],"landslide_hist_n":0},"geometry":{"type":"Polygon","coordinates":[[[126.69363,37.5375],[126.6931,37.54183],[126.68891,37.54376],[126.68525,37.54137],[126.68578,37.53704],[126.68997,37.5351],[126.69363,37.5375]]]}},{"type":"Feature","properties":{"h3":"8830e0a133fffff","emd_code":"2824560200","emd_name":"효성2동","area_km2":0.5033,"edge":false,"slope_mean":11.76,"elev_mean":69.1,"flood_hist_n":0,"flood_depth_max_m":null,"flood_risk_100y":null,"semi_basement_r":null,"elderly_alone_r":0.1166,"bldg_age30_r":null,"shelter_min_walk":9,"pop":29075,"hh":12642,"elderly65_r":0.2196,"single_hh_r":0.3068,"source_level":"emd","flood_years":[],"landslide_hist_n":0},"geometry":{"type":"Polygon","coordinates":[[[126.69523,37.52451],[126.69469,37.52884],[126.6905,37.53077],[126.68685,37.52838],[126.68738,37.52405],[126.69157,37.52212],[126.69523,37.52451]]]}},{"type":"Feature","properties":{"h3":"8830e0a13bfffff","emd_code":"2824560200","emd_name":"효성2동","area_km2":0.5032,"edge":false,"slope_mean":19.77,"elev_mean":124.5,"flood_hist_n":0,"flood_depth_max_m":null,"flood_risk_100y":null,"semi_basement_r":null,"elderly_alone_r":0.1166,"bldg_age30_r":null,"shelter_min_walk":12,"pop":29075,"hh":12642,"elderly65_r":0.2196,"single_hh_r":0.3068,"source_level":"emd","flood_years":[],"landslide_hist_n":0},"geometry":{"type":"Polygon","coordinates":[[[126.6905,37.53077],[126.68997,37.5351],[126.68578,37.53704],[126.68212,37.53464],[126.68266,37.53031],[126.68685,37.52838],[126.6905,37.53077]]]}},{"type":"Feature","properties":{"h3":"8830e0a181fffff","emd_code":"2824561100","emd_name":"계산1동","area_km2":0.5037,"edge":false,"slope_mean":5.18,"elev_mean":44.4,"flood_hist_n":0,"flood_depth_max_m":null,"flood_risk_100y":null,"semi_basement_r":null,"elderly_alone_r":0.1693,"bldg_age30_r":null,"shelter_min_walk":4,"pop":17229,"hh":9838,"elderly65_r":0.2618,"single_hh_r":0.559,"source_level":"emd","flood_years":[],"landslide_hist_n":0},"geometry":{"type":"Polygon","coordinates":[[[126.72504,37.53934],[126.72451,37.54367],[126.72032,37.5456],[126.71665,37.54321],[126.71719,37.53888],[126.72138,37.53694],[126.72504,37.53934]]]}},{"type":"Feature","properties":{"h3":"8830e0a183fffff","emd_code":"2824561100","emd_name":"계산1동","area_km2":0.5038,"edge":false,"slope_mean":3.65,"elev_mean":32.3,"flood_hist_n":0,"flood_depth_max_m":null,"flood_risk_100y":null,"semi_basement_r":null,"elderly_alone_r":0.1693,"bldg_age30_r":null,"shelter_min_walk":1,"pop":17229,"hh":9838,"elderly65_r":0.2618,"single_hh_r":0.559,"source_level":"emd","flood_years":[],"landslide_hist_n":0},"geometry":{"type":"Polygon","coordinates":[[[126.73289,37.53979],[126.73237,37.54413],[126.72817,37.54606],[126.72451,37.54367],[126.72504,37.53934],[126.72923,37.5374],[126.73289,37.53979]]]}},{"type":"Feature","properties":{"h3":"8830e0a185fffff","emd_code":"2824562200","emd_name":"작전2동","area_km2":0.5037,"edge":false,"slope_mean":8.43,"elev_mean":53.3,"flood_hist_n":0,"flood_depth_max_m":null,"flood_risk_100y":null,"semi_basement_r":null,"elderly_alone_r":0.1381,"bldg_age30_r":null,"shelter_min_walk":6,"pop":23325,"hh":11063,"elderly65_r":0.2202,"single_hh_r":0.3905,"source_level":"emd","flood_years":[],"landslide_hist_n":0},"geometry":{"type":"Polygon","coordinates":[[[126.72191,37.53261],[126.72138,37.53694],[126.71719,37.53888],[126.71352,37.53648],[126.71405,37.53215],[126.71825,37.53022],[126.72191,37.53261]]]}},{"type":"Feature","properties":{"h3":"8830e0a187fffff","emd_code":"2824562200","emd_name":"작전2동","area_km2":0.5038,"edge":false,"slope_mean":3.61,"elev_mean":27.8,"flood_hist_n":0,"flood_depth_max_m":null,"flood_risk_100y":null,"semi_basement_r":null,"elderly_alone_r":0.1381,"bldg_age30_r":null,"shelter_min_walk":1,"pop":23325,"hh":11063,"elderly65_r":0.2202,"single_hh_r":0.3905,"source_level":"emd","flood_years":[],"landslide_hist_n":0},"geometry":{"type":"Polygon","coordinates":[[[126.72976,37.53307],[126.72923,37.5374],[126.72504,37.53934],[126.72138,37.53694],[126.72191,37.53261],[126.7261,37.53067],[126.72976,37.53307]]]}},{"type":"Feature","properties":{"h3":"8830e0a189fffff","emd_code":"2824561200","emd_name":"계산2동","area_km2":0.5037,"edge":false,"slope_mean":16.56,"elev_mean":128.9,"flood_hist_n":0,"flood_depth_max_m":null,"flood_risk_100y":null,"semi_basement_r":null,"elderly_alone_r":0.1776,"bldg_age30_r":null,"shelter_min_walk":9,"pop":13759,"hh":7499,"elderly65_r":0.2766,"single_hh_r":0.5183,"source_level":"emd","flood_years":[],"landslide_hist_n":0},"geometry":{"type":"Polygon","coordinates":[[[126.72032,37.5456],[126.71979,37.54993],[126.71559,37.55187],[126.71193,37.54947],[126.71246,37.54514],[126.71665,37.54321],[126.72032,37.5456]]]}},{"type":"Feature","properties":{"h3":"8830e0a18bfffff","emd_code":"2824561200","emd_name":"계산2동","area_km2":0.5038,"edge":false,"slope_mean":12.04,"elev_mean":93.9,"flood_hist_n":0,"flood_depth_max_m":null,"flood_risk_100y":null,"semi_basement_r":null,"elderly_alone_r":0.1776,"bldg_age30_r":null,"shelter_min_walk":3,"pop":13759,"hh":7499,"elderly65_r":0.2766,"single_hh_r":0.5183,"source_level":"emd","flood_years":[],"landslide_hist_n":0},"geometry":{"type":"Polygon","coordinates":[[[126.72817,37.54606],[126.72764,37.55039],[126.72345,37.55233],[126.71979,37.54993],[126.72032,37.5456],[126.72451,37.54367],[126.72817,37.54606]]]}},{"type":"Feature","properties":{"h3":"8830e0a18dfffff","emd_code":"2824561100","emd_name":"계산1동","area_km2":0.5036,"edge":false,"slope_mean":14.35,"elev_mean":90.7,"flood_hist_n":0,"flood_depth_max_m":null,"flood_risk_100y":null,"semi_basement_r":null,"elderly_alone_r":0.1693,"bldg_age30_r":null,"shelter_min_walk":12,"pop":17229,"hh":9838,"elderly65_r":0.2618,"single_hh_r":0.559,"source_level":"emd","flood_years":[],"landslide_hist_n":0},"geometry":{"type":"Polygon","coordinates":[[[126.71719,37.53888],[126.71665,37.54321],[126.71246,37.54514],[126.7088,37.54275],[126.70933,37.53842],[126.71352,37.53648],[126.71719,37.53888]]]}},{"type":"Feature","properties":{"h3":"8830e0a191fffff","emd_code":"2824572000","emd_name":"계양2동","area_km2":0.504,"edge":false,"slope_mean":5.87,"elev_mean":26.3,"flood_hist_n":0,"flood_depth_max_m":null,"flood_risk_100y":null,"semi_basement_r":null,"elderly_alone_r":0.1707,"bldg_age30_r":null,"shelter_min_walk":6,"pop":30160,"hh":15754,"elderly65_r":0.2354,"single_hh_r":0.48,"source_level":"emd","flood_years":[],"landslide_hist_n":0},"geometry":{"type":"Polygon","coordinates":[[[126.74389,37.54698],[126.74336,37.55131],[126.73916,37.55325],[126.7355,37.55085],[126.73603,37.54652],[126.74022,37.54458],[126.74389,37.54698]]]}},{"type":"Feature","properties":{"h3":"8830e0a193fffff","emd_code":"2824572000","emd_name":"계양2동","area_km2":0.5041,"edge":false,"slope_mean":3.2,"elev_mean":11.5,"flood_hist_n":0,"flood_depth_max_m":null,"flood_risk_100y":null,"semi_basement_r":null,"elderly_alone_r":0.1707,"bldg_age30_r":null,"shelter_min_walk":9,"pop":30160,"hh":15754,"elderly65_r":0.2354,"single_hh_r":0.48,"source_level":"emd","flood_years":[],"landslide_hist_n":0},"geometry":{"type":"Polygon","coordinates":[[[126.75175,37.54744],[126.75122,37.55177],[126.74702,37.55371],[126.74336,37.55131],[126.74389,37.54698],[126.74808,37.54504],[126.75175,37.54744]]]}},{"type":"Feature","properties":{"h3":"8830e0a195fffff","emd_code":"2824561400","emd_name":"계산4동","area_km2":0.504,"edge":false,"slope_mean":4.83,"elev_mean":23.4,"flood_hist_n":0,"flood_depth_max_m":null,"flood_risk_100y":null,"semi_basement_r":null,"elderly_alone_r":0.0947,"bldg_age30_r":null,"shelter_min_walk":2,"pop":22044,"hh":9473,"elderly65_r":0.1645,"single_hh_r":0.3684,"source_level":"emd","flood_years":[],"landslide_hist_n":0},"geometry":{"type":"Polygon","coordinates":[[[126.74075,37.54025],[126.74022,37.54458],[126.73603,37.54652],[126.73237,37.54413],[126.73289,37.53979],[126.73709,37.53786],[126.74075,37.54025]]]}},{"type":"Feature","properties":{"h3":"8830e0a197fffff","emd_code":"2824561400","emd_name":"계산4동","area_km2":0.5041,"edge":false,"slope_mean":3.73,"elev_mean":12.2,"flood_hist_n":0,"flood_depth_max_m":null,"flood_risk_100y":null,"semi_basement_r":null,"elderly_alone_r":0.0947,"bldg_age30_r":null,"shelter_min_walk":5,"pop":22044,"hh":9473,"elderly65_r":0.1645,"single_hh_r":0.3684,"source_level":"emd","flood_years":[],"landslide_hist_n":0},"geometry":{"type":"Polygon","coordinates":[[[126.74861,37.54071],[126.74808,37.54504],[126.74389,37.54698],[126.74022,37.54458],[126.74075,37.54025],[126.74494,37.53831],[126.74861,37.54071]]]}},{"type":"Feature","properties":{"h3":"8830e0a199fffff","emd_code":"2824572000","emd_name":"계양2동","area_km2":0.504,"edge":false,"slope_mean":11.71,"elev_mean":49.7,"flood_hist_n":0,"flood_depth_max_m":null,"flood_risk_100y":null,"semi_basement_r":null,"elderly_alone_r":0.1707,"bldg_age30_r":null,"shelter_min_walk":14,"pop":30160,"hh":15754,"elderly65_r":0.2354,"single_hh_r":0.48,"source_level":"emd","flood_years":[],"landslide_hist_n":0},"geometry":{"type":"Polygon","coordinates":[[[126.73916,37.55325],[126.73863,37.55758],[126.73444,37.55952],[126.73078,37.55712],[126.73131,37.55279],[126.7355,37.55085],[126.73916,37.55325]]]}},{"type":"Feature","properties":{"h3":"8830e0a19bfffff","emd_code":"2824571000","emd_name":"계양1동","area_km2":0.5041,"edge":false,"slope_mean":7.81,"elev_mean":30.8,"flood_hist_n":0,"flood_depth_max_m":null,"flood_risk_100y":null,"semi_basement_r":null,"elderly_alone_r":0.133,"bldg_age30_r":null,"shelter_min_walk":4,"pop":18443,"hh":8193,"elderly65_r":0.2391,"single_hh_r":0.342,"source_level":"emd","flood_years":[],"landslide_hist_n":0},"geometry":{"type":"Polygon","coordinates":[[[126.74702,37.55371],[126.74649,37.55804],[126.7423,37.55998],[126.73863,37.55758],[126.73916,37.55325],[126.74336,37.55131],[126.74702,37.55371]]]}},{"type":"Feature","properties":{"h3":"8830e0a19dfffff","emd_code":"2824572000","emd_name":"계양2동","area_km2":0.5039,"edge":false,"slope_mean":11.28,"elev_mean":63.2,"flood_hist_n":0,"flood_depth_max_m":null,"flood_risk_100y":null,"semi_basement_r":null,"elderly_alone_r":0.1707,"bldg_age30_r":null,"shelter_min_walk":7,"pop":30160,"hh":15754,"elderly65_r":0.2354,"single_hh_r":0.48,"source_level":"emd","flood_years":[],"landslide_hist_n":0},"geometry":{"type":"Polygon","coordinates":[[[126.73603,37.54652],[126.7355,37.55085],[126.73131,37.55279],[126.72764,37.55039],[126.72817,37.54606],[126.73237,37.54413],[126.73603,37.54652]]]}},{"type":"Feature","properties":{"h3":"8830e0a1a1fffff","emd_code":"2824562200","emd_name":"작전2동","area_km2":0.5037,"edge":true,"slope_mean":5.16,"elev_mean":19.4,"flood_hist_n":0,"flood_depth_max_m":null,"flood_risk_100y":null,"semi_basement_r":null,"elderly_alone_r":0.1381,"bldg_age30_r":null,"shelter_min_walk":8,"pop":23325,"hh":11063,"elderly65_r":0.2202,"single_hh_r":0.3905,"source_level":"emd","flood_years":[],"landslide_hist_n":0},"geometry":{"type":"Polygon","coordinates":[[[126.7235,37.51962],[126.72297,37.52395],[126.71878,37.52588],[126.71512,37.52349],[126.71565,37.51916],[126.71984,37.51722],[126.7235,37.51962]]]}},{"type":"Feature","properties":{"h3":"8830e0a1a3fffff","emd_code":"2824562100","emd_name":"작전1동","area_km2":0.5038,"edge":true,"slope_mean":4.52,"elev_mean":19.6,"flood_hist_n":0,"flood_depth_max_m":null,"flood_risk_100y":null,"semi_basement_r":null,"elderly_alone_r":0.1129,"bldg_age30_r":null,"shelter_min_walk":2,"pop":25402,"hh":11174,"elderly65_r":0.207,"single_hh_r":0.3309,"source_level":"emd","flood_years":[],"landslide_hist_n":0},"geometry":{"type":"Polygon","coordinates":[[[126.73135,37.52007],[126.73082,37.52441],[126.72663,37.52634],[126.72297,37.52395],[126.7235,37.51962],[126.72769,37.51768],[126.73135,37.52007]]]}},{"type":"Feature","properties":{"h3":"8830e0a1a9fffff","emd_code":"2824560200","emd_name":"효성2동","area_km2":0.5036,"edge":false,"slope_mean":4.53,"elev_mean":27.8,"flood_hist_n":0,"flood_depth_max_m":null,"flood_risk_100y":null,"semi_basement_r":null,"elderly_alone_r":0.1166,"bldg_age30_r":null,"shelter_min_walk":3,"pop":29075,"hh":12642,"elderly65_r":0.2196,"single_hh_r":0.3068,"source_level":"emd","flood_years":[],"landslide_hist_n":0},"geometry":{"type":"Polygon","coordinates":[[[126.71878,37.52588],[126.71825,37.53022],[126.71405,37.53215],[126.71039,37.52976],[126.71092,37.52543],[126.71512,37.52349],[126.71878,37.52588]]]}},{"type":"Feature","properties":{"h3":"8830e0a1abfffff","emd_code":"2824562200","emd_name":"작전2동","area_km2":0.5037,"edge":false,"slope_mean":4.19,"elev_mean":21.9,"flood_hist_n":0,"flood_depth_max_m":null,"flood_risk_100y":null,"semi_basement_r":null,"elderly_alone_r":0.1381,"bldg_age30_r":null,"shelter_min_walk":4,"pop":23325,"hh":11063,"elderly65_r":0.2202,"single_hh_r":0.3905,"source_level":"emd","flood_years":[],"landslide_hist_n":0},"geometry":{"type":"Polygon","coordinates":[[[126.72663,37.52634],[126.7261,37.53067],[126.72191,37.53261],[126.71825,37.53022],[126.71878,37.52588],[126.72297,37.52395],[126.72663,37.52634]]]}},{"type":"Feature","properties":{"h3":"8830e0a1adfffff","emd_code":"2824560200","emd_name":"효성2동","area_km2":0.5035,"edge":true,"slope_mean":4.71,"elev_mean":22.3,"flood_hist_n":0,"flood_depth_max_m":null,"flood_risk_100y":null,"semi_basement_r":null,"elderly_alone_r":0.1166,"bldg_age30_r":null,"shelter_min_walk":5,"pop":29075,"hh":12642,"elderly65_r":0.2196,"single_hh_r":0.3068,"source_level":"emd","flood_years":[],"landslide_hist_n":0},"geometry":{"type":"Polygon","coordinates":[[[126.71565,37.51916],[126.71512,37.52349],[126.71092,37.52543],[126.70727,37.52303],[126.7078,37.5187],[126.71199,37.51677],[126.71565,37.51916]]]}},{"type":"Feature","properties":{"h3":"8830e0a1b1fffff","emd_code":"2824564000","emd_name":"작전서운동","area_km2":0.5039,"edge":false,"slope_mean":4.22,"elev_mean":15.2,"flood_hist_n":0,"flood_depth_max_m":null,"flood_risk_100y":null,"semi_basement_r":null,"elderly_alone_r":0.1054,"bldg_age30_r":null,"shelter_min_walk":7,"pop":31691,"hh":13998,"elderly65_r":0.1691,"single_hh_r":0.3506,"source_level":"emd","flood_years":[],"landslide_hist_n":0},"geometry":{"type":"Polygon","coordinates":[[[126.74234,37.52726],[126.74181,37.53159],[126.73762,37.53353],[126.73395,37.53113],[126.73448,37.5268],[126.73868,37.52486],[126.74234,37.52726]]]}},{"type":"Feature","properties":{"h3":"8830e0a1b3fffff","emd_code":"2824564000","emd_name":"작전서운동","area_km2":0.5041,"edge":false,"slope_mean":2.58,"elev_mean":10.1,"flood_hist_n":0,"flood_depth_max_m":null,"flood_risk_100y":null,"semi_basement_r":null,"elderly_alone_r":0.1054,"bldg_age30_r":null,"shelter_min_walk":3,"pop":31691,"hh":13998,"elderly65_r":0.1691,"single_hh_r":0.3506,"source_level":"emd","flood_years":[],"landslide_hist_n":0},"geometry":{"type":"Polygon","coordinates":[[[126.75019,37.52771],[126.74967,37.53204],[126.74547,37.53398],[126.74181,37.53159],[126.74234,37.52726],[126.74653,37.52532],[126.75019,37.52771]]]}},{"type":"Feature","properties":{"h3":"8830e0a1b5fffff","emd_code":"2824564000","emd_name":"작전서운동","area_km2":0.5039,"edge":true,"slope_mean":3.66,"elev_mean":15.0,"flood_hist_n":0,"flood_depth_max_m":null,"flood_risk_100y":null,"semi_basement_r":null,"elderly_alone_r":0.1054,"bldg_age30_r":null,"shelter_min_walk":4,"pop":31691,"hh":13998,"elderly65_r":0.1691,"single_hh_r":0.3506,"source_level":"emd","flood_years":[],"landslide_hist_n":0},"geometry":{"type":"Polygon","coordinates":[[[126.7392,37.52053],[126.73868,37.52486],[126.73448,37.5268],[126.73082,37.52441],[126.73135,37.52007],[126.73554,37.51814],[126.7392,37.52053]]]}},{"type":"Feature","properties":{"h3":"8830e0a1b7fffff","emd_code":"2824564000","emd_name":"작전서운동","area_km2":0.504,"edge":true,"slope_mean":4.43,"elev_mean":13.4,"flood_hist_n":0,"flood_depth_max_m":null,"flood_risk_100y":null,"semi_basement_r":null,"elderly_alone_r":0.1054,"bldg_age30_r":null,"shelter_min_walk":2,"pop":31691,"hh":13998,"elderly65_r":0.1691,"single_hh_r":0.3506,"source_level":"emd","flood_years":[],"landslide_hist_n":0},"geometry":{"type":"Polygon","coordinates":[[[126.74706,37.52099],[126.74653,37.52532],[126.74234,37.52726],[126.73868,37.52486],[126.7392,37.52053],[126.7434,37.51859],[126.74706,37.52099]]]}},{"type":"Feature","properties":{"h3":"8830e0a1b9fffff","emd_code":"2824561300","emd_name":"계산3동","area_km2":0.5039,"edge":false,"slope_mean":5.34,"elev_mean":21.7,"flood_hist_n":0,"flood_depth_max_m":null,"flood_risk_100y":null,"semi_basement_r":null,"elderly_alone_r":0.1211,"bldg_age30_r":null,"shelter_min_walk":4,"pop":16818,"hh":8404,"elderly65_r":0.2183,"single_hh_r":0.4261,"source_level":"emd","flood_years":[],"landslide_hist_n":0},"geometry":{"type":"Polygon","coordinates":[[[126.73762,37.53353],[126.73709,37.53786],[126.73289,37.53979],[126.72923,37.5374],[126.72976,37.53307],[126.73395,37.53113],[126.73762,37.53353]]]}},{"type":"Feature","properties":{"h3":"8830e0a1bbfffff","emd_code":"2824561400","emd_name":"계산4동","area_km2":0.504,"edge":false,"slope_mean":4.42,"elev_mean":14.0,"flood_hist_n":0,"flood_depth_max_m":null,"flood_risk_100y":null,"semi_basement_r":null,"elderly_alone_r":0.0947,"bldg_age30_r":null,"shelter_min_walk":3,"pop":22044,"hh":9473,"elderly65_r":0.1645,"single_hh_r":0.3684,"source_level":"emd","flood_years":[],"landslide_hist_n":0},"geometry":{"type":"Polygon","coordinates":[[[126.74547,37.53398],[126.74494,37.53831],[126.74075,37.54025],[126.73709,37.53786],[126.73762,37.53353],[126.74181,37.53159],[126.74547,37.53398]]]}},{"type":"Feature","properties":{"h3":"8830e0a1bdfffff","emd_code":"2824562100","emd_name":"작전1동","area_km2":0.5038,"edge":false,"slope_mean":4.26,"elev_mean":18.9,"flood_hist_n":0,"flood_depth_max_m":null,"flood_risk_100y":null,"semi_basement_r":null,"elderly_alone_r":0.1129,"bldg_age30_r":null,"shelter_min_walk":3,"pop":25402,"hh":11174,"elderly65_r":0.207,"single_hh_r":0.3309,"source_level":"emd","flood_years":[],"landslide_hist_n":0},"geometry":{"type":"Polygon","coordinates":[[[126.73448,37.5268],[126.73395,37.53113],[126.72976,37.53307],[126.7261,37.53067],[126.72663,37.52634],[126.73082,37.52441],[126.73448,37.5268]]]}},{"type":"Feature","properties":{"h3":"8830e0a1c1fffff","emd_code":"2824571000","emd_name":"계양1동","area_km2":0.5035,"edge":true,"slope_mean":18.79,"elev_mean":137.0,"flood_hist_n":0,"flood_depth_max_m":null,"flood_risk_100y":null,"semi_basement_r":null,"elderly_alone_r":0.133,"bldg_age30_r":null,"shelter_min_walk":28,"pop":18443,"hh":8193,"elderly65_r":0.2391,"single_hh_r":0.342,"source_level":"emd","flood_years":[],"landslide_hist_n":0},"geometry":{"type":"Polygon","coordinates":[[[126.70774,37.55141],[126.70721,37.55574],[126.70302,37.55768],[126.69936,37.55528],[126.69989,37.55095],[126.70408,37.54901],[126.70774,37.55141]]]}},{"type":"Feature","properties":{"h3":"8830e0a1c3fffff","emd_code":"2824571000","emd_name":"계양1동","area_km2":0.5036,"edge":false,"slope_mean":24.41,"elev_mean":252.0,"flood_hist_n":0,"flood_depth_max_m":null,"flood_risk_100y":null,"semi_basement_r":null,"elderly_alone_r":0.133,"bldg_age30_r":null,"shelter_min_walk":19,"pop":18443,"hh":8193,"elderly65_r":0.2391,"single_hh_r":0.342,"source_level":"emd","flood_years":[],"landslide_hist_n":0},"geometry":{"type":"Polygon","coordinates":[[[126.71559,37.55187],[126.71506,37.5562],[126.71087,37.55814],[126.70721,37.55574],[126.70774,37.55141],[126.71193,37.54947],[126.71559,37.55187]]]}},{"type":"Feature","properties":{"h3":"8830e0a1c7fffff","emd_code":"2824561200","emd_name":"계산2동","area_km2":0.5036,"edge":true,"slope_mean":18.41,"elev_mean":141.0,"flood_hist_n":0,"flood_depth_max_m":null,"flood_risk_100y":null,"semi_basement_r":null,"elderly_alone_r":0.1776,"bldg_age30_r":null,"shelter_min_walk":19,"pop":13759,"hh":7499,"elderly65_r":0.2766,"single_hh_r":0.5183,"source_level":"emd","flood_years":[],"landslide_hist_n":0},"geometry":{"type":"Polygon","coordinates":[[[126.71246,37.54514],[126.71193,37.54947],[126.70774,37.55141],[126.70408,37.54901],[126.70461,37.54468],[126.7088,37.54275],[126.71246,37.54514]]]}},{"type":"Feature","properties":{"h3":"8830e0a1c9fffff","emd_code":"2824571000","emd_name":"계양1동","area_km2":0.5035,"edge":true,"slope_mean":18.15,"elev_mean":107.3,"flood_hist_n":0,"flood_depth_max_m":null,"flood_risk_100y":null,"semi_basement_r":null,"elderly_alone_r":0.133,"bldg_age30_r":null,"shelter_min_walk":20,"pop":18443,"hh":8193,"elderly65_r":0.2391,"single_hh_r":0.342,"source_level":"emd","flood_years":[],"landslide_hist_n":0},"geometry":{"type":"Polygon","coordinates":[[[126.70302,37.55768],[126.70248,37.56201],[126.69829,37.56394],[126.69463,37.56154],[126.69516,37.55721],[126.69936,37.55528],[126.70302,37.55768]]]}},{"type":"Feature","properties":{"h3":"8830e0a1cbfffff","emd_code":"2824571000","emd_name":"계양1동","area_km2":0.5036,"edge":false,"slope_mean":14.6,"elev_mean":113.8,"flood_hist_n":0,"flood_depth_max_m":null,"flood_risk_100y":null,"semi_basement_r":null,"elderly_alone_r":0.133,"bldg_age30_r":null,"shelter_min_walk":29,"pop":18443,"hh":8193,"elderly65_r":0.2391,"single_hh_r":0.342,"source_level":"emd","flood_years":[],"landslide_hist_n":0},"geometry":{"type":"Polygon","coordinates":[[[126.71087,37.55814],[126.71034,37.56247],[126.70615,37.5644],[126.70248,37.56201],[126.70302,37.55768],[126.70721,37.55574],[126.71087,37.55814]]]}},{"type":"Feature","properties":{"h3":"8830e0a1d1fffff","emd_code":"2824571000","emd_name":"계양1동","area_km2":0.5038,"edge":false,"slope_mean":10.79,"elev_mean":71.8,"flood_hist_n":0,"flood_depth_max_m":null,"flood_risk_100y":null,"semi_basement_r":null,"elderly_alone_r":0.133,"bldg_age30_r":null,"shelter_min_walk":24,"pop":18443,"hh":8193,"elderly65_r":0.2391,"single_hh_r":0.342,"source_level":"emd","flood_years":[],"landslide_hist_n":0},"geometry":{"type":"Polygon","coordinates":[[[126.72658,37.55906],[126.72605,37.56339],[126.72186,37.56532],[126.7182,37.56293],[126.71873,37.5586],[126.72292,37.55666],[126.72658,37.55906]]]}},{"type":"Feature","properties":{"h3":"8830e0a1d3fffff","emd_code":"2824571000","emd_name":"계양1동","area_km2":0.5039,"edge":false,"slope_mean":13.62,"elev_mean":62.4,"flood_hist_n":0,"flood_depth_max_m":null,"flood_risk_100y":null,"semi_basement_r":null,"elderly_alone_r":0.133,"bldg_age30_r":null,"shelter_min_walk":23,"pop":18443,"hh":8193,"elderly65_r":0.2391,"single_hh_r":0.342,"source_level":"emd","flood_years":[],"landslide_hist_n":0},"geometry":{"type":"Polygon","coordinates":[[[126.73444,37.55952],[126.73391,37.56385],[126.72972,37.56578],[126.72605,37.56339],[126.72658,37.55906],[126.73078,37.55712],[126.73444,37.55952]]]}},{"type":"Feature","properties":{"h3":"8830e0a1d5fffff","emd_code":"2824571000","emd_name":"계양1동","area_km2":0.5037,"edge":false,"slope_mean":22.43,"elev_mean":192.9,"flood_hist_n":0,"flood_depth_max_m":null,"flood_risk_100y":null,"semi_basement_r":null,"elderly_alone_r":0.133,"bldg_age30_r":null,"shelter_min_walk":14,"pop":18443,"hh":8193,"elderly65_r":0.2391,"single_hh_r":0.342,"source_level":"emd","flood_years":[],"landslide_hist_n":0},"geometry":{"type":"Polygon","coordinates":[[[126.72345,37.55233],[126.72292,37.55666],[126.71873,37.5586],[126.71506,37.5562],[126.71559,37.55187],[126.71979,37.54993],[126.72345,37.55233]]]}},{"type":"Feature","properties":{"h3":"8830e0a1d7fffff","emd_code":"2824572000","emd_name":"계양2동","area_km2":0.5039,"edge":false,"slope_mean":14.42,"elev_mean":95.4,"flood_hist_n":0,"flood_depth_max_m":null,"flood_risk_100y":null,"semi_basement_r":null,"elderly_alone_r":0.1707,"bldg_age30_r":null,"shelter_min_walk":15,"pop":30160,"hh":15754,"elderly65_r":0.2354,"single_hh_r":0.48,"source_level":"emd","flood_years":[],"landslide_hist_n":0},"geometry":{"type":"Polygon","coordinates":[[[126.73131,37.55279],[126.73078,37.55712],[126.72658,37.55906],[126.72292,37.55666],[126.72345,37.55233],[126.72764,37.55039],[126.73131,37.55279]]]}},{"type":"Feature","properties":{"h3":"8830e0a1d9fffff","emd_code":"2824571000","emd_name":"계양1동","area_km2":0.5038,"edge":false,"slope_mean":11.25,"elev_mean":52.7,"flood_hist_n":0,"flood_depth_max_m":null,"flood_risk_100y":null,"semi_basement_r":null,"elderly_alone_r":0.133,"bldg_age30_r":null,"shelter_min_walk":28,"pop":18443,"hh":8193,"elderly65_r":0.2391,"single_hh_r":0.342,"source_level":"emd","flood_years":[],"landslide_hist_n":0},"geometry":{"type":"Polygon","coordinates":[[[126.72186,37.56532],[126.72133,37.56965],[126.71713,37.57159],[126.71347,37.56919],[126.714,37.56486],[126.7182,37.56293],[126.72186,37.56532]]]}},{"type":"Feature","properties":{"h3":"8830e0a1dbfffff","emd_code":"2824571000","emd_name":"계양1동","area_km2":0.5039,"edge":false,"slope_mean":8.94,"elev_mean":34.9,"flood_hist_n":0,"flood_depth_max_m":null,"flood_risk_100y":null,"semi_basement_r":null,"elderly_alone_r":0.133,"bldg_age30_r":null,"shelter_min_walk":22,"pop":18443,"hh":8193,"elderly65_r":0.2391,"single_hh_r":0.342,"source_level":"emd","flood_years":[],"landslide_hist_n":0},"geometry":{"type":"Polygon","coordinates":[[[126.72972,37.56578],[126.72919,37.57012],[126.72499,37.57205],[126.72133,37.56965],[126.72186,37.56532],[126.72605,37.56339],[126.72972,37.56578]]]}},{"type":"Feature","properties":{"h3":"8830e0a1ddfffff","emd_code":"2824571000","emd_name":"계양1동","area_km2":0.5037,"edge":false,"slope_mean":17.47,"elev_mean":133.0,"flood_hist_n":0,"flood_depth_max_m":null,"flood_risk_100y":null,"semi_basement_r":null,"elderly_alone_r":0.133,"bldg_age30_r":null,"shelter_min_walk":26,"pop":18443,"hh":8193,"elderly65_r":0.2391,"single_hh_r":0.342,"source_level":"emd","flood_years":[],"landslide_hist_n":0},"geometry":{"type":"Polygon","coordinates":[[[126.71873,37.5586],[126.7182,37.56293],[126.714,37.56486],[126.71034,37.56247],[126.71087,37.55814],[126.71506,37.5562],[126.71873,37.5586]]]}},{"type":"Feature","properties":{"h3":"8830e0a1e1fffff","emd_code":"2824560100","emd_name":"효성1동","area_km2":0.5035,"edge":false,"slope_mean":12.1,"elev_mean":88.0,"flood_hist_n":0,"flood_depth_max_m":null,"flood_risk_100y":null,"semi_basement_r":null,"elderly_alone_r":0.1371,"bldg_age30_r":null,"shelter_min_walk":6,"pop":25397,"hh":11551,"elderly65_r":0.2303,"single_hh_r":0.3533,"source_level":"emd","flood_years":[],"landslide_hist_n":0},"geometry":{"type":"Polygon","coordinates":[[[126.7062,37.53169],[126.70567,37.53602],[126.70148,37.53796],[126.69782,37.53556],[126.69835,37.53123],[126.70254,37.5293],[126.7062,37.53169]]]}},{"type":"Feature","properties":{"h3":"8830e0a1e3fffff","emd_code":"2824560100","emd_name":"효성1동","area_km2":0.5036,"edge":false,"slope_mean":7.23,"elev_mean":56.4,"flood_hist_n":0,"flood_depth_max_m":null,"flood_risk_100y":null,"semi_basement_r":null,"elderly_alone_r":0.1371,"bldg_age30_r":null,"shelter_min_walk":5,"pop":25397,"hh":11551,"elderly65_r":0.2303,"single_hh_r":0.3533,"source_level":"emd","flood_years":[],"landslide_hist_n":0},"geometry":{"type":"Polygon","coordinates":[[[126.71405,37.53215],[126.71352,37.53648],[126.70933,37.53842],[126.70567,37.53602],[126.7062,37.53169],[126.71039,37.52976],[126.71405,37.53215]]]}},{"type":"Feature","properties":{"h3":"8830e0a1e5fffff","emd_code":"2824560200","emd_name":"효성2동","area_km2":0.5034,"edge":false,"slope_mean":7.99,"elev_mean":54.4,"flood_hist_n":0,"flood_depth_max_m":null,"flood_risk_100y":null,"semi_basement_r":null,"elderly_alone_r":0.1166,"bldg_age30_r":null,"shelter_min_walk":2,"pop":29075,"hh":12642,"elderly65_r":0.2196,"single_hh_r":0.3068,"source_level":"emd","flood_years":[],"landslide_hist_n":0},"geometry":{"type":"Polygon","coordinates":[[[126.70307,37.52497],[126.70254,37.5293],[126.69835,37.53123],[126.69469,37.52884],[126.69523,37.52451],[126.69942,37.52257],[126.70307,37.52497]]]}},{"type":"Feature","properties":{"h3":"8830e0a1e7fffff","emd_code":"2824560200","emd_name":"효성2동","area_km2":0.5035,"edge":false,"slope_mean":3.59,"elev_mean":35.3,"flood_hist_n":0,"flood_depth_max_m":null,"flood_risk_100y":null,"semi_basement_r":null,"elderly_alone_r":0.1166,"bldg_age30_r":null,"shelter_min_walk":7,"pop":29075,"hh":12642,"elderly65_r":0.2196,"single_hh_r":0.3068,"source_level":"emd","flood_years":[],"landslide_hist_n":0},"geometry":{"type":"Polygon","coordinates":[[[126.71092,37.52543],[126.71039,37.52976],[126.7062,37.53169],[126.70254,37.5293],[126.70307,37.52497],[126.70727,37.52303],[126.71092,37.52543]]]}},{"type":"Feature","properties":{"h3":"8830e0a1e9fffff","emd_code":"2824560200","emd_name":"효성2동","area_km2":0.5034,"edge":false,"slope_mean":20.74,"elev_mean":178.3,"flood_hist_n":0,"flood_depth_max_m":null,"flood_risk_100y":null,"semi_basement_r":null,"elderly_alone_r":0.1166,"bldg_age30_r":null,"shelter_min_walk":17,"pop":29075,"hh":12642,"elderly65_r":0.2196,"single_hh_r":0.3068,"source_level":"emd","flood_years":[],"landslide_hist_n":0},"geometry":{"type":"Polygon","coordinates":[[[126.70148,37.53796],[126.70095,37.54229],[126.69676,37.54422],[126.6931,37.54183],[126.69363,37.5375],[126.69782,37.53556],[126.70148,37.53796]]]}},{"type":"Feature","properties":{"h3":"8830e0a1ebfffff","emd_code":"2824560100","emd_name":"효성1동","area_km2":0.5035,"edge":false,"slope_mean":19.26,"elev_mean":148.4,"flood_hist_n":0,"flood_depth_max_m":null,"flood_risk_100y":null,"semi_basement_r":null,"elderly_alone_r":0.1371,"bldg_age30_r":null,"shelter_min_walk":15,"pop":25397,"hh":11551,"elderly65_r":0.2303,"single_hh_r":0.3533,"source_level":"emd","flood_years":[],"landslide_hist_n":0},"geometry":{"type":"Polygon","coordinates":[[[126.70933,37.53842],[126.7088,37.54275],[126.70461,37.54468],[126.70095,37.54229],[126.70148,37.53796],[126.70567,37.53602],[126.70933,37.53842]]]}},{"type":"Feature","properties":{"h3":"8830e0a1edfffff","emd_code":"2824560200","emd_name":"효성2동","area_km2":0.5033,"edge":false,"slope_mean":17.59,"elev_mean":118.6,"flood_hist_n":0,"flood_depth_max_m":null,"flood_risk_100y":null,"semi_basement_r":null,"elderly_alone_r":0.1166,"bldg_age30_r":null,"shelter_min_walk":10,"pop":29075,"hh":12642,"elderly65_r":0.2196,"single_hh_r":0.3068,"source_level":"emd","flood_years":[],"landslide_hist_n":0},"geometry":{"type":"Polygon","coordinates":[[[126.69835,37.53123],[126.69782,37.53556],[126.69363,37.5375],[126.68997,37.5351],[126.6905,37.53077],[126.69469,37.52884],[126.69835,37.53123]]]}},{"type":"Feature","properties":{"h3":"8830e0a505fffff","emd_code":"2824573000","emd_name":"계양3동","area_km2":0.5049,"edge":true,"slope_mean":2.73,"elev_mean":10.0,"flood_hist_n":0,"flood_depth_max_m":null,"flood_risk_100y":null,"semi_basement_r":null,"elderly_alone_r":0.1055,"bldg_age30_r":null,"shelter_min_walk":64,"pop":22782,"hh":9700,"elderly65_r":0.1838,"single_hh_r":0.3147,"source_level":"emd","flood_years":[],"landslide_hist_n":0},"geometry":{"type":"Polygon","coordinates":[[[126.79892,37.58291],[126.79839,37.58725],[126.79419,37.58918],[126.79052,37.58679],[126.79105,37.58245],[126.79524,37.58051],[126.79892,37.58291]]]}},{"type":"Feature","properties":{"h3":"8830e0a529fffff","emd_code":"2824573000","emd_name":"계양3동","area_km2":0.5048,"edge":true,"slope_mean":1.49,"elev_mean":9.0,"flood_hist_n":0,"flood_depth_max_m":null,"flood_risk_100y":null,"semi_basement_r":null,"elderly_alone_r":0.1055,"bldg_age30_r":null,"shelter_min_walk":56,"pop":22782,"hh":9700,"elderly65_r":0.1838,"single_hh_r":0.3147,"source_level":"emd","flood_years":[],"landslide_hist_n":0},"geometry":{"type":"Polygon","coordinates":[[[126.79577,37.57618],[126.79524,37.58051],[126.79105,37.58245],[126.78737,37.58006],[126.7879,37.57572],[126.7921,37.57378],[126.79577,37.57618]]]}},{"type":"Feature","properties":{"h3":"8830e0a561fffff","emd_code":"2824573000","emd_name":"계양3동","area_km2":0.5047,"edge":false,"slope_mean":2.83,"elev_mean":7.8,"flood_hist_n":0,"flood_depth_max_m":null,"flood_risk_100y":null,"semi_basement_r":null,"elderly_alone_r":0.1055,"bldg_age30_r":null,"shelter_min_walk":45,"pop":22782,"hh":9700,"elderly65_r":0.1838,"single_hh_r":0.3147,"source_level":"emd","flood_years":[],"landslide_hist_n":0},"geometry":{"type":"Polygon","coordinates":[[[126.78318,37.582],[126.78265,37.58633],[126.77845,37.58827],[126.77478,37.58587],[126.77531,37.58154],[126.77951,37.5796],[126.78318,37.582]]]}},{"type":"Feature","properties":{"h3":"8830e0a563fffff","emd_code":"2824573000","emd_name":"계양3동","area_km2":0.5048,"edge":false,"slope_mean":1.56,"elev_mean":8.9,"flood_hist_n":0,"flood_depth_max_m":null,"flood_risk_100y":null,"semi_basement_r":null,"elderly_alone_r":0.1055,"bldg_age30_r":null,"shelter_min_walk":54,"pop":22782,"hh":9700,"elderly65_r":0.1838,"single_hh_r":0.3147,"source_level":"emd","flood_years":[],"landslide_hist_n":0},"geometry":{"type":"Polygon","coordinates":[[[126.79105,37.58245],[126.79052,37.58679],[126.78632,37.58873],[126.78265,37.58633],[126.78318,37.582],[126.78737,37.58006],[126.79105,37.58245]]]}},{"type":"Feature","properties":{"h3":"8830e0a565fffff","emd_code":"2824573000","emd_name":"계양3동","area_km2":0.5046,"edge":false,"slope_mean":2.32,"elev_mean":7.9,"flood_hist_n":0,"flood_depth_max_m":null,"flood_risk_100y":null,"semi_basement_r":null,"elderly_alone_r":0.1055,"bldg_age30_r":null,"shelter_min_walk":36,"pop":22782,"hh":9700,"elderly65_r":0.1838,"single_hh_r":0.3147,"source_level":"emd","flood_years":[],"landslide_hist_n":0},"geometry":{"type":"Polygon","coordinates":[[[126.78003,37.57527],[126.77951,37.5796],[126.77531,37.58154],[126.77164,37.57914],[126.77217,37.57481],[126.77636,37.57287],[126.78003,37.57527]]]}},{"type":"Feature","properties":{"h3":"8830e0a567fffff","emd_code":"2824573000","emd_name":"계양3동","area_km2":0.5047,"edge":false,"slope_mean":1.59,"elev_mean":8.5,"flood_hist_n":0,"flood_depth_max_m":null,"flood_risk_100y":null,"semi_basement_r":null,"elderly_alone_r":0.1055,"bldg_age30_r":null,"shelter_min_walk":46,"pop":22782,"hh":9700,"elderly65_r":0.1838,"single_hh_r":0.3147,"source_level":"emd","flood_years":[],"landslide_hist_n":0},"geometry":{"type":"Polygon","coordinates":[[[126.7879,37.57572],[126.78737,37.58006],[126.78318,37.582],[126.77951,37.5796],[126.78003,37.57527],[126.78423,37.57333],[126.7879,37.57572]]]}},{"type":"Feature","properties":{"h3":"8830e0a56dfffff","emd_code":"2824573000","emd_name":"계양3동","area_km2":0.5045,"edge":false,"slope_mean":2.41,"elev_mean":6.7,"flood_hist_n":1,"flood_depth_max_m":0.77,"flood_risk_100y":null,"semi_basement_r":null,"elderly_alone_r":0.1055,"bldg_age30_r":null,"shelter_min_walk":36,"pop":22782,"hh":9700,"elderly65_r":0.1838,"single_hh_r":0.3147,"source_level":"emd","flood_years":[2006],"landslide_hist_n":0},"geometry":{"type":"Polygon","coordinates":[[[126.77531,37.58154],[126.77478,37.58587],[126.77058,37.58781],[126.76691,37.58541],[126.76744,37.58108],[126.77164,37.57914],[126.77531,37.58154]]]}},{"type":"Feature","properties":{"h3":"8830e0aad9fffff","emd_code":"2824560200","emd_name":"효성2동","area_km2":0.5033,"edge":true,"slope_mean":10.34,"elev_mean":54.7,"flood_hist_n":0,"flood_depth_max_m":null,"flood_risk_100y":null,"semi_basement_r":null,"elderly_alone_r":0.1166,"bldg_age30_r":null,"shelter_min_walk":3,"pop":29075,"hh":12642,"elderly65_r":0.2196,"single_hh_r":0.3068,"source_level":"emd","flood_years":[],"landslide_hist_n":0},"geometry":{"type":"Polygon","coordinates":[[[126.69995,37.51824],[126.69942,37.52257],[126.69523,37.52451],[126.69157,37.52212],[126.6921,37.51779],[126.69629,37.51585],[126.69995,37.51824]]]}},{"type":"Feature","properties":{"h3":"8830e0aadbfffff","emd_code":"2824560200","emd_name":"효성2동","area_km2":0.5034,"edge":true,"slope_mean":3.85,"elev_mean":27.2,"flood_hist_n":0,"flood_depth_max_m":null,"flood_risk_100y":null,"semi_basement_r":null,"elderly_alone_r":0.1166,"bldg_age30_r":null,"shelter_min_walk":5,"pop":29075,"hh":12642,"elderly65_r":0.2196,"single_hh_r":0.3068,"source_level":"emd","flood_years":[],"landslide_hist_n":0},"geometry":{"type":"Polygon","coordinates":[[[126.7078,37.5187],[126.70727,37.52303],[126.70307,37.52497],[126.69942,37.52257],[126.69995,37.51824],[126.70414,37.51631],[126.7078,37.5187]]]}},{"type":"Feature","properties":{"h3":"8830e0ae41fffff","emd_code":"2824573000","emd_name":"계양3동","area_km2":0.5043,"edge":false,"slope_mean":1.91,"elev_mean":9.2,"flood_hist_n":0,"flood_depth_max_m":null,"flood_risk_100y":null,"semi_basement_r":null,"elderly_alone_r":0.1055,"bldg_age30_r":null,"shelter_min_walk":4,"pop":22782,"hh":9700,"elderly65_r":0.1838,"single_hh_r":0.3147,"source_level":"emd","flood_years":[],"landslide_hist_n":0},"geometry":{"type":"Polygon","coordinates":[[[126.76274,37.55462],[126.76222,37.55895],[126.75802,37.56089],[126.75435,37.5585],[126.75488,37.55416],[126.75908,37.55223],[126.76274,37.55462]]]}},{"type":"Feature","properties":{"h3":"8830e0ae43fffff","emd_code":"2824573000","emd_name":"계양3동","area_km2":0.5044,"edge":false,"slope_mean":1.64,"elev_mean":7.4,"flood_hist_n":0,"flood_depth_max_m":null,"flood_risk_100y":null,"semi_basement_r":null,"elderly_alone_r":0.1055,"bldg_age30_r":null,"shelter_min_walk":14,"pop":22782,"hh":9700,"elderly65_r":0.1838,"single_hh_r":0.3147,"source_level":"emd","flood_years":[],"landslide_hist_n":0},"geometry":{"type":"Polygon","coordinates":[[[126.77061,37.55508],[126.77008,37.55941],[126.76588,37.56135],[126.76222,37.55895],[126.76274,37.55462],[126.76694,37.55268],[126.77061,37.55508]]]}},{"type":"Feature","properties":{"h3":"8830e0ae45fffff","emd_code":"2824571000","emd_name":"계양1동","area_km2":0.5042,"edge":false,"slope_mean":0.93,"elev_mean":7.3,"flood_hist_n":0,"flood_depth_max_m":null,"flood_risk_100y":null,"semi_basement_r":null,"elderly_alone_r":0.133,"bldg_age30_r":null,"shelter_min_walk":14,"pop":18443,"hh":8193,"elderly65_r":0.2391,"single_hh_r":0.342,"source_level":"emd","flood_years":[],"landslide_hist_n":0},"geometry":{"type":"Polygon","coordinates":[[[126.75961,37.54789],[126.75908,37.55223],[126.75488,37.55416],[126.75122,37.55177],[126.75175,37.54744],[126.75594,37.5455],[126.75961,37.54789]]]}},{"type":"Feature","properties":{"h3":"8830e0ae47fffff","emd_code":"2824573000","emd_name":"계양3동","area_km2":0.5043,"edge":false,"slope_mean":1.67,"elev_mean":7.4,"flood_hist_n":0,"flood_depth_max_m":null,"flood_risk_100y":null,"semi_basement_r":null,"elderly_alone_r":0.1055,"bldg_age30_r":null,"shelter_min_walk":16,"pop":22782,"hh":9700,"elderly65_r":0.1838,"single_hh_r":0.3147,"source_level":"emd","flood_years":[],"landslide_hist_n":0},"geometry":{"type":"Polygon","coordinates":[[[126.76747,37.54835],[126.76694,37.55268],[126.76274,37.55462],[126.75908,37.55223],[126.75961,37.54789],[126.7638,37.54596],[126.76747,37.54835]]]}},{"type":"Feature","properties":{"h3":"8830e0ae49fffff","emd_code":"2824573000","emd_name":"계양3동","area_km2":0.5043,"edge":false,"slope_mean":6.68,"elev_mean":18.8,"flood_hist_n":0,"flood_depth_max_m":null,"flood_risk_100y":null,"semi_basement_r":null,"elderly_alone_r":0.1055,"bldg_age30_r":null,"shelter_min_walk":8,"pop":22782,"hh":9700,"elderly65_r":0.1838,"single_hh_r":0.3147,"source_level":"emd","flood_years":[],"landslide_hist_n":0},"geometry":{"type":"Polygon","coordinates":[[[126.75802,37.56089],[126.75749,37.56522],[126.7533,37.56716],[126.74963,37.56477],[126.75016,37.56043],[126.75435,37.5585],[126.75802,37.56089]]]}},{"type":"Feature","properties":{"h3":"8830e0ae4bfffff","emd_code":"2824573000","emd_name":"계양3동","area_km2":0.5044,"edge":false,"slope_mean":2.36,"elev_mean":9.3,"flood_hist_n":0,"flood_depth_max_m":null,"flood_risk_100y":null,"semi_basement_r":null,"elderly_alone_r":0.1055,"bldg_age30_r":null,"shelter_min_walk":11,"pop":22782,"hh":9700,"elderly65_r":0.1838,"single_hh_r":0.3147,"source_level":"emd","flood_years":[],"landslide_hist_n":0},"geometry":{"type":"Polygon","coordinates":[[[126.76588,37.56135],[126.76536,37.56568],[126.76116,37.56762],[126.75749,37.56522],[126.75802,37.56089],[126.76222,37.55895],[126.76588,37.56135]]]}},{"type":"Feature","properties":{"h3":"8830e0ae4dfffff","emd_code":"2824573000","emd_name":"계양3동","area_km2":0.5042,"edge":false,"slope_mean":3.48,"elev_mean":12.8,"flood_hist_n":0,"flood_depth_max_m":null,"flood_risk_100y":null,"semi_basement_r":null,"elderly_alone_r":0.1055,"bldg_age30_r":null,"shelter_min_walk":5,"pop":22782,"hh":9700,"elderly65_r":0.1838,"single_hh_r":0.3147,"source_level":"emd","flood_years":[],"landslide_hist_n":0},"geometry":{"type":"Polygon","coordinates":[[[126.75488,37.55416],[126.75435,37.5585],[126.75016,37.56043],[126.74649,37.55804],[126.74702,37.55371],[126.75122,37.55177],[126.75488,37.55416]]]}},{"type":"Feature","properties":{"h3":"8830e0ae51fffff","emd_code":"2824573000","emd_name":"계양3동","area_km2":0.5046,"edge":true,"slope_mean":1.04,"elev_mean":8.2,"flood_hist_n":0,"flood_depth_max_m":null,"flood_risk_100y":null,"semi_basement_r":null,"elderly_alone_r":0.1055,"bldg_age30_r":null,"shelter_min_walk":30,"pop":22782,"hh":9700,"elderly65_r":0.1838,"single_hh_r":0.3147,"source_level":"emd","flood_years":[],"landslide_hist_n":0},"geometry":{"type":"Polygon","coordinates":[[[126.78161,37.56226],[126.78109,37.5666],[126.77689,37.56854],[126.77322,37.56614],[126.77375,37.56181],[126.77794,37.55987],[126.78161,37.56226]]]}},{"type":"Feature","properties":{"h3":"8830e0ae55fffff","emd_code":"2824573000","emd_name":"계양3동","area_km2":0.5045,"edge":true,"slope_mean":0.87,"elev_mean":7.7,"flood_hist_n":0,"flood_depth_max_m":null,"flood_risk_100y":null,"semi_basement_r":null,"elderly_alone_r":0.1055,"bldg_age30_r":null,"shelter_min_walk":24,"pop":22782,"hh":9700,"elderly65_r":0.1838,"single_hh_r":0.3147,"source_level":"emd","flood_years":[],"landslide_hist_n":0},"geometry":{"type":"Polygon","coordinates":[[[126.77847,37.55553],[126.77794,37.55987],[126.77375,37.56181],[126.77008,37.55941],[126.77061,37.55508],[126.7748,37.55314],[126.77847,37.55553]]]}},{"type":"Feature","properties":{"h3":"8830e0ae59fffff","emd_code":"2824573000","emd_name":"계양3동","area_km2":0.5045,"edge":false,"slope_mean":1.75,"elev_mean":8.0,"flood_hist_n":0,"flood_depth_max_m":null,"flood_risk_100y":null,"semi_basement_r":null,"elderly_alone_r":0.1055,"bldg_age30_r":null,"shelter_min_walk":29,"pop":22782,"hh":9700,"elderly65_r":0.1838,"single_hh_r":0.3147,"source_level":"emd","flood_years":[],"landslide_hist_n":0},"geometry":{"type":"Polygon","coordinates":[[[126.77689,37.56854],[126.77636,37.57287],[126.77217,37.57481],[126.7685,37.57241],[126.76902,37.56808],[126.77322,37.56614],[126.77689,37.56854]]]}},{"type":"Feature","properties":{"h3":"8830e0ae5bfffff","emd_code":"2824573000","emd_name":"계양3동","area_km2":0.5046,"edge":false,"slope_mean":0.97,"elev_mean":9.1,"flood_hist_n":0,"flood_depth_max_m":null,"flood_risk_100y":null,"semi_basement_r":null,"elderly_alone_r":0.1055,"bldg_age30_r":null,"shelter_min_walk":39,"pop":22782,"hh":9700,"elderly65_r":0.1838,"single_hh_r":0.3147,"source_level":"emd","flood_years":[],"landslide_hist_n":0},"geometry":{"type":"Polygon","coordinates":[[[126.78476,37.56899],[126.78423,37.57333],[126.78003,37.57527],[126.77636,37.57287],[126.77689,37.56854],[126.78109,37.5666],[126.78476,37.56899]]]}},{"type":"Feature","properties":{"h3":"8830e0ae5dfffff","emd_code":"2824573000","emd_name":"계양3동","area_km2":0.5045,"edge":false,"slope_mean":1.65,"elev_mean":7.3,"flood_hist_n":0,"flood_depth_max_m":null,"flood_risk_100y":null,"semi_basement_r":null,"elderly_alone_r":0.1055,"bldg_age30_r":null,"shelter_min_walk":20,"pop":22782,"hh":9700,"elderly65_r":0.1838,"single_hh_r":0.3147,"source_level":"emd","flood_years":[],"landslide_hist_n":0},"geometry":{"type":"Polygon","coordinates":[[[126.77375,37.56181],[126.77322,37.56614],[126.76902,37.56808],[126.76536,37.56568],[126.76588,37.56135],[126.77008,37.55941],[126.77375,37.56181]]]}},{"type":"Feature","properties":{"h3":"8830e0ae61fffff","emd_code":"2824564000","emd_name":"작전서운동","area_km2":0.5042,"edge":false,"slope_mean":1.48,"elev_mean":7.6,"flood_hist_n":1,"flood_depth_max_m":0.78,"flood_risk_100y":null,"semi_basement_r":null,"elderly_alone_r":0.1054,"bldg_age30_r":null,"shelter_min_walk":22,"pop":31691,"hh":13998,"elderly65_r":0.1691,"single_hh_r":0.3506,"source_level":"emd","flood_years":[2006],"landslide_hist_n":0},"geometry":{"type":"Polygon","coordinates":[[[126.76119,37.53489],[126.76066,37.53923],[126.75647,37.54117],[126.7528,37.53877],[126.75333,37.53444],[126.75752,37.5325],[126.76119,37.53489]]]}},{"type":"Feature","properties":{"h3":"8830e0ae63fffff","emd_code":"2824564000","emd_name":"작전서운동","area_km2":0.5043,"edge":true,"slope_mean":1.93,"elev_mean":7.2,"flood_hist_n":0,"flood_depth_max_m":null,"flood_risk_100y":null,"semi_basement_r":null,"elderly_alone_r":0.1054,"bldg_age30_r":null,"shelter_min_walk":31,"pop":31691,"hh":13998,"elderly65_r":0.1691,"single_hh_r":0.3506,"source_level":"emd","flood_years":[],"landslide_hist_n":0},"geometry":{"type":"Polygon","coordinates":[[[126.76905,37.53535],[126.76852,37.53968],[126.76433,37.54162],[126.76066,37.53923],[126.76119,37.53489],[126.76538,37.53296],[126.76905,37.53535]]]}},{"type":"Feature","properties":{"h3":"8830e0ae65fffff","emd_code":"2824564000","emd_name":"작전서운동","area_km2":0.5042,"edge":false,"slope_mean":2.58,"elev_mean":9.2,"flood_hist_n":1,"flood_depth_max_m":1.37,"flood_risk_100y":null,"semi_basement_r":null,"elderly_alone_r":0.1054,"bldg_age30_r":null,"shelter_min_walk":13,"pop":31691,"hh":13998,"elderly65_r":0.1691,"single_hh_r":0.3506,"source_level":"emd","flood_years":[2006],"landslide_hist_n":0},"geometry":{"type":"Polygon","coordinates":[[[126.75805,37.52817],[126.75752,37.5325],[126.75333,37.53444],[126.74967,37.53204],[126.75019,37.52771],[126.75439,37.52577],[126.75805,37.52817]]]}},{"type":"Feature","properties":{"h3":"8830e0ae67fffff","emd_code":"2824564000","emd_name":"작전서운동","area_km2":0.5043,"edge":true,"slope_mean":3.29,"elev_mean":9.0,"flood_hist_n":1,"flood_depth_max_m":0.78,"flood_risk_100y":null,"semi_basement_r":null,"elderly_alone_r":0.1054,"bldg_age30_r":null,"shelter_min_walk":23,"pop":31691,"hh":13998,"elderly65_r":0.1691,"single_hh_r":0.3506,"source_level":"emd","flood_years":[2006],"landslide_hist_n":0},"geometry":{"type":"Polygon","coordinates":[[[126.76591,37.52862],[126.76538,37.53296],[126.76119,37.53489],[126.75752,37.5325],[126.75805,37.52817],[126.76225,37.52623],[126.76591,37.52862]]]}},{"type":"Feature","properties":{"h3":"8830e0ae69fffff","emd_code":"2824572000","emd_name":"계양2동","area_km2":0.5042,"edge":false,"slope_mean":2.13,"elev_mean":8.7,"flood_hist_n":0,"flood_depth_max_m":null,"flood_risk_100y":null,"semi_basement_r":null,"elderly_alone_r":0.1707,"bldg_age30_r":null,"shelter_min_walk":13,"pop":30160,"hh":15754,"elderly65_r":0.2354,"single_hh_r":0.48,"source_level":"emd","flood_years":[],"landslide_hist_n":0},"geometry":{"type":"Polygon","coordinates":[[[126.75647,37.54117],[126.75594,37.5455],[126.75175,37.54744],[126.74808,37.54504],[126.74861,37.54071],[126.7528,37.53877],[126.75647,37.54117]]]}},{"type":"Feature","properties":{"h3":"8830e0ae6bfffff","emd_code":"2824571000","emd_name":"계양1동","area_km2":0.5043,"edge":false,"slope_mean":1.59,"elev_mean":7.2,"flood_hist_n":0,"flood_depth_max_m":null,"flood_risk_100y":null,"semi_basement_r":null,"elderly_alone_r":0.133,"bldg_age30_r":null,"shelter_min_walk":23,"pop":18443,"hh":8193,"elderly65_r":0.2391,"single_hh_r":0.342,"source_level":"emd","flood_years":[],"landslide_hist_n":0},"geometry":{"type":"Polygon","coordinates":[[[126.76433,37.54162],[126.7638,37.54596],[126.75961,37.54789],[126.75594,37.5455],[126.75647,37.54117],[126.76066,37.53923],[126.76433,37.54162]]]}},{"type":"Feature","properties":{"h3":"8830e0ae6dfffff","emd_code":"2824564000","emd_name":"작전서운동","area_km2":0.5041,"edge":false,"slope_mean":2.76,"elev_mean":9.2,"flood_hist_n":0,"flood_depth_max_m":null,"flood_risk_100y":null,"semi_basement_r":null,"elderly_alone_r":0.1054,"bldg_age30_r":null,"shelter_min_walk":12,"pop":31691,"hh":13998,"elderly65_r":0.1691,"single_hh_r":0.3506,"source_level":"emd","flood_years":[],"landslide_hist_n":0},"geometry":{"type":"Polygon","coordinates":[[[126.75333,37.53444],[126.7528,37.53877],[126.74861,37.54071],[126.74494,37.53831],[126.74547,37.53398],[126.74967,37.53204],[126.75333,37.53444]]]}},{"type":"Feature","properties":{"h3":"8830e0af59fffff","emd_code":"2824564000","emd_name":"작전서운동","area_km2":0.5041,"edge":true,"slope_mean":3.2,"elev_mean":9.6,"flood_hist_n":0,"flood_depth_max_m":null,"flood_risk_100y":null,"semi_basement_r":null,"elderly_alone_r":0.1054,"bldg_age30_r":null,"shelter_min_walk":8,"pop":31691,"hh":13998,"elderly65_r":0.1691,"single_hh_r":0.3506,"source_level":"emd","flood_years":[],"landslide_hist_n":0},"geometry":{"type":"Polygon","coordinates":[[[126.75492,37.52144],[126.75439,37.52577],[126.75019,37.52771],[126.74653,37.52532],[126.74706,37.52099],[126.75125,37.51905],[126.75492,37.52144]]]}},{"type":"Feature","properties":{"h3":"8830e0af5bfffff","emd_code":"2824564000","emd_name":"작전서운동","area_km2":0.5042,"edge":true,"slope_mean":2.93,"elev_mean":8.4,"flood_hist_n":0,"flood_depth_max_m":null,"flood_risk_100y":null,"semi_basement_r":null,"elderly_alone_r":0.1054,"bldg_age30_r":null,"shelter_min_walk":18,"pop":31691,"hh":13998,"elderly65_r":0.1691,"single_hh_r":0.3506,"source_level":"emd","flood_years":[],"landslide_hist_n":0},"geometry":{"type":"Polygon","coordinates":[[[126.76277,37.5219],[126.76225,37.52623],[126.75805,37.52817],[126.75439,37.52577],[126.75492,37.52144],[126.75911,37.5195],[126.76277,37.5219]]]}}]}