{"type":"FeatureCollection","name":"grid_28290_h3r8","meta":{"sgg_code":"28290","h3_res":8,"n_cells":152,"dem":"Copernicus GLO-30 (bbox-mean)","crs":"EPSG:4326","jumin_basis":"2026-07","flood_src":"행안부 침수흔적도(전국, 재난안전데이터공유플랫폼)","landslide_src":"행안부 산사태 발생이력"},"features":[{"type":"Feature","properties":{"h3":"8830e0a001fffff","emd_code":"2829054000","emd_name":"당하동","area_km2":0.5034,"edge":false,"slope_mean":10.43,"elev_mean":44.0,"flood_hist_n":0,"flood_depth_max_m":null,"flood_risk_100y":null,"semi_basement_r":null,"elderly_alone_r":0.0847,"bldg_age30_r":null,"shelter_min_walk":14,"pop":43349,"hh":18857,"elderly65_r":0.1407,"single_hh_r":0.3406,"source_level":"emd","flood_years":[],"landslide_hist_n":0},"geometry":{"type":"Polygon","coordinates":[[[126.69197,37.58319],[126.69144,37.58752],[126.68725,37.58946],[126.68358,37.58706],[126.68412,37.58273],[126.68831,37.5808],[126.69197,37.58319]]]}},{"type":"Feature","properties":{"h3":"8830e0a003fffff","emd_code":"2829053000","emd_name":"원당동","area_km2":0.5035,"edge":false,"slope_mean":9.83,"elev_mean":47.0,"flood_hist_n":0,"flood_depth_max_m":null,"flood_risk_100y":null,"semi_basement_r":null,"elderly_alone_r":0.0898,"bldg_age30_r":null,"shelter_min_walk":10,"pop":23254,"hh":10331,"elderly65_r":0.1419,"single_hh_r":0.3826,"source_level":"emd","flood_years":[],"landslide_hist_n":0},"geometry":{"type":"Polygon","coordinates":[[[126.69983,37.58366],[126.69929,37.58799],[126.6951,37.58992],[126.69144,37.58752],[126.69197,37.58319],[126.69616,37.58126],[126.69983,37.58366]]]}},{"type":"Feature","properties":{"h3":"8830e0a005fffff","emd_code":"2829054000","emd_name":"당하동","area_km2":0.5033,"edge":true,"slope_mean":12.02,"elev_mean":51.3,"flood_hist_n":0,"flood_depth_max_m":null,"flood_risk_100y":null,"semi_basement_r":null,"elderly_alone_r":0.0847,"bldg_age30_r":null,"shelter_min_walk":16,"pop":43349,"hh":18857,"elderly65_r":0.1407,"single_hh_r":0.3406,"source_level":"emd","flood_years":[],"landslide_hist_n":0},"geometry":{"type":"Polygon","coordinates":[[[126.68884,37.57647],[126.68831,37.5808],[126.68412,37.58273],[126.68046,37.58033],[126.68099,37.576],[126.68518,37.57407],[126.68884,37.57647]]]}},{"type":"Feature","properties":{"h3":"8830e0a007fffff","emd_code":"2829053000","emd_name":"원당동","area_km2":0.5034,"edge":true,"slope_mean":13.53,"elev_mean":62.7,"flood_hist_n":0,"flood_depth_max_m":null,"flood_risk_100y":null,"semi_basement_r":null,"elderly_alone_r":0.0898,"bldg_age30_r":null,"shelter_min_walk":21,"pop":23254,"hh":10331,"elderly65_r":0.1419,"single_hh_r":0.3826,"source_level":"emd","flood_years":[],"landslide_hist_n":0},"geometry":{"type":"Polygon","coordinates":[[[126.6967,37.57693],[126.69616,37.58126],[126.69197,37.58319],[126.68831,37.5808],[126.68884,37.57647],[126.69304,37.57453],[126.6967,37.57693]]]}},{"type":"Feature","properties":{"h3":"8830e0a009fffff","emd_code":"2829054000","emd_name":"당하동","area_km2":0.5033,"edge":false,"slope_mean":8.07,"elev_mean":34.4,"flood_hist_n":0,"flood_depth_max_m":null,"flood_risk_100y":null,"semi_basement_r":null,"elderly_alone_r":0.0847,"bldg_age30_r":null,"shelter_min_walk":12,"pop":43349,"hh":18857,"elderly65_r":0.1407,"single_hh_r":0.3406,"source_level":"emd","flood_years":[],"landslide_hist_n":0},"geometry":{"type":"Polygon","coordinates":[[[126.68725,37.58946],[126.68671,37.59379],[126.68252,37.59572],[126.67886,37.59332],[126.67939,37.58899],[126.68358,37.58706],[126.68725,37.58946]]]}},{"type":"Feature","properties":{"h3":"8830e0a00bfffff","emd_code":"2829053000","emd_name":"원당동","area_km2":0.5035,"edge":false,"slope_mean":9.29,"elev_mean":48.3,"flood_hist_n":0,"flood_depth_max_m":null,"flood_risk_100y":null,"semi_basement_r":null,"elderly_alone_r":0.0898,"bldg_age30_r":null,"shelter_min_walk":3,"pop":23254,"hh":10331,"elderly65_r":0.1419,"single_hh_r":0.3826,"source_level":"emd","flood_years":[],"landslide_hist_n":0},"geometry":{"type":"Polygon","coordinates":[[[126.6951,37.58992],[126.69457,37.59425],[126.69037,37.59619],[126.68671,37.59379],[126.68725,37.58946],[126.69144,37.58752],[126.6951,37.58992]]]}},{"type":"Feature","properties":{"h3":"8830e0a00dfffff","emd_code":"2829054000","emd_name":"당하동","area_km2":0.5033,"edge":false,"slope_mean":7.92,"elev_mean":30.4,"flood_hist_n":0,"flood_depth_max_m":null,"flood_risk_100y":null,"semi_basement_r":null,"elderly_alone_r":0.0847,"bldg_age30_r":null,"shelter_min_walk":5,"pop":43349,"hh":18857,"elderly65_r":0.1407,"single_hh_r":0.3406,"source_level":"emd","flood_years":[],"landslide_hist_n":0},"geometry":{"type":"Polygon","coordinates":[[[126.68412,37.58273],[126.68358,37.58706],[126.67939,37.58899],[126.67573,37.5866],[126.67626,37.58227],[126.68046,37.58033],[126.68412,37.58273]]]}},{"type":"Feature","properties":{"h3":"8830e0a011fffff","emd_code":"2829058000","emd_name":"아라2동","area_km2":0.5037,"edge":false,"slope_mean":8.66,"elev_mean":29.1,"flood_hist_n":0,"flood_depth_max_m":null,"flood_risk_100y":null,"semi_basement_r":null,"elderly_alone_r":0.0439,"bldg_age30_r":null,"shelter_min_walk":7,"pop":32297,"hh":11481,"elderly65_r":0.0733,"single_hh_r":0.1826,"source_level":"emd","flood_years":[],"landslide_hist_n":0},"geometry":{"type":"Polygon","coordinates":[[[126.71082,37.59085],[126.71028,37.59518],[126.70609,37.59711],[126.70243,37.59472],[126.70296,37.59039],[126.70715,37.58845],[126.71082,37.59085]]]}},{"type":"Feature","properties":{"h3":"8830e0a013fffff","emd_code":"2829058000","emd_name":"아라2동","area_km2":0.5038,"edge":false,"slope_mean":5.83,"elev_mean":17.1,"flood_hist_n":0,"flood_depth_max_m":null,"flood_risk_100y":null,"semi_basement_r":null,"elderly_alone_r":0.0439,"bldg_age30_r":null,"shelter_min_walk":3,"pop":32297,"hh":11481,"elderly65_r":0.0733,"single_hh_r":0.1826,"source_level":"emd","flood_years":[],"landslide_hist_n":0},"geometry":{"type":"Polygon","coordinates":[[[126.71867,37.59131],[126.71814,37.59564],[126.71395,37.59758],[126.71028,37.59518],[126.71082,37.59085],[126.71501,37.58891],[126.71867,37.59131]]]}},{"type":"Feature","properties":{"h3":"8830e0a015fffff","emd_code":"2829057000","emd_name":"아라1동","area_km2":0.5036,"edge":false,"slope_mean":9.59,"elev_mean":35.7,"flood_hist_n":0,"flood_depth_max_m":null,"flood_risk_100y":null,"semi_basement_r":null,"elderly_alone_r":0.0422,"bldg_age30_r":null,"shelter_min_walk":5,"pop":46982,"hh":18087,"elderly65_r":0.0687,"single_hh_r":0.2434,"source_level":"emd","flood_years":[],"landslide_hist_n":0},"geometry":{"type":"Polygon","coordinates":[[[126.70768,37.58412],[126.70715,37.58845],[126.70296,37.59039],[126.69929,37.58799],[126.69983,37.58366],[126.70402,37.58172],[126.70768,37.58412]]]}},{"type":"Feature","properties":{"h3":"8830e0a017fffff","emd_code":"2829057000","emd_name":"아라1동","area_km2":0.5037,"edge":false,"slope_mean":6.55,"elev_mean":20.3,"flood_hist_n":0,"flood_depth_max_m":null,"flood_risk_100y":null,"semi_basement_r":null,"elderly_alone_r":0.0422,"bldg_age30_r":null,"shelter_min_walk":8,"pop":46982,"hh":18087,"elderly65_r":0.0687,"single_hh_r":0.2434,"source_level":"emd","flood_years":[],"landslide_hist_n":0},"geometry":{"type":"Polygon","coordinates":[[[126.71554,37.58458],[126.71501,37.58891],[126.71082,37.59085],[126.70715,37.58845],[126.70768,37.58412],[126.71188,37.58219],[126.71554,37.58458]]]}},{"type":"Feature","properties":{"h3":"8830e0a019fffff","emd_code":"2829053000","emd_name":"원당동","area_km2":0.5036,"edge":false,"slope_mean":10.54,"elev_mean":50.8,"flood_hist_n":0,"flood_depth_max_m":null,"flood_risk_100y":null,"semi_basement_r":null,"elderly_alone_r":0.0898,"bldg_age30_r":null,"shelter_min_walk":4,"pop":23254,"hh":10331,"elderly65_r":0.1419,"single_hh_r":0.3826,"source_level":"emd","flood_years":[],"landslide_hist_n":0},"geometry":{"type":"Polygon","coordinates":[[[126.70609,37.59711],[126.70556,37.60144],[126.70136,37.60338],[126.6977,37.60098],[126.69823,37.59665],[126.70243,37.59472],[126.70609,37.59711]]]}},{"type":"Feature","properties":{"h3":"8830e0a01bfffff","emd_code":"2829058000","emd_name":"아라2동","area_km2":0.5037,"edge":false,"slope_mean":11.92,"elev_mean":41.1,"flood_hist_n":0,"flood_depth_max_m":null,"flood_risk_100y":null,"semi_basement_r":null,"elderly_alone_r":0.0439,"bldg_age30_r":null,"shelter_min_walk":4,"pop":32297,"hh":11481,"elderly65_r":0.0733,"single_hh_r":0.1826,"source_level":"emd","flood_years":[],"landslide_hist_n":0},"geometry":{"type":"Polygon","coordinates":[[[126.71395,37.59758],[126.71342,37.60191],[126.70922,37.60384],[126.70556,37.60144],[126.70609,37.59711],[126.71028,37.59518],[126.71395,37.59758]]]}},{"type":"Feature","properties":{"h3":"8830e0a01dfffff","emd_code":"2829053000","emd_name":"원당동","area_km2":0.5036,"edge":false,"slope_mean":6.61,"elev_mean":27.9,"flood_hist_n":0,"flood_depth_max_m":null,"flood_risk_100y":null,"semi_basement_r":null,"elderly_alone_r":0.0898,"bldg_age30_r":null,"shelter_min_walk":3,"pop":23254,"hh":10331,"elderly65_r":0.1419,"single_hh_r":0.3826,"source_level":"emd","flood_years":[],"landslide_hist_n":0},"geometry":{"type":"Polygon","coordinates":[[[126.70296,37.59039],[126.70243,37.59472],[126.69823,37.59665],[126.69457,37.59425],[126.6951,37.58992],[126.69929,37.58799],[126.70296,37.59039]]]}},{"type":"Feature","properties":{"h3":"8830e0a029fffff","emd_code":"2829054000","emd_name":"당하동","area_km2":0.5033,"edge":false,"slope_mean":7.11,"elev_mean":18.0,"flood_hist_n":0,"flood_depth_max_m":null,"flood_risk_100y":null,"semi_basement_r":null,"elderly_alone_r":0.0847,"bldg_age30_r":null,"shelter_min_walk":6,"pop":43349,"hh":18857,"elderly65_r":0.1407,"single_hh_r":0.3406,"source_level":"emd","flood_years":[],"landslide_hist_n":0},"geometry":{"type":"Polygon","coordinates":[[[126.68571,37.56974],[126.68518,37.57407],[126.68099,37.576],[126.67733,37.57361],[126.67786,37.56928],[126.68205,37.56735],[126.68571,37.56974]]]}},{"type":"Feature","properties":{"h3":"8830e0a02bfffff","emd_code":"2829054000","emd_name":"당하동","area_km2":0.5034,"edge":false,"slope_mean":10.4,"elev_mean":34.0,"flood_hist_n":0,"flood_depth_max_m":null,"flood_risk_100y":null,"semi_basement_r":null,"elderly_alone_r":0.0847,"bldg_age30_r":null,"shelter_min_walk":10,"pop":43349,"hh":18857,"elderly65_r":0.1407,"single_hh_r":0.3406,"source_level":"emd","flood_years":[],"landslide_hist_n":0},"geometry":{"type":"Polygon","coordinates":[[[126.69357,37.5702],[126.69304,37.57453],[126.68884,37.57647],[126.68518,37.57407],[126.68571,37.56974],[126.68991,37.56781],[126.69357,37.5702]]]}},{"type":"Feature","properties":{"h3":"8830e0a039fffff","emd_code":"2829053000","emd_name":"원당동","area_km2":0.5036,"edge":true,"slope_mean":10.08,"elev_mean":38.6,"flood_hist_n":0,"flood_depth_max_m":null,"flood_risk_100y":null,"semi_basement_r":null,"elderly_alone_r":0.0898,"bldg_age30_r":null,"shelter_min_walk":16,"pop":23254,"hh":10331,"elderly65_r":0.1419,"single_hh_r":0.3826,"source_level":"emd","flood_years":[],"landslide_hist_n":0},"geometry":{"type":"Polygon","coordinates":[[[126.70455,37.57739],[126.70402,37.58172],[126.69983,37.58366],[126.69616,37.58126],[126.6967,37.57693],[126.70089,37.575],[126.70455,37.57739]]]}},{"type":"Feature","properties":{"h3":"8830e0a03bfffff","emd_code":"2829057000","emd_name":"아라1동","area_km2":0.5037,"edge":false,"slope_mean":7.23,"elev_mean":30.1,"flood_hist_n":0,"flood_depth_max_m":null,"flood_risk_100y":null,"semi_basement_r":null,"elderly_alone_r":0.0422,"bldg_age30_r":null,"shelter_min_walk":14,"pop":46982,"hh":18087,"elderly65_r":0.0687,"single_hh_r":0.2434,"source_level":"emd","flood_years":[],"landslide_hist_n":0},"geometry":{"type":"Polygon","coordinates":[[[126.71241,37.57786],[126.71188,37.58219],[126.70768,37.58412],[126.70402,37.58172],[126.70455,37.57739],[126.70875,37.57546],[126.71241,37.57786]]]}},{"type":"Feature","properties":{"h3":"8830e0a03dfffff","emd_code":"2829054000","emd_name":"당하동","area_km2":0.5035,"edge":false,"slope_mean":13.69,"elev_mean":48.1,"flood_hist_n":0,"flood_depth_max_m":null,"flood_risk_100y":null,"semi_basement_r":null,"elderly_alone_r":0.0847,"bldg_age30_r":null,"shelter_min_walk":17,"pop":43349,"hh":18857,"elderly65_r":0.1407,"single_hh_r":0.3406,"source_level":"emd","flood_years":[],"landslide_hist_n":0},"geometry":{"type":"Polygon","coordinates":[[[126.70142,37.57067],[126.70089,37.575],[126.6967,37.57693],[126.69304,37.57453],[126.69357,37.5702],[126.69776,37.56827],[126.70142,37.57067]]]}},{"type":"Feature","properties":{"h3":"8830e0a041fffff","emd_code":"2829056000","emd_name":"마전동","area_km2":0.5032,"edge":false,"slope_mean":9.05,"elev_mean":33.9,"flood_hist_n":0,"flood_depth_max_m":null,"flood_risk_100y":null,"semi_basement_r":null,"elderly_alone_r":0.0716,"bldg_age30_r":null,"shelter_min_walk":3,"pop":20969,"hh":8212,"elderly65_r":0.1527,"single_hh_r":0.2726,"source_level":"emd","flood_years":[],"landslide_hist_n":0},"geometry":{"type":"Polygon","coordinates":[[[126.67466,37.59525],[126.67413,37.59958],[126.66994,37.60152],[126.66628,37.59912],[126.66681,37.59479],[126.671,37.59286],[126.67466,37.59525]]]}},{"type":"Feature","properties":{"h3":"8830e0a043fffff","emd_code":"2829052000","emd_name":"불로대곡동","area_km2":0.5033,"edge":false,"slope_mean":8.58,"elev_mean":27.4,"flood_hist_n":0,"flood_depth_max_m":null,"flood_risk_100y":null,"semi_basement_r":null,"elderly_alone_r":0.0631,"bldg_age30_r":null,"shelter_min_walk":5,"pop":48740,"hh":18686,"elderly65_r":0.1122,"single_hh_r":0.2447,"source_level":"emd","flood_years":[],"landslide_hist_n":0},"geometry":{"type":"Polygon","coordinates":[[[126.68252,37.59572],[126.68199,37.60005],[126.67779,37.60198],[126.67413,37.59958],[126.67466,37.59525],[126.67886,37.59332],[126.68252,37.59572]]]}},{"type":"Feature","properties":{"h3":"8830e0a045fffff","emd_code":"2829054000","emd_name":"당하동","area_km2":0.5031,"edge":false,"slope_mean":11.64,"elev_mean":43.6,"flood_hist_n":0,"flood_depth_max_m":null,"flood_risk_100y":null,"semi_basement_r":null,"elderly_alone_r":0.0847,"bldg_age30_r":null,"shelter_min_walk":9,"pop":43349,"hh":18857,"elderly65_r":0.1407,"single_hh_r":0.3406,"source_level":"emd","flood_years":[],"landslide_hist_n":0},"geometry":{"type":"Polygon","coordinates":[[[126.67154,37.58853],[126.671,37.59286],[126.66681,37.59479],[126.66315,37.59239],[126.66369,37.58806],[126.66788,37.58613],[126.67154,37.58853]]]}},{"type":"Feature","properties":{"h3":"8830e0a047fffff","emd_code":"2829054000","emd_name":"당하동","area_km2":0.5032,"edge":false,"slope_mean":4.85,"elev_mean":20.4,"flood_hist_n":0,"flood_depth_max_m":null,"flood_risk_100y":null,"semi_basement_r":null,"elderly_alone_r":0.0847,"bldg_age30_r":null,"shelter_min_walk":2,"pop":43349,"hh":18857,"elderly65_r":0.1407,"single_hh_r":0.3406,"source_level":"emd","flood_years":[],"landslide_hist_n":0},"geometry":{"type":"Polygon","coordinates":[[[126.67939,37.58899],[126.67886,37.59332],[126.67466,37.59525],[126.671,37.59286],[126.67154,37.58853],[126.67573,37.5866],[126.67939,37.58899]]]}},{"type":"Feature","properties":{"h3":"8830e0a049fffff","emd_code":"2829051000","emd_name":"검단동","area_km2":0.5031,"edge":false,"slope_mean":9.18,"elev_mean":35.5,"flood_hist_n":0,"flood_depth_max_m":null,"flood_risk_100y":null,"semi_basement_r":null,"elderly_alone_r":0.1093,"bldg_age30_r":null,"shelter_min_walk":4,"pop":32574,"hh":15761,"elderly65_r":0.1703,"single_hh_r":0.4417,"source_level":"emd","flood_years":[],"landslide_hist_n":0},"geometry":{"type":"Polygon","coordinates":[[[126.66994,37.60152],[126.6694,37.60585],[126.66521,37.60778],[126.66155,37.60538],[126.66208,37.60105],[126.66628,37.59912],[126.66994,37.60152]]]}},{"type":"Feature","properties":{"h3":"8830e0a04bfffff","emd_code":"2829051000","emd_name":"검단동","area_km2":0.5032,"edge":false,"slope_mean":9.94,"elev_mean":25.6,"flood_hist_n":0,"flood_depth_max_m":null,"flood_risk_100y":null,"semi_basement_r":null,"elderly_alone_r":0.1093,"bldg_age30_r":null,"shelter_min_walk":10,"pop":32574,"hh":15761,"elderly65_r":0.1703,"single_hh_r":0.4417,"source_level":"emd","flood_years":[],"landslide_hist_n":0},"geometry":{"type":"Polygon","coordinates":[[[126.67779,37.60198],[126.67726,37.60631],[126.67306,37.60824],[126.6694,37.60585],[126.66994,37.60152],[126.67413,37.59958],[126.67779,37.60198]]]}},{"type":"Feature","properties":{"h3":"8830e0a04dfffff","emd_code":"2829056000","emd_name":"마전동","area_km2":0.5031,"edge":false,"slope_mean":9.61,"elev_mean":37.2,"flood_hist_n":0,"flood_depth_max_m":null,"flood_risk_100y":null,"semi_basement_r":null,"elderly_alone_r":0.0716,"bldg_age30_r":null,"shelter_min_walk":6,"pop":20969,"hh":8212,"elderly65_r":0.1527,"single_hh_r":0.2726,"source_level":"emd","flood_years":[],"landslide_hist_n":0},"geometry":{"type":"Polygon","coordinates":[[[126.66681,37.59479],[126.66628,37.59912],[126.66208,37.60105],[126.65843,37.59865],[126.65896,37.59432],[126.66315,37.59239],[126.66681,37.59479]]]}},{"type":"Feature","properties":{"h3":"8830e0a051fffff","emd_code":"2829052000","emd_name":"불로대곡동","area_km2":0.5035,"edge":false,"slope_mean":10.19,"elev_mean":39.0,"flood_hist_n":0,"flood_depth_max_m":null,"flood_risk_100y":null,"semi_basement_r":null,"elderly_alone_r":0.0631,"bldg_age30_r":null,"shelter_min_walk":11,"pop":48740,"hh":18686,"elderly65_r":0.1122,"single_hh_r":0.2447,"source_level":"emd","flood_years":[],"landslide_hist_n":0},"geometry":{"type":"Polygon","coordinates":[[[126.6935,37.60291],[126.69297,37.60724],[126.68878,37.60918],[126.68511,37.60678],[126.68565,37.60245],[126.68984,37.60052],[126.6935,37.60291]]]}},{"type":"Feature","properties":{"h3":"8830e0a053fffff","emd_code":"2829052000","emd_name":"불로대곡동","area_km2":0.5036,"edge":false,"slope_mean":13.49,"elev_mean":58.1,"flood_hist_n":0,"flood_depth_max_m":null,"flood_risk_100y":null,"semi_basement_r":null,"elderly_alone_r":0.0631,"bldg_age30_r":null,"shelter_min_walk":15,"pop":48740,"hh":18686,"elderly65_r":0.1122,"single_hh_r":0.2447,"source_level":"emd","flood_years":[],"landslide_hist_n":0},"geometry":{"type":"Polygon","coordinates":[[[126.70136,37.60338],[126.70083,37.60771],[126.69663,37.60964],[126.69297,37.60724],[126.6935,37.60291],[126.6977,37.60098],[126.70136,37.60338]]]}},{"type":"Feature","properties":{"h3":"8830e0a055fffff","emd_code":"2829052000","emd_name":"불로대곡동","area_km2":0.5034,"edge":false,"slope_mean":13.53,"elev_mean":56.5,"flood_hist_n":0,"flood_depth_max_m":null,"flood_risk_100y":null,"semi_basement_r":null,"elderly_alone_r":0.0631,"bldg_age30_r":null,"shelter_min_walk":11,"pop":48740,"hh":18686,"elderly65_r":0.1122,"single_hh_r":0.2447,"source_level":"emd","flood_years":[],"landslide_hist_n":0},"geometry":{"type":"Polygon","coordinates":[[[126.69037,37.59619],[126.68984,37.60052],[126.68565,37.60245],[126.68199,37.60005],[126.68252,37.59572],[126.68671,37.59379],[126.69037,37.59619]]]}},{"type":"Feature","properties":{"h3":"8830e0a057fffff","emd_code":"2829053000","emd_name":"원당동","area_km2":0.5035,"edge":false,"slope_mean":11.87,"elev_mean":52.6,"flood_hist_n":0,"flood_depth_max_m":null,"flood_risk_100y":null,"semi_basement_r":null,"elderly_alone_r":0.0898,"bldg_age30_r":null,"shelter_min_walk":5,"pop":23254,"hh":10331,"elderly65_r":0.1419,"single_hh_r":0.3826,"source_level":"emd","flood_years":[],"landslide_hist_n":0},"geometry":{"type":"Polygon","coordinates":[[[126.69823,37.59665],[126.6977,37.60098],[126.6935,37.60291],[126.68984,37.60052],[126.69037,37.59619],[126.69457,37.59425],[126.69823,37.59665]]]}},{"type":"Feature","properties":{"h3":"8830e0a059fffff","emd_code":"2829052000","emd_name":"불로대곡동","area_km2":0.5034,"edge":false,"slope_mean":5.74,"elev_mean":18.8,"flood_hist_n":0,"flood_depth_max_m":null,"flood_risk_100y":null,"semi_basement_r":null,"elderly_alone_r":0.0631,"bldg_age30_r":null,"shelter_min_walk":1,"pop":48740,"hh":18686,"elderly65_r":0.1122,"single_hh_r":0.2447,"source_level":"emd","flood_years":[],"landslide_hist_n":0},"geometry":{"type":"Polygon","coordinates":[[[126.68878,37.60918],[126.68824,37.61351],[126.68405,37.61544],[126.68039,37.61304],[126.68092,37.60871],[126.68511,37.60678],[126.68878,37.60918]]]}},{"type":"Feature","properties":{"h3":"8830e0a05bfffff","emd_code":"2829052000","emd_name":"불로대곡동","area_km2":0.5035,"edge":false,"slope_mean":16.77,"elev_mean":54.9,"flood_hist_n":0,"flood_depth_max_m":null,"flood_risk_100y":null,"semi_basement_r":null,"elderly_alone_r":0.0631,"bldg_age30_r":null,"shelter_min_walk":4,"pop":48740,"hh":18686,"elderly65_r":0.1122,"single_hh_r":0.2447,"source_level":"emd","flood_years":[],"landslide_hist_n":0},"geometry":{"type":"Polygon","coordinates":[[[126.69663,37.60964],[126.6961,37.61397],[126.69191,37.6159],[126.68824,37.61351],[126.68878,37.60918],[126.69297,37.60724],[126.69663,37.60964]]]}},{"type":"Feature","properties":{"h3":"8830e0a05dfffff","emd_code":"2829052000","emd_name":"불로대곡동","area_km2":0.5034,"edge":false,"slope_mean":10.19,"elev_mean":34.0,"flood_hist_n":0,"flood_depth_max_m":null,"flood_risk_100y":null,"semi_basement_r":null,"elderly_alone_r":0.0631,"bldg_age30_r":null,"shelter_min_walk":11,"pop":48740,"hh":18686,"elderly65_r":0.1122,"single_hh_r":0.2447,"source_level":"emd","flood_years":[],"landslide_hist_n":0},"geometry":{"type":"Polygon","coordinates":[[[126.68565,37.60245],[126.68511,37.60678],[126.68092,37.60871],[126.67726,37.60631],[126.67779,37.60198],[126.68199,37.60005],[126.68565,37.60245]]]}},{"type":"Feature","properties":{"h3":"8830e0a061fffff","emd_code":"2829054000","emd_name":"당하동","area_km2":0.5031,"edge":false,"slope_mean":5.56,"elev_mean":15.4,"flood_hist_n":0,"flood_depth_max_m":null,"flood_risk_100y":null,"semi_basement_r":null,"elderly_alone_r":0.0847,"bldg_age30_r":null,"shelter_min_walk":3,"pop":43349,"hh":18857,"elderly65_r":0.1407,"single_hh_r":0.3406,"source_level":"emd","flood_years":[],"landslide_hist_n":0},"geometry":{"type":"Polygon","coordinates":[[[126.67314,37.57554],[126.6726,37.57987],[126.66841,37.5818],[126.66475,37.5794],[126.66529,37.57508],[126.66948,37.57314],[126.67314,37.57554]]]}},{"type":"Feature","properties":{"h3":"8830e0a063fffff","emd_code":"2829054000","emd_name":"당하동","area_km2":0.5032,"edge":false,"slope_mean":8.18,"elev_mean":24.7,"flood_hist_n":0,"flood_depth_max_m":null,"flood_risk_100y":null,"semi_basement_r":null,"elderly_alone_r":0.0847,"bldg_age30_r":null,"shelter_min_walk":12,"pop":43349,"hh":18857,"elderly65_r":0.1407,"single_hh_r":0.3406,"source_level":"emd","flood_years":[],"landslide_hist_n":0},"geometry":{"type":"Polygon","coordinates":[[[126.68099,37.576],[126.68046,37.58033],[126.67626,37.58227],[126.6726,37.57987],[126.67314,37.57554],[126.67733,37.57361],[126.68099,37.576]]]}},{"type":"Feature","properties":{"h3":"8830e0a065fffff","emd_code":"2829054000","emd_name":"당하동","area_km2":0.5031,"edge":true,"slope_mean":3.15,"elev_mean":8.2,"flood_hist_n":0,"flood_depth_max_m":null,"flood_risk_100y":null,"semi_basement_r":null,"elderly_alone_r":0.0847,"bldg_age30_r":null,"shelter_min_walk":13,"pop":43349,"hh":18857,"elderly65_r":0.1407,"single_hh_r":0.3406,"source_level":"emd","flood_years":[],"landslide_hist_n":0},"geometry":{"type":"Polygon","coordinates":[[[126.67001,37.56881],[126.66948,37.57314],[126.66529,37.57508],[126.66163,37.57268],[126.66216,37.56835],[126.66635,37.56642],[126.67001,37.56881]]]}},{"type":"Feature","properties":{"h3":"8830e0a067fffff","emd_code":"2829054000","emd_name":"당하동","area_km2":0.5032,"edge":true,"slope_mean":3.9,"elev_mean":8.6,"flood_hist_n":0,"flood_depth_max_m":null,"flood_risk_100y":null,"semi_basement_r":null,"elderly_alone_r":0.0847,"bldg_age30_r":null,"shelter_min_walk":8,"pop":43349,"hh":18857,"elderly65_r":0.1407,"single_hh_r":0.3406,"source_level":"emd","flood_years":[],"landslide_hist_n":0},"geometry":{"type":"Polygon","coordinates":[[[126.67786,37.56928],[126.67733,37.57361],[126.67314,37.57554],[126.66948,37.57314],[126.67001,37.56881],[126.6742,37.56688],[126.67786,37.56928]]]}},{"type":"Feature","properties":{"h3":"8830e0a069fffff","emd_code":"2829054000","emd_name":"당하동","area_km2":0.5031,"edge":false,"slope_mean":11.97,"elev_mean":32.5,"flood_hist_n":0,"flood_depth_max_m":null,"flood_risk_100y":null,"semi_basement_r":null,"elderly_alone_r":0.0847,"bldg_age30_r":null,"shelter_min_walk":10,"pop":43349,"hh":18857,"elderly65_r":0.1407,"single_hh_r":0.3406,"source_level":"emd","flood_years":[],"landslide_hist_n":0},"geometry":{"type":"Polygon","coordinates":[[[126.66841,37.5818],[126.66788,37.58613],[126.66369,37.58806],[126.66003,37.58567],[126.66056,37.58134],[126.66475,37.5794],[126.66841,37.5818]]]}},{"type":"Feature","properties":{"h3":"8830e0a06bfffff","emd_code":"2829054000","emd_name":"당하동","area_km2":0.5032,"edge":false,"slope_mean":10.26,"elev_mean":37.6,"flood_hist_n":0,"flood_depth_max_m":null,"flood_risk_100y":null,"semi_basement_r":null,"elderly_alone_r":0.0847,"bldg_age30_r":null,"shelter_min_walk":5,"pop":43349,"hh":18857,"elderly65_r":0.1407,"single_hh_r":0.3406,"source_level":"emd","flood_years":[],"landslide_hist_n":0},"geometry":{"type":"Polygon","coordinates":[[[126.67626,37.58227],[126.67573,37.5866],[126.67154,37.58853],[126.66788,37.58613],[126.66841,37.5818],[126.6726,37.57987],[126.67626,37.58227]]]}},{"type":"Feature","properties":{"h3":"8830e0a06dfffff","emd_code":"2829055000","emd_name":"오류왕길동","area_km2":0.503,"edge":false,"slope_mean":3.23,"elev_mean":7.6,"flood_hist_n":0,"flood_depth_max_m":null,"flood_risk_100y":null,"semi_basement_r":null,"elderly_alone_r":0.1068,"bldg_age30_r":null,"shelter_min_walk":8,"pop":25570,"hh":10867,"elderly65_r":0.1814,"single_hh_r":0.3269,"source_level":"emd","flood_years":[],"landslide_hist_n":0},"geometry":{"type":"Polygon","coordinates":[[[126.66529,37.57508],[126.66475,37.5794],[126.66056,37.58134],[126.6569,37.57894],[126.65744,37.57461],[126.66163,37.57268],[126.66529,37.57508]]]}},{"type":"Feature","properties":{"h3":"8830e0a0c5fffff","emd_code":"2829057000","emd_name":"아라1동","area_km2":0.5039,"edge":false,"slope_mean":3.8,"elev_mean":11.9,"flood_hist_n":1,"flood_depth_max_m":0.8,"flood_risk_100y":null,"semi_basement_r":null,"elderly_alone_r":0.0422,"bldg_age30_r":null,"shelter_min_walk":10,"pop":46982,"hh":18087,"elderly65_r":0.0687,"single_hh_r":0.2434,"source_level":"emd","flood_years":[2006],"landslide_hist_n":0},"geometry":{"type":"Polygon","coordinates":[[[126.72654,37.59177],[126.726,37.59611],[126.72181,37.59804],[126.71814,37.59564],[126.71867,37.59131],[126.72287,37.58938],[126.72654,37.59177]]]}},{"type":"Feature","properties":{"h3":"8830e0a0cdfffff","emd_code":"2829058000","emd_name":"아라2동","area_km2":0.5038,"edge":true,"slope_mean":5.56,"elev_mean":19.0,"flood_hist_n":0,"flood_depth_max_m":null,"flood_risk_100y":null,"semi_basement_r":null,"elderly_alone_r":0.0439,"bldg_age30_r":null,"shelter_min_walk":9,"pop":32297,"hh":11481,"elderly65_r":0.0733,"single_hh_r":0.1826,"source_level":"emd","flood_years":[],"landslide_hist_n":0},"geometry":{"type":"Polygon","coordinates":[[[126.72181,37.59804],[126.72128,37.60237],[126.71708,37.60431],[126.71342,37.60191],[126.71395,37.59758],[126.71814,37.59564],[126.72181,37.59804]]]}},{"type":"Feature","properties":{"h3":"8830e0a0e9fffff","emd_code":"2829057000","emd_name":"아라1동","area_km2":0.5038,"edge":false,"slope_mean":5.71,"elev_mean":18.1,"flood_hist_n":0,"flood_depth_max_m":null,"flood_risk_100y":null,"semi_basement_r":null,"elderly_alone_r":0.0422,"bldg_age30_r":null,"shelter_min_walk":5,"pop":46982,"hh":18087,"elderly65_r":0.0687,"single_hh_r":0.2434,"source_level":"emd","flood_years":[],"landslide_hist_n":0},"geometry":{"type":"Polygon","coordinates":[[[126.7234,37.58505],[126.72287,37.58938],[126.71867,37.59131],[126.71501,37.58891],[126.71554,37.58458],[126.71974,37.58265],[126.7234,37.58505]]]}},{"type":"Feature","properties":{"h3":"8830e0a0edfffff","emd_code":"2829057000","emd_name":"아라1동","area_km2":0.5038,"edge":false,"slope_mean":5.41,"elev_mean":20.4,"flood_hist_n":0,"flood_depth_max_m":null,"flood_risk_100y":null,"semi_basement_r":null,"elderly_alone_r":0.0422,"bldg_age30_r":null,"shelter_min_walk":15,"pop":46982,"hh":18087,"elderly65_r":0.0687,"single_hh_r":0.2434,"source_level":"emd","flood_years":[],"landslide_hist_n":0},"geometry":{"type":"Polygon","coordinates":[[[126.72027,37.57832],[126.71974,37.58265],[126.71554,37.58458],[126.71188,37.58219],[126.71241,37.57786],[126.7166,37.57592],[126.72027,37.57832]]]}},{"type":"Feature","properties":{"h3":"8830e0a201fffff","emd_code":"2829052000","emd_name":"불로대곡동","area_km2":0.5031,"edge":false,"slope_mean":13.3,"elev_mean":75.0,"flood_hist_n":0,"flood_depth_max_m":null,"flood_risk_100y":null,"semi_basement_r":null,"elderly_alone_r":0.0631,"bldg_age30_r":null,"shelter_min_walk":30,"pop":48740,"hh":18686,"elderly65_r":0.1122,"single_hh_r":0.2447,"source_level":"emd","flood_years":[],"landslide_hist_n":0},"geometry":{"type":"Polygon","coordinates":[[[126.65888,37.62702],[126.65834,37.63135],[126.65415,37.63328],[126.65049,37.63088],[126.65102,37.62655],[126.65522,37.62462],[126.65888,37.62702]]]}},{"type":"Feature","properties":{"h3":"8830e0a203fffff","emd_code":"2829052000","emd_name":"불로대곡동","area_km2":0.5032,"edge":false,"slope_mean":13.15,"elev_mean":48.6,"flood_hist_n":0,"flood_depth_max_m":null,"flood_risk_100y":null,"semi_basement_r":null,"elderly_alone_r":0.0631,"bldg_age30_r":null,"shelter_min_walk":29,"pop":48740,"hh":18686,"elderly65_r":0.1122,"single_hh_r":0.2447,"source_level":"emd","flood_years":[],"landslide_hist_n":0},"geometry":{"type":"Polygon","coordinates":[[[126.66673,37.62749],[126.6662,37.63182],[126.66201,37.63375],[126.65834,37.63135],[126.65888,37.62702],[126.66307,37.62509],[126.66673,37.62749]]]}},{"type":"Feature","properties":{"h3":"8830e0a205fffff","emd_code":"2829051000","emd_name":"검단동","area_km2":0.503,"edge":false,"slope_mean":18.43,"elev_mean":111.2,"flood_hist_n":0,"flood_depth_max_m":null,"flood_risk_100y":null,"semi_basement_r":null,"elderly_alone_r":0.1093,"bldg_age30_r":null,"shelter_min_walk":21,"pop":32574,"hh":15761,"elderly65_r":0.1703,"single_hh_r":0.4417,"source_level":"emd","flood_years":[],"landslide_hist_n":0},"geometry":{"type":"Polygon","coordinates":[[[126.65575,37.6203],[126.65522,37.62462],[126.65102,37.62655],[126.64737,37.62416],[126.6479,37.61983],[126.65209,37.6179],[126.65575,37.6203]]]}},{"type":"Feature","properties":{"h3":"8830e0a207fffff","emd_code":"2829052000","emd_name":"불로대곡동","area_km2":0.5031,"edge":false,"slope_mean":15.2,"elev_mean":63.4,"flood_hist_n":0,"flood_depth_max_m":null,"flood_risk_100y":null,"semi_basement_r":null,"elderly_alone_r":0.0631,"bldg_age30_r":null,"shelter_min_walk":18,"pop":48740,"hh":18686,"elderly65_r":0.1122,"single_hh_r":0.2447,"source_level":"emd","flood_years":[],"landslide_hist_n":0},"geometry":{"type":"Polygon","coordinates":[[[126.66361,37.62076],[126.66307,37.62509],[126.65888,37.62702],[126.65522,37.62462],[126.65575,37.6203],[126.65995,37.61837],[126.66361,37.62076]]]}},{"type":"Feature","properties":{"h3":"8830e0a209fffff","emd_code":"2829052000","emd_name":"불로대곡동","area_km2":0.503,"edge":true,"slope_mean":10.34,"elev_mean":53.7,"flood_hist_n":0,"flood_depth_max_m":null,"flood_risk_100y":null,"semi_basement_r":null,"elderly_alone_r":0.0631,"bldg_age30_r":null,"shelter_min_walk":42,"pop":48740,"hh":18686,"elderly65_r":0.1122,"single_hh_r":0.2447,"source_level":"emd","flood_years":[],"landslide_hist_n":0},"geometry":{"type":"Polygon","coordinates":[[[126.65415,37.63328],[126.65362,37.63761],[126.64942,37.63954],[126.64576,37.63714],[126.6463,37.63281],[126.65049,37.63088],[126.65415,37.63328]]]}},{"type":"Feature","properties":{"h3":"8830e0a20bfffff","emd_code":"2829052000","emd_name":"불로대곡동","area_km2":0.5031,"edge":false,"slope_mean":9.86,"elev_mean":39.3,"flood_hist_n":0,"flood_depth_max_m":null,"flood_risk_100y":null,"semi_basement_r":null,"elderly_alone_r":0.0631,"bldg_age30_r":null,"shelter_min_walk":40,"pop":48740,"hh":18686,"elderly65_r":0.1122,"single_hh_r":0.2447,"source_level":"emd","flood_years":[],"landslide_hist_n":0},"geometry":{"type":"Polygon","coordinates":[[[126.66201,37.63375],[126.66147,37.63808],[126.65728,37.64001],[126.65362,37.63761],[126.65415,37.63328],[126.65834,37.63135],[126.66201,37.63375]]]}},{"type":"Feature","properties":{"h3":"8830e0a20dfffff","emd_code":"2829051000","emd_name":"검단동","area_km2":0.5029,"edge":false,"slope_mean":16.25,"elev_mean":113.7,"flood_hist_n":0,"flood_depth_max_m":null,"flood_risk_100y":null,"semi_basement_r":null,"elderly_alone_r":0.1093,"bldg_age30_r":null,"shelter_min_walk":33,"pop":32574,"hh":15761,"elderly65_r":0.1703,"single_hh_r":0.4417,"source_level":"emd","flood_years":[],"landslide_hist_n":0},"geometry":{"type":"Polygon","coordinates":[[[126.65102,37.62655],[126.65049,37.63088],[126.6463,37.63281],[126.64264,37.63041],[126.64317,37.62608],[126.64737,37.62416],[126.65102,37.62655]]]}},{"type":"Feature","properties":{"h3":"8830e0a211fffff","emd_code":"2829052000","emd_name":"불로대곡동","area_km2":0.5033,"edge":true,"slope_mean":7.78,"elev_mean":23.9,"flood_hist_n":0,"flood_depth_max_m":null,"flood_risk_100y":null,"semi_basement_r":null,"elderly_alone_r":0.0631,"bldg_age30_r":null,"shelter_min_walk":37,"pop":48740,"hh":18686,"elderly65_r":0.1122,"single_hh_r":0.2447,"source_level":"emd","flood_years":[],"landslide_hist_n":0},"geometry":{"type":"Polygon","coordinates":[[[126.67772,37.63469],[126.67719,37.63902],[126.67299,37.64095],[126.66933,37.63855],[126.66986,37.63422],[126.67406,37.63229],[126.67772,37.63469]]]}},{"type":"Feature","properties":{"h3":"8830e0a215fffff","emd_code":"2829052000","emd_name":"불로대곡동","area_km2":0.5033,"edge":false,"slope_mean":11.22,"elev_mean":32.3,"flood_hist_n":0,"flood_depth_max_m":null,"flood_risk_100y":null,"semi_basement_r":null,"elderly_alone_r":0.0631,"bldg_age30_r":null,"shelter_min_walk":32,"pop":48740,"hh":18686,"elderly65_r":0.1122,"single_hh_r":0.2447,"source_level":"emd","flood_years":[],"landslide_hist_n":0},"geometry":{"type":"Polygon","coordinates":[[[126.67459,37.62796],[126.67406,37.63229],[126.66986,37.63422],[126.6662,37.63182],[126.66673,37.62749],[126.67093,37.62556],[126.67459,37.62796]]]}},{"type":"Feature","properties":{"h3":"8830e0a217fffff","emd_code":"2829052000","emd_name":"불로대곡동","area_km2":0.5034,"edge":true,"slope_mean":13.03,"elev_mean":36.9,"flood_hist_n":0,"flood_depth_max_m":null,"flood_risk_100y":null,"semi_basement_r":null,"elderly_alone_r":0.0631,"bldg_age30_r":null,"shelter_min_walk":25,"pop":48740,"hh":18686,"elderly65_r":0.1122,"single_hh_r":0.2447,"source_level":"emd","flood_years":[],"landslide_hist_n":0},"geometry":{"type":"Polygon","coordinates":[[[126.68245,37.62843],[126.68192,37.63276],[126.67772,37.63469],[126.67406,37.63229],[126.67459,37.62796],[126.67879,37.62603],[126.68245,37.62843]]]}},{"type":"Feature","properties":{"h3":"8830e0a21dfffff","emd_code":"2829052000","emd_name":"불로대곡동","area_km2":0.5032,"edge":false,"slope_mean":6.75,"elev_mean":21.8,"flood_hist_n":0,"flood_depth_max_m":null,"flood_risk_100y":null,"semi_basement_r":null,"elderly_alone_r":0.0631,"bldg_age30_r":null,"shelter_min_walk":41,"pop":48740,"hh":18686,"elderly65_r":0.1122,"single_hh_r":0.2447,"source_level":"emd","flood_years":[],"landslide_hist_n":0},"geometry":{"type":"Polygon","coordinates":[[[126.66986,37.63422],[126.66933,37.63855],[126.66513,37.64048],[126.66147,37.63808],[126.66201,37.63375],[126.6662,37.63182],[126.66986,37.63422]]]}},{"type":"Feature","properties":{"h3":"8830e0a221fffff","emd_code":"2829051000","emd_name":"검단동","area_km2":0.503,"edge":false,"slope_mean":11.14,"elev_mean":39.9,"flood_hist_n":0,"flood_depth_max_m":null,"flood_risk_100y":null,"semi_basement_r":null,"elderly_alone_r":0.1093,"bldg_age30_r":null,"shelter_min_walk":9,"pop":32574,"hh":15761,"elderly65_r":0.1703,"single_hh_r":0.4417,"source_level":"emd","flood_years":[],"landslide_hist_n":0},"geometry":{"type":"Polygon","coordinates":[[[126.65736,37.60731],[126.65682,37.61164],[126.65263,37.61357],[126.64897,37.61117],[126.64951,37.60684],[126.6537,37.60491],[126.65736,37.60731]]]}},{"type":"Feature","properties":{"h3":"8830e0a223fffff","emd_code":"2829051000","emd_name":"검단동","area_km2":0.5031,"edge":false,"slope_mean":11.41,"elev_mean":41.0,"flood_hist_n":0,"flood_depth_max_m":null,"flood_risk_100y":null,"semi_basement_r":null,"elderly_alone_r":0.1093,"bldg_age30_r":null,"shelter_min_walk":3,"pop":32574,"hh":15761,"elderly65_r":0.1703,"single_hh_r":0.4417,"source_level":"emd","flood_years":[],"landslide_hist_n":0},"geometry":{"type":"Polygon","coordinates":[[[126.66521,37.60778],[126.66468,37.61211],[126.66048,37.61404],[126.65682,37.61164],[126.65736,37.60731],[126.66155,37.60538],[126.66521,37.60778]]]}},{"type":"Feature","properties":{"h3":"8830e0a225fffff","emd_code":"2829055000","emd_name":"오류왕길동","area_km2":0.5029,"edge":false,"slope_mean":5.65,"elev_mean":18.8,"flood_hist_n":0,"flood_depth_max_m":null,"flood_risk_100y":null,"semi_basement_r":null,"elderly_alone_r":0.1068,"bldg_age30_r":null,"shelter_min_walk":2,"pop":25570,"hh":10867,"elderly65_r":0.1814,"single_hh_r":0.3269,"source_level":"emd","flood_years":[],"landslide_hist_n":0},"geometry":{"type":"Polygon","coordinates":[[[126.65423,37.60058],[126.6537,37.60491],[126.64951,37.60684],[126.64585,37.60444],[126.64638,37.60011],[126.65057,37.59818],[126.65423,37.60058]]]}},{"type":"Feature","properties":{"h3":"8830e0a227fffff","emd_code":"2829051000","emd_name":"검단동","area_km2":0.503,"edge":false,"slope_mean":7.18,"elev_mean":28.6,"flood_hist_n":0,"flood_depth_max_m":null,"flood_risk_100y":null,"semi_basement_r":null,"elderly_alone_r":0.1093,"bldg_age30_r":null,"shelter_min_walk":3,"pop":32574,"hh":15761,"elderly65_r":0.1703,"single_hh_r":0.4417,"source_level":"emd","flood_years":[],"landslide_hist_n":0},"geometry":{"type":"Polygon","coordinates":[[[126.66208,37.60105],[126.66155,37.60538],[126.65736,37.60731],[126.6537,37.60491],[126.65423,37.60058],[126.65843,37.59865],[126.66208,37.60105]]]}},{"type":"Feature","properties":{"h3":"8830e0a229fffff","emd_code":"2829051000","emd_name":"검단동","area_km2":0.5029,"edge":false,"slope_mean":14.51,"elev_mean":61.8,"flood_hist_n":0,"flood_depth_max_m":null,"flood_risk_100y":null,"semi_basement_r":null,"elderly_alone_r":0.1093,"bldg_age30_r":null,"shelter_min_walk":18,"pop":32574,"hh":15761,"elderly65_r":0.1703,"single_hh_r":0.4417,"source_level":"emd","flood_years":[],"landslide_hist_n":0},"geometry":{"type":"Polygon","coordinates":[[[126.65263,37.61357],[126.65209,37.6179],[126.6479,37.61983],[126.64424,37.61743],[126.64478,37.6131],[126.64897,37.61117],[126.65263,37.61357]]]}},{"type":"Feature","properties":{"h3":"8830e0a22bfffff","emd_code":"2829051000","emd_name":"검단동","area_km2":0.503,"edge":false,"slope_mean":12.84,"elev_mean":51.7,"flood_hist_n":0,"flood_depth_max_m":null,"flood_risk_100y":null,"semi_basement_r":null,"elderly_alone_r":0.1093,"bldg_age30_r":null,"shelter_min_walk":9,"pop":32574,"hh":15761,"elderly65_r":0.1703,"single_hh_r":0.4417,"source_level":"emd","flood_years":[],"landslide_hist_n":0},"geometry":{"type":"Polygon","coordinates":[[[126.66048,37.61404],[126.65995,37.61837],[126.65575,37.6203],[126.65209,37.6179],[126.65263,37.61357],[126.65682,37.61164],[126.66048,37.61404]]]}},{"type":"Feature","properties":{"h3":"8830e0a22dfffff","emd_code":"2829051000","emd_name":"검단동","area_km2":0.5029,"edge":false,"slope_mean":6.53,"elev_mean":20.1,"flood_hist_n":0,"flood_depth_max_m":null,"flood_risk_100y":null,"semi_basement_r":null,"elderly_alone_r":0.1093,"bldg_age30_r":null,"shelter_min_walk":10,"pop":32574,"hh":15761,"elderly65_r":0.1703,"single_hh_r":0.4417,"source_level":"emd","flood_years":[],"landslide_hist_n":0},"geometry":{"type":"Polygon","coordinates":[[[126.64951,37.60684],[126.64897,37.61117],[126.64478,37.6131],[126.64112,37.6107],[126.64165,37.60637],[126.64585,37.60444],[126.64951,37.60684]]]}},{"type":"Feature","properties":{"h3":"8830e0a231fffff","emd_code":"2829052000","emd_name":"불로대곡동","area_km2":0.5033,"edge":false,"slope_mean":5.46,"elev_mean":17.8,"flood_hist_n":0,"flood_depth_max_m":null,"flood_risk_100y":null,"semi_basement_r":null,"elderly_alone_r":0.0631,"bldg_age30_r":null,"shelter_min_walk":12,"pop":48740,"hh":18686,"elderly65_r":0.1122,"single_hh_r":0.2447,"source_level":"emd","flood_years":[],"landslide_hist_n":0},"geometry":{"type":"Polygon","coordinates":[[[126.67619,37.61497],[126.67566,37.6193],[126.67146,37.62123],[126.6678,37.61883],[126.66834,37.6145],[126.67253,37.61257],[126.67619,37.61497]]]}},{"type":"Feature","properties":{"h3":"8830e0a233fffff","emd_code":"2829052000","emd_name":"불로대곡동","area_km2":0.5034,"edge":false,"slope_mean":5.9,"elev_mean":12.6,"flood_hist_n":0,"flood_depth_max_m":null,"flood_risk_100y":null,"semi_basement_r":null,"elderly_alone_r":0.0631,"bldg_age30_r":null,"shelter_min_walk":8,"pop":48740,"hh":18686,"elderly65_r":0.1122,"single_hh_r":0.2447,"source_level":"emd","flood_years":[],"landslide_hist_n":0},"geometry":{"type":"Polygon","coordinates":[[[126.68405,37.61544],[126.68352,37.61977],[126.67932,37.6217],[126.67566,37.6193],[126.67619,37.61497],[126.68039,37.61304],[126.68405,37.61544]]]}},{"type":"Feature","properties":{"h3":"8830e0a235fffff","emd_code":"2829051000","emd_name":"검단동","area_km2":0.5032,"edge":false,"slope_mean":11.71,"elev_mean":32.6,"flood_hist_n":0,"flood_depth_max_m":null,"flood_risk_100y":null,"semi_basement_r":null,"elderly_alone_r":0.1093,"bldg_age30_r":null,"shelter_min_walk":2,"pop":32574,"hh":15761,"elderly65_r":0.1703,"single_hh_r":0.4417,"source_level":"emd","flood_years":[],"landslide_hist_n":0},"geometry":{"type":"Polygon","coordinates":[[[126.67306,37.60824],[126.67253,37.61257],[126.66834,37.6145],[126.66468,37.61211],[126.66521,37.60778],[126.6694,37.60585],[126.67306,37.60824]]]}},{"type":"Feature","properties":{"h3":"8830e0a237fffff","emd_code":"2829051000","emd_name":"검단동","area_km2":0.5033,"edge":false,"slope_mean":11.66,"elev_mean":29.4,"flood_hist_n":0,"flood_depth_max_m":null,"flood_risk_100y":null,"semi_basement_r":null,"elderly_alone_r":0.1093,"bldg_age30_r":null,"shelter_min_walk":11,"pop":32574,"hh":15761,"elderly65_r":0.1703,"single_hh_r":0.4417,"source_level":"emd","flood_years":[],"landslide_hist_n":0},"geometry":{"type":"Polygon","coordinates":[[[126.68092,37.60871],[126.68039,37.61304],[126.67619,37.61497],[126.67253,37.61257],[126.67306,37.60824],[126.67726,37.60631],[126.68092,37.60871]]]}},{"type":"Feature","properties":{"h3":"8830e0a239fffff","emd_code":"2829052000","emd_name":"불로대곡동","area_km2":0.5032,"edge":false,"slope_mean":10.47,"elev_mean":30.9,"flood_hist_n":0,"flood_depth_max_m":null,"flood_risk_100y":null,"semi_basement_r":null,"elderly_alone_r":0.0631,"bldg_age30_r":null,"shelter_min_walk":20,"pop":48740,"hh":18686,"elderly65_r":0.1122,"single_hh_r":0.2447,"source_level":"emd","flood_years":[],"landslide_hist_n":0},"geometry":{"type":"Polygon","coordinates":[[[126.67146,37.62123],[126.67093,37.62556],[126.66673,37.62749],[126.66307,37.62509],[126.66361,37.62076],[126.6678,37.61883],[126.67146,37.62123]]]}},{"type":"Feature","properties":{"h3":"8830e0a23bfffff","emd_code":"2829052000","emd_name":"불로대곡동","area_km2":0.5033,"edge":false,"slope_mean":11.11,"elev_mean":26.8,"flood_hist_n":0,"flood_depth_max_m":null,"flood_risk_100y":null,"semi_basement_r":null,"elderly_alone_r":0.0631,"bldg_age30_r":null,"shelter_min_walk":20,"pop":48740,"hh":18686,"elderly65_r":0.1122,"single_hh_r":0.2447,"source_level":"emd","flood_years":[],"landslide_hist_n":0},"geometry":{"type":"Polygon","coordinates":[[[126.67932,37.6217],[126.67879,37.62603],[126.67459,37.62796],[126.67093,37.62556],[126.67146,37.62123],[126.67566,37.6193],[126.67932,37.6217]]]}},{"type":"Feature","properties":{"h3":"8830e0a23dfffff","emd_code":"2829052000","emd_name":"불로대곡동","area_km2":0.5032,"edge":false,"slope_mean":12.56,"elev_mean":41.7,"flood_hist_n":0,"flood_depth_max_m":null,"flood_risk_100y":null,"semi_basement_r":null,"elderly_alone_r":0.0631,"bldg_age30_r":null,"shelter_min_walk":9,"pop":48740,"hh":18686,"elderly65_r":0.1122,"single_hh_r":0.2447,"source_level":"emd","flood_years":[],"landslide_hist_n":0},"geometry":{"type":"Polygon","coordinates":[[[126.66834,37.6145],[126.6678,37.61883],[126.66361,37.62076],[126.65995,37.61837],[126.66048,37.61404],[126.66468,37.61211],[126.66834,37.6145]]]}},{"type":"Feature","properties":{"h3":"8830e0a255fffff","emd_code":"2829052000","emd_name":"불로대곡동","area_km2":0.5031,"edge":true,"slope_mean":10.79,"elev_mean":53.0,"flood_hist_n":0,"flood_depth_max_m":null,"flood_risk_100y":null,"semi_basement_r":null,"elderly_alone_r":0.0631,"bldg_age30_r":null,"shelter_min_walk":51,"pop":48740,"hh":18686,"elderly65_r":0.1122,"single_hh_r":0.2447,"source_level":"emd","flood_years":[],"landslide_hist_n":0},"geometry":{"type":"Polygon","coordinates":[[[126.65728,37.64001],[126.65674,37.64434],[126.65255,37.64627],[126.64888,37.64387],[126.64942,37.63954],[126.65362,37.63761],[126.65728,37.64001]]]}},{"type":"Feature","properties":{"h3":"8830e0a261fffff","emd_code":"2829051000","emd_name":"검단동","area_km2":0.5028,"edge":true,"slope_mean":8.08,"elev_mean":28.7,"flood_hist_n":0,"flood_depth_max_m":null,"flood_risk_100y":null,"semi_basement_r":null,"elderly_alone_r":0.1093,"bldg_age30_r":null,"shelter_min_walk":34,"pop":32574,"hh":15761,"elderly65_r":0.1703,"single_hh_r":0.4417,"source_level":"emd","flood_years":[],"landslide_hist_n":0},"geometry":{"type":"Polygon","coordinates":[[[126.64005,37.61936],[126.63951,37.62369],[126.63532,37.62561],[126.63166,37.62322],[126.6322,37.61889],[126.63639,37.61696],[126.64005,37.61936]]]}},{"type":"Feature","properties":{"h3":"8830e0a263fffff","emd_code":"2829051000","emd_name":"검단동","area_km2":0.5029,"edge":false,"slope_mean":12.52,"elev_mean":58.2,"flood_hist_n":0,"flood_depth_max_m":null,"flood_risk_100y":null,"semi_basement_r":null,"elderly_alone_r":0.1093,"bldg_age30_r":null,"shelter_min_walk":28,"pop":32574,"hh":15761,"elderly65_r":0.1703,"single_hh_r":0.4417,"source_level":"emd","flood_years":[],"landslide_hist_n":0},"geometry":{"type":"Polygon","coordinates":[[[126.6479,37.61983],[126.64737,37.62416],[126.64317,37.62608],[126.63951,37.62369],[126.64005,37.61936],[126.64424,37.61743],[126.6479,37.61983]]]}},{"type":"Feature","properties":{"h3":"8830e0a265fffff","emd_code":"2829051000","emd_name":"검단동","area_km2":0.5027,"edge":false,"slope_mean":7.45,"elev_mean":17.5,"flood_hist_n":0,"flood_depth_max_m":null,"flood_risk_100y":null,"semi_basement_r":null,"elderly_alone_r":0.1093,"bldg_age30_r":null,"shelter_min_walk":28,"pop":32574,"hh":15761,"elderly65_r":0.1703,"single_hh_r":0.4417,"source_level":"emd","flood_years":[],"landslide_hist_n":0},"geometry":{"type":"Polygon","coordinates":[[[126.63693,37.61263],[126.63639,37.61696],[126.6322,37.61889],[126.62854,37.61649],[126.62908,37.61216],[126.63327,37.61023],[126.63693,37.61263]]]}},{"type":"Feature","properties":{"h3":"8830e0a267fffff","emd_code":"2829051000","emd_name":"검단동","area_km2":0.5028,"edge":false,"slope_mean":9.51,"elev_mean":32.9,"flood_hist_n":0,"flood_depth_max_m":null,"flood_risk_100y":null,"semi_basement_r":null,"elderly_alone_r":0.1093,"bldg_age30_r":null,"shelter_min_walk":22,"pop":32574,"hh":15761,"elderly65_r":0.1703,"single_hh_r":0.4417,"source_level":"emd","flood_years":[],"landslide_hist_n":0},"geometry":{"type":"Polygon","coordinates":[[[126.64478,37.6131],[126.64424,37.61743],[126.64005,37.61936],[126.63639,37.61696],[126.63693,37.61263],[126.64112,37.6107],[126.64478,37.6131]]]}},{"type":"Feature","properties":{"h3":"8830e0a26bfffff","emd_code":"2829051000","emd_name":"검단동","area_km2":0.5028,"edge":true,"slope_mean":15.83,"elev_mean":79.2,"flood_hist_n":0,"flood_depth_max_m":null,"flood_risk_100y":null,"semi_basement_r":null,"elderly_alone_r":0.1093,"bldg_age30_r":null,"shelter_min_walk":40,"pop":32574,"hh":15761,"elderly65_r":0.1703,"single_hh_r":0.4417,"source_level":"emd","flood_years":[],"landslide_hist_n":0},"geometry":{"type":"Polygon","coordinates":[[[126.64317,37.62608],[126.64264,37.63041],[126.63844,37.63234],[126.63478,37.62994],[126.63532,37.62561],[126.63951,37.62369],[126.64317,37.62608]]]}},{"type":"Feature","properties":{"h3":"8830e0a2a1fffff","emd_code":"2829052000","emd_name":"불로대곡동","area_km2":0.5038,"edge":true,"slope_mean":14.52,"elev_mean":69.7,"flood_hist_n":0,"flood_depth_max_m":null,"flood_risk_100y":null,"semi_basement_r":null,"elderly_alone_r":0.0631,"bldg_age30_r":null,"shelter_min_walk":24,"pop":48740,"hh":18686,"elderly65_r":0.1122,"single_hh_r":0.2447,"source_level":"emd","flood_years":[],"landslide_hist_n":0},"geometry":{"type":"Polygon","coordinates":[[[126.71235,37.61057],[126.71182,37.6149],[126.70763,37.61684],[126.70396,37.61444],[126.70449,37.61011],[126.70869,37.60817],[126.71235,37.61057]]]}},{"type":"Feature","properties":{"h3":"8830e0a2a5fffff","emd_code":"2829052000","emd_name":"불로대곡동","area_km2":0.5037,"edge":true,"slope_mean":15.91,"elev_mean":73.3,"flood_hist_n":0,"flood_depth_max_m":null,"flood_risk_100y":null,"semi_basement_r":null,"elderly_alone_r":0.0631,"bldg_age30_r":null,"shelter_min_walk":16,"pop":48740,"hh":18686,"elderly65_r":0.1122,"single_hh_r":0.2447,"source_level":"emd","flood_years":[],"landslide_hist_n":0},"geometry":{"type":"Polygon","coordinates":[[[126.70922,37.60384],[126.70869,37.60817],[126.70449,37.61011],[126.70083,37.60771],[126.70136,37.60338],[126.70556,37.60144],[126.70922,37.60384]]]}},{"type":"Feature","properties":{"h3":"8830e0a2a7fffff","emd_code":"2829058000","emd_name":"아라2동","area_km2":0.5038,"edge":true,"slope_mean":9.07,"elev_mean":34.2,"flood_hist_n":0,"flood_depth_max_m":null,"flood_risk_100y":null,"semi_basement_r":null,"elderly_alone_r":0.0439,"bldg_age30_r":null,"shelter_min_walk":15,"pop":32297,"hh":11481,"elderly65_r":0.0733,"single_hh_r":0.1826,"source_level":"emd","flood_years":[],"landslide_hist_n":0},"geometry":{"type":"Polygon","coordinates":[[[126.71708,37.60431],[126.71655,37.60864],[126.71235,37.61057],[126.70869,37.60817],[126.70922,37.60384],[126.71342,37.60191],[126.71708,37.60431]]]}},{"type":"Feature","properties":{"h3":"8830e0a2adfffff","emd_code":"2829052000","emd_name":"불로대곡동","area_km2":0.5036,"edge":false,"slope_mean":11.45,"elev_mean":37.0,"flood_hist_n":0,"flood_depth_max_m":null,"flood_risk_100y":null,"semi_basement_r":null,"elderly_alone_r":0.0631,"bldg_age30_r":null,"shelter_min_walk":14,"pop":48740,"hh":18686,"elderly65_r":0.1122,"single_hh_r":0.2447,"source_level":"emd","flood_years":[],"landslide_hist_n":0},"geometry":{"type":"Polygon","coordinates":[[[126.70449,37.61011],[126.70396,37.61444],[126.69977,37.61637],[126.6961,37.61397],[126.69663,37.60964],[126.70083,37.60771],[126.70449,37.61011]]]}},{"type":"Feature","properties":{"h3":"8830e0a2e1fffff","emd_code":"2829052000","emd_name":"불로대곡동","area_km2":0.5035,"edge":true,"slope_mean":7.52,"elev_mean":19.1,"flood_hist_n":1,"flood_depth_max_m":1.2,"flood_risk_100y":null,"semi_basement_r":null,"elderly_alone_r":0.0631,"bldg_age30_r":null,"shelter_min_walk":9,"pop":48740,"hh":18686,"elderly65_r":0.1122,"single_hh_r":0.2447,"source_level":"emd","flood_years":[2006],"landslide_hist_n":0},"geometry":{"type":"Polygon","coordinates":[[[126.69504,37.62263],[126.69451,37.62696],[126.69031,37.6289],[126.68665,37.6265],[126.68718,37.62217],[126.69137,37.62024],[126.69504,37.62263]]]}},{"type":"Feature","properties":{"h3":"8830e0a2e5fffff","emd_code":"2829052000","emd_name":"불로대곡동","area_km2":0.5035,"edge":false,"slope_mean":9.22,"elev_mean":22.2,"flood_hist_n":0,"flood_depth_max_m":null,"flood_risk_100y":null,"semi_basement_r":null,"elderly_alone_r":0.0631,"bldg_age30_r":null,"shelter_min_walk":4,"pop":48740,"hh":18686,"elderly65_r":0.1122,"single_hh_r":0.2447,"source_level":"emd","flood_years":[],"landslide_hist_n":0},"geometry":{"type":"Polygon","coordinates":[[[126.69191,37.6159],[126.69137,37.62024],[126.68718,37.62217],[126.68352,37.61977],[126.68405,37.61544],[126.68824,37.61351],[126.69191,37.6159]]]}},{"type":"Feature","properties":{"h3":"8830e0a2e7fffff","emd_code":"2829052000","emd_name":"불로대곡동","area_km2":0.5036,"edge":false,"slope_mean":10.65,"elev_mean":30.2,"flood_hist_n":0,"flood_depth_max_m":null,"flood_risk_100y":null,"semi_basement_r":null,"elderly_alone_r":0.0631,"bldg_age30_r":null,"shelter_min_walk":6,"pop":48740,"hh":18686,"elderly65_r":0.1122,"single_hh_r":0.2447,"source_level":"emd","flood_years":[],"landslide_hist_n":0},"geometry":{"type":"Polygon","coordinates":[[[126.69977,37.61637],[126.69923,37.6207],[126.69504,37.62263],[126.69137,37.62024],[126.69191,37.6159],[126.6961,37.61397],[126.69977,37.61637]]]}},{"type":"Feature","properties":{"h3":"8830e0a2edfffff","emd_code":"2829052000","emd_name":"불로대곡동","area_km2":0.5034,"edge":false,"slope_mean":6.66,"elev_mean":12.8,"flood_hist_n":1,"flood_depth_max_m":1.2,"flood_risk_100y":null,"semi_basement_r":null,"elderly_alone_r":0.0631,"bldg_age30_r":null,"shelter_min_walk":14,"pop":48740,"hh":18686,"elderly65_r":0.1122,"single_hh_r":0.2447,"source_level":"emd","flood_years":[2006],"landslide_hist_n":0},"geometry":{"type":"Polygon","coordinates":[[[126.68718,37.62217],[126.68665,37.6265],[126.68245,37.62843],[126.67879,37.62603],[126.67932,37.6217],[126.68352,37.61977],[126.68718,37.62217]]]}},{"type":"Feature","properties":{"h3":"8830e0a301fffff","emd_code":"2829055000","emd_name":"오류왕길동","area_km2":0.5026,"edge":false,"slope_mean":3.88,"elev_mean":24.5,"flood_hist_n":0,"flood_depth_max_m":null,"flood_risk_100y":null,"semi_basement_r":null,"elderly_alone_r":0.1068,"bldg_age30_r":null,"shelter_min_walk":24,"pop":25570,"hh":10867,"elderly65_r":0.1814,"single_hh_r":0.3269,"source_level":"emd","flood_years":[],"landslide_hist_n":0},"geometry":{"type":"Polygon","coordinates":[[[126.63702,37.57994],[126.63648,37.58427],[126.63229,37.5862],[126.62864,37.5838],[126.62917,37.57947],[126.63336,37.57754],[126.63702,37.57994]]]}},{"type":"Feature","properties":{"h3":"8830e0a303fffff","emd_code":"2829055000","emd_name":"오류왕길동","area_km2":0.5027,"edge":false,"slope_mean":5.98,"elev_mean":24.5,"flood_hist_n":0,"flood_depth_max_m":null,"flood_risk_100y":null,"semi_basement_r":null,"elderly_alone_r":0.1068,"bldg_age30_r":null,"shelter_min_walk":25,"pop":25570,"hh":10867,"elderly65_r":0.1814,"single_hh_r":0.3269,"source_level":"emd","flood_years":[],"landslide_hist_n":0},"geometry":{"type":"Polygon","coordinates":[[[126.64486,37.5804],[126.64433,37.58473],[126.64014,37.58666],[126.63648,37.58427],[126.63702,37.57994],[126.64121,37.57801],[126.64486,37.5804]]]}},{"type":"Feature","properties":{"h3":"8830e0a305fffff","emd_code":"2829055000","emd_name":"오류왕길동","area_km2":0.5026,"edge":false,"slope_mean":3.49,"elev_mean":28.9,"flood_hist_n":0,"flood_depth_max_m":null,"flood_risk_100y":null,"semi_basement_r":null,"elderly_alone_r":0.1068,"bldg_age30_r":null,"shelter_min_walk":35,"pop":25570,"hh":10867,"elderly65_r":0.1814,"single_hh_r":0.3269,"source_level":"emd","flood_years":[],"landslide_hist_n":0},"geometry":{"type":"Polygon","coordinates":[[[126.6339,37.57321],[126.63336,37.57754],[126.62917,37.57947],[126.62552,37.57707],[126.62605,37.57275],[126.63024,37.57082],[126.6339,37.57321]]]}},{"type":"Feature","properties":{"h3":"8830e0a307fffff","emd_code":"2829055000","emd_name":"오류왕길동","area_km2":0.5027,"edge":false,"slope_mean":2.97,"elev_mean":31.3,"flood_hist_n":0,"flood_depth_max_m":null,"flood_risk_100y":null,"semi_basement_r":null,"elderly_alone_r":0.1068,"bldg_age30_r":null,"shelter_min_walk":33,"pop":25570,"hh":10867,"elderly65_r":0.1814,"single_hh_r":0.3269,"source_level":"emd","flood_years":[],"landslide_hist_n":0},"geometry":{"type":"Polygon","coordinates":[[[126.64174,37.57368],[126.64121,37.57801],[126.63702,37.57994],[126.63336,37.57754],[126.6339,37.57321],[126.63809,37.57128],[126.64174,37.57368]]]}},{"type":"Feature","properties":{"h3":"8830e0a309fffff","emd_code":"2829055000","emd_name":"오류왕길동","area_km2":0.5026,"edge":false,"slope_mean":2.42,"elev_mean":7.2,"flood_hist_n":0,"flood_depth_max_m":null,"flood_risk_100y":null,"semi_basement_r":null,"elderly_alone_r":0.1068,"bldg_age30_r":null,"shelter_min_walk":15,"pop":25570,"hh":10867,"elderly65_r":0.1814,"single_hh_r":0.3269,"source_level":"emd","flood_years":[],"landslide_hist_n":0},"geometry":{"type":"Polygon","coordinates":[[[126.63229,37.5862],[126.63176,37.59052],[126.62757,37.59245],[126.62391,37.59006],[126.62445,37.58573],[126.62864,37.5838],[126.63229,37.5862]]]}},{"type":"Feature","properties":{"h3":"8830e0a30bfffff","emd_code":"2829055000","emd_name":"오류왕길동","area_km2":0.5027,"edge":false,"slope_mean":6.28,"elev_mean":13.5,"flood_hist_n":0,"flood_depth_max_m":null,"flood_risk_100y":null,"semi_basement_r":null,"elderly_alone_r":0.1068,"bldg_age30_r":null,"shelter_min_walk":13,"pop":25570,"hh":10867,"elderly65_r":0.1814,"single_hh_r":0.3269,"source_level":"emd","flood_years":[],"landslide_hist_n":0},"geometry":{"type":"Polygon","coordinates":[[[126.64014,37.58666],[126.6396,37.59099],[126.63541,37.59292],[126.63176,37.59052],[126.63229,37.5862],[126.63648,37.58427],[126.64014,37.58666]]]}},{"type":"Feature","properties":{"h3":"8830e0a30dfffff","emd_code":"2829055000","emd_name":"오류왕길동","area_km2":0.5025,"edge":false,"slope_mean":4.07,"elev_mean":10.0,"flood_hist_n":0,"flood_depth_max_m":null,"flood_risk_100y":null,"semi_basement_r":null,"elderly_alone_r":0.1068,"bldg_age30_r":null,"shelter_min_walk":27,"pop":25570,"hh":10867,"elderly65_r":0.1814,"single_hh_r":0.3269,"source_level":"emd","flood_years":[],"landslide_hist_n":0},"geometry":{"type":"Polygon","coordinates":[[[126.62917,37.57947],[126.62864,37.5838],[126.62445,37.58573],[126.62079,37.58333],[126.62133,37.579],[126.62552,37.57707],[126.62917,37.57947]]]}},{"type":"Feature","properties":{"h3":"8830e0a311fffff","emd_code":"2829055000","emd_name":"오류왕길동","area_km2":0.5029,"edge":false,"slope_mean":5.07,"elev_mean":11.3,"flood_hist_n":0,"flood_depth_max_m":null,"flood_risk_100y":null,"semi_basement_r":null,"elderly_alone_r":0.1068,"bldg_age30_r":null,"shelter_min_walk":21,"pop":25570,"hh":10867,"elderly65_r":0.1814,"single_hh_r":0.3269,"source_level":"emd","flood_years":[],"landslide_hist_n":0},"geometry":{"type":"Polygon","coordinates":[[[126.65584,37.5876],[126.6553,37.59193],[126.65111,37.59386],[126.64745,37.59146],[126.64799,37.58713],[126.65218,37.5852],[126.65584,37.5876]]]}},{"type":"Feature","properties":{"h3":"8830e0a313fffff","emd_code":"2829055000","emd_name":"오류왕길동","area_km2":0.503,"edge":false,"slope_mean":11.26,"elev_mean":31.8,"flood_hist_n":0,"flood_depth_max_m":null,"flood_risk_100y":null,"semi_basement_r":null,"elderly_alone_r":0.1068,"bldg_age30_r":null,"shelter_min_walk":16,"pop":25570,"hh":10867,"elderly65_r":0.1814,"single_hh_r":0.3269,"source_level":"emd","flood_years":[],"landslide_hist_n":0},"geometry":{"type":"Polygon","coordinates":[[[126.66369,37.58806],[126.66315,37.59239],[126.65896,37.59432],[126.6553,37.59193],[126.65584,37.5876],[126.66003,37.58567],[126.66369,37.58806]]]}},{"type":"Feature","properties":{"h3":"8830e0a315fffff","emd_code":"2829055000","emd_name":"오류왕길동","area_km2":0.5028,"edge":false,"slope_mean":7.29,"elev_mean":18.7,"flood_hist_n":0,"flood_depth_max_m":null,"flood_risk_100y":null,"semi_basement_r":null,"elderly_alone_r":0.1068,"bldg_age30_r":null,"shelter_min_walk":25,"pop":25570,"hh":10867,"elderly65_r":0.1814,"single_hh_r":0.3269,"source_level":"emd","flood_years":[],"landslide_hist_n":0},"geometry":{"type":"Polygon","coordinates":[[[126.65271,37.58087],[126.65218,37.5852],[126.64799,37.58713],[126.64433,37.58473],[126.64486,37.5804],[126.64906,37.57847],[126.65271,37.58087]]]}},{"type":"Feature","properties":{"h3":"8830e0a317fffff","emd_code":"2829055000","emd_name":"오류왕길동","area_km2":0.503,"edge":false,"slope_mean":6.45,"elev_mean":15.1,"flood_hist_n":0,"flood_depth_max_m":null,"flood_risk_100y":null,"semi_basement_r":null,"elderly_alone_r":0.1068,"bldg_age30_r":null,"shelter_min_walk":16,"pop":25570,"hh":10867,"elderly65_r":0.1814,"single_hh_r":0.3269,"source_level":"emd","flood_years":[],"landslide_hist_n":0},"geometry":{"type":"Polygon","coordinates":[[[126.66056,37.58134],[126.66003,37.58567],[126.65584,37.5876],[126.65218,37.5852],[126.65271,37.58087],[126.6569,37.57894],[126.66056,37.58134]]]}},{"type":"Feature","properties":{"h3":"8830e0a319fffff","emd_code":"2829055000","emd_name":"오류왕길동","area_km2":0.5029,"edge":false,"slope_mean":3.96,"elev_mean":12.9,"flood_hist_n":0,"flood_depth_max_m":null,"flood_risk_100y":null,"semi_basement_r":null,"elderly_alone_r":0.1068,"bldg_age30_r":null,"shelter_min_walk":13,"pop":25570,"hh":10867,"elderly65_r":0.1814,"single_hh_r":0.3269,"source_level":"emd","flood_years":[],"landslide_hist_n":0},"geometry":{"type":"Polygon","coordinates":[[[126.65111,37.59386],[126.65057,37.59818],[126.64638,37.60011],[126.64272,37.59772],[126.64326,37.59339],[126.64745,37.59146],[126.65111,37.59386]]]}},{"type":"Feature","properties":{"h3":"8830e0a31bfffff","emd_code":"2829055000","emd_name":"오류왕길동","area_km2":0.503,"edge":false,"slope_mean":7.81,"elev_mean":25.3,"flood_hist_n":0,"flood_depth_max_m":null,"flood_risk_100y":null,"semi_basement_r":null,"elderly_alone_r":0.1068,"bldg_age30_r":null,"shelter_min_walk":9,"pop":25570,"hh":10867,"elderly65_r":0.1814,"single_hh_r":0.3269,"source_level":"emd","flood_years":[],"landslide_hist_n":0},"geometry":{"type":"Polygon","coordinates":[[[126.65896,37.59432],[126.65843,37.59865],[126.65423,37.60058],[126.65057,37.59818],[126.65111,37.59386],[126.6553,37.59193],[126.65896,37.59432]]]}},{"type":"Feature","properties":{"h3":"8830e0a31dfffff","emd_code":"2829055000","emd_name":"오류왕길동","area_km2":0.5028,"edge":false,"slope_mean":4.61,"elev_mean":12.4,"flood_hist_n":0,"flood_depth_max_m":null,"flood_risk_100y":null,"semi_basement_r":null,"elderly_alone_r":0.1068,"bldg_age30_r":null,"shelter_min_walk":19,"pop":25570,"hh":10867,"elderly65_r":0.1814,"single_hh_r":0.3269,"source_level":"emd","flood_years":[],"landslide_hist_n":0},"geometry":{"type":"Polygon","coordinates":[[[126.64799,37.58713],[126.64745,37.59146],[126.64326,37.59339],[126.6396,37.59099],[126.64014,37.58666],[126.64433,37.58473],[126.64799,37.58713]]]}},{"type":"Feature","properties":{"h3":"8830e0a329fffff","emd_code":"2829055000","emd_name":"오류왕길동","area_km2":0.5025,"edge":false,"slope_mean":2.84,"elev_mean":8.3,"flood_hist_n":0,"flood_depth_max_m":null,"flood_risk_100y":null,"semi_basement_r":null,"elderly_alone_r":0.1068,"bldg_age30_r":null,"shelter_min_walk":37,"pop":25570,"hh":10867,"elderly65_r":0.1814,"single_hh_r":0.3269,"source_level":"emd","flood_years":[],"landslide_hist_n":0},"geometry":{"type":"Polygon","coordinates":[[[126.63078,37.56649],[126.63024,37.57082],[126.62605,37.57275],[126.6224,37.57035],[126.62294,37.56602],[126.62713,37.56409],[126.63078,37.56649]]]}},{"type":"Feature","properties":{"h3":"8830e0a32bfffff","emd_code":"2829055000","emd_name":"오류왕길동","area_km2":0.5026,"edge":true,"slope_mean":3.54,"elev_mean":10.3,"flood_hist_n":0,"flood_depth_max_m":null,"flood_risk_100y":null,"semi_basement_r":null,"elderly_alone_r":0.1068,"bldg_age30_r":null,"shelter_min_walk":28,"pop":25570,"hh":10867,"elderly65_r":0.1814,"single_hh_r":0.3269,"source_level":"emd","flood_years":[],"landslide_hist_n":0},"geometry":{"type":"Polygon","coordinates":[[[126.63862,37.56695],[126.63809,37.57128],[126.6339,37.57321],[126.63024,37.57082],[126.63078,37.56649],[126.63497,37.56456],[126.63862,37.56695]]]}},{"type":"Feature","properties":{"h3":"8830e0a331fffff","emd_code":"2829055000","emd_name":"오류왕길동","area_km2":0.5028,"edge":true,"slope_mean":2.49,"elev_mean":5.3,"flood_hist_n":0,"flood_depth_max_m":null,"flood_risk_100y":null,"semi_basement_r":null,"elderly_alone_r":0.1068,"bldg_age30_r":null,"shelter_min_walk":18,"pop":25570,"hh":10867,"elderly65_r":0.1814,"single_hh_r":0.3269,"source_level":"emd","flood_years":[],"landslide_hist_n":0},"geometry":{"type":"Polygon","coordinates":[[[126.65432,37.56789],[126.65378,37.57221],[126.64959,37.57415],[126.64593,37.57175],[126.64647,37.56742],[126.65066,37.56549],[126.65432,37.56789]]]}},{"type":"Feature","properties":{"h3":"8830e0a333fffff","emd_code":"2829055000","emd_name":"오류왕길동","area_km2":0.5029,"edge":true,"slope_mean":2.96,"elev_mean":6.3,"flood_hist_n":0,"flood_depth_max_m":null,"flood_risk_100y":null,"semi_basement_r":null,"elderly_alone_r":0.1068,"bldg_age30_r":null,"shelter_min_walk":18,"pop":25570,"hh":10867,"elderly65_r":0.1814,"single_hh_r":0.3269,"source_level":"emd","flood_years":[],"landslide_hist_n":0},"geometry":{"type":"Polygon","coordinates":[[[126.66216,37.56835],[126.66163,37.57268],[126.65744,37.57461],[126.65378,37.57221],[126.65432,37.56789],[126.65851,37.56595],[126.66216,37.56835]]]}},{"type":"Feature","properties":{"h3":"8830e0a339fffff","emd_code":"2829055000","emd_name":"오류왕길동","area_km2":0.5028,"edge":false,"slope_mean":3.89,"elev_mean":14.4,"flood_hist_n":0,"flood_depth_max_m":null,"flood_risk_100y":null,"semi_basement_r":null,"elderly_alone_r":0.1068,"bldg_age30_r":null,"shelter_min_walk":28,"pop":25570,"hh":10867,"elderly65_r":0.1814,"single_hh_r":0.3269,"source_level":"emd","flood_years":[],"landslide_hist_n":0},"geometry":{"type":"Polygon","coordinates":[[[126.64959,37.57415],[126.64906,37.57847],[126.64486,37.5804],[126.64121,37.57801],[126.64174,37.57368],[126.64593,37.57175],[126.64959,37.57415]]]}},{"type":"Feature","properties":{"h3":"8830e0a33bfffff","emd_code":"2829055000","emd_name":"오류왕길동","area_km2":0.5029,"edge":false,"slope_mean":2.7,"elev_mean":8.2,"flood_hist_n":0,"flood_depth_max_m":null,"flood_risk_100y":null,"semi_basement_r":null,"elderly_alone_r":0.1068,"bldg_age30_r":null,"shelter_min_walk":18,"pop":25570,"hh":10867,"elderly65_r":0.1814,"single_hh_r":0.3269,"source_level":"emd","flood_years":[],"landslide_hist_n":0},"geometry":{"type":"Polygon","coordinates":[[[126.65744,37.57461],[126.6569,37.57894],[126.65271,37.58087],[126.64906,37.57847],[126.64959,37.57415],[126.65378,37.57221],[126.65744,37.57461]]]}},{"type":"Feature","properties":{"h3":"8830e0a33dfffff","emd_code":"2829055000","emd_name":"오류왕길동","area_km2":0.5027,"edge":true,"slope_mean":4.06,"elev_mean":8.9,"flood_hist_n":0,"flood_depth_max_m":null,"flood_risk_100y":null,"semi_basement_r":null,"elderly_alone_r":0.1068,"bldg_age30_r":null,"shelter_min_walk":21,"pop":25570,"hh":10867,"elderly65_r":0.1814,"single_hh_r":0.3269,"source_level":"emd","flood_years":[],"landslide_hist_n":0},"geometry":{"type":"Polygon","coordinates":[[[126.64647,37.56742],[126.64593,37.57175],[126.64174,37.57368],[126.63809,37.57128],[126.63862,37.56695],[126.64281,37.56502],[126.64647,37.56742]]]}},{"type":"Feature","properties":{"h3":"8830e0a341fffff","emd_code":"2829055000","emd_name":"오류왕길동","area_km2":0.5024,"edge":false,"slope_mean":1.86,"elev_mean":7.7,"flood_hist_n":0,"flood_depth_max_m":null,"flood_risk_100y":null,"semi_basement_r":null,"elderly_alone_r":0.1068,"bldg_age30_r":null,"shelter_min_walk":23,"pop":25570,"hh":10867,"elderly65_r":0.1814,"single_hh_r":0.3269,"source_level":"emd","flood_years":[],"landslide_hist_n":0},"geometry":{"type":"Polygon","coordinates":[[[126.61972,37.59198],[126.61918,37.59631],[126.61499,37.59824],[126.61134,37.59584],[126.61188,37.59152],[126.61607,37.58959],[126.61972,37.59198]]]}},{"type":"Feature","properties":{"h3":"8830e0a343fffff","emd_code":"2829055000","emd_name":"오류왕길동","area_km2":0.5025,"edge":false,"slope_mean":3.12,"elev_mean":8.4,"flood_hist_n":0,"flood_depth_max_m":null,"flood_risk_100y":null,"semi_basement_r":null,"elderly_alone_r":0.1068,"bldg_age30_r":null,"shelter_min_walk":13,"pop":25570,"hh":10867,"elderly65_r":0.1814,"single_hh_r":0.3269,"source_level":"emd","flood_years":[],"landslide_hist_n":0},"geometry":{"type":"Polygon","coordinates":[[[126.62757,37.59245],[126.62703,37.59678],[126.62284,37.59871],[126.61918,37.59631],[126.61972,37.59198],[126.62391,37.59006],[126.62757,37.59245]]]}},{"type":"Feature","properties":{"h3":"8830e0a345fffff","emd_code":"2829055000","emd_name":"오류왕길동","area_km2":0.5024,"edge":false,"slope_mean":3.47,"elev_mean":12.5,"flood_hist_n":0,"flood_depth_max_m":null,"flood_risk_100y":null,"semi_basement_r":null,"elderly_alone_r":0.1068,"bldg_age30_r":null,"shelter_min_walk":31,"pop":25570,"hh":10867,"elderly65_r":0.1814,"single_hh_r":0.3269,"source_level":"emd","flood_years":[],"landslide_hist_n":0},"geometry":{"type":"Polygon","coordinates":[[[126.6166,37.58526],[126.61607,37.58959],[126.61188,37.59152],[126.60822,37.58912],[126.60876,37.58479],[126.61295,37.58286],[126.6166,37.58526]]]}},{"type":"Feature","properties":{"h3":"8830e0a347fffff","emd_code":"2829055000","emd_name":"오류왕길동","area_km2":0.5025,"edge":false,"slope_mean":3.39,"elev_mean":8.2,"flood_hist_n":0,"flood_depth_max_m":null,"flood_risk_100y":null,"semi_basement_r":null,"elderly_alone_r":0.1068,"bldg_age30_r":null,"shelter_min_walk":22,"pop":25570,"hh":10867,"elderly65_r":0.1814,"single_hh_r":0.3269,"source_level":"emd","flood_years":[],"landslide_hist_n":0},"geometry":{"type":"Polygon","coordinates":[[[126.62445,37.58573],[126.62391,37.59006],[126.61972,37.59198],[126.61607,37.58959],[126.6166,37.58526],[126.62079,37.58333],[126.62445,37.58573]]]}},{"type":"Feature","properties":{"h3":"8830e0a349fffff","emd_code":"2829055000","emd_name":"오류왕길동","area_km2":0.5024,"edge":false,"slope_mean":1.56,"elev_mean":5.5,"flood_hist_n":0,"flood_depth_max_m":null,"flood_risk_100y":null,"semi_basement_r":null,"elderly_alone_r":0.1068,"bldg_age30_r":null,"shelter_min_walk":30,"pop":25570,"hh":10867,"elderly65_r":0.1814,"single_hh_r":0.3269,"source_level":"emd","flood_years":[],"landslide_hist_n":0},"geometry":{"type":"Polygon","coordinates":[[[126.61499,37.59824],[126.61446,37.60257],[126.61026,37.6045],[126.60661,37.6021],[126.60715,37.59777],[126.61134,37.59584],[126.61499,37.59824]]]}},{"type":"Feature","properties":{"h3":"8830e0a34bfffff","emd_code":"2829055000","emd_name":"오류왕길동","area_km2":0.5025,"edge":false,"slope_mean":1.41,"elev_mean":4.8,"flood_hist_n":0,"flood_depth_max_m":null,"flood_risk_100y":null,"semi_basement_r":null,"elderly_alone_r":0.1068,"bldg_age30_r":null,"shelter_min_walk":20,"pop":25570,"hh":10867,"elderly65_r":0.1814,"single_hh_r":0.3269,"source_level":"emd","flood_years":[],"landslide_hist_n":0},"geometry":{"type":"Polygon","coordinates":[[[126.62284,37.59871],[126.6223,37.60304],[126.61811,37.60497],[126.61446,37.60257],[126.61499,37.59824],[126.61918,37.59631],[126.62284,37.59871]]]}},{"type":"Feature","properties":{"h3":"8830e0a34dfffff","emd_code":"2829055000","emd_name":"오류왕길동","area_km2":0.5023,"edge":false,"slope_mean":2.39,"elev_mean":7.5,"flood_hist_n":0,"flood_depth_max_m":null,"flood_risk_100y":null,"semi_basement_r":null,"elderly_alone_r":0.1068,"bldg_age30_r":null,"shelter_min_walk":33,"pop":25570,"hh":10867,"elderly65_r":0.1814,"single_hh_r":0.3269,"source_level":"emd","flood_years":[],"landslide_hist_n":0},"geometry":{"type":"Polygon","coordinates":[[[126.61188,37.59152],[126.61134,37.59584],[126.60715,37.59777],[126.6035,37.59537],[126.60403,37.59105],[126.60822,37.58912],[126.61188,37.59152]]]}},{"type":"Feature","properties":{"h3":"8830e0a351fffff","emd_code":"2829055000","emd_name":"오류왕길동","area_km2":0.5027,"edge":false,"slope_mean":7.7,"elev_mean":19.8,"flood_hist_n":0,"flood_depth_max_m":null,"flood_risk_100y":null,"semi_basement_r":null,"elderly_alone_r":0.1068,"bldg_age30_r":null,"shelter_min_walk":9,"pop":25570,"hh":10867,"elderly65_r":0.1814,"single_hh_r":0.3269,"source_level":"emd","flood_years":[],"landslide_hist_n":0},"geometry":{"type":"Polygon","coordinates":[[[126.63853,37.59965],[126.638,37.60397],[126.63381,37.6059],[126.63015,37.60351],[126.63068,37.59918],[126.63488,37.59725],[126.63853,37.59965]]]}},{"type":"Feature","properties":{"h3":"8830e0a353fffff","emd_code":"2829055000","emd_name":"오류왕길동","area_km2":0.5028,"edge":false,"slope_mean":3.77,"elev_mean":11.5,"flood_hist_n":0,"flood_depth_max_m":null,"flood_risk_100y":null,"semi_basement_r":null,"elderly_alone_r":0.1068,"bldg_age30_r":null,"shelter_min_walk":11,"pop":25570,"hh":10867,"elderly65_r":0.1814,"single_hh_r":0.3269,"source_level":"emd","flood_years":[],"landslide_hist_n":0},"geometry":{"type":"Polygon","coordinates":[[[126.64638,37.60011],[126.64585,37.60444],[126.64165,37.60637],[126.638,37.60397],[126.63853,37.59965],[126.64272,37.59772],[126.64638,37.60011]]]}},{"type":"Feature","properties":{"h3":"8830e0a355fffff","emd_code":"2829055000","emd_name":"오류왕길동","area_km2":0.5026,"edge":false,"slope_mean":6.43,"elev_mean":17.9,"flood_hist_n":0,"flood_depth_max_m":null,"flood_risk_100y":null,"semi_basement_r":null,"elderly_alone_r":0.1068,"bldg_age30_r":null,"shelter_min_walk":3,"pop":25570,"hh":10867,"elderly65_r":0.1814,"single_hh_r":0.3269,"source_level":"emd","flood_years":[],"landslide_hist_n":0},"geometry":{"type":"Polygon","coordinates":[[[126.63541,37.59292],[126.63488,37.59725],[126.63068,37.59918],[126.62703,37.59678],[126.62757,37.59245],[126.63176,37.59052],[126.63541,37.59292]]]}},{"type":"Feature","properties":{"h3":"8830e0a357fffff","emd_code":"2829055000","emd_name":"오류왕길동","area_km2":0.5027,"edge":false,"slope_mean":5.19,"elev_mean":15.6,"flood_hist_n":0,"flood_depth_max_m":null,"flood_risk_100y":null,"semi_basement_r":null,"elderly_alone_r":0.1068,"bldg_age30_r":null,"shelter_min_walk":8,"pop":25570,"hh":10867,"elderly65_r":0.1814,"single_hh_r":0.3269,"source_level":"emd","flood_years":[],"landslide_hist_n":0},"geometry":{"type":"Polygon","coordinates":[[[126.64326,37.59339],[126.64272,37.59772],[126.63853,37.59965],[126.63488,37.59725],[126.63541,37.59292],[126.6396,37.59099],[126.64326,37.59339]]]}},{"type":"Feature","properties":{"h3":"8830e0a359fffff","emd_code":"2829051000","emd_name":"검단동","area_km2":0.5026,"edge":false,"slope_mean":2.6,"elev_mean":6.4,"flood_hist_n":0,"flood_depth_max_m":null,"flood_risk_100y":null,"semi_basement_r":null,"elderly_alone_r":0.1093,"bldg_age30_r":null,"shelter_min_walk":20,"pop":32574,"hh":15761,"elderly65_r":0.1703,"single_hh_r":0.4417,"source_level":"emd","flood_years":[],"landslide_hist_n":0},"geometry":{"type":"Polygon","coordinates":[[[126.63381,37.6059],[126.63327,37.61023],[126.62908,37.61216],[126.62542,37.60976],[126.62596,37.60544],[126.63015,37.60351],[126.63381,37.6059]]]}},{"type":"Feature","properties":{"h3":"8830e0a35bfffff","emd_code":"2829051000","emd_name":"검단동","area_km2":0.5028,"edge":false,"slope_mean":3.46,"elev_mean":8.8,"flood_hist_n":0,"flood_depth_max_m":null,"flood_risk_100y":null,"semi_basement_r":null,"elderly_alone_r":0.1093,"bldg_age30_r":null,"shelter_min_walk":18,"pop":32574,"hh":15761,"elderly65_r":0.1703,"single_hh_r":0.4417,"source_level":"emd","flood_years":[],"landslide_hist_n":0},"geometry":{"type":"Polygon","coordinates":[[[126.64165,37.60637],[126.64112,37.6107],[126.63693,37.61263],[126.63327,37.61023],[126.63381,37.6059],[126.638,37.60397],[126.64165,37.60637]]]}},{"type":"Feature","properties":{"h3":"8830e0a35dfffff","emd_code":"2829055000","emd_name":"오류왕길동","area_km2":0.5026,"edge":false,"slope_mean":4.64,"elev_mean":9.4,"flood_hist_n":0,"flood_depth_max_m":null,"flood_risk_100y":null,"semi_basement_r":null,"elderly_alone_r":0.1068,"bldg_age30_r":null,"shelter_min_walk":12,"pop":25570,"hh":10867,"elderly65_r":0.1814,"single_hh_r":0.3269,"source_level":"emd","flood_years":[],"landslide_hist_n":0},"geometry":{"type":"Polygon","coordinates":[[[126.63068,37.59918],[126.63015,37.60351],[126.62596,37.60544],[126.6223,37.60304],[126.62284,37.59871],[126.62703,37.59678],[126.63068,37.59918]]]}},{"type":"Feature","properties":{"h3":"8830e0a361fffff","emd_code":"2829055000","emd_name":"오류왕길동","area_km2":0.5023,"edge":false,"slope_mean":1.95,"elev_mean":35.2,"flood_hist_n":0,"flood_depth_max_m":null,"flood_risk_100y":null,"semi_basement_r":null,"elderly_alone_r":0.1068,"bldg_age30_r":null,"shelter_min_walk":44,"pop":25570,"hh":10867,"elderly65_r":0.1814,"single_hh_r":0.3269,"source_level":"emd","flood_years":[],"landslide_hist_n":0},"geometry":{"type":"Polygon","coordinates":[[[126.61821,37.57228],[126.61767,37.57661],[126.61349,37.57854],[126.60983,37.57614],[126.61037,37.57181],[126.61456,37.56988],[126.61821,37.57228]]]}},{"type":"Feature","properties":{"h3":"8830e0a363fffff","emd_code":"2829055000","emd_name":"오류왕길동","area_km2":0.5025,"edge":false,"slope_mean":4.92,"elev_mean":16.3,"flood_hist_n":0,"flood_depth_max_m":null,"flood_risk_100y":null,"semi_basement_r":null,"elderly_alone_r":0.1068,"bldg_age30_r":null,"shelter_min_walk":39,"pop":25570,"hh":10867,"elderly65_r":0.1814,"single_hh_r":0.3269,"source_level":"emd","flood_years":[],"landslide_hist_n":0},"geometry":{"type":"Polygon","coordinates":[[[126.62605,37.57275],[126.62552,37.57707],[126.62133,37.579],[126.61767,37.57661],[126.61821,37.57228],[126.6224,37.57035],[126.62605,37.57275]]]}},{"type":"Feature","properties":{"h3":"8830e0a365fffff","emd_code":"2829055000","emd_name":"오류왕길동","area_km2":0.5023,"edge":false,"slope_mean":3.16,"elev_mean":16.8,"flood_hist_n":0,"flood_depth_max_m":null,"flood_risk_100y":null,"semi_basement_r":null,"elderly_alone_r":0.1068,"bldg_age30_r":null,"shelter_min_walk":51,"pop":25570,"hh":10867,"elderly65_r":0.1814,"single_hh_r":0.3269,"source_level":"emd","flood_years":[],"landslide_hist_n":0},"geometry":{"type":"Polygon","coordinates":[[[126.61509,37.56556],[126.61456,37.56988],[126.61037,37.57181],[126.60672,37.56941],[126.60725,37.56509],[126.61144,37.56316],[126.61509,37.56556]]]}},{"type":"Feature","properties":{"h3":"8830e0a367fffff","emd_code":"2829055000","emd_name":"오류왕길동","area_km2":0.5024,"edge":false,"slope_mean":4.17,"elev_mean":14.3,"flood_hist_n":0,"flood_depth_max_m":null,"flood_risk_100y":null,"semi_basement_r":null,"elderly_alone_r":0.1068,"bldg_age30_r":null,"shelter_min_walk":46,"pop":25570,"hh":10867,"elderly65_r":0.1814,"single_hh_r":0.3269,"source_level":"emd","flood_years":[],"landslide_hist_n":0},"geometry":{"type":"Polygon","coordinates":[[[126.62294,37.56602],[126.6224,37.57035],[126.61821,37.57228],[126.61456,37.56988],[126.61509,37.56556],[126.61928,37.56363],[126.62294,37.56602]]]}},{"type":"Feature","properties":{"h3":"8830e0a369fffff","emd_code":"2829055000","emd_name":"오류왕길동","area_km2":0.5023,"edge":false,"slope_mean":3.58,"elev_mean":29.1,"flood_hist_n":0,"flood_depth_max_m":null,"flood_risk_100y":null,"semi_basement_r":null,"elderly_alone_r":0.1068,"bldg_age30_r":null,"shelter_min_walk":41,"pop":25570,"hh":10867,"elderly65_r":0.1814,"single_hh_r":0.3269,"source_level":"emd","flood_years":[],"landslide_hist_n":0},"geometry":{"type":"Polygon","coordinates":[[[126.61349,37.57854],[126.61295,37.58286],[126.60876,37.58479],[126.60511,37.58239],[126.60564,37.57807],[126.60983,37.57614],[126.61349,37.57854]]]}},{"type":"Feature","properties":{"h3":"8830e0a36bfffff","emd_code":"2829055000","emd_name":"오류왕길동","area_km2":0.5024,"edge":false,"slope_mean":4.62,"elev_mean":25.0,"flood_hist_n":0,"flood_depth_max_m":null,"flood_risk_100y":null,"semi_basement_r":null,"elderly_alone_r":0.1068,"bldg_age30_r":null,"shelter_min_walk":33,"pop":25570,"hh":10867,"elderly65_r":0.1814,"single_hh_r":0.3269,"source_level":"emd","flood_years":[],"landslide_hist_n":0},"geometry":{"type":"Polygon","coordinates":[[[126.62133,37.579],[126.62079,37.58333],[126.6166,37.58526],[126.61295,37.58286],[126.61349,37.57854],[126.61767,37.57661],[126.62133,37.579]]]}},{"type":"Feature","properties":{"h3":"8830e0a36dfffff","emd_code":"2829055000","emd_name":"오류왕길동","area_km2":0.5022,"edge":false,"slope_mean":3.3,"elev_mean":16.8,"flood_hist_n":0,"flood_depth_max_m":null,"flood_risk_100y":null,"semi_basement_r":null,"elderly_alone_r":0.1068,"bldg_age30_r":null,"shelter_min_walk":51,"pop":25570,"hh":10867,"elderly65_r":0.1814,"single_hh_r":0.3269,"source_level":"emd","flood_years":[],"landslide_hist_n":0},"geometry":{"type":"Polygon","coordinates":[[[126.61037,37.57181],[126.60983,37.57614],[126.60564,37.57807],[126.60199,37.57567],[126.60253,37.57134],[126.60672,37.56941],[126.61037,37.57181]]]}},{"type":"Feature","properties":{"h3":"8830e0b1a3fffff","emd_code":"2829055000","emd_name":"오류왕길동","area_km2":0.5023,"edge":true,"slope_mean":0.77,"elev_mean":4.0,"flood_hist_n":0,"flood_depth_max_m":null,"flood_risk_100y":null,"semi_basement_r":null,"elderly_alone_r":0.1068,"bldg_age30_r":null,"shelter_min_walk":39,"pop":25570,"hh":10867,"elderly65_r":0.1814,"single_hh_r":0.3269,"source_level":"emd","flood_years":[],"landslide_hist_n":0},"geometry":{"type":"Polygon","coordinates":[[[126.61026,37.6045],[126.60973,37.60882],[126.60554,37.61075],[126.60188,37.60835],[126.60242,37.60402],[126.60661,37.6021],[126.61026,37.6045]]]}},{"type":"Feature","properties":{"h3":"8830e0b1a7fffff","emd_code":"2829055000","emd_name":"오류왕길동","area_km2":0.5023,"edge":true,"slope_mean":0.72,"elev_mean":3.6,"flood_hist_n":0,"flood_depth_max_m":null,"flood_risk_100y":null,"semi_basement_r":null,"elderly_alone_r":0.1068,"bldg_age30_r":null,"shelter_min_walk":40,"pop":25570,"hh":10867,"elderly65_r":0.1814,"single_hh_r":0.3269,"source_level":"emd","flood_years":[],"landslide_hist_n":0},"geometry":{"type":"Polygon","coordinates":[[[126.60715,37.59777],[126.60661,37.6021],[126.60242,37.60402],[126.59877,37.60163],[126.59931,37.5973],[126.6035,37.59537],[126.60715,37.59777]]]}},{"type":"Feature","properties":{"h3":"8830e0b1b5fffff","emd_code":"2829055000","emd_name":"오류왕길동","area_km2":0.5024,"edge":true,"slope_mean":0.73,"elev_mean":3.9,"flood_hist_n":0,"flood_depth_max_m":null,"flood_risk_100y":null,"semi_basement_r":null,"elderly_alone_r":0.1068,"bldg_age30_r":null,"shelter_min_walk":30,"pop":25570,"hh":10867,"elderly65_r":0.1814,"single_hh_r":0.3269,"source_level":"emd","flood_years":[],"landslide_hist_n":0},"geometry":{"type":"Polygon","coordinates":[[[126.61811,37.60497],[126.61757,37.60929],[126.61338,37.61122],[126.60973,37.60882],[126.61026,37.6045],[126.61446,37.60257],[126.61811,37.60497]]]}},{"type":"Feature","properties":{"h3":"8830e0b1b7fffff","emd_code":"2829055000","emd_name":"오류왕길동","area_km2":0.5025,"edge":true,"slope_mean":1.56,"elev_mean":5.4,"flood_hist_n":0,"flood_depth_max_m":null,"flood_risk_100y":null,"semi_basement_r":null,"elderly_alone_r":0.1068,"bldg_age30_r":null,"shelter_min_walk":23,"pop":25570,"hh":10867,"elderly65_r":0.1814,"single_hh_r":0.3269,"source_level":"emd","flood_years":[],"landslide_hist_n":0},"geometry":{"type":"Polygon","coordinates":[[[126.62596,37.60544],[126.62542,37.60976],[126.62123,37.61169],[126.61757,37.60929],[126.61811,37.60497],[126.6223,37.60304],[126.62596,37.60544]]]}},{"type":"Feature","properties":{"h3":"8830e0b8d9fffff","emd_code":"2829055000","emd_name":"오류왕길동","area_km2":0.5022,"edge":true,"slope_mean":1.84,"elev_mean":4.6,"flood_hist_n":0,"flood_depth_max_m":null,"flood_risk_100y":null,"semi_basement_r":null,"elderly_alone_r":0.1068,"bldg_age30_r":null,"shelter_min_walk":42,"pop":25570,"hh":10867,"elderly65_r":0.1814,"single_hh_r":0.3269,"source_level":"emd","flood_years":[],"landslide_hist_n":0},"geometry":{"type":"Polygon","coordinates":[[[126.61198,37.55883],[126.61144,37.56316],[126.60725,37.56509],[126.6036,37.56269],[126.60414,37.55837],[126.60833,37.55644],[126.61198,37.55883]]]}},{"type":"Feature","properties":{"h3":"8830e0b8dbfffff","emd_code":"2829055000","emd_name":"오류왕길동","area_km2":0.5023,"edge":true,"slope_mean":1.82,"elev_mean":5.8,"flood_hist_n":0,"flood_depth_max_m":null,"flood_risk_100y":null,"semi_basement_r":null,"elderly_alone_r":0.1068,"bldg_age30_r":null,"shelter_min_walk":39,"pop":25570,"hh":10867,"elderly65_r":0.1814,"single_hh_r":0.3269,"source_level":"emd","flood_years":[],"landslide_hist_n":0},"geometry":{"type":"Polygon","coordinates":[[[126.61982,37.5593],[126.61928,37.56363],[126.61509,37.56556],[126.61144,37.56316],[126.61198,37.55883],[126.61617,37.5569],[126.61982,37.5593]]]}},{"type":"Feature","properties":{"h3":"8830e0ba81fffff","emd_code":"2829055000","emd_name":"오류왕길동","area_km2":0.5019,"edge":false,"slope_mean":0.67,"elev_mean":0.8,"flood_hist_n":0,"flood_depth_max_m":null,"flood_risk_100y":null,"semi_basement_r":null,"elderly_alone_r":0.1068,"bldg_age30_r":null,"shelter_min_walk":78,"pop":25570,"hh":10867,"elderly65_r":0.1814,"single_hh_r":0.3269,"source_level":"emd","flood_years":[],"landslide_hist_n":0},"geometry":{"type":"Polygon","coordinates":[[[126.58213,37.57666],[126.58159,37.58098],[126.5774,37.58291],[126.57375,37.58051],[126.57429,37.57619],[126.57848,37.57426],[126.58213,37.57666]]]}},{"type":"Feature","properties":{"h3":"8830e0ba83fffff","emd_code":"2829055000","emd_name":"오류왕길동","area_km2":0.502,"edge":false,"slope_mean":2.01,"elev_mean":3.9,"flood_hist_n":0,"flood_depth_max_m":null,"flood_risk_100y":null,"semi_basement_r":null,"elderly_alone_r":0.1068,"bldg_age30_r":null,"shelter_min_walk":68,"pop":25570,"hh":10867,"elderly65_r":0.1814,"single_hh_r":0.3269,"source_level":"emd","flood_years":[],"landslide_hist_n":0},"geometry":{"type":"Polygon","coordinates":[[[126.58996,37.57713],[126.58943,37.58145],[126.58524,37.58338],[126.58159,37.58098],[126.58213,37.57666],[126.58631,37.57473],[126.58996,37.57713]]]}},{"type":"Feature","properties":{"h3":"8830e0ba87fffff","emd_code":"2829055000","emd_name":"오류왕길동","area_km2":0.5019,"edge":false,"slope_mean":0.72,"elev_mean":1.1,"flood_hist_n":0,"flood_depth_max_m":null,"flood_risk_100y":null,"semi_basement_r":null,"elderly_alone_r":0.1068,"bldg_age30_r":null,"shelter_min_walk":76,"pop":25570,"hh":10867,"elderly65_r":0.1814,"single_hh_r":0.3269,"source_level":"emd","flood_years":[],"landslide_hist_n":0},"geometry":{"type":"Polygon","coordinates":[[[126.58685,37.57041],[126.58631,37.57473],[126.58213,37.57666],[126.57848,37.57426],[126.57902,37.56994],[126.5832,37.56801],[126.58685,37.57041]]]}},{"type":"Feature","properties":{"h3":"8830e0ba89fffff","emd_code":"2829055000","emd_name":"오류왕길동","area_km2":0.5018,"edge":true,"slope_mean":0.73,"elev_mean":0.7,"flood_hist_n":0,"flood_depth_max_m":null,"flood_risk_100y":null,"semi_basement_r":null,"elderly_alone_r":0.1068,"bldg_age30_r":null,"shelter_min_walk":81,"pop":25570,"hh":10867,"elderly65_r":0.1814,"single_hh_r":0.3269,"source_level":"emd","flood_years":[],"landslide_hist_n":0},"geometry":{"type":"Polygon","coordinates":[[[126.5774,37.58291],[126.57686,37.58724],[126.57267,37.58916],[126.56902,37.58677],[126.56956,37.58244],[126.57375,37.58051],[126.5774,37.58291]]]}},{"type":"Feature","properties":{"h3":"8830e0ba8bfffff","emd_code":"2829055000","emd_name":"오류왕길동","area_km2":0.5019,"edge":false,"slope_mean":1.25,"elev_mean":1.6,"flood_hist_n":0,"flood_depth_max_m":null,"flood_risk_100y":null,"semi_basement_r":null,"elderly_alone_r":0.1068,"bldg_age30_r":null,"shelter_min_walk":71,"pop":25570,"hh":10867,"elderly65_r":0.1814,"single_hh_r":0.3269,"source_level":"emd","flood_years":[],"landslide_hist_n":0},"geometry":{"type":"Polygon","coordinates":[[[126.58524,37.58338],[126.5847,37.58771],[126.58051,37.58963],[126.57686,37.58724],[126.5774,37.58291],[126.58159,37.58098],[126.58524,37.58338]]]}},{"type":"Feature","properties":{"h3":"8830e0ba91fffff","emd_code":"2829055000","emd_name":"오류왕길동","area_km2":0.5021,"edge":false,"slope_mean":2.64,"elev_mean":7.0,"flood_hist_n":0,"flood_depth_max_m":null,"flood_risk_100y":null,"semi_basement_r":null,"elderly_alone_r":0.1068,"bldg_age30_r":null,"shelter_min_walk":50,"pop":25570,"hh":10867,"elderly65_r":0.1814,"single_hh_r":0.3269,"source_level":"emd","flood_years":[],"landslide_hist_n":0},"geometry":{"type":"Polygon","coordinates":[[[126.60092,37.58432],[126.60038,37.58865],[126.59619,37.59058],[126.59254,37.58818],[126.59308,37.58385],[126.59727,37.58192],[126.60092,37.58432]]]}},{"type":"Feature","properties":{"h3":"8830e0ba93fffff","emd_code":"2829055000","emd_name":"오류왕길동","area_km2":0.5022,"edge":false,"slope_mean":3.78,"elev_mean":11.7,"flood_hist_n":0,"flood_depth_max_m":null,"flood_risk_100y":null,"semi_basement_r":null,"elderly_alone_r":0.1068,"bldg_age30_r":null,"shelter_min_walk":41,"pop":25570,"hh":10867,"elderly65_r":0.1814,"single_hh_r":0.3269,"source_level":"emd","flood_years":[],"landslide_hist_n":0},"geometry":{"type":"Polygon","coordinates":[[[126.60876,37.58479],[126.60822,37.58912],[126.60403,37.59105],[126.60038,37.58865],[126.60092,37.58432],[126.60511,37.58239],[126.60876,37.58479]]]}},{"type":"Feature","properties":{"h3":"8830e0ba95fffff","emd_code":"2829055000","emd_name":"오류왕길동","area_km2":0.5021,"edge":false,"slope_mean":1.84,"elev_mean":4.0,"flood_hist_n":0,"flood_depth_max_m":null,"flood_risk_100y":null,"semi_basement_r":null,"elderly_alone_r":0.1068,"bldg_age30_r":null,"shelter_min_walk":59,"pop":25570,"hh":10867,"elderly65_r":0.1814,"single_hh_r":0.3269,"source_level":"emd","flood_years":[],"landslide_hist_n":0},"geometry":{"type":"Polygon","coordinates":[[[126.5978,37.5776],[126.59727,37.58192],[126.59308,37.58385],[126.58943,37.58145],[126.58996,37.57713],[126.59415,37.5752],[126.5978,37.5776]]]}},{"type":"Feature","properties":{"h3":"8830e0ba97fffff","emd_code":"2829055000","emd_name":"오류왕길동","area_km2":0.5022,"edge":false,"slope_mean":2.78,"elev_mean":6.0,"flood_hist_n":0,"flood_depth_max_m":null,"flood_risk_100y":null,"semi_basement_r":null,"elderly_alone_r":0.1068,"bldg_age30_r":null,"shelter_min_walk":49,"pop":25570,"hh":10867,"elderly65_r":0.1814,"single_hh_r":0.3269,"source_level":"emd","flood_years":[],"landslide_hist_n":0},"geometry":{"type":"Polygon","coordinates":[[[126.60564,37.57807],[126.60511,37.58239],[126.60092,37.58432],[126.59727,37.58192],[126.5978,37.5776],[126.60199,37.57567],[126.60564,37.57807]]]}},{"type":"Feature","properties":{"h3":"8830e0ba99fffff","emd_code":"2829055000","emd_name":"오류왕길동","area_km2":0.5021,"edge":false,"slope_mean":1.21,"elev_mean":4.2,"flood_hist_n":0,"flood_depth_max_m":null,"flood_risk_100y":null,"semi_basement_r":null,"elderly_alone_r":0.1068,"bldg_age30_r":null,"shelter_min_walk":54,"pop":25570,"hh":10867,"elderly65_r":0.1814,"single_hh_r":0.3269,"source_level":"emd","flood_years":[],"landslide_hist_n":0},"geometry":{"type":"Polygon","coordinates":[[[126.59619,37.59058],[126.59565,37.5949],[126.59146,37.59683],[126.58781,37.59443],[126.58835,37.59011],[126.59254,37.58818],[126.59619,37.59058]]]}},{"type":"Feature","properties":{"h3":"8830e0ba9bfffff","emd_code":"2829055000","emd_name":"오류왕길동","area_km2":0.5022,"edge":false,"slope_mean":1.21,"elev_mean":4.5,"flood_hist_n":0,"flood_depth_max_m":null,"flood_risk_100y":null,"semi_basement_r":null,"elderly_alone_r":0.1068,"bldg_age30_r":null,"shelter_min_walk":44,"pop":25570,"hh":10867,"elderly65_r":0.1814,"single_hh_r":0.3269,"source_level":"emd","flood_years":[],"landslide_hist_n":0},"geometry":{"type":"Polygon","coordinates":[[[126.60403,37.59105],[126.6035,37.59537],[126.59931,37.5973],[126.59565,37.5949],[126.59619,37.59058],[126.60038,37.58865],[126.60403,37.59105]]]}},{"type":"Feature","properties":{"h3":"8830e0ba9dfffff","emd_code":"2829055000","emd_name":"오류왕길동","area_km2":0.502,"edge":false,"slope_mean":1.5,"elev_mean":2.9,"flood_hist_n":0,"flood_depth_max_m":null,"flood_risk_100y":null,"semi_basement_r":null,"elderly_alone_r":0.1068,"bldg_age30_r":null,"shelter_min_walk":60,"pop":25570,"hh":10867,"elderly65_r":0.1814,"single_hh_r":0.3269,"source_level":"emd","flood_years":[],"landslide_hist_n":0},"geometry":{"type":"Polygon","coordinates":[[[126.59308,37.58385],[126.59254,37.58818],[126.58835,37.59011],[126.5847,37.58771],[126.58524,37.58338],[126.58943,37.58145],[126.59308,37.58385]]]}},{"type":"Feature","properties":{"h3":"8830e0bab1fffff","emd_code":"2829055000","emd_name":"오류왕길동","area_km2":0.5021,"edge":false,"slope_mean":2.06,"elev_mean":6.4,"flood_hist_n":0,"flood_depth_max_m":null,"flood_risk_100y":null,"semi_basement_r":null,"elderly_alone_r":0.1068,"bldg_age30_r":null,"shelter_min_walk":59,"pop":25570,"hh":10867,"elderly65_r":0.1814,"single_hh_r":0.3269,"source_level":"emd","flood_years":[],"landslide_hist_n":0},"geometry":{"type":"Polygon","coordinates":[[[126.59942,37.56462],[126.59888,37.56895],[126.59469,37.57087],[126.59104,37.56848],[126.59158,37.56415],[126.59576,37.56222],[126.59942,37.56462]]]}},{"type":"Feature","properties":{"h3":"8830e0bab3fffff","emd_code":"2829055000","emd_name":"오류왕길동","area_km2":0.5022,"edge":false,"slope_mean":2.25,"elev_mean":7.8,"flood_hist_n":0,"flood_depth_max_m":null,"flood_risk_100y":null,"semi_basement_r":null,"elderly_alone_r":0.1068,"bldg_age30_r":null,"shelter_min_walk":54,"pop":25570,"hh":10867,"elderly65_r":0.1814,"single_hh_r":0.3269,"source_level":"emd","flood_years":[],"landslide_hist_n":0},"geometry":{"type":"Polygon","coordinates":[[[126.60725,37.56509],[126.60672,37.56941],[126.60253,37.57134],[126.59888,37.56895],[126.59942,37.56462],[126.6036,37.56269],[126.60725,37.56509]]]}},{"type":"Feature","properties":{"h3":"8830e0bab5fffff","emd_code":"2829055000","emd_name":"오류왕길동","area_km2":0.502,"edge":true,"slope_mean":0.67,"elev_mean":1.2,"flood_hist_n":0,"flood_depth_max_m":null,"flood_risk_100y":null,"semi_basement_r":null,"elderly_alone_r":0.1068,"bldg_age30_r":null,"shelter_min_walk":53,"pop":25570,"hh":10867,"elderly65_r":0.1814,"single_hh_r":0.3269,"source_level":"emd","flood_years":[],"landslide_hist_n":0},"geometry":{"type":"Polygon","coordinates":[[[126.5963,37.5579],[126.59576,37.56222],[126.59158,37.56415],[126.58793,37.56176],[126.58847,37.55743],[126.59265,37.5555],[126.5963,37.5579]]]}},{"type":"Feature","properties":{"h3":"8830e0bab7fffff","emd_code":"2829055000","emd_name":"오류왕길동","area_km2":0.5021,"edge":false,"slope_mean":1.36,"elev_mean":3.4,"flood_hist_n":0,"flood_depth_max_m":null,"flood_risk_100y":null,"semi_basement_r":null,"elderly_alone_r":0.1068,"bldg_age30_r":null,"shelter_min_walk":46,"pop":25570,"hh":10867,"elderly65_r":0.1814,"single_hh_r":0.3269,"source_level":"emd","flood_years":[],"landslide_hist_n":0},"geometry":{"type":"Polygon","coordinates":[[[126.60414,37.55837],[126.6036,37.56269],[126.59942,37.56462],[126.59576,37.56222],[126.5963,37.5579],[126.60049,37.55597],[126.60414,37.55837]]]}},{"type":"Feature","properties":{"h3":"8830e0bab9fffff","emd_code":"2829055000","emd_name":"오류왕길동","area_km2":0.502,"edge":false,"slope_mean":1.31,"elev_mean":3.5,"flood_hist_n":0,"flood_depth_max_m":null,"flood_risk_100y":null,"semi_basement_r":null,"elderly_alone_r":0.1068,"bldg_age30_r":null,"shelter_min_walk":68,"pop":25570,"hh":10867,"elderly65_r":0.1814,"single_hh_r":0.3269,"source_level":"emd","flood_years":[],"landslide_hist_n":0},"geometry":{"type":"Polygon","coordinates":[[[126.59469,37.57087],[126.59415,37.5752],[126.58996,37.57713],[126.58631,37.57473],[126.58685,37.57041],[126.59104,37.56848],[126.59469,37.57087]]]}},{"type":"Feature","properties":{"h3":"8830e0babbfffff","emd_code":"2829055000","emd_name":"오류왕길동","area_km2":0.5021,"edge":false,"slope_mean":1.21,"elev_mean":3.5,"flood_hist_n":0,"flood_depth_max_m":null,"flood_risk_100y":null,"semi_basement_r":null,"elderly_alone_r":0.1068,"bldg_age30_r":null,"shelter_min_walk":59,"pop":25570,"hh":10867,"elderly65_r":0.1814,"single_hh_r":0.3269,"source_level":"emd","flood_years":[],"landslide_hist_n":0},"geometry":{"type":"Polygon","coordinates":[[[126.60253,37.57134],[126.60199,37.57567],[126.5978,37.5776],[126.59415,37.5752],[126.59469,37.57087],[126.59888,37.56895],[126.60253,37.57134]]]}},{"type":"Feature","properties":{"h3":"8830e0babdfffff","emd_code":"2829055000","emd_name":"오류왕길동","area_km2":0.5019,"edge":false,"slope_mean":1.36,"elev_mean":2.5,"flood_hist_n":0,"flood_depth_max_m":null,"flood_risk_100y":null,"semi_basement_r":null,"elderly_alone_r":0.1068,"bldg_age30_r":null,"shelter_min_walk":65,"pop":25570,"hh":10867,"elderly65_r":0.1814,"single_hh_r":0.3269,"source_level":"emd","flood_years":[],"landslide_hist_n":0},"geometry":{"type":"Polygon","coordinates":[[[126.59158,37.56415],[126.59104,37.56848],[126.58685,37.57041],[126.5832,37.56801],[126.58374,37.56368],[126.58793,37.56176],[126.59158,37.56415]]]}},{"type":"Feature","properties":{"h3":"8830e0bad5fffff","emd_code":"2829055000","emd_name":"오류왕길동","area_km2":0.5019,"edge":true,"slope_mean":1.83,"elev_mean":1.6,"flood_hist_n":0,"flood_depth_max_m":null,"flood_risk_100y":null,"semi_basement_r":null,"elderly_alone_r":0.1068,"bldg_age30_r":null,"shelter_min_walk":75,"pop":25570,"hh":10867,"elderly65_r":0.1814,"single_hh_r":0.3269,"source_level":"emd","flood_years":[],"landslide_hist_n":0},"geometry":{"type":"Polygon","coordinates":[[[126.58051,37.58963],[126.57997,37.59396],[126.57578,37.59589],[126.57213,37.59349],[126.57267,37.58916],[126.57686,37.58724],[126.58051,37.58963]]]}},{"type":"Feature","properties":{"h3":"8830e0bad7fffff","emd_code":"2829055000","emd_name":"오류왕길동","area_km2":0.502,"edge":true,"slope_mean":1.6,"elev_mean":4.4,"flood_hist_n":0,"flood_depth_max_m":null,"flood_risk_100y":null,"semi_basement_r":null,"elderly_alone_r":0.1068,"bldg_age30_r":null,"shelter_min_walk":64,"pop":25570,"hh":10867,"elderly65_r":0.1814,"single_hh_r":0.3269,"source_level":"emd","flood_years":[],"landslide_hist_n":0},"geometry":{"type":"Polygon","coordinates":[[[126.58835,37.59011],[126.58781,37.59443],[126.58362,37.59636],[126.57997,37.59396],[126.58051,37.58963],[126.5847,37.58771],[126.58835,37.59011]]]}}]}