{"type":"FeatureCollection","name":"grid_30140_h3r8","meta":{"sgg_code":"30140","h3_res":8,"n_cells":155,"dem":"Copernicus GLO-30 (bbox-mean)","crs":"EPSG:4326","jumin_basis":"2026-07","flood_src":"행안부 침수흔적도(전국, 재난안전데이터공유플랫폼)","landslide_src":"행안부 산사태 발생이력"},"features":[{"type":"Feature","properties":{"h3":"8830c4a683fffff","emd_code":"3014074000","emd_name":"산성동","area_km2":0.522,"edge":true,"slope_mean":24.24,"elev_mean":275.5,"flood_hist_n":0,"flood_depth_max_m":null,"flood_risk_100y":null,"semi_basement_r":null,"elderly_alone_r":0.2046,"bldg_age30_r":null,"shelter_min_walk":58,"pop":24063,"hh":12271,"elderly65_r":0.3192,"single_hh_r":0.4406,"source_level":"emd","flood_years":[],"landslide_hist_n":0},"geometry":{"type":"Polygon","coordinates":[[[127.40522,36.21154],[127.40439,36.20777],[127.40856,36.20574],[127.41357,36.20748],[127.41441,36.21125],[127.41023,36.21328],[127.40522,36.21154]]]}},{"type":"Feature","properties":{"h3":"8830c4a68bfffff","emd_code":"3014074000","emd_name":"산성동","area_km2":0.5219,"edge":true,"slope_mean":27.4,"elev_mean":302.5,"flood_hist_n":0,"flood_depth_max_m":null,"flood_risk_100y":null,"semi_basement_r":null,"elderly_alone_r":0.2046,"bldg_age30_r":null,"shelter_min_walk":60,"pop":24063,"hh":12271,"elderly65_r":0.3192,"single_hh_r":0.4406,"source_level":"emd","flood_years":[],"landslide_hist_n":0},"geometry":{"type":"Polygon","coordinates":[[[127.40188,36.21735],[127.40105,36.21357],[127.40522,36.21154],[127.41023,36.21328],[127.41107,36.21706],[127.40689,36.21909],[127.40188,36.21735]]]}},{"type":"Feature","properties":{"h3":"8830c4a691fffff","emd_code":"3014074000","emd_name":"산성동","area_km2":0.522,"edge":false,"slope_mean":24.43,"elev_mean":299.3,"flood_hist_n":0,"flood_depth_max_m":null,"flood_risk_100y":null,"semi_basement_r":null,"elderly_alone_r":0.2046,"bldg_age30_r":null,"shelter_min_walk":36,"pop":24063,"hh":12271,"elderly65_r":0.3192,"single_hh_r":0.4406,"source_level":"emd","flood_years":[],"landslide_hist_n":0},"geometry":{"type":"Polygon","coordinates":[[[127.42026,36.21677],[127.41942,36.213],[127.4236,36.21096],[127.42861,36.21271],[127.42944,36.21648],[127.42527,36.21851],[127.42026,36.21677]]]}},{"type":"Feature","properties":{"h3":"8830c4a695fffff","emd_code":"3014074000","emd_name":"산성동","area_km2":0.5221,"edge":false,"slope_mean":26.79,"elev_mean":324.0,"flood_hist_n":0,"flood_depth_max_m":null,"flood_risk_100y":null,"semi_basement_r":null,"elderly_alone_r":0.2046,"bldg_age30_r":null,"shelter_min_walk":47,"pop":24063,"hh":12271,"elderly65_r":0.3192,"single_hh_r":0.4406,"source_level":"emd","flood_years":[],"landslide_hist_n":0},"geometry":{"type":"Polygon","coordinates":[[[127.41441,36.21125],[127.41357,36.20748],[127.41775,36.20545],[127.42276,36.20719],[127.4236,36.21096],[127.41942,36.213],[127.41441,36.21125]]]}},{"type":"Feature","properties":{"h3":"8830c4a697fffff","emd_code":"3014074000","emd_name":"산성동","area_km2":0.5221,"edge":true,"slope_mean":26.1,"elev_mean":327.2,"flood_hist_n":0,"flood_depth_max_m":null,"flood_risk_100y":null,"semi_basement_r":null,"elderly_alone_r":0.2046,"bldg_age30_r":null,"shelter_min_walk":37,"pop":24063,"hh":12271,"elderly65_r":0.3192,"single_hh_r":0.4406,"source_level":"emd","flood_years":[],"landslide_hist_n":0},"geometry":{"type":"Polygon","coordinates":[[[127.4236,36.21096],[127.42276,36.20719],[127.42694,36.20516],[127.43195,36.2069],[127.43278,36.21067],[127.42861,36.21271],[127.4236,36.21096]]]}},{"type":"Feature","properties":{"h3":"8830c4a699fffff","emd_code":"3014074000","emd_name":"산성동","area_km2":0.5219,"edge":false,"slope_mean":22.45,"elev_mean":253.2,"flood_hist_n":0,"flood_depth_max_m":null,"flood_risk_100y":null,"semi_basement_r":null,"elderly_alone_r":0.2046,"bldg_age30_r":null,"shelter_min_walk":38,"pop":24063,"hh":12271,"elderly65_r":0.3192,"single_hh_r":0.4406,"source_level":"emd","flood_years":[],"landslide_hist_n":0},"geometry":{"type":"Polygon","coordinates":[[[127.41691,36.22257],[127.41608,36.2188],[127.42026,36.21677],[127.42527,36.21851],[127.4261,36.22228],[127.42193,36.22431],[127.41691,36.22257]]]}},{"type":"Feature","properties":{"h3":"8830c4a69bfffff","emd_code":"3014074000","emd_name":"산성동","area_km2":0.5219,"edge":true,"slope_mean":23.9,"elev_mean":291.1,"flood_hist_n":0,"flood_depth_max_m":null,"flood_risk_100y":null,"semi_basement_r":null,"elderly_alone_r":0.2046,"bldg_age30_r":null,"shelter_min_walk":26,"pop":24063,"hh":12271,"elderly65_r":0.3192,"single_hh_r":0.4406,"source_level":"emd","flood_years":[],"landslide_hist_n":0},"geometry":{"type":"Polygon","coordinates":[[[127.4261,36.22228],[127.42527,36.21851],[127.42944,36.21648],[127.43446,36.21822],[127.43529,36.22199],[127.43111,36.22402],[127.4261,36.22228]]]}},{"type":"Feature","properties":{"h3":"8830c4a69dfffff","emd_code":"3014074000","emd_name":"산성동","area_km2":0.522,"edge":false,"slope_mean":22.11,"elev_mean":254.9,"flood_hist_n":0,"flood_depth_max_m":null,"flood_risk_100y":null,"semi_basement_r":null,"elderly_alone_r":0.2046,"bldg_age30_r":null,"shelter_min_walk":48,"pop":24063,"hh":12271,"elderly65_r":0.3192,"single_hh_r":0.4406,"source_level":"emd","flood_years":[],"landslide_hist_n":0},"geometry":{"type":"Polygon","coordinates":[[[127.41107,36.21706],[127.41023,36.21328],[127.41441,36.21125],[127.41942,36.213],[127.42026,36.21677],[127.41608,36.2188],[127.41107,36.21706]]]}},{"type":"Feature","properties":{"h3":"8830c4a6d1fffff","emd_code":"3014074000","emd_name":"산성동","area_km2":0.5217,"edge":false,"slope_mean":27.58,"elev_mean":283.9,"flood_hist_n":0,"flood_depth_max_m":null,"flood_risk_100y":null,"semi_basement_r":null,"elderly_alone_r":0.2046,"bldg_age30_r":null,"shelter_min_walk":55,"pop":24063,"hh":12271,"elderly65_r":0.3192,"single_hh_r":0.4406,"source_level":"emd","flood_years":[],"landslide_hist_n":0},"geometry":{"type":"Polygon","coordinates":[[[127.40439,36.22866],[127.40355,36.22489],[127.40773,36.22286],[127.41274,36.2246],[127.41357,36.22837],[127.4094,36.2304],[127.40439,36.22866]]]}},{"type":"Feature","properties":{"h3":"8830c4a6d3fffff","emd_code":"3014074000","emd_name":"산성동","area_km2":0.5218,"edge":false,"slope_mean":27.38,"elev_mean":267.4,"flood_hist_n":0,"flood_depth_max_m":null,"flood_risk_100y":null,"semi_basement_r":null,"elderly_alone_r":0.2046,"bldg_age30_r":null,"shelter_min_walk":43,"pop":24063,"hh":12271,"elderly65_r":0.3192,"single_hh_r":0.4406,"source_level":"emd","flood_years":[],"landslide_hist_n":0},"geometry":{"type":"Polygon","coordinates":[[[127.41357,36.22837],[127.41274,36.2246],[127.41691,36.22257],[127.42193,36.22431],[127.42276,36.22809],[127.41859,36.23012],[127.41357,36.22837]]]}},{"type":"Feature","properties":{"h3":"8830c4a6d5fffff","emd_code":"3014074000","emd_name":"산성동","area_km2":0.5218,"edge":true,"slope_mean":30.17,"elev_mean":337.5,"flood_hist_n":0,"flood_depth_max_m":null,"flood_risk_100y":null,"semi_basement_r":null,"elderly_alone_r":0.2046,"bldg_age30_r":null,"shelter_min_walk":63,"pop":24063,"hh":12271,"elderly65_r":0.3192,"single_hh_r":0.4406,"source_level":"emd","flood_years":[],"landslide_hist_n":0},"geometry":{"type":"Polygon","coordinates":[[[127.39854,36.22315],[127.39771,36.21938],[127.40188,36.21735],[127.40689,36.21909],[127.40773,36.22286],[127.40355,36.22489],[127.39854,36.22315]]]}},{"type":"Feature","properties":{"h3":"8830c4a6d7fffff","emd_code":"3014074000","emd_name":"산성동","area_km2":0.5218,"edge":false,"slope_mean":27.71,"elev_mean":310.2,"flood_hist_n":0,"flood_depth_max_m":null,"flood_risk_100y":null,"semi_basement_r":null,"elderly_alone_r":0.2046,"bldg_age30_r":null,"shelter_min_walk":51,"pop":24063,"hh":12271,"elderly65_r":0.3192,"single_hh_r":0.4406,"source_level":"emd","flood_years":[],"landslide_hist_n":0},"geometry":{"type":"Polygon","coordinates":[[[127.40773,36.22286],[127.40689,36.21909],[127.41107,36.21706],[127.41608,36.2188],[127.41691,36.22257],[127.41274,36.2246],[127.40773,36.22286]]]}},{"type":"Feature","properties":{"h3":"8830c4a6d9fffff","emd_code":"3014074000","emd_name":"산성동","area_km2":0.5216,"edge":false,"slope_mean":22.73,"elev_mean":225.1,"flood_hist_n":0,"flood_depth_max_m":null,"flood_risk_100y":null,"semi_basement_r":null,"elderly_alone_r":0.2046,"bldg_age30_r":null,"shelter_min_walk":62,"pop":24063,"hh":12271,"elderly65_r":0.3192,"single_hh_r":0.4406,"source_level":"emd","flood_years":[],"landslide_hist_n":0},"geometry":{"type":"Polygon","coordinates":[[[127.40105,36.23446],[127.40021,36.23069],[127.40439,36.22866],[127.4094,36.2304],[127.41023,36.23417],[127.40606,36.2362],[127.40105,36.23446]]]}},{"type":"Feature","properties":{"h3":"8830c4a6dbfffff","emd_code":"3014074000","emd_name":"산성동","area_km2":0.5217,"edge":false,"slope_mean":24.4,"elev_mean":230.8,"flood_hist_n":0,"flood_depth_max_m":null,"flood_risk_100y":null,"semi_basement_r":null,"elderly_alone_r":0.2046,"bldg_age30_r":null,"shelter_min_walk":50,"pop":24063,"hh":12271,"elderly65_r":0.3192,"single_hh_r":0.4406,"source_level":"emd","flood_years":[],"landslide_hist_n":0},"geometry":{"type":"Polygon","coordinates":[[[127.41023,36.23417],[127.4094,36.2304],[127.41357,36.22837],[127.41859,36.23012],[127.41942,36.23389],[127.41524,36.23592],[127.41023,36.23417]]]}},{"type":"Feature","properties":{"h3":"8830c4a6ddfffff","emd_code":"3014074000","emd_name":"산성동","area_km2":0.5217,"edge":true,"slope_mean":25.02,"elev_mean":251.5,"flood_hist_n":0,"flood_depth_max_m":null,"flood_risk_100y":null,"semi_basement_r":null,"elderly_alone_r":0.2046,"bldg_age30_r":null,"shelter_min_walk":68,"pop":24063,"hh":12271,"elderly65_r":0.3192,"single_hh_r":0.4406,"source_level":"emd","flood_years":[],"landslide_hist_n":0},"geometry":{"type":"Polygon","coordinates":[[[127.3952,36.22895],[127.39436,36.22518],[127.39854,36.22315],[127.40355,36.22489],[127.40439,36.22866],[127.40021,36.23069],[127.3952,36.22895]]]}},{"type":"Feature","properties":{"h3":"8830e36801fffff","emd_code":"3014074000","emd_name":"산성동","area_km2":0.5207,"edge":false,"slope_mean":19.96,"elev_mean":262.8,"flood_hist_n":0,"flood_depth_max_m":null,"flood_risk_100y":null,"semi_basement_r":null,"elderly_alone_r":0.2046,"bldg_age30_r":null,"shelter_min_walk":36,"pop":24063,"hh":12271,"elderly65_r":0.3192,"single_hh_r":0.4406,"source_level":"emd","flood_years":[],"landslide_hist_n":0},"geometry":{"type":"Polygon","coordinates":[[[127.41357,36.291],[127.41274,36.28723],[127.41691,36.2852],[127.42193,36.28694],[127.42276,36.29071],[127.41858,36.29274],[127.41357,36.291]]]}},{"type":"Feature","properties":{"h3":"8830e36803fffff","emd_code":"3014074000","emd_name":"산성동","area_km2":0.5208,"edge":false,"slope_mean":20.24,"elev_mean":288.3,"flood_hist_n":0,"flood_depth_max_m":null,"flood_risk_100y":null,"semi_basement_r":null,"elderly_alone_r":0.2046,"bldg_age30_r":null,"shelter_min_walk":40,"pop":24063,"hh":12271,"elderly65_r":0.3192,"single_hh_r":0.4406,"source_level":"emd","flood_years":[],"landslide_hist_n":0},"geometry":{"type":"Polygon","coordinates":[[[127.42276,36.29071],[127.42193,36.28694],[127.4261,36.28492],[127.43111,36.28666],[127.43195,36.29042],[127.42777,36.29245],[127.42276,36.29071]]]}},{"type":"Feature","properties":{"h3":"8830e36805fffff","emd_code":"3014074000","emd_name":"산성동","area_km2":0.5208,"edge":false,"slope_mean":18.95,"elev_mean":199.3,"flood_hist_n":0,"flood_depth_max_m":null,"flood_risk_100y":null,"semi_basement_r":null,"elderly_alone_r":0.2046,"bldg_age30_r":null,"shelter_min_walk":40,"pop":24063,"hh":12271,"elderly65_r":0.3192,"single_hh_r":0.4406,"source_level":"emd","flood_years":[],"landslide_hist_n":0},"geometry":{"type":"Polygon","coordinates":[[[127.40772,36.28549],[127.40689,36.28172],[127.41107,36.2797],[127.41608,36.28144],[127.41691,36.2852],[127.41274,36.28723],[127.40772,36.28549]]]}},{"type":"Feature","properties":{"h3":"8830e36807fffff","emd_code":"3014074000","emd_name":"산성동","area_km2":0.5208,"edge":false,"slope_mean":16.53,"elev_mean":200.7,"flood_hist_n":0,"flood_depth_max_m":null,"flood_risk_100y":null,"semi_basement_r":null,"elderly_alone_r":0.2046,"bldg_age30_r":null,"shelter_min_walk":46,"pop":24063,"hh":12271,"elderly65_r":0.3192,"single_hh_r":0.4406,"source_level":"emd","flood_years":[],"landslide_hist_n":0},"geometry":{"type":"Polygon","coordinates":[[[127.41691,36.2852],[127.41608,36.28144],[127.42025,36.27941],[127.42527,36.28115],[127.4261,36.28492],[127.42193,36.28694],[127.41691,36.2852]]]}},{"type":"Feature","properties":{"h3":"8830e36809fffff","emd_code":"3014074000","emd_name":"산성동","area_km2":0.5206,"edge":false,"slope_mean":20.5,"elev_mean":287.9,"flood_hist_n":0,"flood_depth_max_m":null,"flood_risk_100y":null,"semi_basement_r":null,"elderly_alone_r":0.2046,"bldg_age30_r":null,"shelter_min_walk":26,"pop":24063,"hh":12271,"elderly65_r":0.3192,"single_hh_r":0.4406,"source_level":"emd","flood_years":[],"landslide_hist_n":0},"geometry":{"type":"Polygon","coordinates":[[[127.41023,36.29679],[127.4094,36.29302],[127.41357,36.291],[127.41858,36.29274],[127.41942,36.2965],[127.41524,36.29853],[127.41023,36.29679]]]}},{"type":"Feature","properties":{"h3":"8830e3680bfffff","emd_code":"3014074000","emd_name":"산성동","area_km2":0.5207,"edge":false,"slope_mean":21.65,"elev_mean":367.9,"flood_hist_n":0,"flood_depth_max_m":null,"flood_risk_100y":null,"semi_basement_r":null,"elderly_alone_r":0.2046,"bldg_age30_r":null,"shelter_min_walk":31,"pop":24063,"hh":12271,"elderly65_r":0.3192,"single_hh_r":0.4406,"source_level":"emd","flood_years":[],"landslide_hist_n":0},"geometry":{"type":"Polygon","coordinates":[[[127.41942,36.2965],[127.41858,36.29274],[127.42276,36.29071],[127.42777,36.29245],[127.42861,36.29622],[127.42443,36.29824],[127.41942,36.2965]]]}},{"type":"Feature","properties":{"h3":"8830e3680dfffff","emd_code":"3014074000","emd_name":"산성동","area_km2":0.5207,"edge":false,"slope_mean":18.46,"elev_mean":207.1,"flood_hist_n":0,"flood_depth_max_m":null,"flood_risk_100y":null,"semi_basement_r":null,"elderly_alone_r":0.2046,"bldg_age30_r":null,"shelter_min_walk":30,"pop":24063,"hh":12271,"elderly65_r":0.3192,"single_hh_r":0.4406,"source_level":"emd","flood_years":[],"landslide_hist_n":0},"geometry":{"type":"Polygon","coordinates":[[[127.40438,36.29128],[127.40355,36.28752],[127.40772,36.28549],[127.41274,36.28723],[127.41357,36.291],[127.4094,36.29302],[127.40438,36.29128]]]}},{"type":"Feature","properties":{"h3":"8830e36811fffff","emd_code":"3014062000","emd_name":"석교동","area_km2":0.5208,"edge":true,"slope_mean":16.24,"elev_mean":140.6,"flood_hist_n":0,"flood_depth_max_m":null,"flood_risk_100y":null,"semi_basement_r":null,"elderly_alone_r":0.2427,"bldg_age30_r":null,"shelter_min_walk":19,"pop":13376,"hh":7292,"elderly65_r":0.3703,"single_hh_r":0.486,"source_level":"emd","flood_years":[],"landslide_hist_n":0},"geometry":{"type":"Polygon","coordinates":[[[127.4378,36.29593],[127.43696,36.29216],[127.44114,36.29014],[127.44615,36.29187],[127.44699,36.29564],[127.44281,36.29767],[127.4378,36.29593]]]}},{"type":"Feature","properties":{"h3":"8830e36813fffff","emd_code":"3014062000","emd_name":"석교동","area_km2":0.5208,"edge":true,"slope_mean":13.02,"elev_mean":117.7,"flood_hist_n":0,"flood_depth_max_m":null,"flood_risk_100y":null,"semi_basement_r":null,"elderly_alone_r":0.2427,"bldg_age30_r":null,"shelter_min_walk":11,"pop":13376,"hh":7292,"elderly65_r":0.3703,"single_hh_r":0.486,"source_level":"emd","flood_years":[],"landslide_hist_n":0},"geometry":{"type":"Polygon","coordinates":[[[127.44699,36.29564],[127.44615,36.29187],[127.45033,36.28985],[127.45534,36.29159],[127.45618,36.29535],[127.452,36.29738],[127.44699,36.29564]]]}},{"type":"Feature","properties":{"h3":"8830e36819fffff","emd_code":"3014062000","emd_name":"석교동","area_km2":0.5206,"edge":false,"slope_mean":16.45,"elev_mean":152.7,"flood_hist_n":0,"flood_depth_max_m":null,"flood_risk_100y":null,"semi_basement_r":null,"elderly_alone_r":0.2427,"bldg_age30_r":null,"shelter_min_walk":16,"pop":13376,"hh":7292,"elderly65_r":0.3703,"single_hh_r":0.486,"source_level":"emd","flood_years":[],"landslide_hist_n":0},"geometry":{"type":"Polygon","coordinates":[[[127.43446,36.30172],[127.43362,36.29796],[127.4378,36.29593],[127.44281,36.29767],[127.44365,36.30144],[127.43947,36.30346],[127.43446,36.30172]]]}},{"type":"Feature","properties":{"h3":"8830e3681bfffff","emd_code":"3014062000","emd_name":"석교동","area_km2":0.5207,"edge":false,"slope_mean":13.03,"elev_mean":99.2,"flood_hist_n":0,"flood_depth_max_m":null,"flood_risk_100y":null,"semi_basement_r":null,"elderly_alone_r":0.2427,"bldg_age30_r":null,"shelter_min_walk":8,"pop":13376,"hh":7292,"elderly65_r":0.3703,"single_hh_r":0.486,"source_level":"emd","flood_years":[],"landslide_hist_n":0},"geometry":{"type":"Polygon","coordinates":[[[127.44365,36.30144],[127.44281,36.29767],[127.44699,36.29564],[127.452,36.29738],[127.45284,36.30115],[127.44866,36.30317],[127.44365,36.30144]]]}},{"type":"Feature","properties":{"h3":"8830e3681dfffff","emd_code":"3014062000","emd_name":"석교동","area_km2":0.5207,"edge":false,"slope_mean":19.9,"elev_mean":257.3,"flood_hist_n":0,"flood_depth_max_m":null,"flood_risk_100y":null,"semi_basement_r":null,"elderly_alone_r":0.2427,"bldg_age30_r":null,"shelter_min_walk":28,"pop":13376,"hh":7292,"elderly65_r":0.3703,"single_hh_r":0.486,"source_level":"emd","flood_years":[],"landslide_hist_n":0},"geometry":{"type":"Polygon","coordinates":[[[127.42861,36.29622],[127.42777,36.29245],[127.43195,36.29042],[127.43696,36.29216],[127.4378,36.29593],[127.43362,36.29796],[127.42861,36.29622]]]}},{"type":"Feature","properties":{"h3":"8830e36821fffff","emd_code":"3014074000","emd_name":"산성동","area_km2":0.521,"edge":false,"slope_mean":14.86,"elev_mean":121.2,"flood_hist_n":0,"flood_depth_max_m":null,"flood_risk_100y":null,"semi_basement_r":null,"elderly_alone_r":0.2046,"bldg_age30_r":null,"shelter_min_walk":52,"pop":24063,"hh":12271,"elderly65_r":0.3192,"single_hh_r":0.4406,"source_level":"emd","flood_years":[],"landslide_hist_n":0},"geometry":{"type":"Polygon","coordinates":[[[127.40522,36.27419],[127.40438,36.27042],[127.40856,36.26839],[127.41357,36.27013],[127.41441,36.2739],[127.41023,36.27593],[127.40522,36.27419]]]}},{"type":"Feature","properties":{"h3":"8830e36823fffff","emd_code":"3014074000","emd_name":"산성동","area_km2":0.521,"edge":false,"slope_mean":16.12,"elev_mean":178.5,"flood_hist_n":0,"flood_depth_max_m":null,"flood_risk_100y":null,"semi_basement_r":null,"elderly_alone_r":0.2046,"bldg_age30_r":null,"shelter_min_walk":62,"pop":24063,"hh":12271,"elderly65_r":0.3192,"single_hh_r":0.4406,"source_level":"emd","flood_years":[],"landslide_hist_n":0},"geometry":{"type":"Polygon","coordinates":[[[127.41441,36.2739],[127.41357,36.27013],[127.41775,36.2681],[127.42276,36.26984],[127.4236,36.27361],[127.41942,36.27564],[127.41441,36.2739]]]}},{"type":"Feature","properties":{"h3":"8830e36825fffff","emd_code":"3014074000","emd_name":"산성동","area_km2":0.521,"edge":false,"slope_mean":14.73,"elev_mean":120.0,"flood_hist_n":0,"flood_depth_max_m":null,"flood_risk_100y":null,"semi_basement_r":null,"elderly_alone_r":0.2046,"bldg_age30_r":null,"shelter_min_walk":54,"pop":24063,"hh":12271,"elderly65_r":0.3192,"single_hh_r":0.4406,"source_level":"emd","flood_years":[],"landslide_hist_n":0},"geometry":{"type":"Polygon","coordinates":[[[127.39937,36.26868],[127.39854,36.26491],[127.40271,36.26288],[127.40773,36.26462],[127.40856,36.26839],[127.40438,36.27042],[127.39937,36.26868]]]}},{"type":"Feature","properties":{"h3":"8830e36827fffff","emd_code":"3014074000","emd_name":"산성동","area_km2":0.5211,"edge":false,"slope_mean":13.33,"elev_mean":137.2,"flood_hist_n":0,"flood_depth_max_m":null,"flood_risk_100y":null,"semi_basement_r":null,"elderly_alone_r":0.2046,"bldg_age30_r":null,"shelter_min_walk":62,"pop":24063,"hh":12271,"elderly65_r":0.3192,"single_hh_r":0.4406,"source_level":"emd","flood_years":[],"landslide_hist_n":0},"geometry":{"type":"Polygon","coordinates":[[[127.40856,36.26839],[127.40773,36.26462],[127.4119,36.26259],[127.41691,36.26434],[127.41775,36.2681],[127.41357,36.27013],[127.40856,36.26839]]]}},{"type":"Feature","properties":{"h3":"8830e36829fffff","emd_code":"3014074000","emd_name":"산성동","area_km2":0.5209,"edge":false,"slope_mean":13.75,"elev_mean":105.5,"flood_hist_n":0,"flood_depth_max_m":null,"flood_risk_100y":null,"semi_basement_r":null,"elderly_alone_r":0.2046,"bldg_age30_r":null,"shelter_min_walk":42,"pop":24063,"hh":12271,"elderly65_r":0.3192,"single_hh_r":0.4406,"source_level":"emd","flood_years":[],"landslide_hist_n":0},"geometry":{"type":"Polygon","coordinates":[[[127.40188,36.27998],[127.40104,36.27621],[127.40522,36.27419],[127.41023,36.27593],[127.41107,36.2797],[127.40689,36.28172],[127.40188,36.27998]]]}},{"type":"Feature","properties":{"h3":"8830e3682bfffff","emd_code":"3014074000","emd_name":"산성동","area_km2":0.5209,"edge":false,"slope_mean":19.21,"elev_mean":168.8,"flood_hist_n":0,"flood_depth_max_m":null,"flood_risk_100y":null,"semi_basement_r":null,"elderly_alone_r":0.2046,"bldg_age30_r":null,"shelter_min_walk":51,"pop":24063,"hh":12271,"elderly65_r":0.3192,"single_hh_r":0.4406,"source_level":"emd","flood_years":[],"landslide_hist_n":0},"geometry":{"type":"Polygon","coordinates":[[[127.41107,36.2797],[127.41023,36.27593],[127.41441,36.2739],[127.41942,36.27564],[127.42025,36.27941],[127.41608,36.28144],[127.41107,36.2797]]]}},{"type":"Feature","properties":{"h3":"8830e3682dfffff","emd_code":"3014074000","emd_name":"산성동","area_km2":0.5209,"edge":false,"slope_mean":10.65,"elev_mean":86.0,"flood_hist_n":0,"flood_depth_max_m":null,"flood_risk_100y":null,"semi_basement_r":null,"elderly_alone_r":0.2046,"bldg_age30_r":null,"shelter_min_walk":44,"pop":24063,"hh":12271,"elderly65_r":0.3192,"single_hh_r":0.4406,"source_level":"emd","flood_years":[],"landslide_hist_n":0},"geometry":{"type":"Polygon","coordinates":[[[127.39603,36.27447],[127.3952,36.2707],[127.39937,36.26868],[127.40438,36.27042],[127.40522,36.27419],[127.40104,36.27621],[127.39603,36.27447]]]}},{"type":"Feature","properties":{"h3":"8830e36831fffff","emd_code":"3014074000","emd_name":"산성동","area_km2":0.521,"edge":true,"slope_mean":21.08,"elev_mean":217.3,"flood_hist_n":0,"flood_depth_max_m":null,"flood_risk_100y":null,"semi_basement_r":null,"elderly_alone_r":0.2046,"bldg_age30_r":null,"shelter_min_walk":41,"pop":24063,"hh":12271,"elderly65_r":0.3192,"single_hh_r":0.4406,"source_level":"emd","flood_years":[],"landslide_hist_n":0},"geometry":{"type":"Polygon","coordinates":[[[127.42944,36.27912],[127.42861,36.27535],[127.43279,36.27333],[127.4378,36.27507],[127.43863,36.27883],[127.43446,36.28086],[127.42944,36.27912]]]}},{"type":"Feature","properties":{"h3":"8830e36835fffff","emd_code":"3014074000","emd_name":"산성동","area_km2":0.5211,"edge":false,"slope_mean":17.01,"elev_mean":201.1,"flood_hist_n":0,"flood_depth_max_m":null,"flood_risk_100y":null,"semi_basement_r":null,"elderly_alone_r":0.2046,"bldg_age30_r":null,"shelter_min_walk":51,"pop":24063,"hh":12271,"elderly65_r":0.3192,"single_hh_r":0.4406,"source_level":"emd","flood_years":[],"landslide_hist_n":0},"geometry":{"type":"Polygon","coordinates":[[[127.4236,36.27361],[127.42276,36.26984],[127.42694,36.26782],[127.43195,36.26956],[127.43279,36.27333],[127.42861,36.27535],[127.4236,36.27361]]]}},{"type":"Feature","properties":{"h3":"8830e36837fffff","emd_code":"3014074000","emd_name":"산성동","area_km2":0.5211,"edge":false,"slope_mean":18.18,"elev_mean":240.7,"flood_hist_n":0,"flood_depth_max_m":null,"flood_risk_100y":null,"semi_basement_r":null,"elderly_alone_r":0.2046,"bldg_age30_r":null,"shelter_min_walk":40,"pop":24063,"hh":12271,"elderly65_r":0.3192,"single_hh_r":0.4406,"source_level":"emd","flood_years":[],"landslide_hist_n":0},"geometry":{"type":"Polygon","coordinates":[[[127.43279,36.27333],[127.43195,36.26956],[127.43613,36.26753],[127.44114,36.26927],[127.44198,36.27304],[127.4378,36.27507],[127.43279,36.27333]]]}},{"type":"Feature","properties":{"h3":"8830e36839fffff","emd_code":"3014074000","emd_name":"산성동","area_km2":0.5209,"edge":false,"slope_mean":17.17,"elev_mean":199.4,"flood_hist_n":0,"flood_depth_max_m":null,"flood_risk_100y":null,"semi_basement_r":null,"elderly_alone_r":0.2046,"bldg_age30_r":null,"shelter_min_walk":42,"pop":24063,"hh":12271,"elderly65_r":0.3192,"single_hh_r":0.4406,"source_level":"emd","flood_years":[],"landslide_hist_n":0},"geometry":{"type":"Polygon","coordinates":[[[127.4261,36.28492],[127.42527,36.28115],[127.42944,36.27912],[127.43446,36.28086],[127.43529,36.28463],[127.43111,36.28666],[127.4261,36.28492]]]}},{"type":"Feature","properties":{"h3":"8830e3683bfffff","emd_code":"3014074000","emd_name":"산성동","area_km2":0.5209,"edge":true,"slope_mean":13.54,"elev_mean":138.7,"flood_hist_n":0,"flood_depth_max_m":null,"flood_risk_100y":null,"semi_basement_r":null,"elderly_alone_r":0.2046,"bldg_age30_r":null,"shelter_min_walk":32,"pop":24063,"hh":12271,"elderly65_r":0.3192,"single_hh_r":0.4406,"source_level":"emd","flood_years":[],"landslide_hist_n":0},"geometry":{"type":"Polygon","coordinates":[[[127.43529,36.28463],[127.43446,36.28086],[127.43863,36.27883],[127.44365,36.28057],[127.44448,36.28434],[127.4403,36.28637],[127.43529,36.28463]]]}},{"type":"Feature","properties":{"h3":"8830e3683dfffff","emd_code":"3014074000","emd_name":"산성동","area_km2":0.521,"edge":false,"slope_mean":17.47,"elev_mean":162.0,"flood_hist_n":0,"flood_depth_max_m":null,"flood_risk_100y":null,"semi_basement_r":null,"elderly_alone_r":0.2046,"bldg_age30_r":null,"shelter_min_walk":53,"pop":24063,"hh":12271,"elderly65_r":0.3192,"single_hh_r":0.4406,"source_level":"emd","flood_years":[],"landslide_hist_n":0},"geometry":{"type":"Polygon","coordinates":[[[127.42025,36.27941],[127.41942,36.27564],[127.4236,36.27361],[127.42861,36.27535],[127.42944,36.27912],[127.42527,36.28115],[127.42025,36.27941]]]}},{"type":"Feature","properties":{"h3":"8830e36841fffff","emd_code":"3014074000","emd_name":"산성동","area_km2":0.5205,"edge":false,"slope_mean":17.83,"elev_mean":158.7,"flood_hist_n":0,"flood_depth_max_m":null,"flood_risk_100y":null,"semi_basement_r":null,"elderly_alone_r":0.2046,"bldg_age30_r":null,"shelter_min_walk":9,"pop":24063,"hh":12271,"elderly65_r":0.3192,"single_hh_r":0.4406,"source_level":"emd","flood_years":[],"landslide_hist_n":0},"geometry":{"type":"Polygon","coordinates":[[[127.3977,36.30287],[127.39687,36.2991],[127.40104,36.29708],[127.40605,36.29882],[127.40689,36.30258],[127.40271,36.30461],[127.3977,36.30287]]]}},{"type":"Feature","properties":{"h3":"8830e36843fffff","emd_code":"3014074000","emd_name":"산성동","area_km2":0.5205,"edge":false,"slope_mean":18.87,"elev_mean":210.9,"flood_hist_n":0,"flood_depth_max_m":null,"flood_risk_100y":null,"semi_basement_r":null,"elderly_alone_r":0.2046,"bldg_age30_r":null,"shelter_min_walk":16,"pop":24063,"hh":12271,"elderly65_r":0.3192,"single_hh_r":0.4406,"source_level":"emd","flood_years":[],"landslide_hist_n":0},"geometry":{"type":"Polygon","coordinates":[[[127.40689,36.30258],[127.40605,36.29882],[127.41023,36.29679],[127.41524,36.29853],[127.41608,36.3023],[127.4119,36.30432],[127.40689,36.30258]]]}},{"type":"Feature","properties":{"h3":"8830e36845fffff","emd_code":"3014074000","emd_name":"산성동","area_km2":0.5205,"edge":false,"slope_mean":16.27,"elev_mean":140.6,"flood_hist_n":0,"flood_depth_max_m":null,"flood_risk_100y":null,"semi_basement_r":null,"elderly_alone_r":0.2046,"bldg_age30_r":null,"shelter_min_walk":18,"pop":24063,"hh":12271,"elderly65_r":0.3192,"single_hh_r":0.4406,"source_level":"emd","flood_years":[],"landslide_hist_n":0},"geometry":{"type":"Polygon","coordinates":[[[127.39185,36.29736],[127.39102,36.29359],[127.3952,36.29157],[127.40021,36.29331],[127.40104,36.29708],[127.39687,36.2991],[127.39185,36.29736]]]}},{"type":"Feature","properties":{"h3":"8830e36847fffff","emd_code":"3014074000","emd_name":"산성동","area_km2":0.5206,"edge":false,"slope_mean":19.23,"elev_mean":209.8,"flood_hist_n":0,"flood_depth_max_m":null,"flood_risk_100y":null,"semi_basement_r":null,"elderly_alone_r":0.2046,"bldg_age30_r":null,"shelter_min_walk":19,"pop":24063,"hh":12271,"elderly65_r":0.3192,"single_hh_r":0.4406,"source_level":"emd","flood_years":[],"landslide_hist_n":0},"geometry":{"type":"Polygon","coordinates":[[[127.40104,36.29708],[127.40021,36.29331],[127.40438,36.29128],[127.4094,36.29302],[127.41023,36.29679],[127.40605,36.29882],[127.40104,36.29708]]]}},{"type":"Feature","properties":{"h3":"8830e36849fffff","emd_code":"3014073000","emd_name":"문화2동","area_km2":0.5203,"edge":false,"slope_mean":8.89,"elev_mean":84.8,"flood_hist_n":0,"flood_depth_max_m":null,"flood_risk_100y":null,"semi_basement_r":null,"elderly_alone_r":0.2404,"bldg_age30_r":null,"shelter_min_walk":4,"pop":10833,"hh":5770,"elderly65_r":0.3309,"single_hh_r":0.4934,"source_level":"emd","flood_years":[],"landslide_hist_n":0},"geometry":{"type":"Polygon","coordinates":[[[127.39436,36.30866],[127.39352,36.30489],[127.3977,36.30287],[127.40271,36.30461],[127.40355,36.30837],[127.39937,36.3104],[127.39436,36.30866]]]}},{"type":"Feature","properties":{"h3":"8830e3684bfffff","emd_code":"3014073000","emd_name":"문화2동","area_km2":0.5204,"edge":false,"slope_mean":14.46,"elev_mean":127.5,"flood_hist_n":0,"flood_depth_max_m":null,"flood_risk_100y":null,"semi_basement_r":null,"elderly_alone_r":0.2404,"bldg_age30_r":null,"shelter_min_walk":8,"pop":10833,"hh":5770,"elderly65_r":0.3309,"single_hh_r":0.4934,"source_level":"emd","flood_years":[],"landslide_hist_n":1},"geometry":{"type":"Polygon","coordinates":[[[127.40355,36.30837],[127.40271,36.30461],[127.40689,36.30258],[127.4119,36.30432],[127.41274,36.30809],[127.40856,36.31011],[127.40355,36.30837]]]}},{"type":"Feature","properties":{"h3":"8830e3684dfffff","emd_code":"3014074000","emd_name":"산성동","area_km2":0.5204,"edge":false,"slope_mean":14.86,"elev_mean":100.1,"flood_hist_n":0,"flood_depth_max_m":null,"flood_risk_100y":null,"semi_basement_r":null,"elderly_alone_r":0.2046,"bldg_age30_r":null,"shelter_min_walk":9,"pop":24063,"hh":12271,"elderly65_r":0.3192,"single_hh_r":0.4406,"source_level":"emd","flood_years":[],"landslide_hist_n":0},"geometry":{"type":"Polygon","coordinates":[[[127.38851,36.30315],[127.38768,36.29938],[127.39185,36.29736],[127.39687,36.2991],[127.3977,36.30287],[127.39352,36.30489],[127.38851,36.30315]]]}},{"type":"Feature","properties":{"h3":"8830e36851fffff","emd_code":"3014063000","emd_name":"대사동","area_km2":0.5205,"edge":false,"slope_mean":20.75,"elev_mean":238.9,"flood_hist_n":0,"flood_depth_max_m":null,"flood_risk_100y":null,"semi_basement_r":null,"elderly_alone_r":0.193,"bldg_age30_r":null,"shelter_min_walk":13,"pop":5134,"hh":3248,"elderly65_r":0.321,"single_hh_r":0.6444,"source_level":"emd","flood_years":[],"landslide_hist_n":1},"geometry":{"type":"Polygon","coordinates":[[[127.42193,36.3078],[127.42109,36.30404],[127.42527,36.30201],[127.43028,36.30375],[127.43111,36.30752],[127.42694,36.30954],[127.42193,36.3078]]]}},{"type":"Feature","properties":{"h3":"8830e36853fffff","emd_code":"3014062000","emd_name":"석교동","area_km2":0.5205,"edge":false,"slope_mean":16.31,"elev_mean":146.7,"flood_hist_n":0,"flood_depth_max_m":null,"flood_risk_100y":null,"semi_basement_r":null,"elderly_alone_r":0.2427,"bldg_age30_r":null,"shelter_min_walk":12,"pop":13376,"hh":7292,"elderly65_r":0.3703,"single_hh_r":0.486,"source_level":"emd","flood_years":[],"landslide_hist_n":0},"geometry":{"type":"Polygon","coordinates":[[[127.43111,36.30752],[127.43028,36.30375],[127.43446,36.30172],[127.43947,36.30346],[127.44031,36.30723],[127.43613,36.30925],[127.43111,36.30752]]]}},{"type":"Feature","properties":{"h3":"8830e36855fffff","emd_code":"3014072000","emd_name":"문화1동","area_km2":0.5206,"edge":false,"slope_mean":19.88,"elev_mean":304.5,"flood_hist_n":0,"flood_depth_max_m":null,"flood_risk_100y":null,"semi_basement_r":null,"elderly_alone_r":0.107,"bldg_age30_r":null,"shelter_min_walk":24,"pop":20061,"hh":8399,"elderly65_r":0.221,"single_hh_r":0.3012,"source_level":"emd","flood_years":[],"landslide_hist_n":0},"geometry":{"type":"Polygon","coordinates":[[[127.41608,36.3023],[127.41524,36.29853],[127.41942,36.2965],[127.42443,36.29824],[127.42527,36.30201],[127.42109,36.30404],[127.41608,36.3023]]]}},{"type":"Feature","properties":{"h3":"8830e36857fffff","emd_code":"3014063000","emd_name":"대사동","area_km2":0.5206,"edge":false,"slope_mean":21.4,"elev_mean":307.1,"flood_hist_n":0,"flood_depth_max_m":null,"flood_risk_100y":null,"semi_basement_r":null,"elderly_alone_r":0.193,"bldg_age30_r":null,"shelter_min_walk":21,"pop":5134,"hh":3248,"elderly65_r":0.321,"single_hh_r":0.6444,"source_level":"emd","flood_years":[],"landslide_hist_n":0},"geometry":{"type":"Polygon","coordinates":[[[127.42527,36.30201],[127.42443,36.29824],[127.42861,36.29622],[127.43362,36.29796],[127.43446,36.30172],[127.43028,36.30375],[127.42527,36.30201]]]}},{"type":"Feature","properties":{"h3":"8830e36859fffff","emd_code":"3014063000","emd_name":"대사동","area_km2":0.5204,"edge":false,"slope_mean":18.58,"elev_mean":139.7,"flood_hist_n":0,"flood_depth_max_m":null,"flood_risk_100y":null,"semi_basement_r":null,"elderly_alone_r":0.193,"bldg_age30_r":null,"shelter_min_walk":10,"pop":5134,"hh":3248,"elderly65_r":0.321,"single_hh_r":0.6444,"source_level":"emd","flood_years":[],"landslide_hist_n":2},"geometry":{"type":"Polygon","coordinates":[[[127.41858,36.31359],[127.41775,36.30983],[127.42193,36.3078],[127.42694,36.30954],[127.42777,36.31331],[127.4236,36.31533],[127.41858,36.31359]]]}},{"type":"Feature","properties":{"h3":"8830e3685bfffff","emd_code":"3014064000","emd_name":"부사동","area_km2":0.5204,"edge":false,"slope_mean":9.56,"elev_mean":90.3,"flood_hist_n":0,"flood_depth_max_m":null,"flood_risk_100y":null,"semi_basement_r":null,"elderly_alone_r":0.2444,"bldg_age30_r":null,"shelter_min_walk":2,"pop":5769,"hh":3183,"elderly65_r":0.3533,"single_hh_r":0.5146,"source_level":"emd","flood_years":[],"landslide_hist_n":1},"geometry":{"type":"Polygon","coordinates":[[[127.42777,36.31331],[127.42694,36.30954],[127.43111,36.30752],[127.43613,36.30925],[127.43696,36.31302],[127.43279,36.31505],[127.42777,36.31331]]]}},{"type":"Feature","properties":{"h3":"8830e3685dfffff","emd_code":"3014063000","emd_name":"대사동","area_km2":0.5204,"edge":false,"slope_mean":19.34,"elev_mean":198.9,"flood_hist_n":0,"flood_depth_max_m":null,"flood_risk_100y":null,"semi_basement_r":null,"elderly_alone_r":0.193,"bldg_age30_r":null,"shelter_min_walk":14,"pop":5134,"hh":3248,"elderly65_r":0.321,"single_hh_r":0.6444,"source_level":"emd","flood_years":[],"landslide_hist_n":3},"geometry":{"type":"Polygon","coordinates":[[[127.41274,36.30809],[127.4119,36.30432],[127.41608,36.3023],[127.42109,36.30404],[127.42193,36.3078],[127.41775,36.30983],[127.41274,36.30809]]]}},{"type":"Feature","properties":{"h3":"8830e36861fffff","emd_code":"3014074000","emd_name":"산성동","area_km2":0.5207,"edge":false,"slope_mean":16.93,"elev_mean":123.2,"flood_hist_n":0,"flood_depth_max_m":null,"flood_risk_100y":null,"semi_basement_r":null,"elderly_alone_r":0.2046,"bldg_age30_r":null,"shelter_min_walk":23,"pop":24063,"hh":12271,"elderly65_r":0.3192,"single_hh_r":0.4406,"source_level":"emd","flood_years":[],"landslide_hist_n":0},"geometry":{"type":"Polygon","coordinates":[[[127.38935,36.28606],[127.38851,36.28229],[127.39269,36.28027],[127.3977,36.28201],[127.39854,36.28578],[127.39436,36.2878],[127.38935,36.28606]]]}},{"type":"Feature","properties":{"h3":"8830e36863fffff","emd_code":"3014074000","emd_name":"산성동","area_km2":0.5207,"edge":false,"slope_mean":18.64,"elev_mean":155.8,"flood_hist_n":0,"flood_depth_max_m":null,"flood_risk_100y":null,"semi_basement_r":null,"elderly_alone_r":0.2046,"bldg_age30_r":null,"shelter_min_walk":33,"pop":24063,"hh":12271,"elderly65_r":0.3192,"single_hh_r":0.4406,"source_level":"emd","flood_years":[],"landslide_hist_n":0},"geometry":{"type":"Polygon","coordinates":[[[127.39854,36.28578],[127.3977,36.28201],[127.40188,36.27998],[127.40689,36.28172],[127.40772,36.28549],[127.40355,36.28752],[127.39854,36.28578]]]}},{"type":"Feature","properties":{"h3":"8830e36865fffff","emd_code":"3014074000","emd_name":"산성동","area_km2":0.5208,"edge":false,"slope_mean":19.77,"elev_mean":179.8,"flood_hist_n":0,"flood_depth_max_m":null,"flood_risk_100y":null,"semi_basement_r":null,"elderly_alone_r":0.2046,"bldg_age30_r":null,"shelter_min_walk":28,"pop":24063,"hh":12271,"elderly65_r":0.3192,"single_hh_r":0.4406,"source_level":"emd","flood_years":[],"landslide_hist_n":0},"geometry":{"type":"Polygon","coordinates":[[[127.3835,36.28055],[127.38267,36.27678],[127.38684,36.27476],[127.39186,36.2765],[127.39269,36.28027],[127.38851,36.28229],[127.3835,36.28055]]]}},{"type":"Feature","properties":{"h3":"8830e36867fffff","emd_code":"3014074000","emd_name":"산성동","area_km2":0.5208,"edge":false,"slope_mean":14.47,"elev_mean":95.9,"flood_hist_n":0,"flood_depth_max_m":null,"flood_risk_100y":null,"semi_basement_r":null,"elderly_alone_r":0.2046,"bldg_age30_r":null,"shelter_min_walk":33,"pop":24063,"hh":12271,"elderly65_r":0.3192,"single_hh_r":0.4406,"source_level":"emd","flood_years":[],"landslide_hist_n":0},"geometry":{"type":"Polygon","coordinates":[[[127.39269,36.28027],[127.39186,36.2765],[127.39603,36.27447],[127.40104,36.27621],[127.40188,36.27998],[127.3977,36.28201],[127.39269,36.28027]]]}},{"type":"Feature","properties":{"h3":"8830e36869fffff","emd_code":"3014074000","emd_name":"산성동","area_km2":0.5206,"edge":false,"slope_mean":16.25,"elev_mean":127.1,"flood_hist_n":0,"flood_depth_max_m":null,"flood_risk_100y":null,"semi_basement_r":null,"elderly_alone_r":0.2046,"bldg_age30_r":null,"shelter_min_walk":13,"pop":24063,"hh":12271,"elderly65_r":0.3192,"single_hh_r":0.4406,"source_level":"emd","flood_years":[],"landslide_hist_n":0},"geometry":{"type":"Polygon","coordinates":[[[127.38601,36.29185],[127.38517,36.28809],[127.38935,36.28606],[127.39436,36.2878],[127.3952,36.29157],[127.39102,36.29359],[127.38601,36.29185]]]}},{"type":"Feature","properties":{"h3":"8830e3686bfffff","emd_code":"3014074000","emd_name":"산성동","area_km2":0.5206,"edge":false,"slope_mean":14.7,"elev_mean":172.5,"flood_hist_n":0,"flood_depth_max_m":null,"flood_risk_100y":null,"semi_basement_r":null,"elderly_alone_r":0.2046,"bldg_age30_r":null,"shelter_min_walk":25,"pop":24063,"hh":12271,"elderly65_r":0.3192,"single_hh_r":0.4406,"source_level":"emd","flood_years":[],"landslide_hist_n":0},"geometry":{"type":"Polygon","coordinates":[[[127.3952,36.29157],[127.39436,36.2878],[127.39854,36.28578],[127.40355,36.28752],[127.40438,36.29128],[127.40021,36.29331],[127.3952,36.29157]]]}},{"type":"Feature","properties":{"h3":"8830e3686dfffff","emd_code":"3014074000","emd_name":"산성동","area_km2":0.5206,"edge":false,"slope_mean":17.32,"elev_mean":105.9,"flood_hist_n":0,"flood_depth_max_m":null,"flood_risk_100y":null,"semi_basement_r":null,"elderly_alone_r":0.2046,"bldg_age30_r":null,"shelter_min_walk":17,"pop":24063,"hh":12271,"elderly65_r":0.3192,"single_hh_r":0.4406,"source_level":"emd","flood_years":[],"landslide_hist_n":1},"geometry":{"type":"Polygon","coordinates":[[[127.38016,36.28634],[127.37933,36.28258],[127.3835,36.28055],[127.38851,36.28229],[127.38935,36.28606],[127.38517,36.28809],[127.38016,36.28634]]]}},{"type":"Feature","properties":{"h3":"8830e368cdfffff","emd_code":"3014062000","emd_name":"석교동","area_km2":0.5207,"edge":true,"slope_mean":5.46,"elev_mean":78.6,"flood_hist_n":0,"flood_depth_max_m":null,"flood_risk_100y":null,"semi_basement_r":null,"elderly_alone_r":0.2427,"bldg_age30_r":null,"shelter_min_walk":4,"pop":13376,"hh":7292,"elderly65_r":0.3703,"single_hh_r":0.486,"source_level":"emd","flood_years":[],"landslide_hist_n":0},"geometry":{"type":"Polygon","coordinates":[[[127.45284,36.30115],[127.452,36.29738],[127.45618,36.29535],[127.46119,36.29709],[127.46203,36.30086],[127.45785,36.30289],[127.45284,36.30115]]]}},{"type":"Feature","properties":{"h3":"8830e36903fffff","emd_code":"3014074000","emd_name":"산성동","area_km2":0.5212,"edge":true,"slope_mean":19.56,"elev_mean":234.3,"flood_hist_n":0,"flood_depth_max_m":null,"flood_risk_100y":null,"semi_basement_r":null,"elderly_alone_r":0.2046,"bldg_age30_r":null,"shelter_min_walk":60,"pop":24063,"hh":12271,"elderly65_r":0.3192,"single_hh_r":0.4406,"source_level":"emd","flood_years":[],"landslide_hist_n":0},"geometry":{"type":"Polygon","coordinates":[[[127.38184,36.25214],[127.381,36.24837],[127.38518,36.24635],[127.39019,36.24809],[127.39102,36.25186],[127.38685,36.25389],[127.38184,36.25214]]]}},{"type":"Feature","properties":{"h3":"8830e36911fffff","emd_code":"3014074000","emd_name":"산성동","area_km2":0.5212,"edge":false,"slope_mean":9.9,"elev_mean":111.2,"flood_hist_n":0,"flood_depth_max_m":null,"flood_risk_100y":null,"semi_basement_r":null,"elderly_alone_r":0.2046,"bldg_age30_r":null,"shelter_min_walk":70,"pop":24063,"hh":12271,"elderly65_r":0.3192,"single_hh_r":0.4406,"source_level":"emd","flood_years":[],"landslide_hist_n":0},"geometry":{"type":"Polygon","coordinates":[[[127.39687,36.25737],[127.39603,36.2536],[127.40021,36.25157],[127.40522,36.25331],[127.40606,36.25708],[127.40188,36.25911],[127.39687,36.25737]]]}},{"type":"Feature","properties":{"h3":"8830e36913fffff","emd_code":"3014074000","emd_name":"산성동","area_km2":0.5213,"edge":false,"slope_mean":15.69,"elev_mean":177.6,"flood_hist_n":0,"flood_depth_max_m":null,"flood_risk_100y":null,"semi_basement_r":null,"elderly_alone_r":0.2046,"bldg_age30_r":null,"shelter_min_walk":76,"pop":24063,"hh":12271,"elderly65_r":0.3192,"single_hh_r":0.4406,"source_level":"emd","flood_years":[],"landslide_hist_n":0},"geometry":{"type":"Polygon","coordinates":[[[127.40606,36.25708],[127.40522,36.25331],[127.4094,36.25129],[127.41441,36.25303],[127.41524,36.2568],[127.41107,36.25883],[127.40606,36.25708]]]}},{"type":"Feature","properties":{"h3":"8830e36915fffff","emd_code":"3014074000","emd_name":"산성동","area_km2":0.5213,"edge":false,"slope_mean":13.79,"elev_mean":139.0,"flood_hist_n":0,"flood_depth_max_m":null,"flood_risk_100y":null,"semi_basement_r":null,"elderly_alone_r":0.2046,"bldg_age30_r":null,"shelter_min_walk":73,"pop":24063,"hh":12271,"elderly65_r":0.3192,"single_hh_r":0.4406,"source_level":"emd","flood_years":[],"landslide_hist_n":0},"geometry":{"type":"Polygon","coordinates":[[[127.39102,36.25186],[127.39019,36.24809],[127.39436,36.24606],[127.39937,36.2478],[127.40021,36.25157],[127.39603,36.2536],[127.39102,36.25186]]]}},{"type":"Feature","properties":{"h3":"8830e36917fffff","emd_code":"3014074000","emd_name":"산성동","area_km2":0.5213,"edge":false,"slope_mean":7.51,"elev_mean":109.3,"flood_hist_n":0,"flood_depth_max_m":null,"flood_risk_100y":null,"semi_basement_r":null,"elderly_alone_r":0.2046,"bldg_age30_r":null,"shelter_min_walk":76,"pop":24063,"hh":12271,"elderly65_r":0.3192,"single_hh_r":0.4406,"source_level":"emd","flood_years":[],"landslide_hist_n":0},"geometry":{"type":"Polygon","coordinates":[[[127.40021,36.25157],[127.39937,36.2478],[127.40355,36.24577],[127.40856,36.24752],[127.4094,36.25129],[127.40522,36.25331],[127.40021,36.25157]]]}},{"type":"Feature","properties":{"h3":"8830e36919fffff","emd_code":"3014074000","emd_name":"산성동","area_km2":0.5211,"edge":false,"slope_mean":15.37,"elev_mean":124.6,"flood_hist_n":0,"flood_depth_max_m":null,"flood_risk_100y":null,"semi_basement_r":null,"elderly_alone_r":0.2046,"bldg_age30_r":null,"shelter_min_walk":59,"pop":24063,"hh":12271,"elderly65_r":0.3192,"single_hh_r":0.4406,"source_level":"emd","flood_years":[],"landslide_hist_n":0},"geometry":{"type":"Polygon","coordinates":[[[127.39353,36.26317],[127.39269,36.2594],[127.39687,36.25737],[127.40188,36.25911],[127.40271,36.26288],[127.39854,36.26491],[127.39353,36.26317]]]}},{"type":"Feature","properties":{"h3":"8830e3691bfffff","emd_code":"3014074000","emd_name":"산성동","area_km2":0.5211,"edge":false,"slope_mean":12.52,"elev_mean":128.2,"flood_hist_n":0,"flood_depth_max_m":null,"flood_risk_100y":null,"semi_basement_r":null,"elderly_alone_r":0.2046,"bldg_age30_r":null,"shelter_min_walk":65,"pop":24063,"hh":12271,"elderly65_r":0.3192,"single_hh_r":0.4406,"source_level":"emd","flood_years":[],"landslide_hist_n":0},"geometry":{"type":"Polygon","coordinates":[[[127.40271,36.26288],[127.40188,36.25911],[127.40606,36.25708],[127.41107,36.25883],[127.4119,36.26259],[127.40773,36.26462],[127.40271,36.26288]]]}},{"type":"Feature","properties":{"h3":"8830e3691dfffff","emd_code":"3014074000","emd_name":"산성동","area_km2":0.5212,"edge":false,"slope_mean":15.99,"elev_mean":158.4,"flood_hist_n":0,"flood_depth_max_m":null,"flood_risk_100y":null,"semi_basement_r":null,"elderly_alone_r":0.2046,"bldg_age30_r":null,"shelter_min_walk":66,"pop":24063,"hh":12271,"elderly65_r":0.3192,"single_hh_r":0.4406,"source_level":"emd","flood_years":[],"landslide_hist_n":0},"geometry":{"type":"Polygon","coordinates":[[[127.38768,36.25766],[127.38685,36.25389],[127.39102,36.25186],[127.39603,36.2536],[127.39687,36.25737],[127.39269,36.2594],[127.38768,36.25766]]]}},{"type":"Feature","properties":{"h3":"8830e36931fffff","emd_code":"3014074000","emd_name":"산성동","area_km2":0.5214,"edge":false,"slope_mean":19.81,"elev_mean":286.9,"flood_hist_n":0,"flood_depth_max_m":null,"flood_risk_100y":null,"semi_basement_r":null,"elderly_alone_r":0.2046,"bldg_age30_r":null,"shelter_min_walk":73,"pop":24063,"hh":12271,"elderly65_r":0.3192,"single_hh_r":0.4406,"source_level":"emd","flood_years":[],"landslide_hist_n":0},"geometry":{"type":"Polygon","coordinates":[[[127.38852,36.24055],[127.38768,36.23678],[127.39186,36.23475],[127.39687,36.23649],[127.3977,36.24026],[127.39353,36.24229],[127.38852,36.24055]]]}},{"type":"Feature","properties":{"h3":"8830e36933fffff","emd_code":"3014074000","emd_name":"산성동","area_km2":0.5215,"edge":false,"slope_mean":19.75,"elev_mean":211.7,"flood_hist_n":0,"flood_depth_max_m":null,"flood_risk_100y":null,"semi_basement_r":null,"elderly_alone_r":0.2046,"bldg_age30_r":null,"shelter_min_walk":69,"pop":24063,"hh":12271,"elderly65_r":0.3192,"single_hh_r":0.4406,"source_level":"emd","flood_years":[],"landslide_hist_n":0},"geometry":{"type":"Polygon","coordinates":[[[127.3977,36.24026],[127.39687,36.23649],[127.40105,36.23446],[127.40606,36.2362],[127.40689,36.23998],[127.40272,36.242],[127.3977,36.24026]]]}},{"type":"Feature","properties":{"h3":"8830e36935fffff","emd_code":"3014074000","emd_name":"산성동","area_km2":0.5215,"edge":true,"slope_mean":26.61,"elev_mean":331.1,"flood_hist_n":0,"flood_depth_max_m":null,"flood_risk_100y":null,"semi_basement_r":null,"elderly_alone_r":0.2046,"bldg_age30_r":null,"shelter_min_walk":69,"pop":24063,"hh":12271,"elderly65_r":0.3192,"single_hh_r":0.4406,"source_level":"emd","flood_years":[],"landslide_hist_n":0},"geometry":{"type":"Polygon","coordinates":[[[127.38267,36.23504],[127.38184,36.23126],[127.38601,36.22924],[127.39102,36.23098],[127.39186,36.23475],[127.38768,36.23678],[127.38267,36.23504]]]}},{"type":"Feature","properties":{"h3":"8830e36937fffff","emd_code":"3014074000","emd_name":"산성동","area_km2":0.5216,"edge":true,"slope_mean":21.91,"elev_mean":305.2,"flood_hist_n":0,"flood_depth_max_m":null,"flood_risk_100y":null,"semi_basement_r":null,"elderly_alone_r":0.2046,"bldg_age30_r":null,"shelter_min_walk":74,"pop":24063,"hh":12271,"elderly65_r":0.3192,"single_hh_r":0.4406,"source_level":"emd","flood_years":[],"landslide_hist_n":0},"geometry":{"type":"Polygon","coordinates":[[[127.39186,36.23475],[127.39102,36.23098],[127.3952,36.22895],[127.40021,36.23069],[127.40105,36.23446],[127.39687,36.23649],[127.39186,36.23475]]]}},{"type":"Feature","properties":{"h3":"8830e36939fffff","emd_code":"3014074000","emd_name":"산성동","area_km2":0.5213,"edge":true,"slope_mean":18.44,"elev_mean":245.9,"flood_hist_n":0,"flood_depth_max_m":null,"flood_risk_100y":null,"semi_basement_r":null,"elderly_alone_r":0.2046,"bldg_age30_r":null,"shelter_min_walk":66,"pop":24063,"hh":12271,"elderly65_r":0.3192,"single_hh_r":0.4406,"source_level":"emd","flood_years":[],"landslide_hist_n":0},"geometry":{"type":"Polygon","coordinates":[[[127.38518,36.24635],[127.38434,36.24258],[127.38852,36.24055],[127.39353,36.24229],[127.39436,36.24606],[127.39019,36.24809],[127.38518,36.24635]]]}},{"type":"Feature","properties":{"h3":"8830e3693bfffff","emd_code":"3014074000","emd_name":"산성동","area_km2":0.5214,"edge":false,"slope_mean":13.85,"elev_mean":157.5,"flood_hist_n":0,"flood_depth_max_m":null,"flood_risk_100y":null,"semi_basement_r":null,"elderly_alone_r":0.2046,"bldg_age30_r":null,"shelter_min_walk":77,"pop":24063,"hh":12271,"elderly65_r":0.3192,"single_hh_r":0.4406,"source_level":"emd","flood_years":[],"landslide_hist_n":0},"geometry":{"type":"Polygon","coordinates":[[[127.39436,36.24606],[127.39353,36.24229],[127.3977,36.24026],[127.40272,36.242],[127.40355,36.24577],[127.39937,36.2478],[127.39436,36.24606]]]}},{"type":"Feature","properties":{"h3":"8830e36951fffff","emd_code":"3014074000","emd_name":"산성동","area_km2":0.5209,"edge":true,"slope_mean":19.33,"elev_mean":124.6,"flood_hist_n":0,"flood_depth_max_m":null,"flood_risk_100y":null,"semi_basement_r":null,"elderly_alone_r":0.2046,"bldg_age30_r":null,"shelter_min_walk":45,"pop":24063,"hh":12271,"elderly65_r":0.3192,"single_hh_r":0.4406,"source_level":"emd","flood_years":[],"landslide_hist_n":0},"geometry":{"type":"Polygon","coordinates":[[[127.381,36.26925],[127.38016,36.26548],[127.38434,36.26345],[127.38935,36.26519],[127.39019,36.26896],[127.38601,36.27099],[127.381,36.26925]]]}},{"type":"Feature","properties":{"h3":"8830e36953fffff","emd_code":"3014074000","emd_name":"산성동","area_km2":0.521,"edge":false,"slope_mean":15.91,"elev_mean":105.3,"flood_hist_n":0,"flood_depth_max_m":null,"flood_risk_100y":null,"semi_basement_r":null,"elderly_alone_r":0.2046,"bldg_age30_r":null,"shelter_min_walk":49,"pop":24063,"hh":12271,"elderly65_r":0.3192,"single_hh_r":0.4406,"source_level":"emd","flood_years":[],"landslide_hist_n":0},"geometry":{"type":"Polygon","coordinates":[[[127.39019,36.26896],[127.38935,36.26519],[127.39353,36.26317],[127.39854,36.26491],[127.39937,36.26868],[127.3952,36.2707],[127.39019,36.26896]]]}},{"type":"Feature","properties":{"h3":"8830e36957fffff","emd_code":"3014074000","emd_name":"산성동","area_km2":0.521,"edge":true,"slope_mean":20.28,"elev_mean":145.8,"flood_hist_n":0,"flood_depth_max_m":null,"flood_risk_100y":null,"semi_basement_r":null,"elderly_alone_r":0.2046,"bldg_age30_r":null,"shelter_min_walk":56,"pop":24063,"hh":12271,"elderly65_r":0.3192,"single_hh_r":0.4406,"source_level":"emd","flood_years":[],"landslide_hist_n":0},"geometry":{"type":"Polygon","coordinates":[[[127.38434,36.26345],[127.38351,36.25968],[127.38768,36.25766],[127.39269,36.2594],[127.39353,36.26317],[127.38935,36.26519],[127.38434,36.26345]]]}},{"type":"Feature","properties":{"h3":"8830e36959fffff","emd_code":"3014074000","emd_name":"산성동","area_km2":0.5208,"edge":false,"slope_mean":18.71,"elev_mean":150.6,"flood_hist_n":0,"flood_depth_max_m":null,"flood_risk_100y":null,"semi_basement_r":null,"elderly_alone_r":0.2046,"bldg_age30_r":null,"shelter_min_walk":36,"pop":24063,"hh":12271,"elderly65_r":0.3192,"single_hh_r":0.4406,"source_level":"emd","flood_years":[],"landslide_hist_n":1},"geometry":{"type":"Polygon","coordinates":[[[127.37766,36.27504],[127.37682,36.27127],[127.381,36.26925],[127.38601,36.27099],[127.38684,36.27476],[127.38267,36.27678],[127.37766,36.27504]]]}},{"type":"Feature","properties":{"h3":"8830e3695bfffff","emd_code":"3014074000","emd_name":"산성동","area_km2":0.5209,"edge":false,"slope_mean":14.66,"elev_mean":126.3,"flood_hist_n":0,"flood_depth_max_m":null,"flood_risk_100y":null,"semi_basement_r":null,"elderly_alone_r":0.2046,"bldg_age30_r":null,"shelter_min_walk":38,"pop":24063,"hh":12271,"elderly65_r":0.3192,"single_hh_r":0.4406,"source_level":"emd","flood_years":[],"landslide_hist_n":0},"geometry":{"type":"Polygon","coordinates":[[[127.38684,36.27476],[127.38601,36.27099],[127.39019,36.26896],[127.3952,36.2707],[127.39603,36.27447],[127.39186,36.2765],[127.38684,36.27476]]]}},{"type":"Feature","properties":{"h3":"8830e36981fffff","emd_code":"3014074000","emd_name":"산성동","area_km2":0.5215,"edge":true,"slope_mean":25.51,"elev_mean":316.4,"flood_hist_n":0,"flood_depth_max_m":null,"flood_risk_100y":null,"semi_basement_r":null,"elderly_alone_r":0.2046,"bldg_age30_r":null,"shelter_min_walk":45,"pop":24063,"hh":12271,"elderly65_r":0.3192,"single_hh_r":0.4406,"source_level":"emd","flood_years":[],"landslide_hist_n":0},"geometry":{"type":"Polygon","coordinates":[[[127.43696,36.25042],[127.43613,36.24665],[127.4403,36.24462],[127.44532,36.24636],[127.44615,36.25013],[127.44197,36.25216],[127.43696,36.25042]]]}},{"type":"Feature","properties":{"h3":"8830e36985fffff","emd_code":"3014074000","emd_name":"산성동","area_km2":0.5216,"edge":false,"slope_mean":26.31,"elev_mean":274.5,"flood_hist_n":0,"flood_depth_max_m":null,"flood_risk_100y":null,"semi_basement_r":null,"elderly_alone_r":0.2046,"bldg_age30_r":null,"shelter_min_walk":39,"pop":24063,"hh":12271,"elderly65_r":0.3192,"single_hh_r":0.4406,"source_level":"emd","flood_years":[],"landslide_hist_n":0},"geometry":{"type":"Polygon","coordinates":[[[127.43111,36.24491],[127.43028,36.24114],[127.43446,36.23911],[127.43947,36.24085],[127.4403,36.24462],[127.43613,36.24665],[127.43111,36.24491]]]}},{"type":"Feature","properties":{"h3":"8830e36987fffff","emd_code":"3014074000","emd_name":"산성동","area_km2":0.5216,"edge":true,"slope_mean":26.16,"elev_mean":371.5,"flood_hist_n":0,"flood_depth_max_m":null,"flood_risk_100y":null,"semi_basement_r":null,"elderly_alone_r":0.2046,"bldg_age30_r":null,"shelter_min_walk":34,"pop":24063,"hh":12271,"elderly65_r":0.3192,"single_hh_r":0.4406,"source_level":"emd","flood_years":[],"landslide_hist_n":0},"geometry":{"type":"Polygon","coordinates":[[[127.4403,36.24462],[127.43947,36.24085],[127.44364,36.23882],[127.44866,36.24056],[127.44949,36.24433],[127.44532,36.24636],[127.4403,36.24462]]]}},{"type":"Feature","properties":{"h3":"8830e36989fffff","emd_code":"3014074000","emd_name":"산성동","area_km2":0.5214,"edge":true,"slope_mean":16.67,"elev_mean":226.5,"flood_hist_n":0,"flood_depth_max_m":null,"flood_risk_100y":null,"semi_basement_r":null,"elderly_alone_r":0.2046,"bldg_age30_r":null,"shelter_min_walk":55,"pop":24063,"hh":12271,"elderly65_r":0.3192,"single_hh_r":0.4406,"source_level":"emd","flood_years":[],"landslide_hist_n":0},"geometry":{"type":"Polygon","coordinates":[[[127.43362,36.25622],[127.43279,36.25245],[127.43696,36.25042],[127.44197,36.25216],[127.44281,36.25593],[127.43863,36.25796],[127.43362,36.25622]]]}},{"type":"Feature","properties":{"h3":"8830e3698dfffff","emd_code":"3014074000","emd_name":"산성동","area_km2":0.5215,"edge":false,"slope_mean":21.13,"elev_mean":215.6,"flood_hist_n":0,"flood_depth_max_m":null,"flood_risk_100y":null,"semi_basement_r":null,"elderly_alone_r":0.2046,"bldg_age30_r":null,"shelter_min_walk":50,"pop":24063,"hh":12271,"elderly65_r":0.3192,"single_hh_r":0.4406,"source_level":"emd","flood_years":[],"landslide_hist_n":0},"geometry":{"type":"Polygon","coordinates":[[[127.42777,36.25071],[127.42694,36.24694],[127.43111,36.24491],[127.43613,36.24665],[127.43696,36.25042],[127.43279,36.25245],[127.42777,36.25071]]]}},{"type":"Feature","properties":{"h3":"8830e369a1fffff","emd_code":"3014074000","emd_name":"산성동","area_km2":0.5218,"edge":false,"slope_mean":28.1,"elev_mean":359.7,"flood_hist_n":0,"flood_depth_max_m":null,"flood_risk_100y":null,"semi_basement_r":null,"elderly_alone_r":0.2046,"bldg_age30_r":null,"shelter_min_walk":27,"pop":24063,"hh":12271,"elderly65_r":0.3192,"single_hh_r":0.4406,"source_level":"emd","flood_years":[],"landslide_hist_n":0},"geometry":{"type":"Polygon","coordinates":[[[127.42861,36.2336],[127.42777,36.22983],[127.43195,36.2278],[127.43696,36.22954],[127.4378,36.23331],[127.43362,36.23534],[127.42861,36.2336]]]}},{"type":"Feature","properties":{"h3":"8830e369a3fffff","emd_code":"3014074000","emd_name":"산성동","area_km2":0.5218,"edge":true,"slope_mean":25.03,"elev_mean":297.2,"flood_hist_n":0,"flood_depth_max_m":null,"flood_risk_100y":null,"semi_basement_r":null,"elderly_alone_r":0.2046,"bldg_age30_r":null,"shelter_min_walk":18,"pop":24063,"hh":12271,"elderly65_r":0.3192,"single_hh_r":0.4406,"source_level":"emd","flood_years":[],"landslide_hist_n":0},"geometry":{"type":"Polygon","coordinates":[[[127.4378,36.23331],[127.43696,36.22954],[127.44114,36.22751],[127.44615,36.22925],[127.44699,36.23302],[127.44281,36.23505],[127.4378,36.23331]]]}},{"type":"Feature","properties":{"h3":"8830e369a5fffff","emd_code":"3014074000","emd_name":"산성동","area_km2":0.5218,"edge":true,"slope_mean":26.49,"elev_mean":324.3,"flood_hist_n":0,"flood_depth_max_m":null,"flood_risk_100y":null,"semi_basement_r":null,"elderly_alone_r":0.2046,"bldg_age30_r":null,"shelter_min_walk":31,"pop":24063,"hh":12271,"elderly65_r":0.3192,"single_hh_r":0.4406,"source_level":"emd","flood_years":[],"landslide_hist_n":0},"geometry":{"type":"Polygon","coordinates":[[[127.42276,36.22809],[127.42193,36.22431],[127.4261,36.22228],[127.43111,36.22402],[127.43195,36.2278],[127.42777,36.22983],[127.42276,36.22809]]]}},{"type":"Feature","properties":{"h3":"8830e369a7fffff","emd_code":"3014074000","emd_name":"산성동","area_km2":0.5219,"edge":true,"slope_mean":26.8,"elev_mean":306.8,"flood_hist_n":0,"flood_depth_max_m":null,"flood_risk_100y":null,"semi_basement_r":null,"elderly_alone_r":0.2046,"bldg_age30_r":null,"shelter_min_walk":19,"pop":24063,"hh":12271,"elderly65_r":0.3192,"single_hh_r":0.4406,"source_level":"emd","flood_years":[],"landslide_hist_n":0},"geometry":{"type":"Polygon","coordinates":[[[127.43195,36.2278],[127.43111,36.22402],[127.43529,36.22199],[127.4403,36.22373],[127.44114,36.22751],[127.43696,36.22954],[127.43195,36.2278]]]}},{"type":"Feature","properties":{"h3":"8830e369a9fffff","emd_code":"3014074000","emd_name":"산성동","area_km2":0.5216,"edge":false,"slope_mean":27.29,"elev_mean":272.3,"flood_hist_n":0,"flood_depth_max_m":null,"flood_risk_100y":null,"semi_basement_r":null,"elderly_alone_r":0.2046,"bldg_age30_r":null,"shelter_min_walk":37,"pop":24063,"hh":12271,"elderly65_r":0.3192,"single_hh_r":0.4406,"source_level":"emd","flood_years":[],"landslide_hist_n":0},"geometry":{"type":"Polygon","coordinates":[[[127.42527,36.2394],[127.42443,36.23563],[127.42861,36.2336],[127.43362,36.23534],[127.43446,36.23911],[127.43028,36.24114],[127.42527,36.2394]]]}},{"type":"Feature","properties":{"h3":"8830e369abfffff","emd_code":"3014074000","emd_name":"산성동","area_km2":0.5217,"edge":false,"slope_mean":26.04,"elev_mean":386.2,"flood_hist_n":0,"flood_depth_max_m":null,"flood_risk_100y":null,"semi_basement_r":null,"elderly_alone_r":0.2046,"bldg_age30_r":null,"shelter_min_walk":28,"pop":24063,"hh":12271,"elderly65_r":0.3192,"single_hh_r":0.4406,"source_level":"emd","flood_years":[],"landslide_hist_n":0},"geometry":{"type":"Polygon","coordinates":[[[127.43446,36.23911],[127.43362,36.23534],[127.4378,36.23331],[127.44281,36.23505],[127.44364,36.23882],[127.43947,36.24085],[127.43446,36.23911]]]}},{"type":"Feature","properties":{"h3":"8830e369adfffff","emd_code":"3014074000","emd_name":"산성동","area_km2":0.5217,"edge":false,"slope_mean":27.16,"elev_mean":288.1,"flood_hist_n":0,"flood_depth_max_m":null,"flood_risk_100y":null,"semi_basement_r":null,"elderly_alone_r":0.2046,"bldg_age30_r":null,"shelter_min_walk":38,"pop":24063,"hh":12271,"elderly65_r":0.3192,"single_hh_r":0.4406,"source_level":"emd","flood_years":[],"landslide_hist_n":0},"geometry":{"type":"Polygon","coordinates":[[[127.41942,36.23389],[127.41859,36.23012],[127.42276,36.22809],[127.42777,36.22983],[127.42861,36.2336],[127.42443,36.23563],[127.41942,36.23389]]]}},{"type":"Feature","properties":{"h3":"8830e369c1fffff","emd_code":"3014074000","emd_name":"산성동","area_km2":0.5212,"edge":false,"slope_mean":19.54,"elev_mean":276.8,"flood_hist_n":0,"flood_depth_max_m":null,"flood_risk_100y":null,"semi_basement_r":null,"elderly_alone_r":0.2046,"bldg_age30_r":null,"shelter_min_walk":63,"pop":24063,"hh":12271,"elderly65_r":0.3192,"single_hh_r":0.4406,"source_level":"emd","flood_years":[],"landslide_hist_n":0},"geometry":{"type":"Polygon","coordinates":[[[127.42109,36.26231],[127.42026,36.25854],[127.42443,36.25651],[127.42944,36.25825],[127.43028,36.26202],[127.4261,36.26405],[127.42109,36.26231]]]}},{"type":"Feature","properties":{"h3":"8830e369c3fffff","emd_code":"3014074000","emd_name":"산성동","area_km2":0.5213,"edge":true,"slope_mean":19.07,"elev_mean":276.1,"flood_hist_n":0,"flood_depth_max_m":null,"flood_risk_100y":null,"semi_basement_r":null,"elderly_alone_r":0.2046,"bldg_age30_r":null,"shelter_min_walk":53,"pop":24063,"hh":12271,"elderly65_r":0.3192,"single_hh_r":0.4406,"source_level":"emd","flood_years":[],"landslide_hist_n":0},"geometry":{"type":"Polygon","coordinates":[[[127.43028,36.26202],[127.42944,36.25825],[127.43362,36.25622],[127.43863,36.25796],[127.43947,36.26173],[127.43529,36.26376],[127.43028,36.26202]]]}},{"type":"Feature","properties":{"h3":"8830e369c5fffff","emd_code":"3014074000","emd_name":"산성동","area_km2":0.5213,"edge":false,"slope_mean":19.84,"elev_mean":271.6,"flood_hist_n":0,"flood_depth_max_m":null,"flood_risk_100y":null,"semi_basement_r":null,"elderly_alone_r":0.2046,"bldg_age30_r":null,"shelter_min_walk":67,"pop":24063,"hh":12271,"elderly65_r":0.3192,"single_hh_r":0.4406,"source_level":"emd","flood_years":[],"landslide_hist_n":0},"geometry":{"type":"Polygon","coordinates":[[[127.41524,36.2568],[127.41441,36.25303],[127.41858,36.251],[127.4236,36.25274],[127.42443,36.25651],[127.42026,36.25854],[127.41524,36.2568]]]}},{"type":"Feature","properties":{"h3":"8830e369c7fffff","emd_code":"3014074000","emd_name":"산성동","area_km2":0.5214,"edge":false,"slope_mean":23.39,"elev_mean":300.2,"flood_hist_n":0,"flood_depth_max_m":null,"flood_risk_100y":null,"semi_basement_r":null,"elderly_alone_r":0.2046,"bldg_age30_r":null,"shelter_min_walk":60,"pop":24063,"hh":12271,"elderly65_r":0.3192,"single_hh_r":0.4406,"source_level":"emd","flood_years":[],"landslide_hist_n":0},"geometry":{"type":"Polygon","coordinates":[[[127.42443,36.25651],[127.4236,36.25274],[127.42777,36.25071],[127.43279,36.25245],[127.43362,36.25622],[127.42944,36.25825],[127.42443,36.25651]]]}},{"type":"Feature","properties":{"h3":"8830e369c9fffff","emd_code":"3014074000","emd_name":"산성동","area_km2":0.5211,"edge":false,"slope_mean":16.62,"elev_mean":248.3,"flood_hist_n":0,"flood_depth_max_m":null,"flood_risk_100y":null,"semi_basement_r":null,"elderly_alone_r":0.2046,"bldg_age30_r":null,"shelter_min_walk":62,"pop":24063,"hh":12271,"elderly65_r":0.3192,"single_hh_r":0.4406,"source_level":"emd","flood_years":[],"landslide_hist_n":0},"geometry":{"type":"Polygon","coordinates":[[[127.41775,36.2681],[127.41691,36.26434],[127.42109,36.26231],[127.4261,36.26405],[127.42694,36.26782],[127.42276,36.26984],[127.41775,36.2681]]]}},{"type":"Feature","properties":{"h3":"8830e369cbfffff","emd_code":"3014074000","emd_name":"산성동","area_km2":0.5212,"edge":false,"slope_mean":16.58,"elev_mean":273.0,"flood_hist_n":0,"flood_depth_max_m":null,"flood_risk_100y":null,"semi_basement_r":null,"elderly_alone_r":0.2046,"bldg_age30_r":null,"shelter_min_walk":52,"pop":24063,"hh":12271,"elderly65_r":0.3192,"single_hh_r":0.4406,"source_level":"emd","flood_years":[],"landslide_hist_n":0},"geometry":{"type":"Polygon","coordinates":[[[127.42694,36.26782],[127.4261,36.26405],[127.43028,36.26202],[127.43529,36.26376],[127.43613,36.26753],[127.43195,36.26956],[127.42694,36.26782]]]}},{"type":"Feature","properties":{"h3":"8830e369cdfffff","emd_code":"3014074000","emd_name":"산성동","area_km2":0.5212,"edge":false,"slope_mean":16.93,"elev_mean":174.7,"flood_hist_n":0,"flood_depth_max_m":null,"flood_risk_100y":null,"semi_basement_r":null,"elderly_alone_r":0.2046,"bldg_age30_r":null,"shelter_min_walk":72,"pop":24063,"hh":12271,"elderly65_r":0.3192,"single_hh_r":0.4406,"source_level":"emd","flood_years":[],"landslide_hist_n":0},"geometry":{"type":"Polygon","coordinates":[[[127.4119,36.26259],[127.41107,36.25883],[127.41524,36.2568],[127.42026,36.25854],[127.42109,36.26231],[127.41691,36.26434],[127.4119,36.26259]]]}},{"type":"Feature","properties":{"h3":"8830e369ddfffff","emd_code":"3014074000","emd_name":"산성동","area_km2":0.5212,"edge":true,"slope_mean":17.38,"elev_mean":222.9,"flood_hist_n":0,"flood_depth_max_m":null,"flood_risk_100y":null,"semi_basement_r":null,"elderly_alone_r":0.2046,"bldg_age30_r":null,"shelter_min_walk":41,"pop":24063,"hh":12271,"elderly65_r":0.3192,"single_hh_r":0.4406,"source_level":"emd","flood_years":[],"landslide_hist_n":0},"geometry":{"type":"Polygon","coordinates":[[[127.43613,36.26753],[127.43529,36.26376],[127.43947,36.26173],[127.44448,36.26347],[127.44532,36.26724],[127.44114,36.26927],[127.43613,36.26753]]]}},{"type":"Feature","properties":{"h3":"8830e369e1fffff","emd_code":"3014074000","emd_name":"산성동","area_km2":0.5215,"edge":false,"slope_mean":17.69,"elev_mean":155.0,"flood_hist_n":0,"flood_depth_max_m":null,"flood_risk_100y":null,"semi_basement_r":null,"elderly_alone_r":0.2046,"bldg_age30_r":null,"shelter_min_walk":56,"pop":24063,"hh":12271,"elderly65_r":0.3192,"single_hh_r":0.4406,"source_level":"emd","flood_years":[],"landslide_hist_n":0},"geometry":{"type":"Polygon","coordinates":[[[127.41274,36.24549],[127.4119,36.24172],[127.41608,36.23969],[127.42109,36.24143],[127.42193,36.2452],[127.41775,36.24723],[127.41274,36.24549]]]}},{"type":"Feature","properties":{"h3":"8830e369e3fffff","emd_code":"3014074000","emd_name":"산성동","area_km2":0.5215,"edge":false,"slope_mean":17.88,"elev_mean":173.2,"flood_hist_n":0,"flood_depth_max_m":null,"flood_risk_100y":null,"semi_basement_r":null,"elderly_alone_r":0.2046,"bldg_age30_r":null,"shelter_min_walk":47,"pop":24063,"hh":12271,"elderly65_r":0.3192,"single_hh_r":0.4406,"source_level":"emd","flood_years":[],"landslide_hist_n":0},"geometry":{"type":"Polygon","coordinates":[[[127.42193,36.2452],[127.42109,36.24143],[127.42527,36.2394],[127.43028,36.24114],[127.43111,36.24491],[127.42694,36.24694],[127.42193,36.2452]]]}},{"type":"Feature","properties":{"h3":"8830e369e5fffff","emd_code":"3014074000","emd_name":"산성동","area_km2":0.5215,"edge":false,"slope_mean":23.24,"elev_mean":221.1,"flood_hist_n":0,"flood_depth_max_m":null,"flood_risk_100y":null,"semi_basement_r":null,"elderly_alone_r":0.2046,"bldg_age30_r":null,"shelter_min_walk":58,"pop":24063,"hh":12271,"elderly65_r":0.3192,"single_hh_r":0.4406,"source_level":"emd","flood_years":[],"landslide_hist_n":0},"geometry":{"type":"Polygon","coordinates":[[[127.40689,36.23998],[127.40606,36.2362],[127.41023,36.23417],[127.41524,36.23592],[127.41608,36.23969],[127.4119,36.24172],[127.40689,36.23998]]]}},{"type":"Feature","properties":{"h3":"8830e369e7fffff","emd_code":"3014074000","emd_name":"산성동","area_km2":0.5216,"edge":false,"slope_mean":21.99,"elev_mean":198.0,"flood_hist_n":0,"flood_depth_max_m":null,"flood_risk_100y":null,"semi_basement_r":null,"elderly_alone_r":0.2046,"bldg_age30_r":null,"shelter_min_walk":47,"pop":24063,"hh":12271,"elderly65_r":0.3192,"single_hh_r":0.4406,"source_level":"emd","flood_years":[],"landslide_hist_n":0},"geometry":{"type":"Polygon","coordinates":[[[127.41608,36.23969],[127.41524,36.23592],[127.41942,36.23389],[127.42443,36.23563],[127.42527,36.2394],[127.42109,36.24143],[127.41608,36.23969]]]}},{"type":"Feature","properties":{"h3":"8830e369e9fffff","emd_code":"3014074000","emd_name":"산성동","area_km2":0.5214,"edge":false,"slope_mean":15.21,"elev_mean":162.9,"flood_hist_n":0,"flood_depth_max_m":null,"flood_risk_100y":null,"semi_basement_r":null,"elderly_alone_r":0.2046,"bldg_age30_r":null,"shelter_min_walk":66,"pop":24063,"hh":12271,"elderly65_r":0.3192,"single_hh_r":0.4406,"source_level":"emd","flood_years":[],"landslide_hist_n":0},"geometry":{"type":"Polygon","coordinates":[[[127.4094,36.25129],[127.40856,36.24752],[127.41274,36.24549],[127.41775,36.24723],[127.41858,36.251],[127.41441,36.25303],[127.4094,36.25129]]]}},{"type":"Feature","properties":{"h3":"8830e369ebfffff","emd_code":"3014074000","emd_name":"산성동","area_km2":0.5214,"edge":false,"slope_mean":23.59,"elev_mean":254.1,"flood_hist_n":0,"flood_depth_max_m":null,"flood_risk_100y":null,"semi_basement_r":null,"elderly_alone_r":0.2046,"bldg_age30_r":null,"shelter_min_walk":57,"pop":24063,"hh":12271,"elderly65_r":0.3192,"single_hh_r":0.4406,"source_level":"emd","flood_years":[],"landslide_hist_n":0},"geometry":{"type":"Polygon","coordinates":[[[127.41858,36.251],[127.41775,36.24723],[127.42193,36.2452],[127.42694,36.24694],[127.42777,36.25071],[127.4236,36.25274],[127.41858,36.251]]]}},{"type":"Feature","properties":{"h3":"8830e369edfffff","emd_code":"3014074000","emd_name":"산성동","area_km2":0.5214,"edge":false,"slope_mean":13.74,"elev_mean":143.3,"flood_hist_n":0,"flood_depth_max_m":null,"flood_risk_100y":null,"semi_basement_r":null,"elderly_alone_r":0.2046,"bldg_age30_r":null,"shelter_min_walk":66,"pop":24063,"hh":12271,"elderly65_r":0.3192,"single_hh_r":0.4406,"source_level":"emd","flood_years":[],"landslide_hist_n":0},"geometry":{"type":"Polygon","coordinates":[[[127.40355,36.24577],[127.40272,36.242],[127.40689,36.23998],[127.4119,36.24172],[127.41274,36.24549],[127.40856,36.24752],[127.40355,36.24577]]]}},{"type":"Feature","properties":{"h3":"8830e36a01fffff","emd_code":"3014069000","emd_name":"태평2동","area_km2":0.5199,"edge":false,"slope_mean":3.29,"elev_mean":47.4,"flood_hist_n":1,"flood_depth_max_m":0.535,"flood_risk_100y":null,"semi_basement_r":null,"elderly_alone_r":0.1312,"bldg_age30_r":null,"shelter_min_walk":6,"pop":23001,"hh":9297,"elderly65_r":0.2622,"single_hh_r":0.2448,"source_level":"emd","flood_years":[2020],"landslide_hist_n":0},"geometry":{"type":"Polygon","coordinates":[[[127.39018,36.33153],[127.38935,36.32776],[127.39352,36.32574],[127.39853,36.32748],[127.39937,36.33124],[127.39519,36.33327],[127.39018,36.33153]]]}},{"type":"Feature","properties":{"h3":"8830e36a03fffff","emd_code":"3014067000","emd_name":"오류동","area_km2":0.52,"edge":false,"slope_mean":4.08,"elev_mean":52.9,"flood_hist_n":0,"flood_depth_max_m":null,"flood_risk_100y":null,"semi_basement_r":null,"elderly_alone_r":0.1632,"bldg_age30_r":null,"shelter_min_walk":1,"pop":9747,"hh":4920,"elderly65_r":0.2719,"single_hh_r":0.4388,"source_level":"emd","flood_years":[],"landslide_hist_n":0},"geometry":{"type":"Polygon","coordinates":[[[127.39937,36.33124],[127.39853,36.32748],[127.40271,36.32546],[127.40772,36.3272],[127.40856,36.33096],[127.40438,36.33298],[127.39937,36.33124]]]}},{"type":"Feature","properties":{"h3":"8830e36a05fffff","emd_code":"3014069000","emd_name":"태평2동","area_km2":0.52,"edge":false,"slope_mean":3.62,"elev_mean":50.1,"flood_hist_n":0,"flood_depth_max_m":null,"flood_risk_100y":null,"semi_basement_r":null,"elderly_alone_r":0.1312,"bldg_age30_r":null,"shelter_min_walk":6,"pop":23001,"hh":9297,"elderly65_r":0.2622,"single_hh_r":0.2448,"source_level":"emd","flood_years":[],"landslide_hist_n":0},"geometry":{"type":"Polygon","coordinates":[[[127.38434,36.32602],[127.3835,36.32226],[127.38768,36.32024],[127.39269,36.32198],[127.39352,36.32574],[127.38935,36.32776],[127.38434,36.32602]]]}},{"type":"Feature","properties":{"h3":"8830e36a07fffff","emd_code":"3014068000","emd_name":"태평1동","area_km2":0.5201,"edge":false,"slope_mean":2.97,"elev_mean":51.0,"flood_hist_n":1,"flood_depth_max_m":0.556,"flood_risk_100y":null,"semi_basement_r":null,"elderly_alone_r":0.1302,"bldg_age30_r":null,"shelter_min_walk":2,"pop":11951,"hh":5086,"elderly65_r":0.2308,"single_hh_r":0.2987,"source_level":"emd","flood_years":[2020],"landslide_hist_n":0},"geometry":{"type":"Polygon","coordinates":[[[127.39352,36.32574],[127.39269,36.32198],[127.39686,36.31995],[127.40188,36.32169],[127.40271,36.32546],[127.39853,36.32748],[127.39352,36.32574]]]}},{"type":"Feature","properties":{"h3":"8830e36a0bfffff","emd_code":"3014065500","emd_name":"용두동","area_km2":0.5199,"edge":false,"slope_mean":4.93,"elev_mean":48.6,"flood_hist_n":0,"flood_depth_max_m":null,"flood_risk_100y":null,"semi_basement_r":null,"elderly_alone_r":0.1228,"bldg_age30_r":null,"shelter_min_walk":6,"pop":9789,"hh":5488,"elderly65_r":0.2044,"single_hh_r":0.5627,"source_level":"emd","flood_years":[],"landslide_hist_n":0},"geometry":{"type":"Polygon","coordinates":[[[127.39603,36.33703],[127.39519,36.33327],[127.39937,36.33124],[127.40438,36.33298],[127.40522,36.33675],[127.40104,36.33877],[127.39603,36.33703]]]}},{"type":"Feature","properties":{"h3":"8830e36a11fffff","emd_code":"3014053500","emd_name":"은행선화동","area_km2":0.52,"edge":false,"slope_mean":3.75,"elev_mean":51.7,"flood_hist_n":0,"flood_depth_max_m":null,"flood_risk_100y":null,"semi_basement_r":null,"elderly_alone_r":0.1124,"bldg_age30_r":null,"shelter_min_walk":6,"pop":24165,"hh":12219,"elderly65_r":0.1417,"single_hh_r":0.5042,"source_level":"emd","flood_years":[],"landslide_hist_n":0},"geometry":{"type":"Polygon","coordinates":[[[127.41441,36.33646],[127.41357,36.3327],[127.41775,36.33067],[127.42276,36.33241],[127.4236,36.33618],[127.41942,36.3382],[127.41441,36.33646]]]}},{"type":"Feature","properties":{"h3":"8830e36a13fffff","emd_code":"3014053500","emd_name":"은행선화동","area_km2":0.52,"edge":true,"slope_mean":3.34,"elev_mean":51.2,"flood_hist_n":1,"flood_depth_max_m":0.453,"flood_risk_100y":null,"semi_basement_r":null,"elderly_alone_r":0.1124,"bldg_age30_r":null,"shelter_min_walk":6,"pop":24165,"hh":12219,"elderly65_r":0.1417,"single_hh_r":0.5042,"source_level":"emd","flood_years":[2020],"landslide_hist_n":0},"geometry":{"type":"Polygon","coordinates":[[[127.4236,36.33618],[127.42276,36.33241],[127.42694,36.33039],[127.43195,36.33213],[127.43279,36.33589],[127.42861,36.33792],[127.4236,36.33618]]]}},{"type":"Feature","properties":{"h3":"8830e36a15fffff","emd_code":"3014055000","emd_name":"목동","area_km2":0.52,"edge":false,"slope_mean":4.85,"elev_mean":65.8,"flood_hist_n":0,"flood_depth_max_m":null,"flood_risk_100y":null,"semi_basement_r":null,"elderly_alone_r":0.0685,"bldg_age30_r":null,"shelter_min_walk":6,"pop":17217,"hh":6249,"elderly65_r":0.1244,"single_hh_r":0.2106,"source_level":"emd","flood_years":[],"landslide_hist_n":0},"geometry":{"type":"Polygon","coordinates":[[[127.40856,36.33096],[127.40772,36.3272],[127.4119,36.32517],[127.41691,36.32691],[127.41775,36.33067],[127.41357,36.3327],[127.40856,36.33096]]]}},{"type":"Feature","properties":{"h3":"8830e36a17fffff","emd_code":"3014053500","emd_name":"은행선화동","area_km2":0.5201,"edge":false,"slope_mean":4.39,"elev_mean":56.8,"flood_hist_n":0,"flood_depth_max_m":null,"flood_risk_100y":null,"semi_basement_r":null,"elderly_alone_r":0.1124,"bldg_age30_r":null,"shelter_min_walk":5,"pop":24165,"hh":12219,"elderly65_r":0.1417,"single_hh_r":0.5042,"source_level":"emd","flood_years":[],"landslide_hist_n":0},"geometry":{"type":"Polygon","coordinates":[[[127.41775,36.33067],[127.41691,36.32691],[127.42109,36.32489],[127.4261,36.32663],[127.42694,36.33039],[127.42276,36.33241],[127.41775,36.33067]]]}},{"type":"Feature","properties":{"h3":"8830e36a19fffff","emd_code":"3014056000","emd_name":"중촌동","area_km2":0.5199,"edge":false,"slope_mean":2.81,"elev_mean":47.1,"flood_hist_n":0,"flood_depth_max_m":null,"flood_risk_100y":null,"semi_basement_r":null,"elderly_alone_r":0.1845,"bldg_age30_r":null,"shelter_min_walk":5,"pop":14888,"hh":7329,"elderly65_r":0.2376,"single_hh_r":0.4219,"source_level":"emd","flood_years":[],"landslide_hist_n":0},"geometry":{"type":"Polygon","coordinates":[[[127.41106,36.34225],[127.41023,36.33849],[127.41441,36.33646],[127.41942,36.3382],[127.42025,36.34196],[127.41608,36.34399],[127.41106,36.34225]]]}},{"type":"Feature","properties":{"h3":"8830e36a1bfffff","emd_code":"3014053500","emd_name":"은행선화동","area_km2":0.5199,"edge":true,"slope_mean":3.25,"elev_mean":49.7,"flood_hist_n":0,"flood_depth_max_m":null,"flood_risk_100y":null,"semi_basement_r":null,"elderly_alone_r":0.1124,"bldg_age30_r":null,"shelter_min_walk":2,"pop":24165,"hh":12219,"elderly65_r":0.1417,"single_hh_r":0.5042,"source_level":"emd","flood_years":[],"landslide_hist_n":0},"geometry":{"type":"Polygon","coordinates":[[[127.42025,36.34196],[127.41942,36.3382],[127.4236,36.33618],[127.42861,36.33792],[127.42944,36.34168],[127.42527,36.3437],[127.42025,36.34196]]]}},{"type":"Feature","properties":{"h3":"8830e36a1dfffff","emd_code":"3014055000","emd_name":"목동","area_km2":0.5199,"edge":false,"slope_mean":5.44,"elev_mean":61.6,"flood_hist_n":0,"flood_depth_max_m":null,"flood_risk_100y":null,"semi_basement_r":null,"elderly_alone_r":0.0685,"bldg_age30_r":null,"shelter_min_walk":2,"pop":17217,"hh":6249,"elderly65_r":0.1244,"single_hh_r":0.2106,"source_level":"emd","flood_years":[],"landslide_hist_n":0},"geometry":{"type":"Polygon","coordinates":[[[127.40522,36.33675],[127.40438,36.33298],[127.40856,36.33096],[127.41357,36.3327],[127.41441,36.33646],[127.41023,36.33849],[127.40522,36.33675]]]}},{"type":"Feature","properties":{"h3":"8830e36a21fffff","emd_code":"3014070000","emd_name":"유천1동","area_km2":0.5202,"edge":true,"slope_mean":3.65,"elev_mean":54.4,"flood_hist_n":0,"flood_depth_max_m":null,"flood_risk_100y":null,"semi_basement_r":null,"elderly_alone_r":0.1938,"bldg_age30_r":null,"shelter_min_walk":3,"pop":5715,"hh":3339,"elderly65_r":0.3018,"single_hh_r":0.5484,"source_level":"emd","flood_years":[],"landslide_hist_n":0},"geometry":{"type":"Polygon","coordinates":[[[127.38183,36.31473],[127.381,36.31096],[127.38517,36.30894],[127.39018,36.31068],[127.39102,36.31445],[127.38684,36.31647],[127.38183,36.31473]]]}},{"type":"Feature","properties":{"h3":"8830e36a23fffff","emd_code":"3014070000","emd_name":"유천1동","area_km2":0.5202,"edge":false,"slope_mean":2.26,"elev_mean":55.1,"flood_hist_n":0,"flood_depth_max_m":null,"flood_risk_100y":null,"semi_basement_r":null,"elderly_alone_r":0.1938,"bldg_age30_r":null,"shelter_min_walk":4,"pop":5715,"hh":3339,"elderly65_r":0.3018,"single_hh_r":0.5484,"source_level":"emd","flood_years":[],"landslide_hist_n":0},"geometry":{"type":"Polygon","coordinates":[[[127.39102,36.31445],[127.39018,36.31068],[127.39436,36.30866],[127.39937,36.3104],[127.40021,36.31416],[127.39603,36.31619],[127.39102,36.31445]]]}},{"type":"Feature","properties":{"h3":"8830e36a25fffff","emd_code":"3014074000","emd_name":"산성동","area_km2":0.5202,"edge":true,"slope_mean":8.11,"elev_mean":71.8,"flood_hist_n":0,"flood_depth_max_m":null,"flood_risk_100y":null,"semi_basement_r":null,"elderly_alone_r":0.2046,"bldg_age30_r":null,"shelter_min_walk":6,"pop":24063,"hh":12271,"elderly65_r":0.3192,"single_hh_r":0.4406,"source_level":"emd","flood_years":[],"landslide_hist_n":0},"geometry":{"type":"Polygon","coordinates":[[[127.37598,36.30922],[127.37515,36.30546],[127.37933,36.30343],[127.38434,36.30518],[127.38517,36.30894],[127.381,36.31096],[127.37598,36.30922]]]}},{"type":"Feature","properties":{"h3":"8830e36a27fffff","emd_code":"3014074000","emd_name":"산성동","area_km2":0.5203,"edge":false,"slope_mean":4.36,"elev_mean":61.0,"flood_hist_n":0,"flood_depth_max_m":null,"flood_risk_100y":null,"semi_basement_r":null,"elderly_alone_r":0.2046,"bldg_age30_r":null,"shelter_min_walk":4,"pop":24063,"hh":12271,"elderly65_r":0.3192,"single_hh_r":0.4406,"source_level":"emd","flood_years":[],"landslide_hist_n":0},"geometry":{"type":"Polygon","coordinates":[[[127.38517,36.30894],[127.38434,36.30518],[127.38851,36.30315],[127.39352,36.30489],[127.39436,36.30866],[127.39018,36.31068],[127.38517,36.30894]]]}},{"type":"Feature","properties":{"h3":"8830e36a29fffff","emd_code":"3014069000","emd_name":"태평2동","area_km2":0.5201,"edge":true,"slope_mean":2.89,"elev_mean":52.2,"flood_hist_n":0,"flood_depth_max_m":null,"flood_risk_100y":null,"semi_basement_r":null,"elderly_alone_r":0.1312,"bldg_age30_r":null,"shelter_min_walk":6,"pop":23001,"hh":9297,"elderly65_r":0.2622,"single_hh_r":0.2448,"source_level":"emd","flood_years":[],"landslide_hist_n":0},"geometry":{"type":"Polygon","coordinates":[[[127.37849,36.32052],[127.37765,36.31675],[127.38183,36.31473],[127.38684,36.31647],[127.38768,36.32024],[127.3835,36.32226],[127.37849,36.32052]]]}},{"type":"Feature","properties":{"h3":"8830e36a2bfffff","emd_code":"3014069000","emd_name":"태평2동","area_km2":0.5201,"edge":false,"slope_mean":3.39,"elev_mean":53.0,"flood_hist_n":0,"flood_depth_max_m":null,"flood_risk_100y":null,"semi_basement_r":null,"elderly_alone_r":0.1312,"bldg_age30_r":null,"shelter_min_walk":1,"pop":23001,"hh":9297,"elderly65_r":0.2622,"single_hh_r":0.2448,"source_level":"emd","flood_years":[],"landslide_hist_n":0},"geometry":{"type":"Polygon","coordinates":[[[127.38768,36.32024],[127.38684,36.31647],[127.39102,36.31445],[127.39603,36.31619],[127.39686,36.31995],[127.39269,36.32198],[127.38768,36.32024]]]}},{"type":"Feature","properties":{"h3":"8830e36a31fffff","emd_code":"3014072000","emd_name":"문화1동","area_km2":0.5202,"edge":false,"slope_mean":5.7,"elev_mean":68.9,"flood_hist_n":0,"flood_depth_max_m":null,"flood_risk_100y":null,"semi_basement_r":null,"elderly_alone_r":0.107,"bldg_age30_r":null,"shelter_min_walk":4,"pop":20061,"hh":8399,"elderly65_r":0.221,"single_hh_r":0.3012,"source_level":"emd","flood_years":[],"landslide_hist_n":0},"geometry":{"type":"Polygon","coordinates":[[[127.40605,36.31967],[127.40522,36.3159],[127.40939,36.31388],[127.41441,36.31562],[127.41524,36.31938],[127.41106,36.32141],[127.40605,36.31967]]]}},{"type":"Feature","properties":{"h3":"8830e36a33fffff","emd_code":"3014063000","emd_name":"대사동","area_km2":0.5203,"edge":false,"slope_mean":10.3,"elev_mean":89.6,"flood_hist_n":0,"flood_depth_max_m":null,"flood_risk_100y":null,"semi_basement_r":null,"elderly_alone_r":0.193,"bldg_age30_r":null,"shelter_min_walk":5,"pop":5134,"hh":3248,"elderly65_r":0.321,"single_hh_r":0.6444,"source_level":"emd","flood_years":[],"landslide_hist_n":0},"geometry":{"type":"Polygon","coordinates":[[[127.41524,36.31938],[127.41441,36.31562],[127.41858,36.31359],[127.4236,36.31533],[127.42443,36.3191],[127.42025,36.32112],[127.41524,36.31938]]]}},{"type":"Feature","properties":{"h3":"8830e36a35fffff","emd_code":"3014073000","emd_name":"문화2동","area_km2":0.5203,"edge":false,"slope_mean":4.08,"elev_mean":68.3,"flood_hist_n":0,"flood_depth_max_m":null,"flood_risk_100y":null,"semi_basement_r":null,"elderly_alone_r":0.2404,"bldg_age30_r":null,"shelter_min_walk":3,"pop":10833,"hh":5770,"elderly65_r":0.3309,"single_hh_r":0.4934,"source_level":"emd","flood_years":[],"landslide_hist_n":0},"geometry":{"type":"Polygon","coordinates":[[[127.40021,36.31416],[127.39937,36.3104],[127.40355,36.30837],[127.40856,36.31011],[127.40939,36.31388],[127.40522,36.3159],[127.40021,36.31416]]]}},{"type":"Feature","properties":{"h3":"8830e36a37fffff","emd_code":"3014072000","emd_name":"문화1동","area_km2":0.5203,"edge":false,"slope_mean":12.95,"elev_mean":120.7,"flood_hist_n":0,"flood_depth_max_m":null,"flood_risk_100y":null,"semi_basement_r":null,"elderly_alone_r":0.107,"bldg_age30_r":null,"shelter_min_walk":7,"pop":20061,"hh":8399,"elderly65_r":0.221,"single_hh_r":0.3012,"source_level":"emd","flood_years":[],"landslide_hist_n":0},"geometry":{"type":"Polygon","coordinates":[[[127.40939,36.31388],[127.40856,36.31011],[127.41274,36.30809],[127.41775,36.30983],[127.41858,36.31359],[127.41441,36.31562],[127.40939,36.31388]]]}},{"type":"Feature","properties":{"h3":"8830e36a39fffff","emd_code":"3014067000","emd_name":"오류동","area_km2":0.5201,"edge":false,"slope_mean":4.62,"elev_mean":56.4,"flood_hist_n":0,"flood_depth_max_m":null,"flood_risk_100y":null,"semi_basement_r":null,"elderly_alone_r":0.1632,"bldg_age30_r":null,"shelter_min_walk":4,"pop":9747,"hh":4920,"elderly65_r":0.2719,"single_hh_r":0.4388,"source_level":"emd","flood_years":[],"landslide_hist_n":0},"geometry":{"type":"Polygon","coordinates":[[[127.40271,36.32546],[127.40188,36.32169],[127.40605,36.31967],[127.41106,36.32141],[127.4119,36.32517],[127.40772,36.3272],[127.40271,36.32546]]]}},{"type":"Feature","properties":{"h3":"8830e36a3bfffff","emd_code":"3014053500","emd_name":"은행선화동","area_km2":0.5201,"edge":false,"slope_mean":5.22,"elev_mean":66.8,"flood_hist_n":0,"flood_depth_max_m":null,"flood_risk_100y":null,"semi_basement_r":null,"elderly_alone_r":0.1124,"bldg_age30_r":null,"shelter_min_walk":1,"pop":24165,"hh":12219,"elderly65_r":0.1417,"single_hh_r":0.5042,"source_level":"emd","flood_years":[],"landslide_hist_n":0},"geometry":{"type":"Polygon","coordinates":[[[127.4119,36.32517],[127.41106,36.32141],[127.41524,36.31938],[127.42025,36.32112],[127.42109,36.32489],[127.41691,36.32691],[127.4119,36.32517]]]}},{"type":"Feature","properties":{"h3":"8830e36a3dfffff","emd_code":"3014071000","emd_name":"유천2동","area_km2":0.5202,"edge":false,"slope_mean":2.43,"elev_mean":54.2,"flood_hist_n":0,"flood_depth_max_m":null,"flood_risk_100y":null,"semi_basement_r":null,"elderly_alone_r":0.1822,"bldg_age30_r":null,"shelter_min_walk":2,"pop":12301,"hh":6297,"elderly65_r":0.3218,"single_hh_r":0.4547,"source_level":"emd","flood_years":[],"landslide_hist_n":0},"geometry":{"type":"Polygon","coordinates":[[[127.39686,36.31995],[127.39603,36.31619],[127.40021,36.31416],[127.40522,36.3159],[127.40605,36.31967],[127.40188,36.32169],[127.39686,36.31995]]]}},{"type":"Feature","properties":{"h3":"8830e36a51fffff","emd_code":"3014056000","emd_name":"중촌동","area_km2":0.5197,"edge":true,"slope_mean":5.01,"elev_mean":48.1,"flood_hist_n":0,"flood_depth_max_m":null,"flood_risk_100y":null,"semi_basement_r":null,"elderly_alone_r":0.1845,"bldg_age30_r":null,"shelter_min_walk":10,"pop":14888,"hh":7329,"elderly65_r":0.2376,"single_hh_r":0.4219,"source_level":"emd","flood_years":[],"landslide_hist_n":0},"geometry":{"type":"Polygon","coordinates":[[[127.39853,36.34832],[127.3977,36.34456],[127.40188,36.34253],[127.40689,36.34427],[127.40772,36.34803],[127.40355,36.35006],[127.39853,36.34832]]]}},{"type":"Feature","properties":{"h3":"8830e36a53fffff","emd_code":"3014056000","emd_name":"중촌동","area_km2":0.5197,"edge":true,"slope_mean":2.57,"elev_mean":44.2,"flood_hist_n":0,"flood_depth_max_m":null,"flood_risk_100y":null,"semi_basement_r":null,"elderly_alone_r":0.1845,"bldg_age30_r":null,"shelter_min_walk":2,"pop":14888,"hh":7329,"elderly65_r":0.2376,"single_hh_r":0.4219,"source_level":"emd","flood_years":[],"landslide_hist_n":0},"geometry":{"type":"Polygon","coordinates":[[[127.40772,36.34803],[127.40689,36.34427],[127.41106,36.34225],[127.41608,36.34399],[127.41691,36.34775],[127.41273,36.34977],[127.40772,36.34803]]]}},{"type":"Feature","properties":{"h3":"8830e36a57fffff","emd_code":"3014056000","emd_name":"중촌동","area_km2":0.5198,"edge":false,"slope_mean":3.97,"elev_mean":48.3,"flood_hist_n":0,"flood_depth_max_m":null,"flood_risk_100y":null,"semi_basement_r":null,"elderly_alone_r":0.1845,"bldg_age30_r":null,"shelter_min_walk":3,"pop":14888,"hh":7329,"elderly65_r":0.2376,"single_hh_r":0.4219,"source_level":"emd","flood_years":[],"landslide_hist_n":0},"geometry":{"type":"Polygon","coordinates":[[[127.40188,36.34253],[127.40104,36.33877],[127.40522,36.33675],[127.41023,36.33849],[127.41106,36.34225],[127.40689,36.34427],[127.40188,36.34253]]]}},{"type":"Feature","properties":{"h3":"8830e36aa1fffff","emd_code":"3014062000","emd_name":"석교동","area_km2":0.5205,"edge":true,"slope_mean":10.56,"elev_mean":87.1,"flood_hist_n":0,"flood_depth_max_m":null,"flood_risk_100y":null,"semi_basement_r":null,"elderly_alone_r":0.2427,"bldg_age30_r":null,"shelter_min_walk":5,"pop":13376,"hh":7292,"elderly65_r":0.3703,"single_hh_r":0.486,"source_level":"emd","flood_years":[],"landslide_hist_n":0},"geometry":{"type":"Polygon","coordinates":[[[127.44615,36.31273],[127.44532,36.30897],[127.4495,36.30694],[127.45451,36.30868],[127.45534,36.31244],[127.45117,36.31447],[127.44615,36.31273]]]}},{"type":"Feature","properties":{"h3":"8830e36aa5fffff","emd_code":"3014062000","emd_name":"석교동","area_km2":0.5206,"edge":false,"slope_mean":9.33,"elev_mean":85.9,"flood_hist_n":0,"flood_depth_max_m":null,"flood_risk_100y":null,"semi_basement_r":null,"elderly_alone_r":0.2427,"bldg_age30_r":null,"shelter_min_walk":4,"pop":13376,"hh":7292,"elderly65_r":0.3703,"single_hh_r":0.486,"source_level":"emd","flood_years":[],"landslide_hist_n":0},"geometry":{"type":"Polygon","coordinates":[[[127.44031,36.30723],[127.43947,36.30346],[127.44365,36.30144],[127.44866,36.30317],[127.4495,36.30694],[127.44532,36.30897],[127.44031,36.30723]]]}},{"type":"Feature","properties":{"h3":"8830e36aa7fffff","emd_code":"3014062000","emd_name":"석교동","area_km2":0.5206,"edge":true,"slope_mean":4.13,"elev_mean":71.3,"flood_hist_n":0,"flood_depth_max_m":null,"flood_risk_100y":null,"semi_basement_r":null,"elderly_alone_r":0.2427,"bldg_age30_r":null,"shelter_min_walk":6,"pop":13376,"hh":7292,"elderly65_r":0.3703,"single_hh_r":0.486,"source_level":"emd","flood_years":[],"landslide_hist_n":0},"geometry":{"type":"Polygon","coordinates":[[[127.4495,36.30694],[127.44866,36.30317],[127.45284,36.30115],[127.45785,36.30289],[127.45869,36.30665],[127.45451,36.30868],[127.4495,36.30694]]]}},{"type":"Feature","properties":{"h3":"8830e36aadfffff","emd_code":"3014062000","emd_name":"석교동","area_km2":0.5205,"edge":false,"slope_mean":6.6,"elev_mean":71.0,"flood_hist_n":0,"flood_depth_max_m":null,"flood_risk_100y":null,"semi_basement_r":null,"elderly_alone_r":0.2427,"bldg_age30_r":null,"shelter_min_walk":8,"pop":13376,"hh":7292,"elderly65_r":0.3703,"single_hh_r":0.486,"source_level":"emd","flood_years":[],"landslide_hist_n":0},"geometry":{"type":"Polygon","coordinates":[[[127.43696,36.31302],[127.43613,36.30925],[127.44031,36.30723],[127.44532,36.30897],[127.44615,36.31273],[127.44198,36.31476],[127.43696,36.31302]]]}},{"type":"Feature","properties":{"h3":"8830e36ae1fffff","emd_code":"3014060500","emd_name":"문창동","area_km2":0.5202,"edge":false,"slope_mean":3.46,"elev_mean":56.6,"flood_hist_n":0,"flood_depth_max_m":null,"flood_risk_100y":null,"semi_basement_r":null,"elderly_alone_r":0.2792,"bldg_age30_r":null,"shelter_min_walk":3,"pop":4016,"hh":2471,"elderly65_r":0.3845,"single_hh_r":0.6079,"source_level":"emd","flood_years":[],"landslide_hist_n":0},"geometry":{"type":"Polygon","coordinates":[[[127.43028,36.3246],[127.42944,36.32084],[127.43362,36.31881],[127.43863,36.32055],[127.43947,36.32431],[127.43529,36.32634],[127.43028,36.3246]]]}},{"type":"Feature","properties":{"h3":"8830e36ae5fffff","emd_code":"3014063000","emd_name":"대사동","area_km2":0.5203,"edge":false,"slope_mean":4.97,"elev_mean":65.0,"flood_hist_n":0,"flood_depth_max_m":null,"flood_risk_100y":null,"semi_basement_r":null,"elderly_alone_r":0.193,"bldg_age30_r":null,"shelter_min_walk":3,"pop":5134,"hh":3248,"elderly65_r":0.321,"single_hh_r":0.6444,"source_level":"emd","flood_years":[],"landslide_hist_n":0},"geometry":{"type":"Polygon","coordinates":[[[127.42443,36.3191],[127.4236,36.31533],[127.42777,36.31331],[127.43279,36.31505],[127.43362,36.31881],[127.42944,36.32084],[127.42443,36.3191]]]}},{"type":"Feature","properties":{"h3":"8830e36ae7fffff","emd_code":"3014060500","emd_name":"문창동","area_km2":0.5204,"edge":false,"slope_mean":3.29,"elev_mean":59.8,"flood_hist_n":0,"flood_depth_max_m":null,"flood_risk_100y":null,"semi_basement_r":null,"elderly_alone_r":0.2792,"bldg_age30_r":null,"shelter_min_walk":3,"pop":4016,"hh":2471,"elderly65_r":0.3845,"single_hh_r":0.6079,"source_level":"emd","flood_years":[],"landslide_hist_n":0},"geometry":{"type":"Polygon","coordinates":[[[127.43362,36.31881],[127.43279,36.31505],[127.43696,36.31302],[127.44198,36.31476],[127.44281,36.31852],[127.43863,36.32055],[127.43362,36.31881]]]}},{"type":"Feature","properties":{"h3":"8830e36ae9fffff","emd_code":"3014053500","emd_name":"은행선화동","area_km2":0.5201,"edge":true,"slope_mean":4.75,"elev_mean":55.1,"flood_hist_n":0,"flood_depth_max_m":null,"flood_risk_100y":null,"semi_basement_r":null,"elderly_alone_r":0.1124,"bldg_age30_r":null,"shelter_min_walk":5,"pop":24165,"hh":12219,"elderly65_r":0.1417,"single_hh_r":0.5042,"source_level":"emd","flood_years":[],"landslide_hist_n":0},"geometry":{"type":"Polygon","coordinates":[[[127.42694,36.33039],[127.4261,36.32663],[127.43028,36.3246],[127.43529,36.32634],[127.43613,36.3301],[127.43195,36.33213],[127.42694,36.33039]]]}},{"type":"Feature","properties":{"h3":"8830e36aedfffff","emd_code":"3014057500","emd_name":"대흥동","area_km2":0.5202,"edge":false,"slope_mean":4.48,"elev_mean":61.6,"flood_hist_n":0,"flood_depth_max_m":null,"flood_risk_100y":null,"semi_basement_r":null,"elderly_alone_r":0.1353,"bldg_age30_r":null,"shelter_min_walk":1,"pop":12008,"hh":7045,"elderly65_r":0.2109,"single_hh_r":0.6141,"source_level":"emd","flood_years":[],"landslide_hist_n":0},"geometry":{"type":"Polygon","coordinates":[[[127.42109,36.32489],[127.42025,36.32112],[127.42443,36.3191],[127.42944,36.32084],[127.43028,36.3246],[127.4261,36.32663],[127.42109,36.32489]]]}},{"type":"Feature","properties":{"h3":"8830e36b11fffff","emd_code":"3014074000","emd_name":"산성동","area_km2":0.5204,"edge":true,"slope_mean":9.65,"elev_mean":80.3,"flood_hist_n":0,"flood_depth_max_m":null,"flood_risk_100y":null,"semi_basement_r":null,"elderly_alone_r":0.2046,"bldg_age30_r":null,"shelter_min_walk":5,"pop":24063,"hh":12271,"elderly65_r":0.3192,"single_hh_r":0.4406,"source_level":"emd","flood_years":[],"landslide_hist_n":0},"geometry":{"type":"Polygon","coordinates":[[[127.37348,36.29793],[127.37265,36.29416],[127.37682,36.29214],[127.38183,36.29388],[127.38267,36.29764],[127.37849,36.29967],[127.37348,36.29793]]]}},{"type":"Feature","properties":{"h3":"8830e36b13fffff","emd_code":"3014074000","emd_name":"산성동","area_km2":0.5205,"edge":false,"slope_mean":12.48,"elev_mean":86.8,"flood_hist_n":0,"flood_depth_max_m":null,"flood_risk_100y":null,"semi_basement_r":null,"elderly_alone_r":0.2046,"bldg_age30_r":null,"shelter_min_walk":7,"pop":24063,"hh":12271,"elderly65_r":0.3192,"single_hh_r":0.4406,"source_level":"emd","flood_years":[],"landslide_hist_n":0},"geometry":{"type":"Polygon","coordinates":[[[127.38267,36.29764],[127.38183,36.29388],[127.38601,36.29185],[127.39102,36.29359],[127.39185,36.29736],[127.38768,36.29938],[127.38267,36.29764]]]}},{"type":"Feature","properties":{"h3":"8830e36b15fffff","emd_code":"3014074000","emd_name":"산성동","area_km2":0.5205,"edge":false,"slope_mean":14.66,"elev_mean":111.9,"flood_hist_n":0,"flood_depth_max_m":null,"flood_risk_100y":null,"semi_basement_r":null,"elderly_alone_r":0.2046,"bldg_age30_r":null,"shelter_min_walk":14,"pop":24063,"hh":12271,"elderly65_r":0.3192,"single_hh_r":0.4406,"source_level":"emd","flood_years":[],"landslide_hist_n":0},"geometry":{"type":"Polygon","coordinates":[[[127.36764,36.29242],[127.3668,36.28865],[127.37098,36.28663],[127.37599,36.28837],[127.37682,36.29214],[127.37265,36.29416],[127.36764,36.29242]]]}},{"type":"Feature","properties":{"h3":"8830e36b17fffff","emd_code":"3014074000","emd_name":"산성동","area_km2":0.5205,"edge":false,"slope_mean":13.06,"elev_mean":95.3,"flood_hist_n":0,"flood_depth_max_m":null,"flood_risk_100y":null,"semi_basement_r":null,"elderly_alone_r":0.2046,"bldg_age30_r":null,"shelter_min_walk":7,"pop":24063,"hh":12271,"elderly65_r":0.3192,"single_hh_r":0.4406,"source_level":"emd","flood_years":[],"landslide_hist_n":0},"geometry":{"type":"Polygon","coordinates":[[[127.37682,36.29214],[127.37599,36.28837],[127.38016,36.28634],[127.38517,36.28809],[127.38601,36.29185],[127.38183,36.29388],[127.37682,36.29214]]]}},{"type":"Feature","properties":{"h3":"8830e36b1bfffff","emd_code":"3014074000","emd_name":"산성동","area_km2":0.5204,"edge":false,"slope_mean":5.89,"elev_mean":63.0,"flood_hist_n":0,"flood_depth_max_m":null,"flood_risk_100y":null,"semi_basement_r":null,"elderly_alone_r":0.2046,"bldg_age30_r":null,"shelter_min_walk":4,"pop":24063,"hh":12271,"elderly65_r":0.3192,"single_hh_r":0.4406,"source_level":"emd","flood_years":[],"landslide_hist_n":0},"geometry":{"type":"Polygon","coordinates":[[[127.37933,36.30343],[127.37849,36.29967],[127.38267,36.29764],[127.38768,36.29938],[127.38851,36.30315],[127.38434,36.30518],[127.37933,36.30343]]]}},{"type":"Feature","properties":{"h3":"8830e36b31fffff","emd_code":"3014074000","emd_name":"산성동","area_km2":0.5207,"edge":true,"slope_mean":15.04,"elev_mean":126.2,"flood_hist_n":1,"flood_depth_max_m":0.319,"flood_risk_100y":null,"semi_basement_r":null,"elderly_alone_r":0.2046,"bldg_age30_r":null,"shelter_min_walk":31,"pop":24063,"hh":12271,"elderly65_r":0.3192,"single_hh_r":0.4406,"source_level":"emd","flood_years":[2020],"landslide_hist_n":0},"geometry":{"type":"Polygon","coordinates":[[[127.36513,36.28112],[127.3643,36.27735],[127.36847,36.27533],[127.37348,36.27707],[127.37432,36.28084],[127.37014,36.28286],[127.36513,36.28112]]]}},{"type":"Feature","properties":{"h3":"8830e36b33fffff","emd_code":"3014074000","emd_name":"산성동","area_km2":0.5207,"edge":false,"slope_mean":14.17,"elev_mean":111.4,"flood_hist_n":0,"flood_depth_max_m":null,"flood_risk_100y":null,"semi_basement_r":null,"elderly_alone_r":0.2046,"bldg_age30_r":null,"shelter_min_walk":26,"pop":24063,"hh":12271,"elderly65_r":0.3192,"single_hh_r":0.4406,"source_level":"emd","flood_years":[],"landslide_hist_n":0},"geometry":{"type":"Polygon","coordinates":[[[127.37432,36.28084],[127.37348,36.27707],[127.37766,36.27504],[127.38267,36.27678],[127.3835,36.28055],[127.37933,36.28258],[127.37432,36.28084]]]}},{"type":"Feature","properties":{"h3":"8830e36b37fffff","emd_code":"3014074000","emd_name":"산성동","area_km2":0.5208,"edge":false,"slope_mean":19.74,"elev_mean":176.1,"flood_hist_n":0,"flood_depth_max_m":null,"flood_risk_100y":null,"semi_basement_r":null,"elderly_alone_r":0.2046,"bldg_age30_r":null,"shelter_min_walk":37,"pop":24063,"hh":12271,"elderly65_r":0.3192,"single_hh_r":0.4406,"source_level":"emd","flood_years":[],"landslide_hist_n":0},"geometry":{"type":"Polygon","coordinates":[[[127.36847,36.27533],[127.36764,36.27156],[127.37181,36.26953],[127.37682,36.27127],[127.37766,36.27504],[127.37348,36.27707],[127.36847,36.27533]]]}},{"type":"Feature","properties":{"h3":"8830e36b39fffff","emd_code":"3014074000","emd_name":"산성동","area_km2":0.5205,"edge":true,"slope_mean":14.57,"elev_mean":110.4,"flood_hist_n":0,"flood_depth_max_m":null,"flood_risk_100y":null,"semi_basement_r":null,"elderly_alone_r":0.2046,"bldg_age30_r":null,"shelter_min_walk":23,"pop":24063,"hh":12271,"elderly65_r":0.3192,"single_hh_r":0.4406,"source_level":"emd","flood_years":[],"landslide_hist_n":0},"geometry":{"type":"Polygon","coordinates":[[[127.36179,36.28691],[127.36096,36.28314],[127.36513,36.28112],[127.37014,36.28286],[127.37098,36.28663],[127.3668,36.28865],[127.36179,36.28691]]]}},{"type":"Feature","properties":{"h3":"8830e36b3bfffff","emd_code":"3014074000","emd_name":"산성동","area_km2":0.5206,"edge":false,"slope_mean":8.47,"elev_mean":76.7,"flood_hist_n":0,"flood_depth_max_m":null,"flood_risk_100y":null,"semi_basement_r":null,"elderly_alone_r":0.2046,"bldg_age30_r":null,"shelter_min_walk":19,"pop":24063,"hh":12271,"elderly65_r":0.3192,"single_hh_r":0.4406,"source_level":"emd","flood_years":[],"landslide_hist_n":0},"geometry":{"type":"Polygon","coordinates":[[[127.37098,36.28663],[127.37014,36.28286],[127.37432,36.28084],[127.37933,36.28258],[127.38016,36.28634],[127.37599,36.28837],[127.37098,36.28663]]]}}]}