{"type":"FeatureCollection","name":"grid_31110_h3r8","meta":{"sgg_code":"31110","h3_res":8,"n_cells":87,"dem":"Copernicus GLO-30 (bbox-mean)","crs":"EPSG:4326","jumin_basis":"2026-07","flood_src":"행안부 침수흔적도(전국, 재난안전데이터공유플랫폼)","landslide_src":"행안부 산사태 발생이력"},"features":[{"type":"Feature","properties":{"h3":"8830c1224bfffff","emd_code":"3111060000","emd_name":"태화동","area_km2":0.5419,"edge":false,"slope_mean":11.16,"elev_mean":25.9,"flood_hist_n":1,"flood_depth_max_m":0.479,"flood_risk_100y":null,"semi_basement_r":null,"elderly_alone_r":0.1058,"bldg_age30_r":null,"shelter_min_walk":7,"pop":30798,"hh":12670,"elderly65_r":0.1932,"single_hh_r":0.2697,"source_level":"emd","flood_years":[2016],"landslide_hist_n":0},"geometry":{"type":"Polygon","coordinates":[[[129.28789,35.54864],[129.28703,35.5448],[129.29124,35.54266],[129.2963,35.54435],[129.29716,35.54818],[129.29295,35.55032],[129.28789,35.54864]]]}},{"type":"Feature","properties":{"h3":"8830c12259fffff","emd_code":"3111060000","emd_name":"태화동","area_km2":0.5419,"edge":true,"slope_mean":4.03,"elev_mean":7.7,"flood_hist_n":1,"flood_depth_max_m":1.994,"flood_risk_100y":null,"semi_basement_r":null,"elderly_alone_r":0.1058,"bldg_age30_r":null,"shelter_min_walk":6,"pop":30798,"hh":12670,"elderly65_r":0.1932,"single_hh_r":0.2697,"source_level":"emd","flood_years":[2016],"landslide_hist_n":0},"geometry":{"type":"Polygon","coordinates":[[[129.30308,35.5537],[129.30222,35.54987],[129.30643,35.54772],[129.31149,35.54941],[129.31235,35.55324],[129.30814,35.55539],[129.30308,35.5537]]]}},{"type":"Feature","properties":{"h3":"8830c1225bfffff","emd_code":"3111058500","emd_name":"중앙동","area_km2":0.5419,"edge":false,"slope_mean":3.18,"elev_mean":6.2,"flood_hist_n":1,"flood_depth_max_m":0.7,"flood_risk_100y":null,"semi_basement_r":null,"elderly_alone_r":0.2362,"bldg_age30_r":null,"shelter_min_walk":5,"pop":8902,"hh":5279,"elderly65_r":0.3412,"single_hh_r":0.5709,"source_level":"emd","flood_years":[2016],"landslide_hist_n":0},"geometry":{"type":"Polygon","coordinates":[[[129.31235,35.55324],[129.31149,35.54941],[129.3157,35.54726],[129.32076,35.54895],[129.32162,35.55278],[129.31741,35.55493],[129.31235,35.55324]]]}},{"type":"Feature","properties":{"h3":"8830c1225dfffff","emd_code":"3111060000","emd_name":"태화동","area_km2":0.542,"edge":false,"slope_mean":10.77,"elev_mean":27.3,"flood_hist_n":0,"flood_depth_max_m":null,"flood_risk_100y":null,"semi_basement_r":null,"elderly_alone_r":0.1058,"bldg_age30_r":null,"shelter_min_walk":7,"pop":30798,"hh":12670,"elderly65_r":0.1932,"single_hh_r":0.2697,"source_level":"emd","flood_years":[],"landslide_hist_n":0},"geometry":{"type":"Polygon","coordinates":[[[129.29716,35.54818],[129.2963,35.54435],[129.30051,35.5422],[129.30557,35.54389],[129.30643,35.54772],[129.30222,35.54987],[129.29716,35.54818]]]}},{"type":"Feature","properties":{"h3":"8830c13081fffff","emd_code":"3111060000","emd_name":"태화동","area_km2":0.5414,"edge":false,"slope_mean":16.75,"elev_mean":125.8,"flood_hist_n":0,"flood_depth_max_m":null,"flood_risk_100y":null,"semi_basement_r":null,"elderly_alone_r":0.1058,"bldg_age30_r":null,"shelter_min_walk":17,"pop":30798,"hh":12670,"elderly65_r":0.1932,"single_hh_r":0.2697,"source_level":"emd","flood_years":[],"landslide_hist_n":0},"geometry":{"type":"Polygon","coordinates":[[[129.27449,35.57253],[129.27363,35.5687],[129.27784,35.56656],[129.2829,35.56825],[129.28376,35.57208],[129.27955,35.57422],[129.27449,35.57253]]]}},{"type":"Feature","properties":{"h3":"8830c13083fffff","emd_code":"3111060000","emd_name":"태화동","area_km2":0.5415,"edge":false,"slope_mean":15.23,"elev_mean":98.6,"flood_hist_n":0,"flood_depth_max_m":null,"flood_risk_100y":null,"semi_basement_r":null,"elderly_alone_r":0.1058,"bldg_age30_r":null,"shelter_min_walk":18,"pop":30798,"hh":12670,"elderly65_r":0.1932,"single_hh_r":0.2697,"source_level":"emd","flood_years":[],"landslide_hist_n":0},"geometry":{"type":"Polygon","coordinates":[[[129.28376,35.57208],[129.2829,35.56825],[129.28711,35.5661],[129.29217,35.56779],[129.29303,35.57162],[129.28882,35.57376],[129.28376,35.57208]]]}},{"type":"Feature","properties":{"h3":"8830c13085fffff","emd_code":"3111061000","emd_name":"다운동","area_km2":0.5415,"edge":false,"slope_mean":12.87,"elev_mean":56.2,"flood_hist_n":1,"flood_depth_max_m":2.922,"flood_risk_100y":null,"semi_basement_r":null,"elderly_alone_r":0.188,"bldg_age30_r":null,"shelter_min_walk":6,"pop":21306,"hh":11368,"elderly65_r":0.2859,"single_hh_r":0.4853,"source_level":"emd","flood_years":[2016],"landslide_hist_n":0},"geometry":{"type":"Polygon","coordinates":[[[129.26857,35.56701],[129.26771,35.56318],[129.27192,35.56104],[129.27698,35.56273],[129.27784,35.56656],[129.27363,35.5687],[129.26857,35.56701]]]}},{"type":"Feature","properties":{"h3":"8830c13087fffff","emd_code":"3111060000","emd_name":"태화동","area_km2":0.5416,"edge":false,"slope_mean":13.78,"elev_mean":81.0,"flood_hist_n":0,"flood_depth_max_m":null,"flood_risk_100y":null,"semi_basement_r":null,"elderly_alone_r":0.1058,"bldg_age30_r":null,"shelter_min_walk":13,"pop":30798,"hh":12670,"elderly65_r":0.1932,"single_hh_r":0.2697,"source_level":"emd","flood_years":[],"landslide_hist_n":0},"geometry":{"type":"Polygon","coordinates":[[[129.27784,35.56656],[129.27698,35.56273],[129.28119,35.56059],[129.28625,35.56227],[129.28711,35.5661],[129.2829,35.56825],[129.27784,35.56656]]]}},{"type":"Feature","properties":{"h3":"8830c13089fffff","emd_code":"3111061000","emd_name":"다운동","area_km2":0.5413,"edge":false,"slope_mean":16.31,"elev_mean":90.9,"flood_hist_n":0,"flood_depth_max_m":null,"flood_risk_100y":null,"semi_basement_r":null,"elderly_alone_r":0.188,"bldg_age30_r":null,"shelter_min_walk":18,"pop":21306,"hh":11368,"elderly65_r":0.2859,"single_hh_r":0.4853,"source_level":"emd","flood_years":[],"landslide_hist_n":0},"geometry":{"type":"Polygon","coordinates":[[[129.27114,35.5785],[129.27028,35.57467],[129.27449,35.57253],[129.27955,35.57422],[129.28041,35.57805],[129.2762,35.58019],[129.27114,35.5785]]]}},{"type":"Feature","properties":{"h3":"8830c1308bfffff","emd_code":"3111060000","emd_name":"태화동","area_km2":0.5414,"edge":false,"slope_mean":14.89,"elev_mean":123.6,"flood_hist_n":0,"flood_depth_max_m":null,"flood_risk_100y":null,"semi_basement_r":null,"elderly_alone_r":0.1058,"bldg_age30_r":null,"shelter_min_walk":28,"pop":30798,"hh":12670,"elderly65_r":0.1932,"single_hh_r":0.2697,"source_level":"emd","flood_years":[],"landslide_hist_n":0},"geometry":{"type":"Polygon","coordinates":[[[129.28041,35.57805],[129.27955,35.57422],[129.28376,35.57208],[129.28882,35.57376],[129.28968,35.57759],[129.28547,35.57974],[129.28041,35.57805]]]}},{"type":"Feature","properties":{"h3":"8830c1308dfffff","emd_code":"3111061000","emd_name":"다운동","area_km2":0.5414,"edge":false,"slope_mean":12.25,"elev_mean":45.1,"flood_hist_n":1,"flood_depth_max_m":2.922,"flood_risk_100y":null,"semi_basement_r":null,"elderly_alone_r":0.188,"bldg_age30_r":null,"shelter_min_walk":6,"pop":21306,"hh":11368,"elderly65_r":0.2859,"single_hh_r":0.4853,"source_level":"emd","flood_years":[2016],"landslide_hist_n":0},"geometry":{"type":"Polygon","coordinates":[[[129.26522,35.57299],[129.26436,35.56916],[129.26857,35.56701],[129.27363,35.5687],[129.27449,35.57253],[129.27028,35.57467],[129.26522,35.57299]]]}},{"type":"Feature","properties":{"h3":"8830c13091fffff","emd_code":"3111065000","emd_name":"성안동","area_km2":0.5415,"edge":false,"slope_mean":10.73,"elev_mean":139.4,"flood_hist_n":0,"flood_depth_max_m":null,"flood_risk_100y":null,"semi_basement_r":null,"elderly_alone_r":0.0887,"bldg_age30_r":null,"shelter_min_walk":4,"pop":19767,"hh":8784,"elderly65_r":0.1758,"single_hh_r":0.3541,"source_level":"emd","flood_years":[],"landslide_hist_n":0},"geometry":{"type":"Polygon","coordinates":[[[129.29895,35.57714],[129.29809,35.57331],[129.3023,35.57117],[129.30737,35.57285],[129.30822,35.57668],[129.30402,35.57882],[129.29895,35.57714]]]}},{"type":"Feature","properties":{"h3":"8830c13093fffff","emd_code":"3111065000","emd_name":"성안동","area_km2":0.5415,"edge":false,"slope_mean":10.15,"elev_mean":151.5,"flood_hist_n":0,"flood_depth_max_m":null,"flood_risk_100y":null,"semi_basement_r":null,"elderly_alone_r":0.0887,"bldg_age30_r":null,"shelter_min_walk":6,"pop":19767,"hh":8784,"elderly65_r":0.1758,"single_hh_r":0.3541,"source_level":"emd","flood_years":[],"landslide_hist_n":0},"geometry":{"type":"Polygon","coordinates":[[[129.30822,35.57668],[129.30737,35.57285],[129.31157,35.57071],[129.31664,35.57239],[129.3175,35.57622],[129.31329,35.57837],[129.30822,35.57668]]]}},{"type":"Feature","properties":{"h3":"8830c13095fffff","emd_code":"3111060000","emd_name":"태화동","area_km2":0.5415,"edge":false,"slope_mean":13.51,"elev_mean":106.4,"flood_hist_n":0,"flood_depth_max_m":null,"flood_risk_100y":null,"semi_basement_r":null,"elderly_alone_r":0.1058,"bldg_age30_r":null,"shelter_min_walk":12,"pop":30798,"hh":12670,"elderly65_r":0.1932,"single_hh_r":0.2697,"source_level":"emd","flood_years":[],"landslide_hist_n":0},"geometry":{"type":"Polygon","coordinates":[[[129.29303,35.57162],[129.29217,35.56779],[129.29638,35.56565],[129.30144,35.56733],[129.3023,35.57117],[129.29809,35.57331],[129.29303,35.57162]]]}},{"type":"Feature","properties":{"h3":"8830c13097fffff","emd_code":"3111059000","emd_name":"우정동","area_km2":0.5416,"edge":false,"slope_mean":14.14,"elev_mean":97.4,"flood_hist_n":0,"flood_depth_max_m":null,"flood_risk_100y":null,"semi_basement_r":null,"elderly_alone_r":0.1465,"bldg_age30_r":null,"shelter_min_walk":9,"pop":18560,"hh":8637,"elderly65_r":0.2534,"single_hh_r":0.3598,"source_level":"emd","flood_years":[],"landslide_hist_n":0},"geometry":{"type":"Polygon","coordinates":[[[129.3023,35.57117],[129.30144,35.56733],[129.30565,35.56519],[129.31072,35.56688],[129.31157,35.57071],[129.30737,35.57285],[129.3023,35.57117]]]}},{"type":"Feature","properties":{"h3":"8830c13099fffff","emd_code":"3111065000","emd_name":"성안동","area_km2":0.5414,"edge":false,"slope_mean":12.32,"elev_mean":115.0,"flood_hist_n":0,"flood_depth_max_m":null,"flood_risk_100y":null,"semi_basement_r":null,"elderly_alone_r":0.0887,"bldg_age30_r":null,"shelter_min_walk":12,"pop":19767,"hh":8784,"elderly65_r":0.1758,"single_hh_r":0.3541,"source_level":"emd","flood_years":[],"landslide_hist_n":0},"geometry":{"type":"Polygon","coordinates":[[[129.2956,35.58311],[129.29475,35.57928],[129.29895,35.57714],[129.30402,35.57882],[129.30487,35.58265],[129.30067,35.5848],[129.2956,35.58311]]]}},{"type":"Feature","properties":{"h3":"8830c1309bfffff","emd_code":"3111065000","emd_name":"성안동","area_km2":0.5414,"edge":false,"slope_mean":11.18,"elev_mean":145.4,"flood_hist_n":0,"flood_depth_max_m":null,"flood_risk_100y":null,"semi_basement_r":null,"elderly_alone_r":0.0887,"bldg_age30_r":null,"shelter_min_walk":7,"pop":19767,"hh":8784,"elderly65_r":0.1758,"single_hh_r":0.3541,"source_level":"emd","flood_years":[],"landslide_hist_n":0},"geometry":{"type":"Polygon","coordinates":[[[129.30487,35.58265],[129.30402,35.57882],[129.30822,35.57668],[129.31329,35.57837],[129.31415,35.5822],[129.30994,35.58434],[129.30487,35.58265]]]}},{"type":"Feature","properties":{"h3":"8830c1309dfffff","emd_code":"3111060000","emd_name":"태화동","area_km2":0.5414,"edge":false,"slope_mean":10.21,"elev_mean":135.5,"flood_hist_n":0,"flood_depth_max_m":null,"flood_risk_100y":null,"semi_basement_r":null,"elderly_alone_r":0.1058,"bldg_age30_r":null,"shelter_min_walk":16,"pop":30798,"hh":12670,"elderly65_r":0.1932,"single_hh_r":0.2697,"source_level":"emd","flood_years":[],"landslide_hist_n":0},"geometry":{"type":"Polygon","coordinates":[[[129.28968,35.57759],[129.28882,35.57376],[129.29303,35.57162],[129.29809,35.57331],[129.29895,35.57714],[129.29475,35.57928],[129.28968,35.57759]]]}},{"type":"Feature","properties":{"h3":"8830c130a1fffff","emd_code":"3111061000","emd_name":"다운동","area_km2":0.5417,"edge":true,"slope_mean":3.99,"elev_mean":9.4,"flood_hist_n":1,"flood_depth_max_m":0.8,"flood_risk_100y":null,"semi_basement_r":null,"elderly_alone_r":0.188,"bldg_age30_r":null,"shelter_min_walk":4,"pop":21306,"hh":11368,"elderly65_r":0.2859,"single_hh_r":0.4853,"source_level":"emd","flood_years":[2016],"landslide_hist_n":0},"geometry":{"type":"Polygon","coordinates":[[[129.266,35.55552],[129.26514,35.55169],[129.26935,35.54955],[129.27441,35.55124],[129.27527,35.55507],[129.27106,35.55721],[129.266,35.55552]]]}},{"type":"Feature","properties":{"h3":"8830c130a3fffff","emd_code":"3111061000","emd_name":"다운동","area_km2":0.5417,"edge":true,"slope_mean":3.78,"elev_mean":10.6,"flood_hist_n":1,"flood_depth_max_m":0.423,"flood_risk_100y":null,"semi_basement_r":null,"elderly_alone_r":0.188,"bldg_age30_r":null,"shelter_min_walk":7,"pop":21306,"hh":11368,"elderly65_r":0.2859,"single_hh_r":0.4853,"source_level":"emd","flood_years":[2016],"landslide_hist_n":0},"geometry":{"type":"Polygon","coordinates":[[[129.27527,35.55507],[129.27441,35.55124],[129.27862,35.54909],[129.28368,35.55078],[129.28454,35.55461],[129.28033,35.55676],[129.27527,35.55507]]]}},{"type":"Feature","properties":{"h3":"8830c130a9fffff","emd_code":"3111061000","emd_name":"다운동","area_km2":0.5416,"edge":false,"slope_mean":6.3,"elev_mean":13.8,"flood_hist_n":1,"flood_depth_max_m":3.0,"flood_risk_100y":null,"semi_basement_r":null,"elderly_alone_r":0.188,"bldg_age30_r":null,"shelter_min_walk":6,"pop":21306,"hh":11368,"elderly65_r":0.2859,"single_hh_r":0.4853,"source_level":"emd","flood_years":[2016],"landslide_hist_n":0},"geometry":{"type":"Polygon","coordinates":[[[129.26265,35.5615],[129.26179,35.55767],[129.266,35.55552],[129.27106,35.55721],[129.27192,35.56104],[129.26771,35.56318],[129.26265,35.5615]]]}},{"type":"Feature","properties":{"h3":"8830c130abfffff","emd_code":"3111061000","emd_name":"다운동","area_km2":0.5416,"edge":false,"slope_mean":10.19,"elev_mean":37.8,"flood_hist_n":1,"flood_depth_max_m":0.423,"flood_risk_100y":null,"semi_basement_r":null,"elderly_alone_r":0.188,"bldg_age30_r":null,"shelter_min_walk":3,"pop":21306,"hh":11368,"elderly65_r":0.2859,"single_hh_r":0.4853,"source_level":"emd","flood_years":[2016],"landslide_hist_n":0},"geometry":{"type":"Polygon","coordinates":[[[129.27192,35.56104],[129.27106,35.55721],[129.27527,35.55507],[129.28033,35.55676],[129.28119,35.56059],[129.27698,35.56273],[129.27192,35.56104]]]}},{"type":"Feature","properties":{"h3":"8830c130b1fffff","emd_code":"3111060000","emd_name":"태화동","area_km2":0.5417,"edge":false,"slope_mean":11.87,"elev_mean":43.4,"flood_hist_n":0,"flood_depth_max_m":null,"flood_risk_100y":null,"semi_basement_r":null,"elderly_alone_r":0.1058,"bldg_age30_r":null,"shelter_min_walk":4,"pop":30798,"hh":12670,"elderly65_r":0.1932,"single_hh_r":0.2697,"source_level":"emd","flood_years":[],"landslide_hist_n":0},"geometry":{"type":"Polygon","coordinates":[[[129.29046,35.56013],[129.2896,35.5563],[129.29381,35.55416],[129.29887,35.55584],[129.29973,35.55967],[129.29552,35.56182],[129.29046,35.56013]]]}},{"type":"Feature","properties":{"h3":"8830c130b3fffff","emd_code":"3111060000","emd_name":"태화동","area_km2":0.5418,"edge":false,"slope_mean":8.85,"elev_mean":28.6,"flood_hist_n":2,"flood_depth_max_m":1.994,"flood_risk_100y":null,"semi_basement_r":null,"elderly_alone_r":0.1058,"bldg_age30_r":null,"shelter_min_walk":1,"pop":30798,"hh":12670,"elderly65_r":0.1932,"single_hh_r":0.2697,"source_level":"emd","flood_years":[2014,2016],"landslide_hist_n":0},"geometry":{"type":"Polygon","coordinates":[[[129.29973,35.55967],[129.29887,35.55584],[129.30308,35.5537],[129.30814,35.55539],[129.309,35.55922],[129.30479,35.56136],[129.29973,35.55967]]]}},{"type":"Feature","properties":{"h3":"8830c130b5fffff","emd_code":"3111061000","emd_name":"다운동","area_km2":0.5418,"edge":false,"slope_mean":5.56,"elev_mean":14.6,"flood_hist_n":0,"flood_depth_max_m":null,"flood_risk_100y":null,"semi_basement_r":null,"elderly_alone_r":0.188,"bldg_age30_r":null,"shelter_min_walk":5,"pop":21306,"hh":11368,"elderly65_r":0.2859,"single_hh_r":0.4853,"source_level":"emd","flood_years":[],"landslide_hist_n":0},"geometry":{"type":"Polygon","coordinates":[[[129.28454,35.55461],[129.28368,35.55078],[129.28789,35.54864],[129.29295,35.55032],[129.29381,35.55416],[129.2896,35.5563],[129.28454,35.55461]]]}},{"type":"Feature","properties":{"h3":"8830c130b7fffff","emd_code":"3111060000","emd_name":"태화동","area_km2":0.5418,"edge":false,"slope_mean":7.62,"elev_mean":22.6,"flood_hist_n":1,"flood_depth_max_m":0.596,"flood_risk_100y":null,"semi_basement_r":null,"elderly_alone_r":0.1058,"bldg_age30_r":null,"shelter_min_walk":1,"pop":30798,"hh":12670,"elderly65_r":0.1932,"single_hh_r":0.2697,"source_level":"emd","flood_years":[2016],"landslide_hist_n":0},"geometry":{"type":"Polygon","coordinates":[[[129.29381,35.55416],[129.29295,35.55032],[129.29716,35.54818],[129.30222,35.54987],[129.30308,35.5537],[129.29887,35.55584],[129.29381,35.55416]]]}},{"type":"Feature","properties":{"h3":"8830c130b9fffff","emd_code":"3111060000","emd_name":"태화동","area_km2":0.5416,"edge":false,"slope_mean":11.89,"elev_mean":55.9,"flood_hist_n":0,"flood_depth_max_m":null,"flood_risk_100y":null,"semi_basement_r":null,"elderly_alone_r":0.1058,"bldg_age30_r":null,"shelter_min_walk":8,"pop":30798,"hh":12670,"elderly65_r":0.1932,"single_hh_r":0.2697,"source_level":"emd","flood_years":[],"landslide_hist_n":0},"geometry":{"type":"Polygon","coordinates":[[[129.28711,35.5661],[129.28625,35.56227],[129.29046,35.56013],[129.29552,35.56182],[129.29638,35.56565],[129.29217,35.56779],[129.28711,35.5661]]]}},{"type":"Feature","properties":{"h3":"8830c130bbfffff","emd_code":"3111060000","emd_name":"태화동","area_km2":0.5417,"edge":false,"slope_mean":10.79,"elev_mean":55.2,"flood_hist_n":0,"flood_depth_max_m":null,"flood_risk_100y":null,"semi_basement_r":null,"elderly_alone_r":0.1058,"bldg_age30_r":null,"shelter_min_walk":4,"pop":30798,"hh":12670,"elderly65_r":0.1932,"single_hh_r":0.2697,"source_level":"emd","flood_years":[],"landslide_hist_n":0},"geometry":{"type":"Polygon","coordinates":[[[129.29638,35.56565],[129.29552,35.56182],[129.29973,35.55967],[129.30479,35.56136],[129.30565,35.56519],[129.30144,35.56733],[129.29638,35.56565]]]}},{"type":"Feature","properties":{"h3":"8830c130bdfffff","emd_code":"3111061000","emd_name":"다운동","area_km2":0.5417,"edge":false,"slope_mean":12.74,"elev_mean":52.6,"flood_hist_n":0,"flood_depth_max_m":null,"flood_risk_100y":null,"semi_basement_r":null,"elderly_alone_r":0.188,"bldg_age30_r":null,"shelter_min_walk":11,"pop":21306,"hh":11368,"elderly65_r":0.2859,"single_hh_r":0.4853,"source_level":"emd","flood_years":[],"landslide_hist_n":0},"geometry":{"type":"Polygon","coordinates":[[[129.28119,35.56059],[129.28033,35.55676],[129.28454,35.55461],[129.2896,35.5563],[129.29046,35.56013],[129.28625,35.56227],[129.28119,35.56059]]]}},{"type":"Feature","properties":{"h3":"8830c130c1fffff","emd_code":"3111061000","emd_name":"다운동","area_km2":0.5412,"edge":true,"slope_mean":13.79,"elev_mean":50.0,"flood_hist_n":0,"flood_depth_max_m":null,"flood_risk_100y":null,"semi_basement_r":null,"elderly_alone_r":0.188,"bldg_age30_r":null,"shelter_min_walk":24,"pop":21306,"hh":11368,"elderly65_r":0.2859,"single_hh_r":0.4853,"source_level":"emd","flood_years":[],"landslide_hist_n":0},"geometry":{"type":"Polygon","coordinates":[[[129.25852,35.58493],[129.25766,35.5811],[129.26187,35.57896],[129.26693,35.58065],[129.26779,35.58447],[129.26358,35.58662],[129.25852,35.58493]]]}},{"type":"Feature","properties":{"h3":"8830c130c3fffff","emd_code":"3111061000","emd_name":"다운동","area_km2":0.5412,"edge":false,"slope_mean":12.19,"elev_mean":49.0,"flood_hist_n":0,"flood_depth_max_m":null,"flood_risk_100y":null,"semi_basement_r":null,"elderly_alone_r":0.188,"bldg_age30_r":null,"shelter_min_walk":25,"pop":21306,"hh":11368,"elderly65_r":0.2859,"single_hh_r":0.4853,"source_level":"emd","flood_years":[],"landslide_hist_n":0},"geometry":{"type":"Polygon","coordinates":[[[129.26779,35.58447],[129.26693,35.58065],[129.27114,35.5785],[129.2762,35.58019],[129.27706,35.58402],[129.27285,35.58616],[129.26779,35.58447]]]}},{"type":"Feature","properties":{"h3":"8830c130c5fffff","emd_code":"3111061000","emd_name":"다운동","area_km2":0.5412,"edge":true,"slope_mean":15.27,"elev_mean":72.9,"flood_hist_n":0,"flood_depth_max_m":null,"flood_risk_100y":null,"semi_basement_r":null,"elderly_alone_r":0.188,"bldg_age30_r":null,"shelter_min_walk":17,"pop":21306,"hh":11368,"elderly65_r":0.2859,"single_hh_r":0.4853,"source_level":"emd","flood_years":[],"landslide_hist_n":0},"geometry":{"type":"Polygon","coordinates":[[[129.2526,35.57941],[129.25174,35.57558],[129.25595,35.57344],[129.26101,35.57513],[129.26187,35.57896],[129.25766,35.5811],[129.2526,35.57941]]]}},{"type":"Feature","properties":{"h3":"8830c130c7fffff","emd_code":"3111061000","emd_name":"다운동","area_km2":0.5413,"edge":false,"slope_mean":13.41,"elev_mean":44.5,"flood_hist_n":0,"flood_depth_max_m":null,"flood_risk_100y":null,"semi_basement_r":null,"elderly_alone_r":0.188,"bldg_age30_r":null,"shelter_min_walk":14,"pop":21306,"hh":11368,"elderly65_r":0.2859,"single_hh_r":0.4853,"source_level":"emd","flood_years":[],"landslide_hist_n":0},"geometry":{"type":"Polygon","coordinates":[[[129.26187,35.57896],[129.26101,35.57513],[129.26522,35.57299],[129.27028,35.57467],[129.27114,35.5785],[129.26693,35.58065],[129.26187,35.57896]]]}},{"type":"Feature","properties":{"h3":"8830c130cbfffff","emd_code":"3111061000","emd_name":"다운동","area_km2":0.5411,"edge":true,"slope_mean":10.97,"elev_mean":39.1,"flood_hist_n":0,"flood_depth_max_m":null,"flood_risk_100y":null,"semi_basement_r":null,"elderly_alone_r":0.188,"bldg_age30_r":null,"shelter_min_walk":33,"pop":21306,"hh":11368,"elderly65_r":0.2859,"single_hh_r":0.4853,"source_level":"emd","flood_years":[],"landslide_hist_n":0},"geometry":{"type":"Polygon","coordinates":[[[129.26444,35.59044],[129.26358,35.58662],[129.26779,35.58447],[129.27285,35.58616],[129.27371,35.58999],[129.26951,35.59213],[129.26444,35.59044]]]}},{"type":"Feature","properties":{"h3":"8830c130d1fffff","emd_code":"3111065000","emd_name":"성안동","area_km2":0.5412,"edge":true,"slope_mean":15.79,"elev_mean":114.1,"flood_hist_n":0,"flood_depth_max_m":null,"flood_risk_100y":null,"semi_basement_r":null,"elderly_alone_r":0.0887,"bldg_age30_r":null,"shelter_min_walk":32,"pop":19767,"hh":8784,"elderly65_r":0.1758,"single_hh_r":0.3541,"source_level":"emd","flood_years":[],"landslide_hist_n":0},"geometry":{"type":"Polygon","coordinates":[[[129.28298,35.58954],[129.28213,35.58571],[129.28633,35.58357],[129.2914,35.58525],[129.29225,35.58908],[129.28805,35.59122],[129.28298,35.58954]]]}},{"type":"Feature","properties":{"h3":"8830c130d3fffff","emd_code":"3111065000","emd_name":"성안동","area_km2":0.5412,"edge":false,"slope_mean":12.9,"elev_mean":126.2,"flood_hist_n":0,"flood_depth_max_m":null,"flood_risk_100y":null,"semi_basement_r":null,"elderly_alone_r":0.0887,"bldg_age30_r":null,"shelter_min_walk":22,"pop":19767,"hh":8784,"elderly65_r":0.1758,"single_hh_r":0.3541,"source_level":"emd","flood_years":[],"landslide_hist_n":0},"geometry":{"type":"Polygon","coordinates":[[[129.29225,35.58908],[129.2914,35.58525],[129.2956,35.58311],[129.30067,35.5848],[129.30152,35.58863],[129.29732,35.59077],[129.29225,35.58908]]]}},{"type":"Feature","properties":{"h3":"8830c130d5fffff","emd_code":"3111061000","emd_name":"다운동","area_km2":0.5413,"edge":false,"slope_mean":14.56,"elev_mean":89.3,"flood_hist_n":0,"flood_depth_max_m":null,"flood_risk_100y":null,"semi_basement_r":null,"elderly_alone_r":0.188,"bldg_age30_r":null,"shelter_min_walk":30,"pop":21306,"hh":11368,"elderly65_r":0.2859,"single_hh_r":0.4853,"source_level":"emd","flood_years":[],"landslide_hist_n":0},"geometry":{"type":"Polygon","coordinates":[[[129.27706,35.58402],[129.2762,35.58019],[129.28041,35.57805],[129.28547,35.57974],[129.28633,35.58357],[129.28213,35.58571],[129.27706,35.58402]]]}},{"type":"Feature","properties":{"h3":"8830c130d7fffff","emd_code":"3111065000","emd_name":"성안동","area_km2":0.5413,"edge":false,"slope_mean":13.25,"elev_mean":128.0,"flood_hist_n":0,"flood_depth_max_m":null,"flood_risk_100y":null,"semi_basement_r":null,"elderly_alone_r":0.0887,"bldg_age30_r":null,"shelter_min_walk":23,"pop":19767,"hh":8784,"elderly65_r":0.1758,"single_hh_r":0.3541,"source_level":"emd","flood_years":[],"landslide_hist_n":0},"geometry":{"type":"Polygon","coordinates":[[[129.28633,35.58357],[129.28547,35.57974],[129.28968,35.57759],[129.29475,35.57928],[129.2956,35.58311],[129.2914,35.58525],[129.28633,35.58357]]]}},{"type":"Feature","properties":{"h3":"8830c130dbfffff","emd_code":"3111065000","emd_name":"성안동","area_km2":0.5411,"edge":true,"slope_mean":13.59,"elev_mean":146.5,"flood_hist_n":0,"flood_depth_max_m":null,"flood_risk_100y":null,"semi_basement_r":null,"elderly_alone_r":0.0887,"bldg_age30_r":null,"shelter_min_walk":33,"pop":19767,"hh":8784,"elderly65_r":0.1758,"single_hh_r":0.3541,"source_level":"emd","flood_years":[],"landslide_hist_n":0},"geometry":{"type":"Polygon","coordinates":[[[129.2889,35.59505],[129.28805,35.59122],[129.29225,35.58908],[129.29732,35.59077],[129.29817,35.5946],[129.29397,35.59674],[129.2889,35.59505]]]}},{"type":"Feature","properties":{"h3":"8830c130ddfffff","emd_code":"3111061000","emd_name":"다운동","area_km2":0.5411,"edge":true,"slope_mean":13.22,"elev_mean":63.7,"flood_hist_n":0,"flood_depth_max_m":null,"flood_risk_100y":null,"semi_basement_r":null,"elderly_alone_r":0.188,"bldg_age30_r":null,"shelter_min_walk":36,"pop":21306,"hh":11368,"elderly65_r":0.2859,"single_hh_r":0.4853,"source_level":"emd","flood_years":[],"landslide_hist_n":0},"geometry":{"type":"Polygon","coordinates":[[[129.27371,35.58999],[129.27285,35.58616],[129.27706,35.58402],[129.28213,35.58571],[129.28298,35.58954],[129.27878,35.59168],[129.27371,35.58999]]]}},{"type":"Feature","properties":{"h3":"8830c130e3fffff","emd_code":"3111061000","emd_name":"다운동","area_km2":0.5415,"edge":false,"slope_mean":12.43,"elev_mean":39.9,"flood_hist_n":0,"flood_depth_max_m":null,"flood_risk_100y":null,"semi_basement_r":null,"elderly_alone_r":0.188,"bldg_age30_r":null,"shelter_min_walk":6,"pop":21306,"hh":11368,"elderly65_r":0.2859,"single_hh_r":0.4853,"source_level":"emd","flood_years":[],"landslide_hist_n":0},"geometry":{"type":"Polygon","coordinates":[[[129.2593,35.56747],[129.25844,35.56364],[129.26265,35.5615],[129.26771,35.56318],[129.26857,35.56701],[129.26436,35.56916],[129.2593,35.56747]]]}},{"type":"Feature","properties":{"h3":"8830c130e7fffff","emd_code":"3111061000","emd_name":"다운동","area_km2":0.5415,"edge":true,"slope_mean":6.25,"elev_mean":14.4,"flood_hist_n":1,"flood_depth_max_m":3.5,"flood_risk_100y":null,"semi_basement_r":null,"elderly_alone_r":0.188,"bldg_age30_r":null,"shelter_min_walk":7,"pop":21306,"hh":11368,"elderly65_r":0.2859,"single_hh_r":0.4853,"source_level":"emd","flood_years":[2016],"landslide_hist_n":0},"geometry":{"type":"Polygon","coordinates":[[[129.25338,35.56195],[129.25252,35.55812],[129.25673,35.55598],[129.26179,35.55767],[129.26265,35.5615],[129.25844,35.56364],[129.25338,35.56195]]]}},{"type":"Feature","properties":{"h3":"8830c130ebfffff","emd_code":"3111061000","emd_name":"다운동","area_km2":0.5413,"edge":true,"slope_mean":18.19,"elev_mean":85.4,"flood_hist_n":0,"flood_depth_max_m":null,"flood_risk_100y":null,"semi_basement_r":null,"elderly_alone_r":0.188,"bldg_age30_r":null,"shelter_min_walk":10,"pop":21306,"hh":11368,"elderly65_r":0.2859,"single_hh_r":0.4853,"source_level":"emd","flood_years":[],"landslide_hist_n":0},"geometry":{"type":"Polygon","coordinates":[[[129.25595,35.57344],[129.25509,35.56961],[129.2593,35.56747],[129.26436,35.56916],[129.26522,35.57299],[129.26101,35.57513],[129.25595,35.57344]]]}},{"type":"Feature","properties":{"h3":"8830c13501fffff","emd_code":"3111062000","emd_name":"병영1동","area_km2":0.5418,"edge":false,"slope_mean":3.75,"elev_mean":11.3,"flood_hist_n":1,"flood_depth_max_m":0.782,"flood_risk_100y":null,"semi_basement_r":null,"elderly_alone_r":0.1565,"bldg_age30_r":null,"shelter_min_walk":3,"pop":19855,"hh":9095,"elderly65_r":0.2432,"single_hh_r":0.3638,"source_level":"emd","flood_years":[2016],"landslide_hist_n":0},"geometry":{"type":"Polygon","coordinates":[[[129.33939,35.56933],[129.33853,35.5655],[129.34274,35.56336],[129.34781,35.56504],[129.34866,35.56887],[129.34446,35.57102],[129.33939,35.56933]]]}},{"type":"Feature","properties":{"h3":"8830c13503fffff","emd_code":"3111062000","emd_name":"병영1동","area_km2":0.5418,"edge":true,"slope_mean":2.94,"elev_mean":7.6,"flood_hist_n":1,"flood_depth_max_m":1.2,"flood_risk_100y":null,"semi_basement_r":null,"elderly_alone_r":0.1565,"bldg_age30_r":null,"shelter_min_walk":5,"pop":19855,"hh":9095,"elderly65_r":0.2432,"single_hh_r":0.3638,"source_level":"emd","flood_years":[2014],"landslide_hist_n":0},"geometry":{"type":"Polygon","coordinates":[[[129.34866,35.56887],[129.34781,35.56504],[129.35201,35.56289],[129.35708,35.56458],[129.35794,35.56841],[129.35373,35.57056],[129.34866,35.56887]]]}},{"type":"Feature","properties":{"h3":"8830c13505fffff","emd_code":"3111053000","emd_name":"반구2동","area_km2":0.5419,"edge":false,"slope_mean":6.15,"elev_mean":19.2,"flood_hist_n":1,"flood_depth_max_m":0.486,"flood_risk_100y":null,"semi_basement_r":null,"elderly_alone_r":0.1751,"bldg_age30_r":null,"shelter_min_walk":1,"pop":7893,"hh":4345,"elderly65_r":0.2952,"single_hh_r":0.5139,"source_level":"emd","flood_years":[2016],"landslide_hist_n":0},"geometry":{"type":"Polygon","coordinates":[[[129.33347,35.56382],[129.33261,35.55998],[129.33682,35.55784],[129.34188,35.55952],[129.34274,35.56336],[129.33853,35.5655],[129.33347,35.56382]]]}},{"type":"Feature","properties":{"h3":"8830c13507fffff","emd_code":"3111062000","emd_name":"병영1동","area_km2":0.5419,"edge":false,"slope_mean":3.64,"elev_mean":7.7,"flood_hist_n":1,"flood_depth_max_m":0.447,"flood_risk_100y":null,"semi_basement_r":null,"elderly_alone_r":0.1565,"bldg_age30_r":null,"shelter_min_walk":4,"pop":19855,"hh":9095,"elderly65_r":0.2432,"single_hh_r":0.3638,"source_level":"emd","flood_years":[2016],"landslide_hist_n":0},"geometry":{"type":"Polygon","coordinates":[[[129.34274,35.56336],[129.34188,35.55952],[129.34609,35.55738],[129.35115,35.55906],[129.35201,35.56289],[129.34781,35.56504],[129.34274,35.56336]]]}},{"type":"Feature","properties":{"h3":"8830c13509fffff","emd_code":"3111062000","emd_name":"병영1동","area_km2":0.5417,"edge":false,"slope_mean":6.01,"elev_mean":23.4,"flood_hist_n":0,"flood_depth_max_m":null,"flood_risk_100y":null,"semi_basement_r":null,"elderly_alone_r":0.1565,"bldg_age30_r":null,"shelter_min_walk":5,"pop":19855,"hh":9095,"elderly65_r":0.2432,"single_hh_r":0.3638,"source_level":"emd","flood_years":[],"landslide_hist_n":0},"geometry":{"type":"Polygon","coordinates":[[[129.33604,35.57531],[129.33518,35.57148],[129.33939,35.56933],[129.34446,35.57102],[129.34531,35.57485],[129.34111,35.57699],[129.33604,35.57531]]]}},{"type":"Feature","properties":{"h3":"8830c1350bfffff","emd_code":"3111063000","emd_name":"병영2동","area_km2":0.5417,"edge":false,"slope_mean":4.89,"elev_mean":15.4,"flood_hist_n":2,"flood_depth_max_m":0.7,"flood_risk_100y":null,"semi_basement_r":null,"elderly_alone_r":0.1463,"bldg_age30_r":null,"shelter_min_walk":1,"pop":18689,"hh":8565,"elderly65_r":0.2148,"single_hh_r":0.3647,"source_level":"emd","flood_years":[2014,2016],"landslide_hist_n":0},"geometry":{"type":"Polygon","coordinates":[[[129.34531,35.57485],[129.34446,35.57102],[129.34866,35.56887],[129.35373,35.57056],[129.35459,35.57439],[129.35038,35.57653],[129.34531,35.57485]]]}},{"type":"Feature","properties":{"h3":"8830c1350dfffff","emd_code":"3111064000","emd_name":"약사동","area_km2":0.5417,"edge":false,"slope_mean":5.88,"elev_mean":29.3,"flood_hist_n":0,"flood_depth_max_m":null,"flood_risk_100y":null,"semi_basement_r":null,"elderly_alone_r":0.0853,"bldg_age30_r":null,"shelter_min_walk":2,"pop":10337,"hh":3976,"elderly65_r":0.1397,"single_hh_r":0.2183,"source_level":"emd","flood_years":[],"landslide_hist_n":0},"geometry":{"type":"Polygon","coordinates":[[[129.33012,35.56979],[129.32926,35.56596],[129.33347,35.56382],[129.33853,35.5655],[129.33939,35.56933],[129.33518,35.57148],[129.33012,35.56979]]]}},{"type":"Feature","properties":{"h3":"8830c13521fffff","emd_code":"3111051000","emd_name":"학성동","area_km2":0.542,"edge":false,"slope_mean":2.67,"elev_mean":4.4,"flood_hist_n":1,"flood_depth_max_m":0.359,"flood_risk_100y":null,"semi_basement_r":null,"elderly_alone_r":0.2175,"bldg_age30_r":null,"shelter_min_walk":6,"pop":10534,"hh":5779,"elderly65_r":0.3201,"single_hh_r":0.5162,"source_level":"emd","flood_years":[2016],"landslide_hist_n":0},"geometry":{"type":"Polygon","coordinates":[[[129.33089,35.55232],[129.33004,35.54849],[129.33424,35.54634],[129.33931,35.54803],[129.34017,35.55186],[129.33596,35.55401],[129.33089,35.55232]]]}},{"type":"Feature","properties":{"h3":"8830c13523fffff","emd_code":"3111052000","emd_name":"반구1동","area_km2":0.5421,"edge":false,"slope_mean":2.49,"elev_mean":4.4,"flood_hist_n":1,"flood_depth_max_m":0.742,"flood_risk_100y":null,"semi_basement_r":null,"elderly_alone_r":0.1531,"bldg_age30_r":null,"shelter_min_walk":2,"pop":15240,"hh":7663,"elderly65_r":0.2333,"single_hh_r":0.4513,"source_level":"emd","flood_years":[2016],"landslide_hist_n":0},"geometry":{"type":"Polygon","coordinates":[[[129.34017,35.55186],[129.33931,35.54803],[129.34352,35.54588],[129.34858,35.54757],[129.34944,35.5514],[129.34523,35.55355],[129.34017,35.55186]]]}},{"type":"Feature","properties":{"h3":"8830c13529fffff","emd_code":"3111051000","emd_name":"학성동","area_km2":0.5419,"edge":false,"slope_mean":4.35,"elev_mean":11.2,"flood_hist_n":1,"flood_depth_max_m":0.861,"flood_risk_100y":null,"semi_basement_r":null,"elderly_alone_r":0.2175,"bldg_age30_r":null,"shelter_min_walk":2,"pop":10534,"hh":5779,"elderly65_r":0.3201,"single_hh_r":0.5162,"source_level":"emd","flood_years":[2016],"landslide_hist_n":0},"geometry":{"type":"Polygon","coordinates":[[[129.32754,35.5583],[129.32669,35.55447],[129.33089,35.55232],[129.33596,35.55401],[129.33682,35.55784],[129.33261,35.55998],[129.32754,35.5583]]]}},{"type":"Feature","properties":{"h3":"8830c1352bfffff","emd_code":"3111051000","emd_name":"학성동","area_km2":0.542,"edge":false,"slope_mean":5.09,"elev_mean":11.2,"flood_hist_n":1,"flood_depth_max_m":0.742,"flood_risk_100y":null,"semi_basement_r":null,"elderly_alone_r":0.2175,"bldg_age30_r":null,"shelter_min_walk":5,"pop":10534,"hh":5779,"elderly65_r":0.3201,"single_hh_r":0.5162,"source_level":"emd","flood_years":[2016],"landslide_hist_n":0},"geometry":{"type":"Polygon","coordinates":[[[129.33682,35.55784],[129.33596,35.55401],[129.34017,35.55186],[129.34523,35.55355],[129.34609,35.55738],[129.34188,35.55952],[129.33682,35.55784]]]}},{"type":"Feature","properties":{"h3":"8830c1352dfffff","emd_code":"3111058500","emd_name":"중앙동","area_km2":0.542,"edge":false,"slope_mean":2.7,"elev_mean":5.0,"flood_hist_n":1,"flood_depth_max_m":0.861,"flood_risk_100y":null,"semi_basement_r":null,"elderly_alone_r":0.2362,"bldg_age30_r":null,"shelter_min_walk":8,"pop":8902,"hh":5279,"elderly65_r":0.3412,"single_hh_r":0.5709,"source_level":"emd","flood_years":[2016],"landslide_hist_n":0},"geometry":{"type":"Polygon","coordinates":[[[129.32162,35.55278],[129.32076,35.54895],[129.32497,35.5468],[129.33004,35.54849],[129.33089,35.55232],[129.32669,35.55447],[129.32162,35.55278]]]}},{"type":"Feature","properties":{"h3":"8830c13535fffff","emd_code":"3111052000","emd_name":"반구1동","area_km2":0.5421,"edge":true,"slope_mean":2.6,"elev_mean":3.5,"flood_hist_n":0,"flood_depth_max_m":null,"flood_risk_100y":null,"semi_basement_r":null,"elderly_alone_r":0.1531,"bldg_age30_r":null,"shelter_min_walk":6,"pop":15240,"hh":7663,"elderly65_r":0.2333,"single_hh_r":0.4513,"source_level":"emd","flood_years":[],"landslide_hist_n":0},"geometry":{"type":"Polygon","coordinates":[[[129.34944,35.5514],[129.34858,35.54757],[129.35279,35.54542],[129.35785,35.54711],[129.35871,35.55094],[129.3545,35.55309],[129.34944,35.5514]]]}},{"type":"Feature","properties":{"h3":"8830c13539fffff","emd_code":"3111062000","emd_name":"병영1동","area_km2":0.542,"edge":true,"slope_mean":2.64,"elev_mean":6.5,"flood_hist_n":0,"flood_depth_max_m":null,"flood_risk_100y":null,"semi_basement_r":null,"elderly_alone_r":0.1565,"bldg_age30_r":null,"shelter_min_walk":10,"pop":19855,"hh":9095,"elderly65_r":0.2432,"single_hh_r":0.3638,"source_level":"emd","flood_years":[],"landslide_hist_n":0},"geometry":{"type":"Polygon","coordinates":[[[129.35201,35.56289],[129.35115,35.55906],[129.35536,35.55692],[129.36043,35.5586],[129.36129,35.56243],[129.35708,35.56458],[129.35201,35.56289]]]}},{"type":"Feature","properties":{"h3":"8830c1353dfffff","emd_code":"3111052000","emd_name":"반구1동","area_km2":0.542,"edge":true,"slope_mean":3.23,"elev_mean":5.9,"flood_hist_n":1,"flood_depth_max_m":0.742,"flood_risk_100y":null,"semi_basement_r":null,"elderly_alone_r":0.1531,"bldg_age30_r":null,"shelter_min_walk":4,"pop":15240,"hh":7663,"elderly65_r":0.2333,"single_hh_r":0.4513,"source_level":"emd","flood_years":[2016],"landslide_hist_n":0},"geometry":{"type":"Polygon","coordinates":[[[129.34609,35.55738],[129.34523,35.55355],[129.34944,35.5514],[129.3545,35.55309],[129.35536,35.55692],[129.35115,35.55906],[129.34609,35.55738]]]}},{"type":"Feature","properties":{"h3":"8830c13541fffff","emd_code":"3111064000","emd_name":"약사동","area_km2":0.5415,"edge":false,"slope_mean":12.47,"elev_mean":100.5,"flood_hist_n":0,"flood_depth_max_m":null,"flood_risk_100y":null,"semi_basement_r":null,"elderly_alone_r":0.0853,"bldg_age30_r":null,"shelter_min_walk":7,"pop":10337,"hh":3976,"elderly65_r":0.1397,"single_hh_r":0.2183,"source_level":"emd","flood_years":[],"landslide_hist_n":0},"geometry":{"type":"Polygon","coordinates":[[[129.32342,35.58174],[129.32256,35.57791],[129.32677,35.57577],[129.33183,35.57745],[129.33269,35.58128],[129.32848,35.58342],[129.32342,35.58174]]]}},{"type":"Feature","properties":{"h3":"8830c13543fffff","emd_code":"3111064000","emd_name":"약사동","area_km2":0.5416,"edge":false,"slope_mean":8.51,"elev_mean":45.2,"flood_hist_n":0,"flood_depth_max_m":null,"flood_risk_100y":null,"semi_basement_r":null,"elderly_alone_r":0.0853,"bldg_age30_r":null,"shelter_min_walk":6,"pop":10337,"hh":3976,"elderly65_r":0.1397,"single_hh_r":0.2183,"source_level":"emd","flood_years":[],"landslide_hist_n":0},"geometry":{"type":"Polygon","coordinates":[[[129.33269,35.58128],[129.33183,35.57745],[129.33604,35.57531],[129.34111,35.57699],[129.34196,35.58082],[129.33776,35.58297],[129.33269,35.58128]]]}},{"type":"Feature","properties":{"h3":"8830c13545fffff","emd_code":"3111065000","emd_name":"성안동","area_km2":0.5416,"edge":false,"slope_mean":11.25,"elev_mean":113.9,"flood_hist_n":0,"flood_depth_max_m":null,"flood_risk_100y":null,"semi_basement_r":null,"elderly_alone_r":0.0887,"bldg_age30_r":null,"shelter_min_walk":10,"pop":19767,"hh":8784,"elderly65_r":0.1758,"single_hh_r":0.3541,"source_level":"emd","flood_years":[],"landslide_hist_n":0},"geometry":{"type":"Polygon","coordinates":[[[129.3175,35.57622],[129.31664,35.57239],[129.32085,35.57025],[129.32591,35.57194],[129.32677,35.57577],[129.32256,35.57791],[129.3175,35.57622]]]}},{"type":"Feature","properties":{"h3":"8830c13547fffff","emd_code":"3111064000","emd_name":"약사동","area_km2":0.5416,"edge":false,"slope_mean":11.99,"elev_mean":57.7,"flood_hist_n":0,"flood_depth_max_m":null,"flood_risk_100y":null,"semi_basement_r":null,"elderly_alone_r":0.0853,"bldg_age30_r":null,"shelter_min_walk":7,"pop":10337,"hh":3976,"elderly65_r":0.1397,"single_hh_r":0.2183,"source_level":"emd","flood_years":[],"landslide_hist_n":0},"geometry":{"type":"Polygon","coordinates":[[[129.32677,35.57577],[129.32591,35.57194],[129.33012,35.56979],[129.33518,35.57148],[129.33604,35.57531],[129.33183,35.57745],[129.32677,35.57577]]]}},{"type":"Feature","properties":{"h3":"8830c13549fffff","emd_code":"3111064000","emd_name":"약사동","area_km2":0.5414,"edge":false,"slope_mean":9.99,"elev_mean":119.1,"flood_hist_n":0,"flood_depth_max_m":null,"flood_risk_100y":null,"semi_basement_r":null,"elderly_alone_r":0.0853,"bldg_age30_r":null,"shelter_min_walk":9,"pop":10337,"hh":3976,"elderly65_r":0.1397,"single_hh_r":0.2183,"source_level":"emd","flood_years":[],"landslide_hist_n":0},"geometry":{"type":"Polygon","coordinates":[[[129.32007,35.58771],[129.31921,35.58388],[129.32342,35.58174],[129.32848,35.58342],[129.32934,35.58725],[129.32513,35.5894],[129.32007,35.58771]]]}},{"type":"Feature","properties":{"h3":"8830c1354bfffff","emd_code":"3111063000","emd_name":"병영2동","area_km2":0.5414,"edge":false,"slope_mean":11.74,"elev_mean":88.9,"flood_hist_n":0,"flood_depth_max_m":null,"flood_risk_100y":null,"semi_basement_r":null,"elderly_alone_r":0.1463,"bldg_age30_r":null,"shelter_min_walk":12,"pop":18689,"hh":8565,"elderly65_r":0.2148,"single_hh_r":0.3647,"source_level":"emd","flood_years":[],"landslide_hist_n":0},"geometry":{"type":"Polygon","coordinates":[[[129.32934,35.58725],[129.32848,35.58342],[129.33269,35.58128],[129.33776,35.58297],[129.33861,35.58679],[129.33441,35.58894],[129.32934,35.58725]]]}},{"type":"Feature","properties":{"h3":"8830c1354dfffff","emd_code":"3111065000","emd_name":"성안동","area_km2":0.5415,"edge":false,"slope_mean":7.62,"elev_mean":147.2,"flood_hist_n":0,"flood_depth_max_m":null,"flood_risk_100y":null,"semi_basement_r":null,"elderly_alone_r":0.0887,"bldg_age30_r":null,"shelter_min_walk":2,"pop":19767,"hh":8784,"elderly65_r":0.1758,"single_hh_r":0.3541,"source_level":"emd","flood_years":[],"landslide_hist_n":0},"geometry":{"type":"Polygon","coordinates":[[[129.31415,35.5822],[129.31329,35.57837],[129.3175,35.57622],[129.32256,35.57791],[129.32342,35.58174],[129.31921,35.58388],[129.31415,35.5822]]]}},{"type":"Feature","properties":{"h3":"8830c13551fffff","emd_code":"3111063000","emd_name":"병영2동","area_km2":0.5415,"edge":true,"slope_mean":1.62,"elev_mean":7.4,"flood_hist_n":1,"flood_depth_max_m":1.755,"flood_risk_100y":null,"semi_basement_r":null,"elderly_alone_r":0.1463,"bldg_age30_r":null,"shelter_min_walk":7,"pop":18689,"hh":8565,"elderly65_r":0.2148,"single_hh_r":0.3647,"source_level":"emd","flood_years":[2016],"landslide_hist_n":0},"geometry":{"type":"Polygon","coordinates":[[[129.34789,35.58633],[129.34703,35.58251],[129.35124,35.58036],[129.3563,35.58205],[129.35716,35.58587],[129.35295,35.58802],[129.34789,35.58633]]]}},{"type":"Feature","properties":{"h3":"8830c13555fffff","emd_code":"3111063000","emd_name":"병영2동","area_km2":0.5416,"edge":false,"slope_mean":5.54,"elev_mean":26.6,"flood_hist_n":1,"flood_depth_max_m":1.427,"flood_risk_100y":null,"semi_basement_r":null,"elderly_alone_r":0.1463,"bldg_age30_r":null,"shelter_min_walk":3,"pop":18689,"hh":8565,"elderly65_r":0.2148,"single_hh_r":0.3647,"source_level":"emd","flood_years":[2016],"landslide_hist_n":0},"geometry":{"type":"Polygon","coordinates":[[[129.34196,35.58082],[129.34111,35.57699],[129.34531,35.57485],[129.35038,35.57653],[129.35124,35.58036],[129.34703,35.58251],[129.34196,35.58082]]]}},{"type":"Feature","properties":{"h3":"8830c13557fffff","emd_code":"3111063000","emd_name":"병영2동","area_km2":0.5417,"edge":true,"slope_mean":2.48,"elev_mean":7.6,"flood_hist_n":1,"flood_depth_max_m":1.755,"flood_risk_100y":null,"semi_basement_r":null,"elderly_alone_r":0.1463,"bldg_age30_r":null,"shelter_min_walk":9,"pop":18689,"hh":8565,"elderly65_r":0.2148,"single_hh_r":0.3647,"source_level":"emd","flood_years":[2016],"landslide_hist_n":0},"geometry":{"type":"Polygon","coordinates":[[[129.35124,35.58036],[129.35038,35.57653],[129.35459,35.57439],[129.35965,35.57607],[129.36051,35.5799],[129.3563,35.58205],[129.35124,35.58036]]]}},{"type":"Feature","properties":{"h3":"8830c13559fffff","emd_code":"3111063000","emd_name":"병영2동","area_km2":0.5414,"edge":true,"slope_mean":1.77,"elev_mean":9.9,"flood_hist_n":1,"flood_depth_max_m":2.463,"flood_risk_100y":null,"semi_basement_r":null,"elderly_alone_r":0.1463,"bldg_age30_r":null,"shelter_min_walk":9,"pop":18689,"hh":8565,"elderly65_r":0.2148,"single_hh_r":0.3647,"source_level":"emd","flood_years":[2016],"landslide_hist_n":0},"geometry":{"type":"Polygon","coordinates":[[[129.34454,35.59231],[129.34368,35.58848],[129.34789,35.58633],[129.35295,35.58802],[129.35381,35.59185],[129.3496,35.59399],[129.34454,35.59231]]]}},{"type":"Feature","properties":{"h3":"8830c1355dfffff","emd_code":"3111063000","emd_name":"병영2동","area_km2":0.5415,"edge":false,"slope_mean":6.58,"elev_mean":29.1,"flood_hist_n":0,"flood_depth_max_m":null,"flood_risk_100y":null,"semi_basement_r":null,"elderly_alone_r":0.1463,"bldg_age30_r":null,"shelter_min_walk":3,"pop":18689,"hh":8565,"elderly65_r":0.2148,"single_hh_r":0.3647,"source_level":"emd","flood_years":[],"landslide_hist_n":0},"geometry":{"type":"Polygon","coordinates":[[[129.33861,35.58679],[129.33776,35.58297],[129.34196,35.58082],[129.34703,35.58251],[129.34789,35.58633],[129.34368,35.58848],[129.33861,35.58679]]]}},{"type":"Feature","properties":{"h3":"8830c13561fffff","emd_code":"3111065000","emd_name":"성안동","area_km2":0.5418,"edge":false,"slope_mean":6.63,"elev_mean":37.9,"flood_hist_n":0,"flood_depth_max_m":null,"flood_risk_100y":null,"semi_basement_r":null,"elderly_alone_r":0.0887,"bldg_age30_r":null,"shelter_min_walk":7,"pop":19767,"hh":8784,"elderly65_r":0.1758,"single_hh_r":0.3541,"source_level":"emd","flood_years":[],"landslide_hist_n":0},"geometry":{"type":"Polygon","coordinates":[[[129.31492,35.56473],[129.31407,35.5609],[129.31827,35.55876],[129.32334,35.56044],[129.32419,35.56427],[129.31999,35.56642],[129.31492,35.56473]]]}},{"type":"Feature","properties":{"h3":"8830c13563fffff","emd_code":"3111055500","emd_name":"복산동","area_km2":0.5418,"edge":false,"slope_mean":6.53,"elev_mean":22.1,"flood_hist_n":0,"flood_depth_max_m":null,"flood_risk_100y":null,"semi_basement_r":null,"elderly_alone_r":0.1059,"bldg_age30_r":null,"shelter_min_walk":4,"pop":20942,"hh":9000,"elderly65_r":0.1714,"single_hh_r":0.316,"source_level":"emd","flood_years":[],"landslide_hist_n":0},"geometry":{"type":"Polygon","coordinates":[[[129.32419,35.56427],[129.32334,35.56044],[129.32754,35.5583],[129.33261,35.55998],[129.33347,35.56382],[129.32926,35.56596],[129.32419,35.56427]]]}},{"type":"Feature","properties":{"h3":"8830c13565fffff","emd_code":"3111059000","emd_name":"우정동","area_km2":0.5418,"edge":false,"slope_mean":4.32,"elev_mean":17.2,"flood_hist_n":1,"flood_depth_max_m":1.994,"flood_risk_100y":null,"semi_basement_r":null,"elderly_alone_r":0.1465,"bldg_age30_r":null,"shelter_min_walk":4,"pop":18560,"hh":8637,"elderly65_r":0.2534,"single_hh_r":0.3598,"source_level":"emd","flood_years":[2016],"landslide_hist_n":0},"geometry":{"type":"Polygon","coordinates":[[[129.309,35.55922],[129.30814,35.55539],[129.31235,35.55324],[129.31741,35.55493],[129.31827,35.55876],[129.31407,35.5609],[129.309,35.55922]]]}},{"type":"Feature","properties":{"h3":"8830c13567fffff","emd_code":"3111058500","emd_name":"중앙동","area_km2":0.5419,"edge":false,"slope_mean":4.35,"elev_mean":12.8,"flood_hist_n":0,"flood_depth_max_m":null,"flood_risk_100y":null,"semi_basement_r":null,"elderly_alone_r":0.2362,"bldg_age30_r":null,"shelter_min_walk":2,"pop":8902,"hh":5279,"elderly65_r":0.3412,"single_hh_r":0.5709,"source_level":"emd","flood_years":[],"landslide_hist_n":0},"geometry":{"type":"Polygon","coordinates":[[[129.31827,35.55876],[129.31741,35.55493],[129.32162,35.55278],[129.32669,35.55447],[129.32754,35.5583],[129.32334,35.56044],[129.31827,35.55876]]]}},{"type":"Feature","properties":{"h3":"8830c13569fffff","emd_code":"3111065000","emd_name":"성안동","area_km2":0.5416,"edge":false,"slope_mean":11.27,"elev_mean":79.9,"flood_hist_n":0,"flood_depth_max_m":null,"flood_risk_100y":null,"semi_basement_r":null,"elderly_alone_r":0.0887,"bldg_age30_r":null,"shelter_min_walk":12,"pop":19767,"hh":8784,"elderly65_r":0.1758,"single_hh_r":0.3541,"source_level":"emd","flood_years":[],"landslide_hist_n":0},"geometry":{"type":"Polygon","coordinates":[[[129.31157,35.57071],[129.31072,35.56688],[129.31492,35.56473],[129.31999,35.56642],[129.32085,35.57025],[129.31664,35.57239],[129.31157,35.57071]]]}},{"type":"Feature","properties":{"h3":"8830c1356bfffff","emd_code":"3111055500","emd_name":"복산동","area_km2":0.5417,"edge":false,"slope_mean":10.01,"elev_mean":56.6,"flood_hist_n":0,"flood_depth_max_m":null,"flood_risk_100y":null,"semi_basement_r":null,"elderly_alone_r":0.1059,"bldg_age30_r":null,"shelter_min_walk":5,"pop":20942,"hh":9000,"elderly65_r":0.1714,"single_hh_r":0.316,"source_level":"emd","flood_years":[],"landslide_hist_n":0},"geometry":{"type":"Polygon","coordinates":[[[129.32085,35.57025],[129.31999,35.56642],[129.32419,35.56427],[129.32926,35.56596],[129.33012,35.56979],[129.32591,35.57194],[129.32085,35.57025]]]}},{"type":"Feature","properties":{"h3":"8830c1356dfffff","emd_code":"3111059000","emd_name":"우정동","area_km2":0.5417,"edge":false,"slope_mean":7.52,"elev_mean":42.0,"flood_hist_n":0,"flood_depth_max_m":null,"flood_risk_100y":null,"semi_basement_r":null,"elderly_alone_r":0.1465,"bldg_age30_r":null,"shelter_min_walk":3,"pop":18560,"hh":8637,"elderly65_r":0.2534,"single_hh_r":0.3598,"source_level":"emd","flood_years":[],"landslide_hist_n":0},"geometry":{"type":"Polygon","coordinates":[[[129.30565,35.56519],[129.30479,35.56136],[129.309,35.55922],[129.31407,35.5609],[129.31492,35.56473],[129.31072,35.56688],[129.30565,35.56519]]]}},{"type":"Feature","properties":{"h3":"8830c13721fffff","emd_code":"3111065000","emd_name":"성안동","area_km2":0.5412,"edge":true,"slope_mean":13.28,"elev_mean":89.0,"flood_hist_n":1,"flood_depth_max_m":0.858,"flood_risk_100y":null,"semi_basement_r":null,"elderly_alone_r":0.0887,"bldg_age30_r":null,"shelter_min_walk":21,"pop":19767,"hh":8784,"elderly65_r":0.1758,"single_hh_r":0.3541,"source_level":"emd","flood_years":[2014],"landslide_hist_n":0},"geometry":{"type":"Polygon","coordinates":[[[129.30745,35.59414],[129.30659,35.59031],[129.3108,35.58817],[129.31586,35.58985],[129.31672,35.59368],[129.31251,35.59583],[129.30745,35.59414]]]}},{"type":"Feature","properties":{"h3":"8830c13723fffff","emd_code":"3111064000","emd_name":"약사동","area_km2":0.5413,"edge":false,"slope_mean":13.29,"elev_mean":97.1,"flood_hist_n":0,"flood_depth_max_m":null,"flood_risk_100y":null,"semi_basement_r":null,"elderly_alone_r":0.0853,"bldg_age30_r":null,"shelter_min_walk":19,"pop":10337,"hh":3976,"elderly65_r":0.1397,"single_hh_r":0.2183,"source_level":"emd","flood_years":[],"landslide_hist_n":0},"geometry":{"type":"Polygon","coordinates":[[[129.31672,35.59368],[129.31586,35.58985],[129.32007,35.58771],[129.32513,35.5894],[129.32599,35.59323],[129.32178,35.59537],[129.31672,35.59368]]]}},{"type":"Feature","properties":{"h3":"8830c13725fffff","emd_code":"3111065000","emd_name":"성안동","area_km2":0.5413,"edge":false,"slope_mean":11.19,"elev_mean":91.8,"flood_hist_n":0,"flood_depth_max_m":null,"flood_risk_100y":null,"semi_basement_r":null,"elderly_alone_r":0.0887,"bldg_age30_r":null,"shelter_min_walk":16,"pop":19767,"hh":8784,"elderly65_r":0.1758,"single_hh_r":0.3541,"source_level":"emd","flood_years":[],"landslide_hist_n":0},"geometry":{"type":"Polygon","coordinates":[[[129.30152,35.58863],[129.30067,35.5848],[129.30487,35.58265],[129.30994,35.58434],[129.3108,35.58817],[129.30659,35.59031],[129.30152,35.58863]]]}},{"type":"Feature","properties":{"h3":"8830c13727fffff","emd_code":"3111065000","emd_name":"성안동","area_km2":0.5413,"edge":false,"slope_mean":12.08,"elev_mean":128.2,"flood_hist_n":0,"flood_depth_max_m":null,"flood_risk_100y":null,"semi_basement_r":null,"elderly_alone_r":0.0887,"bldg_age30_r":null,"shelter_min_walk":11,"pop":19767,"hh":8784,"elderly65_r":0.1758,"single_hh_r":0.3541,"source_level":"emd","flood_years":[],"landslide_hist_n":0},"geometry":{"type":"Polygon","coordinates":[[[129.3108,35.58817],[129.30994,35.58434],[129.31415,35.5822],[129.31921,35.58388],[129.32007,35.58771],[129.31586,35.58985],[129.3108,35.58817]]]}},{"type":"Feature","properties":{"h3":"8830c1372dfffff","emd_code":"3111065000","emd_name":"성안동","area_km2":0.5412,"edge":false,"slope_mean":13.11,"elev_mean":105.7,"flood_hist_n":0,"flood_depth_max_m":null,"flood_risk_100y":null,"semi_basement_r":null,"elderly_alone_r":0.0887,"bldg_age30_r":null,"shelter_min_walk":27,"pop":19767,"hh":8784,"elderly65_r":0.1758,"single_hh_r":0.3541,"source_level":"emd","flood_years":[],"landslide_hist_n":0},"geometry":{"type":"Polygon","coordinates":[[[129.29817,35.5946],[129.29732,35.59077],[129.30152,35.58863],[129.30659,35.59031],[129.30745,35.59414],[129.30324,35.59628],[129.29817,35.5946]]]}},{"type":"Feature","properties":{"h3":"8830c13731fffff","emd_code":"3111063000","emd_name":"병영2동","area_km2":0.5413,"edge":true,"slope_mean":14.31,"elev_mean":53.9,"flood_hist_n":0,"flood_depth_max_m":null,"flood_risk_100y":null,"semi_basement_r":null,"elderly_alone_r":0.1463,"bldg_age30_r":null,"shelter_min_walk":19,"pop":18689,"hh":8565,"elderly65_r":0.2148,"single_hh_r":0.3647,"source_level":"emd","flood_years":[],"landslide_hist_n":0},"geometry":{"type":"Polygon","coordinates":[[[129.33191,35.59874],[129.33106,35.59491],[129.33526,35.59277],[129.34033,35.59445],[129.34119,35.59828],[129.33698,35.60042],[129.33191,35.59874]]]}},{"type":"Feature","properties":{"h3":"8830c13733fffff","emd_code":"3111063000","emd_name":"병영2동","area_km2":0.5413,"edge":true,"slope_mean":5.53,"elev_mean":21.0,"flood_hist_n":1,"flood_depth_max_m":1.488,"flood_risk_100y":null,"semi_basement_r":null,"elderly_alone_r":0.1463,"bldg_age30_r":null,"shelter_min_walk":16,"pop":18689,"hh":8565,"elderly65_r":0.2148,"single_hh_r":0.3647,"source_level":"emd","flood_years":[2016],"landslide_hist_n":0},"geometry":{"type":"Polygon","coordinates":[[[129.34119,35.59828],[129.34033,35.59445],[129.34454,35.59231],[129.3496,35.59399],[129.35046,35.59782],[129.34625,35.59996],[129.34119,35.59828]]]}},{"type":"Feature","properties":{"h3":"8830c13735fffff","emd_code":"3111063000","emd_name":"병영2동","area_km2":0.5413,"edge":false,"slope_mean":14.03,"elev_mean":102.4,"flood_hist_n":0,"flood_depth_max_m":null,"flood_risk_100y":null,"semi_basement_r":null,"elderly_alone_r":0.1463,"bldg_age30_r":null,"shelter_min_walk":19,"pop":18689,"hh":8565,"elderly65_r":0.2148,"single_hh_r":0.3647,"source_level":"emd","flood_years":[],"landslide_hist_n":0},"geometry":{"type":"Polygon","coordinates":[[[129.32599,35.59323],[129.32513,35.5894],[129.32934,35.58725],[129.33441,35.58894],[129.33526,35.59277],[129.33106,35.59491],[129.32599,35.59323]]]}},{"type":"Feature","properties":{"h3":"8830c13737fffff","emd_code":"3111063000","emd_name":"병영2동","area_km2":0.5414,"edge":false,"slope_mean":12.18,"elev_mean":48.0,"flood_hist_n":1,"flood_depth_max_m":1.488,"flood_risk_100y":null,"semi_basement_r":null,"elderly_alone_r":0.1463,"bldg_age30_r":null,"shelter_min_walk":8,"pop":18689,"hh":8565,"elderly65_r":0.2148,"single_hh_r":0.3647,"source_level":"emd","flood_years":[2016],"landslide_hist_n":0},"geometry":{"type":"Polygon","coordinates":[[[129.33526,35.59277],[129.33441,35.58894],[129.33861,35.58679],[129.34368,35.58848],[129.34454,35.59231],[129.34033,35.59445],[129.33526,35.59277]]]}},{"type":"Feature","properties":{"h3":"8830c1373dfffff","emd_code":"3111063000","emd_name":"병영2동","area_km2":0.5412,"edge":false,"slope_mean":13.8,"elev_mean":62.1,"flood_hist_n":0,"flood_depth_max_m":null,"flood_risk_100y":null,"semi_basement_r":null,"elderly_alone_r":0.1463,"bldg_age30_r":null,"shelter_min_walk":28,"pop":18689,"hh":8565,"elderly65_r":0.2148,"single_hh_r":0.3647,"source_level":"emd","flood_years":[],"landslide_hist_n":0},"geometry":{"type":"Polygon","coordinates":[[[129.32264,35.5992],[129.32178,35.59537],[129.32599,35.59323],[129.33106,35.59491],[129.33191,35.59874],[129.32771,35.60088],[129.32264,35.5992]]]}}]}