{"type":"FeatureCollection","name":"grid_31170_h3r8","meta":{"sgg_code":"31170","h3_res":8,"n_cells":100,"dem":"Copernicus GLO-30 (bbox-mean)","crs":"EPSG:4326","jumin_basis":"2026-07","flood_src":"행안부 침수흔적도(전국, 재난안전데이터공유플랫폼)","landslide_src":"행안부 산사태 발생이력"},"features":[{"type":"Feature","properties":{"h3":"8830c12083fffff","emd_code":"3117051000","emd_name":"방어동","area_km2":0.5435,"edge":true,"slope_mean":0.28,"elev_mean":0.1,"flood_hist_n":0,"flood_depth_max_m":null,"flood_risk_100y":null,"semi_basement_r":null,"elderly_alone_r":0.1153,"bldg_age30_r":null,"shelter_min_walk":13,"pop":36355,"hh":17967,"elderly65_r":0.2018,"single_hh_r":0.4497,"source_level":"emd","flood_years":[],"landslide_hist_n":0},"geometry":{"type":"Polygon","coordinates":[[[129.39556,35.48512],[129.3947,35.48128],[129.39891,35.47913],[129.40397,35.48081],[129.40483,35.48465],[129.40062,35.4868],[129.39556,35.48512]]]}},{"type":"Feature","properties":{"h3":"8830c12091fffff","emd_code":"3117051000","emd_name":"방어동","area_km2":0.5434,"edge":false,"slope_mean":7.48,"elev_mean":42.5,"flood_hist_n":0,"flood_depth_max_m":null,"flood_risk_100y":null,"semi_basement_r":null,"elderly_alone_r":0.1153,"bldg_age30_r":null,"shelter_min_walk":4,"pop":36355,"hh":17967,"elderly65_r":0.2018,"single_hh_r":0.4497,"source_level":"emd","flood_years":[],"landslide_hist_n":0},"geometry":{"type":"Polygon","coordinates":[[[129.41076,35.49017],[129.4099,35.48634],[129.4141,35.48418],[129.41917,35.48587],[129.42003,35.4897],[129.41582,35.49186],[129.41076,35.49017]]]}},{"type":"Feature","properties":{"h3":"8830c12093fffff","emd_code":"3117051000","emd_name":"방어동","area_km2":0.5435,"edge":false,"slope_mean":4.92,"elev_mean":23.5,"flood_hist_n":0,"flood_depth_max_m":null,"flood_risk_100y":null,"semi_basement_r":null,"elderly_alone_r":0.1153,"bldg_age30_r":null,"shelter_min_walk":7,"pop":36355,"hh":17967,"elderly65_r":0.2018,"single_hh_r":0.4497,"source_level":"emd","flood_years":[],"landslide_hist_n":0},"geometry":{"type":"Polygon","coordinates":[[[129.42003,35.4897],[129.41917,35.48587],[129.42338,35.48371],[129.42845,35.4854],[129.42931,35.48923],[129.4251,35.49139],[129.42003,35.4897]]]}},{"type":"Feature","properties":{"h3":"8830c12095fffff","emd_code":"3117051000","emd_name":"방어동","area_km2":0.5435,"edge":false,"slope_mean":6.19,"elev_mean":21.4,"flood_hist_n":0,"flood_depth_max_m":null,"flood_risk_100y":null,"semi_basement_r":null,"elderly_alone_r":0.1153,"bldg_age30_r":null,"shelter_min_walk":2,"pop":36355,"hh":17967,"elderly65_r":0.2018,"single_hh_r":0.4497,"source_level":"emd","flood_years":[],"landslide_hist_n":0},"geometry":{"type":"Polygon","coordinates":[[[129.40483,35.48465],[129.40397,35.48081],[129.40818,35.47866],[129.41325,35.48035],[129.4141,35.48418],[129.4099,35.48634],[129.40483,35.48465]]]}},{"type":"Feature","properties":{"h3":"8830c12097fffff","emd_code":"3117051000","emd_name":"방어동","area_km2":0.5436,"edge":false,"slope_mean":3.59,"elev_mean":12.4,"flood_hist_n":0,"flood_depth_max_m":null,"flood_risk_100y":null,"semi_basement_r":null,"elderly_alone_r":0.1153,"bldg_age30_r":null,"shelter_min_walk":4,"pop":36355,"hh":17967,"elderly65_r":0.2018,"single_hh_r":0.4497,"source_level":"emd","flood_years":[],"landslide_hist_n":0},"geometry":{"type":"Polygon","coordinates":[[[129.4141,35.48418],[129.41325,35.48035],[129.41745,35.47819],[129.42252,35.47988],[129.42338,35.48371],[129.41917,35.48587],[129.4141,35.48418]]]}},{"type":"Feature","properties":{"h3":"8830c12099fffff","emd_code":"3117051000","emd_name":"방어동","area_km2":0.5433,"edge":false,"slope_mean":12.36,"elev_mean":54.1,"flood_hist_n":0,"flood_depth_max_m":null,"flood_risk_100y":null,"semi_basement_r":null,"elderly_alone_r":0.1153,"bldg_age30_r":null,"shelter_min_walk":8,"pop":36355,"hh":17967,"elderly65_r":0.2018,"single_hh_r":0.4497,"source_level":"emd","flood_years":[],"landslide_hist_n":0},"geometry":{"type":"Polygon","coordinates":[[[129.40741,35.49616],[129.40655,35.49232],[129.41076,35.49017],[129.41582,35.49186],[129.41668,35.49569],[129.41247,35.49784],[129.40741,35.49616]]]}},{"type":"Feature","properties":{"h3":"8830c1209bfffff","emd_code":"3117053000","emd_name":"화정동","area_km2":0.5434,"edge":false,"slope_mean":6.91,"elev_mean":43.9,"flood_hist_n":0,"flood_depth_max_m":null,"flood_risk_100y":null,"semi_basement_r":null,"elderly_alone_r":0.1551,"bldg_age30_r":null,"shelter_min_walk":2,"pop":17493,"hh":8073,"elderly65_r":0.2185,"single_hh_r":0.3886,"source_level":"emd","flood_years":[],"landslide_hist_n":0},"geometry":{"type":"Polygon","coordinates":[[[129.41668,35.49569],[129.41582,35.49186],[129.42003,35.4897],[129.4251,35.49139],[129.42596,35.49522],[129.42175,35.49738],[129.41668,35.49569]]]}},{"type":"Feature","properties":{"h3":"8830c1209dfffff","emd_code":"3117051000","emd_name":"방어동","area_km2":0.5434,"edge":false,"slope_mean":4.99,"elev_mean":8.7,"flood_hist_n":0,"flood_depth_max_m":null,"flood_risk_100y":null,"semi_basement_r":null,"elderly_alone_r":0.1153,"bldg_age30_r":null,"shelter_min_walk":9,"pop":36355,"hh":17967,"elderly65_r":0.2018,"single_hh_r":0.4497,"source_level":"emd","flood_years":[],"landslide_hist_n":0},"geometry":{"type":"Polygon","coordinates":[[[129.40148,35.49064],[129.40062,35.4868],[129.40483,35.48465],[129.4099,35.48634],[129.41076,35.49017],[129.40655,35.49232],[129.40148,35.49064]]]}},{"type":"Feature","properties":{"h3":"8830c120b1fffff","emd_code":"3117051000","emd_name":"방어동","area_km2":0.5437,"edge":true,"slope_mean":1.36,"elev_mean":1.6,"flood_hist_n":0,"flood_depth_max_m":null,"flood_risk_100y":null,"semi_basement_r":null,"elderly_alone_r":0.1153,"bldg_age30_r":null,"shelter_min_walk":21,"pop":36355,"hh":17967,"elderly65_r":0.2018,"single_hh_r":0.4497,"source_level":"emd","flood_years":[],"landslide_hist_n":0},"geometry":{"type":"Polygon","coordinates":[[[129.40225,35.47314],[129.4014,35.4693],[129.4056,35.46715],[129.41067,35.46883],[129.41153,35.47267],[129.40732,35.47482],[129.40225,35.47314]]]}},{"type":"Feature","properties":{"h3":"8830c120b3fffff","emd_code":"3117051000","emd_name":"방어동","area_km2":0.5437,"edge":true,"slope_mean":0.93,"elev_mean":1.0,"flood_hist_n":0,"flood_depth_max_m":null,"flood_risk_100y":null,"semi_basement_r":null,"elderly_alone_r":0.1153,"bldg_age30_r":null,"shelter_min_walk":19,"pop":36355,"hh":17967,"elderly65_r":0.2018,"single_hh_r":0.4497,"source_level":"emd","flood_years":[],"landslide_hist_n":0},"geometry":{"type":"Polygon","coordinates":[[[129.41153,35.47267],[129.41067,35.46883],[129.41488,35.46668],[129.41995,35.46836],[129.4208,35.4722],[129.4166,35.47435],[129.41153,35.47267]]]}},{"type":"Feature","properties":{"h3":"8830c120b9fffff","emd_code":"3117051000","emd_name":"방어동","area_km2":0.5436,"edge":true,"slope_mean":1.94,"elev_mean":2.0,"flood_hist_n":0,"flood_depth_max_m":null,"flood_risk_100y":null,"semi_basement_r":null,"elderly_alone_r":0.1153,"bldg_age30_r":null,"shelter_min_walk":14,"pop":36355,"hh":17967,"elderly65_r":0.2018,"single_hh_r":0.4497,"source_level":"emd","flood_years":[],"landslide_hist_n":0},"geometry":{"type":"Polygon","coordinates":[[[129.39891,35.47913],[129.39805,35.47529],[129.40225,35.47314],[129.40732,35.47482],[129.40818,35.47866],[129.40397,35.48081],[129.39891,35.47913]]]}},{"type":"Feature","properties":{"h3":"8830c120bbfffff","emd_code":"3117051000","emd_name":"방어동","area_km2":0.5436,"edge":false,"slope_mean":4.66,"elev_mean":10.5,"flood_hist_n":0,"flood_depth_max_m":null,"flood_risk_100y":null,"semi_basement_r":null,"elderly_alone_r":0.1153,"bldg_age30_r":null,"shelter_min_walk":9,"pop":36355,"hh":17967,"elderly65_r":0.2018,"single_hh_r":0.4497,"source_level":"emd","flood_years":[],"landslide_hist_n":0},"geometry":{"type":"Polygon","coordinates":[[[129.40818,35.47866],[129.40732,35.47482],[129.41153,35.47267],[129.4166,35.47435],[129.41745,35.47819],[129.41325,35.48035],[129.40818,35.47866]]]}},{"type":"Feature","properties":{"h3":"8830c120d1fffff","emd_code":"3117051000","emd_name":"방어동","area_km2":0.5432,"edge":true,"slope_mean":3.94,"elev_mean":4.3,"flood_hist_n":0,"flood_depth_max_m":null,"flood_risk_100y":null,"semi_basement_r":null,"elderly_alone_r":0.1153,"bldg_age30_r":null,"shelter_min_walk":22,"pop":36355,"hh":17967,"elderly65_r":0.2018,"single_hh_r":0.4497,"source_level":"emd","flood_years":[],"landslide_hist_n":0},"geometry":{"type":"Polygon","coordinates":[[[129.39478,35.50262],[129.39392,35.49878],[129.39813,35.49663],[129.4032,35.49831],[129.40406,35.50215],[129.39985,35.5043],[129.39478,35.50262]]]}},{"type":"Feature","properties":{"h3":"8830c120d3fffff","emd_code":"3117054000","emd_name":"대송동","area_km2":0.5432,"edge":false,"slope_mean":14.07,"elev_mean":78.6,"flood_hist_n":0,"flood_depth_max_m":null,"flood_risk_100y":null,"semi_basement_r":null,"elderly_alone_r":0.1131,"bldg_age30_r":null,"shelter_min_walk":12,"pop":10266,"hh":5075,"elderly65_r":0.2178,"single_hh_r":0.4242,"source_level":"emd","flood_years":[],"landslide_hist_n":0},"geometry":{"type":"Polygon","coordinates":[[[129.40406,35.50215],[129.4032,35.49831],[129.40741,35.49616],[129.41247,35.49784],[129.41333,35.50168],[129.40912,35.50383],[129.40406,35.50215]]]}},{"type":"Feature","properties":{"h3":"8830c120d7fffff","emd_code":"3117051000","emd_name":"방어동","area_km2":0.5433,"edge":true,"slope_mean":1.32,"elev_mean":1.2,"flood_hist_n":0,"flood_depth_max_m":null,"flood_risk_100y":null,"semi_basement_r":null,"elderly_alone_r":0.1153,"bldg_age30_r":null,"shelter_min_walk":17,"pop":36355,"hh":17967,"elderly65_r":0.2018,"single_hh_r":0.4497,"source_level":"emd","flood_years":[],"landslide_hist_n":0},"geometry":{"type":"Polygon","coordinates":[[[129.39813,35.49663],[129.39727,35.49279],[129.40148,35.49064],[129.40655,35.49232],[129.40741,35.49616],[129.4032,35.49831],[129.39813,35.49663]]]}},{"type":"Feature","properties":{"h3":"8830c120d9fffff","emd_code":"3117051000","emd_name":"방어동","area_km2":0.543,"edge":true,"slope_mean":2.85,"elev_mean":2.7,"flood_hist_n":0,"flood_depth_max_m":null,"flood_risk_100y":null,"semi_basement_r":null,"elderly_alone_r":0.1153,"bldg_age30_r":null,"shelter_min_walk":17,"pop":36355,"hh":17967,"elderly65_r":0.2018,"single_hh_r":0.4497,"source_level":"emd","flood_years":[],"landslide_hist_n":0},"geometry":{"type":"Polygon","coordinates":[[[129.39143,35.5086],[129.39057,35.50477],[129.39478,35.50262],[129.39985,35.5043],[129.40071,35.50813],[129.3965,35.51029],[129.39143,35.5086]]]}},{"type":"Feature","properties":{"h3":"8830c120dbfffff","emd_code":"3117054000","emd_name":"대송동","area_km2":0.5431,"edge":false,"slope_mean":14.38,"elev_mean":79.3,"flood_hist_n":0,"flood_depth_max_m":null,"flood_risk_100y":null,"semi_basement_r":null,"elderly_alone_r":0.1131,"bldg_age30_r":null,"shelter_min_walk":17,"pop":10266,"hh":5075,"elderly65_r":0.2178,"single_hh_r":0.4242,"source_level":"emd","flood_years":[],"landslide_hist_n":0},"geometry":{"type":"Polygon","coordinates":[[[129.40071,35.50813],[129.39985,35.5043],[129.40406,35.50215],[129.40912,35.50383],[129.40998,35.50767],[129.40577,35.50982],[129.40071,35.50813]]]}},{"type":"Feature","properties":{"h3":"8830c12293fffff","emd_code":"3117058000","emd_name":"남목1동","area_km2":0.5427,"edge":true,"slope_mean":16.32,"elev_mean":65.6,"flood_hist_n":0,"flood_depth_max_m":null,"flood_risk_100y":null,"semi_basement_r":null,"elderly_alone_r":0.1587,"bldg_age30_r":null,"shelter_min_walk":12,"pop":7791,"hh":3566,"elderly65_r":0.2852,"single_hh_r":0.3592,"source_level":"emd","flood_years":[],"landslide_hist_n":0},"geometry":{"type":"Polygon","coordinates":[[[129.39658,35.53161],[129.39572,35.52777],[129.39993,35.52562],[129.405,35.52731],[129.40586,35.53114],[129.40165,35.53329],[129.39658,35.53161]]]}},{"type":"Feature","properties":{"h3":"8830c12297fffff","emd_code":"3117051000","emd_name":"방어동","area_km2":0.5427,"edge":true,"slope_mean":5.07,"elev_mean":8.2,"flood_hist_n":0,"flood_depth_max_m":null,"flood_risk_100y":null,"semi_basement_r":null,"elderly_alone_r":0.1153,"bldg_age30_r":null,"shelter_min_walk":14,"pop":36355,"hh":17967,"elderly65_r":0.2018,"single_hh_r":0.4497,"source_level":"emd","flood_years":[],"landslide_hist_n":0},"geometry":{"type":"Polygon","coordinates":[[[129.39066,35.52609],[129.3898,35.52225],[129.39401,35.52011],[129.39907,35.52179],[129.39993,35.52562],[129.39572,35.52777],[129.39066,35.52609]]]}},{"type":"Feature","properties":{"h3":"8830c122b3fffff","emd_code":"3117051000","emd_name":"방어동","area_km2":0.5429,"edge":true,"slope_mean":0.42,"elev_mean":0.3,"flood_hist_n":0,"flood_depth_max_m":null,"flood_risk_100y":null,"semi_basement_r":null,"elderly_alone_r":0.1153,"bldg_age30_r":null,"shelter_min_walk":18,"pop":36355,"hh":17967,"elderly65_r":0.2018,"single_hh_r":0.4497,"source_level":"emd","flood_years":[],"landslide_hist_n":0},"geometry":{"type":"Polygon","coordinates":[[[129.38808,35.51459],[129.38722,35.51075],[129.39143,35.5086],[129.3965,35.51029],[129.39736,35.51412],[129.39315,35.51627],[129.38808,35.51459]]]}},{"type":"Feature","properties":{"h3":"8830c122bbfffff","emd_code":"3117051000","emd_name":"방어동","area_km2":0.5428,"edge":true,"slope_mean":0.68,"elev_mean":0.6,"flood_hist_n":0,"flood_depth_max_m":null,"flood_risk_100y":null,"semi_basement_r":null,"elderly_alone_r":0.1153,"bldg_age30_r":null,"shelter_min_walk":23,"pop":36355,"hh":17967,"elderly65_r":0.2018,"single_hh_r":0.4497,"source_level":"emd","flood_years":[],"landslide_hist_n":0},"geometry":{"type":"Polygon","coordinates":[[[129.38473,35.52057],[129.38388,35.51674],[129.38808,35.51459],[129.39315,35.51627],[129.39401,35.52011],[129.3898,35.52225],[129.38473,35.52057]]]}},{"type":"Feature","properties":{"h3":"8830c12541fffff","emd_code":"3117052000","emd_name":"일산동","area_km2":0.5435,"edge":false,"slope_mean":7.37,"elev_mean":16.0,"flood_hist_n":0,"flood_depth_max_m":null,"flood_risk_100y":null,"semi_basement_r":null,"elderly_alone_r":0.1597,"bldg_age30_r":null,"shelter_min_walk":14,"pop":5069,"hh":2931,"elderly65_r":0.3166,"single_hh_r":0.5575,"source_level":"emd","flood_years":[],"landslide_hist_n":0},"geometry":{"type":"Polygon","coordinates":[[[129.43523,35.49475],[129.43437,35.49092],[129.43858,35.48876],[129.44365,35.49045],[129.44451,35.49428],[129.4403,35.49644],[129.43523,35.49475]]]}},{"type":"Feature","properties":{"h3":"8830c12543fffff","emd_code":"3117052000","emd_name":"일산동","area_km2":0.5435,"edge":true,"slope_mean":0.6,"elev_mean":0.3,"flood_hist_n":0,"flood_depth_max_m":null,"flood_risk_100y":null,"semi_basement_r":null,"elderly_alone_r":0.1597,"bldg_age30_r":null,"shelter_min_walk":26,"pop":5069,"hh":2931,"elderly65_r":0.3166,"single_hh_r":0.5575,"source_level":"emd","flood_years":[],"landslide_hist_n":0},"geometry":{"type":"Polygon","coordinates":[[[129.44451,35.49428],[129.44365,35.49045],[129.44786,35.48829],[129.45293,35.48998],[129.45378,35.49381],[129.44958,35.49597],[129.44451,35.49428]]]}},{"type":"Feature","properties":{"h3":"8830c12545fffff","emd_code":"3117051000","emd_name":"방어동","area_km2":0.5435,"edge":false,"slope_mean":7.05,"elev_mean":26.7,"flood_hist_n":0,"flood_depth_max_m":null,"flood_risk_100y":null,"semi_basement_r":null,"elderly_alone_r":0.1153,"bldg_age30_r":null,"shelter_min_walk":6,"pop":36355,"hh":17967,"elderly65_r":0.2018,"single_hh_r":0.4497,"source_level":"emd","flood_years":[],"landslide_hist_n":0},"geometry":{"type":"Polygon","coordinates":[[[129.42931,35.48923],[129.42845,35.4854],[129.43266,35.48324],[129.43772,35.48493],[129.43858,35.48876],[129.43437,35.49092],[129.42931,35.48923]]]}},{"type":"Feature","properties":{"h3":"8830c12547fffff","emd_code":"3117052000","emd_name":"일산동","area_km2":0.5436,"edge":true,"slope_mean":1.76,"elev_mean":3.0,"flood_hist_n":0,"flood_depth_max_m":null,"flood_risk_100y":null,"semi_basement_r":null,"elderly_alone_r":0.1597,"bldg_age30_r":null,"shelter_min_walk":18,"pop":5069,"hh":2931,"elderly65_r":0.3166,"single_hh_r":0.5575,"source_level":"emd","flood_years":[],"landslide_hist_n":0},"geometry":{"type":"Polygon","coordinates":[[[129.43858,35.48876],[129.43772,35.48493],[129.44193,35.48277],[129.447,35.48446],[129.44786,35.48829],[129.44365,35.49045],[129.43858,35.48876]]]}},{"type":"Feature","properties":{"h3":"8830c12549fffff","emd_code":"3117052000","emd_name":"일산동","area_km2":0.5434,"edge":true,"slope_mean":2.98,"elev_mean":5.4,"flood_hist_n":0,"flood_depth_max_m":null,"flood_risk_100y":null,"semi_basement_r":null,"elderly_alone_r":0.1597,"bldg_age30_r":null,"shelter_min_walk":10,"pop":5069,"hh":2931,"elderly65_r":0.3166,"single_hh_r":0.5575,"source_level":"emd","flood_years":[],"landslide_hist_n":0},"geometry":{"type":"Polygon","coordinates":[[[129.43188,35.50074],[129.43102,35.49691],[129.43523,35.49475],[129.4403,35.49644],[129.44116,35.50027],[129.43695,35.50243],[129.43188,35.50074]]]}},{"type":"Feature","properties":{"h3":"8830c1254bfffff","emd_code":"3117052000","emd_name":"일산동","area_km2":0.5434,"edge":true,"slope_mean":1.37,"elev_mean":1.1,"flood_hist_n":0,"flood_depth_max_m":null,"flood_risk_100y":null,"semi_basement_r":null,"elderly_alone_r":0.1597,"bldg_age30_r":null,"shelter_min_walk":23,"pop":5069,"hh":2931,"elderly65_r":0.3166,"single_hh_r":0.5575,"source_level":"emd","flood_years":[],"landslide_hist_n":0},"geometry":{"type":"Polygon","coordinates":[[[129.44116,35.50027],[129.4403,35.49644],[129.44451,35.49428],[129.44958,35.49597],[129.45043,35.4998],[129.44623,35.50196],[129.44116,35.50027]]]}},{"type":"Feature","properties":{"h3":"8830c1254dfffff","emd_code":"3117052000","emd_name":"일산동","area_km2":0.5434,"edge":false,"slope_mean":4.35,"elev_mean":15.8,"flood_hist_n":0,"flood_depth_max_m":null,"flood_risk_100y":null,"semi_basement_r":null,"elderly_alone_r":0.1597,"bldg_age30_r":null,"shelter_min_walk":4,"pop":5069,"hh":2931,"elderly65_r":0.3166,"single_hh_r":0.5575,"source_level":"emd","flood_years":[],"landslide_hist_n":0},"geometry":{"type":"Polygon","coordinates":[[[129.42596,35.49522],[129.4251,35.49139],[129.42931,35.48923],[129.43437,35.49092],[129.43523,35.49475],[129.43102,35.49691],[129.42596,35.49522]]]}},{"type":"Feature","properties":{"h3":"8830c12569fffff","emd_code":"3117051000","emd_name":"방어동","area_km2":0.5436,"edge":true,"slope_mean":2.13,"elev_mean":2.7,"flood_hist_n":0,"flood_depth_max_m":null,"flood_risk_100y":null,"semi_basement_r":null,"elderly_alone_r":0.1153,"bldg_age30_r":null,"shelter_min_walk":13,"pop":36355,"hh":17967,"elderly65_r":0.2018,"single_hh_r":0.4497,"source_level":"emd","flood_years":[],"landslide_hist_n":0},"geometry":{"type":"Polygon","coordinates":[[[129.42338,35.48371],[129.42252,35.47988],[129.42673,35.47772],[129.4318,35.47941],[129.43266,35.48324],[129.42845,35.4854],[129.42338,35.48371]]]}},{"type":"Feature","properties":{"h3":"8830c1256bfffff","emd_code":"3117051000","emd_name":"방어동","area_km2":0.5437,"edge":true,"slope_mean":1.47,"elev_mean":2.9,"flood_hist_n":0,"flood_depth_max_m":null,"flood_risk_100y":null,"semi_basement_r":null,"elderly_alone_r":0.1153,"bldg_age30_r":null,"shelter_min_walk":16,"pop":36355,"hh":17967,"elderly65_r":0.2018,"single_hh_r":0.4497,"source_level":"emd","flood_years":[],"landslide_hist_n":0},"geometry":{"type":"Polygon","coordinates":[[[129.43266,35.48324],[129.4318,35.47941],[129.436,35.47725],[129.44107,35.47894],[129.44193,35.48277],[129.43772,35.48493],[129.43266,35.48324]]]}},{"type":"Feature","properties":{"h3":"8830c1262dfffff","emd_code":"3117060000","emd_name":"남목3동","area_km2":0.5427,"edge":true,"slope_mean":3.91,"elev_mean":7.1,"flood_hist_n":0,"flood_depth_max_m":null,"flood_risk_100y":null,"semi_basement_r":null,"elderly_alone_r":0.1321,"bldg_age30_r":null,"shelter_min_walk":32,"pop":10583,"hh":4808,"elderly65_r":0.2471,"single_hh_r":0.3426,"source_level":"emd","flood_years":[],"landslide_hist_n":0},"geometry":{"type":"Polygon","coordinates":[[[129.45147,35.54628],[129.45061,35.54245],[129.45482,35.5403],[129.45989,35.54198],[129.46074,35.54581],[129.45654,35.54796],[129.45147,35.54628]]]}},{"type":"Feature","properties":{"h3":"8830c12641fffff","emd_code":"3117060000","emd_name":"남목3동","area_km2":0.5422,"edge":true,"slope_mean":0.98,"elev_mean":0.8,"flood_hist_n":0,"flood_depth_max_m":null,"flood_risk_100y":null,"semi_basement_r":null,"elderly_alone_r":0.1321,"bldg_age30_r":null,"shelter_min_walk":58,"pop":10583,"hh":4808,"elderly65_r":0.2471,"single_hh_r":0.3426,"source_level":"emd","flood_years":[],"landslide_hist_n":0},"geometry":{"type":"Polygon","coordinates":[[[129.45327,35.57525],[129.45241,35.57142],[129.45662,35.56927],[129.46169,35.57095],[129.46255,35.57478],[129.45834,35.57693],[129.45327,35.57525]]]}},{"type":"Feature","properties":{"h3":"8830c12645fffff","emd_code":"3117060000","emd_name":"남목3동","area_km2":0.5423,"edge":false,"slope_mean":9.9,"elev_mean":35.8,"flood_hist_n":0,"flood_depth_max_m":null,"flood_risk_100y":null,"semi_basement_r":null,"elderly_alone_r":0.1321,"bldg_age30_r":null,"shelter_min_walk":46,"pop":10583,"hh":4808,"elderly65_r":0.2471,"single_hh_r":0.3426,"source_level":"emd","flood_years":[],"landslide_hist_n":0},"geometry":{"type":"Polygon","coordinates":[[[129.44734,35.56974],[129.44649,35.56591],[129.45069,35.56376],[129.45576,35.56544],[129.45662,35.56927],[129.45241,35.57142],[129.44734,35.56974]]]}},{"type":"Feature","properties":{"h3":"8830c12647fffff","emd_code":"3117060000","emd_name":"남목3동","area_km2":0.5423,"edge":true,"slope_mean":0.36,"elev_mean":0.4,"flood_hist_n":0,"flood_depth_max_m":null,"flood_risk_100y":null,"semi_basement_r":null,"elderly_alone_r":0.1321,"bldg_age30_r":null,"shelter_min_walk":54,"pop":10583,"hh":4808,"elderly65_r":0.2471,"single_hh_r":0.3426,"source_level":"emd","flood_years":[],"landslide_hist_n":0},"geometry":{"type":"Polygon","coordinates":[[[129.45662,35.56927],[129.45576,35.56544],[129.45997,35.56329],[129.46504,35.56497],[129.4659,35.5688],[129.46169,35.57095],[129.45662,35.56927]]]}},{"type":"Feature","properties":{"h3":"8830c1264dfffff","emd_code":"3117060000","emd_name":"남목3동","area_km2":0.5421,"edge":true,"slope_mean":11.23,"elev_mean":35.7,"flood_hist_n":0,"flood_depth_max_m":null,"flood_risk_100y":null,"semi_basement_r":null,"elderly_alone_r":0.1321,"bldg_age30_r":null,"shelter_min_walk":52,"pop":10583,"hh":4808,"elderly65_r":0.2471,"single_hh_r":0.3426,"source_level":"emd","flood_years":[],"landslide_hist_n":0},"geometry":{"type":"Polygon","coordinates":[[[129.44399,35.57572],[129.44314,35.57189],[129.44734,35.56974],[129.45241,35.57142],[129.45327,35.57525],[129.44906,35.5774],[129.44399,35.57572]]]}},{"type":"Feature","properties":{"h3":"8830c12661fffff","emd_code":"3117060000","emd_name":"남목3동","area_km2":0.5424,"edge":false,"slope_mean":13.24,"elev_mean":77.8,"flood_hist_n":0,"flood_depth_max_m":null,"flood_risk_100y":null,"semi_basement_r":null,"elderly_alone_r":0.1321,"bldg_age30_r":null,"shelter_min_walk":29,"pop":10583,"hh":4808,"elderly65_r":0.2471,"single_hh_r":0.3426,"source_level":"emd","flood_years":[],"landslide_hist_n":0},"geometry":{"type":"Polygon","coordinates":[[[129.44477,35.55825],[129.44391,35.55442],[129.44812,35.55227],[129.45319,35.55395],[129.45404,35.55778],[129.44984,35.55993],[129.44477,35.55825]]]}},{"type":"Feature","properties":{"h3":"8830c12663fffff","emd_code":"3117060000","emd_name":"남목3동","area_km2":0.5425,"edge":true,"slope_mean":2.68,"elev_mean":8.5,"flood_hist_n":0,"flood_depth_max_m":null,"flood_risk_100y":null,"semi_basement_r":null,"elderly_alone_r":0.1321,"bldg_age30_r":null,"shelter_min_walk":40,"pop":10583,"hh":4808,"elderly65_r":0.2471,"single_hh_r":0.3426,"source_level":"emd","flood_years":[],"landslide_hist_n":0},"geometry":{"type":"Polygon","coordinates":[[[129.45404,35.55778],[129.45319,35.55395],[129.45739,35.5518],[129.46246,35.55348],[129.46332,35.55731],[129.45911,35.55946],[129.45404,35.55778]]]}},{"type":"Feature","properties":{"h3":"8830c12665fffff","emd_code":"3117060000","emd_name":"남목3동","area_km2":0.5425,"edge":false,"slope_mean":18.22,"elev_mean":113.9,"flood_hist_n":0,"flood_depth_max_m":null,"flood_risk_100y":null,"semi_basement_r":null,"elderly_alone_r":0.1321,"bldg_age30_r":null,"shelter_min_walk":18,"pop":10583,"hh":4808,"elderly65_r":0.2471,"single_hh_r":0.3426,"source_level":"emd","flood_years":[],"landslide_hist_n":0},"geometry":{"type":"Polygon","coordinates":[[[129.43884,35.55273],[129.43798,35.5489],[129.44219,35.54675],[129.44726,35.54843],[129.44812,35.55227],[129.44391,35.55442],[129.43884,35.55273]]]}},{"type":"Feature","properties":{"h3":"8830c12667fffff","emd_code":"3117060000","emd_name":"남목3동","area_km2":0.5426,"edge":false,"slope_mean":12.36,"elev_mean":44.2,"flood_hist_n":0,"flood_depth_max_m":null,"flood_risk_100y":null,"semi_basement_r":null,"elderly_alone_r":0.1321,"bldg_age30_r":null,"shelter_min_walk":29,"pop":10583,"hh":4808,"elderly65_r":0.2471,"single_hh_r":0.3426,"source_level":"emd","flood_years":[],"landslide_hist_n":0},"geometry":{"type":"Polygon","coordinates":[[[129.44812,35.55227],[129.44726,35.54843],[129.45147,35.54628],[129.45654,35.54796],[129.45739,35.5518],[129.45319,35.55395],[129.44812,35.55227]]]}},{"type":"Feature","properties":{"h3":"8830c12669fffff","emd_code":"3117060000","emd_name":"남목3동","area_km2":0.5423,"edge":false,"slope_mean":13.1,"elev_mean":111.9,"flood_hist_n":0,"flood_depth_max_m":null,"flood_risk_100y":null,"semi_basement_r":null,"elderly_alone_r":0.1321,"bldg_age30_r":null,"shelter_min_walk":34,"pop":10583,"hh":4808,"elderly65_r":0.2471,"single_hh_r":0.3426,"source_level":"emd","flood_years":[],"landslide_hist_n":0},"geometry":{"type":"Polygon","coordinates":[[[129.44142,35.56423],[129.44056,35.5604],[129.44477,35.55825],[129.44984,35.55993],[129.45069,35.56376],[129.44649,35.56591],[129.44142,35.56423]]]}},{"type":"Feature","properties":{"h3":"8830c1266bfffff","emd_code":"3117060000","emd_name":"남목3동","area_km2":0.5424,"edge":false,"slope_mean":5.9,"elev_mean":24.1,"flood_hist_n":0,"flood_depth_max_m":null,"flood_risk_100y":null,"semi_basement_r":null,"elderly_alone_r":0.1321,"bldg_age30_r":null,"shelter_min_walk":41,"pop":10583,"hh":4808,"elderly65_r":0.2471,"single_hh_r":0.3426,"source_level":"emd","flood_years":[],"landslide_hist_n":0},"geometry":{"type":"Polygon","coordinates":[[[129.45069,35.56376],[129.44984,35.55993],[129.45404,35.55778],[129.45911,35.55946],[129.45997,35.56329],[129.45576,35.56544],[129.45069,35.56376]]]}},{"type":"Feature","properties":{"h3":"8830c1266dfffff","emd_code":"3117060000","emd_name":"남목3동","area_km2":0.5424,"edge":false,"slope_mean":16.43,"elev_mean":146.3,"flood_hist_n":0,"flood_depth_max_m":null,"flood_risk_100y":null,"semi_basement_r":null,"elderly_alone_r":0.1321,"bldg_age30_r":null,"shelter_min_walk":22,"pop":10583,"hh":4808,"elderly65_r":0.2471,"single_hh_r":0.3426,"source_level":"emd","flood_years":[],"landslide_hist_n":0},"geometry":{"type":"Polygon","coordinates":[[[129.43549,35.55872],[129.43463,35.55488],[129.43884,35.55273],[129.44391,35.55442],[129.44477,35.55825],[129.44056,35.5604],[129.43549,35.55872]]]}},{"type":"Feature","properties":{"h3":"8830c12701fffff","emd_code":"3117059000","emd_name":"남목2동","area_km2":0.5429,"edge":false,"slope_mean":6.51,"elev_mean":19.8,"flood_hist_n":0,"flood_depth_max_m":null,"flood_risk_100y":null,"semi_basement_r":null,"elderly_alone_r":0.0683,"bldg_age30_r":null,"shelter_min_walk":1,"pop":26257,"hh":11150,"elderly65_r":0.1613,"single_hh_r":0.3144,"source_level":"emd","flood_years":[],"landslide_hist_n":0},"geometry":{"type":"Polygon","coordinates":[[[129.42776,35.52422],[129.4269,35.52039],[129.43111,35.51824],[129.43618,35.51992],[129.43704,35.52375],[129.43283,35.5259],[129.42776,35.52422]]]}},{"type":"Feature","properties":{"h3":"8830c12703fffff","emd_code":"3117059000","emd_name":"남목2동","area_km2":0.543,"edge":false,"slope_mean":3.77,"elev_mean":5.0,"flood_hist_n":0,"flood_depth_max_m":null,"flood_risk_100y":null,"semi_basement_r":null,"elderly_alone_r":0.0683,"bldg_age30_r":null,"shelter_min_walk":13,"pop":26257,"hh":11150,"elderly65_r":0.1613,"single_hh_r":0.3144,"source_level":"emd","flood_years":[],"landslide_hist_n":0},"geometry":{"type":"Polygon","coordinates":[[[129.43704,35.52375],[129.43618,35.51992],[129.44039,35.51777],[129.44545,35.51945],[129.44631,35.52328],[129.4421,35.52544],[129.43704,35.52375]]]}},{"type":"Feature","properties":{"h3":"8830c12705fffff","emd_code":"3117055000","emd_name":"전하1동","area_km2":0.543,"edge":false,"slope_mean":6.69,"elev_mean":42.3,"flood_hist_n":0,"flood_depth_max_m":null,"flood_risk_100y":null,"semi_basement_r":null,"elderly_alone_r":0.0875,"bldg_age30_r":null,"shelter_min_walk":1,"pop":15122,"hh":7306,"elderly65_r":0.2086,"single_hh_r":0.4218,"source_level":"emd","flood_years":[],"landslide_hist_n":0},"geometry":{"type":"Polygon","coordinates":[[[129.42183,35.5187],[129.42097,35.51487],[129.42518,35.51272],[129.43025,35.5144],[129.43111,35.51824],[129.4269,35.52039],[129.42183,35.5187]]]}},{"type":"Feature","properties":{"h3":"8830c12707fffff","emd_code":"3117055000","emd_name":"전하1동","area_km2":0.5431,"edge":false,"slope_mean":5.53,"elev_mean":8.9,"flood_hist_n":0,"flood_depth_max_m":null,"flood_risk_100y":null,"semi_basement_r":null,"elderly_alone_r":0.0875,"bldg_age30_r":null,"shelter_min_walk":7,"pop":15122,"hh":7306,"elderly65_r":0.2086,"single_hh_r":0.4218,"source_level":"emd","flood_years":[],"landslide_hist_n":0},"geometry":{"type":"Polygon","coordinates":[[[129.43111,35.51824],[129.43025,35.5144],[129.43446,35.51225],[129.43953,35.51393],[129.44039,35.51777],[129.43618,35.51992],[129.43111,35.51824]]]}},{"type":"Feature","properties":{"h3":"8830c12709fffff","emd_code":"3117059000","emd_name":"남목2동","area_km2":0.5428,"edge":false,"slope_mean":8.54,"elev_mean":33.3,"flood_hist_n":0,"flood_depth_max_m":null,"flood_risk_100y":null,"semi_basement_r":null,"elderly_alone_r":0.0683,"bldg_age30_r":null,"shelter_min_walk":6,"pop":26257,"hh":11150,"elderly65_r":0.1613,"single_hh_r":0.3144,"source_level":"emd","flood_years":[],"landslide_hist_n":0},"geometry":{"type":"Polygon","coordinates":[[[129.42441,35.53021],[129.42355,35.52637],[129.42776,35.52422],[129.43283,35.5259],[129.43369,35.52974],[129.42948,35.53189],[129.42441,35.53021]]]}},{"type":"Feature","properties":{"h3":"8830c1270bfffff","emd_code":"3117059000","emd_name":"남목2동","area_km2":0.5429,"edge":false,"slope_mean":4.13,"elev_mean":5.4,"flood_hist_n":0,"flood_depth_max_m":null,"flood_risk_100y":null,"semi_basement_r":null,"elderly_alone_r":0.0683,"bldg_age30_r":null,"shelter_min_walk":7,"pop":26257,"hh":11150,"elderly65_r":0.1613,"single_hh_r":0.3144,"source_level":"emd","flood_years":[],"landslide_hist_n":0},"geometry":{"type":"Polygon","coordinates":[[[129.43369,35.52974],[129.43283,35.5259],[129.43704,35.52375],[129.4421,35.52544],[129.44296,35.52927],[129.43875,35.53142],[129.43369,35.52974]]]}},{"type":"Feature","properties":{"h3":"8830c1270dfffff","emd_code":"3117059000","emd_name":"남목2동","area_km2":0.5429,"edge":false,"slope_mean":10.1,"elev_mean":53.2,"flood_hist_n":0,"flood_depth_max_m":null,"flood_risk_100y":null,"semi_basement_r":null,"elderly_alone_r":0.0683,"bldg_age30_r":null,"shelter_min_walk":4,"pop":26257,"hh":11150,"elderly65_r":0.1613,"single_hh_r":0.3144,"source_level":"emd","flood_years":[],"landslide_hist_n":0},"geometry":{"type":"Polygon","coordinates":[[[129.41848,35.52469],[129.41762,35.52086],[129.42183,35.5187],[129.4269,35.52039],[129.42776,35.52422],[129.42355,35.52637],[129.41848,35.52469]]]}},{"type":"Feature","properties":{"h3":"8830c12715fffff","emd_code":"3117059000","emd_name":"남목2동","area_km2":0.543,"edge":true,"slope_mean":1.3,"elev_mean":1.7,"flood_hist_n":0,"flood_depth_max_m":null,"flood_risk_100y":null,"semi_basement_r":null,"elderly_alone_r":0.0683,"bldg_age30_r":null,"shelter_min_walk":26,"pop":26257,"hh":11150,"elderly65_r":0.1613,"single_hh_r":0.3144,"source_level":"emd","flood_years":[],"landslide_hist_n":0},"geometry":{"type":"Polygon","coordinates":[[[129.44631,35.52328],[129.44545,35.51945],[129.44966,35.5173],[129.45473,35.51898],[129.45559,35.52281],[129.45138,35.52497],[129.44631,35.52328]]]}},{"type":"Feature","properties":{"h3":"8830c12719fffff","emd_code":"3117060000","emd_name":"남목3동","area_km2":0.5429,"edge":true,"slope_mean":2.72,"elev_mean":2.3,"flood_hist_n":0,"flood_depth_max_m":null,"flood_risk_100y":null,"semi_basement_r":null,"elderly_alone_r":0.1321,"bldg_age30_r":null,"shelter_min_walk":28,"pop":10583,"hh":4808,"elderly65_r":0.2471,"single_hh_r":0.3426,"source_level":"emd","flood_years":[],"landslide_hist_n":0},"geometry":{"type":"Polygon","coordinates":[[[129.44889,35.53478],[129.44803,35.53095],[129.45224,35.5288],[129.45731,35.53048],[129.45817,35.53431],[129.45396,35.53647],[129.44889,35.53478]]]}},{"type":"Feature","properties":{"h3":"8830c1271dfffff","emd_code":"3117059000","emd_name":"남목2동","area_km2":0.5429,"edge":false,"slope_mean":1.79,"elev_mean":1.6,"flood_hist_n":0,"flood_depth_max_m":null,"flood_risk_100y":null,"semi_basement_r":null,"elderly_alone_r":0.0683,"bldg_age30_r":null,"shelter_min_walk":20,"pop":26257,"hh":11150,"elderly65_r":0.1613,"single_hh_r":0.3144,"source_level":"emd","flood_years":[],"landslide_hist_n":0},"geometry":{"type":"Polygon","coordinates":[[[129.44296,35.52927],[129.4421,35.52544],[129.44631,35.52328],[129.45138,35.52497],[129.45224,35.5288],[129.44803,35.53095],[129.44296,35.52927]]]}},{"type":"Feature","properties":{"h3":"8830c12721fffff","emd_code":"3117054000","emd_name":"대송동","area_km2":0.5432,"edge":false,"slope_mean":5.27,"elev_mean":35.5,"flood_hist_n":0,"flood_depth_max_m":null,"flood_risk_100y":null,"semi_basement_r":null,"elderly_alone_r":0.1131,"bldg_age30_r":null,"shelter_min_walk":4,"pop":10266,"hh":5075,"elderly65_r":0.2178,"single_hh_r":0.4242,"source_level":"emd","flood_years":[],"landslide_hist_n":0},"geometry":{"type":"Polygon","coordinates":[[[129.41926,35.5072],[129.4184,35.50336],[129.42261,35.50121],[129.42767,35.5029],[129.42853,35.50673],[129.42432,35.50888],[129.41926,35.5072]]]}},{"type":"Feature","properties":{"h3":"8830c12723fffff","emd_code":"3117052000","emd_name":"일산동","area_km2":0.5432,"edge":false,"slope_mean":4.81,"elev_mean":12.0,"flood_hist_n":0,"flood_depth_max_m":null,"flood_risk_100y":null,"semi_basement_r":null,"elderly_alone_r":0.1597,"bldg_age30_r":null,"shelter_min_walk":6,"pop":5069,"hh":2931,"elderly65_r":0.3166,"single_hh_r":0.5575,"source_level":"emd","flood_years":[],"landslide_hist_n":0},"geometry":{"type":"Polygon","coordinates":[[[129.42853,35.50673],[129.42767,35.5029],[129.43188,35.50074],[129.43695,35.50243],[129.43781,35.50626],[129.4336,35.50841],[129.42853,35.50673]]]}},{"type":"Feature","properties":{"h3":"8830c12725fffff","emd_code":"3117054000","emd_name":"대송동","area_km2":0.5433,"edge":false,"slope_mean":8.51,"elev_mean":51.3,"flood_hist_n":0,"flood_depth_max_m":null,"flood_risk_100y":null,"semi_basement_r":null,"elderly_alone_r":0.1131,"bldg_age30_r":null,"shelter_min_walk":1,"pop":10266,"hh":5075,"elderly65_r":0.2178,"single_hh_r":0.4242,"source_level":"emd","flood_years":[],"landslide_hist_n":0},"geometry":{"type":"Polygon","coordinates":[[[129.41333,35.50168],[129.41247,35.49784],[129.41668,35.49569],[129.42175,35.49738],[129.42261,35.50121],[129.4184,35.50336],[129.41333,35.50168]]]}},{"type":"Feature","properties":{"h3":"8830c12727fffff","emd_code":"3117052000","emd_name":"일산동","area_km2":0.5433,"edge":false,"slope_mean":4.2,"elev_mean":19.4,"flood_hist_n":0,"flood_depth_max_m":null,"flood_risk_100y":null,"semi_basement_r":null,"elderly_alone_r":0.1597,"bldg_age30_r":null,"shelter_min_walk":1,"pop":5069,"hh":2931,"elderly65_r":0.3166,"single_hh_r":0.5575,"source_level":"emd","flood_years":[],"landslide_hist_n":0},"geometry":{"type":"Polygon","coordinates":[[[129.42261,35.50121],[129.42175,35.49738],[129.42596,35.49522],[129.43102,35.49691],[129.43188,35.50074],[129.42767,35.5029],[129.42261,35.50121]]]}},{"type":"Feature","properties":{"h3":"8830c12729fffff","emd_code":"3117056000","emd_name":"전하2동","area_km2":0.5431,"edge":false,"slope_mean":8.47,"elev_mean":67.1,"flood_hist_n":0,"flood_depth_max_m":null,"flood_risk_100y":null,"semi_basement_r":null,"elderly_alone_r":0.0893,"bldg_age30_r":null,"shelter_min_walk":4,"pop":18697,"hh":7623,"elderly65_r":0.1995,"single_hh_r":0.2754,"source_level":"emd","flood_years":[],"landslide_hist_n":0},"geometry":{"type":"Polygon","coordinates":[[[129.41591,35.51319],[129.41505,35.50935],[129.41926,35.5072],[129.42432,35.50888],[129.42518,35.51272],[129.42097,35.51487],[129.41591,35.51319]]]}},{"type":"Feature","properties":{"h3":"8830c1272bfffff","emd_code":"3117056000","emd_name":"전하2동","area_km2":0.5431,"edge":false,"slope_mean":4.97,"elev_mean":21.0,"flood_hist_n":0,"flood_depth_max_m":null,"flood_risk_100y":null,"semi_basement_r":null,"elderly_alone_r":0.0893,"bldg_age30_r":null,"shelter_min_walk":1,"pop":18697,"hh":7623,"elderly65_r":0.1995,"single_hh_r":0.2754,"source_level":"emd","flood_years":[],"landslide_hist_n":0},"geometry":{"type":"Polygon","coordinates":[[[129.42518,35.51272],[129.42432,35.50888],[129.42853,35.50673],[129.4336,35.50841],[129.43446,35.51225],[129.43025,35.5144],[129.42518,35.51272]]]}},{"type":"Feature","properties":{"h3":"8830c1272dfffff","emd_code":"3117054000","emd_name":"대송동","area_km2":0.5431,"edge":false,"slope_mean":12.56,"elev_mean":80.4,"flood_hist_n":0,"flood_depth_max_m":null,"flood_risk_100y":null,"semi_basement_r":null,"elderly_alone_r":0.1131,"bldg_age30_r":null,"shelter_min_walk":4,"pop":10266,"hh":5075,"elderly65_r":0.2178,"single_hh_r":0.4242,"source_level":"emd","flood_years":[],"landslide_hist_n":0},"geometry":{"type":"Polygon","coordinates":[[[129.40998,35.50767],[129.40912,35.50383],[129.41333,35.50168],[129.4184,35.50336],[129.41926,35.5072],[129.41505,35.50935],[129.40998,35.50767]]]}},{"type":"Feature","properties":{"h3":"8830c12731fffff","emd_code":"3117055000","emd_name":"전하1동","area_km2":0.5432,"edge":true,"slope_mean":0.9,"elev_mean":1.1,"flood_hist_n":0,"flood_depth_max_m":null,"flood_risk_100y":null,"semi_basement_r":null,"elderly_alone_r":0.0875,"bldg_age30_r":null,"shelter_min_walk":24,"pop":15122,"hh":7306,"elderly65_r":0.2086,"single_hh_r":0.4218,"source_level":"emd","flood_years":[],"landslide_hist_n":0},"geometry":{"type":"Polygon","coordinates":[[[129.44374,35.51178],[129.44288,35.50795],[129.44708,35.50579],[129.45215,35.50747],[129.45301,35.51131],[129.4488,35.51346],[129.44374,35.51178]]]}},{"type":"Feature","properties":{"h3":"8830c12735fffff","emd_code":"3117052000","emd_name":"일산동","area_km2":0.5433,"edge":false,"slope_mean":3.44,"elev_mean":6.2,"flood_hist_n":0,"flood_depth_max_m":null,"flood_risk_100y":null,"semi_basement_r":null,"elderly_alone_r":0.1597,"bldg_age30_r":null,"shelter_min_walk":17,"pop":5069,"hh":2931,"elderly65_r":0.3166,"single_hh_r":0.5575,"source_level":"emd","flood_years":[],"landslide_hist_n":0},"geometry":{"type":"Polygon","coordinates":[[[129.43781,35.50626],[129.43695,35.50243],[129.44116,35.50027],[129.44623,35.50196],[129.44708,35.50579],[129.44288,35.50795],[129.43781,35.50626]]]}},{"type":"Feature","properties":{"h3":"8830c12739fffff","emd_code":"3117055000","emd_name":"전하1동","area_km2":0.5431,"edge":false,"slope_mean":4.12,"elev_mean":5.6,"flood_hist_n":0,"flood_depth_max_m":null,"flood_risk_100y":null,"semi_basement_r":null,"elderly_alone_r":0.0875,"bldg_age30_r":null,"shelter_min_walk":20,"pop":15122,"hh":7306,"elderly65_r":0.2086,"single_hh_r":0.4218,"source_level":"emd","flood_years":[],"landslide_hist_n":0},"geometry":{"type":"Polygon","coordinates":[[[129.44039,35.51777],[129.43953,35.51393],[129.44374,35.51178],[129.4488,35.51346],[129.44966,35.5173],[129.44545,35.51945],[129.44039,35.51777]]]}},{"type":"Feature","properties":{"h3":"8830c1273dfffff","emd_code":"3117055000","emd_name":"전하1동","area_km2":0.5432,"edge":true,"slope_mean":2.83,"elev_mean":2.8,"flood_hist_n":0,"flood_depth_max_m":null,"flood_risk_100y":null,"semi_basement_r":null,"elderly_alone_r":0.0875,"bldg_age30_r":null,"shelter_min_walk":11,"pop":15122,"hh":7306,"elderly65_r":0.2086,"single_hh_r":0.4218,"source_level":"emd","flood_years":[],"landslide_hist_n":0},"geometry":{"type":"Polygon","coordinates":[[[129.43446,35.51225],[129.4336,35.50841],[129.43781,35.50626],[129.44288,35.50795],[129.44374,35.51178],[129.43953,35.51393],[129.43446,35.51225]]]}},{"type":"Feature","properties":{"h3":"8830c12741fffff","emd_code":"3117058000","emd_name":"남목1동","area_km2":0.5427,"edge":false,"slope_mean":14.21,"elev_mean":65.9,"flood_hist_n":0,"flood_depth_max_m":null,"flood_risk_100y":null,"semi_basement_r":null,"elderly_alone_r":0.1587,"bldg_age30_r":null,"shelter_min_walk":12,"pop":7791,"hh":3566,"elderly65_r":0.2852,"single_hh_r":0.3592,"source_level":"emd","flood_years":[],"landslide_hist_n":0},"geometry":{"type":"Polygon","coordinates":[[[129.41178,35.53666],[129.41093,35.53282],[129.41513,35.53067],[129.4202,35.53236],[129.42106,35.53619],[129.41685,35.53834],[129.41178,35.53666]]]}},{"type":"Feature","properties":{"h3":"8830c12743fffff","emd_code":"3117059000","emd_name":"남목2동","area_km2":0.5427,"edge":false,"slope_mean":12.7,"elev_mean":53.4,"flood_hist_n":0,"flood_depth_max_m":null,"flood_risk_100y":null,"semi_basement_r":null,"elderly_alone_r":0.0683,"bldg_age30_r":null,"shelter_min_walk":8,"pop":26257,"hh":11150,"elderly65_r":0.1613,"single_hh_r":0.3144,"source_level":"emd","flood_years":[],"landslide_hist_n":0},"geometry":{"type":"Polygon","coordinates":[[[129.42106,35.53619],[129.4202,35.53236],[129.42441,35.53021],[129.42948,35.53189],[129.43034,35.53572],[129.42613,35.53787],[129.42106,35.53619]]]}},{"type":"Feature","properties":{"h3":"8830c12745fffff","emd_code":"3117059000","emd_name":"남목2동","area_km2":0.5427,"edge":false,"slope_mean":15.7,"elev_mean":90.6,"flood_hist_n":0,"flood_depth_max_m":null,"flood_risk_100y":null,"semi_basement_r":null,"elderly_alone_r":0.0683,"bldg_age30_r":null,"shelter_min_walk":21,"pop":26257,"hh":11150,"elderly65_r":0.1613,"single_hh_r":0.3144,"source_level":"emd","flood_years":[],"landslide_hist_n":0},"geometry":{"type":"Polygon","coordinates":[[[129.40586,35.53114],[129.405,35.52731],[129.40921,35.52516],[129.41428,35.52684],[129.41513,35.53067],[129.41093,35.53282],[129.40586,35.53114]]]}},{"type":"Feature","properties":{"h3":"8830c12747fffff","emd_code":"3117059000","emd_name":"남목2동","area_km2":0.5428,"edge":false,"slope_mean":13.77,"elev_mean":88.4,"flood_hist_n":0,"flood_depth_max_m":null,"flood_risk_100y":null,"semi_basement_r":null,"elderly_alone_r":0.0683,"bldg_age30_r":null,"shelter_min_walk":10,"pop":26257,"hh":11150,"elderly65_r":0.1613,"single_hh_r":0.3144,"source_level":"emd","flood_years":[],"landslide_hist_n":0},"geometry":{"type":"Polygon","coordinates":[[[129.41513,35.53067],[129.41428,35.52684],[129.41848,35.52469],[129.42355,35.52637],[129.42441,35.53021],[129.4202,35.53236],[129.41513,35.53067]]]}},{"type":"Feature","properties":{"h3":"8830c12749fffff","emd_code":"3117058000","emd_name":"남목1동","area_km2":0.5425,"edge":false,"slope_mean":18.25,"elev_mean":175.9,"flood_hist_n":0,"flood_depth_max_m":null,"flood_risk_100y":null,"semi_basement_r":null,"elderly_alone_r":0.1587,"bldg_age30_r":null,"shelter_min_walk":12,"pop":7791,"hh":3566,"elderly65_r":0.2852,"single_hh_r":0.3592,"source_level":"emd","flood_years":[],"landslide_hist_n":0},"geometry":{"type":"Polygon","coordinates":[[[129.40843,35.54264],[129.40758,35.53881],[129.41178,35.53666],[129.41685,35.53834],[129.41771,35.54217],[129.4135,35.54432],[129.40843,35.54264]]]}},{"type":"Feature","properties":{"h3":"8830c1274bfffff","emd_code":"3117058000","emd_name":"남목1동","area_km2":0.5426,"edge":false,"slope_mean":11.27,"elev_mean":40.8,"flood_hist_n":0,"flood_depth_max_m":null,"flood_risk_100y":null,"semi_basement_r":null,"elderly_alone_r":0.1587,"bldg_age30_r":null,"shelter_min_walk":1,"pop":7791,"hh":3566,"elderly65_r":0.2852,"single_hh_r":0.3592,"source_level":"emd","flood_years":[],"landslide_hist_n":0},"geometry":{"type":"Polygon","coordinates":[[[129.41771,35.54217],[129.41685,35.53834],[129.42106,35.53619],[129.42613,35.53787],[129.42699,35.54171],[129.42278,35.54386],[129.41771,35.54217]]]}},{"type":"Feature","properties":{"h3":"8830c1274dfffff","emd_code":"3117058000","emd_name":"남목1동","area_km2":0.5426,"edge":false,"slope_mean":19.53,"elev_mean":165.9,"flood_hist_n":0,"flood_depth_max_m":null,"flood_risk_100y":null,"semi_basement_r":null,"elderly_alone_r":0.1587,"bldg_age30_r":null,"shelter_min_walk":20,"pop":7791,"hh":3566,"elderly65_r":0.2852,"single_hh_r":0.3592,"source_level":"emd","flood_years":[],"landslide_hist_n":0},"geometry":{"type":"Polygon","coordinates":[[[129.40251,35.53712],[129.40165,35.53329],[129.40586,35.53114],[129.41093,35.53282],[129.41178,35.53666],[129.40758,35.53881],[129.40251,35.53712]]]}},{"type":"Feature","properties":{"h3":"8830c12751fffff","emd_code":"3117060000","emd_name":"남목3동","area_km2":0.5427,"edge":false,"slope_mean":14.15,"elev_mean":91.2,"flood_hist_n":0,"flood_depth_max_m":null,"flood_risk_100y":null,"semi_basement_r":null,"elderly_alone_r":0.1321,"bldg_age30_r":null,"shelter_min_walk":15,"pop":10583,"hh":4808,"elderly65_r":0.2471,"single_hh_r":0.3426,"source_level":"emd","flood_years":[],"landslide_hist_n":0},"geometry":{"type":"Polygon","coordinates":[[[129.43626,35.54124],[129.4354,35.5374],[129.43961,35.53525],[129.44468,35.53694],[129.44554,35.54077],[129.44133,35.54292],[129.43626,35.54124]]]}},{"type":"Feature","properties":{"h3":"8830c12753fffff","emd_code":"3117060000","emd_name":"남목3동","area_km2":0.5427,"edge":false,"slope_mean":8.69,"elev_mean":26.3,"flood_hist_n":0,"flood_depth_max_m":null,"flood_risk_100y":null,"semi_basement_r":null,"elderly_alone_r":0.1321,"bldg_age30_r":null,"shelter_min_walk":26,"pop":10583,"hh":4808,"elderly65_r":0.2471,"single_hh_r":0.3426,"source_level":"emd","flood_years":[],"landslide_hist_n":0},"geometry":{"type":"Polygon","coordinates":[[[129.44554,35.54077],[129.44468,35.53694],[129.44889,35.53478],[129.45396,35.53647],[129.45482,35.5403],[129.45061,35.54245],[129.44554,35.54077]]]}},{"type":"Feature","properties":{"h3":"8830c12755fffff","emd_code":"3117060000","emd_name":"남목3동","area_km2":0.5428,"edge":false,"slope_mean":10.42,"elev_mean":24.1,"flood_hist_n":0,"flood_depth_max_m":null,"flood_risk_100y":null,"semi_basement_r":null,"elderly_alone_r":0.1321,"bldg_age30_r":null,"shelter_min_walk":5,"pop":10583,"hh":4808,"elderly65_r":0.2471,"single_hh_r":0.3426,"source_level":"emd","flood_years":[],"landslide_hist_n":0},"geometry":{"type":"Polygon","coordinates":[[[129.43034,35.53572],[129.42948,35.53189],[129.43369,35.52974],[129.43875,35.53142],[129.43961,35.53525],[129.4354,35.5374],[129.43034,35.53572]]]}},{"type":"Feature","properties":{"h3":"8830c12757fffff","emd_code":"3117060000","emd_name":"남목3동","area_km2":0.5428,"edge":false,"slope_mean":9.19,"elev_mean":20.9,"flood_hist_n":0,"flood_depth_max_m":null,"flood_risk_100y":null,"semi_basement_r":null,"elderly_alone_r":0.1321,"bldg_age30_r":null,"shelter_min_walk":16,"pop":10583,"hh":4808,"elderly65_r":0.2471,"single_hh_r":0.3426,"source_level":"emd","flood_years":[],"landslide_hist_n":0},"geometry":{"type":"Polygon","coordinates":[[[129.43961,35.53525],[129.43875,35.53142],[129.44296,35.52927],[129.44803,35.53095],[129.44889,35.53478],[129.44468,35.53694],[129.43961,35.53525]]]}},{"type":"Feature","properties":{"h3":"8830c12759fffff","emd_code":"3117060000","emd_name":"남목3동","area_km2":0.5426,"edge":false,"slope_mean":15.38,"elev_mean":111.6,"flood_hist_n":0,"flood_depth_max_m":null,"flood_risk_100y":null,"semi_basement_r":null,"elderly_alone_r":0.1321,"bldg_age30_r":null,"shelter_min_walk":7,"pop":10583,"hh":4808,"elderly65_r":0.2471,"single_hh_r":0.3426,"source_level":"emd","flood_years":[],"landslide_hist_n":0},"geometry":{"type":"Polygon","coordinates":[[[129.43291,35.54722],[129.43205,35.54339],[129.43626,35.54124],[129.44133,35.54292],[129.44219,35.54675],[129.43798,35.5489],[129.43291,35.54722]]]}},{"type":"Feature","properties":{"h3":"8830c1275bfffff","emd_code":"3117060000","emd_name":"남목3동","area_km2":0.5426,"edge":false,"slope_mean":16.59,"elev_mean":121.7,"flood_hist_n":0,"flood_depth_max_m":null,"flood_risk_100y":null,"semi_basement_r":null,"elderly_alone_r":0.1321,"bldg_age30_r":null,"shelter_min_walk":20,"pop":10583,"hh":4808,"elderly65_r":0.2471,"single_hh_r":0.3426,"source_level":"emd","flood_years":[],"landslide_hist_n":0},"geometry":{"type":"Polygon","coordinates":[[[129.44219,35.54675],[129.44133,35.54292],[129.44554,35.54077],[129.45061,35.54245],[129.45147,35.54628],[129.44726,35.54843],[129.44219,35.54675]]]}},{"type":"Feature","properties":{"h3":"8830c1275dfffff","emd_code":"3117060000","emd_name":"남목3동","area_km2":0.5426,"edge":false,"slope_mean":11.26,"elev_mean":37.1,"flood_hist_n":0,"flood_depth_max_m":null,"flood_risk_100y":null,"semi_basement_r":null,"elderly_alone_r":0.1321,"bldg_age30_r":null,"shelter_min_walk":4,"pop":10583,"hh":4808,"elderly65_r":0.2471,"single_hh_r":0.3426,"source_level":"emd","flood_years":[],"landslide_hist_n":0},"geometry":{"type":"Polygon","coordinates":[[[129.42699,35.54171],[129.42613,35.53787],[129.43034,35.53572],[129.4354,35.5374],[129.43626,35.54124],[129.43205,35.54339],[129.42699,35.54171]]]}},{"type":"Feature","properties":{"h3":"8830c12761fffff","emd_code":"3117051000","emd_name":"방어동","area_km2":0.5429,"edge":true,"slope_mean":15.0,"elev_mean":146.5,"flood_hist_n":0,"flood_depth_max_m":null,"flood_risk_100y":null,"semi_basement_r":null,"elderly_alone_r":0.1153,"bldg_age30_r":null,"shelter_min_walk":23,"pop":36355,"hh":17967,"elderly65_r":0.2018,"single_hh_r":0.4497,"source_level":"emd","flood_years":[],"landslide_hist_n":0},"geometry":{"type":"Polygon","coordinates":[[[129.40328,35.51964],[129.40242,35.5158],[129.40663,35.51365],[129.4117,35.51534],[129.41256,35.51917],[129.40835,35.52132],[129.40328,35.51964]]]}},{"type":"Feature","properties":{"h3":"8830c12763fffff","emd_code":"3117055000","emd_name":"전하1동","area_km2":0.543,"edge":false,"slope_mean":11.2,"elev_mean":91.8,"flood_hist_n":0,"flood_depth_max_m":null,"flood_risk_100y":null,"semi_basement_r":null,"elderly_alone_r":0.0875,"bldg_age30_r":null,"shelter_min_walk":11,"pop":15122,"hh":7306,"elderly65_r":0.2086,"single_hh_r":0.4218,"source_level":"emd","flood_years":[],"landslide_hist_n":0},"geometry":{"type":"Polygon","coordinates":[[[129.41256,35.51917],[129.4117,35.51534],[129.41591,35.51319],[129.42097,35.51487],[129.42183,35.5187],[129.41762,35.52086],[129.41256,35.51917]]]}},{"type":"Feature","properties":{"h3":"8830c12765fffff","emd_code":"3117051000","emd_name":"방어동","area_km2":0.543,"edge":false,"slope_mean":12.66,"elev_mean":44.6,"flood_hist_n":0,"flood_depth_max_m":null,"flood_risk_100y":null,"semi_basement_r":null,"elderly_alone_r":0.1153,"bldg_age30_r":null,"shelter_min_walk":24,"pop":36355,"hh":17967,"elderly65_r":0.2018,"single_hh_r":0.4497,"source_level":"emd","flood_years":[],"landslide_hist_n":0},"geometry":{"type":"Polygon","coordinates":[[[129.39736,35.51412],[129.3965,35.51029],[129.40071,35.50813],[129.40577,35.50982],[129.40663,35.51365],[129.40242,35.5158],[129.39736,35.51412]]]}},{"type":"Feature","properties":{"h3":"8830c12767fffff","emd_code":"3117054000","emd_name":"대송동","area_km2":0.543,"edge":false,"slope_mean":14.47,"elev_mean":111.4,"flood_hist_n":0,"flood_depth_max_m":null,"flood_risk_100y":null,"semi_basement_r":null,"elderly_alone_r":0.1131,"bldg_age30_r":null,"shelter_min_walk":14,"pop":10266,"hh":5075,"elderly65_r":0.2178,"single_hh_r":0.4242,"source_level":"emd","flood_years":[],"landslide_hist_n":0},"geometry":{"type":"Polygon","coordinates":[[[129.40663,35.51365],[129.40577,35.50982],[129.40998,35.50767],[129.41505,35.50935],[129.41591,35.51319],[129.4117,35.51534],[129.40663,35.51365]]]}},{"type":"Feature","properties":{"h3":"8830c12769fffff","emd_code":"3117051000","emd_name":"방어동","area_km2":0.5428,"edge":true,"slope_mean":17.67,"elev_mean":91.4,"flood_hist_n":0,"flood_depth_max_m":null,"flood_risk_100y":null,"semi_basement_r":null,"elderly_alone_r":0.1153,"bldg_age30_r":null,"shelter_min_walk":21,"pop":36355,"hh":17967,"elderly65_r":0.2018,"single_hh_r":0.4497,"source_level":"emd","flood_years":[],"landslide_hist_n":0},"geometry":{"type":"Polygon","coordinates":[[[129.39993,35.52562],[129.39907,35.52179],[129.40328,35.51964],[129.40835,35.52132],[129.40921,35.52516],[129.405,35.52731],[129.39993,35.52562]]]}},{"type":"Feature","properties":{"h3":"8830c1276bfffff","emd_code":"3117059000","emd_name":"남목2동","area_km2":0.5428,"edge":false,"slope_mean":14.26,"elev_mean":122.9,"flood_hist_n":0,"flood_depth_max_m":null,"flood_risk_100y":null,"semi_basement_r":null,"elderly_alone_r":0.0683,"bldg_age30_r":null,"shelter_min_walk":16,"pop":26257,"hh":11150,"elderly65_r":0.1613,"single_hh_r":0.3144,"source_level":"emd","flood_years":[],"landslide_hist_n":0},"geometry":{"type":"Polygon","coordinates":[[[129.40921,35.52516],[129.40835,35.52132],[129.41256,35.51917],[129.41762,35.52086],[129.41848,35.52469],[129.41428,35.52684],[129.40921,35.52516]]]}},{"type":"Feature","properties":{"h3":"8830c1276dfffff","emd_code":"3117051000","emd_name":"방어동","area_km2":0.5429,"edge":false,"slope_mean":12.89,"elev_mean":45.2,"flood_hist_n":0,"flood_depth_max_m":null,"flood_risk_100y":null,"semi_basement_r":null,"elderly_alone_r":0.1153,"bldg_age30_r":null,"shelter_min_walk":24,"pop":36355,"hh":17967,"elderly65_r":0.2018,"single_hh_r":0.4497,"source_level":"emd","flood_years":[],"landslide_hist_n":0},"geometry":{"type":"Polygon","coordinates":[[[129.39401,35.52011],[129.39315,35.51627],[129.39736,35.51412],[129.40242,35.5158],[129.40328,35.51964],[129.39907,35.52179],[129.39401,35.52011]]]}},{"type":"Feature","properties":{"h3":"8830c13583fffff","emd_code":"3117060000","emd_name":"남목3동","area_km2":0.5422,"edge":true,"slope_mean":19.06,"elev_mean":239.7,"flood_hist_n":0,"flood_depth_max_m":null,"flood_risk_100y":null,"semi_basement_r":null,"elderly_alone_r":0.1321,"bldg_age30_r":null,"shelter_min_walk":30,"pop":10583,"hh":4808,"elderly65_r":0.2471,"single_hh_r":0.3426,"source_level":"emd","flood_years":[],"landslide_hist_n":0},"geometry":{"type":"Polygon","coordinates":[[[129.41359,35.56563],[129.41273,35.5618],[129.41694,35.55965],[129.422,35.56133],[129.42286,35.56516],[129.41865,35.56731],[129.41359,35.56563]]]}},{"type":"Feature","properties":{"h3":"8830c13587fffff","emd_code":"3117060000","emd_name":"남목3동","area_km2":0.5422,"edge":true,"slope_mean":17.79,"elev_mean":257.1,"flood_hist_n":0,"flood_depth_max_m":null,"flood_risk_100y":null,"semi_basement_r":null,"elderly_alone_r":0.1321,"bldg_age30_r":null,"shelter_min_walk":26,"pop":10583,"hh":4808,"elderly65_r":0.2471,"single_hh_r":0.3426,"source_level":"emd","flood_years":[],"landslide_hist_n":0},"geometry":{"type":"Polygon","coordinates":[[[129.40766,35.56012],[129.4068,35.55628],[129.41101,35.55414],[129.41608,35.55582],[129.41694,35.55965],[129.41273,35.5618],[129.40766,35.56012]]]}},{"type":"Feature","properties":{"h3":"8830c13591fffff","emd_code":"3117060000","emd_name":"남목3동","area_km2":0.5422,"edge":true,"slope_mean":18.67,"elev_mean":142.6,"flood_hist_n":0,"flood_depth_max_m":null,"flood_risk_100y":null,"semi_basement_r":null,"elderly_alone_r":0.1321,"bldg_age30_r":null,"shelter_min_walk":38,"pop":10583,"hh":4808,"elderly65_r":0.2471,"single_hh_r":0.3426,"source_level":"emd","flood_years":[],"landslide_hist_n":0},"geometry":{"type":"Polygon","coordinates":[[[129.42879,35.57068],[129.42793,35.56684],[129.43214,35.5647],[129.43721,35.56638],[129.43807,35.57021],[129.43386,35.57236],[129.42879,35.57068]]]}},{"type":"Feature","properties":{"h3":"8830c13593fffff","emd_code":"3117060000","emd_name":"남목3동","area_km2":0.5422,"edge":true,"slope_mean":18.2,"elev_mean":94.0,"flood_hist_n":0,"flood_depth_max_m":null,"flood_risk_100y":null,"semi_basement_r":null,"elderly_alone_r":0.1321,"bldg_age30_r":null,"shelter_min_walk":40,"pop":10583,"hh":4808,"elderly65_r":0.2471,"single_hh_r":0.3426,"source_level":"emd","flood_years":[],"landslide_hist_n":0},"geometry":{"type":"Polygon","coordinates":[[[129.43807,35.57021],[129.43721,35.56638],[129.44142,35.56423],[129.44649,35.56591],[129.44734,35.56974],[129.44314,35.57189],[129.43807,35.57021]]]}},{"type":"Feature","properties":{"h3":"8830c13595fffff","emd_code":"3117060000","emd_name":"남목3동","area_km2":0.5422,"edge":false,"slope_mean":15.21,"elev_mean":166.8,"flood_hist_n":0,"flood_depth_max_m":null,"flood_risk_100y":null,"semi_basement_r":null,"elderly_alone_r":0.1321,"bldg_age30_r":null,"shelter_min_walk":28,"pop":10583,"hh":4808,"elderly65_r":0.2471,"single_hh_r":0.3426,"source_level":"emd","flood_years":[],"landslide_hist_n":0},"geometry":{"type":"Polygon","coordinates":[[[129.42286,35.56516],[129.422,35.56133],[129.42621,35.55918],[129.43128,35.56086],[129.43214,35.5647],[129.42793,35.56684],[129.42286,35.56516]]]}},{"type":"Feature","properties":{"h3":"8830c13597fffff","emd_code":"3117060000","emd_name":"남목3동","area_km2":0.5423,"edge":false,"slope_mean":16.23,"elev_mean":176.6,"flood_hist_n":0,"flood_depth_max_m":null,"flood_risk_100y":null,"semi_basement_r":null,"elderly_alone_r":0.1321,"bldg_age30_r":null,"shelter_min_walk":29,"pop":10583,"hh":4808,"elderly65_r":0.2471,"single_hh_r":0.3426,"source_level":"emd","flood_years":[],"landslide_hist_n":0},"geometry":{"type":"Polygon","coordinates":[[[129.43214,35.5647],[129.43128,35.56086],[129.43549,35.55872],[129.44056,35.5604],[129.44142,35.56423],[129.43721,35.56638],[129.43214,35.5647]]]}},{"type":"Feature","properties":{"h3":"8830c135a3fffff","emd_code":"3117060000","emd_name":"남목3동","area_km2":0.5424,"edge":false,"slope_mean":16.02,"elev_mean":231.1,"flood_hist_n":0,"flood_depth_max_m":null,"flood_risk_100y":null,"semi_basement_r":null,"elderly_alone_r":0.1321,"bldg_age30_r":null,"shelter_min_walk":20,"pop":10583,"hh":4808,"elderly65_r":0.2471,"single_hh_r":0.3426,"source_level":"emd","flood_years":[],"landslide_hist_n":0},"geometry":{"type":"Polygon","coordinates":[[[129.40508,35.54862],[129.40423,35.54479],[129.40843,35.54264],[129.4135,35.54432],[129.41436,35.54815],[129.41015,35.5503],[129.40508,35.54862]]]}},{"type":"Feature","properties":{"h3":"8830c135a7fffff","emd_code":"3117058000","emd_name":"남목1동","area_km2":0.5425,"edge":true,"slope_mean":18.77,"elev_mean":201.6,"flood_hist_n":0,"flood_depth_max_m":null,"flood_risk_100y":null,"semi_basement_r":null,"elderly_alone_r":0.1587,"bldg_age30_r":null,"shelter_min_walk":21,"pop":7791,"hh":3566,"elderly65_r":0.2852,"single_hh_r":0.3592,"source_level":"emd","flood_years":[],"landslide_hist_n":0},"geometry":{"type":"Polygon","coordinates":[[[129.39916,35.5431],[129.3983,35.53927],[129.40251,35.53712],[129.40758,35.53881],[129.40843,35.54264],[129.40423,35.54479],[129.39916,35.5431]]]}},{"type":"Feature","properties":{"h3":"8830c135abfffff","emd_code":"3117060000","emd_name":"남목3동","area_km2":0.5423,"edge":true,"slope_mean":19.01,"elev_mean":210.5,"flood_hist_n":0,"flood_depth_max_m":null,"flood_risk_100y":null,"semi_basement_r":null,"elderly_alone_r":0.1321,"bldg_age30_r":null,"shelter_min_walk":28,"pop":10583,"hh":4808,"elderly65_r":0.2471,"single_hh_r":0.3426,"source_level":"emd","flood_years":[],"landslide_hist_n":0},"geometry":{"type":"Polygon","coordinates":[[[129.40173,35.5546],[129.40088,35.55077],[129.40508,35.54862],[129.41015,35.5503],[129.41101,35.55414],[129.4068,35.55628],[129.40173,35.5546]]]}},{"type":"Feature","properties":{"h3":"8830c135b1fffff","emd_code":"3117060000","emd_name":"남목3동","area_km2":0.5424,"edge":false,"slope_mean":17.03,"elev_mean":112.9,"flood_hist_n":0,"flood_depth_max_m":null,"flood_risk_100y":null,"semi_basement_r":null,"elderly_alone_r":0.1321,"bldg_age30_r":null,"shelter_min_walk":9,"pop":10583,"hh":4808,"elderly65_r":0.2471,"single_hh_r":0.3426,"source_level":"emd","flood_years":[],"landslide_hist_n":0},"geometry":{"type":"Polygon","coordinates":[[[129.42029,35.55367],[129.41943,35.54984],[129.42364,35.54769],[129.4287,35.54937],[129.42956,35.5532],[129.42535,35.55535],[129.42029,35.55367]]]}},{"type":"Feature","properties":{"h3":"8830c135b3fffff","emd_code":"3117060000","emd_name":"남목3동","area_km2":0.5425,"edge":false,"slope_mean":13.59,"elev_mean":125.8,"flood_hist_n":0,"flood_depth_max_m":null,"flood_risk_100y":null,"semi_basement_r":null,"elderly_alone_r":0.1321,"bldg_age30_r":null,"shelter_min_walk":10,"pop":10583,"hh":4808,"elderly65_r":0.2471,"single_hh_r":0.3426,"source_level":"emd","flood_years":[],"landslide_hist_n":0},"geometry":{"type":"Polygon","coordinates":[[[129.42956,35.5532],[129.4287,35.54937],[129.43291,35.54722],[129.43798,35.5489],[129.43884,35.55273],[129.43463,35.55488],[129.42956,35.5532]]]}},{"type":"Feature","properties":{"h3":"8830c135b5fffff","emd_code":"3117058000","emd_name":"남목1동","area_km2":0.5425,"edge":false,"slope_mean":18.5,"elev_mean":152.6,"flood_hist_n":0,"flood_depth_max_m":null,"flood_risk_100y":null,"semi_basement_r":null,"elderly_alone_r":0.1587,"bldg_age30_r":null,"shelter_min_walk":9,"pop":7791,"hh":3566,"elderly65_r":0.2852,"single_hh_r":0.3592,"source_level":"emd","flood_years":[],"landslide_hist_n":0},"geometry":{"type":"Polygon","coordinates":[[[129.41436,35.54815],[129.4135,35.54432],[129.41771,35.54217],[129.42278,35.54386],[129.42364,35.54769],[129.41943,35.54984],[129.41436,35.54815]]]}},{"type":"Feature","properties":{"h3":"8830c135b7fffff","emd_code":"3117060000","emd_name":"남목3동","area_km2":0.5425,"edge":false,"slope_mean":11.75,"elev_mean":48.7,"flood_hist_n":0,"flood_depth_max_m":null,"flood_risk_100y":null,"semi_basement_r":null,"elderly_alone_r":0.1321,"bldg_age30_r":null,"shelter_min_walk":1,"pop":10583,"hh":4808,"elderly65_r":0.2471,"single_hh_r":0.3426,"source_level":"emd","flood_years":[],"landslide_hist_n":0},"geometry":{"type":"Polygon","coordinates":[[[129.42364,35.54769],[129.42278,35.54386],[129.42699,35.54171],[129.43205,35.54339],[129.43291,35.54722],[129.4287,35.54937],[129.42364,35.54769]]]}},{"type":"Feature","properties":{"h3":"8830c135b9fffff","emd_code":"3117060000","emd_name":"남목3동","area_km2":0.5423,"edge":false,"slope_mean":18.19,"elev_mean":184.2,"flood_hist_n":0,"flood_depth_max_m":null,"flood_risk_100y":null,"semi_basement_r":null,"elderly_alone_r":0.1321,"bldg_age30_r":null,"shelter_min_walk":20,"pop":10583,"hh":4808,"elderly65_r":0.2471,"single_hh_r":0.3426,"source_level":"emd","flood_years":[],"landslide_hist_n":0},"geometry":{"type":"Polygon","coordinates":[[[129.41694,35.55965],[129.41608,35.55582],[129.42029,35.55367],[129.42535,35.55535],[129.42621,35.55918],[129.422,35.56133],[129.41694,35.55965]]]}},{"type":"Feature","properties":{"h3":"8830c135bbfffff","emd_code":"3117060000","emd_name":"남목3동","area_km2":0.5423,"edge":false,"slope_mean":11.8,"elev_mean":150.1,"flood_hist_n":0,"flood_depth_max_m":null,"flood_risk_100y":null,"semi_basement_r":null,"elderly_alone_r":0.1321,"bldg_age30_r":null,"shelter_min_walk":18,"pop":10583,"hh":4808,"elderly65_r":0.2471,"single_hh_r":0.3426,"source_level":"emd","flood_years":[],"landslide_hist_n":0},"geometry":{"type":"Polygon","coordinates":[[[129.42621,35.55918],[129.42535,35.55535],[129.42956,35.5532],[129.43463,35.55488],[129.43549,35.55872],[129.43128,35.56086],[129.42621,35.55918]]]}},{"type":"Feature","properties":{"h3":"8830c135bdfffff","emd_code":"3117060000","emd_name":"남목3동","area_km2":0.5424,"edge":false,"slope_mean":19.37,"elev_mean":201.8,"flood_hist_n":0,"flood_depth_max_m":null,"flood_risk_100y":null,"semi_basement_r":null,"elderly_alone_r":0.1321,"bldg_age30_r":null,"shelter_min_walk":16,"pop":10583,"hh":4808,"elderly65_r":0.2471,"single_hh_r":0.3426,"source_level":"emd","flood_years":[],"landslide_hist_n":0},"geometry":{"type":"Polygon","coordinates":[[[129.41101,35.55414],[129.41015,35.5503],[129.41436,35.54815],[129.41943,35.54984],[129.42029,35.55367],[129.41608,35.55582],[129.41101,35.55414]]]}}]}