{"type":"FeatureCollection","name":"grid_41117_h3r8","meta":{"sgg_code":"41117","h3_res":8,"n_cells":84,"dem":"Copernicus GLO-30 (bbox-mean)","crs":"EPSG:4326","jumin_basis":"2026-07","flood_src":"행안부 침수흔적도(전국, 재난안전데이터공유플랫폼)","landslide_src":"행안부 산사태 발생이력"},"features":[{"type":"Feature","properties":{"h3":"8830e02421fffff","emd_code":"4111760000","emd_name":"광교1동","area_km2":0.5077,"edge":false,"slope_mean":11.37,"elev_mean":128.2,"flood_hist_n":0,"flood_depth_max_m":null,"flood_risk_100y":null,"semi_basement_r":null,"elderly_alone_r":0.0228,"bldg_age30_r":null,"shelter_min_walk":9,"pop":53890,"hh":23300,"elderly65_r":0.0801,"single_hh_r":0.3959,"source_level":"emd","flood_years":[],"landslide_hist_n":0},"geometry":{"type":"Polygon","coordinates":[[[127.05359,37.30881],[127.05308,37.31315],[127.04888,37.31512],[127.0452,37.31273],[127.04571,37.30839],[127.0499,37.30643],[127.05359,37.30881]]]}},{"type":"Feature","properties":{"h3":"8830e02423fffff","emd_code":"4111760000","emd_name":"광교1동","area_km2":0.5078,"edge":false,"slope_mean":14.2,"elev_mean":158.6,"flood_hist_n":0,"flood_depth_max_m":null,"flood_risk_100y":null,"semi_basement_r":null,"elderly_alone_r":0.0228,"bldg_age30_r":null,"shelter_min_walk":14,"pop":53890,"hh":23300,"elderly65_r":0.0801,"single_hh_r":0.3959,"source_level":"emd","flood_years":[],"landslide_hist_n":0},"geometry":{"type":"Polygon","coordinates":[[[127.06146,37.30923],[127.06095,37.31358],[127.05676,37.31554],[127.05308,37.31315],[127.05359,37.30881],[127.05778,37.30685],[127.06146,37.30923]]]}},{"type":"Feature","properties":{"h3":"8830e02425fffff","emd_code":"4111760000","emd_name":"광교1동","area_km2":0.5076,"edge":false,"slope_mean":5.61,"elev_mean":79.6,"flood_hist_n":0,"flood_depth_max_m":null,"flood_risk_100y":null,"semi_basement_r":null,"elderly_alone_r":0.0228,"bldg_age30_r":null,"shelter_min_walk":4,"pop":53890,"hh":23300,"elderly65_r":0.0801,"single_hh_r":0.3959,"source_level":"emd","flood_years":[],"landslide_hist_n":0},"geometry":{"type":"Polygon","coordinates":[[[127.05041,37.30209],[127.0499,37.30643],[127.04571,37.30839],[127.04203,37.30601],[127.04254,37.30166],[127.04673,37.2997],[127.05041,37.30209]]]}},{"type":"Feature","properties":{"h3":"8830e02427fffff","emd_code":"4111760000","emd_name":"광교1동","area_km2":0.5077,"edge":false,"slope_mean":12.8,"elev_mean":117.3,"flood_hist_n":0,"flood_depth_max_m":null,"flood_risk_100y":null,"semi_basement_r":null,"elderly_alone_r":0.0228,"bldg_age30_r":null,"shelter_min_walk":6,"pop":53890,"hh":23300,"elderly65_r":0.0801,"single_hh_r":0.3959,"source_level":"emd","flood_years":[],"landslide_hist_n":0},"geometry":{"type":"Polygon","coordinates":[[[127.05829,37.30251],[127.05778,37.30685],[127.05359,37.30881],[127.0499,37.30643],[127.05041,37.30209],[127.05461,37.30012],[127.05829,37.30251]]]}},{"type":"Feature","properties":{"h3":"8830e02429fffff","emd_code":"4111760000","emd_name":"광교1동","area_km2":0.5076,"edge":false,"slope_mean":16.13,"elev_mean":215.9,"flood_hist_n":0,"flood_depth_max_m":null,"flood_risk_100y":null,"semi_basement_r":null,"elderly_alone_r":0.0228,"bldg_age30_r":null,"shelter_min_walk":16,"pop":53890,"hh":23300,"elderly65_r":0.0801,"single_hh_r":0.3959,"source_level":"emd","flood_years":[],"landslide_hist_n":0},"geometry":{"type":"Polygon","coordinates":[[[127.04888,37.31512],[127.04837,37.31946],[127.04418,37.32142],[127.04049,37.31904],[127.04101,37.31469],[127.0452,37.31273],[127.04888,37.31512]]]}},{"type":"Feature","properties":{"h3":"8830e0242bfffff","emd_code":"4111760000","emd_name":"광교1동","area_km2":0.5077,"edge":true,"slope_mean":15.24,"elev_mean":178.0,"flood_hist_n":0,"flood_depth_max_m":null,"flood_risk_100y":null,"semi_basement_r":null,"elderly_alone_r":0.0228,"bldg_age30_r":null,"shelter_min_walk":10,"pop":53890,"hh":23300,"elderly65_r":0.0801,"single_hh_r":0.3959,"source_level":"emd","flood_years":[],"landslide_hist_n":0},"geometry":{"type":"Polygon","coordinates":[[[127.05676,37.31554],[127.05625,37.31988],[127.05206,37.32184],[127.04837,37.31946],[127.04888,37.31512],[127.05308,37.31315],[127.05676,37.31554]]]}},{"type":"Feature","properties":{"h3":"8830e0242dfffff","emd_code":"4111760000","emd_name":"광교1동","area_km2":0.5076,"edge":false,"slope_mean":12.04,"elev_mean":126.1,"flood_hist_n":0,"flood_depth_max_m":null,"flood_risk_100y":null,"semi_basement_r":null,"elderly_alone_r":0.0228,"bldg_age30_r":null,"shelter_min_walk":8,"pop":53890,"hh":23300,"elderly65_r":0.0801,"single_hh_r":0.3959,"source_level":"emd","flood_years":[],"landslide_hist_n":0},"geometry":{"type":"Polygon","coordinates":[[[127.04571,37.30839],[127.0452,37.31273],[127.04101,37.31469],[127.03732,37.31231],[127.03783,37.30797],[127.04203,37.30601],[127.04571,37.30839]]]}},{"type":"Feature","properties":{"h3":"8830e0243dfffff","emd_code":"4111760000","emd_name":"광교1동","area_km2":0.5078,"edge":true,"slope_mean":10.37,"elev_mean":140.6,"flood_hist_n":0,"flood_depth_max_m":null,"flood_risk_100y":null,"semi_basement_r":null,"elderly_alone_r":0.0228,"bldg_age30_r":null,"shelter_min_walk":2,"pop":53890,"hh":23300,"elderly65_r":0.0801,"single_hh_r":0.3959,"source_level":"emd","flood_years":[],"landslide_hist_n":0},"geometry":{"type":"Polygon","coordinates":[[[127.06464,37.31596],[127.06413,37.3203],[127.05994,37.32226],[127.05625,37.31988],[127.05676,37.31554],[127.06095,37.31358],[127.06464,37.31596]]]}},{"type":"Feature","properties":{"h3":"8830e02463fffff","emd_code":"4111760000","emd_name":"광교1동","area_km2":0.5076,"edge":true,"slope_mean":17.28,"elev_mean":292.3,"flood_hist_n":0,"flood_depth_max_m":null,"flood_risk_100y":null,"semi_basement_r":null,"elderly_alone_r":0.0228,"bldg_age30_r":null,"shelter_min_walk":18,"pop":53890,"hh":23300,"elderly65_r":0.0801,"single_hh_r":0.3959,"source_level":"emd","flood_years":[],"landslide_hist_n":1},"geometry":{"type":"Polygon","coordinates":[[[127.04418,37.32142],[127.04367,37.32576],[127.03947,37.32772],[127.03579,37.32534],[127.0363,37.321],[127.04049,37.31904],[127.04418,37.32142]]]}},{"type":"Feature","properties":{"h3":"8830e02467fffff","emd_code":"4111760000","emd_name":"광교1동","area_km2":0.5075,"edge":true,"slope_mean":16.5,"elev_mean":223.7,"flood_hist_n":0,"flood_depth_max_m":null,"flood_risk_100y":null,"semi_basement_r":null,"elderly_alone_r":0.0228,"bldg_age30_r":null,"shelter_min_walk":20,"pop":53890,"hh":23300,"elderly65_r":0.0801,"single_hh_r":0.3959,"source_level":"emd","flood_years":[],"landslide_hist_n":0},"geometry":{"type":"Polygon","coordinates":[[[127.04101,37.31469],[127.04049,37.31904],[127.0363,37.321],[127.03262,37.31861],[127.03313,37.31427],[127.03732,37.31231],[127.04101,37.31469]]]}},{"type":"Feature","properties":{"h3":"8830e02503fffff","emd_code":"4111760000","emd_name":"광교1동","area_km2":0.5074,"edge":true,"slope_mean":5.37,"elev_mean":63.0,"flood_hist_n":0,"flood_depth_max_m":null,"flood_risk_100y":null,"semi_basement_r":null,"elderly_alone_r":0.0228,"bldg_age30_r":null,"shelter_min_walk":1,"pop":53890,"hh":23300,"elderly65_r":0.0801,"single_hh_r":0.3959,"source_level":"emd","flood_years":[],"landslide_hist_n":0},"geometry":{"type":"Polygon","coordinates":[[[127.0409,37.28191],[127.04039,37.28625],[127.03619,37.28822],[127.03251,37.28583],[127.03303,37.28149],[127.03722,37.27953],[127.0409,37.28191]]]}},{"type":"Feature","properties":{"h3":"8830e02507fffff","emd_code":"4111751000","emd_name":"매탄1동","area_km2":0.5074,"edge":true,"slope_mean":5.74,"elev_mean":57.4,"flood_hist_n":0,"flood_depth_max_m":null,"flood_risk_100y":null,"semi_basement_r":null,"elderly_alone_r":0.0975,"bldg_age30_r":null,"shelter_min_walk":4,"pop":10050,"hh":4450,"elderly65_r":0.1734,"single_hh_r":0.3966,"source_level":"emd","flood_years":[],"landslide_hist_n":0},"geometry":{"type":"Polygon","coordinates":[[[127.03773,37.27519],[127.03722,37.27953],[127.03303,37.28149],[127.02935,37.27911],[127.02986,37.27477],[127.03405,37.27281],[127.03773,37.27519]]]}},{"type":"Feature","properties":{"h3":"8830e0250bfffff","emd_code":"4111760000","emd_name":"광교1동","area_km2":0.5074,"edge":true,"slope_mean":4.97,"elev_mean":80.4,"flood_hist_n":0,"flood_depth_max_m":null,"flood_risk_100y":null,"semi_basement_r":null,"elderly_alone_r":0.0228,"bldg_age30_r":null,"shelter_min_walk":4,"pop":53890,"hh":23300,"elderly65_r":0.0801,"single_hh_r":0.3959,"source_level":"emd","flood_years":[],"landslide_hist_n":0},"geometry":{"type":"Polygon","coordinates":[[[127.03619,37.28822],[127.03568,37.29256],[127.03149,37.29452],[127.02781,37.29214],[127.02832,37.2878],[127.03251,37.28583],[127.03619,37.28822]]]}},{"type":"Feature","properties":{"h3":"8830e02511fffff","emd_code":"4111760000","emd_name":"광교1동","area_km2":0.5076,"edge":false,"slope_mean":7.12,"elev_mean":76.3,"flood_hist_n":0,"flood_depth_max_m":null,"flood_risk_100y":null,"semi_basement_r":null,"elderly_alone_r":0.0228,"bldg_age30_r":null,"shelter_min_walk":5,"pop":53890,"hh":23300,"elderly65_r":0.0801,"single_hh_r":0.3959,"source_level":"emd","flood_years":[],"landslide_hist_n":0},"geometry":{"type":"Polygon","coordinates":[[[127.05194,37.28906],[127.05143,37.2934],[127.04724,37.29536],[127.04356,37.29298],[127.04407,37.28864],[127.04826,37.28667],[127.05194,37.28906]]]}},{"type":"Feature","properties":{"h3":"8830e02513fffff","emd_code":"4111760000","emd_name":"광교1동","area_km2":0.5077,"edge":false,"slope_mean":5.6,"elev_mean":62.2,"flood_hist_n":0,"flood_depth_max_m":null,"flood_risk_100y":null,"semi_basement_r":null,"elderly_alone_r":0.0228,"bldg_age30_r":null,"shelter_min_walk":4,"pop":53890,"hh":23300,"elderly65_r":0.0801,"single_hh_r":0.3959,"source_level":"emd","flood_years":[],"landslide_hist_n":0},"geometry":{"type":"Polygon","coordinates":[[[127.05982,37.28948],[127.05931,37.29382],[127.05512,37.29578],[127.05143,37.2934],[127.05194,37.28906],[127.05613,37.28709],[127.05982,37.28948]]]}},{"type":"Feature","properties":{"h3":"8830e02515fffff","emd_code":"4111755000","emd_name":"원천동","area_km2":0.5075,"edge":false,"slope_mean":8.23,"elev_mean":77.0,"flood_hist_n":0,"flood_depth_max_m":null,"flood_risk_100y":null,"semi_basement_r":null,"elderly_alone_r":0.0626,"bldg_age30_r":null,"shelter_min_walk":10,"pop":45583,"hh":21335,"elderly65_r":0.1096,"single_hh_r":0.4524,"source_level":"emd","flood_years":[],"landslide_hist_n":0},"geometry":{"type":"Polygon","coordinates":[[[127.04877,37.28233],[127.04826,37.28667],[127.04407,37.28864],[127.04039,37.28625],[127.0409,37.28191],[127.04509,37.27995],[127.04877,37.28233]]]}},{"type":"Feature","properties":{"h3":"8830e02517fffff","emd_code":"4111760000","emd_name":"광교1동","area_km2":0.5076,"edge":false,"slope_mean":7.73,"elev_mean":76.7,"flood_hist_n":0,"flood_depth_max_m":null,"flood_risk_100y":null,"semi_basement_r":null,"elderly_alone_r":0.0228,"bldg_age30_r":null,"shelter_min_walk":6,"pop":53890,"hh":23300,"elderly65_r":0.0801,"single_hh_r":0.3959,"source_level":"emd","flood_years":[],"landslide_hist_n":0},"geometry":{"type":"Polygon","coordinates":[[[127.05664,37.28275],[127.05613,37.28709],[127.05194,37.28906],[127.04826,37.28667],[127.04877,37.28233],[127.05296,37.28037],[127.05664,37.28275]]]}},{"type":"Feature","properties":{"h3":"8830e02519fffff","emd_code":"4111760000","emd_name":"광교1동","area_km2":0.5075,"edge":false,"slope_mean":7.24,"elev_mean":78.9,"flood_hist_n":0,"flood_depth_max_m":null,"flood_risk_100y":null,"semi_basement_r":null,"elderly_alone_r":0.0228,"bldg_age30_r":null,"shelter_min_walk":14,"pop":53890,"hh":23300,"elderly65_r":0.0801,"single_hh_r":0.3959,"source_level":"emd","flood_years":[],"landslide_hist_n":0},"geometry":{"type":"Polygon","coordinates":[[[127.04724,37.29536],[127.04673,37.2997],[127.04254,37.30166],[127.03886,37.29928],[127.03937,37.29494],[127.04356,37.29298],[127.04724,37.29536]]]}},{"type":"Feature","properties":{"h3":"8830e0251bfffff","emd_code":"4111760000","emd_name":"광교1동","area_km2":0.5077,"edge":false,"slope_mean":7.76,"elev_mean":74.6,"flood_hist_n":0,"flood_depth_max_m":null,"flood_risk_100y":null,"semi_basement_r":null,"elderly_alone_r":0.0228,"bldg_age30_r":null,"shelter_min_walk":12,"pop":53890,"hh":23300,"elderly65_r":0.0801,"single_hh_r":0.3959,"source_level":"emd","flood_years":[],"landslide_hist_n":0},"geometry":{"type":"Polygon","coordinates":[[[127.05512,37.29578],[127.05461,37.30012],[127.05041,37.30209],[127.04673,37.2997],[127.04724,37.29536],[127.05143,37.2934],[127.05512,37.29578]]]}},{"type":"Feature","properties":{"h3":"8830e0251dfffff","emd_code":"4111760000","emd_name":"광교1동","area_km2":0.5075,"edge":true,"slope_mean":9.53,"elev_mean":93.8,"flood_hist_n":0,"flood_depth_max_m":null,"flood_risk_100y":null,"semi_basement_r":null,"elderly_alone_r":0.0228,"bldg_age30_r":null,"shelter_min_walk":9,"pop":53890,"hh":23300,"elderly65_r":0.0801,"single_hh_r":0.3959,"source_level":"emd","flood_years":[],"landslide_hist_n":0},"geometry":{"type":"Polygon","coordinates":[[[127.04407,37.28864],[127.04356,37.29298],[127.03937,37.29494],[127.03568,37.29256],[127.03619,37.28822],[127.04039,37.28625],[127.04407,37.28864]]]}},{"type":"Feature","properties":{"h3":"8830e02523fffff","emd_code":"4111751000","emd_name":"매탄1동","area_km2":0.5073,"edge":true,"slope_mean":5.9,"elev_mean":48.5,"flood_hist_n":0,"flood_depth_max_m":null,"flood_risk_100y":null,"semi_basement_r":null,"elderly_alone_r":0.0975,"bldg_age30_r":null,"shelter_min_walk":3,"pop":10050,"hh":4450,"elderly65_r":0.1734,"single_hh_r":0.3966,"source_level":"emd","flood_years":[],"landslide_hist_n":0},"geometry":{"type":"Polygon","coordinates":[[[127.03926,37.26216],[127.03875,37.2665],[127.03456,37.26847],[127.03088,37.26609],[127.03139,37.26174],[127.03558,37.25978],[127.03926,37.26216]]]}},{"type":"Feature","properties":{"h3":"8830e02531fffff","emd_code":"4111752000","emd_name":"매탄2동","area_km2":0.5075,"edge":false,"slope_mean":3.6,"elev_mean":43.8,"flood_hist_n":0,"flood_depth_max_m":null,"flood_risk_100y":null,"semi_basement_r":null,"elderly_alone_r":0.1212,"bldg_age30_r":null,"shelter_min_walk":3,"pop":13261,"hh":6280,"elderly65_r":0.2033,"single_hh_r":0.422,"source_level":"emd","flood_years":[],"landslide_hist_n":0},"geometry":{"type":"Polygon","coordinates":[[[127.0503,37.2693],[127.04979,37.27365],[127.0456,37.27561],[127.04192,37.27323],[127.04243,37.26888],[127.04662,37.26692],[127.0503,37.2693]]]}},{"type":"Feature","properties":{"h3":"8830e02533fffff","emd_code":"4111752000","emd_name":"매탄2동","area_km2":0.5076,"edge":false,"slope_mean":4.43,"elev_mean":45.4,"flood_hist_n":0,"flood_depth_max_m":null,"flood_risk_100y":null,"semi_basement_r":null,"elderly_alone_r":0.1212,"bldg_age30_r":null,"shelter_min_walk":3,"pop":13261,"hh":6280,"elderly65_r":0.2033,"single_hh_r":0.422,"source_level":"emd","flood_years":[],"landslide_hist_n":0},"geometry":{"type":"Polygon","coordinates":[[[127.05817,37.26972],[127.05766,37.27406],[127.05347,37.27603],[127.04979,37.27365],[127.0503,37.2693],[127.05449,37.26734],[127.05817,37.26972]]]}},{"type":"Feature","properties":{"h3":"8830e02535fffff","emd_code":"4111753000","emd_name":"매탄3동","area_km2":0.5075,"edge":false,"slope_mean":4.41,"elev_mean":42.3,"flood_hist_n":0,"flood_depth_max_m":null,"flood_risk_100y":null,"semi_basement_r":null,"elderly_alone_r":0.063,"bldg_age30_r":null,"shelter_min_walk":2,"pop":33727,"hh":15628,"elderly65_r":0.1265,"single_hh_r":0.4415,"source_level":"emd","flood_years":[],"landslide_hist_n":0},"geometry":{"type":"Polygon","coordinates":[[[127.04713,37.26258],[127.04662,37.26692],[127.04243,37.26888],[127.03875,37.2665],[127.03926,37.26216],[127.04345,37.2602],[127.04713,37.26258]]]}},{"type":"Feature","properties":{"h3":"8830e02537fffff","emd_code":"4111754000","emd_name":"매탄4동","area_km2":0.5076,"edge":false,"slope_mean":4.0,"elev_mean":36.2,"flood_hist_n":0,"flood_depth_max_m":null,"flood_risk_100y":null,"semi_basement_r":null,"elderly_alone_r":0.0995,"bldg_age30_r":null,"shelter_min_walk":3,"pop":19223,"hh":9363,"elderly65_r":0.1849,"single_hh_r":0.4259,"source_level":"emd","flood_years":[],"landslide_hist_n":0},"geometry":{"type":"Polygon","coordinates":[[[127.055,37.263],[127.05449,37.26734],[127.0503,37.2693],[127.04662,37.26692],[127.04713,37.26258],[127.05132,37.26062],[127.055,37.263]]]}},{"type":"Feature","properties":{"h3":"8830e02539fffff","emd_code":"4111751000","emd_name":"매탄1동","area_km2":0.5075,"edge":true,"slope_mean":5.33,"elev_mean":53.0,"flood_hist_n":0,"flood_depth_max_m":null,"flood_risk_100y":null,"semi_basement_r":null,"elderly_alone_r":0.0975,"bldg_age30_r":null,"shelter_min_walk":1,"pop":10050,"hh":4450,"elderly65_r":0.1734,"single_hh_r":0.3966,"source_level":"emd","flood_years":[],"landslide_hist_n":0},"geometry":{"type":"Polygon","coordinates":[[[127.0456,37.27561],[127.04509,37.27995],[127.0409,37.28191],[127.03722,37.27953],[127.03773,37.27519],[127.04192,37.27323],[127.0456,37.27561]]]}},{"type":"Feature","properties":{"h3":"8830e0253bfffff","emd_code":"4111755000","emd_name":"원천동","area_km2":0.5076,"edge":false,"slope_mean":5.41,"elev_mean":57.2,"flood_hist_n":0,"flood_depth_max_m":null,"flood_risk_100y":null,"semi_basement_r":null,"elderly_alone_r":0.0626,"bldg_age30_r":null,"shelter_min_walk":2,"pop":45583,"hh":21335,"elderly65_r":0.1096,"single_hh_r":0.4524,"source_level":"emd","flood_years":[],"landslide_hist_n":0},"geometry":{"type":"Polygon","coordinates":[[[127.05347,37.27603],[127.05296,37.28037],[127.04877,37.28233],[127.04509,37.27995],[127.0456,37.27561],[127.04979,37.27365],[127.05347,37.27603]]]}},{"type":"Feature","properties":{"h3":"8830e0253dfffff","emd_code":"4111751000","emd_name":"매탄1동","area_km2":0.5074,"edge":false,"slope_mean":4.52,"elev_mean":54.1,"flood_hist_n":0,"flood_depth_max_m":null,"flood_risk_100y":null,"semi_basement_r":null,"elderly_alone_r":0.0975,"bldg_age30_r":null,"shelter_min_walk":1,"pop":10050,"hh":4450,"elderly65_r":0.1734,"single_hh_r":0.3966,"source_level":"emd","flood_years":[],"landslide_hist_n":0},"geometry":{"type":"Polygon","coordinates":[[[127.04243,37.26888],[127.04192,37.27323],[127.03773,37.27519],[127.03405,37.27281],[127.03456,37.26847],[127.03875,37.2665],[127.04243,37.26888]]]}},{"type":"Feature","properties":{"h3":"8830e02551fffff","emd_code":"4111760000","emd_name":"광교1동","area_km2":0.5074,"edge":true,"slope_mean":10.4,"elev_mean":110.4,"flood_hist_n":0,"flood_depth_max_m":null,"flood_risk_100y":null,"semi_basement_r":null,"elderly_alone_r":0.0228,"bldg_age30_r":null,"shelter_min_walk":5,"pop":53890,"hh":23300,"elderly65_r":0.0801,"single_hh_r":0.3959,"source_level":"emd","flood_years":[],"landslide_hist_n":0},"geometry":{"type":"Polygon","coordinates":[[[127.03466,37.30124],[127.03415,37.30559],[127.02996,37.30755],[127.02628,37.30516],[127.02679,37.30082],[127.03098,37.29886],[127.03466,37.30124]]]}},{"type":"Feature","properties":{"h3":"8830e02553fffff","emd_code":"4111760000","emd_name":"광교1동","area_km2":0.5075,"edge":false,"slope_mean":10.09,"elev_mean":104.7,"flood_hist_n":0,"flood_depth_max_m":null,"flood_risk_100y":null,"semi_basement_r":null,"elderly_alone_r":0.0228,"bldg_age30_r":null,"shelter_min_walk":7,"pop":53890,"hh":23300,"elderly65_r":0.0801,"single_hh_r":0.3959,"source_level":"emd","flood_years":[],"landslide_hist_n":0},"geometry":{"type":"Polygon","coordinates":[[[127.04254,37.30166],[127.04203,37.30601],[127.03783,37.30797],[127.03415,37.30559],[127.03466,37.30124],[127.03886,37.29928],[127.04254,37.30166]]]}},{"type":"Feature","properties":{"h3":"8830e02557fffff","emd_code":"4111760000","emd_name":"광교1동","area_km2":0.5074,"edge":false,"slope_mean":10.02,"elev_mean":108.0,"flood_hist_n":0,"flood_depth_max_m":null,"flood_risk_100y":null,"semi_basement_r":null,"elderly_alone_r":0.0228,"bldg_age30_r":null,"shelter_min_walk":6,"pop":53890,"hh":23300,"elderly65_r":0.0801,"single_hh_r":0.3959,"source_level":"emd","flood_years":[],"landslide_hist_n":0},"geometry":{"type":"Polygon","coordinates":[[[127.03937,37.29494],[127.03886,37.29928],[127.03466,37.30124],[127.03098,37.29886],[127.03149,37.29452],[127.03568,37.29256],[127.03937,37.29494]]]}},{"type":"Feature","properties":{"h3":"8830e0255bfffff","emd_code":"4111760000","emd_name":"광교1동","area_km2":0.5075,"edge":false,"slope_mean":14.61,"elev_mean":152.2,"flood_hist_n":0,"flood_depth_max_m":null,"flood_risk_100y":null,"semi_basement_r":null,"elderly_alone_r":0.0228,"bldg_age30_r":null,"shelter_min_walk":14,"pop":53890,"hh":23300,"elderly65_r":0.0801,"single_hh_r":0.3959,"source_level":"emd","flood_years":[],"landslide_hist_n":0},"geometry":{"type":"Polygon","coordinates":[[[127.03783,37.30797],[127.03732,37.31231],[127.03313,37.31427],[127.02945,37.31189],[127.02996,37.30755],[127.03415,37.30559],[127.03783,37.30797]]]}},{"type":"Feature","properties":{"h3":"8830e02581fffff","emd_code":"4111761000","emd_name":"광교2동","area_km2":0.5081,"edge":false,"slope_mean":10.97,"elev_mean":104.5,"flood_hist_n":0,"flood_depth_max_m":null,"flood_risk_100y":null,"semi_basement_r":null,"elderly_alone_r":0.0802,"bldg_age30_r":null,"shelter_min_walk":15,"pop":28323,"hh":11702,"elderly65_r":0.1365,"single_hh_r":0.2811,"source_level":"emd","flood_years":[],"landslide_hist_n":0},"geometry":{"type":"Polygon","coordinates":[[[127.08815,37.28442],[127.08765,37.28877],[127.08345,37.29073],[127.07977,37.28835],[127.08027,37.284],[127.08447,37.28204],[127.08815,37.28442]]]}},{"type":"Feature","properties":{"h3":"8830e02583fffff","emd_code":"4111761000","emd_name":"광교2동","area_km2":0.5082,"edge":true,"slope_mean":9.06,"elev_mean":111.7,"flood_hist_n":0,"flood_depth_max_m":null,"flood_risk_100y":null,"semi_basement_r":null,"elderly_alone_r":0.0802,"bldg_age30_r":null,"shelter_min_walk":20,"pop":28323,"hh":11702,"elderly65_r":0.1365,"single_hh_r":0.2811,"source_level":"emd","flood_years":[],"landslide_hist_n":0},"geometry":{"type":"Polygon","coordinates":[[[127.09603,37.28484],[127.09553,37.28918],[127.09133,37.29115],[127.08765,37.28877],[127.08815,37.28442],[127.09235,37.28246],[127.09603,37.28484]]]}},{"type":"Feature","properties":{"h3":"8830e02589fffff","emd_code":"4111761000","emd_name":"광교2동","area_km2":0.508,"edge":false,"slope_mean":10.3,"elev_mean":73.6,"flood_hist_n":0,"flood_depth_max_m":null,"flood_risk_100y":null,"semi_basement_r":null,"elderly_alone_r":0.0802,"bldg_age30_r":null,"shelter_min_walk":5,"pop":28323,"hh":11702,"elderly65_r":0.1365,"single_hh_r":0.2811,"source_level":"emd","flood_years":[],"landslide_hist_n":0},"geometry":{"type":"Polygon","coordinates":[[[127.08345,37.29073],[127.08294,37.29507],[127.07875,37.29704],[127.07506,37.29466],[127.07557,37.29031],[127.07977,37.28835],[127.08345,37.29073]]]}},{"type":"Feature","properties":{"h3":"8830e0258bfffff","emd_code":"4111761000","emd_name":"광교2동","area_km2":0.5082,"edge":false,"slope_mean":13.7,"elev_mean":113.2,"flood_hist_n":0,"flood_depth_max_m":null,"flood_risk_100y":null,"semi_basement_r":null,"elderly_alone_r":0.0802,"bldg_age30_r":null,"shelter_min_walk":9,"pop":28323,"hh":11702,"elderly65_r":0.1365,"single_hh_r":0.2811,"source_level":"emd","flood_years":[],"landslide_hist_n":0},"geometry":{"type":"Polygon","coordinates":[[[127.09133,37.29115],[127.09082,37.29549],[127.08663,37.29746],[127.08294,37.29507],[127.08345,37.29073],[127.08765,37.28877],[127.09133,37.29115]]]}},{"type":"Feature","properties":{"h3":"8830e0258dfffff","emd_code":"4111761000","emd_name":"광교2동","area_km2":0.508,"edge":false,"slope_mean":8.4,"elev_mean":67.7,"flood_hist_n":0,"flood_depth_max_m":null,"flood_risk_100y":null,"semi_basement_r":null,"elderly_alone_r":0.0802,"bldg_age30_r":null,"shelter_min_walk":10,"pop":28323,"hh":11702,"elderly65_r":0.1365,"single_hh_r":0.2811,"source_level":"emd","flood_years":[],"landslide_hist_n":0},"geometry":{"type":"Polygon","coordinates":[[[127.08027,37.284],[127.07977,37.28835],[127.07557,37.29031],[127.07189,37.28793],[127.0724,37.28359],[127.07659,37.28162],[127.08027,37.284]]]}},{"type":"Feature","properties":{"h3":"8830e025a1fffff","emd_code":"4111757000","emd_name":"영통1동","area_km2":0.508,"edge":false,"slope_mean":9.04,"elev_mean":74.7,"flood_hist_n":0,"flood_depth_max_m":null,"flood_risk_100y":null,"semi_basement_r":null,"elderly_alone_r":0.0569,"bldg_age30_r":null,"shelter_min_walk":2,"pop":32262,"hh":12591,"elderly65_r":0.1191,"single_hh_r":0.2364,"source_level":"emd","flood_years":[],"landslide_hist_n":0},"geometry":{"type":"Polygon","coordinates":[[[127.0865,37.26466],[127.08599,37.26901],[127.0818,37.27097],[127.07811,37.26859],[127.07862,37.26425],[127.08281,37.26228],[127.0865,37.26466]]]}},{"type":"Feature","properties":{"h3":"8830e025a5fffff","emd_code":"4111757000","emd_name":"영통1동","area_km2":0.5079,"edge":false,"slope_mean":10.87,"elev_mean":85.1,"flood_hist_n":0,"flood_depth_max_m":null,"flood_risk_100y":null,"semi_basement_r":null,"elderly_alone_r":0.0569,"bldg_age30_r":null,"shelter_min_walk":2,"pop":32262,"hh":12591,"elderly65_r":0.1191,"single_hh_r":0.2364,"source_level":"emd","flood_years":[],"landslide_hist_n":0},"geometry":{"type":"Polygon","coordinates":[[[127.08332,37.25794],[127.08281,37.26228],[127.07862,37.26425],[127.07494,37.26187],[127.07545,37.25752],[127.07964,37.25556],[127.08332,37.25794]]]}},{"type":"Feature","properties":{"h3":"8830e025a7fffff","emd_code":"4111757000","emd_name":"영통1동","area_km2":0.5081,"edge":true,"slope_mean":14.37,"elev_mean":117.0,"flood_hist_n":0,"flood_depth_max_m":null,"flood_risk_100y":null,"semi_basement_r":null,"elderly_alone_r":0.0569,"bldg_age30_r":null,"shelter_min_walk":8,"pop":32262,"hh":12591,"elderly65_r":0.1191,"single_hh_r":0.2364,"source_level":"emd","flood_years":[],"landslide_hist_n":0},"geometry":{"type":"Polygon","coordinates":[[[127.0912,37.25835],[127.09069,37.2627],[127.0865,37.26466],[127.08281,37.26228],[127.08332,37.25794],[127.08751,37.25597],[127.0912,37.25835]]]}},{"type":"Feature","properties":{"h3":"8830e025abfffff","emd_code":"4111757000","emd_name":"영통1동","area_km2":0.5081,"edge":true,"slope_mean":9.87,"elev_mean":92.5,"flood_hist_n":0,"flood_depth_max_m":null,"flood_risk_100y":null,"semi_basement_r":null,"elderly_alone_r":0.0569,"bldg_age30_r":null,"shelter_min_walk":6,"pop":32262,"hh":12591,"elderly65_r":0.1191,"single_hh_r":0.2364,"source_level":"emd","flood_years":[],"landslide_hist_n":0},"geometry":{"type":"Polygon","coordinates":[[[127.08968,37.27139],[127.08917,37.27573],[127.08497,37.2777],[127.08129,37.27532],[127.0818,37.27097],[127.08599,37.26901],[127.08968,37.27139]]]}},{"type":"Feature","properties":{"h3":"8830e025adfffff","emd_code":"4111757000","emd_name":"영통1동","area_km2":0.5079,"edge":true,"slope_mean":10.52,"elev_mean":64.7,"flood_hist_n":0,"flood_depth_max_m":null,"flood_risk_100y":null,"semi_basement_r":null,"elderly_alone_r":0.0569,"bldg_age30_r":null,"shelter_min_walk":6,"pop":32262,"hh":12591,"elderly65_r":0.1191,"single_hh_r":0.2364,"source_level":"emd","flood_years":[],"landslide_hist_n":0},"geometry":{"type":"Polygon","coordinates":[[[127.07862,37.26425],[127.07811,37.26859],[127.07392,37.27055],[127.07024,37.26817],[127.07075,37.26383],[127.07494,37.26187],[127.07862,37.26425]]]}},{"type":"Feature","properties":{"h3":"8830e025c1fffff","emd_code":"4111761000","emd_name":"광교2동","area_km2":0.5079,"edge":true,"slope_mean":7.56,"elev_mean":82.2,"flood_hist_n":0,"flood_depth_max_m":null,"flood_risk_100y":null,"semi_basement_r":null,"elderly_alone_r":0.0802,"bldg_age30_r":null,"shelter_min_walk":2,"pop":28323,"hh":11702,"elderly65_r":0.1365,"single_hh_r":0.2811,"source_level":"emd","flood_years":[],"landslide_hist_n":0},"geometry":{"type":"Polygon","coordinates":[[[127.07087,37.29662],[127.07036,37.30096],[127.06617,37.30293],[127.06248,37.30054],[127.06299,37.2962],[127.06719,37.29424],[127.07087,37.29662]]]}},{"type":"Feature","properties":{"h3":"8830e025c5fffff","emd_code":"4111760000","emd_name":"광교1동","area_km2":0.5078,"edge":false,"slope_mean":7.45,"elev_mean":70.9,"flood_hist_n":0,"flood_depth_max_m":null,"flood_risk_100y":null,"semi_basement_r":null,"elderly_alone_r":0.0228,"bldg_age30_r":null,"shelter_min_walk":5,"pop":53890,"hh":23300,"elderly65_r":0.0801,"single_hh_r":0.3959,"source_level":"emd","flood_years":[],"landslide_hist_n":0},"geometry":{"type":"Polygon","coordinates":[[[127.06769,37.28989],[127.06719,37.29424],[127.06299,37.2962],[127.05931,37.29382],[127.05982,37.28948],[127.06401,37.28751],[127.06769,37.28989]]]}},{"type":"Feature","properties":{"h3":"8830e025c7fffff","emd_code":"4111761000","emd_name":"광교2동","area_km2":0.5079,"edge":false,"slope_mean":5.23,"elev_mean":64.8,"flood_hist_n":0,"flood_depth_max_m":null,"flood_risk_100y":null,"semi_basement_r":null,"elderly_alone_r":0.0802,"bldg_age30_r":null,"shelter_min_walk":2,"pop":28323,"hh":11702,"elderly65_r":0.1365,"single_hh_r":0.2811,"source_level":"emd","flood_years":[],"landslide_hist_n":0},"geometry":{"type":"Polygon","coordinates":[[[127.07557,37.29031],[127.07506,37.29466],[127.07087,37.29662],[127.06719,37.29424],[127.06769,37.28989],[127.07189,37.28793],[127.07557,37.29031]]]}},{"type":"Feature","properties":{"h3":"8830e025c9fffff","emd_code":"4111760000","emd_name":"광교1동","area_km2":0.5078,"edge":true,"slope_mean":14.84,"elev_mean":140.3,"flood_hist_n":0,"flood_depth_max_m":null,"flood_risk_100y":null,"semi_basement_r":null,"elderly_alone_r":0.0228,"bldg_age30_r":null,"shelter_min_walk":14,"pop":53890,"hh":23300,"elderly65_r":0.0801,"single_hh_r":0.3959,"source_level":"emd","flood_years":[],"landslide_hist_n":0},"geometry":{"type":"Polygon","coordinates":[[[127.06617,37.30293],[127.06566,37.30727],[127.06146,37.30923],[127.05778,37.30685],[127.05829,37.30251],[127.06248,37.30054],[127.06617,37.30293]]]}},{"type":"Feature","properties":{"h3":"8830e025cdfffff","emd_code":"4111760000","emd_name":"광교1동","area_km2":0.5078,"edge":false,"slope_mean":11.74,"elev_mean":93.7,"flood_hist_n":0,"flood_depth_max_m":null,"flood_risk_100y":null,"semi_basement_r":null,"elderly_alone_r":0.0228,"bldg_age30_r":null,"shelter_min_walk":10,"pop":53890,"hh":23300,"elderly65_r":0.0801,"single_hh_r":0.3959,"source_level":"emd","flood_years":[],"landslide_hist_n":0},"geometry":{"type":"Polygon","coordinates":[[[127.06299,37.2962],[127.06248,37.30054],[127.05829,37.30251],[127.05461,37.30012],[127.05512,37.29578],[127.05931,37.29382],[127.06299,37.2962]]]}},{"type":"Feature","properties":{"h3":"8830e025d5fffff","emd_code":"4111761000","emd_name":"광교2동","area_km2":0.5081,"edge":true,"slope_mean":9.73,"elev_mean":90.4,"flood_hist_n":0,"flood_depth_max_m":null,"flood_risk_100y":null,"semi_basement_r":null,"elderly_alone_r":0.0802,"bldg_age30_r":null,"shelter_min_walk":6,"pop":28323,"hh":11702,"elderly65_r":0.1365,"single_hh_r":0.2811,"source_level":"emd","flood_years":[],"landslide_hist_n":0},"geometry":{"type":"Polygon","coordinates":[[[127.08663,37.29746],[127.08612,37.3018],[127.08193,37.30376],[127.07824,37.30138],[127.07875,37.29704],[127.08294,37.29507],[127.08663,37.29746]]]}},{"type":"Feature","properties":{"h3":"8830e025d7fffff","emd_code":"4111761000","emd_name":"광교2동","area_km2":0.5082,"edge":true,"slope_mean":10.12,"elev_mean":127.2,"flood_hist_n":0,"flood_depth_max_m":null,"flood_risk_100y":null,"semi_basement_r":null,"elderly_alone_r":0.0802,"bldg_age30_r":null,"shelter_min_walk":7,"pop":28323,"hh":11702,"elderly65_r":0.1365,"single_hh_r":0.2811,"source_level":"emd","flood_years":[],"landslide_hist_n":0},"geometry":{"type":"Polygon","coordinates":[[[127.09451,37.29787],[127.094,37.30222],[127.08981,37.30418],[127.08612,37.3018],[127.08663,37.29746],[127.09082,37.29549],[127.09451,37.29787]]]}},{"type":"Feature","properties":{"h3":"8830e025e1fffff","emd_code":"4111761000","emd_name":"광교2동","area_km2":0.5078,"edge":false,"slope_mean":4.55,"elev_mean":46.3,"flood_hist_n":0,"flood_depth_max_m":null,"flood_risk_100y":null,"semi_basement_r":null,"elderly_alone_r":0.0802,"bldg_age30_r":null,"shelter_min_walk":5,"pop":28323,"hh":11702,"elderly65_r":0.1365,"single_hh_r":0.2811,"source_level":"emd","flood_years":[],"landslide_hist_n":0},"geometry":{"type":"Polygon","coordinates":[[[127.06922,37.27686],[127.06871,37.28121],[127.06452,37.28317],[127.06084,37.28079],[127.06135,37.27644],[127.06554,37.27448],[127.06922,37.27686]]]}},{"type":"Feature","properties":{"h3":"8830e025e3fffff","emd_code":"4111761000","emd_name":"광교2동","area_km2":0.5079,"edge":true,"slope_mean":8.75,"elev_mean":60.7,"flood_hist_n":0,"flood_depth_max_m":null,"flood_risk_100y":null,"semi_basement_r":null,"elderly_alone_r":0.0802,"bldg_age30_r":null,"shelter_min_walk":2,"pop":28323,"hh":11702,"elderly65_r":0.1365,"single_hh_r":0.2811,"source_level":"emd","flood_years":[],"landslide_hist_n":0},"geometry":{"type":"Polygon","coordinates":[[[127.0771,37.27728],[127.07659,37.28162],[127.0724,37.28359],[127.06871,37.28121],[127.06922,37.27686],[127.07341,37.2749],[127.0771,37.27728]]]}},{"type":"Feature","properties":{"h3":"8830e025e5fffff","emd_code":"4111755000","emd_name":"원천동","area_km2":0.5077,"edge":false,"slope_mean":5.43,"elev_mean":44.5,"flood_hist_n":0,"flood_depth_max_m":null,"flood_risk_100y":null,"semi_basement_r":null,"elderly_alone_r":0.0626,"bldg_age30_r":null,"shelter_min_walk":4,"pop":45583,"hh":21335,"elderly65_r":0.1096,"single_hh_r":0.4524,"source_level":"emd","flood_years":[],"landslide_hist_n":0},"geometry":{"type":"Polygon","coordinates":[[[127.06605,37.27014],[127.06554,37.27448],[127.06135,37.27644],[127.05766,37.27406],[127.05817,37.26972],[127.06236,37.26776],[127.06605,37.27014]]]}},{"type":"Feature","properties":{"h3":"8830e025e7fffff","emd_code":"4111755000","emd_name":"원천동","area_km2":0.5079,"edge":true,"slope_mean":5.59,"elev_mean":45.9,"flood_hist_n":0,"flood_depth_max_m":null,"flood_risk_100y":null,"semi_basement_r":null,"elderly_alone_r":0.0626,"bldg_age30_r":null,"shelter_min_walk":5,"pop":45583,"hh":21335,"elderly65_r":0.1096,"single_hh_r":0.4524,"source_level":"emd","flood_years":[],"landslide_hist_n":0},"geometry":{"type":"Polygon","coordinates":[[[127.07392,37.27055],[127.07341,37.2749],[127.06922,37.27686],[127.06554,37.27448],[127.06605,37.27014],[127.07024,37.26817],[127.07392,37.27055]]]}},{"type":"Feature","properties":{"h3":"8830e025e9fffff","emd_code":"4111761000","emd_name":"광교2동","area_km2":0.5078,"edge":false,"slope_mean":3.98,"elev_mean":52.6,"flood_hist_n":0,"flood_depth_max_m":null,"flood_risk_100y":null,"semi_basement_r":null,"elderly_alone_r":0.0802,"bldg_age30_r":null,"shelter_min_walk":4,"pop":28323,"hh":11702,"elderly65_r":0.1365,"single_hh_r":0.2811,"source_level":"emd","flood_years":[],"landslide_hist_n":0},"geometry":{"type":"Polygon","coordinates":[[[127.06452,37.28317],[127.06401,37.28751],[127.05982,37.28948],[127.05613,37.28709],[127.05664,37.28275],[127.06084,37.28079],[127.06452,37.28317]]]}},{"type":"Feature","properties":{"h3":"8830e025ebfffff","emd_code":"4111761000","emd_name":"광교2동","area_km2":0.5079,"edge":false,"slope_mean":9.13,"elev_mean":60.5,"flood_hist_n":0,"flood_depth_max_m":null,"flood_risk_100y":null,"semi_basement_r":null,"elderly_alone_r":0.0802,"bldg_age30_r":null,"shelter_min_walk":11,"pop":28323,"hh":11702,"elderly65_r":0.1365,"single_hh_r":0.2811,"source_level":"emd","flood_years":[],"landslide_hist_n":0},"geometry":{"type":"Polygon","coordinates":[[[127.0724,37.28359],[127.07189,37.28793],[127.06769,37.28989],[127.06401,37.28751],[127.06452,37.28317],[127.06871,37.28121],[127.0724,37.28359]]]}},{"type":"Feature","properties":{"h3":"8830e025edfffff","emd_code":"4111755000","emd_name":"원천동","area_km2":0.5077,"edge":false,"slope_mean":9.6,"elev_mean":69.4,"flood_hist_n":0,"flood_depth_max_m":null,"flood_risk_100y":null,"semi_basement_r":null,"elderly_alone_r":0.0626,"bldg_age30_r":null,"shelter_min_walk":8,"pop":45583,"hh":21335,"elderly65_r":0.1096,"single_hh_r":0.4524,"source_level":"emd","flood_years":[],"landslide_hist_n":0},"geometry":{"type":"Polygon","coordinates":[[[127.06135,37.27644],[127.06084,37.28079],[127.05664,37.28275],[127.05296,37.28037],[127.05347,37.27603],[127.05766,37.27406],[127.06135,37.27644]]]}},{"type":"Feature","properties":{"h3":"8830e02e81fffff","emd_code":"4111759300","emd_name":"망포1동","area_km2":0.5076,"edge":false,"slope_mean":4.48,"elev_mean":41.1,"flood_hist_n":0,"flood_depth_max_m":null,"flood_risk_100y":null,"semi_basement_r":null,"elderly_alone_r":0.0457,"bldg_age30_r":null,"shelter_min_walk":2,"pop":31233,"hh":11571,"elderly65_r":0.1029,"single_hh_r":0.2256,"source_level":"emd","flood_years":[],"landslide_hist_n":0},"geometry":{"type":"Polygon","coordinates":[[[127.06593,37.23735],[127.06542,37.2417],[127.06123,37.24366],[127.05755,37.24128],[127.05805,37.23694],[127.06224,37.23498],[127.06593,37.23735]]]}},{"type":"Feature","properties":{"h3":"8830e02e83fffff","emd_code":"4111759300","emd_name":"망포1동","area_km2":0.5078,"edge":true,"slope_mean":4.56,"elev_mean":44.6,"flood_hist_n":0,"flood_depth_max_m":null,"flood_risk_100y":null,"semi_basement_r":null,"elderly_alone_r":0.0457,"bldg_age30_r":null,"shelter_min_walk":3,"pop":31233,"hh":11571,"elderly65_r":0.1029,"single_hh_r":0.2256,"source_level":"emd","flood_years":[],"landslide_hist_n":0},"geometry":{"type":"Polygon","coordinates":[[[127.0738,37.23777],[127.07329,37.24211],[127.0691,37.24408],[127.06542,37.2417],[127.06593,37.23735],[127.07011,37.23539],[127.0738,37.23777]]]}},{"type":"Feature","properties":{"h3":"8830e02e85fffff","emd_code":"4111759300","emd_name":"망포1동","area_km2":0.5076,"edge":true,"slope_mean":3.82,"elev_mean":35.5,"flood_hist_n":0,"flood_depth_max_m":null,"flood_risk_100y":null,"semi_basement_r":null,"elderly_alone_r":0.0457,"bldg_age30_r":null,"shelter_min_walk":1,"pop":31233,"hh":11571,"elderly65_r":0.1029,"single_hh_r":0.2256,"source_level":"emd","flood_years":[],"landslide_hist_n":0},"geometry":{"type":"Polygon","coordinates":[[[127.06275,37.23063],[127.06224,37.23498],[127.05805,37.23694],[127.05437,37.23456],[127.05488,37.23022],[127.05907,37.22825],[127.06275,37.23063]]]}},{"type":"Feature","properties":{"h3":"8830e02e89fffff","emd_code":"4111758000","emd_name":"영통2동","area_km2":0.5076,"edge":false,"slope_mean":5.7,"elev_mean":40.6,"flood_hist_n":0,"flood_depth_max_m":null,"flood_risk_100y":null,"semi_basement_r":null,"elderly_alone_r":0.0366,"bldg_age30_r":null,"shelter_min_walk":1,"pop":24995,"hh":13616,"elderly65_r":0.0735,"single_hh_r":0.5496,"source_level":"emd","flood_years":[],"landslide_hist_n":0},"geometry":{"type":"Polygon","coordinates":[[[127.06123,37.24366],[127.06072,37.248],[127.05653,37.24997],[127.05285,37.24759],[127.05336,37.24325],[127.05755,37.24128],[127.06123,37.24366]]]}},{"type":"Feature","properties":{"h3":"8830e02e8bfffff","emd_code":"4111758000","emd_name":"영통2동","area_km2":0.5077,"edge":false,"slope_mean":5.37,"elev_mean":44.0,"flood_hist_n":0,"flood_depth_max_m":null,"flood_risk_100y":null,"semi_basement_r":null,"elderly_alone_r":0.0366,"bldg_age30_r":null,"shelter_min_walk":3,"pop":24995,"hh":13616,"elderly65_r":0.0735,"single_hh_r":0.5496,"source_level":"emd","flood_years":[],"landslide_hist_n":0},"geometry":{"type":"Polygon","coordinates":[[[127.0691,37.24408],[127.06859,37.24842],[127.0644,37.25038],[127.06072,37.248],[127.06123,37.24366],[127.06542,37.2417],[127.0691,37.24408]]]}},{"type":"Feature","properties":{"h3":"8830e02e8dfffff","emd_code":"4111759300","emd_name":"망포1동","area_km2":0.5075,"edge":false,"slope_mean":4.41,"elev_mean":38.6,"flood_hist_n":0,"flood_depth_max_m":null,"flood_risk_100y":null,"semi_basement_r":null,"elderly_alone_r":0.0457,"bldg_age30_r":null,"shelter_min_walk":1,"pop":31233,"hh":11571,"elderly65_r":0.1029,"single_hh_r":0.2256,"source_level":"emd","flood_years":[],"landslide_hist_n":0},"geometry":{"type":"Polygon","coordinates":[[[127.05805,37.23694],[127.05755,37.24128],[127.05336,37.24325],[127.04968,37.24087],[127.05019,37.23652],[127.05437,37.23456],[127.05805,37.23694]]]}},{"type":"Feature","properties":{"h3":"8830e02e91fffff","emd_code":"4111758500","emd_name":"영통3동","area_km2":0.5079,"edge":true,"slope_mean":10.66,"elev_mean":85.6,"flood_hist_n":0,"flood_depth_max_m":null,"flood_risk_100y":null,"semi_basement_r":null,"elderly_alone_r":0.0409,"bldg_age30_r":null,"shelter_min_walk":2,"pop":31341,"hh":14316,"elderly65_r":0.101,"single_hh_r":0.443,"source_level":"emd","flood_years":[],"landslide_hist_n":0},"geometry":{"type":"Polygon","coordinates":[[[127.08484,37.24491],[127.08434,37.24925],[127.08015,37.25121],[127.07646,37.24884],[127.07697,37.24449],[127.08116,37.24253],[127.08484,37.24491]]]}},{"type":"Feature","properties":{"h3":"8830e02e99fffff","emd_code":"4111758500","emd_name":"영통3동","area_km2":0.5079,"edge":false,"slope_mean":6.27,"elev_mean":66.3,"flood_hist_n":0,"flood_depth_max_m":null,"flood_risk_100y":null,"semi_basement_r":null,"elderly_alone_r":0.0409,"bldg_age30_r":null,"shelter_min_walk":3,"pop":31341,"hh":14316,"elderly65_r":0.101,"single_hh_r":0.443,"source_level":"emd","flood_years":[],"landslide_hist_n":0},"geometry":{"type":"Polygon","coordinates":[[[127.08015,37.25121],[127.07964,37.25556],[127.07545,37.25752],[127.07176,37.25514],[127.07227,37.2508],[127.07646,37.24884],[127.08015,37.25121]]]}},{"type":"Feature","properties":{"h3":"8830e02e9bfffff","emd_code":"4111758500","emd_name":"영통3동","area_km2":0.508,"edge":true,"slope_mean":12.73,"elev_mean":101.9,"flood_hist_n":0,"flood_depth_max_m":null,"flood_risk_100y":null,"semi_basement_r":null,"elderly_alone_r":0.0409,"bldg_age30_r":null,"shelter_min_walk":5,"pop":31341,"hh":14316,"elderly65_r":0.101,"single_hh_r":0.443,"source_level":"emd","flood_years":[],"landslide_hist_n":0},"geometry":{"type":"Polygon","coordinates":[[[127.08802,37.25163],[127.08751,37.25597],[127.08332,37.25794],[127.07964,37.25556],[127.08015,37.25121],[127.08434,37.24925],[127.08802,37.25163]]]}},{"type":"Feature","properties":{"h3":"8830e02e9dfffff","emd_code":"4111758500","emd_name":"영통3동","area_km2":0.5078,"edge":true,"slope_mean":5.68,"elev_mean":54.1,"flood_hist_n":0,"flood_depth_max_m":null,"flood_risk_100y":null,"semi_basement_r":null,"elderly_alone_r":0.0409,"bldg_age30_r":null,"shelter_min_walk":2,"pop":31341,"hh":14316,"elderly65_r":0.101,"single_hh_r":0.443,"source_level":"emd","flood_years":[],"landslide_hist_n":0},"geometry":{"type":"Polygon","coordinates":[[[127.07697,37.24449],[127.07646,37.24884],[127.07227,37.2508],[127.06859,37.24842],[127.0691,37.24408],[127.07329,37.24211],[127.07697,37.24449]]]}},{"type":"Feature","properties":{"h3":"8830e02ec1fffff","emd_code":"4111753000","emd_name":"매탄3동","area_km2":0.5074,"edge":false,"slope_mean":3.69,"elev_mean":29.7,"flood_hist_n":0,"flood_depth_max_m":null,"flood_risk_100y":null,"semi_basement_r":null,"elderly_alone_r":0.063,"bldg_age30_r":null,"shelter_min_walk":5,"pop":33727,"hh":15628,"elderly65_r":0.1265,"single_hh_r":0.4415,"source_level":"emd","flood_years":[],"landslide_hist_n":0},"geometry":{"type":"Polygon","coordinates":[[[127.04866,37.24955],[127.04815,37.25389],[127.04396,37.25586],[127.04028,37.25348],[127.04079,37.24914],[127.04498,37.24717],[127.04866,37.24955]]]}},{"type":"Feature","properties":{"h3":"8830e02ec3fffff","emd_code":"4111753000","emd_name":"매탄3동","area_km2":0.5075,"edge":false,"slope_mean":5.79,"elev_mean":37.2,"flood_hist_n":0,"flood_depth_max_m":null,"flood_risk_100y":null,"semi_basement_r":null,"elderly_alone_r":0.063,"bldg_age30_r":null,"shelter_min_walk":10,"pop":33727,"hh":15628,"elderly65_r":0.1265,"single_hh_r":0.4415,"source_level":"emd","flood_years":[],"landslide_hist_n":0},"geometry":{"type":"Polygon","coordinates":[[[127.05653,37.24997],[127.05602,37.25431],[127.05183,37.25627],[127.04815,37.25389],[127.04866,37.24955],[127.05285,37.24759],[127.05653,37.24997]]]}},{"type":"Feature","properties":{"h3":"8830e02ec5fffff","emd_code":"4111759600","emd_name":"망포2동","area_km2":0.5074,"edge":true,"slope_mean":2.8,"elev_mean":26.3,"flood_hist_n":0,"flood_depth_max_m":null,"flood_risk_100y":null,"semi_basement_r":null,"elderly_alone_r":0.0225,"bldg_age30_r":null,"shelter_min_walk":6,"pop":38210,"hh":12926,"elderly65_r":0.0627,"single_hh_r":0.1383,"source_level":"emd","flood_years":[],"landslide_hist_n":0},"geometry":{"type":"Polygon","coordinates":[[[127.04549,37.24283],[127.04498,37.24717],[127.04079,37.24914],[127.03711,37.24676],[127.03762,37.24241],[127.04181,37.24045],[127.04549,37.24283]]]}},{"type":"Feature","properties":{"h3":"8830e02ec7fffff","emd_code":"4111759600","emd_name":"망포2동","area_km2":0.5075,"edge":false,"slope_mean":3.43,"elev_mean":31.8,"flood_hist_n":0,"flood_depth_max_m":null,"flood_risk_100y":null,"semi_basement_r":null,"elderly_alone_r":0.0225,"bldg_age30_r":null,"shelter_min_walk":3,"pop":38210,"hh":12926,"elderly65_r":0.0627,"single_hh_r":0.1383,"source_level":"emd","flood_years":[],"landslide_hist_n":0},"geometry":{"type":"Polygon","coordinates":[[[127.05336,37.24325],[127.05285,37.24759],[127.04866,37.24955],[127.04498,37.24717],[127.04549,37.24283],[127.04968,37.24087],[127.05336,37.24325]]]}},{"type":"Feature","properties":{"h3":"8830e02ec9fffff","emd_code":"4111753000","emd_name":"매탄3동","area_km2":0.5074,"edge":false,"slope_mean":4.71,"elev_mean":38.7,"flood_hist_n":0,"flood_depth_max_m":null,"flood_risk_100y":null,"semi_basement_r":null,"elderly_alone_r":0.063,"bldg_age30_r":null,"shelter_min_walk":4,"pop":33727,"hh":15628,"elderly65_r":0.1265,"single_hh_r":0.4415,"source_level":"emd","flood_years":[],"landslide_hist_n":0},"geometry":{"type":"Polygon","coordinates":[[[127.04396,37.25586],[127.04345,37.2602],[127.03926,37.26216],[127.03558,37.25978],[127.03609,37.25544],[127.04028,37.25348],[127.04396,37.25586]]]}},{"type":"Feature","properties":{"h3":"8830e02ecbfffff","emd_code":"4111753000","emd_name":"매탄3동","area_km2":0.5075,"edge":false,"slope_mean":4.78,"elev_mean":31.9,"flood_hist_n":0,"flood_depth_max_m":null,"flood_risk_100y":null,"semi_basement_r":null,"elderly_alone_r":0.063,"bldg_age30_r":null,"shelter_min_walk":5,"pop":33727,"hh":15628,"elderly65_r":0.1265,"single_hh_r":0.4415,"source_level":"emd","flood_years":[],"landslide_hist_n":0},"geometry":{"type":"Polygon","coordinates":[[[127.05183,37.25627],[127.05132,37.26062],[127.04713,37.26258],[127.04345,37.2602],[127.04396,37.25586],[127.04815,37.25389],[127.05183,37.25627]]]}},{"type":"Feature","properties":{"h3":"8830e02ecdfffff","emd_code":"4111753000","emd_name":"매탄3동","area_km2":0.5073,"edge":true,"slope_mean":5.1,"elev_mean":35.3,"flood_hist_n":0,"flood_depth_max_m":null,"flood_risk_100y":null,"semi_basement_r":null,"elderly_alone_r":0.063,"bldg_age30_r":null,"shelter_min_walk":2,"pop":33727,"hh":15628,"elderly65_r":0.1265,"single_hh_r":0.4415,"source_level":"emd","flood_years":[],"landslide_hist_n":0},"geometry":{"type":"Polygon","coordinates":[[[127.04079,37.24914],[127.04028,37.25348],[127.03609,37.25544],[127.03241,37.25306],[127.03292,37.24872],[127.03711,37.24676],[127.04079,37.24914]]]}},{"type":"Feature","properties":{"h3":"8830e02ed1fffff","emd_code":"4111755000","emd_name":"원천동","area_km2":0.5077,"edge":false,"slope_mean":6.56,"elev_mean":54.1,"flood_hist_n":0,"flood_depth_max_m":null,"flood_risk_100y":null,"semi_basement_r":null,"elderly_alone_r":0.0626,"bldg_age30_r":null,"shelter_min_walk":10,"pop":45583,"hh":21335,"elderly65_r":0.1096,"single_hh_r":0.4524,"source_level":"emd","flood_years":[],"landslide_hist_n":0},"geometry":{"type":"Polygon","coordinates":[[[127.06757,37.25711],[127.06706,37.26145],[127.06287,37.26341],[127.05919,37.26103],[127.0597,37.25669],[127.06389,37.25473],[127.06757,37.25711]]]}},{"type":"Feature","properties":{"h3":"8830e02ed3fffff","emd_code":"4111757000","emd_name":"영통1동","area_km2":0.5078,"edge":false,"slope_mean":10.94,"elev_mean":74.7,"flood_hist_n":0,"flood_depth_max_m":null,"flood_risk_100y":null,"semi_basement_r":null,"elderly_alone_r":0.0569,"bldg_age30_r":null,"shelter_min_walk":6,"pop":32262,"hh":12591,"elderly65_r":0.1191,"single_hh_r":0.2364,"source_level":"emd","flood_years":[],"landslide_hist_n":0},"geometry":{"type":"Polygon","coordinates":[[[127.07545,37.25752],[127.07494,37.26187],[127.07075,37.26383],[127.06706,37.26145],[127.06757,37.25711],[127.07176,37.25514],[127.07545,37.25752]]]}},{"type":"Feature","properties":{"h3":"8830e02ed5fffff","emd_code":"4111753000","emd_name":"매탄3동","area_km2":0.5077,"edge":false,"slope_mean":5.44,"elev_mean":44.4,"flood_hist_n":0,"flood_depth_max_m":null,"flood_risk_100y":null,"semi_basement_r":null,"elderly_alone_r":0.063,"bldg_age30_r":null,"shelter_min_walk":3,"pop":33727,"hh":15628,"elderly65_r":0.1265,"single_hh_r":0.4415,"source_level":"emd","flood_years":[],"landslide_hist_n":0},"geometry":{"type":"Polygon","coordinates":[[[127.0644,37.25038],[127.06389,37.25473],[127.0597,37.25669],[127.05602,37.25431],[127.05653,37.24997],[127.06072,37.248],[127.0644,37.25038]]]}},{"type":"Feature","properties":{"h3":"8830e02ed7fffff","emd_code":"4111758500","emd_name":"영통3동","area_km2":0.5078,"edge":false,"slope_mean":7.71,"elev_mean":58.0,"flood_hist_n":0,"flood_depth_max_m":null,"flood_risk_100y":null,"semi_basement_r":null,"elderly_alone_r":0.0409,"bldg_age30_r":null,"shelter_min_walk":2,"pop":31341,"hh":14316,"elderly65_r":0.101,"single_hh_r":0.443,"source_level":"emd","flood_years":[],"landslide_hist_n":0},"geometry":{"type":"Polygon","coordinates":[[[127.07227,37.2508],[127.07176,37.25514],[127.06757,37.25711],[127.06389,37.25473],[127.0644,37.25038],[127.06859,37.24842],[127.07227,37.2508]]]}},{"type":"Feature","properties":{"h3":"8830e02ed9fffff","emd_code":"4111754000","emd_name":"매탄4동","area_km2":0.5077,"edge":false,"slope_mean":5.45,"elev_mean":38.4,"flood_hist_n":0,"flood_depth_max_m":null,"flood_risk_100y":null,"semi_basement_r":null,"elderly_alone_r":0.0995,"bldg_age30_r":null,"shelter_min_walk":3,"pop":19223,"hh":9363,"elderly65_r":0.1849,"single_hh_r":0.4259,"source_level":"emd","flood_years":[],"landslide_hist_n":0},"geometry":{"type":"Polygon","coordinates":[[[127.06287,37.26341],[127.06236,37.26776],[127.05817,37.26972],[127.05449,37.26734],[127.055,37.263],[127.05919,37.26103],[127.06287,37.26341]]]}},{"type":"Feature","properties":{"h3":"8830e02edbfffff","emd_code":"4111755000","emd_name":"원천동","area_km2":0.5078,"edge":false,"slope_mean":7.88,"elev_mean":53.7,"flood_hist_n":0,"flood_depth_max_m":null,"flood_risk_100y":null,"semi_basement_r":null,"elderly_alone_r":0.0626,"bldg_age30_r":null,"shelter_min_walk":7,"pop":45583,"hh":21335,"elderly65_r":0.1096,"single_hh_r":0.4524,"source_level":"emd","flood_years":[],"landslide_hist_n":0},"geometry":{"type":"Polygon","coordinates":[[[127.07075,37.26383],[127.07024,37.26817],[127.06605,37.27014],[127.06236,37.26776],[127.06287,37.26341],[127.06706,37.26145],[127.07075,37.26383]]]}},{"type":"Feature","properties":{"h3":"8830e02eddfffff","emd_code":"4111753000","emd_name":"매탄3동","area_km2":0.5076,"edge":false,"slope_mean":5.85,"elev_mean":36.0,"flood_hist_n":0,"flood_depth_max_m":null,"flood_risk_100y":null,"semi_basement_r":null,"elderly_alone_r":0.063,"bldg_age30_r":null,"shelter_min_walk":12,"pop":33727,"hh":15628,"elderly65_r":0.1265,"single_hh_r":0.4415,"source_level":"emd","flood_years":[],"landslide_hist_n":0},"geometry":{"type":"Polygon","coordinates":[[[127.0597,37.25669],[127.05919,37.26103],[127.055,37.263],[127.05132,37.26062],[127.05183,37.25627],[127.05602,37.25431],[127.0597,37.25669]]]}},{"type":"Feature","properties":{"h3":"8830e02ee1fffff","emd_code":"4111759600","emd_name":"망포2동","area_km2":0.5074,"edge":true,"slope_mean":2.32,"elev_mean":25.9,"flood_hist_n":0,"flood_depth_max_m":null,"flood_risk_100y":null,"semi_basement_r":null,"elderly_alone_r":0.0225,"bldg_age30_r":null,"shelter_min_walk":7,"pop":38210,"hh":12926,"elderly65_r":0.0627,"single_hh_r":0.1383,"source_level":"emd","flood_years":[],"landslide_hist_n":0},"geometry":{"type":"Polygon","coordinates":[[[127.04702,37.2298],[127.04651,37.23415],[127.04232,37.23611],[127.03864,37.23373],[127.03915,37.22939],[127.04334,37.22742],[127.04702,37.2298]]]}},{"type":"Feature","properties":{"h3":"8830e02ee3fffff","emd_code":"4111759600","emd_name":"망포2동","area_km2":0.5075,"edge":true,"slope_mean":3.88,"elev_mean":30.7,"flood_hist_n":0,"flood_depth_max_m":null,"flood_risk_100y":null,"semi_basement_r":null,"elderly_alone_r":0.0225,"bldg_age30_r":null,"shelter_min_walk":9,"pop":38210,"hh":12926,"elderly65_r":0.0627,"single_hh_r":0.1383,"source_level":"emd","flood_years":[],"landslide_hist_n":0},"geometry":{"type":"Polygon","coordinates":[[[127.05488,37.23022],[127.05437,37.23456],[127.05019,37.23652],[127.04651,37.23415],[127.04702,37.2298],[127.0512,37.22784],[127.05488,37.23022]]]}},{"type":"Feature","properties":{"h3":"8830e02ee9fffff","emd_code":"4111759600","emd_name":"망포2동","area_km2":0.5073,"edge":true,"slope_mean":2.35,"elev_mean":24.1,"flood_hist_n":0,"flood_depth_max_m":null,"flood_risk_100y":null,"semi_basement_r":null,"elderly_alone_r":0.0225,"bldg_age30_r":null,"shelter_min_walk":13,"pop":38210,"hh":12926,"elderly65_r":0.0627,"single_hh_r":0.1383,"source_level":"emd","flood_years":[],"landslide_hist_n":0},"geometry":{"type":"Polygon","coordinates":[[[127.04232,37.23611],[127.04181,37.24045],[127.03762,37.24241],[127.03394,37.24003],[127.03445,37.23569],[127.03864,37.23373],[127.04232,37.23611]]]}},{"type":"Feature","properties":{"h3":"8830e02eebfffff","emd_code":"4111759600","emd_name":"망포2동","area_km2":0.5074,"edge":false,"slope_mean":2.4,"elev_mean":29.2,"flood_hist_n":0,"flood_depth_max_m":null,"flood_risk_100y":null,"semi_basement_r":null,"elderly_alone_r":0.0225,"bldg_age30_r":null,"shelter_min_walk":11,"pop":38210,"hh":12926,"elderly65_r":0.0627,"single_hh_r":0.1383,"source_level":"emd","flood_years":[],"landslide_hist_n":0},"geometry":{"type":"Polygon","coordinates":[[[127.05019,37.23652],[127.04968,37.24087],[127.04549,37.24283],[127.04181,37.24045],[127.04232,37.23611],[127.04651,37.23415],[127.05019,37.23652]]]}}]}