{"type":"FeatureCollection","name":"grid_41115_h3r8","meta":{"sgg_code":"41115","h3_res":8,"n_cells":42,"dem":"Copernicus GLO-30 (bbox-mean)","crs":"EPSG:4326","jumin_basis":"2026-07","flood_src":"행안부 침수흔적도(전국, 재난안전데이터공유플랫폼)","landslide_src":"행안부 산사태 발생이력"},"features":[{"type":"Feature","properties":{"h3":"8830e02083fffff","emd_code":"4111569000","emd_name":"화서2동","area_km2":0.5066,"edge":true,"slope_mean":8.54,"elev_mean":58.3,"flood_hist_n":0,"flood_depth_max_m":null,"flood_risk_100y":null,"semi_basement_r":null,"elderly_alone_r":0.0743,"bldg_age30_r":null,"shelter_min_walk":7,"pop":23669,"hh":9525,"elderly65_r":0.1694,"single_hh_r":0.2545,"source_level":"emd","flood_years":[],"landslide_hist_n":0},"geometry":{"type":"Polygon","coordinates":[[[126.98582,37.27896],[126.98531,37.2833],[126.98112,37.28526],[126.97744,37.28288],[126.97796,37.27854],[126.98215,37.27658],[126.98582,37.27896]]]}},{"type":"Feature","properties":{"h3":"8830e0208bfffff","emd_code":"4111569000","emd_name":"화서2동","area_km2":0.5066,"edge":true,"slope_mean":4.42,"elev_mean":47.2,"flood_hist_n":0,"flood_depth_max_m":null,"flood_risk_100y":null,"semi_basement_r":null,"elderly_alone_r":0.0743,"bldg_age30_r":null,"shelter_min_walk":3,"pop":23669,"hh":9525,"elderly65_r":0.1694,"single_hh_r":0.2545,"source_level":"emd","flood_years":[],"landslide_hist_n":0},"geometry":{"type":"Polygon","coordinates":[[[126.98112,37.28526],[126.98061,37.2896],[126.97642,37.29156],[126.97274,37.28918],[126.97326,37.28484],[126.97744,37.28288],[126.98112,37.28526]]]}},{"type":"Feature","properties":{"h3":"8830e02091fffff","emd_code":"4111569000","emd_name":"화서2동","area_km2":0.5068,"edge":true,"slope_mean":5.71,"elev_mean":47.0,"flood_hist_n":0,"flood_depth_max_m":null,"flood_risk_100y":null,"semi_basement_r":null,"elderly_alone_r":0.0743,"bldg_age30_r":null,"shelter_min_walk":4,"pop":23669,"hh":9525,"elderly65_r":0.1694,"single_hh_r":0.2545,"source_level":"emd","flood_years":[],"landslide_hist_n":0},"geometry":{"type":"Polygon","coordinates":[[[126.99685,37.28611],[126.99634,37.29045],[126.99215,37.29241],[126.98847,37.29003],[126.98898,37.28569],[126.99317,37.28373],[126.99685,37.28611]]]}},{"type":"Feature","properties":{"h3":"8830e02093fffff","emd_code":"4111569000","emd_name":"화서2동","area_km2":0.5069,"edge":false,"slope_mean":6.74,"elev_mean":60.0,"flood_hist_n":0,"flood_depth_max_m":null,"flood_risk_100y":null,"semi_basement_r":null,"elderly_alone_r":0.0743,"bldg_age30_r":null,"shelter_min_walk":1,"pop":23669,"hh":9525,"elderly65_r":0.1694,"single_hh_r":0.2545,"source_level":"emd","flood_years":[],"landslide_hist_n":0},"geometry":{"type":"Polygon","coordinates":[[[127.00472,37.28653],[127.0042,37.29087],[127.00001,37.29283],[126.99634,37.29045],[126.99685,37.28611],[127.00104,37.28415],[127.00472,37.28653]]]}},{"type":"Feature","properties":{"h3":"8830e02095fffff","emd_code":"4111569000","emd_name":"화서2동","area_km2":0.5068,"edge":false,"slope_mean":4.41,"elev_mean":41.0,"flood_hist_n":0,"flood_depth_max_m":null,"flood_risk_100y":null,"semi_basement_r":null,"elderly_alone_r":0.0743,"bldg_age30_r":null,"shelter_min_walk":5,"pop":23669,"hh":9525,"elderly65_r":0.1694,"single_hh_r":0.2545,"source_level":"emd","flood_years":[],"landslide_hist_n":0},"geometry":{"type":"Polygon","coordinates":[[[126.99369,37.27939],[126.99317,37.28373],[126.98898,37.28569],[126.98531,37.2833],[126.98582,37.27896],[126.99001,37.27701],[126.99369,37.27939]]]}},{"type":"Feature","properties":{"h3":"8830e02097fffff","emd_code":"4111568000","emd_name":"화서1동","area_km2":0.5069,"edge":false,"slope_mean":7.59,"elev_mean":56.8,"flood_hist_n":0,"flood_depth_max_m":null,"flood_risk_100y":null,"semi_basement_r":null,"elderly_alone_r":0.1584,"bldg_age30_r":null,"shelter_min_walk":2,"pop":20320,"hh":9659,"elderly65_r":0.2405,"single_hh_r":0.4044,"source_level":"emd","flood_years":[],"landslide_hist_n":0},"geometry":{"type":"Polygon","coordinates":[[[127.00155,37.27981],[127.00104,37.28415],[126.99685,37.28611],[126.99317,37.28373],[126.99369,37.27939],[126.99787,37.27743],[127.00155,37.27981]]]}},{"type":"Feature","properties":{"h3":"8830e0209dfffff","emd_code":"4111569000","emd_name":"화서2동","area_km2":0.5067,"edge":false,"slope_mean":4.56,"elev_mean":44.0,"flood_hist_n":0,"flood_depth_max_m":null,"flood_risk_100y":null,"semi_basement_r":null,"elderly_alone_r":0.0743,"bldg_age30_r":null,"shelter_min_walk":2,"pop":23669,"hh":9525,"elderly65_r":0.1694,"single_hh_r":0.2545,"source_level":"emd","flood_years":[],"landslide_hist_n":0},"geometry":{"type":"Polygon","coordinates":[[[126.98898,37.28569],[126.98847,37.29003],[126.98428,37.29198],[126.98061,37.2896],[126.98112,37.28526],[126.98531,37.2833],[126.98898,37.28569]]]}},{"type":"Feature","properties":{"h3":"8830e020b3fffff","emd_code":"4111566000","emd_name":"매산동","area_km2":0.5068,"edge":false,"slope_mean":5.28,"elev_mean":37.0,"flood_hist_n":0,"flood_depth_max_m":null,"flood_risk_100y":null,"semi_basement_r":null,"elderly_alone_r":0.141,"bldg_age30_r":null,"shelter_min_walk":5,"pop":9786,"hh":6080,"elderly65_r":0.2442,"single_hh_r":0.65,"source_level":"emd","flood_years":[],"landslide_hist_n":0},"geometry":{"type":"Polygon","coordinates":[[[127.00309,37.26679],[127.00258,37.27113],[126.99839,37.27309],[126.99471,37.27071],[126.99522,37.26637],[126.99941,37.26441],[127.00309,37.26679]]]}},{"type":"Feature","properties":{"h3":"8830e020b9fffff","emd_code":"4111569000","emd_name":"화서2동","area_km2":0.5067,"edge":true,"slope_mean":3.63,"elev_mean":38.0,"flood_hist_n":0,"flood_depth_max_m":null,"flood_risk_100y":null,"semi_basement_r":null,"elderly_alone_r":0.0743,"bldg_age30_r":null,"shelter_min_walk":6,"pop":23669,"hh":9525,"elderly65_r":0.1694,"single_hh_r":0.2545,"source_level":"emd","flood_years":[],"landslide_hist_n":0},"geometry":{"type":"Polygon","coordinates":[[[126.99052,37.27267],[126.99001,37.27701],[126.98582,37.27896],[126.98215,37.27658],[126.98266,37.27224],[126.98685,37.27028],[126.99052,37.27267]]]}},{"type":"Feature","properties":{"h3":"8830e020bbfffff","emd_code":"4111568000","emd_name":"화서1동","area_km2":0.5068,"edge":true,"slope_mean":3.3,"elev_mean":37.1,"flood_hist_n":0,"flood_depth_max_m":null,"flood_risk_100y":null,"semi_basement_r":null,"elderly_alone_r":0.1584,"bldg_age30_r":null,"shelter_min_walk":7,"pop":20320,"hh":9659,"elderly65_r":0.2405,"single_hh_r":0.4044,"source_level":"emd","flood_years":[],"landslide_hist_n":0},"geometry":{"type":"Polygon","coordinates":[[[126.99839,37.27309],[126.99787,37.27743],[126.99369,37.27939],[126.99001,37.27701],[126.99052,37.27267],[126.99471,37.27071],[126.99839,37.27309]]]}},{"type":"Feature","properties":{"h3":"8830e020d7fffff","emd_code":"4111569000","emd_name":"화서2동","area_km2":0.5067,"edge":true,"slope_mean":6.0,"elev_mean":51.0,"flood_hist_n":0,"flood_depth_max_m":null,"flood_risk_100y":null,"semi_basement_r":null,"elderly_alone_r":0.0743,"bldg_age30_r":null,"shelter_min_walk":5,"pop":23669,"hh":9525,"elderly65_r":0.1694,"single_hh_r":0.2545,"source_level":"emd","flood_years":[],"landslide_hist_n":0},"geometry":{"type":"Polygon","coordinates":[[[126.98428,37.29198],[126.98377,37.29632],[126.97958,37.29828],[126.9759,37.2959],[126.97642,37.29156],[126.98061,37.2896],[126.98428,37.29198]]]}},{"type":"Feature","properties":{"h3":"8830e02501fffff","emd_code":"4111571000","emd_name":"우만1동","area_km2":0.5073,"edge":false,"slope_mean":4.78,"elev_mean":63.9,"flood_hist_n":0,"flood_depth_max_m":null,"flood_risk_100y":null,"semi_basement_r":null,"elderly_alone_r":0.1818,"bldg_age30_r":null,"shelter_min_walk":3,"pop":17744,"hh":10496,"elderly65_r":0.2524,"single_hh_r":0.5893,"source_level":"emd","flood_years":[],"landslide_hist_n":0},"geometry":{"type":"Polygon","coordinates":[[[127.03303,37.28149],[127.03251,37.28583],[127.02832,37.2878],[127.02464,37.28541],[127.02515,37.28107],[127.02935,37.27911],[127.03303,37.28149]]]}},{"type":"Feature","properties":{"h3":"8830e02503fffff","emd_code":"4111572000","emd_name":"우만2동","area_km2":0.5074,"edge":false,"slope_mean":5.42,"elev_mean":63.4,"flood_hist_n":0,"flood_depth_max_m":null,"flood_risk_100y":null,"semi_basement_r":null,"elderly_alone_r":0.0703,"bldg_age30_r":null,"shelter_min_walk":1,"pop":15423,"hh":7558,"elderly65_r":0.1592,"single_hh_r":0.4839,"source_level":"emd","flood_years":[],"landslide_hist_n":0},"geometry":{"type":"Polygon","coordinates":[[[127.0409,37.28191],[127.04039,37.28625],[127.03619,37.28822],[127.03251,37.28583],[127.03303,37.28149],[127.03722,37.27953],[127.0409,37.28191]]]}},{"type":"Feature","properties":{"h3":"8830e02505fffff","emd_code":"4111570000","emd_name":"지동","area_km2":0.5072,"edge":false,"slope_mean":5.43,"elev_mean":54.7,"flood_hist_n":0,"flood_depth_max_m":null,"flood_risk_100y":null,"semi_basement_r":null,"elderly_alone_r":0.199,"bldg_age30_r":null,"shelter_min_walk":2,"pop":11351,"hh":6152,"elderly65_r":0.3012,"single_hh_r":0.5301,"source_level":"emd","flood_years":[],"landslide_hist_n":0},"geometry":{"type":"Polygon","coordinates":[[[127.02986,37.27477],[127.02935,37.27911],[127.02515,37.28107],[127.02148,37.27869],[127.02199,37.27435],[127.02618,37.27239],[127.02986,37.27477]]]}},{"type":"Feature","properties":{"h3":"8830e02507fffff","emd_code":"4111573000","emd_name":"인계동","area_km2":0.5074,"edge":false,"slope_mean":5.74,"elev_mean":57.4,"flood_hist_n":0,"flood_depth_max_m":null,"flood_risk_100y":null,"semi_basement_r":null,"elderly_alone_r":0.0687,"bldg_age30_r":null,"shelter_min_walk":4,"pop":45266,"hh":25170,"elderly65_r":0.1407,"single_hh_r":0.5748,"source_level":"emd","flood_years":[],"landslide_hist_n":0},"geometry":{"type":"Polygon","coordinates":[[[127.03773,37.27519],[127.03722,37.27953],[127.03303,37.28149],[127.02935,37.27911],[127.02986,37.27477],[127.03405,37.27281],[127.03773,37.27519]]]}},{"type":"Feature","properties":{"h3":"8830e02509fffff","emd_code":"4111574000","emd_name":"행궁동","area_km2":0.5073,"edge":true,"slope_mean":5.09,"elev_mean":72.0,"flood_hist_n":0,"flood_depth_max_m":null,"flood_risk_100y":null,"semi_basement_r":null,"elderly_alone_r":0.2097,"bldg_age30_r":null,"shelter_min_walk":6,"pop":8898,"hh":5846,"elderly65_r":0.3065,"single_hh_r":0.6779,"source_level":"emd","flood_years":[],"landslide_hist_n":0},"geometry":{"type":"Polygon","coordinates":[[[127.02832,37.2878],[127.02781,37.29214],[127.02362,37.2941],[127.01994,37.29172],[127.02045,37.28737],[127.02464,37.28541],[127.02832,37.2878]]]}},{"type":"Feature","properties":{"h3":"8830e0250bfffff","emd_code":"4111571000","emd_name":"우만1동","area_km2":0.5074,"edge":false,"slope_mean":4.97,"elev_mean":80.4,"flood_hist_n":0,"flood_depth_max_m":null,"flood_risk_100y":null,"semi_basement_r":null,"elderly_alone_r":0.1818,"bldg_age30_r":null,"shelter_min_walk":4,"pop":17744,"hh":10496,"elderly65_r":0.2524,"single_hh_r":0.5893,"source_level":"emd","flood_years":[],"landslide_hist_n":0},"geometry":{"type":"Polygon","coordinates":[[[127.03619,37.28822],[127.03568,37.29256],[127.03149,37.29452],[127.02781,37.29214],[127.02832,37.2878],[127.03251,37.28583],[127.03619,37.28822]]]}},{"type":"Feature","properties":{"h3":"8830e0250dfffff","emd_code":"4111574000","emd_name":"행궁동","area_km2":0.5072,"edge":false,"slope_mean":5.68,"elev_mean":60.5,"flood_hist_n":0,"flood_depth_max_m":null,"flood_risk_100y":null,"semi_basement_r":null,"elderly_alone_r":0.2097,"bldg_age30_r":null,"shelter_min_walk":2,"pop":8898,"hh":5846,"elderly65_r":0.3065,"single_hh_r":0.6779,"source_level":"emd","flood_years":[],"landslide_hist_n":0},"geometry":{"type":"Polygon","coordinates":[[[127.02515,37.28107],[127.02464,37.28541],[127.02045,37.28737],[127.01677,37.28499],[127.01729,37.28065],[127.02148,37.27869],[127.02515,37.28107]]]}},{"type":"Feature","properties":{"h3":"8830e02515fffff","emd_code":"4111572000","emd_name":"우만2동","area_km2":0.5075,"edge":true,"slope_mean":8.23,"elev_mean":77.0,"flood_hist_n":0,"flood_depth_max_m":null,"flood_risk_100y":null,"semi_basement_r":null,"elderly_alone_r":0.0703,"bldg_age30_r":null,"shelter_min_walk":10,"pop":15423,"hh":7558,"elderly65_r":0.1592,"single_hh_r":0.4839,"source_level":"emd","flood_years":[],"landslide_hist_n":0},"geometry":{"type":"Polygon","coordinates":[[[127.04877,37.28233],[127.04826,37.28667],[127.04407,37.28864],[127.04039,37.28625],[127.0409,37.28191],[127.04509,37.27995],[127.04877,37.28233]]]}},{"type":"Feature","properties":{"h3":"8830e0251dfffff","emd_code":"4111571000","emd_name":"우만1동","area_km2":0.5075,"edge":false,"slope_mean":9.59,"elev_mean":94.5,"flood_hist_n":0,"flood_depth_max_m":null,"flood_risk_100y":null,"semi_basement_r":null,"elderly_alone_r":0.1818,"bldg_age30_r":null,"shelter_min_walk":9,"pop":17744,"hh":10496,"elderly65_r":0.2524,"single_hh_r":0.5893,"source_level":"emd","flood_years":[],"landslide_hist_n":0},"geometry":{"type":"Polygon","coordinates":[[[127.04407,37.28864],[127.04356,37.29298],[127.03937,37.29494],[127.03568,37.29256],[127.03619,37.28822],[127.04039,37.28625],[127.04407,37.28864]]]}},{"type":"Feature","properties":{"h3":"8830e02521fffff","emd_code":"4111573000","emd_name":"인계동","area_km2":0.5072,"edge":false,"slope_mean":5.94,"elev_mean":47.3,"flood_hist_n":0,"flood_depth_max_m":null,"flood_risk_100y":null,"semi_basement_r":null,"elderly_alone_r":0.0687,"bldg_age30_r":null,"shelter_min_walk":2,"pop":45266,"hh":25170,"elderly65_r":0.1407,"single_hh_r":0.5748,"source_level":"emd","flood_years":[],"landslide_hist_n":0},"geometry":{"type":"Polygon","coordinates":[[[127.03139,37.26174],[127.03088,37.26609],[127.02669,37.26805],[127.02301,37.26567],[127.02352,37.26132],[127.02771,37.25936],[127.03139,37.26174]]]}},{"type":"Feature","properties":{"h3":"8830e02523fffff","emd_code":"4111573000","emd_name":"인계동","area_km2":0.5073,"edge":false,"slope_mean":5.94,"elev_mean":48.7,"flood_hist_n":0,"flood_depth_max_m":null,"flood_risk_100y":null,"semi_basement_r":null,"elderly_alone_r":0.0687,"bldg_age30_r":null,"shelter_min_walk":3,"pop":45266,"hh":25170,"elderly65_r":0.1407,"single_hh_r":0.5748,"source_level":"emd","flood_years":[],"landslide_hist_n":0},"geometry":{"type":"Polygon","coordinates":[[[127.03926,37.26216],[127.03875,37.2665],[127.03456,37.26847],[127.03088,37.26609],[127.03139,37.26174],[127.03558,37.25978],[127.03926,37.26216]]]}},{"type":"Feature","properties":{"h3":"8830e02527fffff","emd_code":"4111573000","emd_name":"인계동","area_km2":0.5073,"edge":true,"slope_mean":4.76,"elev_mean":43.1,"flood_hist_n":0,"flood_depth_max_m":null,"flood_risk_100y":null,"semi_basement_r":null,"elderly_alone_r":0.0687,"bldg_age30_r":null,"shelter_min_walk":1,"pop":45266,"hh":25170,"elderly65_r":0.1407,"single_hh_r":0.5748,"source_level":"emd","flood_years":[],"landslide_hist_n":0},"geometry":{"type":"Polygon","coordinates":[[[127.03609,37.25544],[127.03558,37.25978],[127.03139,37.26174],[127.02771,37.25936],[127.02822,37.25502],[127.03241,37.25306],[127.03609,37.25544]]]}},{"type":"Feature","properties":{"h3":"8830e02529fffff","emd_code":"4111573000","emd_name":"인계동","area_km2":0.5072,"edge":false,"slope_mean":3.96,"elev_mean":46.8,"flood_hist_n":0,"flood_depth_max_m":null,"flood_risk_100y":null,"semi_basement_r":null,"elderly_alone_r":0.0687,"bldg_age30_r":null,"shelter_min_walk":1,"pop":45266,"hh":25170,"elderly65_r":0.1407,"single_hh_r":0.5748,"source_level":"emd","flood_years":[],"landslide_hist_n":0},"geometry":{"type":"Polygon","coordinates":[[[127.02669,37.26805],[127.02618,37.27239],[127.02199,37.27435],[127.01831,37.27197],[127.01882,37.26763],[127.02301,37.26567],[127.02669,37.26805]]]}},{"type":"Feature","properties":{"h3":"8830e0252bfffff","emd_code":"4111573000","emd_name":"인계동","area_km2":0.5073,"edge":false,"slope_mean":5.24,"elev_mean":51.0,"flood_hist_n":0,"flood_depth_max_m":null,"flood_risk_100y":null,"semi_basement_r":null,"elderly_alone_r":0.0687,"bldg_age30_r":null,"shelter_min_walk":5,"pop":45266,"hh":25170,"elderly65_r":0.1407,"single_hh_r":0.5748,"source_level":"emd","flood_years":[],"landslide_hist_n":0},"geometry":{"type":"Polygon","coordinates":[[[127.03456,37.26847],[127.03405,37.27281],[127.02986,37.27477],[127.02618,37.27239],[127.02669,37.26805],[127.03088,37.26609],[127.03456,37.26847]]]}},{"type":"Feature","properties":{"h3":"8830e0252dfffff","emd_code":"4111565000","emd_name":"매교동","area_km2":0.5071,"edge":true,"slope_mean":3.75,"elev_mean":42.1,"flood_hist_n":0,"flood_depth_max_m":null,"flood_risk_100y":null,"semi_basement_r":null,"elderly_alone_r":0.0723,"bldg_age30_r":null,"shelter_min_walk":4,"pop":21742,"hh":9496,"elderly65_r":0.1241,"single_hh_r":0.3539,"source_level":"emd","flood_years":[],"landslide_hist_n":0},"geometry":{"type":"Polygon","coordinates":[[[127.02352,37.26132],[127.02301,37.26567],[127.01882,37.26763],[127.01514,37.26525],[127.01565,37.26091],[127.01984,37.25894],[127.02352,37.26132]]]}},{"type":"Feature","properties":{"h3":"8830e02535fffff","emd_code":"4111573000","emd_name":"인계동","area_km2":0.5075,"edge":true,"slope_mean":4.38,"elev_mean":42.4,"flood_hist_n":0,"flood_depth_max_m":null,"flood_risk_100y":null,"semi_basement_r":null,"elderly_alone_r":0.0687,"bldg_age30_r":null,"shelter_min_walk":2,"pop":45266,"hh":25170,"elderly65_r":0.1407,"single_hh_r":0.5748,"source_level":"emd","flood_years":[],"landslide_hist_n":0},"geometry":{"type":"Polygon","coordinates":[[[127.04713,37.26258],[127.04662,37.26692],[127.04243,37.26888],[127.03875,37.2665],[127.03926,37.26216],[127.04345,37.2602],[127.04713,37.26258]]]}},{"type":"Feature","properties":{"h3":"8830e02539fffff","emd_code":"4111572000","emd_name":"우만2동","area_km2":0.5075,"edge":false,"slope_mean":5.4,"elev_mean":53.2,"flood_hist_n":0,"flood_depth_max_m":null,"flood_risk_100y":null,"semi_basement_r":null,"elderly_alone_r":0.0703,"bldg_age30_r":null,"shelter_min_walk":1,"pop":15423,"hh":7558,"elderly65_r":0.1592,"single_hh_r":0.4839,"source_level":"emd","flood_years":[],"landslide_hist_n":0},"geometry":{"type":"Polygon","coordinates":[[[127.0456,37.27561],[127.04509,37.27995],[127.0409,37.28191],[127.03722,37.27953],[127.03773,37.27519],[127.04192,37.27323],[127.0456,37.27561]]]}},{"type":"Feature","properties":{"h3":"8830e0253dfffff","emd_code":"4111573000","emd_name":"인계동","area_km2":0.5074,"edge":true,"slope_mean":4.6,"elev_mean":54.2,"flood_hist_n":0,"flood_depth_max_m":null,"flood_risk_100y":null,"semi_basement_r":null,"elderly_alone_r":0.0687,"bldg_age30_r":null,"shelter_min_walk":1,"pop":45266,"hh":25170,"elderly65_r":0.1407,"single_hh_r":0.5748,"source_level":"emd","flood_years":[],"landslide_hist_n":0},"geometry":{"type":"Polygon","coordinates":[[[127.04243,37.26888],[127.04192,37.27323],[127.03773,37.27519],[127.03405,37.27281],[127.03456,37.26847],[127.03875,37.2665],[127.04243,37.26888]]]}},{"type":"Feature","properties":{"h3":"8830e02545fffff","emd_code":"4111574000","emd_name":"행궁동","area_km2":0.507,"edge":true,"slope_mean":3.53,"elev_mean":57.2,"flood_hist_n":0,"flood_depth_max_m":null,"flood_risk_100y":null,"semi_basement_r":null,"elderly_alone_r":0.2097,"bldg_age30_r":null,"shelter_min_walk":1,"pop":8898,"hh":5846,"elderly65_r":0.3065,"single_hh_r":0.6779,"source_level":"emd","flood_years":[],"landslide_hist_n":0},"geometry":{"type":"Polygon","coordinates":[[[127.01258,37.28695],[127.01207,37.29129],[127.00788,37.29325],[127.0042,37.29087],[127.00472,37.28653],[127.00891,37.28457],[127.01258,37.28695]]]}},{"type":"Feature","properties":{"h3":"8830e02547fffff","emd_code":"4111574000","emd_name":"행궁동","area_km2":0.5072,"edge":true,"slope_mean":3.36,"elev_mean":60.8,"flood_hist_n":0,"flood_depth_max_m":null,"flood_risk_100y":null,"semi_basement_r":null,"elderly_alone_r":0.2097,"bldg_age30_r":null,"shelter_min_walk":5,"pop":8898,"hh":5846,"elderly65_r":0.3065,"single_hh_r":0.6779,"source_level":"emd","flood_years":[],"landslide_hist_n":0},"geometry":{"type":"Polygon","coordinates":[[[127.02045,37.28737],[127.01994,37.29172],[127.01575,37.29368],[127.01207,37.29129],[127.01258,37.28695],[127.01677,37.28499],[127.02045,37.28737]]]}},{"type":"Feature","properties":{"h3":"8830e02557fffff","emd_code":"4111571000","emd_name":"우만1동","area_km2":0.5074,"edge":true,"slope_mean":10.04,"elev_mean":108.2,"flood_hist_n":0,"flood_depth_max_m":null,"flood_risk_100y":null,"semi_basement_r":null,"elderly_alone_r":0.1818,"bldg_age30_r":null,"shelter_min_walk":6,"pop":17744,"hh":10496,"elderly65_r":0.2524,"single_hh_r":0.5893,"source_level":"emd","flood_years":[],"landslide_hist_n":0},"geometry":{"type":"Polygon","coordinates":[[[127.03937,37.29494],[127.03886,37.29928],[127.03466,37.30124],[127.03098,37.29886],[127.03149,37.29452],[127.03568,37.29256],[127.03937,37.29494]]]}},{"type":"Feature","properties":{"h3":"8830e02561fffff","emd_code":"4111566000","emd_name":"매산동","area_km2":0.507,"edge":false,"slope_mean":11.69,"elev_mean":79.8,"flood_hist_n":0,"flood_depth_max_m":null,"flood_risk_100y":null,"semi_basement_r":null,"elderly_alone_r":0.141,"bldg_age30_r":null,"shelter_min_walk":9,"pop":9786,"hh":6080,"elderly65_r":0.2442,"single_hh_r":0.65,"source_level":"emd","flood_years":[],"landslide_hist_n":0},"geometry":{"type":"Polygon","coordinates":[[[127.01412,37.27393],[127.01361,37.27827],[127.00942,37.28023],[127.00574,37.27785],[127.00625,37.27351],[127.01044,37.27155],[127.01412,37.27393]]]}},{"type":"Feature","properties":{"h3":"8830e02563fffff","emd_code":"4111574000","emd_name":"행궁동","area_km2":0.5071,"edge":false,"slope_mean":6.09,"elev_mean":51.2,"flood_hist_n":0,"flood_depth_max_m":null,"flood_risk_100y":null,"semi_basement_r":null,"elderly_alone_r":0.2097,"bldg_age30_r":null,"shelter_min_walk":3,"pop":8898,"hh":5846,"elderly65_r":0.3065,"single_hh_r":0.6779,"source_level":"emd","flood_years":[],"landslide_hist_n":0},"geometry":{"type":"Polygon","coordinates":[[[127.02199,37.27435],[127.02148,37.27869],[127.01729,37.28065],[127.01361,37.27827],[127.01412,37.27393],[127.01831,37.27197],[127.02199,37.27435]]]}},{"type":"Feature","properties":{"h3":"8830e02565fffff","emd_code":"4111566000","emd_name":"매산동","area_km2":0.507,"edge":false,"slope_mean":4.76,"elev_mean":45.2,"flood_hist_n":0,"flood_depth_max_m":null,"flood_risk_100y":null,"semi_basement_r":null,"elderly_alone_r":0.141,"bldg_age30_r":null,"shelter_min_walk":1,"pop":9786,"hh":6080,"elderly65_r":0.2442,"single_hh_r":0.65,"source_level":"emd","flood_years":[],"landslide_hist_n":0},"geometry":{"type":"Polygon","coordinates":[[[127.01095,37.26721],[127.01044,37.27155],[127.00625,37.27351],[127.00258,37.27113],[127.00309,37.26679],[127.00728,37.26483],[127.01095,37.26721]]]}},{"type":"Feature","properties":{"h3":"8830e02567fffff","emd_code":"4111565000","emd_name":"매교동","area_km2":0.5071,"edge":false,"slope_mean":5.29,"elev_mean":46.5,"flood_hist_n":0,"flood_depth_max_m":null,"flood_risk_100y":null,"semi_basement_r":null,"elderly_alone_r":0.0723,"bldg_age30_r":null,"shelter_min_walk":4,"pop":21742,"hh":9496,"elderly65_r":0.1241,"single_hh_r":0.3539,"source_level":"emd","flood_years":[],"landslide_hist_n":0},"geometry":{"type":"Polygon","coordinates":[[[127.01882,37.26763],[127.01831,37.27197],[127.01412,37.27393],[127.01044,37.27155],[127.01095,37.26721],[127.01514,37.26525],[127.01882,37.26763]]]}},{"type":"Feature","properties":{"h3":"8830e02569fffff","emd_code":"4111568000","emd_name":"화서1동","area_km2":0.507,"edge":false,"slope_mean":8.43,"elev_mean":69.1,"flood_hist_n":0,"flood_depth_max_m":null,"flood_risk_100y":null,"semi_basement_r":null,"elderly_alone_r":0.1584,"bldg_age30_r":null,"shelter_min_walk":6,"pop":20320,"hh":9659,"elderly65_r":0.2405,"single_hh_r":0.4044,"source_level":"emd","flood_years":[],"landslide_hist_n":0},"geometry":{"type":"Polygon","coordinates":[[[127.00942,37.28023],[127.00891,37.28457],[127.00472,37.28653],[127.00104,37.28415],[127.00155,37.27981],[127.00574,37.27785],[127.00942,37.28023]]]}},{"type":"Feature","properties":{"h3":"8830e0256bfffff","emd_code":"4111574000","emd_name":"행궁동","area_km2":0.5071,"edge":false,"slope_mean":7.22,"elev_mean":69.0,"flood_hist_n":0,"flood_depth_max_m":null,"flood_risk_100y":null,"semi_basement_r":null,"elderly_alone_r":0.2097,"bldg_age30_r":null,"shelter_min_walk":4,"pop":8898,"hh":5846,"elderly65_r":0.3065,"single_hh_r":0.6779,"source_level":"emd","flood_years":[],"landslide_hist_n":0},"geometry":{"type":"Polygon","coordinates":[[[127.01729,37.28065],[127.01677,37.28499],[127.01258,37.28695],[127.00891,37.28457],[127.00942,37.28023],[127.01361,37.27827],[127.01729,37.28065]]]}},{"type":"Feature","properties":{"h3":"8830e0256dfffff","emd_code":"4111567000","emd_name":"고등동","area_km2":0.5069,"edge":false,"slope_mean":4.31,"elev_mean":48.5,"flood_hist_n":0,"flood_depth_max_m":null,"flood_risk_100y":null,"semi_basement_r":null,"elderly_alone_r":0.1172,"bldg_age30_r":null,"shelter_min_walk":5,"pop":19126,"hh":9015,"elderly65_r":0.182,"single_hh_r":0.4097,"source_level":"emd","flood_years":[],"landslide_hist_n":0},"geometry":{"type":"Polygon","coordinates":[[[127.00625,37.27351],[127.00574,37.27785],[127.00155,37.27981],[126.99787,37.27743],[126.99839,37.27309],[127.00258,37.27113],[127.00625,37.27351]]]}},{"type":"Feature","properties":{"h3":"8830e02e59fffff","emd_code":"4111566000","emd_name":"매산동","area_km2":0.5069,"edge":true,"slope_mean":4.55,"elev_mean":36.4,"flood_hist_n":0,"flood_depth_max_m":null,"flood_risk_100y":null,"semi_basement_r":null,"elderly_alone_r":0.141,"bldg_age30_r":null,"shelter_min_walk":5,"pop":9786,"hh":6080,"elderly65_r":0.2442,"single_hh_r":0.65,"source_level":"emd","flood_years":[],"landslide_hist_n":0},"geometry":{"type":"Polygon","coordinates":[[[127.00779,37.26049],[127.00728,37.26483],[127.00309,37.26679],[126.99941,37.26441],[126.99993,37.26007],[127.00411,37.25811],[127.00779,37.26049]]]}},{"type":"Feature","properties":{"h3":"8830e02e5bfffff","emd_code":"4111565000","emd_name":"매교동","area_km2":0.507,"edge":true,"slope_mean":3.69,"elev_mean":39.2,"flood_hist_n":0,"flood_depth_max_m":null,"flood_risk_100y":null,"semi_basement_r":null,"elderly_alone_r":0.0723,"bldg_age30_r":null,"shelter_min_walk":5,"pop":21742,"hh":9496,"elderly65_r":0.1241,"single_hh_r":0.3539,"source_level":"emd","flood_years":[],"landslide_hist_n":0},"geometry":{"type":"Polygon","coordinates":[[[127.01565,37.26091],[127.01514,37.26525],[127.01095,37.26721],[127.00728,37.26483],[127.00779,37.26049],[127.01198,37.25852],[127.01565,37.26091]]]}},{"type":"Feature","properties":{"h3":"8830e02ec9fffff","emd_code":"4111573000","emd_name":"인계동","area_km2":0.5074,"edge":true,"slope_mean":4.67,"elev_mean":38.9,"flood_hist_n":0,"flood_depth_max_m":null,"flood_risk_100y":null,"semi_basement_r":null,"elderly_alone_r":0.0687,"bldg_age30_r":null,"shelter_min_walk":4,"pop":45266,"hh":25170,"elderly65_r":0.1407,"single_hh_r":0.5748,"source_level":"emd","flood_years":[],"landslide_hist_n":0},"geometry":{"type":"Polygon","coordinates":[[[127.04396,37.25586],[127.04345,37.2602],[127.03926,37.26216],[127.03558,37.25978],[127.03609,37.25544],[127.04028,37.25348],[127.04396,37.25586]]]}}]}