{"type":"FeatureCollection","name":"grid_41111_h3r8","meta":{"sgg_code":"41111","h3_res":8,"n_cells":86,"dem":"Copernicus GLO-30 (bbox-mean)","crs":"EPSG:4326","jumin_basis":"2026-07","flood_src":"행안부 침수흔적도(전국, 재난안전데이터공유플랫폼)","landslide_src":"행안부 산사태 발생이력"},"features":[{"type":"Feature","properties":{"h3":"8830e02089fffff","emd_code":"4111156600","emd_name":"율천동","area_km2":0.5065,"edge":true,"slope_mean":4.77,"elev_mean":45.0,"flood_hist_n":0,"flood_depth_max_m":null,"flood_risk_100y":null,"semi_basement_r":null,"elderly_alone_r":0.0637,"bldg_age30_r":null,"shelter_min_walk":7,"pop":39330,"hh":19582,"elderly65_r":0.1466,"single_hh_r":0.4946,"source_level":"emd","flood_years":[],"landslide_hist_n":0},"geometry":{"type":"Polygon","coordinates":[[[126.97326,37.28484],[126.97274,37.28918],[126.96855,37.29114],[126.96488,37.28875],[126.96539,37.28441],[126.96958,37.28246],[126.97326,37.28484]]]}},{"type":"Feature","properties":{"h3":"8830e0208bfffff","emd_code":"4111156600","emd_name":"율천동","area_km2":0.5066,"edge":false,"slope_mean":4.35,"elev_mean":47.0,"flood_hist_n":0,"flood_depth_max_m":null,"flood_risk_100y":null,"semi_basement_r":null,"elderly_alone_r":0.0637,"bldg_age30_r":null,"shelter_min_walk":3,"pop":39330,"hh":19582,"elderly65_r":0.1466,"single_hh_r":0.4946,"source_level":"emd","flood_years":[],"landslide_hist_n":0},"geometry":{"type":"Polygon","coordinates":[[[126.98112,37.28526],[126.98061,37.2896],[126.97642,37.29156],[126.97274,37.28918],[126.97326,37.28484],[126.97744,37.28288],[126.98112,37.28526]]]}},{"type":"Feature","properties":{"h3":"8830e02091fffff","emd_code":"4111157200","emd_name":"정자2동","area_km2":0.5068,"edge":false,"slope_mean":5.51,"elev_mean":46.6,"flood_hist_n":0,"flood_depth_max_m":null,"flood_risk_100y":null,"semi_basement_r":null,"elderly_alone_r":0.1112,"bldg_age30_r":null,"shelter_min_walk":4,"pop":38129,"hh":16257,"elderly65_r":0.1633,"single_hh_r":0.3328,"source_level":"emd","flood_years":[],"landslide_hist_n":0},"geometry":{"type":"Polygon","coordinates":[[[126.99685,37.28611],[126.99634,37.29045],[126.99215,37.29241],[126.98847,37.29003],[126.98898,37.28569],[126.99317,37.28373],[126.99685,37.28611]]]}},{"type":"Feature","properties":{"h3":"8830e02093fffff","emd_code":"4111158000","emd_name":"영화동","area_km2":0.5069,"edge":true,"slope_mean":6.8,"elev_mean":59.7,"flood_hist_n":0,"flood_depth_max_m":null,"flood_risk_100y":null,"semi_basement_r":null,"elderly_alone_r":0.2047,"bldg_age30_r":null,"shelter_min_walk":1,"pop":17632,"hh":10198,"elderly65_r":0.3008,"single_hh_r":0.5609,"source_level":"emd","flood_years":[],"landslide_hist_n":0},"geometry":{"type":"Polygon","coordinates":[[[127.00472,37.28653],[127.0042,37.29087],[127.00001,37.29283],[126.99634,37.29045],[126.99685,37.28611],[127.00104,37.28415],[127.00472,37.28653]]]}},{"type":"Feature","properties":{"h3":"8830e02099fffff","emd_code":"4111157300","emd_name":"정자3동","area_km2":0.5068,"edge":false,"slope_mean":5.27,"elev_mean":46.3,"flood_hist_n":0,"flood_depth_max_m":null,"flood_risk_100y":null,"semi_basement_r":null,"elderly_alone_r":0.0572,"bldg_age30_r":null,"shelter_min_walk":5,"pop":38090,"hh":14085,"elderly65_r":0.1186,"single_hh_r":0.2238,"source_level":"emd","flood_years":[],"landslide_hist_n":0},"geometry":{"type":"Polygon","coordinates":[[[126.99215,37.29241],[126.99163,37.29675],[126.98744,37.29871],[126.98377,37.29632],[126.98428,37.29198],[126.98847,37.29003],[126.99215,37.29241]]]}},{"type":"Feature","properties":{"h3":"8830e0209bfffff","emd_code":"4111157200","emd_name":"정자2동","area_km2":0.5069,"edge":false,"slope_mean":5.36,"elev_mean":49.2,"flood_hist_n":0,"flood_depth_max_m":null,"flood_risk_100y":null,"semi_basement_r":null,"elderly_alone_r":0.1112,"bldg_age30_r":null,"shelter_min_walk":5,"pop":38129,"hh":16257,"elderly65_r":0.1633,"single_hh_r":0.3328,"source_level":"emd","flood_years":[],"landslide_hist_n":0},"geometry":{"type":"Polygon","coordinates":[[[127.00001,37.29283],[126.9995,37.29717],[126.99531,37.29913],[126.99163,37.29675],[126.99215,37.29241],[126.99634,37.29045],[127.00001,37.29283]]]}},{"type":"Feature","properties":{"h3":"8830e0209dfffff","emd_code":"4111157200","emd_name":"정자2동","area_km2":0.5067,"edge":true,"slope_mean":4.61,"elev_mean":44.0,"flood_hist_n":0,"flood_depth_max_m":null,"flood_risk_100y":null,"semi_basement_r":null,"elderly_alone_r":0.1112,"bldg_age30_r":null,"shelter_min_walk":2,"pop":38129,"hh":16257,"elderly65_r":0.1633,"single_hh_r":0.3328,"source_level":"emd","flood_years":[],"landslide_hist_n":0},"geometry":{"type":"Polygon","coordinates":[[[126.98898,37.28569],[126.98847,37.29003],[126.98428,37.29198],[126.98061,37.2896],[126.98112,37.28526],[126.98531,37.2833],[126.98898,37.28569]]]}},{"type":"Feature","properties":{"h3":"8830e020c3fffff","emd_code":"4111156600","emd_name":"율천동","area_km2":0.5064,"edge":true,"slope_mean":4.19,"elev_mean":48.7,"flood_hist_n":0,"flood_depth_max_m":null,"flood_risk_100y":null,"semi_basement_r":null,"elderly_alone_r":0.0637,"bldg_age30_r":null,"shelter_min_walk":7,"pop":39330,"hh":19582,"elderly65_r":0.1466,"single_hh_r":0.4946,"source_level":"emd","flood_years":[],"landslide_hist_n":0},"geometry":{"type":"Polygon","coordinates":[[[126.96855,37.29114],[126.96804,37.29548],[126.96385,37.29743],[126.96018,37.29505],[126.96069,37.29071],[126.96488,37.28875],[126.96855,37.29114]]]}},{"type":"Feature","properties":{"h3":"8830e020cbfffff","emd_code":"4111156600","emd_name":"율천동","area_km2":0.5064,"edge":true,"slope_mean":5.88,"elev_mean":53.0,"flood_hist_n":0,"flood_depth_max_m":null,"flood_risk_100y":null,"semi_basement_r":null,"elderly_alone_r":0.0637,"bldg_age30_r":null,"shelter_min_walk":5,"pop":39330,"hh":19582,"elderly65_r":0.1466,"single_hh_r":0.4946,"source_level":"emd","flood_years":[],"landslide_hist_n":0},"geometry":{"type":"Polygon","coordinates":[[[126.96385,37.29743],[126.96334,37.30177],[126.95915,37.30373],[126.95547,37.30135],[126.95599,37.29701],[126.96018,37.29505],[126.96385,37.29743]]]}},{"type":"Feature","properties":{"h3":"8830e020d1fffff","emd_code":"4111157300","emd_name":"정자3동","area_km2":0.5066,"edge":false,"slope_mean":5.1,"elev_mean":58.7,"flood_hist_n":0,"flood_depth_max_m":null,"flood_risk_100y":null,"semi_basement_r":null,"elderly_alone_r":0.0572,"bldg_age30_r":null,"shelter_min_walk":3,"pop":38090,"hh":14085,"elderly65_r":0.1186,"single_hh_r":0.2238,"source_level":"emd","flood_years":[],"landslide_hist_n":0},"geometry":{"type":"Polygon","coordinates":[[[126.97958,37.29828],[126.97906,37.30262],[126.97487,37.30458],[126.9712,37.3022],[126.97171,37.29786],[126.9759,37.2959],[126.97958,37.29828]]]}},{"type":"Feature","properties":{"h3":"8830e020d3fffff","emd_code":"4111157300","emd_name":"정자3동","area_km2":0.5067,"edge":false,"slope_mean":5.15,"elev_mean":51.3,"flood_hist_n":0,"flood_depth_max_m":null,"flood_risk_100y":null,"semi_basement_r":null,"elderly_alone_r":0.0572,"bldg_age30_r":null,"shelter_min_walk":4,"pop":38090,"hh":14085,"elderly65_r":0.1186,"single_hh_r":0.2238,"source_level":"emd","flood_years":[],"landslide_hist_n":0},"geometry":{"type":"Polygon","coordinates":[[[126.98744,37.29871],[126.98693,37.30305],[126.98274,37.30501],[126.97906,37.30262],[126.97958,37.29828],[126.98377,37.29632],[126.98744,37.29871]]]}},{"type":"Feature","properties":{"h3":"8830e020d5fffff","emd_code":"4111156600","emd_name":"율천동","area_km2":0.5065,"edge":false,"slope_mean":4.53,"elev_mean":51.2,"flood_hist_n":0,"flood_depth_max_m":null,"flood_risk_100y":null,"semi_basement_r":null,"elderly_alone_r":0.0637,"bldg_age30_r":null,"shelter_min_walk":3,"pop":39330,"hh":19582,"elderly65_r":0.1466,"single_hh_r":0.4946,"source_level":"emd","flood_years":[],"landslide_hist_n":0},"geometry":{"type":"Polygon","coordinates":[[[126.97642,37.29156],[126.9759,37.2959],[126.97171,37.29786],[126.96804,37.29548],[126.96855,37.29114],[126.97274,37.28918],[126.97642,37.29156]]]}},{"type":"Feature","properties":{"h3":"8830e020d7fffff","emd_code":"4111156600","emd_name":"율천동","area_km2":0.5067,"edge":false,"slope_mean":6.02,"elev_mean":51.1,"flood_hist_n":0,"flood_depth_max_m":null,"flood_risk_100y":null,"semi_basement_r":null,"elderly_alone_r":0.0637,"bldg_age30_r":null,"shelter_min_walk":5,"pop":39330,"hh":19582,"elderly65_r":0.1466,"single_hh_r":0.4946,"source_level":"emd","flood_years":[],"landslide_hist_n":0},"geometry":{"type":"Polygon","coordinates":[[[126.98428,37.29198],[126.98377,37.29632],[126.97958,37.29828],[126.9759,37.2959],[126.97642,37.29156],[126.98061,37.2896],[126.98428,37.29198]]]}},{"type":"Feature","properties":{"h3":"8830e020d9fffff","emd_code":"4111156600","emd_name":"율천동","area_km2":0.5066,"edge":false,"slope_mean":7.49,"elev_mean":76.0,"flood_hist_n":0,"flood_depth_max_m":null,"flood_risk_100y":null,"semi_basement_r":null,"elderly_alone_r":0.0637,"bldg_age30_r":null,"shelter_min_walk":2,"pop":39330,"hh":19582,"elderly65_r":0.1466,"single_hh_r":0.4946,"source_level":"emd","flood_years":[],"landslide_hist_n":0},"geometry":{"type":"Polygon","coordinates":[[[126.97487,37.30458],[126.97436,37.30892],[126.97017,37.31088],[126.9665,37.30849],[126.96701,37.30415],[126.9712,37.3022],[126.97487,37.30458]]]}},{"type":"Feature","properties":{"h3":"8830e020dbfffff","emd_code":"4111156000","emd_name":"파장동","area_km2":0.5067,"edge":false,"slope_mean":4.2,"elev_mean":59.8,"flood_hist_n":0,"flood_depth_max_m":null,"flood_risk_100y":null,"semi_basement_r":null,"elderly_alone_r":0.1448,"bldg_age30_r":null,"shelter_min_walk":8,"pop":24524,"hh":11546,"elderly65_r":0.2201,"single_hh_r":0.4131,"source_level":"emd","flood_years":[],"landslide_hist_n":0},"geometry":{"type":"Polygon","coordinates":[[[126.98274,37.30501],[126.98223,37.30935],[126.97804,37.3113],[126.97436,37.30892],[126.97487,37.30458],[126.97906,37.30262],[126.98274,37.30501]]]}},{"type":"Feature","properties":{"h3":"8830e020ddfffff","emd_code":"4111156600","emd_name":"율천동","area_km2":0.5065,"edge":false,"slope_mean":4.78,"elev_mean":60.8,"flood_hist_n":0,"flood_depth_max_m":null,"flood_risk_100y":null,"semi_basement_r":null,"elderly_alone_r":0.0637,"bldg_age30_r":null,"shelter_min_walk":1,"pop":39330,"hh":19582,"elderly65_r":0.1466,"single_hh_r":0.4946,"source_level":"emd","flood_years":[],"landslide_hist_n":0},"geometry":{"type":"Polygon","coordinates":[[[126.97171,37.29786],[126.9712,37.3022],[126.96701,37.30415],[126.96334,37.30177],[126.96385,37.29743],[126.96804,37.29548],[126.97171,37.29786]]]}},{"type":"Feature","properties":{"h3":"8830e02293fffff","emd_code":"4111156000","emd_name":"파장동","area_km2":0.5066,"edge":true,"slope_mean":12.05,"elev_mean":103.4,"flood_hist_n":0,"flood_depth_max_m":null,"flood_risk_100y":null,"semi_basement_r":null,"elderly_alone_r":0.1448,"bldg_age30_r":null,"shelter_min_walk":19,"pop":24524,"hh":11546,"elderly65_r":0.2201,"single_hh_r":0.4131,"source_level":"emd","flood_years":[],"landslide_hist_n":0},"geometry":{"type":"Polygon","coordinates":[[[126.97179,37.33062],[126.97127,37.33496],[126.96708,37.33692],[126.96341,37.33453],[126.96392,37.33019],[126.96811,37.32824],[126.97179,37.33062]]]}},{"type":"Feature","properties":{"h3":"8830e02297fffff","emd_code":"4111156000","emd_name":"파장동","area_km2":0.5065,"edge":true,"slope_mean":11.34,"elev_mean":101.4,"flood_hist_n":0,"flood_depth_max_m":null,"flood_risk_100y":null,"semi_basement_r":null,"elderly_alone_r":0.1448,"bldg_age30_r":null,"shelter_min_walk":11,"pop":24524,"hh":11546,"elderly65_r":0.2201,"single_hh_r":0.4131,"source_level":"emd","flood_years":[],"landslide_hist_n":0},"geometry":{"type":"Polygon","coordinates":[[[126.96863,37.3239],[126.96811,37.32824],[126.96392,37.33019],[126.96025,37.32781],[126.96076,37.32347],[126.96495,37.32151],[126.96863,37.3239]]]}},{"type":"Feature","properties":{"h3":"8830e022b3fffff","emd_code":"4111156600","emd_name":"율천동","area_km2":0.5065,"edge":true,"slope_mean":11.98,"elev_mean":91.9,"flood_hist_n":0,"flood_depth_max_m":null,"flood_risk_100y":null,"semi_basement_r":null,"elderly_alone_r":0.0637,"bldg_age30_r":null,"shelter_min_walk":12,"pop":39330,"hh":19582,"elderly65_r":0.1466,"single_hh_r":0.4946,"source_level":"emd","flood_years":[],"landslide_hist_n":0},"geometry":{"type":"Polygon","coordinates":[[[126.97017,37.31088],[126.96966,37.31522],[126.96547,37.31717],[126.96179,37.31479],[126.96231,37.31045],[126.9665,37.30849],[126.97017,37.31088]]]}},{"type":"Feature","properties":{"h3":"8830e022b7fffff","emd_code":"4111156600","emd_name":"율천동","area_km2":0.5065,"edge":true,"slope_mean":7.42,"elev_mean":66.2,"flood_hist_n":0,"flood_depth_max_m":null,"flood_risk_100y":null,"semi_basement_r":null,"elderly_alone_r":0.0637,"bldg_age30_r":null,"shelter_min_walk":5,"pop":39330,"hh":19582,"elderly65_r":0.1466,"single_hh_r":0.4946,"source_level":"emd","flood_years":[],"landslide_hist_n":0},"geometry":{"type":"Polygon","coordinates":[[[126.96701,37.30415],[126.9665,37.30849],[126.96231,37.31045],[126.95863,37.30807],[126.95915,37.30373],[126.96334,37.30177],[126.96701,37.30415]]]}},{"type":"Feature","properties":{"h3":"8830e02441fffff","emd_code":"4111160000","emd_name":"연무동","area_km2":0.5075,"edge":true,"slope_mean":26.17,"elev_mean":458.4,"flood_hist_n":0,"flood_depth_max_m":null,"flood_risk_100y":null,"semi_basement_r":null,"elderly_alone_r":0.1605,"bldg_age30_r":null,"shelter_min_walk":31,"pop":16890,"hh":9396,"elderly65_r":0.2689,"single_hh_r":0.5412,"source_level":"emd","flood_years":[],"landslide_hist_n":0},"geometry":{"type":"Polygon","coordinates":[[[127.03794,37.34075],[127.03743,37.34509],[127.03323,37.34705],[127.02955,37.34467],[127.03006,37.34033],[127.03426,37.33837],[127.03794,37.34075]]]}},{"type":"Feature","properties":{"h3":"8830e02445fffff","emd_code":"4111160000","emd_name":"연무동","area_km2":0.5075,"edge":false,"slope_mean":22.91,"elev_mean":365.4,"flood_hist_n":0,"flood_depth_max_m":null,"flood_risk_100y":null,"semi_basement_r":null,"elderly_alone_r":0.1605,"bldg_age30_r":null,"shelter_min_walk":32,"pop":16890,"hh":9396,"elderly65_r":0.2689,"single_hh_r":0.5412,"source_level":"emd","flood_years":[],"landslide_hist_n":0},"geometry":{"type":"Polygon","coordinates":[[[127.03477,37.33403],[127.03426,37.33837],[127.03006,37.34033],[127.02638,37.33794],[127.02689,37.3336],[127.03109,37.33164],[127.03477,37.33403]]]}},{"type":"Feature","properties":{"h3":"8830e02447fffff","emd_code":"4111160000","emd_name":"연무동","area_km2":0.5076,"edge":true,"slope_mean":20.12,"elev_mean":304.0,"flood_hist_n":0,"flood_depth_max_m":null,"flood_risk_100y":null,"semi_basement_r":null,"elderly_alone_r":0.1605,"bldg_age30_r":null,"shelter_min_walk":22,"pop":16890,"hh":9396,"elderly65_r":0.2689,"single_hh_r":0.5412,"source_level":"emd","flood_years":[],"landslide_hist_n":0},"geometry":{"type":"Polygon","coordinates":[[[127.04265,37.33445],[127.04214,37.33879],[127.03794,37.34075],[127.03426,37.33837],[127.03477,37.33403],[127.03896,37.33207],[127.04265,37.33445]]]}},{"type":"Feature","properties":{"h3":"8830e02449fffff","emd_code":"4111160000","emd_name":"연무동","area_km2":0.5075,"edge":true,"slope_mean":23.5,"elev_mean":424.7,"flood_hist_n":0,"flood_depth_max_m":null,"flood_risk_100y":null,"semi_basement_r":null,"elderly_alone_r":0.1605,"bldg_age30_r":null,"shelter_min_walk":42,"pop":16890,"hh":9396,"elderly65_r":0.2689,"single_hh_r":0.5412,"source_level":"emd","flood_years":[],"landslide_hist_n":0},"geometry":{"type":"Polygon","coordinates":[[[127.03323,37.34705],[127.03272,37.3514],[127.02853,37.35336],[127.02484,37.35097],[127.02536,37.34663],[127.02955,37.34467],[127.03323,37.34705]]]}},{"type":"Feature","properties":{"h3":"8830e0244dfffff","emd_code":"4111160000","emd_name":"연무동","area_km2":0.5074,"edge":false,"slope_mean":21.15,"elev_mean":348.4,"flood_hist_n":0,"flood_depth_max_m":null,"flood_risk_100y":null,"semi_basement_r":null,"elderly_alone_r":0.1605,"bldg_age30_r":null,"shelter_min_walk":40,"pop":16890,"hh":9396,"elderly65_r":0.2689,"single_hh_r":0.5412,"source_level":"emd","flood_years":[],"landslide_hist_n":0},"geometry":{"type":"Polygon","coordinates":[[[127.03006,37.34033],[127.02955,37.34467],[127.02536,37.34663],[127.02167,37.34425],[127.02219,37.3399],[127.02638,37.33794],[127.03006,37.34033]]]}},{"type":"Feature","properties":{"h3":"8830e02461fffff","emd_code":"4111160000","emd_name":"연무동","area_km2":0.5075,"edge":false,"slope_mean":18.92,"elev_mean":267.3,"flood_hist_n":0,"flood_depth_max_m":null,"flood_risk_100y":null,"semi_basement_r":null,"elderly_alone_r":0.1605,"bldg_age30_r":null,"shelter_min_walk":29,"pop":16890,"hh":9396,"elderly65_r":0.2689,"single_hh_r":0.5412,"source_level":"emd","flood_years":[],"landslide_hist_n":0},"geometry":{"type":"Polygon","coordinates":[[[127.0363,37.321],[127.03579,37.32534],[127.0316,37.3273],[127.02791,37.32492],[127.02843,37.32057],[127.03262,37.31861],[127.0363,37.321]]]}},{"type":"Feature","properties":{"h3":"8830e02463fffff","emd_code":"4111160000","emd_name":"연무동","area_km2":0.5076,"edge":true,"slope_mean":17.27,"elev_mean":290.5,"flood_hist_n":0,"flood_depth_max_m":null,"flood_risk_100y":null,"semi_basement_r":null,"elderly_alone_r":0.1605,"bldg_age30_r":null,"shelter_min_walk":18,"pop":16890,"hh":9396,"elderly65_r":0.2689,"single_hh_r":0.5412,"source_level":"emd","flood_years":[],"landslide_hist_n":1},"geometry":{"type":"Polygon","coordinates":[[[127.04418,37.32142],[127.04367,37.32576],[127.03947,37.32772],[127.03579,37.32534],[127.0363,37.321],[127.04049,37.31904],[127.04418,37.32142]]]}},{"type":"Feature","properties":{"h3":"8830e02465fffff","emd_code":"4111160000","emd_name":"연무동","area_km2":0.5074,"edge":false,"slope_mean":15.72,"elev_mean":180.3,"flood_hist_n":0,"flood_depth_max_m":null,"flood_risk_100y":null,"semi_basement_r":null,"elderly_alone_r":0.1605,"bldg_age30_r":null,"shelter_min_walk":25,"pop":16890,"hh":9396,"elderly65_r":0.2689,"single_hh_r":0.5412,"source_level":"emd","flood_years":[],"landslide_hist_n":0},"geometry":{"type":"Polygon","coordinates":[[[127.03313,37.31427],[127.03262,37.31861],[127.02843,37.32057],[127.02474,37.31819],[127.02526,37.31385],[127.02945,37.31189],[127.03313,37.31427]]]}},{"type":"Feature","properties":{"h3":"8830e02467fffff","emd_code":"4111160000","emd_name":"연무동","area_km2":0.5075,"edge":false,"slope_mean":16.46,"elev_mean":225.8,"flood_hist_n":0,"flood_depth_max_m":null,"flood_risk_100y":null,"semi_basement_r":null,"elderly_alone_r":0.1605,"bldg_age30_r":null,"shelter_min_walk":20,"pop":16890,"hh":9396,"elderly65_r":0.2689,"single_hh_r":0.5412,"source_level":"emd","flood_years":[],"landslide_hist_n":0},"geometry":{"type":"Polygon","coordinates":[[[127.04101,37.31469],[127.04049,37.31904],[127.0363,37.321],[127.03262,37.31861],[127.03313,37.31427],[127.03732,37.31231],[127.04101,37.31469]]]}},{"type":"Feature","properties":{"h3":"8830e02469fffff","emd_code":"4111160000","emd_name":"연무동","area_km2":0.5074,"edge":false,"slope_mean":17.67,"elev_mean":238.7,"flood_hist_n":0,"flood_depth_max_m":null,"flood_risk_100y":null,"semi_basement_r":null,"elderly_alone_r":0.1605,"bldg_age30_r":null,"shelter_min_walk":36,"pop":16890,"hh":9396,"elderly65_r":0.2689,"single_hh_r":0.5412,"source_level":"emd","flood_years":[],"landslide_hist_n":0},"geometry":{"type":"Polygon","coordinates":[[[127.0316,37.3273],[127.03109,37.33164],[127.02689,37.3336],[127.02321,37.33122],[127.02372,37.32688],[127.02791,37.32492],[127.0316,37.3273]]]}},{"type":"Feature","properties":{"h3":"8830e0246bfffff","emd_code":"4111160000","emd_name":"연무동","area_km2":0.5075,"edge":false,"slope_mean":20.56,"elev_mean":325.7,"flood_hist_n":0,"flood_depth_max_m":null,"flood_risk_100y":null,"semi_basement_r":null,"elderly_alone_r":0.1605,"bldg_age30_r":null,"shelter_min_walk":27,"pop":16890,"hh":9396,"elderly65_r":0.2689,"single_hh_r":0.5412,"source_level":"emd","flood_years":[],"landslide_hist_n":0},"geometry":{"type":"Polygon","coordinates":[[[127.03947,37.32772],[127.03896,37.33207],[127.03477,37.33403],[127.03109,37.33164],[127.0316,37.3273],[127.03579,37.32534],[127.03947,37.32772]]]}},{"type":"Feature","properties":{"h3":"8830e0246dfffff","emd_code":"4111160000","emd_name":"연무동","area_km2":0.5074,"edge":false,"slope_mean":13.86,"elev_mean":169.6,"flood_hist_n":0,"flood_depth_max_m":null,"flood_risk_100y":null,"semi_basement_r":null,"elderly_alone_r":0.1605,"bldg_age30_r":null,"shelter_min_walk":30,"pop":16890,"hh":9396,"elderly65_r":0.2689,"single_hh_r":0.5412,"source_level":"emd","flood_years":[],"landslide_hist_n":0},"geometry":{"type":"Polygon","coordinates":[[[127.02843,37.32057],[127.02791,37.32492],[127.02372,37.32688],[127.02004,37.32449],[127.02055,37.32015],[127.02474,37.31819],[127.02843,37.32057]]]}},{"type":"Feature","properties":{"h3":"8830e02509fffff","emd_code":"4111160000","emd_name":"연무동","area_km2":0.5073,"edge":false,"slope_mean":5.06,"elev_mean":71.9,"flood_hist_n":0,"flood_depth_max_m":null,"flood_risk_100y":null,"semi_basement_r":null,"elderly_alone_r":0.1605,"bldg_age30_r":null,"shelter_min_walk":6,"pop":16890,"hh":9396,"elderly65_r":0.2689,"single_hh_r":0.5412,"source_level":"emd","flood_years":[],"landslide_hist_n":0},"geometry":{"type":"Polygon","coordinates":[[[127.02832,37.2878],[127.02781,37.29214],[127.02362,37.2941],[127.01994,37.29172],[127.02045,37.28737],[127.02464,37.28541],[127.02832,37.2878]]]}},{"type":"Feature","properties":{"h3":"8830e0250bfffff","emd_code":"4111160000","emd_name":"연무동","area_km2":0.5074,"edge":true,"slope_mean":5.28,"elev_mean":81.2,"flood_hist_n":0,"flood_depth_max_m":null,"flood_risk_100y":null,"semi_basement_r":null,"elderly_alone_r":0.1605,"bldg_age30_r":null,"shelter_min_walk":4,"pop":16890,"hh":9396,"elderly65_r":0.2689,"single_hh_r":0.5412,"source_level":"emd","flood_years":[],"landslide_hist_n":0},"geometry":{"type":"Polygon","coordinates":[[[127.03619,37.28822],[127.03568,37.29256],[127.03149,37.29452],[127.02781,37.29214],[127.02832,37.2878],[127.03251,37.28583],[127.03619,37.28822]]]}},{"type":"Feature","properties":{"h3":"8830e02541fffff","emd_code":"4111159700","emd_name":"조원1동","area_km2":0.5071,"edge":false,"slope_mean":4.01,"elev_mean":64.2,"flood_hist_n":0,"flood_depth_max_m":null,"flood_risk_100y":null,"semi_basement_r":null,"elderly_alone_r":0.1569,"bldg_age30_r":null,"shelter_min_walk":5,"pop":27064,"hh":13280,"elderly65_r":0.2342,"single_hh_r":0.4477,"source_level":"emd","flood_years":[],"landslide_hist_n":0},"geometry":{"type":"Polygon","coordinates":[[[127.01575,37.29368],[127.01524,37.29802],[127.01105,37.29998],[127.00737,37.2976],[127.00788,37.29325],[127.01207,37.29129],[127.01575,37.29368]]]}},{"type":"Feature","properties":{"h3":"8830e02543fffff","emd_code":"4111158000","emd_name":"영화동","area_km2":0.5072,"edge":false,"slope_mean":4.81,"elev_mean":71.9,"flood_hist_n":0,"flood_depth_max_m":null,"flood_risk_100y":null,"semi_basement_r":null,"elderly_alone_r":0.2047,"bldg_age30_r":null,"shelter_min_walk":5,"pop":17632,"hh":10198,"elderly65_r":0.3008,"single_hh_r":0.5609,"source_level":"emd","flood_years":[],"landslide_hist_n":0},"geometry":{"type":"Polygon","coordinates":[[[127.02362,37.2941],[127.02311,37.29844],[127.01892,37.3004],[127.01524,37.29802],[127.01575,37.29368],[127.01994,37.29172],[127.02362,37.2941]]]}},{"type":"Feature","properties":{"h3":"8830e02545fffff","emd_code":"4111158000","emd_name":"영화동","area_km2":0.507,"edge":false,"slope_mean":3.58,"elev_mean":57.4,"flood_hist_n":0,"flood_depth_max_m":null,"flood_risk_100y":null,"semi_basement_r":null,"elderly_alone_r":0.2047,"bldg_age30_r":null,"shelter_min_walk":1,"pop":17632,"hh":10198,"elderly65_r":0.3008,"single_hh_r":0.5609,"source_level":"emd","flood_years":[],"landslide_hist_n":0},"geometry":{"type":"Polygon","coordinates":[[[127.01258,37.28695],[127.01207,37.29129],[127.00788,37.29325],[127.0042,37.29087],[127.00472,37.28653],[127.00891,37.28457],[127.01258,37.28695]]]}},{"type":"Feature","properties":{"h3":"8830e02547fffff","emd_code":"4111158000","emd_name":"영화동","area_km2":0.5072,"edge":false,"slope_mean":3.37,"elev_mean":60.8,"flood_hist_n":0,"flood_depth_max_m":null,"flood_risk_100y":null,"semi_basement_r":null,"elderly_alone_r":0.2047,"bldg_age30_r":null,"shelter_min_walk":5,"pop":17632,"hh":10198,"elderly65_r":0.3008,"single_hh_r":0.5609,"source_level":"emd","flood_years":[],"landslide_hist_n":0},"geometry":{"type":"Polygon","coordinates":[[[127.02045,37.28737],[127.01994,37.29172],[127.01575,37.29368],[127.01207,37.29129],[127.01258,37.28695],[127.01677,37.28499],[127.02045,37.28737]]]}},{"type":"Feature","properties":{"h3":"8830e02549fffff","emd_code":"4111159100","emd_name":"송죽동","area_km2":0.5071,"edge":false,"slope_mean":5.54,"elev_mean":61.6,"flood_hist_n":0,"flood_depth_max_m":null,"flood_risk_100y":null,"semi_basement_r":null,"elderly_alone_r":0.1444,"bldg_age30_r":null,"shelter_min_walk":3,"pop":17891,"hh":8987,"elderly65_r":0.2235,"single_hh_r":0.4608,"source_level":"emd","flood_years":[],"landslide_hist_n":0},"geometry":{"type":"Polygon","coordinates":[[[127.01105,37.29998],[127.01054,37.30432],[127.00634,37.30628],[127.00267,37.3039],[127.00318,37.29955],[127.00737,37.2976],[127.01105,37.29998]]]}},{"type":"Feature","properties":{"h3":"8830e0254bfffff","emd_code":"4111159700","emd_name":"조원1동","area_km2":0.5072,"edge":false,"slope_mean":6.43,"elev_mean":74.3,"flood_hist_n":1,"flood_depth_max_m":0.15,"flood_risk_100y":null,"semi_basement_r":null,"elderly_alone_r":0.1569,"bldg_age30_r":null,"shelter_min_walk":4,"pop":27064,"hh":13280,"elderly65_r":0.2342,"single_hh_r":0.4477,"source_level":"emd","flood_years":[2020],"landslide_hist_n":0},"geometry":{"type":"Polygon","coordinates":[[[127.01892,37.3004],[127.01841,37.30474],[127.01421,37.3067],[127.01054,37.30432],[127.01105,37.29998],[127.01524,37.29802],[127.01892,37.3004]]]}},{"type":"Feature","properties":{"h3":"8830e0254dfffff","emd_code":"4111157200","emd_name":"정자2동","area_km2":0.507,"edge":false,"slope_mean":3.43,"elev_mean":56.3,"flood_hist_n":0,"flood_depth_max_m":null,"flood_risk_100y":null,"semi_basement_r":null,"elderly_alone_r":0.1112,"bldg_age30_r":null,"shelter_min_walk":4,"pop":38129,"hh":16257,"elderly65_r":0.1633,"single_hh_r":0.3328,"source_level":"emd","flood_years":[],"landslide_hist_n":0},"geometry":{"type":"Polygon","coordinates":[[[127.00788,37.29325],[127.00737,37.2976],[127.00318,37.29955],[126.9995,37.29717],[127.00001,37.29283],[127.0042,37.29087],[127.00788,37.29325]]]}},{"type":"Feature","properties":{"h3":"8830e02551fffff","emd_code":"4111160000","emd_name":"연무동","area_km2":0.5074,"edge":false,"slope_mean":10.4,"elev_mean":110.4,"flood_hist_n":0,"flood_depth_max_m":null,"flood_risk_100y":null,"semi_basement_r":null,"elderly_alone_r":0.1605,"bldg_age30_r":null,"shelter_min_walk":5,"pop":16890,"hh":9396,"elderly65_r":0.2689,"single_hh_r":0.5412,"source_level":"emd","flood_years":[],"landslide_hist_n":0},"geometry":{"type":"Polygon","coordinates":[[[127.03466,37.30124],[127.03415,37.30559],[127.02996,37.30755],[127.02628,37.30516],[127.02679,37.30082],[127.03098,37.29886],[127.03466,37.30124]]]}},{"type":"Feature","properties":{"h3":"8830e02555fffff","emd_code":"4111160000","emd_name":"연무동","area_km2":0.5073,"edge":false,"slope_mean":5.8,"elev_mean":80.8,"flood_hist_n":0,"flood_depth_max_m":null,"flood_risk_100y":null,"semi_basement_r":null,"elderly_alone_r":0.1605,"bldg_age30_r":null,"shelter_min_walk":3,"pop":16890,"hh":9396,"elderly65_r":0.2689,"single_hh_r":0.5412,"source_level":"emd","flood_years":[],"landslide_hist_n":0},"geometry":{"type":"Polygon","coordinates":[[[127.03149,37.29452],[127.03098,37.29886],[127.02679,37.30082],[127.02311,37.29844],[127.02362,37.2941],[127.02781,37.29214],[127.03149,37.29452]]]}},{"type":"Feature","properties":{"h3":"8830e02557fffff","emd_code":"4111160000","emd_name":"연무동","area_km2":0.5074,"edge":true,"slope_mean":10.03,"elev_mean":108.0,"flood_hist_n":0,"flood_depth_max_m":null,"flood_risk_100y":null,"semi_basement_r":null,"elderly_alone_r":0.1605,"bldg_age30_r":null,"shelter_min_walk":6,"pop":16890,"hh":9396,"elderly65_r":0.2689,"single_hh_r":0.5412,"source_level":"emd","flood_years":[],"landslide_hist_n":0},"geometry":{"type":"Polygon","coordinates":[[[127.03937,37.29494],[127.03886,37.29928],[127.03466,37.30124],[127.03098,37.29886],[127.03149,37.29452],[127.03568,37.29256],[127.03937,37.29494]]]}},{"type":"Feature","properties":{"h3":"8830e02559fffff","emd_code":"4111160000","emd_name":"연무동","area_km2":0.5073,"edge":false,"slope_mean":9.8,"elev_mean":112.0,"flood_hist_n":0,"flood_depth_max_m":null,"flood_risk_100y":null,"semi_basement_r":null,"elderly_alone_r":0.1605,"bldg_age30_r":null,"shelter_min_walk":14,"pop":16890,"hh":9396,"elderly65_r":0.2689,"single_hh_r":0.5412,"source_level":"emd","flood_years":[],"landslide_hist_n":0},"geometry":{"type":"Polygon","coordinates":[[[127.02996,37.30755],[127.02945,37.31189],[127.02526,37.31385],[127.02157,37.31147],[127.02209,37.30712],[127.02628,37.30516],[127.02996,37.30755]]]}},{"type":"Feature","properties":{"h3":"8830e0255bfffff","emd_code":"4111160000","emd_name":"연무동","area_km2":0.5075,"edge":true,"slope_mean":14.69,"elev_mean":152.4,"flood_hist_n":0,"flood_depth_max_m":null,"flood_risk_100y":null,"semi_basement_r":null,"elderly_alone_r":0.1605,"bldg_age30_r":null,"shelter_min_walk":14,"pop":16890,"hh":9396,"elderly65_r":0.2689,"single_hh_r":0.5412,"source_level":"emd","flood_years":[],"landslide_hist_n":0},"geometry":{"type":"Polygon","coordinates":[[[127.03783,37.30797],[127.03732,37.31231],[127.03313,37.31427],[127.02945,37.31189],[127.02996,37.30755],[127.03415,37.30559],[127.03783,37.30797]]]}},{"type":"Feature","properties":{"h3":"8830e0255dfffff","emd_code":"4111159700","emd_name":"조원1동","area_km2":0.5073,"edge":false,"slope_mean":12.31,"elev_mean":109.2,"flood_hist_n":0,"flood_depth_max_m":null,"flood_risk_100y":null,"semi_basement_r":null,"elderly_alone_r":0.1569,"bldg_age30_r":null,"shelter_min_walk":7,"pop":27064,"hh":13280,"elderly65_r":0.2342,"single_hh_r":0.4477,"source_level":"emd","flood_years":[],"landslide_hist_n":0},"geometry":{"type":"Polygon","coordinates":[[[127.02679,37.30082],[127.02628,37.30516],[127.02209,37.30712],[127.01841,37.30474],[127.01892,37.3004],[127.02311,37.29844],[127.02679,37.30082]]]}},{"type":"Feature","properties":{"h3":"8830e02625fffff","emd_code":"4111160000","emd_name":"연무동","area_km2":0.5073,"edge":true,"slope_mean":21.9,"elev_mean":351.8,"flood_hist_n":0,"flood_depth_max_m":null,"flood_risk_100y":null,"semi_basement_r":null,"elderly_alone_r":0.1605,"bldg_age30_r":null,"shelter_min_walk":34,"pop":16890,"hh":9396,"elderly65_r":0.2689,"single_hh_r":0.5412,"source_level":"emd","flood_years":[],"landslide_hist_n":0},"geometry":{"type":"Polygon","coordinates":[[[127.01748,37.3462],[127.01697,37.35055],[127.01277,37.3525],[127.00909,37.35012],[127.0096,37.34578],[127.0138,37.34382],[127.01748,37.3462]]]}},{"type":"Feature","properties":{"h3":"8830e02627fffff","emd_code":"4111160000","emd_name":"연무동","area_km2":0.5074,"edge":false,"slope_mean":22.89,"elev_mean":442.4,"flood_hist_n":0,"flood_depth_max_m":null,"flood_risk_100y":null,"semi_basement_r":null,"elderly_alone_r":0.1605,"bldg_age30_r":null,"shelter_min_walk":39,"pop":16890,"hh":9396,"elderly65_r":0.2689,"single_hh_r":0.5412,"source_level":"emd","flood_years":[],"landslide_hist_n":0},"geometry":{"type":"Polygon","coordinates":[[[127.02536,37.34663],[127.02484,37.35097],[127.02065,37.35293],[127.01697,37.35055],[127.01748,37.3462],[127.02167,37.34425],[127.02536,37.34663]]]}},{"type":"Feature","properties":{"h3":"8830e02701fffff","emd_code":"4111156000","emd_name":"파장동","area_km2":0.507,"edge":false,"slope_mean":17.2,"elev_mean":168.7,"flood_hist_n":0,"flood_depth_max_m":null,"flood_risk_100y":null,"semi_basement_r":null,"elderly_alone_r":0.1448,"bldg_age30_r":null,"shelter_min_walk":25,"pop":24524,"hh":11546,"elderly65_r":0.2201,"single_hh_r":0.4131,"source_level":"emd","flood_years":[],"landslide_hist_n":0},"geometry":{"type":"Polygon","coordinates":[[[127.0001,37.3256],[126.99959,37.32994],[126.9954,37.3319],[126.99172,37.32952],[126.99223,37.32518],[126.99642,37.32322],[127.0001,37.3256]]]}},{"type":"Feature","properties":{"h3":"8830e02703fffff","emd_code":"4111160000","emd_name":"연무동","area_km2":0.5071,"edge":false,"slope_mean":15.47,"elev_mean":231.0,"flood_hist_n":0,"flood_depth_max_m":null,"flood_risk_100y":null,"semi_basement_r":null,"elderly_alone_r":0.1605,"bldg_age30_r":null,"shelter_min_walk":31,"pop":16890,"hh":9396,"elderly65_r":0.2689,"single_hh_r":0.5412,"source_level":"emd","flood_years":[],"landslide_hist_n":0},"geometry":{"type":"Polygon","coordinates":[[[127.00797,37.32603],[127.00746,37.33037],[127.00327,37.33233],[126.99959,37.32994],[127.0001,37.3256],[127.00429,37.32364],[127.00797,37.32603]]]}},{"type":"Feature","properties":{"h3":"8830e02705fffff","emd_code":"4111156000","emd_name":"파장동","area_km2":0.5069,"edge":false,"slope_mean":13.5,"elev_mean":123.9,"flood_hist_n":0,"flood_depth_max_m":null,"flood_risk_100y":null,"semi_basement_r":null,"elderly_alone_r":0.1448,"bldg_age30_r":null,"shelter_min_walk":13,"pop":24524,"hh":11546,"elderly65_r":0.2201,"single_hh_r":0.4131,"source_level":"emd","flood_years":[],"landslide_hist_n":0},"geometry":{"type":"Polygon","coordinates":[[[126.99694,37.31888],[126.99642,37.32322],[126.99223,37.32518],[126.98855,37.32279],[126.98907,37.31845],[126.99326,37.31649],[126.99694,37.31888]]]}},{"type":"Feature","properties":{"h3":"8830e02707fffff","emd_code":"4111156000","emd_name":"파장동","area_km2":0.507,"edge":false,"slope_mean":14.84,"elev_mean":185.1,"flood_hist_n":0,"flood_depth_max_m":null,"flood_risk_100y":null,"semi_basement_r":null,"elderly_alone_r":0.1448,"bldg_age30_r":null,"shelter_min_walk":19,"pop":24524,"hh":11546,"elderly65_r":0.2201,"single_hh_r":0.4131,"source_level":"emd","flood_years":[],"landslide_hist_n":0},"geometry":{"type":"Polygon","coordinates":[[[127.00481,37.3193],[127.00429,37.32364],[127.0001,37.3256],[126.99642,37.32322],[126.99694,37.31888],[127.00113,37.31692],[127.00481,37.3193]]]}},{"type":"Feature","properties":{"h3":"8830e02709fffff","emd_code":"4111156000","emd_name":"파장동","area_km2":0.5069,"edge":true,"slope_mean":15.99,"elev_mean":184.4,"flood_hist_n":0,"flood_depth_max_m":null,"flood_risk_100y":null,"semi_basement_r":null,"elderly_alone_r":0.1448,"bldg_age30_r":null,"shelter_min_walk":24,"pop":24524,"hh":11546,"elderly65_r":0.2201,"single_hh_r":0.4131,"source_level":"emd","flood_years":[],"landslide_hist_n":0},"geometry":{"type":"Polygon","coordinates":[[[126.9954,37.3319],[126.99488,37.33624],[126.99069,37.3382],[126.98701,37.33581],[126.98753,37.33147],[126.99172,37.32952],[126.9954,37.3319]]]}},{"type":"Feature","properties":{"h3":"8830e0270bfffff","emd_code":"4111156000","emd_name":"파장동","area_km2":0.507,"edge":false,"slope_mean":16.18,"elev_mean":215.5,"flood_hist_n":0,"flood_depth_max_m":null,"flood_risk_100y":null,"semi_basement_r":null,"elderly_alone_r":0.1448,"bldg_age30_r":null,"shelter_min_walk":32,"pop":24524,"hh":11546,"elderly65_r":0.2201,"single_hh_r":0.4131,"source_level":"emd","flood_years":[],"landslide_hist_n":0},"geometry":{"type":"Polygon","coordinates":[[[127.00327,37.33233],[127.00276,37.33667],[126.99856,37.33863],[126.99488,37.33624],[126.9954,37.3319],[126.99959,37.32994],[127.00327,37.33233]]]}},{"type":"Feature","properties":{"h3":"8830e0270dfffff","emd_code":"4111156000","emd_name":"파장동","area_km2":0.5069,"edge":false,"slope_mean":13.04,"elev_mean":139.0,"flood_hist_n":0,"flood_depth_max_m":null,"flood_risk_100y":null,"semi_basement_r":null,"elderly_alone_r":0.1448,"bldg_age30_r":null,"shelter_min_walk":20,"pop":24524,"hh":11546,"elderly65_r":0.2201,"single_hh_r":0.4131,"source_level":"emd","flood_years":[],"landslide_hist_n":0},"geometry":{"type":"Polygon","coordinates":[[[126.99223,37.32518],[126.99172,37.32952],[126.98753,37.33147],[126.98385,37.32909],[126.98436,37.32475],[126.98855,37.32279],[126.99223,37.32518]]]}},{"type":"Feature","properties":{"h3":"8830e02711fffff","emd_code":"4111160000","emd_name":"연무동","area_km2":0.5073,"edge":false,"slope_mean":15.76,"elev_mean":200.5,"flood_hist_n":0,"flood_depth_max_m":null,"flood_risk_100y":null,"semi_basement_r":null,"elderly_alone_r":0.1605,"bldg_age30_r":null,"shelter_min_walk":46,"pop":16890,"hh":9396,"elderly65_r":0.2689,"single_hh_r":0.5412,"source_level":"emd","flood_years":[],"landslide_hist_n":0},"geometry":{"type":"Polygon","coordinates":[[[127.01902,37.33318],[127.0185,37.33752],[127.01431,37.33948],[127.01063,37.33709],[127.01114,37.33275],[127.01533,37.33079],[127.01902,37.33318]]]}},{"type":"Feature","properties":{"h3":"8830e02713fffff","emd_code":"4111160000","emd_name":"연무동","area_km2":0.5074,"edge":false,"slope_mean":18.21,"elev_mean":244.7,"flood_hist_n":0,"flood_depth_max_m":null,"flood_risk_100y":null,"semi_basement_r":null,"elderly_alone_r":0.1605,"bldg_age30_r":null,"shelter_min_walk":42,"pop":16890,"hh":9396,"elderly65_r":0.2689,"single_hh_r":0.5412,"source_level":"emd","flood_years":[],"landslide_hist_n":0},"geometry":{"type":"Polygon","coordinates":[[[127.02689,37.3336],[127.02638,37.33794],[127.02219,37.3399],[127.0185,37.33752],[127.01902,37.33318],[127.02321,37.33122],[127.02689,37.3336]]]}},{"type":"Feature","properties":{"h3":"8830e02715fffff","emd_code":"4111160000","emd_name":"연무동","area_km2":0.5072,"edge":false,"slope_mean":11.46,"elev_mean":161.9,"flood_hist_n":0,"flood_depth_max_m":null,"flood_risk_100y":null,"semi_basement_r":null,"elderly_alone_r":0.1605,"bldg_age30_r":null,"shelter_min_walk":35,"pop":16890,"hh":9396,"elderly65_r":0.2689,"single_hh_r":0.5412,"source_level":"emd","flood_years":[],"landslide_hist_n":0},"geometry":{"type":"Polygon","coordinates":[[[127.01585,37.32645],[127.01533,37.33079],[127.01114,37.33275],[127.00746,37.33037],[127.00797,37.32603],[127.01217,37.32407],[127.01585,37.32645]]]}},{"type":"Feature","properties":{"h3":"8830e02717fffff","emd_code":"4111160000","emd_name":"연무동","area_km2":0.5073,"edge":false,"slope_mean":13.06,"elev_mean":177.9,"flood_hist_n":0,"flood_depth_max_m":null,"flood_risk_100y":null,"semi_basement_r":null,"elderly_alone_r":0.1605,"bldg_age30_r":null,"shelter_min_walk":37,"pop":16890,"hh":9396,"elderly65_r":0.2689,"single_hh_r":0.5412,"source_level":"emd","flood_years":[],"landslide_hist_n":0},"geometry":{"type":"Polygon","coordinates":[[[127.02372,37.32688],[127.02321,37.33122],[127.01902,37.33318],[127.01533,37.33079],[127.01585,37.32645],[127.02004,37.32449],[127.02372,37.32688]]]}},{"type":"Feature","properties":{"h3":"8830e02719fffff","emd_code":"4111160000","emd_name":"연무동","area_km2":0.5072,"edge":true,"slope_mean":19.72,"elev_mean":288.8,"flood_hist_n":0,"flood_depth_max_m":null,"flood_risk_100y":null,"semi_basement_r":null,"elderly_alone_r":0.1605,"bldg_age30_r":null,"shelter_min_walk":41,"pop":16890,"hh":9396,"elderly65_r":0.2689,"single_hh_r":0.5412,"source_level":"emd","flood_years":[],"landslide_hist_n":0},"geometry":{"type":"Polygon","coordinates":[[[127.01431,37.33948],[127.0138,37.34382],[127.0096,37.34578],[127.00592,37.34339],[127.00644,37.33905],[127.01063,37.33709],[127.01431,37.33948]]]}},{"type":"Feature","properties":{"h3":"8830e0271bfffff","emd_code":"4111160000","emd_name":"연무동","area_km2":0.5073,"edge":false,"slope_mean":20.84,"elev_mean":286.6,"flood_hist_n":0,"flood_depth_max_m":null,"flood_risk_100y":null,"semi_basement_r":null,"elderly_alone_r":0.1605,"bldg_age30_r":null,"shelter_min_walk":46,"pop":16890,"hh":9396,"elderly65_r":0.2689,"single_hh_r":0.5412,"source_level":"emd","flood_years":[],"landslide_hist_n":0},"geometry":{"type":"Polygon","coordinates":[[[127.02219,37.3399],[127.02167,37.34425],[127.01748,37.3462],[127.0138,37.34382],[127.01431,37.33948],[127.0185,37.33752],[127.02219,37.3399]]]}},{"type":"Feature","properties":{"h3":"8830e0271dfffff","emd_code":"4111156000","emd_name":"파장동","area_km2":0.5071,"edge":false,"slope_mean":18.4,"elev_mean":260.5,"flood_hist_n":0,"flood_depth_max_m":null,"flood_risk_100y":null,"semi_basement_r":null,"elderly_alone_r":0.1448,"bldg_age30_r":null,"shelter_min_walk":40,"pop":24524,"hh":11546,"elderly65_r":0.2201,"single_hh_r":0.4131,"source_level":"emd","flood_years":[],"landslide_hist_n":0},"geometry":{"type":"Polygon","coordinates":[[[127.01114,37.33275],[127.01063,37.33709],[127.00644,37.33905],[127.00276,37.33667],[127.00327,37.33233],[127.00746,37.33037],[127.01114,37.33275]]]}},{"type":"Feature","properties":{"h3":"8830e02721fffff","emd_code":"4111156000","emd_name":"파장동","area_km2":0.5069,"edge":false,"slope_mean":4.21,"elev_mean":65.8,"flood_hist_n":0,"flood_depth_max_m":null,"flood_risk_100y":null,"semi_basement_r":null,"elderly_alone_r":0.1448,"bldg_age30_r":null,"shelter_min_walk":4,"pop":24524,"hh":11546,"elderly65_r":0.2201,"single_hh_r":0.4131,"source_level":"emd","flood_years":[],"landslide_hist_n":0},"geometry":{"type":"Polygon","coordinates":[[[126.99847,37.30585],[126.99796,37.3102],[126.99377,37.31215],[126.99009,37.30977],[126.99061,37.30543],[126.9948,37.30347],[126.99847,37.30585]]]}},{"type":"Feature","properties":{"h3":"8830e02723fffff","emd_code":"4111159100","emd_name":"송죽동","area_km2":0.507,"edge":false,"slope_mean":6.4,"elev_mean":73.0,"flood_hist_n":0,"flood_depth_max_m":null,"flood_risk_100y":null,"semi_basement_r":null,"elderly_alone_r":0.1444,"bldg_age30_r":null,"shelter_min_walk":3,"pop":17891,"hh":8987,"elderly65_r":0.2235,"single_hh_r":0.4608,"source_level":"emd","flood_years":[],"landslide_hist_n":0},"geometry":{"type":"Polygon","coordinates":[[[127.00634,37.30628],[127.00583,37.31062],[127.00164,37.31258],[126.99796,37.3102],[126.99847,37.30585],[127.00267,37.3039],[127.00634,37.30628]]]}},{"type":"Feature","properties":{"h3":"8830e02725fffff","emd_code":"4111157100","emd_name":"정자1동","area_km2":0.5068,"edge":false,"slope_mean":5.16,"elev_mean":53.3,"flood_hist_n":0,"flood_depth_max_m":null,"flood_risk_100y":null,"semi_basement_r":null,"elderly_alone_r":0.0922,"bldg_age30_r":null,"shelter_min_walk":7,"pop":33197,"hh":13314,"elderly65_r":0.1624,"single_hh_r":0.2729,"source_level":"emd","flood_years":[],"landslide_hist_n":0},"geometry":{"type":"Polygon","coordinates":[[[126.99531,37.29913],[126.9948,37.30347],[126.99061,37.30543],[126.98693,37.30305],[126.98744,37.29871],[126.99163,37.29675],[126.99531,37.29913]]]}},{"type":"Feature","properties":{"h3":"8830e02727fffff","emd_code":"4111159100","emd_name":"송죽동","area_km2":0.5069,"edge":false,"slope_mean":3.81,"elev_mean":55.6,"flood_hist_n":0,"flood_depth_max_m":null,"flood_risk_100y":null,"semi_basement_r":null,"elderly_alone_r":0.1444,"bldg_age30_r":null,"shelter_min_walk":4,"pop":17891,"hh":8987,"elderly65_r":0.2235,"single_hh_r":0.4608,"source_level":"emd","flood_years":[],"landslide_hist_n":0},"geometry":{"type":"Polygon","coordinates":[[[127.00318,37.29955],[127.00267,37.3039],[126.99847,37.30585],[126.9948,37.30347],[126.99531,37.29913],[126.9995,37.29717],[127.00318,37.29955]]]}},{"type":"Feature","properties":{"h3":"8830e02729fffff","emd_code":"4111156000","emd_name":"파장동","area_km2":0.5068,"edge":false,"slope_mean":6.43,"elev_mean":78.2,"flood_hist_n":0,"flood_depth_max_m":null,"flood_risk_100y":null,"semi_basement_r":null,"elderly_alone_r":0.1448,"bldg_age30_r":null,"shelter_min_walk":1,"pop":24524,"hh":11546,"elderly65_r":0.2201,"single_hh_r":0.4131,"source_level":"emd","flood_years":[],"landslide_hist_n":0},"geometry":{"type":"Polygon","coordinates":[[[126.99377,37.31215],[126.99326,37.31649],[126.98907,37.31845],[126.98539,37.31607],[126.9859,37.31173],[126.99009,37.30977],[126.99377,37.31215]]]}},{"type":"Feature","properties":{"h3":"8830e0272bfffff","emd_code":"4111156000","emd_name":"파장동","area_km2":0.507,"edge":false,"slope_mean":11.68,"elev_mean":108.9,"flood_hist_n":0,"flood_depth_max_m":null,"flood_risk_100y":null,"semi_basement_r":null,"elderly_alone_r":0.1448,"bldg_age30_r":null,"shelter_min_walk":7,"pop":24524,"hh":11546,"elderly65_r":0.2201,"single_hh_r":0.4131,"source_level":"emd","flood_years":[],"landslide_hist_n":0},"geometry":{"type":"Polygon","coordinates":[[[127.00164,37.31258],[127.00113,37.31692],[126.99694,37.31888],[126.99326,37.31649],[126.99377,37.31215],[126.99796,37.3102],[127.00164,37.31258]]]}},{"type":"Feature","properties":{"h3":"8830e0272dfffff","emd_code":"4111157100","emd_name":"정자1동","area_km2":0.5068,"edge":false,"slope_mean":4.31,"elev_mean":58.2,"flood_hist_n":0,"flood_depth_max_m":null,"flood_risk_100y":null,"semi_basement_r":null,"elderly_alone_r":0.0922,"bldg_age30_r":null,"shelter_min_walk":3,"pop":33197,"hh":13314,"elderly65_r":0.1624,"single_hh_r":0.2729,"source_level":"emd","flood_years":[],"landslide_hist_n":0},"geometry":{"type":"Polygon","coordinates":[[[126.99061,37.30543],[126.99009,37.30977],[126.9859,37.31173],[126.98223,37.30935],[126.98274,37.30501],[126.98693,37.30305],[126.99061,37.30543]]]}},{"type":"Feature","properties":{"h3":"8830e02731fffff","emd_code":"4111159800","emd_name":"조원2동","area_km2":0.5072,"edge":false,"slope_mean":15.11,"elev_mean":151.3,"flood_hist_n":0,"flood_depth_max_m":null,"flood_risk_100y":null,"semi_basement_r":null,"elderly_alone_r":0.0994,"bldg_age30_r":null,"shelter_min_walk":14,"pop":17044,"hh":6441,"elderly65_r":0.2134,"single_hh_r":0.1983,"source_level":"emd","flood_years":[],"landslide_hist_n":0},"geometry":{"type":"Polygon","coordinates":[[[127.01738,37.31343],[127.01687,37.31777],[127.01268,37.31973],[127.009,37.31734],[127.00951,37.313],[127.0137,37.31104],[127.01738,37.31343]]]}},{"type":"Feature","properties":{"h3":"8830e02733fffff","emd_code":"4111160000","emd_name":"연무동","area_km2":0.5073,"edge":false,"slope_mean":9.63,"elev_mean":119.7,"flood_hist_n":0,"flood_depth_max_m":null,"flood_risk_100y":null,"semi_basement_r":null,"elderly_alone_r":0.1605,"bldg_age30_r":null,"shelter_min_walk":18,"pop":16890,"hh":9396,"elderly65_r":0.2689,"single_hh_r":0.5412,"source_level":"emd","flood_years":[],"landslide_hist_n":0},"geometry":{"type":"Polygon","coordinates":[[[127.02526,37.31385],[127.02474,37.31819],[127.02055,37.32015],[127.01687,37.31777],[127.01738,37.31343],[127.02157,37.31147],[127.02526,37.31385]]]}},{"type":"Feature","properties":{"h3":"8830e02735fffff","emd_code":"4111159800","emd_name":"조원2동","area_km2":0.5071,"edge":false,"slope_mean":8.88,"elev_mean":85.2,"flood_hist_n":0,"flood_depth_max_m":null,"flood_risk_100y":null,"semi_basement_r":null,"elderly_alone_r":0.0994,"bldg_age30_r":null,"shelter_min_walk":4,"pop":17044,"hh":6441,"elderly65_r":0.2134,"single_hh_r":0.1983,"source_level":"emd","flood_years":[],"landslide_hist_n":0},"geometry":{"type":"Polygon","coordinates":[[[127.01421,37.3067],[127.0137,37.31104],[127.00951,37.313],[127.00583,37.31062],[127.00634,37.30628],[127.01054,37.30432],[127.01421,37.3067]]]}},{"type":"Feature","properties":{"h3":"8830e02737fffff","emd_code":"4111159800","emd_name":"조원2동","area_km2":0.5072,"edge":false,"slope_mean":13.31,"elev_mean":108.6,"flood_hist_n":0,"flood_depth_max_m":null,"flood_risk_100y":null,"semi_basement_r":null,"elderly_alone_r":0.0994,"bldg_age30_r":null,"shelter_min_walk":8,"pop":17044,"hh":6441,"elderly65_r":0.2134,"single_hh_r":0.1983,"source_level":"emd","flood_years":[],"landslide_hist_n":0},"geometry":{"type":"Polygon","coordinates":[[[127.02209,37.30712],[127.02157,37.31147],[127.01738,37.31343],[127.0137,37.31104],[127.01421,37.3067],[127.01841,37.30474],[127.02209,37.30712]]]}},{"type":"Feature","properties":{"h3":"8830e02739fffff","emd_code":"4111160000","emd_name":"연무동","area_km2":0.5071,"edge":false,"slope_mean":14.93,"elev_mean":182.2,"flood_hist_n":0,"flood_depth_max_m":null,"flood_risk_100y":null,"semi_basement_r":null,"elderly_alone_r":0.1605,"bldg_age30_r":null,"shelter_min_walk":24,"pop":16890,"hh":9396,"elderly65_r":0.2689,"single_hh_r":0.5412,"source_level":"emd","flood_years":[],"landslide_hist_n":0},"geometry":{"type":"Polygon","coordinates":[[[127.01268,37.31973],[127.01217,37.32407],[127.00797,37.32603],[127.00429,37.32364],[127.00481,37.3193],[127.009,37.31734],[127.01268,37.31973]]]}},{"type":"Feature","properties":{"h3":"8830e0273bfffff","emd_code":"4111160000","emd_name":"연무동","area_km2":0.5072,"edge":false,"slope_mean":10.55,"elev_mean":139.2,"flood_hist_n":0,"flood_depth_max_m":null,"flood_risk_100y":null,"semi_basement_r":null,"elderly_alone_r":0.1605,"bldg_age30_r":null,"shelter_min_walk":25,"pop":16890,"hh":9396,"elderly65_r":0.2689,"single_hh_r":0.5412,"source_level":"emd","flood_years":[],"landslide_hist_n":0},"geometry":{"type":"Polygon","coordinates":[[[127.02055,37.32015],[127.02004,37.32449],[127.01585,37.32645],[127.01217,37.32407],[127.01268,37.31973],[127.01687,37.31777],[127.02055,37.32015]]]}},{"type":"Feature","properties":{"h3":"8830e0273dfffff","emd_code":"4111159100","emd_name":"송죽동","area_km2":0.5071,"edge":false,"slope_mean":13.22,"elev_mean":121.5,"flood_hist_n":0,"flood_depth_max_m":null,"flood_risk_100y":null,"semi_basement_r":null,"elderly_alone_r":0.1444,"bldg_age30_r":null,"shelter_min_walk":12,"pop":17891,"hh":8987,"elderly65_r":0.2235,"single_hh_r":0.4608,"source_level":"emd","flood_years":[],"landslide_hist_n":0},"geometry":{"type":"Polygon","coordinates":[[[127.00951,37.313],[127.009,37.31734],[127.00481,37.3193],[127.00113,37.31692],[127.00164,37.31258],[127.00583,37.31062],[127.00951,37.313]]]}},{"type":"Feature","properties":{"h3":"8830e02745fffff","emd_code":"4111156000","emd_name":"파장동","area_km2":0.5067,"edge":true,"slope_mean":14.76,"elev_mean":126.7,"flood_hist_n":0,"flood_depth_max_m":null,"flood_risk_100y":null,"semi_basement_r":null,"elderly_alone_r":0.1448,"bldg_age30_r":null,"shelter_min_walk":16,"pop":24524,"hh":11546,"elderly65_r":0.2201,"single_hh_r":0.4131,"source_level":"emd","flood_years":[],"landslide_hist_n":0},"geometry":{"type":"Polygon","coordinates":[[[126.97966,37.33105],[126.97914,37.33539],[126.97495,37.33734],[126.97127,37.33496],[126.97179,37.33062],[126.97598,37.32866],[126.97966,37.33105]]]}},{"type":"Feature","properties":{"h3":"8830e02757fffff","emd_code":"4111156000","emd_name":"파장동","area_km2":0.5071,"edge":true,"slope_mean":17.59,"elev_mean":232.0,"flood_hist_n":0,"flood_depth_max_m":null,"flood_risk_100y":null,"semi_basement_r":null,"elderly_alone_r":0.1448,"bldg_age30_r":null,"shelter_min_walk":31,"pop":24524,"hh":11546,"elderly65_r":0.2201,"single_hh_r":0.4131,"source_level":"emd","flood_years":[],"landslide_hist_n":0},"geometry":{"type":"Polygon","coordinates":[[[127.00644,37.33905],[127.00592,37.34339],[127.00173,37.34535],[126.99805,37.34297],[126.99856,37.33863],[127.00276,37.33667],[127.00644,37.33905]]]}},{"type":"Feature","properties":{"h3":"8830e02761fffff","emd_code":"4111156000","emd_name":"파장동","area_km2":0.5067,"edge":false,"slope_mean":12.68,"elev_mean":105.1,"flood_hist_n":0,"flood_depth_max_m":null,"flood_risk_100y":null,"semi_basement_r":null,"elderly_alone_r":0.1448,"bldg_age30_r":null,"shelter_min_walk":12,"pop":24524,"hh":11546,"elderly65_r":0.2201,"single_hh_r":0.4131,"source_level":"emd","flood_years":[],"landslide_hist_n":0},"geometry":{"type":"Polygon","coordinates":[[[126.9812,37.31803],[126.98068,37.32237],[126.97649,37.32432],[126.97282,37.32194],[126.97333,37.3176],[126.97752,37.31564],[126.9812,37.31803]]]}},{"type":"Feature","properties":{"h3":"8830e02763fffff","emd_code":"4111156000","emd_name":"파장동","area_km2":0.5068,"edge":false,"slope_mean":9.58,"elev_mean":98.5,"flood_hist_n":0,"flood_depth_max_m":null,"flood_risk_100y":null,"semi_basement_r":null,"elderly_alone_r":0.1448,"bldg_age30_r":null,"shelter_min_walk":8,"pop":24524,"hh":11546,"elderly65_r":0.2201,"single_hh_r":0.4131,"source_level":"emd","flood_years":[],"landslide_hist_n":0},"geometry":{"type":"Polygon","coordinates":[[[126.98907,37.31845],[126.98855,37.32279],[126.98436,37.32475],[126.98068,37.32237],[126.9812,37.31803],[126.98539,37.31607],[126.98907,37.31845]]]}},{"type":"Feature","properties":{"h3":"8830e02765fffff","emd_code":"4111156000","emd_name":"파장동","area_km2":0.5066,"edge":false,"slope_mean":11.62,"elev_mean":102.0,"flood_hist_n":0,"flood_depth_max_m":null,"flood_risk_100y":null,"semi_basement_r":null,"elderly_alone_r":0.1448,"bldg_age30_r":null,"shelter_min_walk":13,"pop":24524,"hh":11546,"elderly65_r":0.2201,"single_hh_r":0.4131,"source_level":"emd","flood_years":[],"landslide_hist_n":0},"geometry":{"type":"Polygon","coordinates":[[[126.97804,37.3113],[126.97752,37.31564],[126.97333,37.3176],[126.96966,37.31522],[126.97017,37.31088],[126.97436,37.30892],[126.97804,37.3113]]]}},{"type":"Feature","properties":{"h3":"8830e02767fffff","emd_code":"4111156000","emd_name":"파장동","area_km2":0.5067,"edge":false,"slope_mean":7.2,"elev_mean":71.8,"flood_hist_n":0,"flood_depth_max_m":null,"flood_risk_100y":null,"semi_basement_r":null,"elderly_alone_r":0.1448,"bldg_age30_r":null,"shelter_min_walk":4,"pop":24524,"hh":11546,"elderly65_r":0.2201,"single_hh_r":0.4131,"source_level":"emd","flood_years":[],"landslide_hist_n":0},"geometry":{"type":"Polygon","coordinates":[[[126.9859,37.31173],[126.98539,37.31607],[126.9812,37.31803],[126.97752,37.31564],[126.97804,37.3113],[126.98223,37.30935],[126.9859,37.31173]]]}},{"type":"Feature","properties":{"h3":"8830e02769fffff","emd_code":"4111156000","emd_name":"파장동","area_km2":0.5066,"edge":false,"slope_mean":14.67,"elev_mean":139.8,"flood_hist_n":0,"flood_depth_max_m":null,"flood_risk_100y":null,"semi_basement_r":null,"elderly_alone_r":0.1448,"bldg_age30_r":null,"shelter_min_walk":18,"pop":24524,"hh":11546,"elderly65_r":0.2201,"single_hh_r":0.4131,"source_level":"emd","flood_years":[],"landslide_hist_n":0},"geometry":{"type":"Polygon","coordinates":[[[126.97649,37.32432],[126.97598,37.32866],[126.97179,37.33062],[126.96811,37.32824],[126.96863,37.3239],[126.97282,37.32194],[126.97649,37.32432]]]}},{"type":"Feature","properties":{"h3":"8830e0276bfffff","emd_code":"4111156000","emd_name":"파장동","area_km2":0.5068,"edge":false,"slope_mean":12.92,"elev_mean":132.8,"flood_hist_n":0,"flood_depth_max_m":null,"flood_risk_100y":null,"semi_basement_r":null,"elderly_alone_r":0.1448,"bldg_age30_r":null,"shelter_min_walk":19,"pop":24524,"hh":11546,"elderly65_r":0.2201,"single_hh_r":0.4131,"source_level":"emd","flood_years":[],"landslide_hist_n":0},"geometry":{"type":"Polygon","coordinates":[[[126.98436,37.32475],[126.98385,37.32909],[126.97966,37.33105],[126.97598,37.32866],[126.97649,37.32432],[126.98068,37.32237],[126.98436,37.32475]]]}},{"type":"Feature","properties":{"h3":"8830e0276dfffff","emd_code":"4111156000","emd_name":"파장동","area_km2":0.5066,"edge":false,"slope_mean":14.26,"elev_mean":117.4,"flood_hist_n":0,"flood_depth_max_m":null,"flood_risk_100y":null,"semi_basement_r":null,"elderly_alone_r":0.1448,"bldg_age30_r":null,"shelter_min_walk":9,"pop":24524,"hh":11546,"elderly65_r":0.2201,"single_hh_r":0.4131,"source_level":"emd","flood_years":[],"landslide_hist_n":0},"geometry":{"type":"Polygon","coordinates":[[[126.97333,37.3176],[126.97282,37.32194],[126.96863,37.3239],[126.96495,37.32151],[126.96547,37.31717],[126.96966,37.31522],[126.97333,37.3176]]]}}]}