{"type":"FeatureCollection","name":"grid_41113_h3r8","meta":{"sgg_code":"41113","h3_res":8,"n_cells":123,"dem":"Copernicus GLO-30 (bbox-mean)","crs":"EPSG:4326","jumin_basis":"2026-07","flood_src":"행안부 침수흔적도(전국, 재난안전데이터공유플랫폼)","landslide_src":"행안부 산사태 발생이력"},"features":[{"type":"Feature","properties":{"h3":"8830e02003fffff","emd_code":"4111366200","emd_name":"금곡동","area_km2":0.5059,"edge":true,"slope_mean":13.98,"elev_mean":114.8,"flood_hist_n":0,"flood_depth_max_m":null,"flood_risk_100y":null,"semi_basement_r":null,"elderly_alone_r":0.0905,"bldg_age30_r":null,"shelter_min_walk":15,"pop":44194,"hh":18838,"elderly65_r":0.1564,"single_hh_r":0.3338,"source_level":"emd","flood_years":[],"landslide_hist_n":0},"geometry":{"type":"Polygon","coordinates":[[[126.93081,37.27599],[126.93029,37.28033],[126.92611,37.28229],[126.92244,37.2799],[126.92295,37.27557],[126.92714,37.27361],[126.93081,37.27599]]]}},{"type":"Feature","properties":{"h3":"8830e02007fffff","emd_code":"4111366200","emd_name":"금곡동","area_km2":0.5058,"edge":true,"slope_mean":10.53,"elev_mean":70.6,"flood_hist_n":0,"flood_depth_max_m":null,"flood_risk_100y":null,"semi_basement_r":null,"elderly_alone_r":0.0905,"bldg_age30_r":null,"shelter_min_walk":16,"pop":44194,"hh":18838,"elderly65_r":0.1564,"single_hh_r":0.3338,"source_level":"emd","flood_years":[],"landslide_hist_n":0},"geometry":{"type":"Polygon","coordinates":[[[126.92766,37.26927],[126.92714,37.27361],[126.92295,37.27557],[126.91929,37.27319],[126.9198,37.26885],[126.92399,37.26689],[126.92766,37.26927]]]}},{"type":"Feature","properties":{"h3":"8830e02011fffff","emd_code":"4111370000","emd_name":"입북동","area_km2":0.506,"edge":false,"slope_mean":4.97,"elev_mean":50.2,"flood_hist_n":0,"flood_depth_max_m":null,"flood_risk_100y":null,"semi_basement_r":null,"elderly_alone_r":0.0802,"bldg_age30_r":null,"shelter_min_walk":9,"pop":19616,"hh":8303,"elderly65_r":0.1533,"single_hh_r":0.2976,"source_level":"emd","flood_years":[],"landslide_hist_n":0},"geometry":{"type":"Polygon","coordinates":[[[126.94182,37.28314],[126.9413,37.28748],[126.93711,37.28943],[126.93344,37.28705],[126.93396,37.28271],[126.93815,37.28076],[126.94182,37.28314]]]}},{"type":"Feature","properties":{"h3":"8830e02013fffff","emd_code":"4111370000","emd_name":"입북동","area_km2":0.5062,"edge":false,"slope_mean":2.69,"elev_mean":39.7,"flood_hist_n":0,"flood_depth_max_m":null,"flood_risk_100y":null,"semi_basement_r":null,"elderly_alone_r":0.0802,"bldg_age30_r":null,"shelter_min_walk":8,"pop":19616,"hh":8303,"elderly65_r":0.1533,"single_hh_r":0.2976,"source_level":"emd","flood_years":[],"landslide_hist_n":0},"geometry":{"type":"Polygon","coordinates":[[[126.94968,37.28356],[126.94916,37.2879],[126.94497,37.28986],[126.9413,37.28748],[126.94182,37.28314],[126.946,37.28118],[126.94968,37.28356]]]}},{"type":"Feature","properties":{"h3":"8830e02015fffff","emd_code":"4111370000","emd_name":"입북동","area_km2":0.506,"edge":false,"slope_mean":8.01,"elev_mean":66.1,"flood_hist_n":0,"flood_depth_max_m":null,"flood_risk_100y":null,"semi_basement_r":null,"elderly_alone_r":0.0802,"bldg_age30_r":null,"shelter_min_walk":11,"pop":19616,"hh":8303,"elderly65_r":0.1533,"single_hh_r":0.2976,"source_level":"emd","flood_years":[],"landslide_hist_n":0},"geometry":{"type":"Polygon","coordinates":[[[126.93866,37.27642],[126.93815,37.28076],[126.93396,37.28271],[126.93029,37.28033],[126.93081,37.27599],[126.93499,37.27404],[126.93866,37.27642]]]}},{"type":"Feature","properties":{"h3":"8830e02017fffff","emd_code":"4111366200","emd_name":"금곡동","area_km2":0.5061,"edge":false,"slope_mean":3.17,"elev_mean":45.8,"flood_hist_n":0,"flood_depth_max_m":null,"flood_risk_100y":null,"semi_basement_r":null,"elderly_alone_r":0.0905,"bldg_age30_r":null,"shelter_min_walk":8,"pop":44194,"hh":18838,"elderly65_r":0.1564,"single_hh_r":0.3338,"source_level":"emd","flood_years":[],"landslide_hist_n":0},"geometry":{"type":"Polygon","coordinates":[[[126.94652,37.27684],[126.946,37.28118],[126.94182,37.28314],[126.93815,37.28076],[126.93866,37.27642],[126.94285,37.27446],[126.94652,37.27684]]]}},{"type":"Feature","properties":{"h3":"8830e02019fffff","emd_code":"4111370000","emd_name":"입북동","area_km2":0.506,"edge":false,"slope_mean":9.16,"elev_mean":64.2,"flood_hist_n":0,"flood_depth_max_m":null,"flood_risk_100y":null,"semi_basement_r":null,"elderly_alone_r":0.0802,"bldg_age30_r":null,"shelter_min_walk":5,"pop":19616,"hh":8303,"elderly65_r":0.1533,"single_hh_r":0.2976,"source_level":"emd","flood_years":[],"landslide_hist_n":0},"geometry":{"type":"Polygon","coordinates":[[[126.93711,37.28943],[126.9366,37.29377],[126.93241,37.29573],[126.92874,37.29334],[126.92926,37.28901],[126.93344,37.28705],[126.93711,37.28943]]]}},{"type":"Feature","properties":{"h3":"8830e0201bfffff","emd_code":"4111370000","emd_name":"입북동","area_km2":0.5061,"edge":false,"slope_mean":4.22,"elev_mean":45.4,"flood_hist_n":0,"flood_depth_max_m":null,"flood_risk_100y":null,"semi_basement_r":null,"elderly_alone_r":0.0802,"bldg_age30_r":null,"shelter_min_walk":1,"pop":19616,"hh":8303,"elderly65_r":0.1533,"single_hh_r":0.2976,"source_level":"emd","flood_years":[],"landslide_hist_n":0},"geometry":{"type":"Polygon","coordinates":[[[126.94497,37.28986],[126.94446,37.2942],[126.94027,37.29615],[126.9366,37.29377],[126.93711,37.28943],[126.9413,37.28748],[126.94497,37.28986]]]}},{"type":"Feature","properties":{"h3":"8830e0201dfffff","emd_code":"4111370000","emd_name":"입북동","area_km2":0.5059,"edge":false,"slope_mean":14.19,"elev_mean":110.0,"flood_hist_n":0,"flood_depth_max_m":null,"flood_risk_100y":null,"semi_basement_r":null,"elderly_alone_r":0.0802,"bldg_age30_r":null,"shelter_min_walk":16,"pop":19616,"hh":8303,"elderly65_r":0.1533,"single_hh_r":0.2976,"source_level":"emd","flood_years":[],"landslide_hist_n":0},"geometry":{"type":"Polygon","coordinates":[[[126.93396,37.28271],[126.93344,37.28705],[126.92926,37.28901],[126.92559,37.28662],[126.92611,37.28229],[126.93029,37.28033],[126.93396,37.28271]]]}},{"type":"Feature","properties":{"h3":"8830e02031fffff","emd_code":"4111366200","emd_name":"금곡동","area_km2":0.506,"edge":false,"slope_mean":9.71,"elev_mean":83.0,"flood_hist_n":0,"flood_depth_max_m":null,"flood_risk_100y":null,"semi_basement_r":null,"elderly_alone_r":0.0905,"bldg_age30_r":null,"shelter_min_walk":10,"pop":44194,"hh":18838,"elderly65_r":0.1564,"single_hh_r":0.3338,"source_level":"emd","flood_years":[],"landslide_hist_n":0},"geometry":{"type":"Polygon","coordinates":[[[126.94021,37.26341],[126.93969,37.26774],[126.93551,37.2697],[126.93184,37.26732],[126.93236,37.26298],[126.93654,37.26102],[126.94021,37.26341]]]}},{"type":"Feature","properties":{"h3":"8830e02033fffff","emd_code":"4111366400","emd_name":"호매실동","area_km2":0.5061,"edge":false,"slope_mean":3.81,"elev_mean":48.6,"flood_hist_n":0,"flood_depth_max_m":null,"flood_risk_100y":null,"semi_basement_r":null,"elderly_alone_r":0.0845,"bldg_age30_r":null,"shelter_min_walk":5,"pop":43709,"hh":17383,"elderly65_r":0.1318,"single_hh_r":0.2695,"source_level":"emd","flood_years":[],"landslide_hist_n":0},"geometry":{"type":"Polygon","coordinates":[[[126.94807,37.26383],[126.94755,37.26817],[126.94336,37.27012],[126.93969,37.26774],[126.94021,37.26341],[126.9444,37.26145],[126.94807,37.26383]]]}},{"type":"Feature","properties":{"h3":"8830e02035fffff","emd_code":"4111366400","emd_name":"호매실동","area_km2":0.5059,"edge":true,"slope_mean":17.53,"elev_mean":155.2,"flood_hist_n":0,"flood_depth_max_m":null,"flood_risk_100y":null,"semi_basement_r":null,"elderly_alone_r":0.0845,"bldg_age30_r":null,"shelter_min_walk":21,"pop":43709,"hh":17383,"elderly65_r":0.1318,"single_hh_r":0.2695,"source_level":"emd","flood_years":[],"landslide_hist_n":0},"geometry":{"type":"Polygon","coordinates":[[[126.93706,37.25669],[126.93654,37.26102],[126.93236,37.26298],[126.92869,37.2606],[126.9292,37.25626],[126.93339,37.25431],[126.93706,37.25669]]]}},{"type":"Feature","properties":{"h3":"8830e02037fffff","emd_code":"4111366400","emd_name":"호매실동","area_km2":0.506,"edge":false,"slope_mean":14.66,"elev_mean":115.4,"flood_hist_n":0,"flood_depth_max_m":null,"flood_risk_100y":null,"semi_basement_r":null,"elderly_alone_r":0.0845,"bldg_age30_r":null,"shelter_min_walk":16,"pop":43709,"hh":17383,"elderly65_r":0.1318,"single_hh_r":0.2695,"source_level":"emd","flood_years":[],"landslide_hist_n":0},"geometry":{"type":"Polygon","coordinates":[[[126.94491,37.25711],[126.9444,37.26145],[126.94021,37.26341],[126.93654,37.26102],[126.93706,37.25669],[126.94124,37.25473],[126.94491,37.25711]]]}},{"type":"Feature","properties":{"h3":"8830e02039fffff","emd_code":"4111366200","emd_name":"금곡동","area_km2":0.5059,"edge":false,"slope_mean":11.43,"elev_mean":91.4,"flood_hist_n":0,"flood_depth_max_m":null,"flood_risk_100y":null,"semi_basement_r":null,"elderly_alone_r":0.0905,"bldg_age30_r":null,"shelter_min_walk":6,"pop":44194,"hh":18838,"elderly65_r":0.1564,"single_hh_r":0.3338,"source_level":"emd","flood_years":[],"landslide_hist_n":0},"geometry":{"type":"Polygon","coordinates":[[[126.93551,37.2697],[126.93499,37.27404],[126.93081,37.27599],[126.92714,37.27361],[126.92766,37.26927],[126.93184,37.26732],[126.93551,37.2697]]]}},{"type":"Feature","properties":{"h3":"8830e0203bfffff","emd_code":"4111366200","emd_name":"금곡동","area_km2":0.506,"edge":false,"slope_mean":4.43,"elev_mean":52.3,"flood_hist_n":0,"flood_depth_max_m":null,"flood_risk_100y":null,"semi_basement_r":null,"elderly_alone_r":0.0905,"bldg_age30_r":null,"shelter_min_walk":1,"pop":44194,"hh":18838,"elderly65_r":0.1564,"single_hh_r":0.3338,"source_level":"emd","flood_years":[],"landslide_hist_n":0},"geometry":{"type":"Polygon","coordinates":[[[126.94336,37.27012],[126.94285,37.27446],[126.93866,37.27642],[126.93499,37.27404],[126.93551,37.2697],[126.93969,37.26774],[126.94336,37.27012]]]}},{"type":"Feature","properties":{"h3":"8830e0203dfffff","emd_code":"4111366200","emd_name":"금곡동","area_km2":0.5059,"edge":true,"slope_mean":16.29,"elev_mean":128.0,"flood_hist_n":0,"flood_depth_max_m":null,"flood_risk_100y":null,"semi_basement_r":null,"elderly_alone_r":0.0905,"bldg_age30_r":null,"shelter_min_walk":15,"pop":44194,"hh":18838,"elderly65_r":0.1564,"single_hh_r":0.3338,"source_level":"emd","flood_years":[],"landslide_hist_n":0},"geometry":{"type":"Polygon","coordinates":[[[126.93236,37.26298],[126.93184,37.26732],[126.92766,37.26927],[126.92399,37.26689],[126.9245,37.26256],[126.92869,37.2606],[126.93236,37.26298]]]}},{"type":"Feature","properties":{"h3":"8830e02081fffff","emd_code":"4111365000","emd_name":"구운동","area_km2":0.5065,"edge":false,"slope_mean":5.26,"elev_mean":47.8,"flood_hist_n":0,"flood_depth_max_m":null,"flood_risk_100y":null,"semi_basement_r":null,"elderly_alone_r":0.1168,"bldg_age30_r":null,"shelter_min_walk":5,"pop":22443,"hh":10707,"elderly65_r":0.2218,"single_hh_r":0.4212,"source_level":"emd","flood_years":[],"landslide_hist_n":0},"geometry":{"type":"Polygon","coordinates":[[[126.97796,37.27854],[126.97744,37.28288],[126.97326,37.28484],[126.96958,37.28246],[126.9701,37.27812],[126.97428,37.27616],[126.97796,37.27854]]]}},{"type":"Feature","properties":{"h3":"8830e02083fffff","emd_code":"4111356000","emd_name":"서둔동","area_km2":0.5066,"edge":false,"slope_mean":8.54,"elev_mean":58.3,"flood_hist_n":0,"flood_depth_max_m":null,"flood_risk_100y":null,"semi_basement_r":null,"elderly_alone_r":0.1127,"bldg_age30_r":null,"shelter_min_walk":7,"pop":36560,"hh":17872,"elderly65_r":0.2078,"single_hh_r":0.4381,"source_level":"emd","flood_years":[],"landslide_hist_n":0},"geometry":{"type":"Polygon","coordinates":[[[126.98582,37.27896],[126.98531,37.2833],[126.98112,37.28526],[126.97744,37.28288],[126.97796,37.27854],[126.98215,37.27658],[126.98582,37.27896]]]}},{"type":"Feature","properties":{"h3":"8830e02085fffff","emd_code":"4111356000","emd_name":"서둔동","area_km2":0.5065,"edge":false,"slope_mean":3.01,"elev_mean":37.5,"flood_hist_n":0,"flood_depth_max_m":null,"flood_risk_100y":null,"semi_basement_r":null,"elderly_alone_r":0.1127,"bldg_age30_r":null,"shelter_min_walk":5,"pop":36560,"hh":17872,"elderly65_r":0.2078,"single_hh_r":0.4381,"source_level":"emd","flood_years":[],"landslide_hist_n":0},"geometry":{"type":"Polygon","coordinates":[[[126.9748,37.27182],[126.97428,37.27616],[126.9701,37.27812],[126.96642,37.27574],[126.96694,37.2714],[126.97113,37.26944],[126.9748,37.27182]]]}},{"type":"Feature","properties":{"h3":"8830e02087fffff","emd_code":"4111356000","emd_name":"서둔동","area_km2":0.5066,"edge":false,"slope_mean":4.33,"elev_mean":48.9,"flood_hist_n":0,"flood_depth_max_m":null,"flood_risk_100y":null,"semi_basement_r":null,"elderly_alone_r":0.1127,"bldg_age30_r":null,"shelter_min_walk":3,"pop":36560,"hh":17872,"elderly65_r":0.2078,"single_hh_r":0.4381,"source_level":"emd","flood_years":[],"landslide_hist_n":0},"geometry":{"type":"Polygon","coordinates":[[[126.98266,37.27224],[126.98215,37.27658],[126.97796,37.27854],[126.97428,37.27616],[126.9748,37.27182],[126.97899,37.26986],[126.98266,37.27224]]]}},{"type":"Feature","properties":{"h3":"8830e02089fffff","emd_code":"4111365000","emd_name":"구운동","area_km2":0.5065,"edge":false,"slope_mean":4.76,"elev_mean":45.0,"flood_hist_n":0,"flood_depth_max_m":null,"flood_risk_100y":null,"semi_basement_r":null,"elderly_alone_r":0.1168,"bldg_age30_r":null,"shelter_min_walk":7,"pop":22443,"hh":10707,"elderly65_r":0.2218,"single_hh_r":0.4212,"source_level":"emd","flood_years":[],"landslide_hist_n":0},"geometry":{"type":"Polygon","coordinates":[[[126.97326,37.28484],[126.97274,37.28918],[126.96855,37.29114],[126.96488,37.28875],[126.96539,37.28441],[126.96958,37.28246],[126.97326,37.28484]]]}},{"type":"Feature","properties":{"h3":"8830e0208bfffff","emd_code":"4111365000","emd_name":"구운동","area_km2":0.5066,"edge":true,"slope_mean":4.42,"elev_mean":47.1,"flood_hist_n":0,"flood_depth_max_m":null,"flood_risk_100y":null,"semi_basement_r":null,"elderly_alone_r":0.1168,"bldg_age30_r":null,"shelter_min_walk":3,"pop":22443,"hh":10707,"elderly65_r":0.2218,"single_hh_r":0.4212,"source_level":"emd","flood_years":[],"landslide_hist_n":0},"geometry":{"type":"Polygon","coordinates":[[[126.98112,37.28526],[126.98061,37.2896],[126.97642,37.29156],[126.97274,37.28918],[126.97326,37.28484],[126.97744,37.28288],[126.98112,37.28526]]]}},{"type":"Feature","properties":{"h3":"8830e0208dfffff","emd_code":"4111365000","emd_name":"구운동","area_km2":0.5064,"edge":false,"slope_mean":2.45,"elev_mean":34.5,"flood_hist_n":0,"flood_depth_max_m":null,"flood_risk_100y":null,"semi_basement_r":null,"elderly_alone_r":0.1168,"bldg_age30_r":null,"shelter_min_walk":8,"pop":22443,"hh":10707,"elderly65_r":0.2218,"single_hh_r":0.4212,"source_level":"emd","flood_years":[],"landslide_hist_n":0},"geometry":{"type":"Polygon","coordinates":[[[126.9701,37.27812],[126.96958,37.28246],[126.96539,37.28441],[126.96172,37.28203],[126.96224,37.27769],[126.96642,37.27574],[126.9701,37.27812]]]}},{"type":"Feature","properties":{"h3":"8830e02095fffff","emd_code":"4111356000","emd_name":"서둔동","area_km2":0.5068,"edge":true,"slope_mean":4.5,"elev_mean":41.1,"flood_hist_n":0,"flood_depth_max_m":null,"flood_risk_100y":null,"semi_basement_r":null,"elderly_alone_r":0.1127,"bldg_age30_r":null,"shelter_min_walk":5,"pop":36560,"hh":17872,"elderly65_r":0.2078,"single_hh_r":0.4381,"source_level":"emd","flood_years":[],"landslide_hist_n":0},"geometry":{"type":"Polygon","coordinates":[[[126.99369,37.27939],[126.99317,37.28373],[126.98898,37.28569],[126.98531,37.2833],[126.98582,37.27896],[126.99001,37.27701],[126.99369,37.27939]]]}},{"type":"Feature","properties":{"h3":"8830e0209dfffff","emd_code":"4111356000","emd_name":"서둔동","area_km2":0.5067,"edge":true,"slope_mean":4.55,"elev_mean":43.9,"flood_hist_n":0,"flood_depth_max_m":null,"flood_risk_100y":null,"semi_basement_r":null,"elderly_alone_r":0.1127,"bldg_age30_r":null,"shelter_min_walk":2,"pop":36560,"hh":17872,"elderly65_r":0.2078,"single_hh_r":0.4381,"source_level":"emd","flood_years":[],"landslide_hist_n":0},"geometry":{"type":"Polygon","coordinates":[[[126.98898,37.28569],[126.98847,37.29003],[126.98428,37.29198],[126.98061,37.2896],[126.98112,37.28526],[126.98531,37.2833],[126.98898,37.28569]]]}},{"type":"Feature","properties":{"h3":"8830e020a1fffff","emd_code":"4111356000","emd_name":"서둔동","area_km2":0.5065,"edge":false,"slope_mean":2.19,"elev_mean":29.2,"flood_hist_n":0,"flood_depth_max_m":null,"flood_risk_100y":null,"semi_basement_r":null,"elderly_alone_r":0.1127,"bldg_age30_r":null,"shelter_min_walk":5,"pop":36560,"hh":17872,"elderly65_r":0.2078,"single_hh_r":0.4381,"source_level":"emd","flood_years":[],"landslide_hist_n":0},"geometry":{"type":"Polygon","coordinates":[[[126.97634,37.2588],[126.97583,37.26314],[126.97164,37.2651],[126.96797,37.26272],[126.96848,37.25838],[126.97267,37.25642],[126.97634,37.2588]]]}},{"type":"Feature","properties":{"h3":"8830e020a3fffff","emd_code":"4111356000","emd_name":"서둔동","area_km2":0.5066,"edge":false,"slope_mean":3.62,"elev_mean":36.9,"flood_hist_n":0,"flood_depth_max_m":null,"flood_risk_100y":null,"semi_basement_r":null,"elderly_alone_r":0.1127,"bldg_age30_r":null,"shelter_min_walk":13,"pop":36560,"hh":17872,"elderly65_r":0.2078,"single_hh_r":0.4381,"source_level":"emd","flood_years":[],"landslide_hist_n":0},"geometry":{"type":"Polygon","coordinates":[[[126.9842,37.25922],[126.98369,37.26356],[126.9795,37.26552],[126.97583,37.26314],[126.97634,37.2588],[126.98053,37.25684],[126.9842,37.25922]]]}},{"type":"Feature","properties":{"h3":"8830e020a5fffff","emd_code":"4111355000","emd_name":"평동","area_km2":0.5064,"edge":false,"slope_mean":2.48,"elev_mean":26.3,"flood_hist_n":0,"flood_depth_max_m":null,"flood_risk_100y":null,"semi_basement_r":null,"elderly_alone_r":0.1079,"bldg_age30_r":null,"shelter_min_walk":7,"pop":40873,"hh":18041,"elderly65_r":0.1945,"single_hh_r":0.341,"source_level":"emd","flood_years":[],"landslide_hist_n":0},"geometry":{"type":"Polygon","coordinates":[[[126.97318,37.25208],[126.97267,37.25642],[126.96848,37.25838],[126.96481,37.256],[126.96532,37.25166],[126.96951,37.2497],[126.97318,37.25208]]]}},{"type":"Feature","properties":{"h3":"8830e020a7fffff","emd_code":"4111355000","emd_name":"평동","area_km2":0.5065,"edge":false,"slope_mean":2.14,"elev_mean":27.8,"flood_hist_n":0,"flood_depth_max_m":null,"flood_risk_100y":null,"semi_basement_r":null,"elderly_alone_r":0.1079,"bldg_age30_r":null,"shelter_min_walk":6,"pop":40873,"hh":18041,"elderly65_r":0.1945,"single_hh_r":0.341,"source_level":"emd","flood_years":[],"landslide_hist_n":0},"geometry":{"type":"Polygon","coordinates":[[[126.98104,37.2525],[126.98053,37.25684],[126.97634,37.2588],[126.97267,37.25642],[126.97318,37.25208],[126.97737,37.25012],[126.98104,37.2525]]]}},{"type":"Feature","properties":{"h3":"8830e020a9fffff","emd_code":"4111366400","emd_name":"호매실동","area_km2":0.5064,"edge":false,"slope_mean":1.35,"elev_mean":27.7,"flood_hist_n":0,"flood_depth_max_m":null,"flood_risk_100y":null,"semi_basement_r":null,"elderly_alone_r":0.0845,"bldg_age30_r":null,"shelter_min_walk":12,"pop":43709,"hh":17383,"elderly65_r":0.1318,"single_hh_r":0.2695,"source_level":"emd","flood_years":[],"landslide_hist_n":0},"geometry":{"type":"Polygon","coordinates":[[[126.97164,37.2651],[126.97113,37.26944],[126.96694,37.2714],[126.96327,37.26902],[126.96378,37.26468],[126.96797,37.26272],[126.97164,37.2651]]]}},{"type":"Feature","properties":{"h3":"8830e020abfffff","emd_code":"4111356000","emd_name":"서둔동","area_km2":0.5065,"edge":false,"slope_mean":3.42,"elev_mean":38.1,"flood_hist_n":0,"flood_depth_max_m":null,"flood_risk_100y":null,"semi_basement_r":null,"elderly_alone_r":0.1127,"bldg_age30_r":null,"shelter_min_walk":8,"pop":36560,"hh":17872,"elderly65_r":0.2078,"single_hh_r":0.4381,"source_level":"emd","flood_years":[],"landslide_hist_n":0},"geometry":{"type":"Polygon","coordinates":[[[126.9795,37.26552],[126.97899,37.26986],[126.9748,37.27182],[126.97113,37.26944],[126.97164,37.2651],[126.97583,37.26314],[126.9795,37.26552]]]}},{"type":"Feature","properties":{"h3":"8830e020adfffff","emd_code":"4111366400","emd_name":"호매실동","area_km2":0.5063,"edge":false,"slope_mean":2.54,"elev_mean":29.8,"flood_hist_n":0,"flood_depth_max_m":null,"flood_risk_100y":null,"semi_basement_r":null,"elderly_alone_r":0.0845,"bldg_age30_r":null,"shelter_min_walk":5,"pop":43709,"hh":17383,"elderly65_r":0.1318,"single_hh_r":0.2695,"source_level":"emd","flood_years":[],"landslide_hist_n":0},"geometry":{"type":"Polygon","coordinates":[[[126.96848,37.25838],[126.96797,37.26272],[126.96378,37.26468],[126.96011,37.2623],[126.96062,37.25796],[126.96481,37.256],[126.96848,37.25838]]]}},{"type":"Feature","properties":{"h3":"8830e020b1fffff","emd_code":"4111356000","emd_name":"서둔동","area_km2":0.5067,"edge":false,"slope_mean":2.56,"elev_mean":31.8,"flood_hist_n":0,"flood_depth_max_m":null,"flood_risk_100y":null,"semi_basement_r":null,"elderly_alone_r":0.1127,"bldg_age30_r":null,"shelter_min_walk":5,"pop":36560,"hh":17872,"elderly65_r":0.2078,"single_hh_r":0.4381,"source_level":"emd","flood_years":[],"landslide_hist_n":0},"geometry":{"type":"Polygon","coordinates":[[[126.99522,37.26637],[126.99471,37.27071],[126.99052,37.27267],[126.98685,37.27028],[126.98736,37.26594],[126.99155,37.26398],[126.99522,37.26637]]]}},{"type":"Feature","properties":{"h3":"8830e020b3fffff","emd_code":"4111356000","emd_name":"서둔동","area_km2":0.5068,"edge":true,"slope_mean":5.28,"elev_mean":37.0,"flood_hist_n":0,"flood_depth_max_m":null,"flood_risk_100y":null,"semi_basement_r":null,"elderly_alone_r":0.1127,"bldg_age30_r":null,"shelter_min_walk":5,"pop":36560,"hh":17872,"elderly65_r":0.2078,"single_hh_r":0.4381,"source_level":"emd","flood_years":[],"landslide_hist_n":0},"geometry":{"type":"Polygon","coordinates":[[[127.00309,37.26679],[127.00258,37.27113],[126.99839,37.27309],[126.99471,37.27071],[126.99522,37.26637],[126.99941,37.26441],[127.00309,37.26679]]]}},{"type":"Feature","properties":{"h3":"8830e020b5fffff","emd_code":"4111356000","emd_name":"서둔동","area_km2":0.5067,"edge":false,"slope_mean":3.28,"elev_mean":32.3,"flood_hist_n":0,"flood_depth_max_m":null,"flood_risk_100y":null,"semi_basement_r":null,"elderly_alone_r":0.1127,"bldg_age30_r":null,"shelter_min_walk":11,"pop":36560,"hh":17872,"elderly65_r":0.2078,"single_hh_r":0.4381,"source_level":"emd","flood_years":[],"landslide_hist_n":0},"geometry":{"type":"Polygon","coordinates":[[[126.99206,37.25964],[126.99155,37.26398],[126.98736,37.26594],[126.98369,37.26356],[126.9842,37.25922],[126.98839,37.25726],[126.99206,37.25964]]]}},{"type":"Feature","properties":{"h3":"8830e020b7fffff","emd_code":"4111356000","emd_name":"서둔동","area_km2":0.5068,"edge":false,"slope_mean":3.73,"elev_mean":29.4,"flood_hist_n":0,"flood_depth_max_m":null,"flood_risk_100y":null,"semi_basement_r":null,"elderly_alone_r":0.1127,"bldg_age30_r":null,"shelter_min_walk":3,"pop":36560,"hh":17872,"elderly65_r":0.2078,"single_hh_r":0.4381,"source_level":"emd","flood_years":[],"landslide_hist_n":0},"geometry":{"type":"Polygon","coordinates":[[[126.99993,37.26007],[126.99941,37.26441],[126.99522,37.26637],[126.99155,37.26398],[126.99206,37.25964],[126.99625,37.25768],[126.99993,37.26007]]]}},{"type":"Feature","properties":{"h3":"8830e020b9fffff","emd_code":"4111356000","emd_name":"서둔동","area_km2":0.5067,"edge":false,"slope_mean":3.63,"elev_mean":38.0,"flood_hist_n":0,"flood_depth_max_m":null,"flood_risk_100y":null,"semi_basement_r":null,"elderly_alone_r":0.1127,"bldg_age30_r":null,"shelter_min_walk":6,"pop":36560,"hh":17872,"elderly65_r":0.2078,"single_hh_r":0.4381,"source_level":"emd","flood_years":[],"landslide_hist_n":0},"geometry":{"type":"Polygon","coordinates":[[[126.99052,37.27267],[126.99001,37.27701],[126.98582,37.27896],[126.98215,37.27658],[126.98266,37.27224],[126.98685,37.27028],[126.99052,37.27267]]]}},{"type":"Feature","properties":{"h3":"8830e020bbfffff","emd_code":"4111356000","emd_name":"서둔동","area_km2":0.5068,"edge":false,"slope_mean":3.38,"elev_mean":37.4,"flood_hist_n":0,"flood_depth_max_m":null,"flood_risk_100y":null,"semi_basement_r":null,"elderly_alone_r":0.1127,"bldg_age30_r":null,"shelter_min_walk":7,"pop":36560,"hh":17872,"elderly65_r":0.2078,"single_hh_r":0.4381,"source_level":"emd","flood_years":[],"landslide_hist_n":0},"geometry":{"type":"Polygon","coordinates":[[[126.99839,37.27309],[126.99787,37.27743],[126.99369,37.27939],[126.99001,37.27701],[126.99052,37.27267],[126.99471,37.27071],[126.99839,37.27309]]]}},{"type":"Feature","properties":{"h3":"8830e020bdfffff","emd_code":"4111356000","emd_name":"서둔동","area_km2":0.5066,"edge":false,"slope_mean":4.06,"elev_mean":41.6,"flood_hist_n":0,"flood_depth_max_m":null,"flood_risk_100y":null,"semi_basement_r":null,"elderly_alone_r":0.1127,"bldg_age30_r":null,"shelter_min_walk":6,"pop":36560,"hh":17872,"elderly65_r":0.2078,"single_hh_r":0.4381,"source_level":"emd","flood_years":[],"landslide_hist_n":0},"geometry":{"type":"Polygon","coordinates":[[[126.98736,37.26594],[126.98685,37.27028],[126.98266,37.27224],[126.97899,37.26986],[126.9795,37.26552],[126.98369,37.26356],[126.98736,37.26594]]]}},{"type":"Feature","properties":{"h3":"8830e020c1fffff","emd_code":"4111370000","emd_name":"입북동","area_km2":0.5063,"edge":false,"slope_mean":2.93,"elev_mean":40.5,"flood_hist_n":0,"flood_depth_max_m":null,"flood_risk_100y":null,"semi_basement_r":null,"elderly_alone_r":0.0802,"bldg_age30_r":null,"shelter_min_walk":7,"pop":19616,"hh":8303,"elderly65_r":0.1533,"single_hh_r":0.2976,"source_level":"emd","flood_years":[],"landslide_hist_n":0},"geometry":{"type":"Polygon","coordinates":[[[126.96069,37.29071],[126.96018,37.29505],[126.95599,37.29701],[126.95232,37.29462],[126.95283,37.29029],[126.95702,37.28833],[126.96069,37.29071]]]}},{"type":"Feature","properties":{"h3":"8830e020c3fffff","emd_code":"4111370000","emd_name":"입북동","area_km2":0.5064,"edge":false,"slope_mean":4.32,"elev_mean":49.2,"flood_hist_n":0,"flood_depth_max_m":null,"flood_risk_100y":null,"semi_basement_r":null,"elderly_alone_r":0.0802,"bldg_age30_r":null,"shelter_min_walk":7,"pop":19616,"hh":8303,"elderly65_r":0.1533,"single_hh_r":0.2976,"source_level":"emd","flood_years":[],"landslide_hist_n":0},"geometry":{"type":"Polygon","coordinates":[[[126.96855,37.29114],[126.96804,37.29548],[126.96385,37.29743],[126.96018,37.29505],[126.96069,37.29071],[126.96488,37.28875],[126.96855,37.29114]]]}},{"type":"Feature","properties":{"h3":"8830e020c5fffff","emd_code":"4111370000","emd_name":"입북동","area_km2":0.5063,"edge":false,"slope_mean":1.84,"elev_mean":33.7,"flood_hist_n":0,"flood_depth_max_m":null,"flood_risk_100y":null,"semi_basement_r":null,"elderly_alone_r":0.0802,"bldg_age30_r":null,"shelter_min_walk":11,"pop":19616,"hh":8303,"elderly65_r":0.1533,"single_hh_r":0.2976,"source_level":"emd","flood_years":[],"landslide_hist_n":0},"geometry":{"type":"Polygon","coordinates":[[[126.95753,37.28399],[126.95702,37.28833],[126.95283,37.29029],[126.94916,37.2879],[126.94968,37.28356],[126.95386,37.28161],[126.95753,37.28399]]]}},{"type":"Feature","properties":{"h3":"8830e020c7fffff","emd_code":"4111370000","emd_name":"입북동","area_km2":0.5064,"edge":false,"slope_mean":1.59,"elev_mean":35.6,"flood_hist_n":0,"flood_depth_max_m":null,"flood_risk_100y":null,"semi_basement_r":null,"elderly_alone_r":0.0802,"bldg_age30_r":null,"shelter_min_walk":14,"pop":19616,"hh":8303,"elderly65_r":0.1533,"single_hh_r":0.2976,"source_level":"emd","flood_years":[],"landslide_hist_n":0},"geometry":{"type":"Polygon","coordinates":[[[126.96539,37.28441],[126.96488,37.28875],[126.96069,37.29071],[126.95702,37.28833],[126.95753,37.28399],[126.96172,37.28203],[126.96539,37.28441]]]}},{"type":"Feature","properties":{"h3":"8830e020c9fffff","emd_code":"4111370000","emd_name":"입북동","area_km2":0.5063,"edge":false,"slope_mean":3.39,"elev_mean":40.9,"flood_hist_n":0,"flood_depth_max_m":null,"flood_risk_100y":null,"semi_basement_r":null,"elderly_alone_r":0.0802,"bldg_age30_r":null,"shelter_min_walk":11,"pop":19616,"hh":8303,"elderly65_r":0.1533,"single_hh_r":0.2976,"source_level":"emd","flood_years":[],"landslide_hist_n":0},"geometry":{"type":"Polygon","coordinates":[[[126.95599,37.29701],[126.95547,37.30135],[126.95129,37.3033],[126.94761,37.30092],[126.94813,37.29658],[126.95232,37.29462],[126.95599,37.29701]]]}},{"type":"Feature","properties":{"h3":"8830e020cbfffff","emd_code":"4111370000","emd_name":"입북동","area_km2":0.5064,"edge":false,"slope_mean":5.94,"elev_mean":53.7,"flood_hist_n":0,"flood_depth_max_m":null,"flood_risk_100y":null,"semi_basement_r":null,"elderly_alone_r":0.0802,"bldg_age30_r":null,"shelter_min_walk":5,"pop":19616,"hh":8303,"elderly65_r":0.1533,"single_hh_r":0.2976,"source_level":"emd","flood_years":[],"landslide_hist_n":0},"geometry":{"type":"Polygon","coordinates":[[[126.96385,37.29743],[126.96334,37.30177],[126.95915,37.30373],[126.95547,37.30135],[126.95599,37.29701],[126.96018,37.29505],[126.96385,37.29743]]]}},{"type":"Feature","properties":{"h3":"8830e020cdfffff","emd_code":"4111370000","emd_name":"입북동","area_km2":0.5062,"edge":false,"slope_mean":2.5,"elev_mean":36.1,"flood_hist_n":0,"flood_depth_max_m":null,"flood_risk_100y":null,"semi_basement_r":null,"elderly_alone_r":0.0802,"bldg_age30_r":null,"shelter_min_walk":8,"pop":19616,"hh":8303,"elderly65_r":0.1533,"single_hh_r":0.2976,"source_level":"emd","flood_years":[],"landslide_hist_n":0},"geometry":{"type":"Polygon","coordinates":[[[126.95283,37.29029],[126.95232,37.29462],[126.94813,37.29658],[126.94446,37.2942],[126.94497,37.28986],[126.94916,37.2879],[126.95283,37.29029]]]}},{"type":"Feature","properties":{"h3":"8830e020d5fffff","emd_code":"4111370000","emd_name":"입북동","area_km2":0.5065,"edge":true,"slope_mean":4.52,"elev_mean":51.4,"flood_hist_n":0,"flood_depth_max_m":null,"flood_risk_100y":null,"semi_basement_r":null,"elderly_alone_r":0.0802,"bldg_age30_r":null,"shelter_min_walk":3,"pop":19616,"hh":8303,"elderly65_r":0.1533,"single_hh_r":0.2976,"source_level":"emd","flood_years":[],"landslide_hist_n":0},"geometry":{"type":"Polygon","coordinates":[[[126.97642,37.29156],[126.9759,37.2959],[126.97171,37.29786],[126.96804,37.29548],[126.96855,37.29114],[126.97274,37.28918],[126.97642,37.29156]]]}},{"type":"Feature","properties":{"h3":"8830e020ddfffff","emd_code":"4111370000","emd_name":"입북동","area_km2":0.5065,"edge":true,"slope_mean":4.83,"elev_mean":60.7,"flood_hist_n":0,"flood_depth_max_m":null,"flood_risk_100y":null,"semi_basement_r":null,"elderly_alone_r":0.0802,"bldg_age30_r":null,"shelter_min_walk":1,"pop":19616,"hh":8303,"elderly65_r":0.1533,"single_hh_r":0.2976,"source_level":"emd","flood_years":[],"landslide_hist_n":0},"geometry":{"type":"Polygon","coordinates":[[[126.97171,37.29786],[126.9712,37.3022],[126.96701,37.30415],[126.96334,37.30177],[126.96385,37.29743],[126.96804,37.29548],[126.97171,37.29786]]]}},{"type":"Feature","properties":{"h3":"8830e020e1fffff","emd_code":"4111366200","emd_name":"금곡동","area_km2":0.5062,"edge":false,"slope_mean":3.43,"elev_mean":38.6,"flood_hist_n":0,"flood_depth_max_m":null,"flood_risk_100y":null,"semi_basement_r":null,"elderly_alone_r":0.0905,"bldg_age30_r":null,"shelter_min_walk":6,"pop":44194,"hh":18838,"elderly65_r":0.1564,"single_hh_r":0.3338,"source_level":"emd","flood_years":[],"landslide_hist_n":0},"geometry":{"type":"Polygon","coordinates":[[[126.95908,37.27097],[126.95856,37.27531],[126.95438,37.27727],[126.95071,37.27489],[126.95122,37.27055],[126.95541,37.26859],[126.95908,37.27097]]]}},{"type":"Feature","properties":{"h3":"8830e020e3fffff","emd_code":"4111365000","emd_name":"구운동","area_km2":0.5064,"edge":false,"slope_mean":1.47,"elev_mean":29.7,"flood_hist_n":0,"flood_depth_max_m":null,"flood_risk_100y":null,"semi_basement_r":null,"elderly_alone_r":0.1168,"bldg_age30_r":null,"shelter_min_walk":10,"pop":22443,"hh":10707,"elderly65_r":0.2218,"single_hh_r":0.4212,"source_level":"emd","flood_years":[],"landslide_hist_n":0},"geometry":{"type":"Polygon","coordinates":[[[126.96694,37.2714],[126.96642,37.27574],[126.96224,37.27769],[126.95856,37.27531],[126.95908,37.27097],[126.96327,37.26902],[126.96694,37.2714]]]}},{"type":"Feature","properties":{"h3":"8830e020e5fffff","emd_code":"4111366400","emd_name":"호매실동","area_km2":0.5062,"edge":false,"slope_mean":3.99,"elev_mean":42.2,"flood_hist_n":0,"flood_depth_max_m":null,"flood_risk_100y":null,"semi_basement_r":null,"elderly_alone_r":0.0845,"bldg_age30_r":null,"shelter_min_walk":4,"pop":43709,"hh":17383,"elderly65_r":0.1318,"single_hh_r":0.2695,"source_level":"emd","flood_years":[],"landslide_hist_n":0},"geometry":{"type":"Polygon","coordinates":[[[126.95592,37.26425],[126.95541,37.26859],[126.95122,37.27055],[126.94755,37.26817],[126.94807,37.26383],[126.95225,37.26187],[126.95592,37.26425]]]}},{"type":"Feature","properties":{"h3":"8830e020e7fffff","emd_code":"4111366400","emd_name":"호매실동","area_km2":0.5063,"edge":false,"slope_mean":3.32,"elev_mean":36.1,"flood_hist_n":0,"flood_depth_max_m":null,"flood_risk_100y":null,"semi_basement_r":null,"elderly_alone_r":0.0845,"bldg_age30_r":null,"shelter_min_walk":3,"pop":43709,"hh":17383,"elderly65_r":0.1318,"single_hh_r":0.2695,"source_level":"emd","flood_years":[],"landslide_hist_n":0},"geometry":{"type":"Polygon","coordinates":[[[126.96378,37.26468],[126.96327,37.26902],[126.95908,37.27097],[126.95541,37.26859],[126.95592,37.26425],[126.96011,37.2623],[126.96378,37.26468]]]}},{"type":"Feature","properties":{"h3":"8830e020e9fffff","emd_code":"4111366200","emd_name":"금곡동","area_km2":0.5062,"edge":false,"slope_mean":4.53,"elev_mean":41.5,"flood_hist_n":0,"flood_depth_max_m":null,"flood_risk_100y":null,"semi_basement_r":null,"elderly_alone_r":0.0905,"bldg_age30_r":null,"shelter_min_walk":6,"pop":44194,"hh":18838,"elderly65_r":0.1564,"single_hh_r":0.3338,"source_level":"emd","flood_years":[],"landslide_hist_n":0},"geometry":{"type":"Polygon","coordinates":[[[126.95438,37.27727],[126.95386,37.28161],[126.94968,37.28356],[126.946,37.28118],[126.94652,37.27684],[126.95071,37.27489],[126.95438,37.27727]]]}},{"type":"Feature","properties":{"h3":"8830e020ebfffff","emd_code":"4111366200","emd_name":"금곡동","area_km2":0.5063,"edge":false,"slope_mean":1.69,"elev_mean":31.6,"flood_hist_n":0,"flood_depth_max_m":null,"flood_risk_100y":null,"semi_basement_r":null,"elderly_alone_r":0.0905,"bldg_age30_r":null,"shelter_min_walk":5,"pop":44194,"hh":18838,"elderly65_r":0.1564,"single_hh_r":0.3338,"source_level":"emd","flood_years":[],"landslide_hist_n":0},"geometry":{"type":"Polygon","coordinates":[[[126.96224,37.27769],[126.96172,37.28203],[126.95753,37.28399],[126.95386,37.28161],[126.95438,37.27727],[126.95856,37.27531],[126.96224,37.27769]]]}},{"type":"Feature","properties":{"h3":"8830e020edfffff","emd_code":"4111366200","emd_name":"금곡동","area_km2":0.5061,"edge":false,"slope_mean":3.94,"elev_mean":43.0,"flood_hist_n":0,"flood_depth_max_m":null,"flood_risk_100y":null,"semi_basement_r":null,"elderly_alone_r":0.0905,"bldg_age30_r":null,"shelter_min_walk":2,"pop":44194,"hh":18838,"elderly65_r":0.1564,"single_hh_r":0.3338,"source_level":"emd","flood_years":[],"landslide_hist_n":0},"geometry":{"type":"Polygon","coordinates":[[[126.95122,37.27055],[126.95071,37.27489],[126.94652,37.27684],[126.94285,37.27446],[126.94336,37.27012],[126.94755,37.26817],[126.95122,37.27055]]]}},{"type":"Feature","properties":{"h3":"8830e0218bfffff","emd_code":"4111355000","emd_name":"평동","area_km2":0.5062,"edge":true,"slope_mean":5.89,"elev_mean":38.3,"flood_hist_n":0,"flood_depth_max_m":null,"flood_risk_100y":null,"semi_basement_r":null,"elderly_alone_r":0.1079,"bldg_age30_r":null,"shelter_min_walk":3,"pop":40873,"hh":18041,"elderly65_r":0.1945,"single_hh_r":0.341,"source_level":"emd","flood_years":[],"landslide_hist_n":0},"geometry":{"type":"Polygon","coordinates":[[[126.95901,37.23822],[126.9585,37.24256],[126.95431,37.24452],[126.95064,37.24214],[126.95116,37.2378],[126.95534,37.23584],[126.95901,37.23822]]]}},{"type":"Feature","properties":{"h3":"8830e02191fffff","emd_code":"4111355000","emd_name":"평동","area_km2":0.5064,"edge":false,"slope_mean":3.7,"elev_mean":28.4,"flood_hist_n":0,"flood_depth_max_m":null,"flood_risk_100y":null,"semi_basement_r":null,"elderly_alone_r":0.1079,"bldg_age30_r":null,"shelter_min_walk":8,"pop":40873,"hh":18041,"elderly65_r":0.1945,"single_hh_r":0.341,"source_level":"emd","flood_years":[],"landslide_hist_n":0},"geometry":{"type":"Polygon","coordinates":[[[126.97472,37.23906],[126.97421,37.2434],[126.97002,37.24536],[126.96635,37.24298],[126.96687,37.23864],[126.97105,37.23668],[126.97472,37.23906]]]}},{"type":"Feature","properties":{"h3":"8830e02193fffff","emd_code":"4111355000","emd_name":"평동","area_km2":0.5065,"edge":false,"slope_mean":4.13,"elev_mean":26.8,"flood_hist_n":0,"flood_depth_max_m":null,"flood_risk_100y":null,"semi_basement_r":null,"elderly_alone_r":0.1079,"bldg_age30_r":null,"shelter_min_walk":8,"pop":40873,"hh":18041,"elderly65_r":0.1945,"single_hh_r":0.341,"source_level":"emd","flood_years":[],"landslide_hist_n":0},"geometry":{"type":"Polygon","coordinates":[[[126.98258,37.23948],[126.98207,37.24382],[126.97788,37.24578],[126.97421,37.2434],[126.97472,37.23906],[126.97891,37.2371],[126.98258,37.23948]]]}},{"type":"Feature","properties":{"h3":"8830e02195fffff","emd_code":"4111355000","emd_name":"평동","area_km2":0.5063,"edge":true,"slope_mean":4.27,"elev_mean":39.9,"flood_hist_n":0,"flood_depth_max_m":null,"flood_risk_100y":null,"semi_basement_r":null,"elderly_alone_r":0.1079,"bldg_age30_r":null,"shelter_min_walk":11,"pop":40873,"hh":18041,"elderly65_r":0.1945,"single_hh_r":0.341,"source_level":"emd","flood_years":[],"landslide_hist_n":0},"geometry":{"type":"Polygon","coordinates":[[[126.97157,37.23235],[126.97105,37.23668],[126.96687,37.23864],[126.9632,37.23626],[126.96371,37.23192],[126.96789,37.22997],[126.97157,37.23235]]]}},{"type":"Feature","properties":{"h3":"8830e02197fffff","emd_code":"4111355000","emd_name":"평동","area_km2":0.5064,"edge":false,"slope_mean":5.5,"elev_mean":34.2,"flood_hist_n":0,"flood_depth_max_m":null,"flood_risk_100y":null,"semi_basement_r":null,"elderly_alone_r":0.1079,"bldg_age30_r":null,"shelter_min_walk":15,"pop":40873,"hh":18041,"elderly65_r":0.1945,"single_hh_r":0.341,"source_level":"emd","flood_years":[],"landslide_hist_n":0},"geometry":{"type":"Polygon","coordinates":[[[126.97942,37.23277],[126.97891,37.2371],[126.97472,37.23906],[126.97105,37.23668],[126.97157,37.23235],[126.97575,37.23039],[126.97942,37.23277]]]}},{"type":"Feature","properties":{"h3":"8830e02199fffff","emd_code":"4111355000","emd_name":"평동","area_km2":0.5063,"edge":false,"slope_mean":3.95,"elev_mean":31.9,"flood_hist_n":0,"flood_depth_max_m":null,"flood_risk_100y":null,"semi_basement_r":null,"elderly_alone_r":0.1079,"bldg_age30_r":null,"shelter_min_walk":3,"pop":40873,"hh":18041,"elderly65_r":0.1945,"single_hh_r":0.341,"source_level":"emd","flood_years":[],"landslide_hist_n":0},"geometry":{"type":"Polygon","coordinates":[[[126.97002,37.24536],[126.96951,37.2497],[126.96532,37.25166],[126.96165,37.24928],[126.96217,37.24494],[126.96635,37.24298],[126.97002,37.24536]]]}},{"type":"Feature","properties":{"h3":"8830e0219bfffff","emd_code":"4111355000","emd_name":"평동","area_km2":0.5064,"edge":false,"slope_mean":2.52,"elev_mean":25.4,"flood_hist_n":0,"flood_depth_max_m":null,"flood_risk_100y":null,"semi_basement_r":null,"elderly_alone_r":0.1079,"bldg_age30_r":null,"shelter_min_walk":7,"pop":40873,"hh":18041,"elderly65_r":0.1945,"single_hh_r":0.341,"source_level":"emd","flood_years":[],"landslide_hist_n":0},"geometry":{"type":"Polygon","coordinates":[[[126.97788,37.24578],[126.97737,37.25012],[126.97318,37.25208],[126.96951,37.2497],[126.97002,37.24536],[126.97421,37.2434],[126.97788,37.24578]]]}},{"type":"Feature","properties":{"h3":"8830e0219dfffff","emd_code":"4111355000","emd_name":"평동","area_km2":0.5063,"edge":false,"slope_mean":3.69,"elev_mean":38.9,"flood_hist_n":0,"flood_depth_max_m":null,"flood_risk_100y":null,"semi_basement_r":null,"elderly_alone_r":0.1079,"bldg_age30_r":null,"shelter_min_walk":2,"pop":40873,"hh":18041,"elderly65_r":0.1945,"single_hh_r":0.341,"source_level":"emd","flood_years":[],"landslide_hist_n":0},"geometry":{"type":"Polygon","coordinates":[[[126.96687,37.23864],[126.96635,37.24298],[126.96217,37.24494],[126.9585,37.24256],[126.95901,37.23822],[126.9632,37.23626],[126.96687,37.23864]]]}},{"type":"Feature","properties":{"h3":"8830e021bbfffff","emd_code":"4111355000","emd_name":"평동","area_km2":0.5064,"edge":true,"slope_mean":5.38,"elev_mean":45.4,"flood_hist_n":0,"flood_depth_max_m":null,"flood_risk_100y":null,"semi_basement_r":null,"elderly_alone_r":0.1079,"bldg_age30_r":null,"shelter_min_walk":3,"pop":40873,"hh":18041,"elderly65_r":0.1945,"single_hh_r":0.341,"source_level":"emd","flood_years":[],"landslide_hist_n":0},"geometry":{"type":"Polygon","coordinates":[[[126.97626,37.22605],[126.97575,37.23039],[126.97157,37.23235],[126.96789,37.22997],[126.96841,37.22563],[126.97259,37.22367],[126.97626,37.22605]]]}},{"type":"Feature","properties":{"h3":"8830e021d1fffff","emd_code":"4111366400","emd_name":"호매실동","area_km2":0.5062,"edge":false,"slope_mean":6.76,"elev_mean":50.1,"flood_hist_n":0,"flood_depth_max_m":null,"flood_risk_100y":null,"semi_basement_r":null,"elderly_alone_r":0.0845,"bldg_age30_r":null,"shelter_min_walk":10,"pop":43709,"hh":17383,"elderly65_r":0.1318,"single_hh_r":0.2695,"source_level":"emd","flood_years":[],"landslide_hist_n":0},"geometry":{"type":"Polygon","coordinates":[[[126.95747,37.25124],[126.95695,37.25558],[126.95277,37.25753],[126.9491,37.25515],[126.94961,37.25082],[126.9538,37.24886],[126.95747,37.25124]]]}},{"type":"Feature","properties":{"h3":"8830e021d3fffff","emd_code":"4111355000","emd_name":"평동","area_km2":0.5063,"edge":false,"slope_mean":5.47,"elev_mean":37.6,"flood_hist_n":0,"flood_depth_max_m":null,"flood_risk_100y":null,"semi_basement_r":null,"elderly_alone_r":0.1079,"bldg_age30_r":null,"shelter_min_walk":9,"pop":40873,"hh":18041,"elderly65_r":0.1945,"single_hh_r":0.341,"source_level":"emd","flood_years":[],"landslide_hist_n":0},"geometry":{"type":"Polygon","coordinates":[[[126.96532,37.25166],[126.96481,37.256],[126.96062,37.25796],[126.95695,37.25558],[126.95747,37.25124],[126.96165,37.24928],[126.96532,37.25166]]]}},{"type":"Feature","properties":{"h3":"8830e021d5fffff","emd_code":"4111355000","emd_name":"평동","area_km2":0.5061,"edge":true,"slope_mean":6.56,"elev_mean":37.7,"flood_hist_n":0,"flood_depth_max_m":null,"flood_risk_100y":null,"semi_basement_r":null,"elderly_alone_r":0.1079,"bldg_age30_r":null,"shelter_min_walk":9,"pop":40873,"hh":18041,"elderly65_r":0.1945,"single_hh_r":0.341,"source_level":"emd","flood_years":[],"landslide_hist_n":0},"geometry":{"type":"Polygon","coordinates":[[[126.95431,37.24452],[126.9538,37.24886],[126.94961,37.25082],[126.94594,37.24843],[126.94646,37.2441],[126.95064,37.24214],[126.95431,37.24452]]]}},{"type":"Feature","properties":{"h3":"8830e021d7fffff","emd_code":"4111355000","emd_name":"평동","area_km2":0.5062,"edge":false,"slope_mean":6.29,"elev_mean":45.3,"flood_hist_n":0,"flood_depth_max_m":null,"flood_risk_100y":null,"semi_basement_r":null,"elderly_alone_r":0.1079,"bldg_age30_r":null,"shelter_min_walk":7,"pop":40873,"hh":18041,"elderly65_r":0.1945,"single_hh_r":0.341,"source_level":"emd","flood_years":[],"landslide_hist_n":0},"geometry":{"type":"Polygon","coordinates":[[[126.96217,37.24494],[126.96165,37.24928],[126.95747,37.25124],[126.9538,37.24886],[126.95431,37.24452],[126.9585,37.24256],[126.96217,37.24494]]]}},{"type":"Feature","properties":{"h3":"8830e021d9fffff","emd_code":"4111366400","emd_name":"호매실동","area_km2":0.5061,"edge":false,"slope_mean":8.86,"elev_mean":67.3,"flood_hist_n":0,"flood_depth_max_m":null,"flood_risk_100y":null,"semi_basement_r":null,"elderly_alone_r":0.0845,"bldg_age30_r":null,"shelter_min_walk":6,"pop":43709,"hh":17383,"elderly65_r":0.1318,"single_hh_r":0.2695,"source_level":"emd","flood_years":[],"landslide_hist_n":0},"geometry":{"type":"Polygon","coordinates":[[[126.95277,37.25753],[126.95225,37.26187],[126.94807,37.26383],[126.9444,37.26145],[126.94491,37.25711],[126.9491,37.25515],[126.95277,37.25753]]]}},{"type":"Feature","properties":{"h3":"8830e021dbfffff","emd_code":"4111366400","emd_name":"호매실동","area_km2":0.5062,"edge":false,"slope_mean":4.64,"elev_mean":40.3,"flood_hist_n":0,"flood_depth_max_m":null,"flood_risk_100y":null,"semi_basement_r":null,"elderly_alone_r":0.0845,"bldg_age30_r":null,"shelter_min_walk":5,"pop":43709,"hh":17383,"elderly65_r":0.1318,"single_hh_r":0.2695,"source_level":"emd","flood_years":[],"landslide_hist_n":0},"geometry":{"type":"Polygon","coordinates":[[[126.96062,37.25796],[126.96011,37.2623],[126.95592,37.26425],[126.95225,37.26187],[126.95277,37.25753],[126.95695,37.25558],[126.96062,37.25796]]]}},{"type":"Feature","properties":{"h3":"8830e022a1fffff","emd_code":"4111370000","emd_name":"입북동","area_km2":0.5061,"edge":true,"slope_mean":6.98,"elev_mean":54.0,"flood_hist_n":0,"flood_depth_max_m":null,"flood_risk_100y":null,"semi_basement_r":null,"elderly_alone_r":0.0802,"bldg_age30_r":null,"shelter_min_walk":20,"pop":19616,"hh":8303,"elderly65_r":0.1533,"single_hh_r":0.2976,"source_level":"emd","flood_years":[],"landslide_hist_n":0},"geometry":{"type":"Polygon","coordinates":[[[126.94342,37.30288],[126.94291,37.30721],[126.93872,37.30917],[126.93505,37.30679],[126.93557,37.30245],[126.93975,37.30049],[126.94342,37.30288]]]}},{"type":"Feature","properties":{"h3":"8830e022a5fffff","emd_code":"4111370000","emd_name":"입북동","area_km2":0.5061,"edge":false,"slope_mean":8.54,"elev_mean":57.9,"flood_hist_n":0,"flood_depth_max_m":null,"flood_risk_100y":null,"semi_basement_r":null,"elderly_alone_r":0.0802,"bldg_age30_r":null,"shelter_min_walk":9,"pop":19616,"hh":8303,"elderly65_r":0.1533,"single_hh_r":0.2976,"source_level":"emd","flood_years":[],"landslide_hist_n":0},"geometry":{"type":"Polygon","coordinates":[[[126.94027,37.29615],[126.93975,37.30049],[126.93557,37.30245],[126.93189,37.30006],[126.93241,37.29573],[126.9366,37.29377],[126.94027,37.29615]]]}},{"type":"Feature","properties":{"h3":"8830e022a7fffff","emd_code":"4111370000","emd_name":"입북동","area_km2":0.5062,"edge":false,"slope_mean":3.35,"elev_mean":41.6,"flood_hist_n":0,"flood_depth_max_m":null,"flood_risk_100y":null,"semi_basement_r":null,"elderly_alone_r":0.0802,"bldg_age30_r":null,"shelter_min_walk":12,"pop":19616,"hh":8303,"elderly65_r":0.1533,"single_hh_r":0.2976,"source_level":"emd","flood_years":[],"landslide_hist_n":0},"geometry":{"type":"Polygon","coordinates":[[[126.94813,37.29658],[126.94761,37.30092],[126.94342,37.30288],[126.93975,37.30049],[126.94027,37.29615],[126.94446,37.2942],[126.94813,37.29658]]]}},{"type":"Feature","properties":{"h3":"8830e022adfffff","emd_code":"4111370000","emd_name":"입북동","area_km2":0.506,"edge":true,"slope_mean":10.7,"elev_mean":63.0,"flood_hist_n":0,"flood_depth_max_m":null,"flood_risk_100y":null,"semi_basement_r":null,"elderly_alone_r":0.0802,"bldg_age30_r":null,"shelter_min_walk":21,"pop":19616,"hh":8303,"elderly65_r":0.1533,"single_hh_r":0.2976,"source_level":"emd","flood_years":[],"landslide_hist_n":0},"geometry":{"type":"Polygon","coordinates":[[[126.93557,37.30245],[126.93505,37.30679],[126.93086,37.30874],[126.92719,37.30636],[126.92771,37.30202],[126.93189,37.30006],[126.93557,37.30245]]]}},{"type":"Feature","properties":{"h3":"8830e022b5fffff","emd_code":"4111370000","emd_name":"입북동","area_km2":0.5063,"edge":true,"slope_mean":5.63,"elev_mean":52.6,"flood_hist_n":0,"flood_depth_max_m":null,"flood_risk_100y":null,"semi_basement_r":null,"elderly_alone_r":0.0802,"bldg_age30_r":null,"shelter_min_walk":15,"pop":19616,"hh":8303,"elderly65_r":0.1533,"single_hh_r":0.2976,"source_level":"emd","flood_years":[],"landslide_hist_n":0},"geometry":{"type":"Polygon","coordinates":[[[126.95915,37.30373],[126.95863,37.30807],[126.95444,37.31002],[126.95077,37.30764],[126.95129,37.3033],[126.95547,37.30135],[126.95915,37.30373]]]}},{"type":"Feature","properties":{"h3":"8830e022b7fffff","emd_code":"4111370000","emd_name":"입북동","area_km2":0.5065,"edge":true,"slope_mean":7.57,"elev_mean":66.9,"flood_hist_n":0,"flood_depth_max_m":null,"flood_risk_100y":null,"semi_basement_r":null,"elderly_alone_r":0.0802,"bldg_age30_r":null,"shelter_min_walk":5,"pop":19616,"hh":8303,"elderly65_r":0.1533,"single_hh_r":0.2976,"source_level":"emd","flood_years":[],"landslide_hist_n":0},"geometry":{"type":"Polygon","coordinates":[[[126.96701,37.30415],[126.9665,37.30849],[126.96231,37.31045],[126.95863,37.30807],[126.95915,37.30373],[126.96334,37.30177],[126.96701,37.30415]]]}},{"type":"Feature","properties":{"h3":"8830e02521fffff","emd_code":"4111367000","emd_name":"권선1동","area_km2":0.5072,"edge":true,"slope_mean":5.94,"elev_mean":47.3,"flood_hist_n":0,"flood_depth_max_m":null,"flood_risk_100y":null,"semi_basement_r":null,"elderly_alone_r":0.0794,"bldg_age30_r":null,"shelter_min_walk":2,"pop":23869,"hh":14102,"elderly65_r":0.1688,"single_hh_r":0.6035,"source_level":"emd","flood_years":[],"landslide_hist_n":0},"geometry":{"type":"Polygon","coordinates":[[[127.03139,37.26174],[127.03088,37.26609],[127.02669,37.26805],[127.02301,37.26567],[127.02352,37.26132],[127.02771,37.25936],[127.03139,37.26174]]]}},{"type":"Feature","properties":{"h3":"8830e02525fffff","emd_code":"4111367000","emd_name":"권선1동","area_km2":0.5072,"edge":false,"slope_mean":3.91,"elev_mean":41.0,"flood_hist_n":0,"flood_depth_max_m":null,"flood_risk_100y":null,"semi_basement_r":null,"elderly_alone_r":0.0794,"bldg_age30_r":null,"shelter_min_walk":4,"pop":23869,"hh":14102,"elderly65_r":0.1688,"single_hh_r":0.6035,"source_level":"emd","flood_years":[],"landslide_hist_n":0},"geometry":{"type":"Polygon","coordinates":[[[127.02822,37.25502],[127.02771,37.25936],[127.02352,37.26132],[127.01984,37.25894],[127.02035,37.2546],[127.02454,37.25264],[127.02822,37.25502]]]}},{"type":"Feature","properties":{"h3":"8830e02527fffff","emd_code":"4111367000","emd_name":"권선1동","area_km2":0.5073,"edge":false,"slope_mean":4.76,"elev_mean":43.1,"flood_hist_n":0,"flood_depth_max_m":null,"flood_risk_100y":null,"semi_basement_r":null,"elderly_alone_r":0.0794,"bldg_age30_r":null,"shelter_min_walk":1,"pop":23869,"hh":14102,"elderly65_r":0.1688,"single_hh_r":0.6035,"source_level":"emd","flood_years":[],"landslide_hist_n":0},"geometry":{"type":"Polygon","coordinates":[[[127.03609,37.25544],[127.03558,37.25978],[127.03139,37.26174],[127.02771,37.25936],[127.02822,37.25502],[127.03241,37.25306],[127.03609,37.25544]]]}},{"type":"Feature","properties":{"h3":"8830e0252dfffff","emd_code":"4111354000","emd_name":"세류3동","area_km2":0.5071,"edge":false,"slope_mean":3.75,"elev_mean":42.1,"flood_hist_n":0,"flood_depth_max_m":null,"flood_risk_100y":null,"semi_basement_r":null,"elderly_alone_r":0.148,"bldg_age30_r":null,"shelter_min_walk":4,"pop":16899,"hh":8810,"elderly65_r":0.2518,"single_hh_r":0.4814,"source_level":"emd","flood_years":[],"landslide_hist_n":0},"geometry":{"type":"Polygon","coordinates":[[[127.02352,37.26132],[127.02301,37.26567],[127.01882,37.26763],[127.01514,37.26525],[127.01565,37.26091],[127.01984,37.25894],[127.02352,37.26132]]]}},{"type":"Feature","properties":{"h3":"8830e02565fffff","emd_code":"4111352000","emd_name":"세류1동","area_km2":0.507,"edge":true,"slope_mean":4.81,"elev_mean":45.3,"flood_hist_n":0,"flood_depth_max_m":null,"flood_risk_100y":null,"semi_basement_r":null,"elderly_alone_r":0.1108,"bldg_age30_r":null,"shelter_min_walk":1,"pop":9492,"hh":4379,"elderly65_r":0.2024,"single_hh_r":0.3677,"source_level":"emd","flood_years":[],"landslide_hist_n":0},"geometry":{"type":"Polygon","coordinates":[[[127.01095,37.26721],[127.01044,37.27155],[127.00625,37.27351],[127.00258,37.27113],[127.00309,37.26679],[127.00728,37.26483],[127.01095,37.26721]]]}},{"type":"Feature","properties":{"h3":"8830e02e01fffff","emd_code":"4111353000","emd_name":"세류2동","area_km2":0.5069,"edge":false,"slope_mean":0.93,"elev_mean":23.1,"flood_hist_n":0,"flood_depth_max_m":null,"flood_risk_100y":null,"semi_basement_r":null,"elderly_alone_r":0.1473,"bldg_age30_r":null,"shelter_min_walk":19,"pop":21752,"hh":12387,"elderly65_r":0.2353,"single_hh_r":0.5596,"source_level":"emd","flood_years":[],"landslide_hist_n":0},"geometry":{"type":"Polygon","coordinates":[[[127.01086,37.23444],[127.01035,37.23878],[127.00616,37.24074],[127.00249,37.23836],[127.003,37.23402],[127.00719,37.23206],[127.01086,37.23444]]]}},{"type":"Feature","properties":{"h3":"8830e02e03fffff","emd_code":"4111369000","emd_name":"곡선동","area_km2":0.507,"edge":false,"slope_mean":1.61,"elev_mean":23.2,"flood_hist_n":0,"flood_depth_max_m":null,"flood_risk_100y":null,"semi_basement_r":null,"elderly_alone_r":0.0574,"bldg_age30_r":null,"shelter_min_walk":13,"pop":34582,"hh":18101,"elderly65_r":0.1105,"single_hh_r":0.5269,"source_level":"emd","flood_years":[],"landslide_hist_n":0},"geometry":{"type":"Polygon","coordinates":[[[127.01872,37.23486],[127.01821,37.2392],[127.01402,37.24116],[127.01035,37.23878],[127.01086,37.23444],[127.01505,37.23248],[127.01872,37.23486]]]}},{"type":"Feature","properties":{"h3":"8830e02e05fffff","emd_code":"4111353000","emd_name":"세류2동","area_km2":0.5068,"edge":false,"slope_mean":2.23,"elev_mean":21.3,"flood_hist_n":0,"flood_depth_max_m":null,"flood_risk_100y":null,"semi_basement_r":null,"elderly_alone_r":0.1473,"bldg_age30_r":null,"shelter_min_walk":25,"pop":21752,"hh":12387,"elderly65_r":0.2353,"single_hh_r":0.5596,"source_level":"emd","flood_years":[],"landslide_hist_n":0},"geometry":{"type":"Polygon","coordinates":[[[127.0077,37.22772],[127.00719,37.23206],[127.003,37.23402],[126.99932,37.23164],[126.99984,37.2273],[127.00402,37.22534],[127.0077,37.22772]]]}},{"type":"Feature","properties":{"h3":"8830e02e07fffff","emd_code":"4111369000","emd_name":"곡선동","area_km2":0.5069,"edge":false,"slope_mean":1.73,"elev_mean":21.0,"flood_hist_n":0,"flood_depth_max_m":null,"flood_risk_100y":null,"semi_basement_r":null,"elderly_alone_r":0.0574,"bldg_age30_r":null,"shelter_min_walk":22,"pop":34582,"hh":18101,"elderly65_r":0.1105,"single_hh_r":0.5269,"source_level":"emd","flood_years":[],"landslide_hist_n":0},"geometry":{"type":"Polygon","coordinates":[[[127.01556,37.22814],[127.01505,37.23248],[127.01086,37.23444],[127.00719,37.23206],[127.0077,37.22772],[127.01188,37.22576],[127.01556,37.22814]]]}},{"type":"Feature","properties":{"h3":"8830e02e09fffff","emd_code":"4111353000","emd_name":"세류2동","area_km2":0.5068,"edge":false,"slope_mean":1.1,"elev_mean":24.4,"flood_hist_n":0,"flood_depth_max_m":null,"flood_risk_100y":null,"semi_basement_r":null,"elderly_alone_r":0.1473,"bldg_age30_r":null,"shelter_min_walk":17,"pop":21752,"hh":12387,"elderly65_r":0.2353,"single_hh_r":0.5596,"source_level":"emd","flood_years":[],"landslide_hist_n":0},"geometry":{"type":"Polygon","coordinates":[[[127.00616,37.24074],[127.00565,37.24508],[127.00146,37.24704],[126.99779,37.24466],[126.9983,37.24032],[127.00249,37.23836],[127.00616,37.24074]]]}},{"type":"Feature","properties":{"h3":"8830e02e0bfffff","emd_code":"4111353000","emd_name":"세류2동","area_km2":0.5069,"edge":false,"slope_mean":1.78,"elev_mean":25.8,"flood_hist_n":0,"flood_depth_max_m":null,"flood_risk_100y":null,"semi_basement_r":null,"elderly_alone_r":0.1473,"bldg_age30_r":null,"shelter_min_walk":9,"pop":21752,"hh":12387,"elderly65_r":0.2353,"single_hh_r":0.5596,"source_level":"emd","flood_years":[],"landslide_hist_n":0},"geometry":{"type":"Polygon","coordinates":[[[127.01402,37.24116],[127.01351,37.2455],[127.00932,37.24746],[127.00565,37.24508],[127.00616,37.24074],[127.01035,37.23878],[127.01402,37.24116]]]}},{"type":"Feature","properties":{"h3":"8830e02e0dfffff","emd_code":"4111353000","emd_name":"세류2동","area_km2":0.5068,"edge":false,"slope_mean":1.06,"elev_mean":21.8,"flood_hist_n":0,"flood_depth_max_m":null,"flood_risk_100y":null,"semi_basement_r":null,"elderly_alone_r":0.1473,"bldg_age30_r":null,"shelter_min_walk":27,"pop":21752,"hh":12387,"elderly65_r":0.2353,"single_hh_r":0.5596,"source_level":"emd","flood_years":[],"landslide_hist_n":0},"geometry":{"type":"Polygon","coordinates":[[[127.003,37.23402],[127.00249,37.23836],[126.9983,37.24032],[126.99463,37.23794],[126.99514,37.2336],[126.99932,37.23164],[127.003,37.23402]]]}},{"type":"Feature","properties":{"h3":"8830e02e11fffff","emd_code":"4111368000","emd_name":"권선2동","area_km2":0.5072,"edge":false,"slope_mean":4.61,"elev_mean":32.0,"flood_hist_n":0,"flood_depth_max_m":null,"flood_risk_100y":null,"semi_basement_r":null,"elderly_alone_r":0.0588,"bldg_age30_r":null,"shelter_min_walk":5,"pop":46129,"hh":17600,"elderly65_r":0.1422,"single_hh_r":0.2174,"source_level":"emd","flood_years":[],"landslide_hist_n":0},"geometry":{"type":"Polygon","coordinates":[[[127.02975,37.242],[127.02924,37.24634],[127.02505,37.2483],[127.02138,37.24592],[127.02189,37.24158],[127.02608,37.23962],[127.02975,37.242]]]}},{"type":"Feature","properties":{"h3":"8830e02e13fffff","emd_code":"4111369000","emd_name":"곡선동","area_km2":0.5073,"edge":false,"slope_mean":4.48,"elev_mean":30.1,"flood_hist_n":0,"flood_depth_max_m":null,"flood_risk_100y":null,"semi_basement_r":null,"elderly_alone_r":0.0574,"bldg_age30_r":null,"shelter_min_walk":6,"pop":34582,"hh":18101,"elderly65_r":0.1105,"single_hh_r":0.5269,"source_level":"emd","flood_years":[],"landslide_hist_n":0},"geometry":{"type":"Polygon","coordinates":[[[127.03762,37.24241],[127.03711,37.24676],[127.03292,37.24872],[127.02924,37.24634],[127.02975,37.242],[127.03394,37.24003],[127.03762,37.24241]]]}},{"type":"Feature","properties":{"h3":"8830e02e15fffff","emd_code":"4111368000","emd_name":"권선2동","area_km2":0.5071,"edge":false,"slope_mean":3.21,"elev_mean":26.0,"flood_hist_n":0,"flood_depth_max_m":null,"flood_risk_100y":null,"semi_basement_r":null,"elderly_alone_r":0.0588,"bldg_age30_r":null,"shelter_min_walk":6,"pop":46129,"hh":17600,"elderly65_r":0.1422,"single_hh_r":0.2174,"source_level":"emd","flood_years":[],"landslide_hist_n":0},"geometry":{"type":"Polygon","coordinates":[[[127.02659,37.23528],[127.02608,37.23962],[127.02189,37.24158],[127.01821,37.2392],[127.01872,37.23486],[127.02291,37.2329],[127.02659,37.23528]]]}},{"type":"Feature","properties":{"h3":"8830e02e17fffff","emd_code":"4111369000","emd_name":"곡선동","area_km2":0.5072,"edge":false,"slope_mean":3.62,"elev_mean":25.8,"flood_hist_n":0,"flood_depth_max_m":null,"flood_risk_100y":null,"semi_basement_r":null,"elderly_alone_r":0.0574,"bldg_age30_r":null,"shelter_min_walk":3,"pop":34582,"hh":18101,"elderly65_r":0.1105,"single_hh_r":0.5269,"source_level":"emd","flood_years":[],"landslide_hist_n":0},"geometry":{"type":"Polygon","coordinates":[[[127.03445,37.23569],[127.03394,37.24003],[127.02975,37.242],[127.02608,37.23962],[127.02659,37.23528],[127.03077,37.23331],[127.03445,37.23569]]]}},{"type":"Feature","properties":{"h3":"8830e02e19fffff","emd_code":"4111368000","emd_name":"권선2동","area_km2":0.5071,"edge":false,"slope_mean":4.18,"elev_mean":34.6,"flood_hist_n":0,"flood_depth_max_m":null,"flood_risk_100y":null,"semi_basement_r":null,"elderly_alone_r":0.0588,"bldg_age30_r":null,"shelter_min_walk":5,"pop":46129,"hh":17600,"elderly65_r":0.1422,"single_hh_r":0.2174,"source_level":"emd","flood_years":[],"landslide_hist_n":0},"geometry":{"type":"Polygon","coordinates":[[[127.02505,37.2483],[127.02454,37.25264],[127.02035,37.2546],[127.01668,37.25222],[127.01719,37.24788],[127.02138,37.24592],[127.02505,37.2483]]]}},{"type":"Feature","properties":{"h3":"8830e02e1bfffff","emd_code":"4111368000","emd_name":"권선2동","area_km2":0.5072,"edge":false,"slope_mean":4.56,"elev_mean":37.7,"flood_hist_n":0,"flood_depth_max_m":null,"flood_risk_100y":null,"semi_basement_r":null,"elderly_alone_r":0.0588,"bldg_age30_r":null,"shelter_min_walk":1,"pop":46129,"hh":17600,"elderly65_r":0.1422,"single_hh_r":0.2174,"source_level":"emd","flood_years":[],"landslide_hist_n":0},"geometry":{"type":"Polygon","coordinates":[[[127.03292,37.24872],[127.03241,37.25306],[127.02822,37.25502],[127.02454,37.25264],[127.02505,37.2483],[127.02924,37.24634],[127.03292,37.24872]]]}},{"type":"Feature","properties":{"h3":"8830e02e1dfffff","emd_code":"4111368000","emd_name":"권선2동","area_km2":0.507,"edge":false,"slope_mean":2.57,"elev_mean":28.0,"flood_hist_n":0,"flood_depth_max_m":null,"flood_risk_100y":null,"semi_basement_r":null,"elderly_alone_r":0.0588,"bldg_age30_r":null,"shelter_min_walk":2,"pop":46129,"hh":17600,"elderly65_r":0.1422,"single_hh_r":0.2174,"source_level":"emd","flood_years":[],"landslide_hist_n":0},"geometry":{"type":"Polygon","coordinates":[[[127.02189,37.24158],[127.02138,37.24592],[127.01719,37.24788],[127.01351,37.2455],[127.01402,37.24116],[127.01821,37.2392],[127.02189,37.24158]]]}},{"type":"Feature","properties":{"h3":"8830e02e31fffff","emd_code":"4111369000","emd_name":"곡선동","area_km2":0.5071,"edge":true,"slope_mean":2.69,"elev_mean":19.7,"flood_hist_n":0,"flood_depth_max_m":null,"flood_risk_100y":null,"semi_basement_r":null,"elderly_alone_r":0.0574,"bldg_age30_r":null,"shelter_min_walk":19,"pop":34582,"hh":18101,"elderly65_r":0.1105,"single_hh_r":0.5269,"source_level":"emd","flood_years":[],"landslide_hist_n":0},"geometry":{"type":"Polygon","coordinates":[[[127.02812,37.22225],[127.02761,37.22659],[127.02342,37.22855],[127.01975,37.22618],[127.02026,37.22183],[127.02444,37.21987],[127.02812,37.22225]]]}},{"type":"Feature","properties":{"h3":"8830e02e39fffff","emd_code":"4111369000","emd_name":"곡선동","area_km2":0.507,"edge":false,"slope_mean":2.12,"elev_mean":21.2,"flood_hist_n":0,"flood_depth_max_m":null,"flood_risk_100y":null,"semi_basement_r":null,"elderly_alone_r":0.0574,"bldg_age30_r":null,"shelter_min_walk":13,"pop":34582,"hh":18101,"elderly65_r":0.1105,"single_hh_r":0.5269,"source_level":"emd","flood_years":[],"landslide_hist_n":0},"geometry":{"type":"Polygon","coordinates":[[[127.02342,37.22855],[127.02291,37.2329],[127.01872,37.23486],[127.01505,37.23248],[127.01556,37.22814],[127.01975,37.22618],[127.02342,37.22855]]]}},{"type":"Feature","properties":{"h3":"8830e02e3bfffff","emd_code":"4111369000","emd_name":"곡선동","area_km2":0.5071,"edge":true,"slope_mean":2.33,"elev_mean":22.5,"flood_hist_n":0,"flood_depth_max_m":null,"flood_risk_100y":null,"semi_basement_r":null,"elderly_alone_r":0.0574,"bldg_age30_r":null,"shelter_min_walk":8,"pop":34582,"hh":18101,"elderly65_r":0.1105,"single_hh_r":0.5269,"source_level":"emd","flood_years":[],"landslide_hist_n":0},"geometry":{"type":"Polygon","coordinates":[[[127.03128,37.22897],[127.03077,37.23331],[127.02659,37.23528],[127.02291,37.2329],[127.02342,37.22855],[127.02761,37.22659],[127.03128,37.22897]]]}},{"type":"Feature","properties":{"h3":"8830e02e3dfffff","emd_code":"4111369000","emd_name":"곡선동","area_km2":0.507,"edge":true,"slope_mean":3.33,"elev_mean":25.0,"flood_hist_n":0,"flood_depth_max_m":null,"flood_risk_100y":null,"semi_basement_r":null,"elderly_alone_r":0.0574,"bldg_age30_r":null,"shelter_min_walk":24,"pop":34582,"hh":18101,"elderly65_r":0.1105,"single_hh_r":0.5269,"source_level":"emd","flood_years":[],"landslide_hist_n":0},"geometry":{"type":"Polygon","coordinates":[[[127.02026,37.22183],[127.01975,37.22618],[127.01556,37.22814],[127.01188,37.22576],[127.01239,37.22142],[127.01658,37.21946],[127.02026,37.22183]]]}},{"type":"Feature","properties":{"h3":"8830e02e41fffff","emd_code":"4111355000","emd_name":"평동","area_km2":0.5067,"edge":false,"slope_mean":1.94,"elev_mean":25.8,"flood_hist_n":0,"flood_depth_max_m":null,"flood_risk_100y":null,"semi_basement_r":null,"elderly_alone_r":0.1079,"bldg_age30_r":null,"shelter_min_walk":13,"pop":40873,"hh":18041,"elderly65_r":0.1945,"single_hh_r":0.341,"source_level":"emd","flood_years":[],"landslide_hist_n":0},"geometry":{"type":"Polygon","coordinates":[[[126.9936,37.24662],[126.99309,37.25096],[126.9889,37.25292],[126.98523,37.25054],[126.98574,37.2462],[126.98993,37.24424],[126.9936,37.24662]]]}},{"type":"Feature","properties":{"h3":"8830e02e43fffff","emd_code":"4111355000","emd_name":"평동","area_km2":0.5068,"edge":false,"slope_mean":1.2,"elev_mean":25.2,"flood_hist_n":0,"flood_depth_max_m":null,"flood_risk_100y":null,"semi_basement_r":null,"elderly_alone_r":0.1079,"bldg_age30_r":null,"shelter_min_walk":21,"pop":40873,"hh":18041,"elderly65_r":0.1945,"single_hh_r":0.341,"source_level":"emd","flood_years":[],"landslide_hist_n":0},"geometry":{"type":"Polygon","coordinates":[[[127.00146,37.24704],[127.00095,37.25138],[126.99676,37.25334],[126.99309,37.25096],[126.9936,37.24662],[126.99779,37.24466],[127.00146,37.24704]]]}},{"type":"Feature","properties":{"h3":"8830e02e45fffff","emd_code":"4111355000","emd_name":"평동","area_km2":0.5066,"edge":false,"slope_mean":2.26,"elev_mean":25.2,"flood_hist_n":0,"flood_depth_max_m":null,"flood_risk_100y":null,"semi_basement_r":null,"elderly_alone_r":0.1079,"bldg_age30_r":null,"shelter_min_walk":13,"pop":40873,"hh":18041,"elderly65_r":0.1945,"single_hh_r":0.341,"source_level":"emd","flood_years":[],"landslide_hist_n":0},"geometry":{"type":"Polygon","coordinates":[[[126.99044,37.2399],[126.98993,37.24424],[126.98574,37.2462],[126.98207,37.24382],[126.98258,37.23948],[126.98677,37.23752],[126.99044,37.2399]]]}},{"type":"Feature","properties":{"h3":"8830e02e47fffff","emd_code":"4111355000","emd_name":"평동","area_km2":0.5067,"edge":false,"slope_mean":1.44,"elev_mean":24.0,"flood_hist_n":0,"flood_depth_max_m":null,"flood_risk_100y":null,"semi_basement_r":null,"elderly_alone_r":0.1079,"bldg_age30_r":null,"shelter_min_walk":22,"pop":40873,"hh":18041,"elderly65_r":0.1945,"single_hh_r":0.341,"source_level":"emd","flood_years":[],"landslide_hist_n":0},"geometry":{"type":"Polygon","coordinates":[[[126.9983,37.24032],[126.99779,37.24466],[126.9936,37.24662],[126.98993,37.24424],[126.99044,37.2399],[126.99463,37.23794],[126.9983,37.24032]]]}},{"type":"Feature","properties":{"h3":"8830e02e49fffff","emd_code":"4111355000","emd_name":"평동","area_km2":0.5066,"edge":false,"slope_mean":2.69,"elev_mean":31.3,"flood_hist_n":0,"flood_depth_max_m":null,"flood_risk_100y":null,"semi_basement_r":null,"elderly_alone_r":0.1079,"bldg_age30_r":null,"shelter_min_walk":9,"pop":40873,"hh":18041,"elderly65_r":0.1945,"single_hh_r":0.341,"source_level":"emd","flood_years":[],"landslide_hist_n":0},"geometry":{"type":"Polygon","coordinates":[[[126.9889,37.25292],[126.98839,37.25726],[126.9842,37.25922],[126.98053,37.25684],[126.98104,37.2525],[126.98523,37.25054],[126.9889,37.25292]]]}},{"type":"Feature","properties":{"h3":"8830e02e4bfffff","emd_code":"4111355000","emd_name":"평동","area_km2":0.5067,"edge":false,"slope_mean":1.93,"elev_mean":27.4,"flood_hist_n":0,"flood_depth_max_m":null,"flood_risk_100y":null,"semi_basement_r":null,"elderly_alone_r":0.1079,"bldg_age30_r":null,"shelter_min_walk":15,"pop":40873,"hh":18041,"elderly65_r":0.1945,"single_hh_r":0.341,"source_level":"emd","flood_years":[],"landslide_hist_n":0},"geometry":{"type":"Polygon","coordinates":[[[126.99676,37.25334],[126.99625,37.25768],[126.99206,37.25964],[126.98839,37.25726],[126.9889,37.25292],[126.99309,37.25096],[126.99676,37.25334]]]}},{"type":"Feature","properties":{"h3":"8830e02e4dfffff","emd_code":"4111355000","emd_name":"평동","area_km2":0.5065,"edge":false,"slope_mean":2.61,"elev_mean":27.3,"flood_hist_n":0,"flood_depth_max_m":null,"flood_risk_100y":null,"semi_basement_r":null,"elderly_alone_r":0.1079,"bldg_age30_r":null,"shelter_min_walk":5,"pop":40873,"hh":18041,"elderly65_r":0.1945,"single_hh_r":0.341,"source_level":"emd","flood_years":[],"landslide_hist_n":0},"geometry":{"type":"Polygon","coordinates":[[[126.98574,37.2462],[126.98523,37.25054],[126.98104,37.2525],[126.97737,37.25012],[126.97788,37.24578],[126.98207,37.24382],[126.98574,37.2462]]]}},{"type":"Feature","properties":{"h3":"8830e02e51fffff","emd_code":"4111353000","emd_name":"세류2동","area_km2":0.5069,"edge":false,"slope_mean":2.83,"elev_mean":32.2,"flood_hist_n":0,"flood_depth_max_m":null,"flood_risk_100y":null,"semi_basement_r":null,"elderly_alone_r":0.1473,"bldg_age30_r":null,"shelter_min_walk":4,"pop":21752,"hh":12387,"elderly65_r":0.2353,"single_hh_r":0.5596,"source_level":"emd","flood_years":[],"landslide_hist_n":0},"geometry":{"type":"Polygon","coordinates":[[[127.01249,37.25418],[127.01198,37.25852],[127.00779,37.26049],[127.00411,37.25811],[127.00463,37.25376],[127.00881,37.2518],[127.01249,37.25418]]]}},{"type":"Feature","properties":{"h3":"8830e02e53fffff","emd_code":"4111354000","emd_name":"세류3동","area_km2":0.5071,"edge":false,"slope_mean":3.38,"elev_mean":38.5,"flood_hist_n":0,"flood_depth_max_m":null,"flood_risk_100y":null,"semi_basement_r":null,"elderly_alone_r":0.148,"bldg_age30_r":null,"shelter_min_walk":5,"pop":16899,"hh":8810,"elderly65_r":0.2518,"single_hh_r":0.4814,"source_level":"emd","flood_years":[],"landslide_hist_n":0},"geometry":{"type":"Polygon","coordinates":[[[127.02035,37.2546],[127.01984,37.25894],[127.01565,37.26091],[127.01198,37.25852],[127.01249,37.25418],[127.01668,37.25222],[127.02035,37.2546]]]}},{"type":"Feature","properties":{"h3":"8830e02e55fffff","emd_code":"4111353000","emd_name":"세류2동","area_km2":0.5069,"edge":false,"slope_mean":2.0,"elev_mean":27.8,"flood_hist_n":0,"flood_depth_max_m":null,"flood_risk_100y":null,"semi_basement_r":null,"elderly_alone_r":0.1473,"bldg_age30_r":null,"shelter_min_walk":11,"pop":21752,"hh":12387,"elderly65_r":0.2353,"single_hh_r":0.5596,"source_level":"emd","flood_years":[],"landslide_hist_n":0},"geometry":{"type":"Polygon","coordinates":[[[127.00932,37.24746],[127.00881,37.2518],[127.00463,37.25376],[127.00095,37.25138],[127.00146,37.24704],[127.00565,37.24508],[127.00932,37.24746]]]}},{"type":"Feature","properties":{"h3":"8830e02e57fffff","emd_code":"4111353000","emd_name":"세류2동","area_km2":0.507,"edge":false,"slope_mean":2.83,"elev_mean":33.0,"flood_hist_n":0,"flood_depth_max_m":null,"flood_risk_100y":null,"semi_basement_r":null,"elderly_alone_r":0.1473,"bldg_age30_r":null,"shelter_min_walk":3,"pop":21752,"hh":12387,"elderly65_r":0.2353,"single_hh_r":0.5596,"source_level":"emd","flood_years":[],"landslide_hist_n":0},"geometry":{"type":"Polygon","coordinates":[[[127.01719,37.24788],[127.01668,37.25222],[127.01249,37.25418],[127.00881,37.2518],[127.00932,37.24746],[127.01351,37.2455],[127.01719,37.24788]]]}},{"type":"Feature","properties":{"h3":"8830e02e59fffff","emd_code":"4111352000","emd_name":"세류1동","area_km2":0.5069,"edge":false,"slope_mean":4.55,"elev_mean":36.4,"flood_hist_n":0,"flood_depth_max_m":null,"flood_risk_100y":null,"semi_basement_r":null,"elderly_alone_r":0.1108,"bldg_age30_r":null,"shelter_min_walk":5,"pop":9492,"hh":4379,"elderly65_r":0.2024,"single_hh_r":0.3677,"source_level":"emd","flood_years":[],"landslide_hist_n":0},"geometry":{"type":"Polygon","coordinates":[[[127.00779,37.26049],[127.00728,37.26483],[127.00309,37.26679],[126.99941,37.26441],[126.99993,37.26007],[127.00411,37.25811],[127.00779,37.26049]]]}},{"type":"Feature","properties":{"h3":"8830e02e5bfffff","emd_code":"4111354000","emd_name":"세류3동","area_km2":0.507,"edge":false,"slope_mean":3.69,"elev_mean":39.2,"flood_hist_n":0,"flood_depth_max_m":null,"flood_risk_100y":null,"semi_basement_r":null,"elderly_alone_r":0.148,"bldg_age30_r":null,"shelter_min_walk":5,"pop":16899,"hh":8810,"elderly65_r":0.2518,"single_hh_r":0.4814,"source_level":"emd","flood_years":[],"landslide_hist_n":0},"geometry":{"type":"Polygon","coordinates":[[[127.01565,37.26091],[127.01514,37.26525],[127.01095,37.26721],[127.00728,37.26483],[127.00779,37.26049],[127.01198,37.25852],[127.01565,37.26091]]]}},{"type":"Feature","properties":{"h3":"8830e02e5dfffff","emd_code":"4111352000","emd_name":"세류1동","area_km2":0.5068,"edge":false,"slope_mean":1.46,"elev_mean":28.5,"flood_hist_n":0,"flood_depth_max_m":null,"flood_risk_100y":null,"semi_basement_r":null,"elderly_alone_r":0.1108,"bldg_age30_r":null,"shelter_min_walk":11,"pop":9492,"hh":4379,"elderly65_r":0.2024,"single_hh_r":0.3677,"source_level":"emd","flood_years":[],"landslide_hist_n":0},"geometry":{"type":"Polygon","coordinates":[[[127.00463,37.25376],[127.00411,37.25811],[126.99993,37.26007],[126.99625,37.25768],[126.99676,37.25334],[127.00095,37.25138],[127.00463,37.25376]]]}},{"type":"Feature","properties":{"h3":"8830e02e63fffff","emd_code":"4111355000","emd_name":"평동","area_km2":0.5067,"edge":true,"slope_mean":1.4,"elev_mean":21.3,"flood_hist_n":0,"flood_depth_max_m":null,"flood_risk_100y":null,"semi_basement_r":null,"elderly_alone_r":0.1079,"bldg_age30_r":null,"shelter_min_walk":18,"pop":40873,"hh":18041,"elderly65_r":0.1945,"single_hh_r":0.341,"source_level":"emd","flood_years":[],"landslide_hist_n":0},"geometry":{"type":"Polygon","coordinates":[[[126.99984,37.2273],[126.99932,37.23164],[126.99514,37.2336],[126.99147,37.23122],[126.99198,37.22688],[126.99616,37.22492],[126.99984,37.2273]]]}},{"type":"Feature","properties":{"h3":"8830e02e69fffff","emd_code":"4111355000","emd_name":"평동","area_km2":0.5065,"edge":false,"slope_mean":3.73,"elev_mean":25.9,"flood_hist_n":0,"flood_depth_max_m":null,"flood_risk_100y":null,"semi_basement_r":null,"elderly_alone_r":0.1079,"bldg_age30_r":null,"shelter_min_walk":19,"pop":40873,"hh":18041,"elderly65_r":0.1945,"single_hh_r":0.341,"source_level":"emd","flood_years":[],"landslide_hist_n":0},"geometry":{"type":"Polygon","coordinates":[[[126.98728,37.23318],[126.98677,37.23752],[126.98258,37.23948],[126.97891,37.2371],[126.97942,37.23277],[126.98361,37.23081],[126.98728,37.23318]]]}},{"type":"Feature","properties":{"h3":"8830e02e6bfffff","emd_code":"4111355000","emd_name":"평동","area_km2":0.5066,"edge":false,"slope_mean":1.41,"elev_mean":22.1,"flood_hist_n":0,"flood_depth_max_m":null,"flood_risk_100y":null,"semi_basement_r":null,"elderly_alone_r":0.1079,"bldg_age30_r":null,"shelter_min_walk":24,"pop":40873,"hh":18041,"elderly65_r":0.1945,"single_hh_r":0.341,"source_level":"emd","flood_years":[],"landslide_hist_n":0},"geometry":{"type":"Polygon","coordinates":[[[126.99514,37.2336],[126.99463,37.23794],[126.99044,37.2399],[126.98677,37.23752],[126.98728,37.23318],[126.99147,37.23122],[126.99514,37.2336]]]}},{"type":"Feature","properties":{"h3":"8830e02e6dfffff","emd_code":"4111355000","emd_name":"평동","area_km2":0.5065,"edge":true,"slope_mean":8.21,"elev_mean":47.2,"flood_hist_n":0,"flood_depth_max_m":null,"flood_risk_100y":null,"semi_basement_r":null,"elderly_alone_r":0.1079,"bldg_age30_r":null,"shelter_min_walk":10,"pop":40873,"hh":18041,"elderly65_r":0.1945,"single_hh_r":0.341,"source_level":"emd","flood_years":[],"landslide_hist_n":0},"geometry":{"type":"Polygon","coordinates":[[[126.98412,37.22647],[126.98361,37.23081],[126.97942,37.23277],[126.97575,37.23039],[126.97626,37.22605],[126.98045,37.22409],[126.98412,37.22647]]]}},{"type":"Feature","properties":{"h3":"8830e02ec1fffff","emd_code":"4111369000","emd_name":"곡선동","area_km2":0.5074,"edge":true,"slope_mean":3.71,"elev_mean":29.8,"flood_hist_n":0,"flood_depth_max_m":null,"flood_risk_100y":null,"semi_basement_r":null,"elderly_alone_r":0.0574,"bldg_age30_r":null,"shelter_min_walk":5,"pop":34582,"hh":18101,"elderly65_r":0.1105,"single_hh_r":0.5269,"source_level":"emd","flood_years":[],"landslide_hist_n":0},"geometry":{"type":"Polygon","coordinates":[[[127.04866,37.24955],[127.04815,37.25389],[127.04396,37.25586],[127.04028,37.25348],[127.04079,37.24914],[127.04498,37.24717],[127.04866,37.24955]]]}},{"type":"Feature","properties":{"h3":"8830e02ec5fffff","emd_code":"4111369000","emd_name":"곡선동","area_km2":0.5074,"edge":true,"slope_mean":2.84,"elev_mean":26.4,"flood_hist_n":0,"flood_depth_max_m":null,"flood_risk_100y":null,"semi_basement_r":null,"elderly_alone_r":0.0574,"bldg_age30_r":null,"shelter_min_walk":6,"pop":34582,"hh":18101,"elderly65_r":0.1105,"single_hh_r":0.5269,"source_level":"emd","flood_years":[],"landslide_hist_n":0},"geometry":{"type":"Polygon","coordinates":[[[127.04549,37.24283],[127.04498,37.24717],[127.04079,37.24914],[127.03711,37.24676],[127.03762,37.24241],[127.04181,37.24045],[127.04549,37.24283]]]}},{"type":"Feature","properties":{"h3":"8830e02ec9fffff","emd_code":"4111367000","emd_name":"권선1동","area_km2":0.5074,"edge":true,"slope_mean":4.75,"elev_mean":38.7,"flood_hist_n":0,"flood_depth_max_m":null,"flood_risk_100y":null,"semi_basement_r":null,"elderly_alone_r":0.0794,"bldg_age30_r":null,"shelter_min_walk":4,"pop":23869,"hh":14102,"elderly65_r":0.1688,"single_hh_r":0.6035,"source_level":"emd","flood_years":[],"landslide_hist_n":0},"geometry":{"type":"Polygon","coordinates":[[[127.04396,37.25586],[127.04345,37.2602],[127.03926,37.26216],[127.03558,37.25978],[127.03609,37.25544],[127.04028,37.25348],[127.04396,37.25586]]]}},{"type":"Feature","properties":{"h3":"8830e02ecdfffff","emd_code":"4111369000","emd_name":"곡선동","area_km2":0.5073,"edge":false,"slope_mean":5.02,"elev_mean":35.6,"flood_hist_n":0,"flood_depth_max_m":null,"flood_risk_100y":null,"semi_basement_r":null,"elderly_alone_r":0.0574,"bldg_age30_r":null,"shelter_min_walk":2,"pop":34582,"hh":18101,"elderly65_r":0.1105,"single_hh_r":0.5269,"source_level":"emd","flood_years":[],"landslide_hist_n":0},"geometry":{"type":"Polygon","coordinates":[[[127.04079,37.24914],[127.04028,37.25348],[127.03609,37.25544],[127.03241,37.25306],[127.03292,37.24872],[127.03711,37.24676],[127.04079,37.24914]]]}},{"type":"Feature","properties":{"h3":"8830e02ee9fffff","emd_code":"4111369000","emd_name":"곡선동","area_km2":0.5073,"edge":true,"slope_mean":2.3,"elev_mean":24.1,"flood_hist_n":0,"flood_depth_max_m":null,"flood_risk_100y":null,"semi_basement_r":null,"elderly_alone_r":0.0574,"bldg_age30_r":null,"shelter_min_walk":13,"pop":34582,"hh":18101,"elderly65_r":0.1105,"single_hh_r":0.5269,"source_level":"emd","flood_years":[],"landslide_hist_n":0},"geometry":{"type":"Polygon","coordinates":[[[127.04232,37.23611],[127.04181,37.24045],[127.03762,37.24241],[127.03394,37.24003],[127.03445,37.23569],[127.03864,37.23373],[127.04232,37.23611]]]}},{"type":"Feature","properties":{"h3":"8830e02eedfffff","emd_code":"4111369000","emd_name":"곡선동","area_km2":0.5072,"edge":true,"slope_mean":2.04,"elev_mean":22.2,"flood_hist_n":0,"flood_depth_max_m":null,"flood_risk_100y":null,"semi_basement_r":null,"elderly_alone_r":0.0574,"bldg_age30_r":null,"shelter_min_walk":11,"pop":34582,"hh":18101,"elderly65_r":0.1105,"single_hh_r":0.5269,"source_level":"emd","flood_years":[],"landslide_hist_n":0},"geometry":{"type":"Polygon","coordinates":[[[127.03915,37.22939],[127.03864,37.23373],[127.03445,37.23569],[127.03077,37.23331],[127.03128,37.22897],[127.03547,37.22701],[127.03915,37.22939]]]}}]}