{"type":"FeatureCollection","name":"grid_41131_h3r8","meta":{"sgg_code":"41131","h3_res":8,"n_cells":122,"dem":"Copernicus GLO-30 (bbox-mean)","crs":"EPSG:4326","jumin_basis":"2026-07","flood_src":"행안부 침수흔적도(전국, 재난안전데이터공유플랫폼)","landslide_src":"행안부 산사태 발생이력"},"features":[{"type":"Feature","properties":{"h3":"8830e026cbfffff","emd_code":"4113165000","emd_name":"시흥동","area_km2":0.508,"edge":true,"slope_mean":17.42,"elev_mean":213.6,"flood_hist_n":0,"flood_depth_max_m":null,"flood_risk_100y":null,"semi_basement_r":null,"elderly_alone_r":0.0771,"bldg_age30_r":null,"shelter_min_walk":15,"pop":3650,"hh":2191,"elderly65_r":0.2104,"single_hh_r":0.6362,"source_level":"emd","flood_years":[],"landslide_hist_n":0},"geometry":{"type":"Polygon","coordinates":[[[127.06335,37.39458],[127.06284,37.39893],[127.05864,37.40088],[127.05495,37.3985],[127.05546,37.39415],[127.05966,37.39219],[127.06335,37.39458]]]}},{"type":"Feature","properties":{"h3":"8830e026d1fffff","emd_code":"4113165000","emd_name":"시흥동","area_km2":0.5083,"edge":true,"slope_mean":13.68,"elev_mean":145.0,"flood_hist_n":0,"flood_depth_max_m":null,"flood_risk_100y":null,"semi_basement_r":null,"elderly_alone_r":0.0771,"bldg_age30_r":null,"shelter_min_walk":8,"pop":3650,"hh":2191,"elderly65_r":0.2104,"single_hh_r":0.6362,"source_level":"emd","flood_years":[],"landslide_hist_n":0},"geometry":{"type":"Polygon","coordinates":[[[127.07913,37.39543],[127.07862,37.39978],[127.07442,37.40174],[127.07073,37.39935],[127.07124,37.39501],[127.07544,37.39305],[127.07913,37.39543]]]}},{"type":"Feature","properties":{"h3":"8830e026d3fffff","emd_code":"4113165000","emd_name":"시흥동","area_km2":0.5084,"edge":false,"slope_mean":15.37,"elev_mean":139.0,"flood_hist_n":0,"flood_depth_max_m":null,"flood_risk_100y":null,"semi_basement_r":null,"elderly_alone_r":0.0771,"bldg_age30_r":null,"shelter_min_walk":13,"pop":3650,"hh":2191,"elderly65_r":0.2104,"single_hh_r":0.6362,"source_level":"emd","flood_years":[],"landslide_hist_n":0},"geometry":{"type":"Polygon","coordinates":[[[127.08702,37.39586],[127.08652,37.4002],[127.08231,37.40216],[127.07862,37.39978],[127.07913,37.39543],[127.08333,37.39347],[127.08702,37.39586]]]}},{"type":"Feature","properties":{"h3":"8830e026d9fffff","emd_code":"4113165000","emd_name":"시흥동","area_km2":0.5082,"edge":false,"slope_mean":15.48,"elev_mean":161.7,"flood_hist_n":0,"flood_depth_max_m":null,"flood_risk_100y":null,"semi_basement_r":null,"elderly_alone_r":0.0771,"bldg_age30_r":null,"shelter_min_walk":17,"pop":3650,"hh":2191,"elderly65_r":0.2104,"single_hh_r":0.6362,"source_level":"emd","flood_years":[],"landslide_hist_n":0},"geometry":{"type":"Polygon","coordinates":[[[127.07442,37.40174],[127.07391,37.40608],[127.06971,37.40804],[127.06602,37.40566],[127.06653,37.40131],[127.07073,37.39935],[127.07442,37.40174]]]}},{"type":"Feature","properties":{"h3":"8830e026dbfffff","emd_code":"4113165000","emd_name":"시흥동","area_km2":0.5083,"edge":false,"slope_mean":12.81,"elev_mean":110.7,"flood_hist_n":0,"flood_depth_max_m":null,"flood_risk_100y":null,"semi_basement_r":null,"elderly_alone_r":0.0771,"bldg_age30_r":null,"shelter_min_walk":19,"pop":3650,"hh":2191,"elderly65_r":0.2104,"single_hh_r":0.6362,"source_level":"emd","flood_years":[],"landslide_hist_n":0},"geometry":{"type":"Polygon","coordinates":[[[127.08231,37.40216],[127.08181,37.40651],[127.0776,37.40847],[127.07391,37.40608],[127.07442,37.40174],[127.07862,37.39978],[127.08231,37.40216]]]}},{"type":"Feature","properties":{"h3":"8830e026ddfffff","emd_code":"4113165000","emd_name":"시흥동","area_km2":0.5082,"edge":true,"slope_mean":16.9,"elev_mean":189.9,"flood_hist_n":0,"flood_depth_max_m":null,"flood_risk_100y":null,"semi_basement_r":null,"elderly_alone_r":0.0771,"bldg_age30_r":null,"shelter_min_walk":9,"pop":3650,"hh":2191,"elderly65_r":0.2104,"single_hh_r":0.6362,"source_level":"emd","flood_years":[],"landslide_hist_n":0},"geometry":{"type":"Polygon","coordinates":[[[127.07124,37.39501],[127.07073,37.39935],[127.06653,37.40131],[127.06284,37.39893],[127.06335,37.39458],[127.06755,37.39262],[127.07124,37.39501]]]}},{"type":"Feature","properties":{"h3":"8830e15241fffff","emd_code":"4113157000","emd_name":"수진1동","area_km2":0.5092,"edge":false,"slope_mean":5.86,"elev_mean":48.4,"flood_hist_n":0,"flood_depth_max_m":null,"flood_risk_100y":null,"semi_basement_r":null,"elderly_alone_r":0.2353,"bldg_age30_r":null,"shelter_min_walk":2,"pop":10534,"hh":6616,"elderly65_r":0.307,"single_hh_r":0.6258,"source_level":"emd","flood_years":[],"landslide_hist_n":0},"geometry":{"type":"Polygon","coordinates":[[[127.13775,37.43796],[127.13725,37.44231],[127.13304,37.44427],[127.12934,37.44188],[127.12985,37.43753],[127.13405,37.43557],[127.13775,37.43796]]]}},{"type":"Feature","properties":{"h3":"8830e15243fffff","emd_code":"4113151000","emd_name":"신흥1동","area_km2":0.5093,"edge":false,"slope_mean":8.33,"elev_mean":57.1,"flood_hist_n":0,"flood_depth_max_m":null,"flood_risk_100y":null,"semi_basement_r":null,"elderly_alone_r":0.1995,"bldg_age30_r":null,"shelter_min_walk":4,"pop":11917,"hh":7405,"elderly65_r":0.271,"single_hh_r":0.6271,"source_level":"emd","flood_years":[],"landslide_hist_n":0},"geometry":{"type":"Polygon","coordinates":[[[127.14566,37.43838],[127.14515,37.44273],[127.14095,37.44469],[127.13725,37.44231],[127.13775,37.43796],[127.14196,37.436],[127.14566,37.43838]]]}},{"type":"Feature","properties":{"h3":"8830e15245fffff","emd_code":"4113158000","emd_name":"수진2동","area_km2":0.5091,"edge":true,"slope_mean":5.44,"elev_mean":38.1,"flood_hist_n":0,"flood_depth_max_m":null,"flood_risk_100y":null,"semi_basement_r":null,"elderly_alone_r":0.1726,"bldg_age30_r":null,"shelter_min_walk":2,"pop":14258,"hh":7525,"elderly65_r":0.2903,"single_hh_r":0.5014,"source_level":"emd","flood_years":[],"landslide_hist_n":0},"geometry":{"type":"Polygon","coordinates":[[[127.13456,37.43122],[127.13405,37.43557],[127.12985,37.43753],[127.12615,37.43515],[127.12665,37.4308],[127.13086,37.42884],[127.13456,37.43122]]]}},{"type":"Feature","properties":{"h3":"8830e15247fffff","emd_code":"4113157000","emd_name":"수진1동","area_km2":0.5093,"edge":true,"slope_mean":7.36,"elev_mean":47.0,"flood_hist_n":0,"flood_depth_max_m":null,"flood_risk_100y":null,"semi_basement_r":null,"elderly_alone_r":0.2353,"bldg_age30_r":null,"shelter_min_walk":4,"pop":10534,"hh":6616,"elderly65_r":0.307,"single_hh_r":0.6258,"source_level":"emd","flood_years":[],"landslide_hist_n":0},"geometry":{"type":"Polygon","coordinates":[[[127.14246,37.43165],[127.14196,37.436],[127.13775,37.43796],[127.13405,37.43557],[127.13456,37.43122],[127.13876,37.42926],[127.14246,37.43165]]]}},{"type":"Feature","properties":{"h3":"8830e15249fffff","emd_code":"4113154000","emd_name":"태평1동","area_km2":0.5092,"edge":false,"slope_mean":7.79,"elev_mean":59.8,"flood_hist_n":0,"flood_depth_max_m":null,"flood_risk_100y":null,"semi_basement_r":null,"elderly_alone_r":0.1682,"bldg_age30_r":null,"shelter_min_walk":3,"pop":13467,"hh":8265,"elderly65_r":0.2747,"single_hh_r":0.6177,"source_level":"emd","flood_years":[],"landslide_hist_n":0},"geometry":{"type":"Polygon","coordinates":[[[127.13304,37.44427],[127.13253,37.44862],[127.12833,37.45058],[127.12463,37.44819],[127.12513,37.44384],[127.12934,37.44188],[127.13304,37.44427]]]}},{"type":"Feature","properties":{"h3":"8830e1524bfffff","emd_code":"4113155000","emd_name":"태평2동","area_km2":0.5093,"edge":false,"slope_mean":7.53,"elev_mean":75.9,"flood_hist_n":0,"flood_depth_max_m":null,"flood_risk_100y":null,"semi_basement_r":null,"elderly_alone_r":0.167,"bldg_age30_r":null,"shelter_min_walk":5,"pop":13569,"hh":7559,"elderly65_r":0.2554,"single_hh_r":0.5349,"source_level":"emd","flood_years":[],"landslide_hist_n":0},"geometry":{"type":"Polygon","coordinates":[[[127.14095,37.44469],[127.14044,37.44904],[127.13623,37.451],[127.13253,37.44862],[127.13304,37.44427],[127.13725,37.44231],[127.14095,37.44469]]]}},{"type":"Feature","properties":{"h3":"8830e1524dfffff","emd_code":"4113158000","emd_name":"수진2동","area_km2":0.5091,"edge":false,"slope_mean":7.25,"elev_mean":38.9,"flood_hist_n":0,"flood_depth_max_m":null,"flood_risk_100y":null,"semi_basement_r":null,"elderly_alone_r":0.1726,"bldg_age30_r":null,"shelter_min_walk":1,"pop":14258,"hh":7525,"elderly65_r":0.2903,"single_hh_r":0.5014,"source_level":"emd","flood_years":[],"landslide_hist_n":0},"geometry":{"type":"Polygon","coordinates":[[[127.12985,37.43753],[127.12934,37.44188],[127.12513,37.44384],[127.12144,37.44146],[127.12194,37.43711],[127.12615,37.43515],[127.12985,37.43753]]]}},{"type":"Feature","properties":{"h3":"8830e15251fffff","emd_code":"4113152000","emd_name":"신흥2동","area_km2":0.5095,"edge":false,"slope_mean":8.79,"elev_mean":84.2,"flood_hist_n":0,"flood_depth_max_m":null,"flood_risk_100y":null,"semi_basement_r":null,"elderly_alone_r":0.0675,"bldg_age30_r":null,"shelter_min_walk":6,"pop":31559,"hh":12336,"elderly65_r":0.1743,"single_hh_r":0.2054,"source_level":"emd","flood_years":[],"landslide_hist_n":0},"geometry":{"type":"Polygon","coordinates":[[[127.15676,37.44554],[127.15626,37.44989],[127.15205,37.45186],[127.14835,37.44947],[127.14885,37.44512],[127.15306,37.44316],[127.15676,37.44554]]]}},{"type":"Feature","properties":{"h3":"8830e15253fffff","emd_code":"4113159000","emd_name":"단대동","area_km2":0.5096,"edge":true,"slope_mean":7.4,"elev_mean":79.6,"flood_hist_n":0,"flood_depth_max_m":null,"flood_risk_100y":null,"semi_basement_r":null,"elderly_alone_r":0.1391,"bldg_age30_r":null,"shelter_min_walk":4,"pop":14044,"hh":6492,"elderly65_r":0.2437,"single_hh_r":0.3809,"source_level":"emd","flood_years":[],"landslide_hist_n":0},"geometry":{"type":"Polygon","coordinates":[[[127.16467,37.44597],[127.16417,37.45032],[127.15996,37.45228],[127.15626,37.44989],[127.15676,37.44554],[127.16097,37.44358],[127.16467,37.44597]]]}},{"type":"Feature","properties":{"h3":"8830e15255fffff","emd_code":"4113153000","emd_name":"신흥3동","area_km2":0.5094,"edge":true,"slope_mean":8.8,"elev_mean":69.9,"flood_hist_n":0,"flood_depth_max_m":null,"flood_risk_100y":null,"semi_basement_r":null,"elderly_alone_r":0.1759,"bldg_age30_r":null,"shelter_min_walk":4,"pop":10629,"hh":6474,"elderly65_r":0.253,"single_hh_r":0.6208,"source_level":"emd","flood_years":[],"landslide_hist_n":0},"geometry":{"type":"Polygon","coordinates":[[[127.15357,37.43881],[127.15306,37.44316],[127.14885,37.44512],[127.14515,37.44273],[127.14566,37.43838],[127.14986,37.43642],[127.15357,37.43881]]]}},{"type":"Feature","properties":{"h3":"8830e15257fffff","emd_code":"4113152000","emd_name":"신흥2동","area_km2":0.5095,"edge":true,"slope_mean":8.13,"elev_mean":86.8,"flood_hist_n":0,"flood_depth_max_m":null,"flood_risk_100y":null,"semi_basement_r":null,"elderly_alone_r":0.0675,"bldg_age30_r":null,"shelter_min_walk":3,"pop":31559,"hh":12336,"elderly65_r":0.1743,"single_hh_r":0.2054,"source_level":"emd","flood_years":[],"landslide_hist_n":0},"geometry":{"type":"Polygon","coordinates":[[[127.16147,37.43923],[127.16097,37.44358],[127.15676,37.44554],[127.15306,37.44316],[127.15357,37.43881],[127.15777,37.43684],[127.16147,37.43923]]]}},{"type":"Feature","properties":{"h3":"8830e15259fffff","emd_code":"4113152000","emd_name":"신흥2동","area_km2":0.5094,"edge":false,"slope_mean":10.95,"elev_mean":103.8,"flood_hist_n":0,"flood_depth_max_m":null,"flood_risk_100y":null,"semi_basement_r":null,"elderly_alone_r":0.0675,"bldg_age30_r":null,"shelter_min_walk":4,"pop":31559,"hh":12336,"elderly65_r":0.1743,"single_hh_r":0.2054,"source_level":"emd","flood_years":[],"landslide_hist_n":0},"geometry":{"type":"Polygon","coordinates":[[[127.15205,37.45186],[127.15154,37.4562],[127.14734,37.45817],[127.14363,37.45578],[127.14414,37.45143],[127.14835,37.44947],[127.15205,37.45186]]]}},{"type":"Feature","properties":{"h3":"8830e1525bfffff","emd_code":"4113159000","emd_name":"단대동","area_km2":0.5096,"edge":false,"slope_mean":10.82,"elev_mean":110.7,"flood_hist_n":0,"flood_depth_max_m":null,"flood_risk_100y":null,"semi_basement_r":null,"elderly_alone_r":0.1391,"bldg_age30_r":null,"shelter_min_walk":5,"pop":14044,"hh":6492,"elderly65_r":0.2437,"single_hh_r":0.3809,"source_level":"emd","flood_years":[],"landslide_hist_n":0},"geometry":{"type":"Polygon","coordinates":[[[127.15996,37.45228],[127.15945,37.45663],[127.15525,37.45859],[127.15154,37.4562],[127.15205,37.45186],[127.15626,37.44989],[127.15996,37.45228]]]}},{"type":"Feature","properties":{"h3":"8830e1525dfffff","emd_code":"4113156100","emd_name":"태평4동","area_km2":0.5094,"edge":false,"slope_mean":9.31,"elev_mean":78.0,"flood_hist_n":0,"flood_depth_max_m":null,"flood_risk_100y":null,"semi_basement_r":null,"elderly_alone_r":0.1785,"bldg_age30_r":null,"shelter_min_walk":5,"pop":10753,"hh":5928,"elderly65_r":0.2525,"single_hh_r":0.5477,"source_level":"emd","flood_years":[],"landslide_hist_n":0},"geometry":{"type":"Polygon","coordinates":[[[127.14885,37.44512],[127.14835,37.44947],[127.14414,37.45143],[127.14044,37.44904],[127.14095,37.44469],[127.14515,37.44273],[127.14885,37.44512]]]}},{"type":"Feature","properties":{"h3":"8830e1c837fffff","emd_code":"4113163000","emd_name":"신촌동","area_km2":0.5086,"edge":true,"slope_mean":15.79,"elev_mean":152.6,"flood_hist_n":0,"flood_depth_max_m":null,"flood_risk_100y":null,"semi_basement_r":null,"elderly_alone_r":0.0557,"bldg_age30_r":null,"shelter_min_walk":22,"pop":5270,"hh":2300,"elderly65_r":0.1262,"single_hh_r":0.3709,"source_level":"emd","flood_years":[],"landslide_hist_n":0},"geometry":{"type":"Polygon","coordinates":[[[127.08881,37.44844],[127.08831,37.45279],[127.0841,37.45474],[127.08041,37.45236],[127.08092,37.44801],[127.08512,37.44605],[127.08881,37.44844]]]}},{"type":"Feature","properties":{"h3":"8830e1c883fffff","emd_code":"4113162000","emd_name":"복정동","area_km2":0.5092,"edge":true,"slope_mean":3.82,"elev_mean":20.7,"flood_hist_n":0,"flood_depth_max_m":null,"flood_risk_100y":null,"semi_basement_r":null,"elderly_alone_r":0.0564,"bldg_age30_r":null,"shelter_min_walk":19,"pop":13868,"hh":8000,"elderly65_r":0.1137,"single_hh_r":0.5907,"source_level":"emd","flood_years":[],"landslide_hist_n":0},"geometry":{"type":"Polygon","coordinates":[[[127.13,37.47036],[127.12949,37.47471],[127.12529,37.47667],[127.12159,37.47428],[127.12209,37.46993],[127.1263,37.46797],[127.13,37.47036]]]}},{"type":"Feature","properties":{"h3":"8830e1c887fffff","emd_code":"4113162000","emd_name":"복정동","area_km2":0.5091,"edge":false,"slope_mean":3.85,"elev_mean":19.1,"flood_hist_n":0,"flood_depth_max_m":null,"flood_risk_100y":null,"semi_basement_r":null,"elderly_alone_r":0.0564,"bldg_age30_r":null,"shelter_min_walk":9,"pop":13868,"hh":8000,"elderly65_r":0.1137,"single_hh_r":0.5907,"source_level":"emd","flood_years":[],"landslide_hist_n":0},"geometry":{"type":"Polygon","coordinates":[[[127.12681,37.46362],[127.1263,37.46797],[127.12209,37.46993],[127.11839,37.46754],[127.1189,37.46319],[127.12311,37.46123],[127.12681,37.46362]]]}},{"type":"Feature","properties":{"h3":"8830e1c895fffff","emd_code":"4113162500","emd_name":"위례동","area_km2":0.5093,"edge":false,"slope_mean":3.78,"elev_mean":26.8,"flood_hist_n":0,"flood_depth_max_m":null,"flood_risk_100y":null,"semi_basement_r":null,"elderly_alone_r":0.1023,"bldg_age30_r":null,"shelter_min_walk":11,"pop":45105,"hh":18677,"elderly65_r":0.1674,"single_hh_r":0.3123,"source_level":"emd","flood_years":[],"landslide_hist_n":0},"geometry":{"type":"Polygon","coordinates":[[[127.13791,37.47079],[127.1374,37.47514],[127.13319,37.4771],[127.12949,37.47471],[127.13,37.47036],[127.13421,37.4684],[127.13791,37.47079]]]}},{"type":"Feature","properties":{"h3":"8830e1c897fffff","emd_code":"4113162500","emd_name":"위례동","area_km2":0.5094,"edge":false,"slope_mean":3.42,"elev_mean":34.7,"flood_hist_n":0,"flood_depth_max_m":null,"flood_risk_100y":null,"semi_basement_r":null,"elderly_alone_r":0.1023,"bldg_age30_r":null,"shelter_min_walk":3,"pop":45105,"hh":18677,"elderly65_r":0.1674,"single_hh_r":0.3123,"source_level":"emd","flood_years":[],"landslide_hist_n":0},"geometry":{"type":"Polygon","coordinates":[[[127.14582,37.47121],[127.14531,37.47556],[127.1411,37.47752],[127.1374,37.47514],[127.13791,37.47079],[127.14212,37.46883],[127.14582,37.47121]]]}},{"type":"Feature","properties":{"h3":"8830e1c8a1fffff","emd_code":"4113163000","emd_name":"신촌동","area_km2":0.509,"edge":false,"slope_mean":3.44,"elev_mean":20.8,"flood_hist_n":0,"flood_depth_max_m":null,"flood_risk_100y":null,"semi_basement_r":null,"elderly_alone_r":0.0557,"bldg_age30_r":null,"shelter_min_walk":15,"pop":5270,"hh":2300,"elderly65_r":0.1262,"single_hh_r":0.3709,"source_level":"emd","flood_years":[],"landslide_hist_n":0},"geometry":{"type":"Polygon","coordinates":[[[127.12042,37.45015],[127.11991,37.4545],[127.11571,37.45646],[127.11201,37.45407],[127.11252,37.44972],[127.11672,37.44776],[127.12042,37.45015]]]}},{"type":"Feature","properties":{"h3":"8830e1c8a3fffff","emd_code":"4113162000","emd_name":"복정동","area_km2":0.5091,"edge":false,"slope_mean":10.91,"elev_mean":53.1,"flood_hist_n":0,"flood_depth_max_m":null,"flood_risk_100y":null,"semi_basement_r":null,"elderly_alone_r":0.0564,"bldg_age30_r":null,"shelter_min_walk":6,"pop":13868,"hh":8000,"elderly65_r":0.1137,"single_hh_r":0.5907,"source_level":"emd","flood_years":[],"landslide_hist_n":0},"geometry":{"type":"Polygon","coordinates":[[[127.12833,37.45058],[127.12782,37.45493],[127.12361,37.45689],[127.11991,37.4545],[127.12042,37.45015],[127.12463,37.44819],[127.12833,37.45058]]]}},{"type":"Feature","properties":{"h3":"8830e1c8a5fffff","emd_code":"4113163000","emd_name":"신촌동","area_km2":0.5089,"edge":false,"slope_mean":0.99,"elev_mean":19.6,"flood_hist_n":0,"flood_depth_max_m":null,"flood_risk_100y":null,"semi_basement_r":null,"elderly_alone_r":0.0557,"bldg_age30_r":null,"shelter_min_walk":14,"pop":5270,"hh":2300,"elderly65_r":0.1262,"single_hh_r":0.3709,"source_level":"emd","flood_years":[],"landslide_hist_n":0},"geometry":{"type":"Polygon","coordinates":[[[127.11723,37.44342],[127.11672,37.44776],[127.11252,37.44972],[127.10882,37.44734],[127.10933,37.44299],[127.11353,37.44103],[127.11723,37.44342]]]}},{"type":"Feature","properties":{"h3":"8830e1c8a7fffff","emd_code":"4113154000","emd_name":"태평1동","area_km2":0.509,"edge":false,"slope_mean":8.87,"elev_mean":36.9,"flood_hist_n":1,"flood_depth_max_m":0.501,"flood_risk_100y":null,"semi_basement_r":null,"elderly_alone_r":0.1682,"bldg_age30_r":null,"shelter_min_walk":9,"pop":13467,"hh":8265,"elderly65_r":0.2747,"single_hh_r":0.6177,"source_level":"emd","flood_years":[2020],"landslide_hist_n":0},"geometry":{"type":"Polygon","coordinates":[[[127.12513,37.44384],[127.12463,37.44819],[127.12042,37.45015],[127.11672,37.44776],[127.11723,37.44342],[127.12144,37.44146],[127.12513,37.44384]]]}},{"type":"Feature","properties":{"h3":"8830e1c8a9fffff","emd_code":"4113163000","emd_name":"신촌동","area_km2":0.509,"edge":false,"slope_mean":1.77,"elev_mean":19.6,"flood_hist_n":0,"flood_depth_max_m":null,"flood_risk_100y":null,"semi_basement_r":null,"elderly_alone_r":0.0557,"bldg_age30_r":null,"shelter_min_walk":10,"pop":5270,"hh":2300,"elderly65_r":0.1262,"single_hh_r":0.3709,"source_level":"emd","flood_years":[],"landslide_hist_n":0},"geometry":{"type":"Polygon","coordinates":[[[127.11571,37.45646],[127.1152,37.46081],[127.111,37.46277],[127.1073,37.46038],[127.10781,37.45603],[127.11201,37.45407],[127.11571,37.45646]]]}},{"type":"Feature","properties":{"h3":"8830e1c8abfffff","emd_code":"4113162000","emd_name":"복정동","area_km2":0.5091,"edge":false,"slope_mean":7.08,"elev_mean":32.5,"flood_hist_n":0,"flood_depth_max_m":null,"flood_risk_100y":null,"semi_basement_r":null,"elderly_alone_r":0.0564,"bldg_age30_r":null,"shelter_min_walk":7,"pop":13868,"hh":8000,"elderly65_r":0.1137,"single_hh_r":0.5907,"source_level":"emd","flood_years":[],"landslide_hist_n":0},"geometry":{"type":"Polygon","coordinates":[[[127.12361,37.45689],[127.12311,37.46123],[127.1189,37.46319],[127.1152,37.46081],[127.11571,37.45646],[127.11991,37.4545],[127.12361,37.45689]]]}},{"type":"Feature","properties":{"h3":"8830e1c8adfffff","emd_code":"4113163000","emd_name":"신촌동","area_km2":0.5089,"edge":false,"slope_mean":4.11,"elev_mean":25.5,"flood_hist_n":0,"flood_depth_max_m":null,"flood_risk_100y":null,"semi_basement_r":null,"elderly_alone_r":0.0557,"bldg_age30_r":null,"shelter_min_walk":7,"pop":5270,"hh":2300,"elderly65_r":0.1262,"single_hh_r":0.3709,"source_level":"emd","flood_years":[],"landslide_hist_n":0},"geometry":{"type":"Polygon","coordinates":[[[127.11252,37.44972],[127.11201,37.45407],[127.10781,37.45603],[127.10411,37.45364],[127.10462,37.4493],[127.10882,37.44734],[127.11252,37.44972]]]}},{"type":"Feature","properties":{"h3":"8830e1c8b1fffff","emd_code":"4113162000","emd_name":"복정동","area_km2":0.5093,"edge":false,"slope_mean":12.36,"elev_mean":63.7,"flood_hist_n":0,"flood_depth_max_m":null,"flood_risk_100y":null,"semi_basement_r":null,"elderly_alone_r":0.0564,"bldg_age30_r":null,"shelter_min_walk":9,"pop":13868,"hh":8000,"elderly65_r":0.1137,"single_hh_r":0.5907,"source_level":"emd","flood_years":[],"landslide_hist_n":0},"geometry":{"type":"Polygon","coordinates":[[[127.13943,37.45774],[127.13892,37.46209],[127.13471,37.46405],[127.13101,37.46166],[127.13152,37.45731],[127.13573,37.45535],[127.13943,37.45774]]]}},{"type":"Feature","properties":{"h3":"8830e1c8b3fffff","emd_code":"4113162000","emd_name":"복정동","area_km2":0.5094,"edge":false,"slope_mean":10.85,"elev_mean":64.4,"flood_hist_n":0,"flood_depth_max_m":null,"flood_risk_100y":null,"semi_basement_r":null,"elderly_alone_r":0.0564,"bldg_age30_r":null,"shelter_min_walk":7,"pop":13868,"hh":8000,"elderly65_r":0.1137,"single_hh_r":0.5907,"source_level":"emd","flood_years":[],"landslide_hist_n":0},"geometry":{"type":"Polygon","coordinates":[[[127.14734,37.45817],[127.14683,37.46252],[127.14262,37.46448],[127.13892,37.46209],[127.13943,37.45774],[127.14363,37.45578],[127.14734,37.45817]]]}},{"type":"Feature","properties":{"h3":"8830e1c8b5fffff","emd_code":"4113162000","emd_name":"복정동","area_km2":0.5092,"edge":false,"slope_mean":10.7,"elev_mean":76.1,"flood_hist_n":0,"flood_depth_max_m":null,"flood_risk_100y":null,"semi_basement_r":null,"elderly_alone_r":0.0564,"bldg_age30_r":null,"shelter_min_walk":6,"pop":13868,"hh":8000,"elderly65_r":0.1137,"single_hh_r":0.5907,"source_level":"emd","flood_years":[],"landslide_hist_n":0},"geometry":{"type":"Polygon","coordinates":[[[127.13623,37.451],[127.13573,37.45535],[127.13152,37.45731],[127.12782,37.45493],[127.12833,37.45058],[127.13253,37.44862],[127.13623,37.451]]]}},{"type":"Feature","properties":{"h3":"8830e1c8b7fffff","emd_code":"4113162000","emd_name":"복정동","area_km2":0.5093,"edge":false,"slope_mean":14.86,"elev_mean":124.0,"flood_hist_n":0,"flood_depth_max_m":null,"flood_risk_100y":null,"semi_basement_r":null,"elderly_alone_r":0.0564,"bldg_age30_r":null,"shelter_min_walk":9,"pop":13868,"hh":8000,"elderly65_r":0.1137,"single_hh_r":0.5907,"source_level":"emd","flood_years":[],"landslide_hist_n":0},"geometry":{"type":"Polygon","coordinates":[[[127.14414,37.45143],[127.14363,37.45578],[127.13943,37.45774],[127.13573,37.45535],[127.13623,37.451],[127.14044,37.44904],[127.14414,37.45143]]]}},{"type":"Feature","properties":{"h3":"8830e1c8b9fffff","emd_code":"4113162000","emd_name":"복정동","area_km2":0.5092,"edge":false,"slope_mean":5.92,"elev_mean":31.4,"flood_hist_n":0,"flood_depth_max_m":null,"flood_risk_100y":null,"semi_basement_r":null,"elderly_alone_r":0.0564,"bldg_age30_r":null,"shelter_min_walk":12,"pop":13868,"hh":8000,"elderly65_r":0.1137,"single_hh_r":0.5907,"source_level":"emd","flood_years":[],"landslide_hist_n":0},"geometry":{"type":"Polygon","coordinates":[[[127.13471,37.46405],[127.13421,37.4684],[127.13,37.47036],[127.1263,37.46797],[127.12681,37.46362],[127.13101,37.46166],[127.13471,37.46405]]]}},{"type":"Feature","properties":{"h3":"8830e1c8bbfffff","emd_code":"4113162500","emd_name":"위례동","area_km2":0.5093,"edge":false,"slope_mean":4.28,"elev_mean":32.8,"flood_hist_n":0,"flood_depth_max_m":null,"flood_risk_100y":null,"semi_basement_r":null,"elderly_alone_r":0.1023,"bldg_age30_r":null,"shelter_min_walk":8,"pop":45105,"hh":18677,"elderly65_r":0.1674,"single_hh_r":0.3123,"source_level":"emd","flood_years":[],"landslide_hist_n":0},"geometry":{"type":"Polygon","coordinates":[[[127.14262,37.46448],[127.14212,37.46883],[127.13791,37.47079],[127.13421,37.4684],[127.13471,37.46405],[127.13892,37.46209],[127.14262,37.46448]]]}},{"type":"Feature","properties":{"h3":"8830e1c8bdfffff","emd_code":"4113162000","emd_name":"복정동","area_km2":0.5092,"edge":false,"slope_mean":7.99,"elev_mean":38.7,"flood_hist_n":0,"flood_depth_max_m":null,"flood_risk_100y":null,"semi_basement_r":null,"elderly_alone_r":0.0564,"bldg_age30_r":null,"shelter_min_walk":1,"pop":13868,"hh":8000,"elderly65_r":0.1137,"single_hh_r":0.5907,"source_level":"emd","flood_years":[],"landslide_hist_n":0},"geometry":{"type":"Polygon","coordinates":[[[127.13152,37.45731],[127.13101,37.46166],[127.12681,37.46362],[127.12311,37.46123],[127.12361,37.45689],[127.12782,37.45493],[127.13152,37.45731]]]}},{"type":"Feature","properties":{"h3":"8830e1c8e1fffff","emd_code":"4113163000","emd_name":"신촌동","area_km2":0.5088,"edge":true,"slope_mean":9.84,"elev_mean":48.9,"flood_hist_n":0,"flood_depth_max_m":null,"flood_risk_100y":null,"semi_basement_r":null,"elderly_alone_r":0.0557,"bldg_age30_r":null,"shelter_min_walk":10,"pop":5270,"hh":2300,"elderly65_r":0.1262,"single_hh_r":0.3709,"source_level":"emd","flood_years":[],"landslide_hist_n":0},"geometry":{"type":"Polygon","coordinates":[[[127.10309,37.46234],[127.10258,37.46668],[127.09838,37.46864],[127.09468,37.46626],[127.09519,37.46191],[127.09939,37.45995],[127.10309,37.46234]]]}},{"type":"Feature","properties":{"h3":"8830e1c8e3fffff","emd_code":"4113163000","emd_name":"신촌동","area_km2":0.5089,"edge":true,"slope_mean":6.85,"elev_mean":30.5,"flood_hist_n":0,"flood_depth_max_m":null,"flood_risk_100y":null,"semi_basement_r":null,"elderly_alone_r":0.0557,"bldg_age30_r":null,"shelter_min_walk":8,"pop":5270,"hh":2300,"elderly65_r":0.1262,"single_hh_r":0.3709,"source_level":"emd","flood_years":[],"landslide_hist_n":0},"geometry":{"type":"Polygon","coordinates":[[[127.111,37.46277],[127.11049,37.46711],[127.10628,37.46907],[127.10258,37.46668],[127.10309,37.46234],[127.1073,37.46038],[127.111,37.46277]]]}},{"type":"Feature","properties":{"h3":"8830e1c8e5fffff","emd_code":"4113163000","emd_name":"신촌동","area_km2":0.5087,"edge":false,"slope_mean":15.3,"elev_mean":127.8,"flood_hist_n":0,"flood_depth_max_m":null,"flood_risk_100y":null,"semi_basement_r":null,"elderly_alone_r":0.0557,"bldg_age30_r":null,"shelter_min_walk":13,"pop":5270,"hh":2300,"elderly65_r":0.1262,"single_hh_r":0.3709,"source_level":"emd","flood_years":[],"landslide_hist_n":0},"geometry":{"type":"Polygon","coordinates":[[[127.0999,37.4556],[127.09939,37.45995],[127.09519,37.46191],[127.09149,37.45952],[127.092,37.45517],[127.09621,37.45321],[127.0999,37.4556]]]}},{"type":"Feature","properties":{"h3":"8830e1c8e7fffff","emd_code":"4113163000","emd_name":"신촌동","area_km2":0.5088,"edge":false,"slope_mean":9.3,"elev_mean":46.8,"flood_hist_n":0,"flood_depth_max_m":null,"flood_risk_100y":null,"semi_basement_r":null,"elderly_alone_r":0.0557,"bldg_age30_r":null,"shelter_min_walk":4,"pop":5270,"hh":2300,"elderly65_r":0.1262,"single_hh_r":0.3709,"source_level":"emd","flood_years":[],"landslide_hist_n":0},"geometry":{"type":"Polygon","coordinates":[[[127.10781,37.45603],[127.1073,37.46038],[127.10309,37.46234],[127.09939,37.45995],[127.0999,37.4556],[127.10411,37.45364],[127.10781,37.45603]]]}},{"type":"Feature","properties":{"h3":"8830e1c901fffff","emd_code":"4113164000","emd_name":"고등동","area_km2":0.5079,"edge":true,"slope_mean":26.47,"elev_mean":464.6,"flood_hist_n":0,"flood_depth_max_m":null,"flood_risk_100y":null,"semi_basement_r":null,"elderly_alone_r":0.101,"bldg_age30_r":null,"shelter_min_walk":41,"pop":11700,"hh":5286,"elderly65_r":0.1581,"single_hh_r":0.3842,"source_level":"emd","flood_years":[],"landslide_hist_n":0},"geometry":{"type":"Polygon","coordinates":[[[127.04451,37.41979],[127.044,37.42414],[127.0398,37.42609],[127.03611,37.42371],[127.03662,37.41936],[127.04082,37.4174],[127.04451,37.41979]]]}},{"type":"Feature","properties":{"h3":"8830e1c903fffff","emd_code":"4113164000","emd_name":"고등동","area_km2":0.508,"edge":false,"slope_mean":22.07,"elev_mean":410.3,"flood_hist_n":0,"flood_depth_max_m":null,"flood_risk_100y":null,"semi_basement_r":null,"elderly_alone_r":0.101,"bldg_age30_r":null,"shelter_min_walk":51,"pop":11700,"hh":5286,"elderly65_r":0.1581,"single_hh_r":0.3842,"source_level":"emd","flood_years":[],"landslide_hist_n":0},"geometry":{"type":"Polygon","coordinates":[[[127.0524,37.42022],[127.05189,37.42457],[127.04769,37.42652],[127.044,37.42414],[127.04451,37.41979],[127.04871,37.41783],[127.0524,37.42022]]]}},{"type":"Feature","properties":{"h3":"8830e1c907fffff","emd_code":"4113164000","emd_name":"고등동","area_km2":0.5079,"edge":false,"slope_mean":23.87,"elev_mean":457.0,"flood_hist_n":0,"flood_depth_max_m":null,"flood_risk_100y":null,"semi_basement_r":null,"elderly_alone_r":0.101,"bldg_age30_r":null,"shelter_min_walk":48,"pop":11700,"hh":5286,"elderly65_r":0.1581,"single_hh_r":0.3842,"source_level":"emd","flood_years":[],"landslide_hist_n":0},"geometry":{"type":"Polygon","coordinates":[[[127.04922,37.41349],[127.04871,37.41783],[127.04451,37.41979],[127.04082,37.4174],[127.04133,37.41306],[127.04553,37.4111],[127.04922,37.41349]]]}},{"type":"Feature","properties":{"h3":"8830e1c90bfffff","emd_code":"4113164000","emd_name":"고등동","area_km2":0.5079,"edge":true,"slope_mean":24.9,"elev_mean":479.3,"flood_hist_n":0,"flood_depth_max_m":null,"flood_risk_100y":null,"semi_basement_r":null,"elderly_alone_r":0.101,"bldg_age30_r":null,"shelter_min_walk":46,"pop":11700,"hh":5286,"elderly65_r":0.1581,"single_hh_r":0.3842,"source_level":"emd","flood_years":[],"landslide_hist_n":0},"geometry":{"type":"Polygon","coordinates":[[[127.04769,37.42652],[127.04718,37.43087],[127.04298,37.43282],[127.03929,37.43044],[127.0398,37.42609],[127.044,37.42414],[127.04769,37.42652]]]}},{"type":"Feature","properties":{"h3":"8830e1c911fffff","emd_code":"4113164000","emd_name":"고등동","area_km2":0.5081,"edge":false,"slope_mean":20.33,"elev_mean":222.1,"flood_hist_n":0,"flood_depth_max_m":null,"flood_risk_100y":null,"semi_basement_r":null,"elderly_alone_r":0.101,"bldg_age30_r":null,"shelter_min_walk":55,"pop":11700,"hh":5286,"elderly65_r":0.1581,"single_hh_r":0.3842,"source_level":"emd","flood_years":[],"landslide_hist_n":0},"geometry":{"type":"Polygon","coordinates":[[[127.06347,37.42738],[127.06296,37.43173],[127.05876,37.43368],[127.05507,37.4313],[127.05558,37.42695],[127.05978,37.42499],[127.06347,37.42738]]]}},{"type":"Feature","properties":{"h3":"8830e1c913fffff","emd_code":"4113164000","emd_name":"고등동","area_km2":0.5083,"edge":false,"slope_mean":12.91,"elev_mean":134.9,"flood_hist_n":0,"flood_depth_max_m":null,"flood_risk_100y":null,"semi_basement_r":null,"elderly_alone_r":0.101,"bldg_age30_r":null,"shelter_min_walk":45,"pop":11700,"hh":5286,"elderly65_r":0.1581,"single_hh_r":0.3842,"source_level":"emd","flood_years":[],"landslide_hist_n":0},"geometry":{"type":"Polygon","coordinates":[[[127.07136,37.42781],[127.07085,37.43216],[127.06665,37.43411],[127.06296,37.43173],[127.06347,37.42738],[127.06767,37.42542],[127.07136,37.42781]]]}},{"type":"Feature","properties":{"h3":"8830e1c915fffff","emd_code":"4113164000","emd_name":"고등동","area_km2":0.5081,"edge":false,"slope_mean":21.47,"elev_mean":266.0,"flood_hist_n":0,"flood_depth_max_m":null,"flood_risk_100y":null,"semi_basement_r":null,"elderly_alone_r":0.101,"bldg_age30_r":null,"shelter_min_walk":53,"pop":11700,"hh":5286,"elderly65_r":0.1581,"single_hh_r":0.3842,"source_level":"emd","flood_years":[],"landslide_hist_n":0},"geometry":{"type":"Polygon","coordinates":[[[127.06029,37.42065],[127.05978,37.42499],[127.05558,37.42695],[127.05189,37.42457],[127.0524,37.42022],[127.0566,37.41826],[127.06029,37.42065]]]}},{"type":"Feature","properties":{"h3":"8830e1c917fffff","emd_code":"4113164000","emd_name":"고등동","area_km2":0.5082,"edge":false,"slope_mean":17.9,"elev_mean":192.9,"flood_hist_n":0,"flood_depth_max_m":null,"flood_risk_100y":null,"semi_basement_r":null,"elderly_alone_r":0.101,"bldg_age30_r":null,"shelter_min_walk":50,"pop":11700,"hh":5286,"elderly65_r":0.1581,"single_hh_r":0.3842,"source_level":"emd","flood_years":[],"landslide_hist_n":0},"geometry":{"type":"Polygon","coordinates":[[[127.06818,37.42108],[127.06767,37.42542],[127.06347,37.42738],[127.05978,37.42499],[127.06029,37.42065],[127.06449,37.41869],[127.06818,37.42108]]]}},{"type":"Feature","properties":{"h3":"8830e1c91dfffff","emd_code":"4113164000","emd_name":"고등동","area_km2":0.508,"edge":false,"slope_mean":22.74,"elev_mean":361.9,"flood_hist_n":0,"flood_depth_max_m":null,"flood_risk_100y":null,"semi_basement_r":null,"elderly_alone_r":0.101,"bldg_age30_r":null,"shelter_min_walk":57,"pop":11700,"hh":5286,"elderly65_r":0.1581,"single_hh_r":0.3842,"source_level":"emd","flood_years":[],"landslide_hist_n":0},"geometry":{"type":"Polygon","coordinates":[[[127.05558,37.42695],[127.05507,37.4313],[127.05087,37.43325],[127.04718,37.43087],[127.04769,37.42652],[127.05189,37.42457],[127.05558,37.42695]]]}},{"type":"Feature","properties":{"h3":"8830e1c923fffff","emd_code":"4113165000","emd_name":"시흥동","area_km2":0.5079,"edge":true,"slope_mean":25.25,"elev_mean":377.6,"flood_hist_n":0,"flood_depth_max_m":null,"flood_risk_100y":null,"semi_basement_r":null,"elderly_alone_r":0.0771,"bldg_age30_r":null,"shelter_min_walk":34,"pop":3650,"hh":2191,"elderly65_r":0.2104,"single_hh_r":0.6362,"source_level":"emd","flood_years":[],"landslide_hist_n":0},"geometry":{"type":"Polygon","coordinates":[[[127.05075,37.40046],[127.05024,37.4048],[127.04604,37.40676],[127.04235,37.40437],[127.04287,37.40003],[127.04706,37.39807],[127.05075,37.40046]]]}},{"type":"Feature","properties":{"h3":"8830e1c92bfffff","emd_code":"4113165000","emd_name":"시흥동","area_km2":0.5078,"edge":true,"slope_mean":24.55,"elev_mean":389.0,"flood_hist_n":0,"flood_depth_max_m":null,"flood_risk_100y":null,"semi_basement_r":null,"elderly_alone_r":0.0771,"bldg_age30_r":null,"shelter_min_walk":46,"pop":3650,"hh":2191,"elderly65_r":0.2104,"single_hh_r":0.6362,"source_level":"emd","flood_years":[],"landslide_hist_n":0},"geometry":{"type":"Polygon","coordinates":[[[127.04604,37.40676],[127.04553,37.4111],[127.04133,37.41306],[127.03764,37.41067],[127.03816,37.40633],[127.04235,37.40437],[127.04604,37.40676]]]}},{"type":"Feature","properties":{"h3":"8830e1c931fffff","emd_code":"4113165000","emd_name":"시흥동","area_km2":0.5081,"edge":false,"slope_mean":23.44,"elev_mean":294.7,"flood_hist_n":0,"flood_depth_max_m":null,"flood_risk_100y":null,"semi_basement_r":null,"elderly_alone_r":0.0771,"bldg_age30_r":null,"shelter_min_walk":33,"pop":3650,"hh":2191,"elderly65_r":0.2104,"single_hh_r":0.6362,"source_level":"emd","flood_years":[],"landslide_hist_n":0},"geometry":{"type":"Polygon","coordinates":[[[127.06182,37.40761],[127.06131,37.41196],[127.05711,37.41392],[127.05342,37.41153],[127.05393,37.40719],[127.05813,37.40523],[127.06182,37.40761]]]}},{"type":"Feature","properties":{"h3":"8830e1c933fffff","emd_code":"4113165000","emd_name":"시흥동","area_km2":0.5082,"edge":false,"slope_mean":18.59,"elev_mean":204.6,"flood_hist_n":0,"flood_depth_max_m":null,"flood_risk_100y":null,"semi_basement_r":null,"elderly_alone_r":0.0771,"bldg_age30_r":null,"shelter_min_walk":29,"pop":3650,"hh":2191,"elderly65_r":0.2104,"single_hh_r":0.6362,"source_level":"emd","flood_years":[],"landslide_hist_n":0},"geometry":{"type":"Polygon","coordinates":[[[127.06971,37.40804],[127.0692,37.41239],[127.065,37.41435],[127.06131,37.41196],[127.06182,37.40761],[127.06602,37.40566],[127.06971,37.40804]]]}},{"type":"Feature","properties":{"h3":"8830e1c935fffff","emd_code":"4113165000","emd_name":"시흥동","area_km2":0.508,"edge":false,"slope_mean":23.5,"elev_mean":308.9,"flood_hist_n":0,"flood_depth_max_m":null,"flood_risk_100y":null,"semi_basement_r":null,"elderly_alone_r":0.0771,"bldg_age30_r":null,"shelter_min_walk":27,"pop":3650,"hh":2191,"elderly65_r":0.2104,"single_hh_r":0.6362,"source_level":"emd","flood_years":[],"landslide_hist_n":0},"geometry":{"type":"Polygon","coordinates":[[[127.05864,37.40088],[127.05813,37.40523],[127.05393,37.40719],[127.05024,37.4048],[127.05075,37.40046],[127.05495,37.3985],[127.05864,37.40088]]]}},{"type":"Feature","properties":{"h3":"8830e1c937fffff","emd_code":"4113165000","emd_name":"시흥동","area_km2":0.5081,"edge":false,"slope_mean":19.52,"elev_mean":255.5,"flood_hist_n":0,"flood_depth_max_m":null,"flood_risk_100y":null,"semi_basement_r":null,"elderly_alone_r":0.0771,"bldg_age30_r":null,"shelter_min_walk":21,"pop":3650,"hh":2191,"elderly65_r":0.2104,"single_hh_r":0.6362,"source_level":"emd","flood_years":[],"landslide_hist_n":0},"geometry":{"type":"Polygon","coordinates":[[[127.06653,37.40131],[127.06602,37.40566],[127.06182,37.40761],[127.05813,37.40523],[127.05864,37.40088],[127.06284,37.39893],[127.06653,37.40131]]]}},{"type":"Feature","properties":{"h3":"8830e1c939fffff","emd_code":"4113164000","emd_name":"고등동","area_km2":0.508,"edge":false,"slope_mean":24.67,"elev_mean":400.7,"flood_hist_n":0,"flood_depth_max_m":null,"flood_risk_100y":null,"semi_basement_r":null,"elderly_alone_r":0.101,"bldg_age30_r":null,"shelter_min_walk":45,"pop":11700,"hh":5286,"elderly65_r":0.1581,"single_hh_r":0.3842,"source_level":"emd","flood_years":[],"landslide_hist_n":0},"geometry":{"type":"Polygon","coordinates":[[[127.05711,37.41392],[127.0566,37.41826],[127.0524,37.42022],[127.04871,37.41783],[127.04922,37.41349],[127.05342,37.41153],[127.05711,37.41392]]]}},{"type":"Feature","properties":{"h3":"8830e1c93bfffff","emd_code":"4113164000","emd_name":"고등동","area_km2":0.5081,"edge":false,"slope_mean":22.31,"elev_mean":325.2,"flood_hist_n":0,"flood_depth_max_m":null,"flood_risk_100y":null,"semi_basement_r":null,"elderly_alone_r":0.101,"bldg_age30_r":null,"shelter_min_walk":41,"pop":11700,"hh":5286,"elderly65_r":0.1581,"single_hh_r":0.3842,"source_level":"emd","flood_years":[],"landslide_hist_n":0},"geometry":{"type":"Polygon","coordinates":[[[127.065,37.41435],[127.06449,37.41869],[127.06029,37.42065],[127.0566,37.41826],[127.05711,37.41392],[127.06131,37.41196],[127.065,37.41435]]]}},{"type":"Feature","properties":{"h3":"8830e1c93dfffff","emd_code":"4113165000","emd_name":"시흥동","area_km2":0.508,"edge":false,"slope_mean":25.72,"elev_mean":375.2,"flood_hist_n":0,"flood_depth_max_m":null,"flood_risk_100y":null,"semi_basement_r":null,"elderly_alone_r":0.0771,"bldg_age30_r":null,"shelter_min_walk":39,"pop":3650,"hh":2191,"elderly65_r":0.2104,"single_hh_r":0.6362,"source_level":"emd","flood_years":[],"landslide_hist_n":0},"geometry":{"type":"Polygon","coordinates":[[[127.05393,37.40719],[127.05342,37.41153],[127.04922,37.41349],[127.04553,37.4111],[127.04604,37.40676],[127.05024,37.4048],[127.05393,37.40719]]]}},{"type":"Feature","properties":{"h3":"8830e1c981fffff","emd_code":"4113164000","emd_name":"고등동","area_km2":0.5086,"edge":false,"slope_mean":9.92,"elev_mean":69.8,"flood_hist_n":0,"flood_depth_max_m":null,"flood_risk_100y":null,"semi_basement_r":null,"elderly_alone_r":0.101,"bldg_age30_r":null,"shelter_min_walk":10,"pop":11700,"hh":5286,"elderly65_r":0.1581,"single_hh_r":0.3842,"source_level":"emd","flood_years":[],"landslide_hist_n":0},"geometry":{"type":"Polygon","coordinates":[[[127.09976,37.42279],[127.09926,37.42713],[127.09505,37.42909],[127.09136,37.42671],[127.09187,37.42236],[127.09607,37.4204],[127.09976,37.42279]]]}},{"type":"Feature","properties":{"h3":"8830e1c983fffff","emd_code":"4113165000","emd_name":"시흥동","area_km2":0.5087,"edge":false,"slope_mean":2.91,"elev_mean":38.8,"flood_hist_n":0,"flood_depth_max_m":null,"flood_risk_100y":null,"semi_basement_r":null,"elderly_alone_r":0.0771,"bldg_age30_r":null,"shelter_min_walk":5,"pop":3650,"hh":2191,"elderly65_r":0.2104,"single_hh_r":0.6362,"source_level":"emd","flood_years":[],"landslide_hist_n":0},"geometry":{"type":"Polygon","coordinates":[[[127.10766,37.42321],[127.10716,37.42756],[127.10295,37.42952],[127.09926,37.42713],[127.09976,37.42279],[127.10397,37.42083],[127.10766,37.42321]]]}},{"type":"Feature","properties":{"h3":"8830e1c985fffff","emd_code":"4113165000","emd_name":"시흥동","area_km2":0.5086,"edge":false,"slope_mean":14.28,"elev_mean":120.2,"flood_hist_n":0,"flood_depth_max_m":null,"flood_risk_100y":null,"semi_basement_r":null,"elderly_alone_r":0.0771,"bldg_age30_r":null,"shelter_min_walk":12,"pop":3650,"hh":2191,"elderly65_r":0.2104,"single_hh_r":0.6362,"source_level":"emd","flood_years":[],"landslide_hist_n":0},"geometry":{"type":"Polygon","coordinates":[[[127.09658,37.41605],[127.09607,37.4204],[127.09187,37.42236],[127.08817,37.41997],[127.08868,37.41563],[127.09288,37.41367],[127.09658,37.41605]]]}},{"type":"Feature","properties":{"h3":"8830e1c987fffff","emd_code":"4113165000","emd_name":"시흥동","area_km2":0.5087,"edge":false,"slope_mean":8.45,"elev_mean":60.1,"flood_hist_n":0,"flood_depth_max_m":null,"flood_risk_100y":null,"semi_basement_r":null,"elderly_alone_r":0.0771,"bldg_age30_r":null,"shelter_min_walk":7,"pop":3650,"hh":2191,"elderly65_r":0.2104,"single_hh_r":0.6362,"source_level":"emd","flood_years":[],"landslide_hist_n":0},"geometry":{"type":"Polygon","coordinates":[[[127.10448,37.41648],[127.10397,37.42083],[127.09976,37.42279],[127.09607,37.4204],[127.09658,37.41605],[127.10078,37.41409],[127.10448,37.41648]]]}},{"type":"Feature","properties":{"h3":"8830e1c989fffff","emd_code":"4113164000","emd_name":"고등동","area_km2":0.5086,"edge":false,"slope_mean":13.42,"elev_mean":94.5,"flood_hist_n":0,"flood_depth_max_m":null,"flood_risk_100y":null,"semi_basement_r":null,"elderly_alone_r":0.101,"bldg_age30_r":null,"shelter_min_walk":15,"pop":11700,"hh":5286,"elderly65_r":0.1581,"single_hh_r":0.3842,"source_level":"emd","flood_years":[],"landslide_hist_n":0},"geometry":{"type":"Polygon","coordinates":[[[127.09505,37.42909],[127.09454,37.43344],[127.09034,37.4354],[127.08665,37.43301],[127.08716,37.42867],[127.09136,37.42671],[127.09505,37.42909]]]}},{"type":"Feature","properties":{"h3":"8830e1c98bfffff","emd_code":"4113164000","emd_name":"고등동","area_km2":0.5087,"edge":false,"slope_mean":8.74,"elev_mean":54.3,"flood_hist_n":0,"flood_depth_max_m":null,"flood_risk_100y":null,"semi_basement_r":null,"elderly_alone_r":0.101,"bldg_age30_r":null,"shelter_min_walk":6,"pop":11700,"hh":5286,"elderly65_r":0.1581,"single_hh_r":0.3842,"source_level":"emd","flood_years":[],"landslide_hist_n":0},"geometry":{"type":"Polygon","coordinates":[[[127.10295,37.42952],[127.10244,37.43387],[127.09824,37.43583],[127.09454,37.43344],[127.09505,37.42909],[127.09926,37.42713],[127.10295,37.42952]]]}},{"type":"Feature","properties":{"h3":"8830e1c98dfffff","emd_code":"4113164000","emd_name":"고등동","area_km2":0.5085,"edge":false,"slope_mean":16.45,"elev_mean":143.6,"flood_hist_n":0,"flood_depth_max_m":null,"flood_risk_100y":null,"semi_basement_r":null,"elderly_alone_r":0.101,"bldg_age30_r":null,"shelter_min_walk":19,"pop":11700,"hh":5286,"elderly65_r":0.1581,"single_hh_r":0.3842,"source_level":"emd","flood_years":[],"landslide_hist_n":0},"geometry":{"type":"Polygon","coordinates":[[[127.09187,37.42236],[127.09136,37.42671],[127.08716,37.42867],[127.08346,37.42628],[127.08397,37.42193],[127.08817,37.41997],[127.09187,37.42236]]]}},{"type":"Feature","properties":{"h3":"8830e1c991fffff","emd_code":"4113164000","emd_name":"고등동","area_km2":0.5089,"edge":false,"slope_mean":2.3,"elev_mean":23.1,"flood_hist_n":0,"flood_depth_max_m":null,"flood_risk_100y":null,"semi_basement_r":null,"elderly_alone_r":0.101,"bldg_age30_r":null,"shelter_min_walk":15,"pop":11700,"hh":5286,"elderly65_r":0.1581,"single_hh_r":0.3842,"source_level":"emd","flood_years":[],"landslide_hist_n":0},"geometry":{"type":"Polygon","coordinates":[[[127.11875,37.43037],[127.11825,37.43472],[127.11404,37.43668],[127.11034,37.43429],[127.11085,37.42995],[127.11506,37.42799],[127.11875,37.43037]]]}},{"type":"Feature","properties":{"h3":"8830e1c993fffff","emd_code":"4113158000","emd_name":"수진2동","area_km2":0.509,"edge":false,"slope_mean":4.78,"elev_mean":28.3,"flood_hist_n":0,"flood_depth_max_m":null,"flood_risk_100y":null,"semi_basement_r":null,"elderly_alone_r":0.1726,"bldg_age30_r":null,"shelter_min_walk":9,"pop":14258,"hh":7525,"elderly65_r":0.2903,"single_hh_r":0.5014,"source_level":"emd","flood_years":[],"landslide_hist_n":0},"geometry":{"type":"Polygon","coordinates":[[[127.12665,37.4308],[127.12615,37.43515],[127.12194,37.43711],[127.11825,37.43472],[127.11875,37.43037],[127.12296,37.42841],[127.12665,37.4308]]]}},{"type":"Feature","properties":{"h3":"8830e1c995fffff","emd_code":"4113165000","emd_name":"시흥동","area_km2":0.5089,"edge":false,"slope_mean":3.96,"elev_mean":35.0,"flood_hist_n":0,"flood_depth_max_m":null,"flood_risk_100y":null,"semi_basement_r":null,"elderly_alone_r":0.0771,"bldg_age30_r":null,"shelter_min_walk":12,"pop":3650,"hh":2191,"elderly65_r":0.2104,"single_hh_r":0.6362,"source_level":"emd","flood_years":[],"landslide_hist_n":0},"geometry":{"type":"Polygon","coordinates":[[[127.11556,37.42364],[127.11506,37.42799],[127.11085,37.42995],[127.10716,37.42756],[127.10766,37.42321],[127.11187,37.42125],[127.11556,37.42364]]]}},{"type":"Feature","properties":{"h3":"8830e1c997fffff","emd_code":"4113164000","emd_name":"고등동","area_km2":0.509,"edge":true,"slope_mean":4.4,"elev_mean":27.3,"flood_hist_n":0,"flood_depth_max_m":null,"flood_risk_100y":null,"semi_basement_r":null,"elderly_alone_r":0.101,"bldg_age30_r":null,"shelter_min_walk":16,"pop":11700,"hh":5286,"elderly65_r":0.1581,"single_hh_r":0.3842,"source_level":"emd","flood_years":[],"landslide_hist_n":0},"geometry":{"type":"Polygon","coordinates":[[[127.12346,37.42406],[127.12296,37.42841],[127.11875,37.43037],[127.11506,37.42799],[127.11556,37.42364],[127.11977,37.42168],[127.12346,37.42406]]]}},{"type":"Feature","properties":{"h3":"8830e1c999fffff","emd_code":"4113164000","emd_name":"고등동","area_km2":0.5089,"edge":false,"slope_mean":1.43,"elev_mean":22.2,"flood_hist_n":0,"flood_depth_max_m":null,"flood_risk_100y":null,"semi_basement_r":null,"elderly_alone_r":0.101,"bldg_age30_r":null,"shelter_min_walk":15,"pop":11700,"hh":5286,"elderly65_r":0.1581,"single_hh_r":0.3842,"source_level":"emd","flood_years":[],"landslide_hist_n":0},"geometry":{"type":"Polygon","coordinates":[[[127.11404,37.43668],[127.11353,37.44103],[127.10933,37.44299],[127.10563,37.4406],[127.10614,37.43625],[127.11034,37.43429],[127.11404,37.43668]]]}},{"type":"Feature","properties":{"h3":"8830e1c99bfffff","emd_code":"4113164000","emd_name":"고등동","area_km2":0.509,"edge":false,"slope_mean":3.47,"elev_mean":22.9,"flood_hist_n":0,"flood_depth_max_m":null,"flood_risk_100y":null,"semi_basement_r":null,"elderly_alone_r":0.101,"bldg_age30_r":null,"shelter_min_walk":5,"pop":11700,"hh":5286,"elderly65_r":0.1581,"single_hh_r":0.3842,"source_level":"emd","flood_years":[],"landslide_hist_n":0},"geometry":{"type":"Polygon","coordinates":[[[127.12194,37.43711],[127.12144,37.44146],[127.11723,37.44342],[127.11353,37.44103],[127.11404,37.43668],[127.11825,37.43472],[127.12194,37.43711]]]}},{"type":"Feature","properties":{"h3":"8830e1c99dfffff","emd_code":"4113164000","emd_name":"고등동","area_km2":0.5088,"edge":false,"slope_mean":2.03,"elev_mean":31.5,"flood_hist_n":0,"flood_depth_max_m":null,"flood_risk_100y":null,"semi_basement_r":null,"elderly_alone_r":0.101,"bldg_age30_r":null,"shelter_min_walk":8,"pop":11700,"hh":5286,"elderly65_r":0.1581,"single_hh_r":0.3842,"source_level":"emd","flood_years":[],"landslide_hist_n":0},"geometry":{"type":"Polygon","coordinates":[[[127.11085,37.42995],[127.11034,37.43429],[127.10614,37.43625],[127.10244,37.43387],[127.10295,37.42952],[127.10716,37.42756],[127.11085,37.42995]]]}},{"type":"Feature","properties":{"h3":"8830e1c9a1fffff","emd_code":"4113165000","emd_name":"시흥동","area_km2":0.5086,"edge":true,"slope_mean":5.86,"elev_mean":64.4,"flood_hist_n":0,"flood_depth_max_m":null,"flood_risk_100y":null,"semi_basement_r":null,"elderly_alone_r":0.0771,"bldg_age30_r":null,"shelter_min_walk":4,"pop":3650,"hh":2191,"elderly65_r":0.2104,"single_hh_r":0.6362,"source_level":"emd","flood_years":[],"landslide_hist_n":0},"geometry":{"type":"Polygon","coordinates":[[[127.0981,37.40301],[127.09759,37.40736],[127.09339,37.40932],[127.0897,37.40694],[127.09021,37.40259],[127.09441,37.40063],[127.0981,37.40301]]]}},{"type":"Feature","properties":{"h3":"8830e1c9a3fffff","emd_code":"4113165000","emd_name":"시흥동","area_km2":0.5087,"edge":true,"slope_mean":8.58,"elev_mean":58.1,"flood_hist_n":0,"flood_depth_max_m":null,"flood_risk_100y":null,"semi_basement_r":null,"elderly_alone_r":0.0771,"bldg_age30_r":null,"shelter_min_walk":11,"pop":3650,"hh":2191,"elderly65_r":0.2104,"single_hh_r":0.6362,"source_level":"emd","flood_years":[],"landslide_hist_n":0},"geometry":{"type":"Polygon","coordinates":[[[127.106,37.40344],[127.10549,37.40779],[127.10129,37.40975],[127.09759,37.40736],[127.0981,37.40301],[127.1023,37.40105],[127.106,37.40344]]]}},{"type":"Feature","properties":{"h3":"8830e1c9a5fffff","emd_code":"4113165000","emd_name":"시흥동","area_km2":0.5085,"edge":true,"slope_mean":12.5,"elev_mean":113.1,"flood_hist_n":0,"flood_depth_max_m":null,"flood_risk_100y":null,"semi_basement_r":null,"elderly_alone_r":0.0771,"bldg_age30_r":null,"shelter_min_walk":6,"pop":3650,"hh":2191,"elderly65_r":0.2104,"single_hh_r":0.6362,"source_level":"emd","flood_years":[],"landslide_hist_n":0},"geometry":{"type":"Polygon","coordinates":[[[127.09492,37.39628],[127.09441,37.40063],[127.09021,37.40259],[127.08652,37.4002],[127.08702,37.39586],[127.09122,37.3939],[127.09492,37.39628]]]}},{"type":"Feature","properties":{"h3":"8830e1c9a9fffff","emd_code":"4113165000","emd_name":"시흥동","area_km2":0.5085,"edge":false,"slope_mean":9.33,"elev_mean":86.8,"flood_hist_n":0,"flood_depth_max_m":null,"flood_risk_100y":null,"semi_basement_r":null,"elderly_alone_r":0.0771,"bldg_age30_r":null,"shelter_min_walk":15,"pop":3650,"hh":2191,"elderly65_r":0.2104,"single_hh_r":0.6362,"source_level":"emd","flood_years":[],"landslide_hist_n":0},"geometry":{"type":"Polygon","coordinates":[[[127.09339,37.40932],[127.09288,37.41367],[127.08868,37.41563],[127.08499,37.41324],[127.0855,37.4089],[127.0897,37.40694],[127.09339,37.40932]]]}},{"type":"Feature","properties":{"h3":"8830e1c9abfffff","emd_code":"4113165000","emd_name":"시흥동","area_km2":0.5086,"edge":false,"slope_mean":9.41,"elev_mean":72.7,"flood_hist_n":0,"flood_depth_max_m":null,"flood_risk_100y":null,"semi_basement_r":null,"elderly_alone_r":0.0771,"bldg_age30_r":null,"shelter_min_walk":6,"pop":3650,"hh":2191,"elderly65_r":0.2104,"single_hh_r":0.6362,"source_level":"emd","flood_years":[],"landslide_hist_n":0},"geometry":{"type":"Polygon","coordinates":[[[127.10129,37.40975],[127.10078,37.41409],[127.09658,37.41605],[127.09288,37.41367],[127.09339,37.40932],[127.09759,37.40736],[127.10129,37.40975]]]}},{"type":"Feature","properties":{"h3":"8830e1c9adfffff","emd_code":"4113165000","emd_name":"시흥동","area_km2":0.5084,"edge":false,"slope_mean":9.17,"elev_mean":85.5,"flood_hist_n":0,"flood_depth_max_m":null,"flood_risk_100y":null,"semi_basement_r":null,"elderly_alone_r":0.0771,"bldg_age30_r":null,"shelter_min_walk":9,"pop":3650,"hh":2191,"elderly65_r":0.2104,"single_hh_r":0.6362,"source_level":"emd","flood_years":[],"landslide_hist_n":0},"geometry":{"type":"Polygon","coordinates":[[[127.09021,37.40259],[127.0897,37.40694],[127.0855,37.4089],[127.08181,37.40651],[127.08231,37.40216],[127.08652,37.4002],[127.09021,37.40259]]]}},{"type":"Feature","properties":{"h3":"8830e1c9b1fffff","emd_code":"4113165000","emd_name":"시흥동","area_km2":0.5088,"edge":false,"slope_mean":7.63,"elev_mean":51.2,"flood_hist_n":0,"flood_depth_max_m":null,"flood_risk_100y":null,"semi_basement_r":null,"elderly_alone_r":0.0771,"bldg_age30_r":null,"shelter_min_walk":10,"pop":3650,"hh":2191,"elderly65_r":0.2104,"single_hh_r":0.6362,"source_level":"emd","flood_years":[],"landslide_hist_n":0},"geometry":{"type":"Polygon","coordinates":[[[127.11708,37.4106],[127.11658,37.41494],[127.11237,37.41691],[127.10868,37.41452],[127.10919,37.41017],[127.11339,37.40821],[127.11708,37.4106]]]}},{"type":"Feature","properties":{"h3":"8830e1c9b3fffff","emd_code":"4113165000","emd_name":"시흥동","area_km2":0.509,"edge":true,"slope_mean":6.87,"elev_mean":33.1,"flood_hist_n":0,"flood_depth_max_m":null,"flood_risk_100y":null,"semi_basement_r":null,"elderly_alone_r":0.0771,"bldg_age30_r":null,"shelter_min_walk":8,"pop":3650,"hh":2191,"elderly65_r":0.2104,"single_hh_r":0.6362,"source_level":"emd","flood_years":[],"landslide_hist_n":0},"geometry":{"type":"Polygon","coordinates":[[[127.12498,37.41102],[127.12448,37.41537],[127.12027,37.41733],[127.11658,37.41494],[127.11708,37.4106],[127.12129,37.40863],[127.12498,37.41102]]]}},{"type":"Feature","properties":{"h3":"8830e1c9b5fffff","emd_code":"4113165000","emd_name":"시흥동","area_km2":0.5088,"edge":true,"slope_mean":9.26,"elev_mean":61.2,"flood_hist_n":0,"flood_depth_max_m":null,"flood_risk_100y":null,"semi_basement_r":null,"elderly_alone_r":0.0771,"bldg_age30_r":null,"shelter_min_walk":2,"pop":3650,"hh":2191,"elderly65_r":0.2104,"single_hh_r":0.6362,"source_level":"emd","flood_years":[],"landslide_hist_n":0},"geometry":{"type":"Polygon","coordinates":[[[127.1139,37.40386],[127.11339,37.40821],[127.10919,37.41017],[127.10549,37.40779],[127.106,37.40344],[127.1102,37.40148],[127.1139,37.40386]]]}},{"type":"Feature","properties":{"h3":"8830e1c9b7fffff","emd_code":"4113165000","emd_name":"시흥동","area_km2":0.5089,"edge":true,"slope_mean":6.04,"elev_mean":41.4,"flood_hist_n":0,"flood_depth_max_m":null,"flood_risk_100y":null,"semi_basement_r":null,"elderly_alone_r":0.0771,"bldg_age30_r":null,"shelter_min_walk":2,"pop":3650,"hh":2191,"elderly65_r":0.2104,"single_hh_r":0.6362,"source_level":"emd","flood_years":[],"landslide_hist_n":0},"geometry":{"type":"Polygon","coordinates":[[[127.12179,37.40429],[127.12129,37.40863],[127.11708,37.4106],[127.11339,37.40821],[127.1139,37.40386],[127.1181,37.4019],[127.12179,37.40429]]]}},{"type":"Feature","properties":{"h3":"8830e1c9b9fffff","emd_code":"4113165000","emd_name":"시흥동","area_km2":0.5088,"edge":false,"slope_mean":8.63,"elev_mean":52.6,"flood_hist_n":0,"flood_depth_max_m":null,"flood_risk_100y":null,"semi_basement_r":null,"elderly_alone_r":0.0771,"bldg_age30_r":null,"shelter_min_walk":13,"pop":3650,"hh":2191,"elderly65_r":0.2104,"single_hh_r":0.6362,"source_level":"emd","flood_years":[],"landslide_hist_n":0},"geometry":{"type":"Polygon","coordinates":[[[127.11237,37.41691],[127.11187,37.42125],[127.10766,37.42321],[127.10397,37.42083],[127.10448,37.41648],[127.10868,37.41452],[127.11237,37.41691]]]}},{"type":"Feature","properties":{"h3":"8830e1c9bbfffff","emd_code":"4113165000","emd_name":"시흥동","area_km2":0.5089,"edge":false,"slope_mean":8.31,"elev_mean":41.1,"flood_hist_n":0,"flood_depth_max_m":null,"flood_risk_100y":null,"semi_basement_r":null,"elderly_alone_r":0.0771,"bldg_age30_r":null,"shelter_min_walk":15,"pop":3650,"hh":2191,"elderly65_r":0.2104,"single_hh_r":0.6362,"source_level":"emd","flood_years":[],"landslide_hist_n":0},"geometry":{"type":"Polygon","coordinates":[[[127.12027,37.41733],[127.11977,37.42168],[127.11556,37.42364],[127.11187,37.42125],[127.11237,37.41691],[127.11658,37.41494],[127.12027,37.41733]]]}},{"type":"Feature","properties":{"h3":"8830e1c9bdfffff","emd_code":"4113165000","emd_name":"시흥동","area_km2":0.5087,"edge":false,"slope_mean":11.13,"elev_mean":75.3,"flood_hist_n":0,"flood_depth_max_m":null,"flood_risk_100y":null,"semi_basement_r":null,"elderly_alone_r":0.0771,"bldg_age30_r":null,"shelter_min_walk":7,"pop":3650,"hh":2191,"elderly65_r":0.2104,"single_hh_r":0.6362,"source_level":"emd","flood_years":[],"landslide_hist_n":0},"geometry":{"type":"Polygon","coordinates":[[[127.10919,37.41017],[127.10868,37.41452],[127.10448,37.41648],[127.10078,37.41409],[127.10129,37.40975],[127.10549,37.40779],[127.10919,37.41017]]]}},{"type":"Feature","properties":{"h3":"8830e1c9c1fffff","emd_code":"4113164000","emd_name":"고등동","area_km2":0.5084,"edge":false,"slope_mean":17.59,"elev_mean":166.7,"flood_hist_n":0,"flood_depth_max_m":null,"flood_risk_100y":null,"semi_basement_r":null,"elderly_alone_r":0.101,"bldg_age30_r":null,"shelter_min_walk":34,"pop":11700,"hh":5286,"elderly65_r":0.1581,"single_hh_r":0.3842,"source_level":"emd","flood_years":[],"landslide_hist_n":0},"geometry":{"type":"Polygon","coordinates":[[[127.08244,37.43497],[127.08193,37.43932],[127.07773,37.44128],[127.07404,37.43889],[127.07455,37.43454],[127.07875,37.43258],[127.08244,37.43497]]]}},{"type":"Feature","properties":{"h3":"8830e1c9c3fffff","emd_code":"4113164000","emd_name":"고등동","area_km2":0.5085,"edge":false,"slope_mean":14.83,"elev_mean":141.6,"flood_hist_n":0,"flood_depth_max_m":null,"flood_risk_100y":null,"semi_basement_r":null,"elderly_alone_r":0.101,"bldg_age30_r":null,"shelter_min_walk":25,"pop":11700,"hh":5286,"elderly65_r":0.1581,"single_hh_r":0.3842,"source_level":"emd","flood_years":[],"landslide_hist_n":0},"geometry":{"type":"Polygon","coordinates":[[[127.09034,37.4354],[127.08983,37.43975],[127.08563,37.4417],[127.08193,37.43932],[127.08244,37.43497],[127.08665,37.43301],[127.09034,37.4354]]]}},{"type":"Feature","properties":{"h3":"8830e1c9c5fffff","emd_code":"4113164000","emd_name":"고등동","area_km2":0.5084,"edge":false,"slope_mean":13.24,"elev_mean":124.1,"flood_hist_n":0,"flood_depth_max_m":null,"flood_risk_100y":null,"semi_basement_r":null,"elderly_alone_r":0.101,"bldg_age30_r":null,"shelter_min_walk":35,"pop":11700,"hh":5286,"elderly65_r":0.1581,"single_hh_r":0.3842,"source_level":"emd","flood_years":[],"landslide_hist_n":0},"geometry":{"type":"Polygon","coordinates":[[[127.07926,37.42824],[127.07875,37.43258],[127.07455,37.43454],[127.07085,37.43216],[127.07136,37.42781],[127.07557,37.42585],[127.07926,37.42824]]]}},{"type":"Feature","properties":{"h3":"8830e1c9c7fffff","emd_code":"4113164000","emd_name":"고등동","area_km2":0.5085,"edge":false,"slope_mean":12.86,"elev_mean":110.1,"flood_hist_n":0,"flood_depth_max_m":null,"flood_risk_100y":null,"semi_basement_r":null,"elderly_alone_r":0.101,"bldg_age30_r":null,"shelter_min_walk":24,"pop":11700,"hh":5286,"elderly65_r":0.1581,"single_hh_r":0.3842,"source_level":"emd","flood_years":[],"landslide_hist_n":0},"geometry":{"type":"Polygon","coordinates":[[[127.08716,37.42867],[127.08665,37.43301],[127.08244,37.43497],[127.07875,37.43258],[127.07926,37.42824],[127.08346,37.42628],[127.08716,37.42867]]]}},{"type":"Feature","properties":{"h3":"8830e1c9c9fffff","emd_code":"4113164000","emd_name":"고등동","area_km2":0.5084,"edge":true,"slope_mean":19.5,"elev_mean":213.6,"flood_hist_n":0,"flood_depth_max_m":null,"flood_risk_100y":null,"semi_basement_r":null,"elderly_alone_r":0.101,"bldg_age30_r":null,"shelter_min_walk":38,"pop":11700,"hh":5286,"elderly65_r":0.1581,"single_hh_r":0.3842,"source_level":"emd","flood_years":[],"landslide_hist_n":0},"geometry":{"type":"Polygon","coordinates":[[[127.07773,37.44128],[127.07722,37.44562],[127.07302,37.44758],[127.06933,37.44519],[127.06984,37.44085],[127.07404,37.43889],[127.07773,37.44128]]]}},{"type":"Feature","properties":{"h3":"8830e1c9cbfffff","emd_code":"4113164000","emd_name":"고등동","area_km2":0.5085,"edge":true,"slope_mean":17.75,"elev_mean":207.0,"flood_hist_n":0,"flood_depth_max_m":null,"flood_risk_100y":null,"semi_basement_r":null,"elderly_alone_r":0.101,"bldg_age30_r":null,"shelter_min_walk":28,"pop":11700,"hh":5286,"elderly65_r":0.1581,"single_hh_r":0.3842,"source_level":"emd","flood_years":[],"landslide_hist_n":0},"geometry":{"type":"Polygon","coordinates":[[[127.08563,37.4417],[127.08512,37.44605],[127.08092,37.44801],[127.07722,37.44562],[127.07773,37.44128],[127.08193,37.43932],[127.08563,37.4417]]]}},{"type":"Feature","properties":{"h3":"8830e1c9cdfffff","emd_code":"4113164000","emd_name":"고등동","area_km2":0.5083,"edge":true,"slope_mean":15.1,"elev_mean":144.8,"flood_hist_n":0,"flood_depth_max_m":null,"flood_risk_100y":null,"semi_basement_r":null,"elderly_alone_r":0.101,"bldg_age30_r":null,"shelter_min_walk":43,"pop":11700,"hh":5286,"elderly65_r":0.1581,"single_hh_r":0.3842,"source_level":"emd","flood_years":[],"landslide_hist_n":0},"geometry":{"type":"Polygon","coordinates":[[[127.07455,37.43454],[127.07404,37.43889],[127.06984,37.44085],[127.06614,37.43846],[127.06665,37.43411],[127.07085,37.43216],[127.07455,37.43454]]]}},{"type":"Feature","properties":{"h3":"8830e1c9d1fffff","emd_code":"4113163000","emd_name":"신촌동","area_km2":0.5087,"edge":false,"slope_mean":15.21,"elev_mean":103.8,"flood_hist_n":0,"flood_depth_max_m":null,"flood_risk_100y":null,"semi_basement_r":null,"elderly_alone_r":0.0557,"bldg_age30_r":null,"shelter_min_walk":11,"pop":5270,"hh":2300,"elderly65_r":0.1262,"single_hh_r":0.3709,"source_level":"emd","flood_years":[],"landslide_hist_n":0},"geometry":{"type":"Polygon","coordinates":[[[127.10143,37.44256],[127.10092,37.44691],[127.09671,37.44887],[127.09302,37.44648],[127.09353,37.44213],[127.09773,37.44017],[127.10143,37.44256]]]}},{"type":"Feature","properties":{"h3":"8830e1c9d3fffff","emd_code":"4113163000","emd_name":"신촌동","area_km2":0.5088,"edge":false,"slope_mean":5.53,"elev_mean":31.0,"flood_hist_n":0,"flood_depth_max_m":null,"flood_risk_100y":null,"semi_basement_r":null,"elderly_alone_r":0.0557,"bldg_age30_r":null,"shelter_min_walk":10,"pop":5270,"hh":2300,"elderly65_r":0.1262,"single_hh_r":0.3709,"source_level":"emd","flood_years":[],"landslide_hist_n":0},"geometry":{"type":"Polygon","coordinates":[[[127.10933,37.44299],[127.10882,37.44734],[127.10462,37.4493],[127.10092,37.44691],[127.10143,37.44256],[127.10563,37.4406],[127.10933,37.44299]]]}},{"type":"Feature","properties":{"h3":"8830e1c9d5fffff","emd_code":"4113164000","emd_name":"고등동","area_km2":0.5086,"edge":false,"slope_mean":13.41,"elev_mean":96.7,"flood_hist_n":0,"flood_depth_max_m":null,"flood_risk_100y":null,"semi_basement_r":null,"elderly_alone_r":0.101,"bldg_age30_r":null,"shelter_min_walk":18,"pop":11700,"hh":5286,"elderly65_r":0.1581,"single_hh_r":0.3842,"source_level":"emd","flood_years":[],"landslide_hist_n":0},"geometry":{"type":"Polygon","coordinates":[[[127.09824,37.43583],[127.09773,37.44017],[127.09353,37.44213],[127.08983,37.43975],[127.09034,37.4354],[127.09454,37.43344],[127.09824,37.43583]]]}},{"type":"Feature","properties":{"h3":"8830e1c9d7fffff","emd_code":"4113164000","emd_name":"고등동","area_km2":0.5088,"edge":false,"slope_mean":5.41,"elev_mean":38.4,"flood_hist_n":0,"flood_depth_max_m":null,"flood_risk_100y":null,"semi_basement_r":null,"elderly_alone_r":0.101,"bldg_age30_r":null,"shelter_min_walk":17,"pop":11700,"hh":5286,"elderly65_r":0.1581,"single_hh_r":0.3842,"source_level":"emd","flood_years":[],"landslide_hist_n":0},"geometry":{"type":"Polygon","coordinates":[[[127.10614,37.43625],[127.10563,37.4406],[127.10143,37.44256],[127.09773,37.44017],[127.09824,37.43583],[127.10244,37.43387],[127.10614,37.43625]]]}},{"type":"Feature","properties":{"h3":"8830e1c9d9fffff","emd_code":"4113163000","emd_name":"신촌동","area_km2":0.5087,"edge":false,"slope_mean":17.86,"elev_mean":179.5,"flood_hist_n":0,"flood_depth_max_m":null,"flood_risk_100y":null,"semi_basement_r":null,"elderly_alone_r":0.0557,"bldg_age30_r":null,"shelter_min_walk":11,"pop":5270,"hh":2300,"elderly65_r":0.1262,"single_hh_r":0.3709,"source_level":"emd","flood_years":[],"landslide_hist_n":0},"geometry":{"type":"Polygon","coordinates":[[[127.09671,37.44887],[127.09621,37.45321],[127.092,37.45517],[127.08831,37.45279],[127.08881,37.44844],[127.09302,37.44648],[127.09671,37.44887]]]}},{"type":"Feature","properties":{"h3":"8830e1c9dbfffff","emd_code":"4113163000","emd_name":"신촌동","area_km2":0.5088,"edge":false,"slope_mean":14.53,"elev_mean":75.2,"flood_hist_n":0,"flood_depth_max_m":null,"flood_risk_100y":null,"semi_basement_r":null,"elderly_alone_r":0.0557,"bldg_age30_r":null,"shelter_min_walk":2,"pop":5270,"hh":2300,"elderly65_r":0.1262,"single_hh_r":0.3709,"source_level":"emd","flood_years":[],"landslide_hist_n":0},"geometry":{"type":"Polygon","coordinates":[[[127.10462,37.4493],[127.10411,37.45364],[127.0999,37.4556],[127.09621,37.45321],[127.09671,37.44887],[127.10092,37.44691],[127.10462,37.4493]]]}},{"type":"Feature","properties":{"h3":"8830e1c9ddfffff","emd_code":"4113164000","emd_name":"고등동","area_km2":0.5086,"edge":false,"slope_mean":18.25,"elev_mean":221.6,"flood_hist_n":0,"flood_depth_max_m":null,"flood_risk_100y":null,"semi_basement_r":null,"elderly_alone_r":0.101,"bldg_age30_r":null,"shelter_min_walk":19,"pop":11700,"hh":5286,"elderly65_r":0.1581,"single_hh_r":0.3842,"source_level":"emd","flood_years":[],"landslide_hist_n":0},"geometry":{"type":"Polygon","coordinates":[[[127.09353,37.44213],[127.09302,37.44648],[127.08881,37.44844],[127.08512,37.44605],[127.08563,37.4417],[127.08983,37.43975],[127.09353,37.44213]]]}},{"type":"Feature","properties":{"h3":"8830e1c9e1fffff","emd_code":"4113165000","emd_name":"시흥동","area_km2":0.5083,"edge":false,"slope_mean":15.99,"elev_mean":144.6,"flood_hist_n":0,"flood_depth_max_m":null,"flood_risk_100y":null,"semi_basement_r":null,"elderly_alone_r":0.0771,"bldg_age30_r":null,"shelter_min_walk":32,"pop":3650,"hh":2191,"elderly65_r":0.2104,"single_hh_r":0.6362,"source_level":"emd","flood_years":[],"landslide_hist_n":0},"geometry":{"type":"Polygon","coordinates":[[[127.08079,37.4152],[127.08028,37.41955],[127.07608,37.42151],[127.07238,37.41912],[127.07289,37.41477],[127.07709,37.41281],[127.08079,37.4152]]]}},{"type":"Feature","properties":{"h3":"8830e1c9e3fffff","emd_code":"4113165000","emd_name":"시흥동","area_km2":0.5085,"edge":false,"slope_mean":14.34,"elev_mean":131.7,"flood_hist_n":0,"flood_depth_max_m":null,"flood_risk_100y":null,"semi_basement_r":null,"elderly_alone_r":0.0771,"bldg_age30_r":null,"shelter_min_walk":22,"pop":3650,"hh":2191,"elderly65_r":0.2104,"single_hh_r":0.6362,"source_level":"emd","flood_years":[],"landslide_hist_n":0},"geometry":{"type":"Polygon","coordinates":[[[127.08868,37.41563],[127.08817,37.41997],[127.08397,37.42193],[127.08028,37.41955],[127.08079,37.4152],[127.08499,37.41324],[127.08868,37.41563]]]}},{"type":"Feature","properties":{"h3":"8830e1c9e5fffff","emd_code":"4113165000","emd_name":"시흥동","area_km2":0.5083,"edge":false,"slope_mean":14.8,"elev_mean":147.0,"flood_hist_n":0,"flood_depth_max_m":null,"flood_risk_100y":null,"semi_basement_r":null,"elderly_alone_r":0.0771,"bldg_age30_r":null,"shelter_min_walk":28,"pop":3650,"hh":2191,"elderly65_r":0.2104,"single_hh_r":0.6362,"source_level":"emd","flood_years":[],"landslide_hist_n":0},"geometry":{"type":"Polygon","coordinates":[[[127.0776,37.40847],[127.07709,37.41281],[127.07289,37.41477],[127.0692,37.41239],[127.06971,37.40804],[127.07391,37.40608],[127.0776,37.40847]]]}},{"type":"Feature","properties":{"h3":"8830e1c9e7fffff","emd_code":"4113165000","emd_name":"시흥동","area_km2":0.5084,"edge":false,"slope_mean":11.79,"elev_mean":102.7,"flood_hist_n":0,"flood_depth_max_m":null,"flood_risk_100y":null,"semi_basement_r":null,"elderly_alone_r":0.0771,"bldg_age30_r":null,"shelter_min_walk":20,"pop":3650,"hh":2191,"elderly65_r":0.2104,"single_hh_r":0.6362,"source_level":"emd","flood_years":[],"landslide_hist_n":0},"geometry":{"type":"Polygon","coordinates":[[[127.0855,37.4089],[127.08499,37.41324],[127.08079,37.4152],[127.07709,37.41281],[127.0776,37.40847],[127.08181,37.40651],[127.0855,37.4089]]]}},{"type":"Feature","properties":{"h3":"8830e1c9e9fffff","emd_code":"4113164000","emd_name":"고등동","area_km2":0.5083,"edge":false,"slope_mean":16.31,"elev_mean":170.7,"flood_hist_n":0,"flood_depth_max_m":null,"flood_risk_100y":null,"semi_basement_r":null,"elderly_alone_r":0.101,"bldg_age30_r":null,"shelter_min_walk":40,"pop":11700,"hh":5286,"elderly65_r":0.1581,"single_hh_r":0.3842,"source_level":"emd","flood_years":[],"landslide_hist_n":0},"geometry":{"type":"Polygon","coordinates":[[[127.07608,37.42151],[127.07557,37.42585],[127.07136,37.42781],[127.06767,37.42542],[127.06818,37.42108],[127.07238,37.41912],[127.07608,37.42151]]]}},{"type":"Feature","properties":{"h3":"8830e1c9ebfffff","emd_code":"4113164000","emd_name":"고등동","area_km2":0.5084,"edge":false,"slope_mean":15.95,"elev_mean":165.5,"flood_hist_n":0,"flood_depth_max_m":null,"flood_risk_100y":null,"semi_basement_r":null,"elderly_alone_r":0.101,"bldg_age30_r":null,"shelter_min_walk":29,"pop":11700,"hh":5286,"elderly65_r":0.1581,"single_hh_r":0.3842,"source_level":"emd","flood_years":[],"landslide_hist_n":0},"geometry":{"type":"Polygon","coordinates":[[[127.08397,37.42193],[127.08346,37.42628],[127.07926,37.42824],[127.07557,37.42585],[127.07608,37.42151],[127.08028,37.41955],[127.08397,37.42193]]]}},{"type":"Feature","properties":{"h3":"8830e1c9edfffff","emd_code":"4113165000","emd_name":"시흥동","area_km2":0.5082,"edge":false,"slope_mean":19.03,"elev_mean":247.1,"flood_hist_n":0,"flood_depth_max_m":null,"flood_risk_100y":null,"semi_basement_r":null,"elderly_alone_r":0.0771,"bldg_age30_r":null,"shelter_min_walk":39,"pop":3650,"hh":2191,"elderly65_r":0.2104,"single_hh_r":0.6362,"source_level":"emd","flood_years":[],"landslide_hist_n":0},"geometry":{"type":"Polygon","coordinates":[[[127.07289,37.41477],[127.07238,37.41912],[127.06818,37.42108],[127.06449,37.41869],[127.065,37.41435],[127.0692,37.41239],[127.07289,37.41477]]]}},{"type":"Feature","properties":{"h3":"8830e1cd01fffff","emd_code":"4113161000","emd_name":"양지동","area_km2":0.5099,"edge":true,"slope_mean":23.67,"elev_mean":327.2,"flood_hist_n":0,"flood_depth_max_m":null,"flood_risk_100y":null,"semi_basement_r":null,"elderly_alone_r":0.1617,"bldg_age30_r":null,"shelter_min_walk":24,"pop":8854,"hh":4273,"elderly65_r":0.2581,"single_hh_r":0.4294,"source_level":"emd","flood_years":[],"landslide_hist_n":0},"geometry":{"type":"Polygon","coordinates":[[[127.17747,37.47292],[127.17697,37.47727],[127.17276,37.47923],[127.16905,37.47684],[127.16956,37.47249],[127.17377,37.47053],[127.17747,37.47292]]]}},{"type":"Feature","properties":{"h3":"8830e1cd05fffff","emd_code":"4113161000","emd_name":"양지동","area_km2":0.5098,"edge":false,"slope_mean":21.19,"elev_mean":237.3,"flood_hist_n":0,"flood_depth_max_m":null,"flood_risk_100y":null,"semi_basement_r":null,"elderly_alone_r":0.1617,"bldg_age30_r":null,"shelter_min_walk":12,"pop":8854,"hh":4273,"elderly65_r":0.2581,"single_hh_r":0.4294,"source_level":"emd","flood_years":[],"landslide_hist_n":0},"geometry":{"type":"Polygon","coordinates":[[[127.17427,37.46618],[127.17377,37.47053],[127.16956,37.47249],[127.16585,37.47011],[127.16636,37.46576],[127.17057,37.46379],[127.17427,37.46618]]]}},{"type":"Feature","properties":{"h3":"8830e1cd07fffff","emd_code":"4113161000","emd_name":"양지동","area_km2":0.5099,"edge":true,"slope_mean":22.41,"elev_mean":301.8,"flood_hist_n":0,"flood_depth_max_m":null,"flood_risk_100y":null,"semi_basement_r":null,"elderly_alone_r":0.1617,"bldg_age30_r":null,"shelter_min_walk":18,"pop":8854,"hh":4273,"elderly65_r":0.2581,"single_hh_r":0.4294,"source_level":"emd","flood_years":[],"landslide_hist_n":0},"geometry":{"type":"Polygon","coordinates":[[[127.18219,37.4666],[127.18168,37.47096],[127.17747,37.47292],[127.17377,37.47053],[127.17427,37.46618],[127.17848,37.46422],[127.18219,37.4666]]]}},{"type":"Feature","properties":{"h3":"8830e1cd29fffff","emd_code":"4113161000","emd_name":"양지동","area_km2":0.5097,"edge":false,"slope_mean":12.29,"elev_mean":131.2,"flood_hist_n":0,"flood_depth_max_m":null,"flood_risk_100y":null,"semi_basement_r":null,"elderly_alone_r":0.1617,"bldg_age30_r":null,"shelter_min_walk":1,"pop":8854,"hh":4273,"elderly65_r":0.2581,"single_hh_r":0.4294,"source_level":"emd","flood_years":[],"landslide_hist_n":0},"geometry":{"type":"Polygon","coordinates":[[[127.17107,37.45944],[127.17057,37.46379],[127.16636,37.46576],[127.16265,37.46337],[127.16316,37.45902],[127.16737,37.45705],[127.17107,37.45944]]]}},{"type":"Feature","properties":{"h3":"8830e1cd2bfffff","emd_code":"4113161000","emd_name":"양지동","area_km2":0.5098,"edge":true,"slope_mean":19.63,"elev_mean":215.9,"flood_hist_n":0,"flood_depth_max_m":null,"flood_risk_100y":null,"semi_basement_r":null,"elderly_alone_r":0.1617,"bldg_age30_r":null,"shelter_min_walk":10,"pop":8854,"hh":4273,"elderly65_r":0.2581,"single_hh_r":0.4294,"source_level":"emd","flood_years":[],"landslide_hist_n":0},"geometry":{"type":"Polygon","coordinates":[[[127.17898,37.45987],[127.17848,37.46422],[127.17427,37.46618],[127.17057,37.46379],[127.17107,37.45944],[127.17528,37.45748],[127.17898,37.45987]]]}},{"type":"Feature","properties":{"h3":"8830e1cd2dfffff","emd_code":"4113161000","emd_name":"양지동","area_km2":0.5097,"edge":true,"slope_mean":9.47,"elev_mean":103.3,"flood_hist_n":0,"flood_depth_max_m":null,"flood_risk_100y":null,"semi_basement_r":null,"elderly_alone_r":0.1617,"bldg_age30_r":null,"shelter_min_walk":1,"pop":8854,"hh":4273,"elderly65_r":0.2581,"single_hh_r":0.4294,"source_level":"emd","flood_years":[],"landslide_hist_n":0},"geometry":{"type":"Polygon","coordinates":[[[127.16787,37.4527],[127.16737,37.45705],[127.16316,37.45902],[127.15945,37.45663],[127.15996,37.45228],[127.16417,37.45032],[127.16787,37.4527]]]}},{"type":"Feature","properties":{"h3":"8830e1cd61fffff","emd_code":"4113162500","emd_name":"위례동","area_km2":0.5096,"edge":false,"slope_mean":13.67,"elev_mean":103.7,"flood_hist_n":0,"flood_depth_max_m":null,"flood_risk_100y":null,"semi_basement_r":null,"elderly_alone_r":0.1023,"bldg_age30_r":null,"shelter_min_walk":13,"pop":45105,"hh":18677,"elderly65_r":0.1674,"single_hh_r":0.3123,"source_level":"emd","flood_years":[],"landslide_hist_n":0},"geometry":{"type":"Polygon","coordinates":[[[127.15844,37.46533],[127.15794,37.46968],[127.15373,37.47164],[127.15003,37.46925],[127.15053,37.4649],[127.15474,37.46294],[127.15844,37.46533]]]}},{"type":"Feature","properties":{"h3":"8830e1cd63fffff","emd_code":"4113162500","emd_name":"위례동","area_km2":0.5097,"edge":false,"slope_mean":19.84,"elev_mean":201.8,"flood_hist_n":0,"flood_depth_max_m":null,"flood_risk_100y":null,"semi_basement_r":null,"elderly_alone_r":0.1023,"bldg_age30_r":null,"shelter_min_walk":12,"pop":45105,"hh":18677,"elderly65_r":0.1674,"single_hh_r":0.3123,"source_level":"emd","flood_years":[],"landslide_hist_n":0},"geometry":{"type":"Polygon","coordinates":[[[127.16636,37.46576],[127.16585,37.47011],[127.16164,37.47207],[127.15794,37.46968],[127.15844,37.46533],[127.16265,37.46337],[127.16636,37.46576]]]}},{"type":"Feature","properties":{"h3":"8830e1cd65fffff","emd_code":"4113160000","emd_name":"산성동","area_km2":0.5095,"edge":false,"slope_mean":12.91,"elev_mean":115.7,"flood_hist_n":0,"flood_depth_max_m":null,"flood_risk_100y":null,"semi_basement_r":null,"elderly_alone_r":0.1625,"bldg_age30_r":null,"shelter_min_walk":7,"pop":4371,"hh":2099,"elderly65_r":0.2665,"single_hh_r":0.4159,"source_level":"emd","flood_years":[],"landslide_hist_n":0},"geometry":{"type":"Polygon","coordinates":[[[127.15525,37.45859],[127.15474,37.46294],[127.15053,37.4649],[127.14683,37.46252],[127.14734,37.45817],[127.15154,37.4562],[127.15525,37.45859]]]}},{"type":"Feature","properties":{"h3":"8830e1cd67fffff","emd_code":"4113161000","emd_name":"양지동","area_km2":0.5096,"edge":false,"slope_mean":14.37,"elev_mean":139.9,"flood_hist_n":0,"flood_depth_max_m":null,"flood_risk_100y":null,"semi_basement_r":null,"elderly_alone_r":0.1617,"bldg_age30_r":null,"shelter_min_walk":7,"pop":8854,"hh":4273,"elderly65_r":0.2581,"single_hh_r":0.4294,"source_level":"emd","flood_years":[],"landslide_hist_n":0},"geometry":{"type":"Polygon","coordinates":[[[127.16316,37.45902],[127.16265,37.46337],[127.15844,37.46533],[127.15474,37.46294],[127.15525,37.45859],[127.15945,37.45663],[127.16316,37.45902]]]}},{"type":"Feature","properties":{"h3":"8830e1cd69fffff","emd_code":"4113162500","emd_name":"위례동","area_km2":0.5095,"edge":false,"slope_mean":3.77,"elev_mean":50.1,"flood_hist_n":0,"flood_depth_max_m":null,"flood_risk_100y":null,"semi_basement_r":null,"elderly_alone_r":0.1023,"bldg_age30_r":null,"shelter_min_walk":2,"pop":45105,"hh":18677,"elderly65_r":0.1674,"single_hh_r":0.3123,"source_level":"emd","flood_years":[],"landslide_hist_n":0},"geometry":{"type":"Polygon","coordinates":[[[127.15373,37.47164],[127.15322,37.47599],[127.14902,37.47795],[127.14531,37.47556],[127.14582,37.47121],[127.15003,37.46925],[127.15373,37.47164]]]}},{"type":"Feature","properties":{"h3":"8830e1cd6bfffff","emd_code":"4113162500","emd_name":"위례동","area_km2":0.5096,"edge":true,"slope_mean":11.72,"elev_mean":96.9,"flood_hist_n":0,"flood_depth_max_m":null,"flood_risk_100y":null,"semi_basement_r":null,"elderly_alone_r":0.1023,"bldg_age30_r":null,"shelter_min_walk":4,"pop":45105,"hh":18677,"elderly65_r":0.1674,"single_hh_r":0.3123,"source_level":"emd","flood_years":[],"landslide_hist_n":0},"geometry":{"type":"Polygon","coordinates":[[[127.16164,37.47207],[127.16114,37.47642],[127.15693,37.47838],[127.15322,37.47599],[127.15373,37.47164],[127.15794,37.46968],[127.16164,37.47207]]]}},{"type":"Feature","properties":{"h3":"8830e1cd6dfffff","emd_code":"4113162500","emd_name":"위례동","area_km2":0.5095,"edge":false,"slope_mean":6.25,"elev_mean":49.9,"flood_hist_n":0,"flood_depth_max_m":null,"flood_risk_100y":null,"semi_basement_r":null,"elderly_alone_r":0.1023,"bldg_age30_r":null,"shelter_min_walk":5,"pop":45105,"hh":18677,"elderly65_r":0.1674,"single_hh_r":0.3123,"source_level":"emd","flood_years":[],"landslide_hist_n":0},"geometry":{"type":"Polygon","coordinates":[[[127.15053,37.4649],[127.15003,37.46925],[127.14582,37.47121],[127.14212,37.46883],[127.14262,37.46448],[127.14683,37.46252],[127.15053,37.4649]]]}}]}