{"type":"FeatureCollection","name":"grid_41133_h3r8","meta":{"sgg_code":"41133","h3_res":8,"n_cells":73,"dem":"Copernicus GLO-30 (bbox-mean)","crs":"EPSG:4326","jumin_basis":"2026-07","flood_src":"행안부 침수흔적도(전국, 재난안전데이터공유플랫폼)","landslide_src":"행안부 산사태 발생이력"},"features":[{"type":"Feature","properties":{"h3":"8830e1504bfffff","emd_code":"4113367000","emd_name":"도촌동","area_km2":0.5096,"edge":true,"slope_mean":19.39,"elev_mean":258.1,"flood_hist_n":0,"flood_depth_max_m":null,"flood_risk_100y":null,"semi_basement_r":null,"elderly_alone_r":0.0945,"bldg_age30_r":null,"shelter_min_walk":18,"pop":25548,"hh":10823,"elderly65_r":0.1926,"single_hh_r":0.3126,"source_level":"emd","flood_years":[],"landslide_hist_n":0},"geometry":{"type":"Polygon","coordinates":[[[127.17392,37.40051],[127.17342,37.40486],[127.16921,37.40682],[127.16551,37.40444],[127.16601,37.40009],[127.17022,37.39812],[127.17392,37.40051]]]}},{"type":"Feature","properties":{"h3":"8830e15059fffff","emd_code":"4113367000","emd_name":"도촌동","area_km2":0.5098,"edge":true,"slope_mean":17.33,"elev_mean":237.8,"flood_hist_n":0,"flood_depth_max_m":null,"flood_risk_100y":null,"semi_basement_r":null,"elderly_alone_r":0.0945,"bldg_age30_r":null,"shelter_min_walk":24,"pop":25548,"hh":10823,"elderly65_r":0.1926,"single_hh_r":0.3126,"source_level":"emd","flood_years":[],"landslide_hist_n":0},"geometry":{"type":"Polygon","coordinates":[[[127.18503,37.40766],[127.18452,37.41201],[127.18032,37.41398],[127.17661,37.41159],[127.17712,37.40724],[127.18132,37.40528],[127.18503,37.40766]]]}},{"type":"Feature","properties":{"h3":"8830e15201fffff","emd_code":"4113366000","emd_name":"하대원동","area_km2":0.5094,"edge":false,"slope_mean":11.29,"elev_mean":80.6,"flood_hist_n":0,"flood_depth_max_m":null,"flood_risk_100y":null,"semi_basement_r":null,"elderly_alone_r":0.1083,"bldg_age30_r":null,"shelter_min_walk":3,"pop":19499,"hh":8403,"elderly65_r":0.2374,"single_hh_r":0.321,"source_level":"emd","flood_years":[],"landslide_hist_n":0},"geometry":{"type":"Polygon","coordinates":[[[127.15508,37.42576],[127.15458,37.43011],[127.15037,37.43207],[127.14667,37.42969],[127.14717,37.42534],[127.15138,37.42337],[127.15508,37.42576]]]}},{"type":"Feature","properties":{"h3":"8830e15203fffff","emd_code":"4113366000","emd_name":"하대원동","area_km2":0.5095,"edge":false,"slope_mean":13.15,"elev_mean":114.3,"flood_hist_n":0,"flood_depth_max_m":null,"flood_risk_100y":null,"semi_basement_r":null,"elderly_alone_r":0.1083,"bldg_age30_r":null,"shelter_min_walk":5,"pop":19499,"hh":8403,"elderly65_r":0.2374,"single_hh_r":0.321,"source_level":"emd","flood_years":[],"landslide_hist_n":0},"geometry":{"type":"Polygon","coordinates":[[[127.16299,37.42618],[127.16248,37.43053],[127.15828,37.4325],[127.15458,37.43011],[127.15508,37.42576],[127.15929,37.4238],[127.16299,37.42618]]]}},{"type":"Feature","properties":{"h3":"8830e15205fffff","emd_code":"4113367000","emd_name":"도촌동","area_km2":0.5094,"edge":false,"slope_mean":14.1,"elev_mean":100.5,"flood_hist_n":0,"flood_depth_max_m":null,"flood_risk_100y":null,"semi_basement_r":null,"elderly_alone_r":0.0945,"bldg_age30_r":null,"shelter_min_walk":13,"pop":25548,"hh":10823,"elderly65_r":0.1926,"single_hh_r":0.3126,"source_level":"emd","flood_years":[],"landslide_hist_n":0},"geometry":{"type":"Polygon","coordinates":[[[127.15189,37.41902],[127.15138,37.42337],[127.14717,37.42534],[127.14347,37.42295],[127.14398,37.4186],[127.14819,37.41664],[127.15189,37.41902]]]}},{"type":"Feature","properties":{"h3":"8830e15207fffff","emd_code":"4113367000","emd_name":"도촌동","area_km2":0.5095,"edge":false,"slope_mean":11.85,"elev_mean":87.0,"flood_hist_n":0,"flood_depth_max_m":null,"flood_risk_100y":null,"semi_basement_r":null,"elderly_alone_r":0.0945,"bldg_age30_r":null,"shelter_min_walk":15,"pop":25548,"hh":10823,"elderly65_r":0.1926,"single_hh_r":0.3126,"source_level":"emd","flood_years":[],"landslide_hist_n":0},"geometry":{"type":"Polygon","coordinates":[[[127.15979,37.41945],[127.15929,37.4238],[127.15508,37.42576],[127.15138,37.42337],[127.15189,37.41902],[127.15609,37.41706],[127.15979,37.41945]]]}},{"type":"Feature","properties":{"h3":"8830e15209fffff","emd_code":"4113351000","emd_name":"성남동","area_km2":0.5094,"edge":false,"slope_mean":10.41,"elev_mean":76.4,"flood_hist_n":0,"flood_depth_max_m":null,"flood_risk_100y":null,"semi_basement_r":null,"elderly_alone_r":0.1394,"bldg_age30_r":null,"shelter_min_walk":6,"pop":31786,"hh":18486,"elderly65_r":0.2332,"single_hh_r":0.5939,"source_level":"emd","flood_years":[],"landslide_hist_n":0},"geometry":{"type":"Polygon","coordinates":[[[127.15037,37.43207],[127.14986,37.43642],[127.14566,37.43838],[127.14196,37.436],[127.14246,37.43165],[127.14667,37.42969],[127.15037,37.43207]]]}},{"type":"Feature","properties":{"h3":"8830e1520bfffff","emd_code":"4113366000","emd_name":"하대원동","area_km2":0.5095,"edge":false,"slope_mean":10.4,"elev_mean":91.5,"flood_hist_n":0,"flood_depth_max_m":null,"flood_risk_100y":null,"semi_basement_r":null,"elderly_alone_r":0.1083,"bldg_age30_r":null,"shelter_min_walk":5,"pop":19499,"hh":8403,"elderly65_r":0.2374,"single_hh_r":0.321,"source_level":"emd","flood_years":[],"landslide_hist_n":0},"geometry":{"type":"Polygon","coordinates":[[[127.15828,37.4325],[127.15777,37.43684],[127.15357,37.43881],[127.14986,37.43642],[127.15037,37.43207],[127.15458,37.43011],[127.15828,37.4325]]]}},{"type":"Feature","properties":{"h3":"8830e1520dfffff","emd_code":"4113366000","emd_name":"하대원동","area_km2":0.5093,"edge":false,"slope_mean":11.17,"elev_mean":68.3,"flood_hist_n":0,"flood_depth_max_m":null,"flood_risk_100y":null,"semi_basement_r":null,"elderly_alone_r":0.1083,"bldg_age30_r":null,"shelter_min_walk":5,"pop":19499,"hh":8403,"elderly65_r":0.2374,"single_hh_r":0.321,"source_level":"emd","flood_years":[],"landslide_hist_n":0},"geometry":{"type":"Polygon","coordinates":[[[127.14717,37.42534],[127.14667,37.42969],[127.14246,37.43165],[127.13876,37.42926],[127.13927,37.42491],[127.14347,37.42295],[127.14717,37.42534]]]}},{"type":"Feature","properties":{"h3":"8830e15211fffff","emd_code":"4113357000","emd_name":"상대원1동","area_km2":0.5097,"edge":false,"slope_mean":8.15,"elev_mean":97.4,"flood_hist_n":0,"flood_depth_max_m":null,"flood_risk_100y":null,"semi_basement_r":null,"elderly_alone_r":0.1444,"bldg_age30_r":null,"shelter_min_walk":2,"pop":22279,"hh":11551,"elderly65_r":0.2499,"single_hh_r":0.4717,"source_level":"emd","flood_years":[],"landslide_hist_n":0},"geometry":{"type":"Polygon","coordinates":[[[127.1741,37.43334],[127.17359,37.43769],[127.16938,37.43965],[127.16568,37.43727],[127.16619,37.43292],[127.17039,37.43096],[127.1741,37.43334]]]}},{"type":"Feature","properties":{"h3":"8830e15213fffff","emd_code":"4113357000","emd_name":"상대원1동","area_km2":0.5098,"edge":false,"slope_mean":12.35,"elev_mean":127.7,"flood_hist_n":0,"flood_depth_max_m":null,"flood_risk_100y":null,"semi_basement_r":null,"elderly_alone_r":0.1444,"bldg_age30_r":null,"shelter_min_walk":7,"pop":22279,"hh":11551,"elderly65_r":0.2499,"single_hh_r":0.4717,"source_level":"emd","flood_years":[],"landslide_hist_n":0},"geometry":{"type":"Polygon","coordinates":[[[127.18201,37.43376],[127.1815,37.43811],[127.17729,37.44008],[127.17359,37.43769],[127.1741,37.43334],[127.1783,37.43138],[127.18201,37.43376]]]}},{"type":"Feature","properties":{"h3":"8830e15215fffff","emd_code":"4113357000","emd_name":"상대원1동","area_km2":0.5096,"edge":false,"slope_mean":13.56,"elev_mean":131.6,"flood_hist_n":0,"flood_depth_max_m":null,"flood_risk_100y":null,"semi_basement_r":null,"elderly_alone_r":0.1444,"bldg_age30_r":null,"shelter_min_walk":7,"pop":22279,"hh":11551,"elderly65_r":0.2499,"single_hh_r":0.4717,"source_level":"emd","flood_years":[],"landslide_hist_n":0},"geometry":{"type":"Polygon","coordinates":[[[127.1709,37.42661],[127.17039,37.43096],[127.16619,37.43292],[127.16248,37.43053],[127.16299,37.42618],[127.16719,37.42422],[127.1709,37.42661]]]}},{"type":"Feature","properties":{"h3":"8830e15217fffff","emd_code":"4113357000","emd_name":"상대원1동","area_km2":0.5098,"edge":false,"slope_mean":13.22,"elev_mean":133.6,"flood_hist_n":0,"flood_depth_max_m":null,"flood_risk_100y":null,"semi_basement_r":null,"elderly_alone_r":0.1444,"bldg_age30_r":null,"shelter_min_walk":5,"pop":22279,"hh":11551,"elderly65_r":0.2499,"single_hh_r":0.4717,"source_level":"emd","flood_years":[],"landslide_hist_n":0},"geometry":{"type":"Polygon","coordinates":[[[127.17881,37.42703],[127.1783,37.43138],[127.1741,37.43334],[127.17039,37.43096],[127.1709,37.42661],[127.1751,37.42464],[127.17881,37.42703]]]}},{"type":"Feature","properties":{"h3":"8830e15219fffff","emd_code":"4113359000","emd_name":"상대원3동","area_km2":0.5097,"edge":false,"slope_mean":7.34,"elev_mean":112.9,"flood_hist_n":0,"flood_depth_max_m":null,"flood_risk_100y":null,"semi_basement_r":null,"elderly_alone_r":0.1961,"bldg_age30_r":null,"shelter_min_walk":3,"pop":11025,"hh":6329,"elderly65_r":0.2814,"single_hh_r":0.5578,"source_level":"emd","flood_years":[],"landslide_hist_n":0},"geometry":{"type":"Polygon","coordinates":[[[127.16938,37.43965],[127.16888,37.444],[127.16467,37.44597],[127.16097,37.44358],[127.16147,37.43923],[127.16568,37.43727],[127.16938,37.43965]]]}},{"type":"Feature","properties":{"h3":"8830e1521bfffff","emd_code":"4113357000","emd_name":"상대원1동","area_km2":0.5098,"edge":false,"slope_mean":11.83,"elev_mean":133.5,"flood_hist_n":0,"flood_depth_max_m":null,"flood_risk_100y":null,"semi_basement_r":null,"elderly_alone_r":0.1444,"bldg_age30_r":null,"shelter_min_walk":4,"pop":22279,"hh":11551,"elderly65_r":0.2499,"single_hh_r":0.4717,"source_level":"emd","flood_years":[],"landslide_hist_n":0},"geometry":{"type":"Polygon","coordinates":[[[127.17729,37.44008],[127.17679,37.44443],[127.17258,37.44639],[127.16888,37.444],[127.16938,37.43965],[127.17359,37.43769],[127.17729,37.44008]]]}},{"type":"Feature","properties":{"h3":"8830e1521dfffff","emd_code":"4113357000","emd_name":"상대원1동","area_km2":0.5096,"edge":false,"slope_mean":9.0,"elev_mean":94.6,"flood_hist_n":0,"flood_depth_max_m":null,"flood_risk_100y":null,"semi_basement_r":null,"elderly_alone_r":0.1444,"bldg_age30_r":null,"shelter_min_walk":3,"pop":22279,"hh":11551,"elderly65_r":0.2499,"single_hh_r":0.4717,"source_level":"emd","flood_years":[],"landslide_hist_n":0},"geometry":{"type":"Polygon","coordinates":[[[127.16619,37.43292],[127.16568,37.43727],[127.16147,37.43923],[127.15777,37.43684],[127.15828,37.4325],[127.16248,37.43053],[127.16619,37.43292]]]}},{"type":"Feature","properties":{"h3":"8830e15221fffff","emd_code":"4113367000","emd_name":"도촌동","area_km2":0.5093,"edge":true,"slope_mean":13.57,"elev_mean":96.3,"flood_hist_n":0,"flood_depth_max_m":null,"flood_risk_100y":null,"semi_basement_r":null,"elderly_alone_r":0.0945,"bldg_age30_r":null,"shelter_min_walk":5,"pop":25548,"hh":10823,"elderly65_r":0.1926,"single_hh_r":0.3126,"source_level":"emd","flood_years":[],"landslide_hist_n":0},"geometry":{"type":"Polygon","coordinates":[[[127.1534,37.40598],[127.1529,37.41033],[127.14869,37.41229],[127.14499,37.4099],[127.1455,37.40556],[127.1497,37.40359],[127.1534,37.40598]]]}},{"type":"Feature","properties":{"h3":"8830e15223fffff","emd_code":"4113367000","emd_name":"도촌동","area_km2":0.5095,"edge":true,"slope_mean":14.73,"elev_mean":122.3,"flood_hist_n":0,"flood_depth_max_m":null,"flood_risk_100y":null,"semi_basement_r":null,"elderly_alone_r":0.0945,"bldg_age30_r":null,"shelter_min_walk":5,"pop":25548,"hh":10823,"elderly65_r":0.1926,"single_hh_r":0.3126,"source_level":"emd","flood_years":[],"landslide_hist_n":0},"geometry":{"type":"Polygon","coordinates":[[[127.16131,37.4064],[127.1608,37.41075],[127.1566,37.41271],[127.1529,37.41033],[127.1534,37.40598],[127.1576,37.40401],[127.16131,37.4064]]]}},{"type":"Feature","properties":{"h3":"8830e15229fffff","emd_code":"4113367000","emd_name":"도촌동","area_km2":0.5093,"edge":true,"slope_mean":11.09,"elev_mean":69.5,"flood_hist_n":0,"flood_depth_max_m":null,"flood_risk_100y":null,"semi_basement_r":null,"elderly_alone_r":0.0945,"bldg_age30_r":null,"shelter_min_walk":3,"pop":25548,"hh":10823,"elderly65_r":0.1926,"single_hh_r":0.3126,"source_level":"emd","flood_years":[],"landslide_hist_n":0},"geometry":{"type":"Polygon","coordinates":[[[127.14869,37.41229],[127.14819,37.41664],[127.14398,37.4186],[127.14028,37.41622],[127.14079,37.41187],[127.14499,37.4099],[127.14869,37.41229]]]}},{"type":"Feature","properties":{"h3":"8830e1522bfffff","emd_code":"4113367000","emd_name":"도촌동","area_km2":0.5094,"edge":false,"slope_mean":12.23,"elev_mean":85.1,"flood_hist_n":0,"flood_depth_max_m":null,"flood_risk_100y":null,"semi_basement_r":null,"elderly_alone_r":0.0945,"bldg_age30_r":null,"shelter_min_walk":3,"pop":25548,"hh":10823,"elderly65_r":0.1926,"single_hh_r":0.3126,"source_level":"emd","flood_years":[],"landslide_hist_n":0},"geometry":{"type":"Polygon","coordinates":[[[127.1566,37.41271],[127.15609,37.41706],[127.15189,37.41902],[127.14819,37.41664],[127.14869,37.41229],[127.1529,37.41033],[127.1566,37.41271]]]}},{"type":"Feature","properties":{"h3":"8830e15231fffff","emd_code":"4113367000","emd_name":"도촌동","area_km2":0.5096,"edge":false,"slope_mean":16.96,"elev_mean":152.7,"flood_hist_n":0,"flood_depth_max_m":null,"flood_risk_100y":null,"semi_basement_r":null,"elderly_alone_r":0.0945,"bldg_age30_r":null,"shelter_min_walk":9,"pop":25548,"hh":10823,"elderly65_r":0.1926,"single_hh_r":0.3126,"source_level":"emd","flood_years":[],"landslide_hist_n":0},"geometry":{"type":"Polygon","coordinates":[[[127.17241,37.41356],[127.1719,37.41791],[127.1677,37.41987],[127.164,37.41748],[127.1645,37.41313],[127.16871,37.41117],[127.17241,37.41356]]]}},{"type":"Feature","properties":{"h3":"8830e15233fffff","emd_code":"4113367000","emd_name":"도촌동","area_km2":0.5097,"edge":false,"slope_mean":18.6,"elev_mean":250.4,"flood_hist_n":0,"flood_depth_max_m":null,"flood_risk_100y":null,"semi_basement_r":null,"elderly_alone_r":0.0945,"bldg_age30_r":null,"shelter_min_walk":19,"pop":25548,"hh":10823,"elderly65_r":0.1926,"single_hh_r":0.3126,"source_level":"emd","flood_years":[],"landslide_hist_n":0},"geometry":{"type":"Polygon","coordinates":[[[127.18032,37.41398],[127.17981,37.41833],[127.17561,37.42029],[127.1719,37.41791],[127.17241,37.41356],[127.17661,37.41159],[127.18032,37.41398]]]}},{"type":"Feature","properties":{"h3":"8830e15235fffff","emd_code":"4113367000","emd_name":"도촌동","area_km2":0.5096,"edge":false,"slope_mean":15.94,"elev_mean":150.5,"flood_hist_n":0,"flood_depth_max_m":null,"flood_risk_100y":null,"semi_basement_r":null,"elderly_alone_r":0.0945,"bldg_age30_r":null,"shelter_min_walk":6,"pop":25548,"hh":10823,"elderly65_r":0.1926,"single_hh_r":0.3126,"source_level":"emd","flood_years":[],"landslide_hist_n":0},"geometry":{"type":"Polygon","coordinates":[[[127.16921,37.40682],[127.16871,37.41117],[127.1645,37.41313],[127.1608,37.41075],[127.16131,37.4064],[127.16551,37.40444],[127.16921,37.40682]]]}},{"type":"Feature","properties":{"h3":"8830e15237fffff","emd_code":"4113367000","emd_name":"도촌동","area_km2":0.5097,"edge":false,"slope_mean":21.15,"elev_mean":234.4,"flood_hist_n":0,"flood_depth_max_m":null,"flood_risk_100y":null,"semi_basement_r":null,"elderly_alone_r":0.0945,"bldg_age30_r":null,"shelter_min_walk":14,"pop":25548,"hh":10823,"elderly65_r":0.1926,"single_hh_r":0.3126,"source_level":"emd","flood_years":[],"landslide_hist_n":0},"geometry":{"type":"Polygon","coordinates":[[[127.17712,37.40724],[127.17661,37.41159],[127.17241,37.41356],[127.16871,37.41117],[127.16921,37.40682],[127.17342,37.40486],[127.17712,37.40724]]]}},{"type":"Feature","properties":{"h3":"8830e15239fffff","emd_code":"4113367000","emd_name":"도촌동","area_km2":0.5096,"edge":false,"slope_mean":13.82,"elev_mean":109.2,"flood_hist_n":0,"flood_depth_max_m":null,"flood_risk_100y":null,"semi_basement_r":null,"elderly_alone_r":0.0945,"bldg_age30_r":null,"shelter_min_walk":16,"pop":25548,"hh":10823,"elderly65_r":0.1926,"single_hh_r":0.3126,"source_level":"emd","flood_years":[],"landslide_hist_n":0},"geometry":{"type":"Polygon","coordinates":[[[127.1677,37.41987],[127.16719,37.42422],[127.16299,37.42618],[127.15929,37.4238],[127.15979,37.41945],[127.164,37.41748],[127.1677,37.41987]]]}},{"type":"Feature","properties":{"h3":"8830e1523bfffff","emd_code":"4113367000","emd_name":"도촌동","area_km2":0.5097,"edge":false,"slope_mean":16.39,"elev_mean":145.1,"flood_hist_n":0,"flood_depth_max_m":null,"flood_risk_100y":null,"semi_basement_r":null,"elderly_alone_r":0.0945,"bldg_age30_r":null,"shelter_min_walk":15,"pop":25548,"hh":10823,"elderly65_r":0.1926,"single_hh_r":0.3126,"source_level":"emd","flood_years":[],"landslide_hist_n":0},"geometry":{"type":"Polygon","coordinates":[[[127.17561,37.42029],[127.1751,37.42464],[127.1709,37.42661],[127.16719,37.42422],[127.1677,37.41987],[127.1719,37.41791],[127.17561,37.42029]]]}},{"type":"Feature","properties":{"h3":"8830e1523dfffff","emd_code":"4113367000","emd_name":"도촌동","area_km2":0.5095,"edge":false,"slope_mean":13.53,"elev_mean":95.0,"flood_hist_n":0,"flood_depth_max_m":null,"flood_risk_100y":null,"semi_basement_r":null,"elderly_alone_r":0.0945,"bldg_age30_r":null,"shelter_min_walk":6,"pop":25548,"hh":10823,"elderly65_r":0.1926,"single_hh_r":0.3126,"source_level":"emd","flood_years":[],"landslide_hist_n":0},"geometry":{"type":"Polygon","coordinates":[[[127.1645,37.41313],[127.164,37.41748],[127.15979,37.41945],[127.15609,37.41706],[127.1566,37.41271],[127.1608,37.41075],[127.1645,37.41313]]]}},{"type":"Feature","properties":{"h3":"8830e15243fffff","emd_code":"4113351000","emd_name":"성남동","area_km2":0.5093,"edge":true,"slope_mean":8.33,"elev_mean":57.1,"flood_hist_n":0,"flood_depth_max_m":null,"flood_risk_100y":null,"semi_basement_r":null,"elderly_alone_r":0.1394,"bldg_age30_r":null,"shelter_min_walk":4,"pop":31786,"hh":18486,"elderly65_r":0.2332,"single_hh_r":0.5939,"source_level":"emd","flood_years":[],"landslide_hist_n":0},"geometry":{"type":"Polygon","coordinates":[[[127.14566,37.43838],[127.14515,37.44273],[127.14095,37.44469],[127.13725,37.44231],[127.13775,37.43796],[127.14196,37.436],[127.14566,37.43838]]]}},{"type":"Feature","properties":{"h3":"8830e15245fffff","emd_code":"4113351000","emd_name":"성남동","area_km2":0.5091,"edge":false,"slope_mean":5.44,"elev_mean":38.1,"flood_hist_n":0,"flood_depth_max_m":null,"flood_risk_100y":null,"semi_basement_r":null,"elderly_alone_r":0.1394,"bldg_age30_r":null,"shelter_min_walk":2,"pop":31786,"hh":18486,"elderly65_r":0.2332,"single_hh_r":0.5939,"source_level":"emd","flood_years":[],"landslide_hist_n":0},"geometry":{"type":"Polygon","coordinates":[[[127.13456,37.43122],[127.13405,37.43557],[127.12985,37.43753],[127.12615,37.43515],[127.12665,37.4308],[127.13086,37.42884],[127.13456,37.43122]]]}},{"type":"Feature","properties":{"h3":"8830e15247fffff","emd_code":"4113351000","emd_name":"성남동","area_km2":0.5093,"edge":false,"slope_mean":7.43,"elev_mean":47.3,"flood_hist_n":0,"flood_depth_max_m":null,"flood_risk_100y":null,"semi_basement_r":null,"elderly_alone_r":0.1394,"bldg_age30_r":null,"shelter_min_walk":4,"pop":31786,"hh":18486,"elderly65_r":0.2332,"single_hh_r":0.5939,"source_level":"emd","flood_years":[],"landslide_hist_n":0},"geometry":{"type":"Polygon","coordinates":[[[127.14246,37.43165],[127.14196,37.436],[127.13775,37.43796],[127.13405,37.43557],[127.13456,37.43122],[127.13876,37.42926],[127.14246,37.43165]]]}},{"type":"Feature","properties":{"h3":"8830e15253fffff","emd_code":"4113354000","emd_name":"금광2동","area_km2":0.5096,"edge":false,"slope_mean":7.4,"elev_mean":79.6,"flood_hist_n":0,"flood_depth_max_m":null,"flood_risk_100y":null,"semi_basement_r":null,"elderly_alone_r":0.1377,"bldg_age30_r":null,"shelter_min_walk":4,"pop":22424,"hh":11449,"elderly65_r":0.2389,"single_hh_r":0.4769,"source_level":"emd","flood_years":[],"landslide_hist_n":0},"geometry":{"type":"Polygon","coordinates":[[[127.16467,37.44597],[127.16417,37.45032],[127.15996,37.45228],[127.15626,37.44989],[127.15676,37.44554],[127.16097,37.44358],[127.16467,37.44597]]]}},{"type":"Feature","properties":{"h3":"8830e15255fffff","emd_code":"4113352500","emd_name":"중앙동","area_km2":0.5094,"edge":false,"slope_mean":8.85,"elev_mean":69.9,"flood_hist_n":0,"flood_depth_max_m":null,"flood_risk_100y":null,"semi_basement_r":null,"elderly_alone_r":0.1453,"bldg_age30_r":null,"shelter_min_walk":4,"pop":16523,"hh":7513,"elderly65_r":0.2039,"single_hh_r":0.3731,"source_level":"emd","flood_years":[],"landslide_hist_n":0},"geometry":{"type":"Polygon","coordinates":[[[127.15357,37.43881],[127.15306,37.44316],[127.14885,37.44512],[127.14515,37.44273],[127.14566,37.43838],[127.14986,37.43642],[127.15357,37.43881]]]}},{"type":"Feature","properties":{"h3":"8830e15257fffff","emd_code":"4113352500","emd_name":"중앙동","area_km2":0.5095,"edge":false,"slope_mean":8.13,"elev_mean":86.8,"flood_hist_n":0,"flood_depth_max_m":null,"flood_risk_100y":null,"semi_basement_r":null,"elderly_alone_r":0.1453,"bldg_age30_r":null,"shelter_min_walk":3,"pop":16523,"hh":7513,"elderly65_r":0.2039,"single_hh_r":0.3731,"source_level":"emd","flood_years":[],"landslide_hist_n":0},"geometry":{"type":"Polygon","coordinates":[[[127.16147,37.43923],[127.16097,37.44358],[127.15676,37.44554],[127.15306,37.44316],[127.15357,37.43881],[127.15777,37.43684],[127.16147,37.43923]]]}},{"type":"Feature","properties":{"h3":"8830e15261fffff","emd_code":"4113367000","emd_name":"도촌동","area_km2":0.5091,"edge":false,"slope_mean":7.04,"elev_mean":43.5,"flood_hist_n":0,"flood_depth_max_m":null,"flood_risk_100y":null,"semi_basement_r":null,"elderly_alone_r":0.0945,"bldg_age30_r":null,"shelter_min_walk":6,"pop":25548,"hh":10823,"elderly65_r":0.1926,"single_hh_r":0.3126,"source_level":"emd","flood_years":[],"landslide_hist_n":0},"geometry":{"type":"Polygon","coordinates":[[[127.13608,37.41818],[127.13557,37.42253],[127.13137,37.42449],[127.12767,37.4221],[127.12817,37.41775],[127.13238,37.41579],[127.13608,37.41818]]]}},{"type":"Feature","properties":{"h3":"8830e15263fffff","emd_code":"4113367000","emd_name":"도촌동","area_km2":0.5092,"edge":false,"slope_mean":12.17,"elev_mean":78.9,"flood_hist_n":0,"flood_depth_max_m":null,"flood_risk_100y":null,"semi_basement_r":null,"elderly_alone_r":0.0945,"bldg_age30_r":null,"shelter_min_walk":9,"pop":25548,"hh":10823,"elderly65_r":0.1926,"single_hh_r":0.3126,"source_level":"emd","flood_years":[],"landslide_hist_n":0},"geometry":{"type":"Polygon","coordinates":[[[127.14398,37.4186],[127.14347,37.42295],[127.13927,37.42491],[127.13557,37.42253],[127.13608,37.41818],[127.14028,37.41622],[127.14398,37.4186]]]}},{"type":"Feature","properties":{"h3":"8830e15265fffff","emd_code":"4113367000","emd_name":"도촌동","area_km2":0.5091,"edge":true,"slope_mean":6.55,"elev_mean":37.3,"flood_hist_n":0,"flood_depth_max_m":null,"flood_risk_100y":null,"semi_basement_r":null,"elderly_alone_r":0.0945,"bldg_age30_r":null,"shelter_min_walk":3,"pop":25548,"hh":10823,"elderly65_r":0.1926,"single_hh_r":0.3126,"source_level":"emd","flood_years":[],"landslide_hist_n":0},"geometry":{"type":"Polygon","coordinates":[[[127.13288,37.41144],[127.13238,37.41579],[127.12817,37.41775],[127.12448,37.41537],[127.12498,37.41102],[127.12919,37.40906],[127.13288,37.41144]]]}},{"type":"Feature","properties":{"h3":"8830e15267fffff","emd_code":"4113367000","emd_name":"도촌동","area_km2":0.5092,"edge":true,"slope_mean":5.46,"elev_mean":46.8,"flood_hist_n":0,"flood_depth_max_m":null,"flood_risk_100y":null,"semi_basement_r":null,"elderly_alone_r":0.0945,"bldg_age30_r":null,"shelter_min_walk":1,"pop":25548,"hh":10823,"elderly65_r":0.1926,"single_hh_r":0.3126,"source_level":"emd","flood_years":[],"landslide_hist_n":0},"geometry":{"type":"Polygon","coordinates":[[[127.14079,37.41187],[127.14028,37.41622],[127.13608,37.41818],[127.13238,37.41579],[127.13288,37.41144],[127.13709,37.40948],[127.14079,37.41187]]]}},{"type":"Feature","properties":{"h3":"8830e15269fffff","emd_code":"4113351000","emd_name":"성남동","area_km2":0.5091,"edge":false,"slope_mean":3.88,"elev_mean":30.1,"flood_hist_n":0,"flood_depth_max_m":null,"flood_risk_100y":null,"semi_basement_r":null,"elderly_alone_r":0.1394,"bldg_age30_r":null,"shelter_min_walk":10,"pop":31786,"hh":18486,"elderly65_r":0.2332,"single_hh_r":0.5939,"source_level":"emd","flood_years":[],"landslide_hist_n":0},"geometry":{"type":"Polygon","coordinates":[[[127.13137,37.42449],[127.13086,37.42884],[127.12665,37.4308],[127.12296,37.42841],[127.12346,37.42406],[127.12767,37.4221],[127.13137,37.42449]]]}},{"type":"Feature","properties":{"h3":"8830e1526bfffff","emd_code":"4113366000","emd_name":"하대원동","area_km2":0.5092,"edge":false,"slope_mean":8.35,"elev_mean":53.1,"flood_hist_n":0,"flood_depth_max_m":null,"flood_risk_100y":null,"semi_basement_r":null,"elderly_alone_r":0.1083,"bldg_age30_r":null,"shelter_min_walk":6,"pop":19499,"hh":8403,"elderly65_r":0.2374,"single_hh_r":0.321,"source_level":"emd","flood_years":[],"landslide_hist_n":0},"geometry":{"type":"Polygon","coordinates":[[[127.13927,37.42491],[127.13876,37.42926],[127.13456,37.43122],[127.13086,37.42884],[127.13137,37.42449],[127.13557,37.42253],[127.13927,37.42491]]]}},{"type":"Feature","properties":{"h3":"8830e1526dfffff","emd_code":"4113367000","emd_name":"도촌동","area_km2":0.509,"edge":false,"slope_mean":3.35,"elev_mean":29.7,"flood_hist_n":0,"flood_depth_max_m":null,"flood_risk_100y":null,"semi_basement_r":null,"elderly_alone_r":0.0945,"bldg_age30_r":null,"shelter_min_walk":5,"pop":25548,"hh":10823,"elderly65_r":0.1926,"single_hh_r":0.3126,"source_level":"emd","flood_years":[],"landslide_hist_n":0},"geometry":{"type":"Polygon","coordinates":[[[127.12817,37.41775],[127.12767,37.4221],[127.12346,37.42406],[127.11977,37.42168],[127.12027,37.41733],[127.12448,37.41537],[127.12817,37.41775]]]}},{"type":"Feature","properties":{"h3":"8830e1528dfffff","emd_code":"4113367000","emd_name":"도촌동","area_km2":0.5101,"edge":true,"slope_mean":20.56,"elev_mean":258.4,"flood_hist_n":0,"flood_depth_max_m":null,"flood_risk_100y":null,"semi_basement_r":null,"elderly_alone_r":0.0945,"bldg_age30_r":null,"shelter_min_walk":29,"pop":25548,"hh":10823,"elderly65_r":0.1926,"single_hh_r":0.3126,"source_level":"emd","flood_years":[],"landslide_hist_n":0},"geometry":{"type":"Polygon","coordinates":[[[127.20254,37.42829],[127.20204,37.43264],[127.19783,37.43461],[127.19413,37.43222],[127.19463,37.42787],[127.19884,37.4259],[127.20254,37.42829]]]}},{"type":"Feature","properties":{"h3":"8830e152c1fffff","emd_code":"4113357000","emd_name":"상대원1동","area_km2":0.51,"edge":false,"slope_mean":22.11,"elev_mean":313.0,"flood_hist_n":0,"flood_depth_max_m":null,"flood_risk_100y":null,"semi_basement_r":null,"elderly_alone_r":0.1444,"bldg_age30_r":null,"shelter_min_walk":24,"pop":22279,"hh":11551,"elderly65_r":0.2499,"single_hh_r":0.4717,"source_level":"emd","flood_years":[],"landslide_hist_n":0},"geometry":{"type":"Polygon","coordinates":[[[127.19312,37.44092],[127.19262,37.44527],[127.18841,37.44724],[127.1847,37.44485],[127.18521,37.4405],[127.18942,37.43854],[127.19312,37.44092]]]}},{"type":"Feature","properties":{"h3":"8830e152c3fffff","emd_code":"4113357000","emd_name":"상대원1동","area_km2":0.5101,"edge":true,"slope_mean":21.88,"elev_mean":401.5,"flood_hist_n":0,"flood_depth_max_m":null,"flood_risk_100y":null,"semi_basement_r":null,"elderly_alone_r":0.1444,"bldg_age30_r":null,"shelter_min_walk":33,"pop":22279,"hh":11551,"elderly65_r":0.2499,"single_hh_r":0.4717,"source_level":"emd","flood_years":[],"landslide_hist_n":0},"geometry":{"type":"Polygon","coordinates":[[[127.20104,37.44134],[127.20053,37.4457],[127.19632,37.44766],[127.19262,37.44527],[127.19312,37.44092],[127.19733,37.43896],[127.20104,37.44134]]]}},{"type":"Feature","properties":{"h3":"8830e152c5fffff","emd_code":"4113357000","emd_name":"상대원1동","area_km2":0.5099,"edge":false,"slope_mean":20.49,"elev_mean":223.2,"flood_hist_n":0,"flood_depth_max_m":null,"flood_risk_100y":null,"semi_basement_r":null,"elderly_alone_r":0.1444,"bldg_age30_r":null,"shelter_min_walk":14,"pop":22279,"hh":11551,"elderly65_r":0.2499,"single_hh_r":0.4717,"source_level":"emd","flood_years":[],"landslide_hist_n":0},"geometry":{"type":"Polygon","coordinates":[[[127.18992,37.43419],[127.18942,37.43854],[127.18521,37.4405],[127.1815,37.43811],[127.18201,37.43376],[127.18621,37.4318],[127.18992,37.43419]]]}},{"type":"Feature","properties":{"h3":"8830e152c7fffff","emd_code":"4113357000","emd_name":"상대원1동","area_km2":0.51,"edge":false,"slope_mean":23.04,"elev_mean":332.1,"flood_hist_n":0,"flood_depth_max_m":null,"flood_risk_100y":null,"semi_basement_r":null,"elderly_alone_r":0.1444,"bldg_age30_r":null,"shelter_min_walk":24,"pop":22279,"hh":11551,"elderly65_r":0.2499,"single_hh_r":0.4717,"source_level":"emd","flood_years":[],"landslide_hist_n":0},"geometry":{"type":"Polygon","coordinates":[[[127.19783,37.43461],[127.19733,37.43896],[127.19312,37.44092],[127.18942,37.43854],[127.18992,37.43419],[127.19413,37.43222],[127.19783,37.43461]]]}},{"type":"Feature","properties":{"h3":"8830e152c9fffff","emd_code":"4113357000","emd_name":"상대원1동","area_km2":0.5099,"edge":false,"slope_mean":20.05,"elev_mean":252.4,"flood_hist_n":0,"flood_depth_max_m":null,"flood_risk_100y":null,"semi_basement_r":null,"elderly_alone_r":0.1444,"bldg_age30_r":null,"shelter_min_walk":15,"pop":22279,"hh":11551,"elderly65_r":0.2499,"single_hh_r":0.4717,"source_level":"emd","flood_years":[],"landslide_hist_n":0},"geometry":{"type":"Polygon","coordinates":[[[127.18841,37.44724],[127.18791,37.45159],[127.1837,37.45355],[127.17999,37.45117],[127.1805,37.44682],[127.1847,37.44485],[127.18841,37.44724]]]}},{"type":"Feature","properties":{"h3":"8830e152cbfffff","emd_code":"4113357000","emd_name":"상대원1동","area_km2":0.5101,"edge":false,"slope_mean":21.29,"elev_mean":373.7,"flood_hist_n":0,"flood_depth_max_m":null,"flood_risk_100y":null,"semi_basement_r":null,"elderly_alone_r":0.1444,"bldg_age30_r":null,"shelter_min_walk":25,"pop":22279,"hh":11551,"elderly65_r":0.2499,"single_hh_r":0.4717,"source_level":"emd","flood_years":[],"landslide_hist_n":0},"geometry":{"type":"Polygon","coordinates":[[[127.19632,37.44766],[127.19582,37.45201],[127.19161,37.45398],[127.18791,37.45159],[127.18841,37.44724],[127.19262,37.44527],[127.19632,37.44766]]]}},{"type":"Feature","properties":{"h3":"8830e152cdfffff","emd_code":"4113357000","emd_name":"상대원1동","area_km2":0.5099,"edge":false,"slope_mean":16.61,"elev_mean":175.9,"flood_hist_n":0,"flood_depth_max_m":null,"flood_risk_100y":null,"semi_basement_r":null,"elderly_alone_r":0.1444,"bldg_age30_r":null,"shelter_min_walk":15,"pop":22279,"hh":11551,"elderly65_r":0.2499,"single_hh_r":0.4717,"source_level":"emd","flood_years":[],"landslide_hist_n":0},"geometry":{"type":"Polygon","coordinates":[[[127.18521,37.4405],[127.1847,37.44485],[127.1805,37.44682],[127.17679,37.44443],[127.17729,37.44008],[127.1815,37.43811],[127.18521,37.4405]]]}},{"type":"Feature","properties":{"h3":"8830e152e1fffff","emd_code":"4113367000","emd_name":"도촌동","area_km2":0.5099,"edge":false,"slope_mean":20.38,"elev_mean":214.2,"flood_hist_n":0,"flood_depth_max_m":null,"flood_risk_100y":null,"semi_basement_r":null,"elderly_alone_r":0.0945,"bldg_age30_r":null,"shelter_min_walk":20,"pop":25548,"hh":10823,"elderly65_r":0.1926,"single_hh_r":0.3126,"source_level":"emd","flood_years":[],"landslide_hist_n":0},"geometry":{"type":"Polygon","coordinates":[[[127.19143,37.42113],[127.19092,37.42548],[127.18672,37.42745],[127.18301,37.42506],[127.18352,37.42071],[127.18772,37.41875],[127.19143,37.42113]]]}},{"type":"Feature","properties":{"h3":"8830e152e3fffff","emd_code":"4113367000","emd_name":"도촌동","area_km2":0.51,"edge":true,"slope_mean":18.8,"elev_mean":278.1,"flood_hist_n":0,"flood_depth_max_m":null,"flood_risk_100y":null,"semi_basement_r":null,"elderly_alone_r":0.0945,"bldg_age30_r":null,"shelter_min_walk":25,"pop":25548,"hh":10823,"elderly65_r":0.1926,"single_hh_r":0.3126,"source_level":"emd","flood_years":[],"landslide_hist_n":0},"geometry":{"type":"Polygon","coordinates":[[[127.19934,37.42155],[127.19884,37.4259],[127.19463,37.42787],[127.19092,37.42548],[127.19143,37.42113],[127.19564,37.41917],[127.19934,37.42155]]]}},{"type":"Feature","properties":{"h3":"8830e152e5fffff","emd_code":"4113367000","emd_name":"도촌동","area_km2":0.5098,"edge":false,"slope_mean":19.49,"elev_mean":257.2,"flood_hist_n":0,"flood_depth_max_m":null,"flood_risk_100y":null,"semi_basement_r":null,"elderly_alone_r":0.0945,"bldg_age30_r":null,"shelter_min_walk":25,"pop":25548,"hh":10823,"elderly65_r":0.1926,"single_hh_r":0.3126,"source_level":"emd","flood_years":[],"landslide_hist_n":0},"geometry":{"type":"Polygon","coordinates":[[[127.18823,37.4144],[127.18772,37.41875],[127.18352,37.42071],[127.17981,37.41833],[127.18032,37.41398],[127.18452,37.41201],[127.18823,37.4144]]]}},{"type":"Feature","properties":{"h3":"8830e152e9fffff","emd_code":"4113357000","emd_name":"상대원1동","area_km2":0.5099,"edge":false,"slope_mean":17.55,"elev_mean":163.4,"flood_hist_n":0,"flood_depth_max_m":null,"flood_risk_100y":null,"semi_basement_r":null,"elderly_alone_r":0.1444,"bldg_age30_r":null,"shelter_min_walk":9,"pop":22279,"hh":11551,"elderly65_r":0.2499,"single_hh_r":0.4717,"source_level":"emd","flood_years":[],"landslide_hist_n":0},"geometry":{"type":"Polygon","coordinates":[[[127.18672,37.42745],[127.18621,37.4318],[127.18201,37.43376],[127.1783,37.43138],[127.17881,37.42703],[127.18301,37.42506],[127.18672,37.42745]]]}},{"type":"Feature","properties":{"h3":"8830e152ebfffff","emd_code":"4113367000","emd_name":"도촌동","area_km2":0.51,"edge":false,"slope_mean":19.16,"elev_mean":250.5,"flood_hist_n":0,"flood_depth_max_m":null,"flood_risk_100y":null,"semi_basement_r":null,"elderly_alone_r":0.0945,"bldg_age30_r":null,"shelter_min_walk":19,"pop":25548,"hh":10823,"elderly65_r":0.1926,"single_hh_r":0.3126,"source_level":"emd","flood_years":[],"landslide_hist_n":0},"geometry":{"type":"Polygon","coordinates":[[[127.19463,37.42787],[127.19413,37.43222],[127.18992,37.43419],[127.18621,37.4318],[127.18672,37.42745],[127.19092,37.42548],[127.19463,37.42787]]]}},{"type":"Feature","properties":{"h3":"8830e152edfffff","emd_code":"4113367000","emd_name":"도촌동","area_km2":0.5098,"edge":false,"slope_mean":18.06,"elev_mean":164.6,"flood_hist_n":0,"flood_depth_max_m":null,"flood_risk_100y":null,"semi_basement_r":null,"elderly_alone_r":0.0945,"bldg_age30_r":null,"shelter_min_walk":16,"pop":25548,"hh":10823,"elderly65_r":0.1926,"single_hh_r":0.3126,"source_level":"emd","flood_years":[],"landslide_hist_n":0},"geometry":{"type":"Polygon","coordinates":[[[127.18352,37.42071],[127.18301,37.42506],[127.17881,37.42703],[127.1751,37.42464],[127.17561,37.42029],[127.17981,37.41833],[127.18352,37.42071]]]}},{"type":"Feature","properties":{"h3":"8830e1c991fffff","emd_code":"4113351000","emd_name":"성남동","area_km2":0.5089,"edge":true,"slope_mean":2.3,"elev_mean":23.1,"flood_hist_n":0,"flood_depth_max_m":null,"flood_risk_100y":null,"semi_basement_r":null,"elderly_alone_r":0.1394,"bldg_age30_r":null,"shelter_min_walk":15,"pop":31786,"hh":18486,"elderly65_r":0.2332,"single_hh_r":0.5939,"source_level":"emd","flood_years":[],"landslide_hist_n":0},"geometry":{"type":"Polygon","coordinates":[[[127.11875,37.43037],[127.11825,37.43472],[127.11404,37.43668],[127.11034,37.43429],[127.11085,37.42995],[127.11506,37.42799],[127.11875,37.43037]]]}},{"type":"Feature","properties":{"h3":"8830e1c993fffff","emd_code":"4113351000","emd_name":"성남동","area_km2":0.509,"edge":true,"slope_mean":4.87,"elev_mean":28.3,"flood_hist_n":0,"flood_depth_max_m":null,"flood_risk_100y":null,"semi_basement_r":null,"elderly_alone_r":0.1394,"bldg_age30_r":null,"shelter_min_walk":9,"pop":31786,"hh":18486,"elderly65_r":0.2332,"single_hh_r":0.5939,"source_level":"emd","flood_years":[],"landslide_hist_n":0},"geometry":{"type":"Polygon","coordinates":[[[127.12665,37.4308],[127.12615,37.43515],[127.12194,37.43711],[127.11825,37.43472],[127.11875,37.43037],[127.12296,37.42841],[127.12665,37.4308]]]}},{"type":"Feature","properties":{"h3":"8830e1c997fffff","emd_code":"4113367000","emd_name":"도촌동","area_km2":0.509,"edge":false,"slope_mean":4.38,"elev_mean":27.2,"flood_hist_n":0,"flood_depth_max_m":null,"flood_risk_100y":null,"semi_basement_r":null,"elderly_alone_r":0.0945,"bldg_age30_r":null,"shelter_min_walk":16,"pop":25548,"hh":10823,"elderly65_r":0.1926,"single_hh_r":0.3126,"source_level":"emd","flood_years":[],"landslide_hist_n":0},"geometry":{"type":"Polygon","coordinates":[[[127.12346,37.42406],[127.12296,37.42841],[127.11875,37.43037],[127.11506,37.42799],[127.11556,37.42364],[127.11977,37.42168],[127.12346,37.42406]]]}},{"type":"Feature","properties":{"h3":"8830e1c9b3fffff","emd_code":"4113367000","emd_name":"도촌동","area_km2":0.509,"edge":true,"slope_mean":6.82,"elev_mean":33.0,"flood_hist_n":0,"flood_depth_max_m":null,"flood_risk_100y":null,"semi_basement_r":null,"elderly_alone_r":0.0945,"bldg_age30_r":null,"shelter_min_walk":8,"pop":25548,"hh":10823,"elderly65_r":0.1926,"single_hh_r":0.3126,"source_level":"emd","flood_years":[],"landslide_hist_n":0},"geometry":{"type":"Polygon","coordinates":[[[127.12498,37.41102],[127.12448,37.41537],[127.12027,37.41733],[127.11658,37.41494],[127.11708,37.4106],[127.12129,37.40863],[127.12498,37.41102]]]}},{"type":"Feature","properties":{"h3":"8830e1c9bbfffff","emd_code":"4113367000","emd_name":"도촌동","area_km2":0.5089,"edge":true,"slope_mean":8.31,"elev_mean":41.1,"flood_hist_n":0,"flood_depth_max_m":null,"flood_risk_100y":null,"semi_basement_r":null,"elderly_alone_r":0.0945,"bldg_age30_r":null,"shelter_min_walk":15,"pop":25548,"hh":10823,"elderly65_r":0.1926,"single_hh_r":0.3126,"source_level":"emd","flood_years":[],"landslide_hist_n":0},"geometry":{"type":"Polygon","coordinates":[[[127.12027,37.41733],[127.11977,37.42168],[127.11556,37.42364],[127.11187,37.42125],[127.11237,37.41691],[127.11658,37.41494],[127.12027,37.41733]]]}},{"type":"Feature","properties":{"h3":"8830e1cd01fffff","emd_code":"4113356000","emd_name":"은행2동","area_km2":0.5099,"edge":true,"slope_mean":23.6,"elev_mean":329.9,"flood_hist_n":0,"flood_depth_max_m":null,"flood_risk_100y":null,"semi_basement_r":null,"elderly_alone_r":0.1803,"bldg_age30_r":null,"shelter_min_walk":24,"pop":18220,"hh":9635,"elderly65_r":0.2722,"single_hh_r":0.4888,"source_level":"emd","flood_years":[],"landslide_hist_n":0},"geometry":{"type":"Polygon","coordinates":[[[127.17747,37.47292],[127.17697,37.47727],[127.17276,37.47923],[127.16905,37.47684],[127.16956,37.47249],[127.17377,37.47053],[127.17747,37.47292]]]}},{"type":"Feature","properties":{"h3":"8830e1cd03fffff","emd_code":"4113356000","emd_name":"은행2동","area_km2":0.51,"edge":true,"slope_mean":18.06,"elev_mean":377.5,"flood_hist_n":0,"flood_depth_max_m":null,"flood_risk_100y":null,"semi_basement_r":null,"elderly_alone_r":0.1803,"bldg_age30_r":null,"shelter_min_walk":29,"pop":18220,"hh":9635,"elderly65_r":0.2722,"single_hh_r":0.4888,"source_level":"emd","flood_years":[],"landslide_hist_n":0},"geometry":{"type":"Polygon","coordinates":[[[127.18539,37.47334],[127.18488,37.47769],[127.18067,37.47966],[127.17697,37.47727],[127.17747,37.47292],[127.18168,37.47096],[127.18539,37.47334]]]}},{"type":"Feature","properties":{"h3":"8830e1cd05fffff","emd_code":"4113356000","emd_name":"은행2동","area_km2":0.5098,"edge":true,"slope_mean":21.18,"elev_mean":236.9,"flood_hist_n":0,"flood_depth_max_m":null,"flood_risk_100y":null,"semi_basement_r":null,"elderly_alone_r":0.1803,"bldg_age30_r":null,"shelter_min_walk":12,"pop":18220,"hh":9635,"elderly65_r":0.2722,"single_hh_r":0.4888,"source_level":"emd","flood_years":[],"landslide_hist_n":0},"geometry":{"type":"Polygon","coordinates":[[[127.17427,37.46618],[127.17377,37.47053],[127.16956,37.47249],[127.16585,37.47011],[127.16636,37.46576],[127.17057,37.46379],[127.17427,37.46618]]]}},{"type":"Feature","properties":{"h3":"8830e1cd07fffff","emd_code":"4113356000","emd_name":"은행2동","area_km2":0.5099,"edge":false,"slope_mean":22.41,"elev_mean":301.8,"flood_hist_n":0,"flood_depth_max_m":null,"flood_risk_100y":null,"semi_basement_r":null,"elderly_alone_r":0.1803,"bldg_age30_r":null,"shelter_min_walk":18,"pop":18220,"hh":9635,"elderly65_r":0.2722,"single_hh_r":0.4888,"source_level":"emd","flood_years":[],"landslide_hist_n":0},"geometry":{"type":"Polygon","coordinates":[[[127.18219,37.4666],[127.18168,37.47096],[127.17747,37.47292],[127.17377,37.47053],[127.17427,37.46618],[127.17848,37.46422],[127.18219,37.4666]]]}},{"type":"Feature","properties":{"h3":"8830e1cd21fffff","emd_code":"4113356000","emd_name":"은행2동","area_km2":0.5098,"edge":false,"slope_mean":14.81,"elev_mean":174.2,"flood_hist_n":0,"flood_depth_max_m":null,"flood_risk_100y":null,"semi_basement_r":null,"elderly_alone_r":0.1803,"bldg_age30_r":null,"shelter_min_walk":5,"pop":18220,"hh":9635,"elderly65_r":0.2722,"single_hh_r":0.4888,"source_level":"emd","flood_years":[],"landslide_hist_n":0},"geometry":{"type":"Polygon","coordinates":[[[127.17578,37.45313],[127.17528,37.45748],[127.17107,37.45944],[127.16737,37.45705],[127.16787,37.4527],[127.17208,37.45074],[127.17578,37.45313]]]}},{"type":"Feature","properties":{"h3":"8830e1cd23fffff","emd_code":"4113356000","emd_name":"은행2동","area_km2":0.5099,"edge":false,"slope_mean":23.07,"elev_mean":344.9,"flood_hist_n":0,"flood_depth_max_m":null,"flood_risk_100y":null,"semi_basement_r":null,"elderly_alone_r":0.1803,"bldg_age30_r":null,"shelter_min_walk":13,"pop":18220,"hh":9635,"elderly65_r":0.2722,"single_hh_r":0.4888,"source_level":"emd","flood_years":[],"landslide_hist_n":0},"geometry":{"type":"Polygon","coordinates":[[[127.1837,37.45355],[127.18319,37.4579],[127.17898,37.45987],[127.17528,37.45748],[127.17578,37.45313],[127.17999,37.45117],[127.1837,37.45355]]]}},{"type":"Feature","properties":{"h3":"8830e1cd25fffff","emd_code":"4113354000","emd_name":"금광2동","area_km2":0.5097,"edge":false,"slope_mean":9.96,"elev_mean":119.1,"flood_hist_n":0,"flood_depth_max_m":null,"flood_risk_100y":null,"semi_basement_r":null,"elderly_alone_r":0.1377,"bldg_age30_r":null,"shelter_min_walk":3,"pop":22424,"hh":11449,"elderly65_r":0.2389,"single_hh_r":0.4769,"source_level":"emd","flood_years":[],"landslide_hist_n":0},"geometry":{"type":"Polygon","coordinates":[[[127.17258,37.44639],[127.17208,37.45074],[127.16787,37.4527],[127.16417,37.45032],[127.16467,37.44597],[127.16888,37.444],[127.17258,37.44639]]]}},{"type":"Feature","properties":{"h3":"8830e1cd27fffff","emd_code":"4113354000","emd_name":"금광2동","area_km2":0.5098,"edge":false,"slope_mean":17.75,"elev_mean":198.3,"flood_hist_n":0,"flood_depth_max_m":null,"flood_risk_100y":null,"semi_basement_r":null,"elderly_alone_r":0.1377,"bldg_age30_r":null,"shelter_min_walk":4,"pop":22424,"hh":11449,"elderly65_r":0.2389,"single_hh_r":0.4769,"source_level":"emd","flood_years":[],"landslide_hist_n":0},"geometry":{"type":"Polygon","coordinates":[[[127.1805,37.44682],[127.17999,37.45117],[127.17578,37.45313],[127.17208,37.45074],[127.17258,37.44639],[127.17679,37.44443],[127.1805,37.44682]]]}},{"type":"Feature","properties":{"h3":"8830e1cd29fffff","emd_code":"4113356000","emd_name":"은행2동","area_km2":0.5097,"edge":true,"slope_mean":12.41,"elev_mean":131.9,"flood_hist_n":0,"flood_depth_max_m":null,"flood_risk_100y":null,"semi_basement_r":null,"elderly_alone_r":0.1803,"bldg_age30_r":null,"shelter_min_walk":1,"pop":18220,"hh":9635,"elderly65_r":0.2722,"single_hh_r":0.4888,"source_level":"emd","flood_years":[],"landslide_hist_n":0},"geometry":{"type":"Polygon","coordinates":[[[127.17107,37.45944],[127.17057,37.46379],[127.16636,37.46576],[127.16265,37.46337],[127.16316,37.45902],[127.16737,37.45705],[127.17107,37.45944]]]}},{"type":"Feature","properties":{"h3":"8830e1cd2bfffff","emd_code":"4113356000","emd_name":"은행2동","area_km2":0.5098,"edge":false,"slope_mean":19.68,"elev_mean":215.7,"flood_hist_n":0,"flood_depth_max_m":null,"flood_risk_100y":null,"semi_basement_r":null,"elderly_alone_r":0.1803,"bldg_age30_r":null,"shelter_min_walk":10,"pop":18220,"hh":9635,"elderly65_r":0.2722,"single_hh_r":0.4888,"source_level":"emd","flood_years":[],"landslide_hist_n":0},"geometry":{"type":"Polygon","coordinates":[[[127.17898,37.45987],[127.17848,37.46422],[127.17427,37.46618],[127.17057,37.46379],[127.17107,37.45944],[127.17528,37.45748],[127.17898,37.45987]]]}},{"type":"Feature","properties":{"h3":"8830e1cd2dfffff","emd_code":"4113356000","emd_name":"은행2동","area_km2":0.5097,"edge":false,"slope_mean":9.47,"elev_mean":103.3,"flood_hist_n":0,"flood_depth_max_m":null,"flood_risk_100y":null,"semi_basement_r":null,"elderly_alone_r":0.1803,"bldg_age30_r":null,"shelter_min_walk":1,"pop":18220,"hh":9635,"elderly65_r":0.2722,"single_hh_r":0.4888,"source_level":"emd","flood_years":[],"landslide_hist_n":0},"geometry":{"type":"Polygon","coordinates":[[[127.16787,37.4527],[127.16737,37.45705],[127.16316,37.45902],[127.15945,37.45663],[127.15996,37.45228],[127.16417,37.45032],[127.16787,37.4527]]]}},{"type":"Feature","properties":{"h3":"8830e1cd35fffff","emd_code":"4113357000","emd_name":"상대원1동","area_km2":0.51,"edge":false,"slope_mean":18.16,"elev_mean":448.7,"flood_hist_n":0,"flood_depth_max_m":null,"flood_risk_100y":null,"semi_basement_r":null,"elderly_alone_r":0.1444,"bldg_age30_r":null,"shelter_min_walk":22,"pop":22279,"hh":11551,"elderly65_r":0.2499,"single_hh_r":0.4717,"source_level":"emd","flood_years":[],"landslide_hist_n":0},"geometry":{"type":"Polygon","coordinates":[[[127.19161,37.45398],[127.19111,37.45833],[127.1869,37.46029],[127.18319,37.4579],[127.1837,37.45355],[127.18791,37.45159],[127.19161,37.45398]]]}},{"type":"Feature","properties":{"h3":"8830e1cd37fffff","emd_code":"4113357000","emd_name":"상대원1동","area_km2":0.5101,"edge":true,"slope_mean":18.07,"elev_mean":421.2,"flood_hist_n":0,"flood_depth_max_m":null,"flood_risk_100y":null,"semi_basement_r":null,"elderly_alone_r":0.1444,"bldg_age30_r":null,"shelter_min_walk":32,"pop":22279,"hh":11551,"elderly65_r":0.2499,"single_hh_r":0.4717,"source_level":"emd","flood_years":[],"landslide_hist_n":0},"geometry":{"type":"Polygon","coordinates":[[[127.19953,37.4544],[127.19903,37.45875],[127.19482,37.46071],[127.19111,37.45833],[127.19161,37.45398],[127.19582,37.45201],[127.19953,37.4544]]]}},{"type":"Feature","properties":{"h3":"8830e1cd3dfffff","emd_code":"4113356000","emd_name":"은행2동","area_km2":0.51,"edge":true,"slope_mean":18.6,"elev_mean":422.9,"flood_hist_n":0,"flood_depth_max_m":null,"flood_risk_100y":null,"semi_basement_r":null,"elderly_alone_r":0.1803,"bldg_age30_r":null,"shelter_min_walk":20,"pop":18220,"hh":9635,"elderly65_r":0.2722,"single_hh_r":0.4888,"source_level":"emd","flood_years":[],"landslide_hist_n":0},"geometry":{"type":"Polygon","coordinates":[[[127.1869,37.46029],[127.1864,37.46464],[127.18219,37.4666],[127.17848,37.46422],[127.17898,37.45987],[127.18319,37.4579],[127.1869,37.46029]]]}}]}