{"type":"FeatureCollection","name":"grid_41173_h3r8","meta":{"sgg_code":"41173","h3_res":8,"n_cells":66,"dem":"Copernicus GLO-30 (bbox-mean)","crs":"EPSG:4326","jumin_basis":"2026-07","flood_src":"행안부 침수흔적도(전국, 재난안전데이터공유플랫폼)","landslide_src":"행안부 산사태 발생이력"},"features":[{"type":"Feature","properties":{"h3":"8830e03401fffff","emd_code":"4117351000","emd_name":"비산1동","area_km2":0.5063,"edge":true,"slope_mean":19.25,"elev_mean":166.8,"flood_hist_n":0,"flood_depth_max_m":null,"flood_risk_100y":null,"semi_basement_r":null,"elderly_alone_r":0.0586,"bldg_age30_r":null,"shelter_min_walk":18,"pop":28084,"hh":10562,"elderly65_r":0.1742,"single_hh_r":0.1925,"source_level":"emd","flood_years":[],"landslide_hist_n":0},"geometry":{"type":"Polygon","coordinates":[[[126.93418,37.41373],[126.93367,37.41807],[126.92947,37.42002],[126.92579,37.41763],[126.92631,37.4133],[126.93051,37.41134],[126.93418,37.41373]]]}},{"type":"Feature","properties":{"h3":"8830e03403fffff","emd_code":"4117353000","emd_name":"비산3동","area_km2":0.5064,"edge":true,"slope_mean":21.62,"elev_mean":176.5,"flood_hist_n":0,"flood_depth_max_m":null,"flood_risk_100y":null,"semi_basement_r":null,"elderly_alone_r":0.1174,"bldg_age30_r":null,"shelter_min_walk":18,"pop":17817,"hh":7680,"elderly65_r":0.2003,"single_hh_r":0.3264,"source_level":"emd","flood_years":[],"landslide_hist_n":0},"geometry":{"type":"Polygon","coordinates":[[[126.94206,37.41417],[126.94154,37.41851],[126.93734,37.42046],[126.93367,37.41807],[126.93418,37.41373],[126.93838,37.41178],[126.94206,37.41417]]]}},{"type":"Feature","properties":{"h3":"8830e03405fffff","emd_code":"4117351000","emd_name":"비산1동","area_km2":0.5062,"edge":true,"slope_mean":19.31,"elev_mean":146.2,"flood_hist_n":0,"flood_depth_max_m":null,"flood_risk_100y":null,"semi_basement_r":null,"elderly_alone_r":0.0586,"bldg_age30_r":null,"shelter_min_walk":10,"pop":28084,"hh":10562,"elderly65_r":0.1742,"single_hh_r":0.1925,"source_level":"emd","flood_years":[],"landslide_hist_n":0},"geometry":{"type":"Polygon","coordinates":[[[126.93102,37.40701],[126.93051,37.41134],[126.92631,37.4133],[126.92264,37.41091],[126.92315,37.40657],[126.92735,37.40462],[126.93102,37.40701]]]}},{"type":"Feature","properties":{"h3":"8830e03407fffff","emd_code":"4117351000","emd_name":"비산1동","area_km2":0.5063,"edge":false,"slope_mean":18.09,"elev_mean":139.0,"flood_hist_n":0,"flood_depth_max_m":null,"flood_risk_100y":null,"semi_basement_r":null,"elderly_alone_r":0.0586,"bldg_age30_r":null,"shelter_min_walk":7,"pop":28084,"hh":10562,"elderly65_r":0.1742,"single_hh_r":0.1925,"source_level":"emd","flood_years":[],"landslide_hist_n":0},"geometry":{"type":"Polygon","coordinates":[[[126.9389,37.40744],[126.93838,37.41178],[126.93418,37.41373],[126.93051,37.41134],[126.93102,37.40701],[126.93522,37.40505],[126.9389,37.40744]]]}},{"type":"Feature","properties":{"h3":"8830e03411fffff","emd_code":"4117353000","emd_name":"비산3동","area_km2":0.5066,"edge":false,"slope_mean":20.33,"elev_mean":173.7,"flood_hist_n":0,"flood_depth_max_m":null,"flood_risk_100y":null,"semi_basement_r":null,"elderly_alone_r":0.1174,"bldg_age30_r":null,"shelter_min_walk":24,"pop":17817,"hh":7680,"elderly65_r":0.2003,"single_hh_r":0.3264,"source_level":"emd","flood_years":[],"landslide_hist_n":0},"geometry":{"type":"Polygon","coordinates":[[[126.95309,37.42133],[126.95258,37.42567],[126.94838,37.42762],[126.9447,37.42524],[126.94522,37.4209],[126.94941,37.41894],[126.95309,37.42133]]]}},{"type":"Feature","properties":{"h3":"8830e03413fffff","emd_code":"4117353000","emd_name":"비산3동","area_km2":0.5067,"edge":false,"slope_mean":21.48,"elev_mean":273.0,"flood_hist_n":0,"flood_depth_max_m":null,"flood_risk_100y":null,"semi_basement_r":null,"elderly_alone_r":0.1174,"bldg_age30_r":null,"shelter_min_walk":27,"pop":17817,"hh":7680,"elderly65_r":0.2003,"single_hh_r":0.3264,"source_level":"emd","flood_years":[],"landslide_hist_n":0},"geometry":{"type":"Polygon","coordinates":[[[126.96097,37.42177],[126.96045,37.42611],[126.95626,37.42806],[126.95258,37.42567],[126.95309,37.42133],[126.95729,37.41938],[126.96097,37.42177]]]}},{"type":"Feature","properties":{"h3":"8830e03415fffff","emd_code":"4117353000","emd_name":"비산3동","area_km2":0.5065,"edge":false,"slope_mean":15.01,"elev_mean":104.7,"flood_hist_n":0,"flood_depth_max_m":null,"flood_risk_100y":null,"semi_basement_r":null,"elderly_alone_r":0.1174,"bldg_age30_r":null,"shelter_min_walk":13,"pop":17817,"hh":7680,"elderly65_r":0.2003,"single_hh_r":0.3264,"source_level":"emd","flood_years":[],"landslide_hist_n":0},"geometry":{"type":"Polygon","coordinates":[[[126.94993,37.4146],[126.94941,37.41894],[126.94522,37.4209],[126.94154,37.41851],[126.94206,37.41417],[126.94625,37.41222],[126.94993,37.4146]]]}},{"type":"Feature","properties":{"h3":"8830e03417fffff","emd_code":"4117353000","emd_name":"비산3동","area_km2":0.5066,"edge":false,"slope_mean":16.43,"elev_mean":135.6,"flood_hist_n":0,"flood_depth_max_m":null,"flood_risk_100y":null,"semi_basement_r":null,"elderly_alone_r":0.1174,"bldg_age30_r":null,"shelter_min_walk":16,"pop":17817,"hh":7680,"elderly65_r":0.2003,"single_hh_r":0.3264,"source_level":"emd","flood_years":[],"landslide_hist_n":0},"geometry":{"type":"Polygon","coordinates":[[[126.9578,37.41504],[126.95729,37.41938],[126.95309,37.42133],[126.94941,37.41894],[126.94993,37.4146],[126.95412,37.41265],[126.9578,37.41504]]]}},{"type":"Feature","properties":{"h3":"8830e03419fffff","emd_code":"4117353000","emd_name":"비산3동","area_km2":0.5065,"edge":true,"slope_mean":22.86,"elev_mean":262.5,"flood_hist_n":0,"flood_depth_max_m":null,"flood_risk_100y":null,"semi_basement_r":null,"elderly_alone_r":0.1174,"bldg_age30_r":null,"shelter_min_walk":35,"pop":17817,"hh":7680,"elderly65_r":0.2003,"single_hh_r":0.3264,"source_level":"emd","flood_years":[],"landslide_hist_n":0},"geometry":{"type":"Polygon","coordinates":[[[126.94838,37.42762],[126.94786,37.43196],[126.94367,37.43391],[126.93999,37.43153],[126.9405,37.42719],[126.9447,37.42524],[126.94838,37.42762]]]}},{"type":"Feature","properties":{"h3":"8830e0341bfffff","emd_code":"4117353000","emd_name":"비산3동","area_km2":0.5066,"edge":false,"slope_mean":23.0,"elev_mean":266.8,"flood_hist_n":0,"flood_depth_max_m":null,"flood_risk_100y":null,"semi_basement_r":null,"elderly_alone_r":0.1174,"bldg_age30_r":null,"shelter_min_walk":36,"pop":17817,"hh":7680,"elderly65_r":0.2003,"single_hh_r":0.3264,"source_level":"emd","flood_years":[],"landslide_hist_n":0},"geometry":{"type":"Polygon","coordinates":[[[126.95626,37.42806],[126.95574,37.4324],[126.95154,37.43435],[126.94786,37.43196],[126.94838,37.42762],[126.95258,37.42567],[126.95626,37.42806]]]}},{"type":"Feature","properties":{"h3":"8830e0341dfffff","emd_code":"4117353000","emd_name":"비산3동","area_km2":0.5065,"edge":true,"slope_mean":21.66,"elev_mean":175.3,"flood_hist_n":0,"flood_depth_max_m":null,"flood_risk_100y":null,"semi_basement_r":null,"elderly_alone_r":0.1174,"bldg_age30_r":null,"shelter_min_walk":25,"pop":17817,"hh":7680,"elderly65_r":0.2003,"single_hh_r":0.3264,"source_level":"emd","flood_years":[],"landslide_hist_n":0},"geometry":{"type":"Polygon","coordinates":[[[126.94522,37.4209],[126.9447,37.42524],[126.9405,37.42719],[126.93683,37.4248],[126.93734,37.42046],[126.94154,37.41851],[126.94522,37.4209]]]}},{"type":"Feature","properties":{"h3":"8830e03421fffff","emd_code":"4117351000","emd_name":"비산1동","area_km2":0.5062,"edge":true,"slope_mean":5.01,"elev_mean":35.8,"flood_hist_n":0,"flood_depth_max_m":null,"flood_risk_100y":null,"semi_basement_r":null,"elderly_alone_r":0.0586,"bldg_age30_r":null,"shelter_min_walk":6,"pop":28084,"hh":10562,"elderly65_r":0.1742,"single_hh_r":0.1925,"source_level":"emd","flood_years":[],"landslide_hist_n":0},"geometry":{"type":"Polygon","coordinates":[[[126.93258,37.39399],[126.93206,37.39833],[126.92787,37.40028],[126.92419,37.39789],[126.92471,37.39355],[126.9289,37.3916],[126.93258,37.39399]]]}},{"type":"Feature","properties":{"h3":"8830e03423fffff","emd_code":"4117352000","emd_name":"비산2동","area_km2":0.5063,"edge":false,"slope_mean":5.52,"elev_mean":33.2,"flood_hist_n":0,"flood_depth_max_m":null,"flood_risk_100y":null,"semi_basement_r":null,"elderly_alone_r":0.0568,"bldg_age30_r":null,"shelter_min_walk":1,"pop":12854,"hh":4667,"elderly65_r":0.1713,"single_hh_r":0.1573,"source_level":"emd","flood_years":[],"landslide_hist_n":0},"geometry":{"type":"Polygon","coordinates":[[[126.94045,37.39442],[126.93993,37.39876],[126.93574,37.40071],[126.93206,37.39833],[126.93258,37.39399],[126.93677,37.39204],[126.94045,37.39442]]]}},{"type":"Feature","properties":{"h3":"8830e0342bfffff","emd_code":"4117351000","emd_name":"비산1동","area_km2":0.5063,"edge":false,"slope_mean":12.8,"elev_mean":64.5,"flood_hist_n":0,"flood_depth_max_m":null,"flood_risk_100y":null,"semi_basement_r":null,"elderly_alone_r":0.0586,"bldg_age30_r":null,"shelter_min_walk":2,"pop":28084,"hh":10562,"elderly65_r":0.1742,"single_hh_r":0.1925,"source_level":"emd","flood_years":[],"landslide_hist_n":0},"geometry":{"type":"Polygon","coordinates":[[[126.93574,37.40071],[126.93522,37.40505],[126.93102,37.40701],[126.92735,37.40462],[126.92787,37.40028],[126.93206,37.39833],[126.93574,37.40071]]]}},{"type":"Feature","properties":{"h3":"8830e03431fffff","emd_code":"4117353000","emd_name":"비산3동","area_km2":0.5065,"edge":false,"slope_mean":7.03,"elev_mean":42.5,"flood_hist_n":0,"flood_depth_max_m":null,"flood_risk_100y":null,"semi_basement_r":null,"elderly_alone_r":0.1174,"bldg_age30_r":null,"shelter_min_walk":2,"pop":17817,"hh":7680,"elderly65_r":0.2003,"single_hh_r":0.3264,"source_level":"emd","flood_years":[],"landslide_hist_n":0},"geometry":{"type":"Polygon","coordinates":[[[126.95148,37.40158],[126.95096,37.40592],[126.94677,37.40788],[126.94309,37.40549],[126.94361,37.40115],[126.9478,37.3992],[126.95148,37.40158]]]}},{"type":"Feature","properties":{"h3":"8830e03433fffff","emd_code":"4117355200","emd_name":"관양동","area_km2":0.5066,"edge":false,"slope_mean":5.11,"elev_mean":42.2,"flood_hist_n":0,"flood_depth_max_m":null,"flood_risk_100y":null,"semi_basement_r":null,"elderly_alone_r":0.1443,"bldg_age30_r":null,"shelter_min_walk":5,"pop":31778,"hh":15277,"elderly65_r":0.2543,"single_hh_r":0.41,"source_level":"emd","flood_years":[],"landslide_hist_n":0},"geometry":{"type":"Polygon","coordinates":[[[126.95935,37.40202],[126.95884,37.40636],[126.95464,37.40831],[126.95096,37.40592],[126.95148,37.40158],[126.95567,37.39963],[126.95935,37.40202]]]}},{"type":"Feature","properties":{"h3":"8830e03435fffff","emd_code":"4117354000","emd_name":"부흥동","area_km2":0.5064,"edge":false,"slope_mean":6.72,"elev_mean":36.3,"flood_hist_n":0,"flood_depth_max_m":null,"flood_risk_100y":null,"semi_basement_r":null,"elderly_alone_r":0.1097,"bldg_age30_r":null,"shelter_min_walk":1,"pop":15741,"hh":6290,"elderly65_r":0.197,"single_hh_r":0.2685,"source_level":"emd","flood_years":[],"landslide_hist_n":0},"geometry":{"type":"Polygon","coordinates":[[[126.94832,37.39486],[126.9478,37.3992],[126.94361,37.40115],[126.93993,37.39876],[126.94045,37.39442],[126.94464,37.39247],[126.94832,37.39486]]]}},{"type":"Feature","properties":{"h3":"8830e03437fffff","emd_code":"4117354600","emd_name":"달안동","area_km2":0.5066,"edge":false,"slope_mean":5.01,"elev_mean":35.3,"flood_hist_n":0,"flood_depth_max_m":null,"flood_risk_100y":null,"semi_basement_r":null,"elderly_alone_r":0.13,"bldg_age30_r":null,"shelter_min_walk":2,"pop":9351,"hh":5378,"elderly65_r":0.2065,"single_hh_r":0.5467,"source_level":"emd","flood_years":[],"landslide_hist_n":0},"geometry":{"type":"Polygon","coordinates":[[[126.95619,37.39529],[126.95567,37.39963],[126.95148,37.40158],[126.9478,37.3992],[126.94832,37.39486],[126.95251,37.3929],[126.95619,37.39529]]]}},{"type":"Feature","properties":{"h3":"8830e03439fffff","emd_code":"4117353000","emd_name":"비산3동","area_km2":0.5065,"edge":false,"slope_mean":17.46,"elev_mean":120.8,"flood_hist_n":0,"flood_depth_max_m":null,"flood_risk_100y":null,"semi_basement_r":null,"elderly_alone_r":0.1174,"bldg_age30_r":null,"shelter_min_walk":7,"pop":17817,"hh":7680,"elderly65_r":0.2003,"single_hh_r":0.3264,"source_level":"emd","flood_years":[],"landslide_hist_n":0},"geometry":{"type":"Polygon","coordinates":[[[126.94677,37.40788],[126.94625,37.41222],[126.94206,37.41417],[126.93838,37.41178],[126.9389,37.40744],[126.94309,37.40549],[126.94677,37.40788]]]}},{"type":"Feature","properties":{"h3":"8830e0343bfffff","emd_code":"4117353000","emd_name":"비산3동","area_km2":0.5066,"edge":false,"slope_mean":10.58,"elev_mean":63.2,"flood_hist_n":0,"flood_depth_max_m":null,"flood_risk_100y":null,"semi_basement_r":null,"elderly_alone_r":0.1174,"bldg_age30_r":null,"shelter_min_walk":4,"pop":17817,"hh":7680,"elderly65_r":0.2003,"single_hh_r":0.3264,"source_level":"emd","flood_years":[],"landslide_hist_n":0},"geometry":{"type":"Polygon","coordinates":[[[126.95464,37.40831],[126.95412,37.41265],[126.94993,37.4146],[126.94625,37.41222],[126.94677,37.40788],[126.95096,37.40592],[126.95464,37.40831]]]}},{"type":"Feature","properties":{"h3":"8830e0343dfffff","emd_code":"4117351000","emd_name":"비산1동","area_km2":0.5064,"edge":false,"slope_mean":13.2,"elev_mean":73.6,"flood_hist_n":0,"flood_depth_max_m":null,"flood_risk_100y":null,"semi_basement_r":null,"elderly_alone_r":0.0586,"bldg_age30_r":null,"shelter_min_walk":7,"pop":28084,"hh":10562,"elderly65_r":0.1742,"single_hh_r":0.1925,"source_level":"emd","flood_years":[],"landslide_hist_n":0},"geometry":{"type":"Polygon","coordinates":[[[126.94361,37.40115],[126.94309,37.40549],[126.9389,37.40744],[126.93522,37.40505],[126.93574,37.40071],[126.93993,37.39876],[126.94361,37.40115]]]}},{"type":"Feature","properties":{"h3":"8830e034a1fffff","emd_code":"4117355900","emd_name":"인덕원동","area_km2":0.507,"edge":true,"slope_mean":7.4,"elev_mean":56.1,"flood_hist_n":0,"flood_depth_max_m":null,"flood_risk_100y":null,"semi_basement_r":null,"elderly_alone_r":0.1068,"bldg_age30_r":null,"shelter_min_walk":5,"pop":17799,"hh":8826,"elderly65_r":0.1936,"single_hh_r":0.46,"source_level":"emd","flood_years":[],"landslide_hist_n":0},"geometry":{"type":"Polygon","coordinates":[[[126.98769,37.39702],[126.98718,37.40136],[126.98298,37.40332],[126.9793,37.40093],[126.97981,37.39659],[126.98401,37.39463],[126.98769,37.39702]]]}},{"type":"Feature","properties":{"h3":"8830e034a5fffff","emd_code":"4117357000","emd_name":"평촌동","area_km2":0.5069,"edge":true,"slope_mean":5.58,"elev_mean":49.8,"flood_hist_n":0,"flood_depth_max_m":null,"flood_risk_100y":null,"semi_basement_r":null,"elderly_alone_r":0.0596,"bldg_age30_r":null,"shelter_min_walk":1,"pop":14715,"hh":5371,"elderly65_r":0.1573,"single_hh_r":0.1663,"source_level":"emd","flood_years":[],"landslide_hist_n":0},"geometry":{"type":"Polygon","coordinates":[[[126.98452,37.39029],[126.98401,37.39463],[126.97981,37.39659],[126.97613,37.3942],[126.97665,37.38986],[126.98084,37.38791],[126.98452,37.39029]]]}},{"type":"Feature","properties":{"h3":"8830e034a9fffff","emd_code":"4117355200","emd_name":"관양동","area_km2":0.507,"edge":true,"slope_mean":8.13,"elev_mean":53.1,"flood_hist_n":0,"flood_depth_max_m":null,"flood_risk_100y":null,"semi_basement_r":null,"elderly_alone_r":0.1443,"bldg_age30_r":null,"shelter_min_walk":4,"pop":31778,"hh":15277,"elderly65_r":0.2543,"single_hh_r":0.41,"source_level":"emd","flood_years":[],"landslide_hist_n":0},"geometry":{"type":"Polygon","coordinates":[[[126.98298,37.40332],[126.98247,37.40766],[126.97827,37.40961],[126.97459,37.40722],[126.9751,37.40288],[126.9793,37.40093],[126.98298,37.40332]]]}},{"type":"Feature","properties":{"h3":"8830e034adfffff","emd_code":"4117355900","emd_name":"인덕원동","area_km2":0.5069,"edge":false,"slope_mean":5.63,"elev_mean":44.5,"flood_hist_n":0,"flood_depth_max_m":null,"flood_risk_100y":null,"semi_basement_r":null,"elderly_alone_r":0.1068,"bldg_age30_r":null,"shelter_min_walk":1,"pop":17799,"hh":8826,"elderly65_r":0.1936,"single_hh_r":0.46,"source_level":"emd","flood_years":[],"landslide_hist_n":0},"geometry":{"type":"Polygon","coordinates":[[[126.97981,37.39659],[126.9793,37.40093],[126.9751,37.40288],[126.97142,37.4005],[126.97194,37.39616],[126.97613,37.3942],[126.97981,37.39659]]]}},{"type":"Feature","properties":{"h3":"8830e034c1fffff","emd_code":"4117353000","emd_name":"비산3동","area_km2":0.5069,"edge":true,"slope_mean":25.46,"elev_mean":312.6,"flood_hist_n":0,"flood_depth_max_m":null,"flood_risk_100y":null,"semi_basement_r":null,"elderly_alone_r":0.1174,"bldg_age30_r":null,"shelter_min_walk":30,"pop":17817,"hh":7680,"elderly65_r":0.2003,"single_hh_r":0.3264,"source_level":"emd","flood_years":[],"landslide_hist_n":0},"geometry":{"type":"Polygon","coordinates":[[[126.97201,37.42893],[126.9715,37.43327],[126.9673,37.43522],[126.96362,37.43284],[126.96413,37.42849],[126.96833,37.42654],[126.97201,37.42893]]]}},{"type":"Feature","properties":{"h3":"8830e034c5fffff","emd_code":"4117355200","emd_name":"관양동","area_km2":0.5068,"edge":true,"slope_mean":19.55,"elev_mean":243.3,"flood_hist_n":0,"flood_depth_max_m":null,"flood_risk_100y":null,"semi_basement_r":null,"elderly_alone_r":0.1443,"bldg_age30_r":null,"shelter_min_walk":24,"pop":31778,"hh":15277,"elderly65_r":0.2543,"single_hh_r":0.41,"source_level":"emd","flood_years":[],"landslide_hist_n":0},"geometry":{"type":"Polygon","coordinates":[[[126.96885,37.4222],[126.96833,37.42654],[126.96413,37.42849],[126.96045,37.42611],[126.96097,37.42177],[126.96516,37.41981],[126.96885,37.4222]]]}},{"type":"Feature","properties":{"h3":"8830e034c9fffff","emd_code":"4117353000","emd_name":"비산3동","area_km2":0.5068,"edge":false,"slope_mean":26.13,"elev_mean":491.9,"flood_hist_n":0,"flood_depth_max_m":null,"flood_risk_100y":null,"semi_basement_r":null,"elderly_alone_r":0.1174,"bldg_age30_r":null,"shelter_min_walk":38,"pop":17817,"hh":7680,"elderly65_r":0.2003,"single_hh_r":0.3264,"source_level":"emd","flood_years":[],"landslide_hist_n":0},"geometry":{"type":"Polygon","coordinates":[[[126.9673,37.43522],[126.96678,37.43956],[126.96259,37.44152],[126.9589,37.43913],[126.95942,37.43479],[126.96362,37.43284],[126.9673,37.43522]]]}},{"type":"Feature","properties":{"h3":"8830e034cdfffff","emd_code":"4117353000","emd_name":"비산3동","area_km2":0.5068,"edge":false,"slope_mean":25.8,"elev_mean":413.3,"flood_hist_n":0,"flood_depth_max_m":null,"flood_risk_100y":null,"semi_basement_r":null,"elderly_alone_r":0.1174,"bldg_age30_r":null,"shelter_min_walk":36,"pop":17817,"hh":7680,"elderly65_r":0.2003,"single_hh_r":0.3264,"source_level":"emd","flood_years":[],"landslide_hist_n":0},"geometry":{"type":"Polygon","coordinates":[[[126.96413,37.42849],[126.96362,37.43284],[126.95942,37.43479],[126.95574,37.4324],[126.95626,37.42806],[126.96045,37.42611],[126.96413,37.42849]]]}},{"type":"Feature","properties":{"h3":"8830e034e1fffff","emd_code":"4117355200","emd_name":"관양동","area_km2":0.5068,"edge":false,"slope_mean":11.18,"elev_mean":75.0,"flood_hist_n":0,"flood_depth_max_m":null,"flood_risk_100y":null,"semi_basement_r":null,"elderly_alone_r":0.1443,"bldg_age30_r":null,"shelter_min_walk":3,"pop":31778,"hh":15277,"elderly65_r":0.2543,"single_hh_r":0.41,"source_level":"emd","flood_years":[],"landslide_hist_n":0},"geometry":{"type":"Polygon","coordinates":[[[126.97039,37.40918],[126.96988,37.41352],[126.96568,37.41547],[126.962,37.41309],[126.96252,37.40874],[126.96671,37.40679],[126.97039,37.40918]]]}},{"type":"Feature","properties":{"h3":"8830e034e3fffff","emd_code":"4117355200","emd_name":"관양동","area_km2":0.5069,"edge":false,"slope_mean":7.97,"elev_mean":58.9,"flood_hist_n":0,"flood_depth_max_m":null,"flood_risk_100y":null,"semi_basement_r":null,"elderly_alone_r":0.1443,"bldg_age30_r":null,"shelter_min_walk":6,"pop":31778,"hh":15277,"elderly65_r":0.2543,"single_hh_r":0.41,"source_level":"emd","flood_years":[],"landslide_hist_n":0},"geometry":{"type":"Polygon","coordinates":[[[126.97827,37.40961],[126.97775,37.41395],[126.97356,37.41591],[126.96988,37.41352],[126.97039,37.40918],[126.97459,37.40722],[126.97827,37.40961]]]}},{"type":"Feature","properties":{"h3":"8830e034e5fffff","emd_code":"4117355200","emd_name":"관양동","area_km2":0.5067,"edge":false,"slope_mean":4.93,"elev_mean":44.6,"flood_hist_n":0,"flood_depth_max_m":null,"flood_risk_100y":null,"semi_basement_r":null,"elderly_alone_r":0.1443,"bldg_age30_r":null,"shelter_min_walk":1,"pop":31778,"hh":15277,"elderly65_r":0.2543,"single_hh_r":0.41,"source_level":"emd","flood_years":[],"landslide_hist_n":0},"geometry":{"type":"Polygon","coordinates":[[[126.96723,37.40245],[126.96671,37.40679],[126.96252,37.40874],[126.95884,37.40636],[126.95935,37.40202],[126.96355,37.40006],[126.96723,37.40245]]]}},{"type":"Feature","properties":{"h3":"8830e034e7fffff","emd_code":"4117355200","emd_name":"관양동","area_km2":0.5068,"edge":false,"slope_mean":5.66,"elev_mean":44.6,"flood_hist_n":0,"flood_depth_max_m":null,"flood_risk_100y":null,"semi_basement_r":null,"elderly_alone_r":0.1443,"bldg_age30_r":null,"shelter_min_walk":1,"pop":31778,"hh":15277,"elderly65_r":0.2543,"single_hh_r":0.41,"source_level":"emd","flood_years":[],"landslide_hist_n":0},"geometry":{"type":"Polygon","coordinates":[[[126.9751,37.40288],[126.97459,37.40722],[126.97039,37.40918],[126.96671,37.40679],[126.96723,37.40245],[126.97142,37.4005],[126.9751,37.40288]]]}},{"type":"Feature","properties":{"h3":"8830e034e9fffff","emd_code":"4117355200","emd_name":"관양동","area_km2":0.5067,"edge":false,"slope_mean":15.6,"elev_mean":173.8,"flood_hist_n":0,"flood_depth_max_m":null,"flood_risk_100y":null,"semi_basement_r":null,"elderly_alone_r":0.1443,"bldg_age30_r":null,"shelter_min_walk":15,"pop":31778,"hh":15277,"elderly65_r":0.2543,"single_hh_r":0.41,"source_level":"emd","flood_years":[],"landslide_hist_n":0},"geometry":{"type":"Polygon","coordinates":[[[126.96568,37.41547],[126.96516,37.41981],[126.96097,37.42177],[126.95729,37.41938],[126.9578,37.41504],[126.962,37.41309],[126.96568,37.41547]]]}},{"type":"Feature","properties":{"h3":"8830e034ebfffff","emd_code":"4117355200","emd_name":"관양동","area_km2":0.5069,"edge":true,"slope_mean":14.42,"elev_mean":121.0,"flood_hist_n":0,"flood_depth_max_m":null,"flood_risk_100y":null,"semi_basement_r":null,"elderly_alone_r":0.1443,"bldg_age30_r":null,"shelter_min_walk":14,"pop":31778,"hh":15277,"elderly65_r":0.2543,"single_hh_r":0.41,"source_level":"emd","flood_years":[],"landslide_hist_n":0},"geometry":{"type":"Polygon","coordinates":[[[126.97356,37.41591],[126.97304,37.42025],[126.96885,37.4222],[126.96516,37.41981],[126.96568,37.41547],[126.96988,37.41352],[126.97356,37.41591]]]}},{"type":"Feature","properties":{"h3":"8830e034edfffff","emd_code":"4117355200","emd_name":"관양동","area_km2":0.5067,"edge":false,"slope_mean":11.62,"elev_mean":85.9,"flood_hist_n":0,"flood_depth_max_m":null,"flood_risk_100y":null,"semi_basement_r":null,"elderly_alone_r":0.1443,"bldg_age30_r":null,"shelter_min_walk":6,"pop":31778,"hh":15277,"elderly65_r":0.2543,"single_hh_r":0.41,"source_level":"emd","flood_years":[],"landslide_hist_n":0},"geometry":{"type":"Polygon","coordinates":[[[126.96252,37.40874],[126.962,37.41309],[126.9578,37.41504],[126.95412,37.41265],[126.95464,37.40831],[126.95884,37.40636],[126.96252,37.40874]]]}},{"type":"Feature","properties":{"h3":"8830e03581fffff","emd_code":"4117360000","emd_name":"호계3동","area_km2":0.5066,"edge":false,"slope_mean":6.5,"elev_mean":62.8,"flood_hist_n":0,"flood_depth_max_m":null,"flood_risk_100y":null,"semi_basement_r":null,"elderly_alone_r":0.0703,"bldg_age30_r":null,"shelter_min_walk":3,"pop":23835,"hh":9530,"elderly65_r":0.1824,"single_hh_r":0.262,"source_level":"emd","flood_years":[],"landslide_hist_n":0},"geometry":{"type":"Polygon","coordinates":[[[126.96715,37.36968],[126.96664,37.37402],[126.96245,37.37598],[126.95877,37.37359],[126.95928,37.36925],[126.96348,37.3673],[126.96715,37.36968]]]}},{"type":"Feature","properties":{"h3":"8830e03583fffff","emd_code":"4117363000","emd_name":"갈산동","area_km2":0.5067,"edge":true,"slope_mean":15.49,"elev_mean":126.3,"flood_hist_n":0,"flood_depth_max_m":null,"flood_risk_100y":null,"semi_basement_r":null,"elderly_alone_r":0.0791,"bldg_age30_r":null,"shelter_min_walk":8,"pop":10279,"hh":3868,"elderly65_r":0.1993,"single_hh_r":0.257,"source_level":"emd","flood_years":[],"landslide_hist_n":0},"geometry":{"type":"Polygon","coordinates":[[[126.97503,37.37011],[126.97451,37.37445],[126.97032,37.37641],[126.96664,37.37402],[126.96715,37.36968],[126.97135,37.36773],[126.97503,37.37011]]]}},{"type":"Feature","properties":{"h3":"8830e03585fffff","emd_code":"4117360000","emd_name":"호계3동","area_km2":0.5066,"edge":false,"slope_mean":5.85,"elev_mean":51.3,"flood_hist_n":0,"flood_depth_max_m":null,"flood_risk_100y":null,"semi_basement_r":null,"elderly_alone_r":0.0703,"bldg_age30_r":null,"shelter_min_walk":1,"pop":23835,"hh":9530,"elderly65_r":0.1824,"single_hh_r":0.262,"source_level":"emd","flood_years":[],"landslide_hist_n":0},"geometry":{"type":"Polygon","coordinates":[[[126.96399,37.36296],[126.96348,37.3673],[126.95928,37.36925],[126.95561,37.36687],[126.95612,37.36253],[126.96031,37.36057],[126.96399,37.36296]]]}},{"type":"Feature","properties":{"h3":"8830e03587fffff","emd_code":"4117360000","emd_name":"호계3동","area_km2":0.5067,"edge":true,"slope_mean":12.42,"elev_mean":97.1,"flood_hist_n":0,"flood_depth_max_m":null,"flood_risk_100y":null,"semi_basement_r":null,"elderly_alone_r":0.0703,"bldg_age30_r":null,"shelter_min_walk":2,"pop":23835,"hh":9530,"elderly65_r":0.1824,"single_hh_r":0.262,"source_level":"emd","flood_years":[],"landslide_hist_n":0},"geometry":{"type":"Polygon","coordinates":[[[126.97186,37.36339],[126.97135,37.36773],[126.96715,37.36968],[126.96348,37.3673],[126.96399,37.36296],[126.96818,37.361],[126.97186,37.36339]]]}},{"type":"Feature","properties":{"h3":"8830e03589fffff","emd_code":"4117362000","emd_name":"신촌동","area_km2":0.5066,"edge":false,"slope_mean":4.59,"elev_mean":48.4,"flood_hist_n":0,"flood_depth_max_m":null,"flood_risk_100y":null,"semi_basement_r":null,"elderly_alone_r":0.064,"bldg_age30_r":null,"shelter_min_walk":1,"pop":12184,"hh":4424,"elderly65_r":0.1755,"single_hh_r":0.1779,"source_level":"emd","flood_years":[],"landslide_hist_n":0},"geometry":{"type":"Polygon","coordinates":[[[126.96245,37.37598],[126.96193,37.38032],[126.95774,37.38227],[126.95406,37.37988],[126.95457,37.37554],[126.95877,37.37359],[126.96245,37.37598]]]}},{"type":"Feature","properties":{"h3":"8830e0358bfffff","emd_code":"4117363000","emd_name":"갈산동","area_km2":0.5067,"edge":false,"slope_mean":7.81,"elev_mean":64.2,"flood_hist_n":0,"flood_depth_max_m":null,"flood_risk_100y":null,"semi_basement_r":null,"elderly_alone_r":0.0791,"bldg_age30_r":null,"shelter_min_walk":2,"pop":10279,"hh":3868,"elderly65_r":0.1993,"single_hh_r":0.257,"source_level":"emd","flood_years":[],"landslide_hist_n":0},"geometry":{"type":"Polygon","coordinates":[[[126.97032,37.37641],[126.9698,37.38075],[126.96561,37.3827],[126.96193,37.38032],[126.96245,37.37598],[126.96664,37.37402],[126.97032,37.37641]]]}},{"type":"Feature","properties":{"h3":"8830e0358dfffff","emd_code":"4117358000","emd_name":"호계1동","area_km2":0.5065,"edge":false,"slope_mean":4.3,"elev_mean":47.4,"flood_hist_n":0,"flood_depth_max_m":null,"flood_risk_100y":null,"semi_basement_r":null,"elderly_alone_r":0.0471,"bldg_age30_r":null,"shelter_min_walk":4,"pop":27088,"hh":10340,"elderly65_r":0.1034,"single_hh_r":0.2353,"source_level":"emd","flood_years":[],"landslide_hist_n":0},"geometry":{"type":"Polygon","coordinates":[[[126.95928,37.36925],[126.95877,37.37359],[126.95457,37.37554],[126.9509,37.37316],[126.95141,37.36882],[126.95561,37.36687],[126.95928,37.36925]]]}},{"type":"Feature","properties":{"h3":"8830e03599fffff","emd_code":"4117357800","emd_name":"귀인동","area_km2":0.5069,"edge":true,"slope_mean":7.56,"elev_mean":67.0,"flood_hist_n":0,"flood_depth_max_m":null,"flood_risk_100y":null,"semi_basement_r":null,"elderly_alone_r":0.04,"bldg_age30_r":null,"shelter_min_walk":1,"pop":15902,"hh":5073,"elderly65_r":0.1156,"single_hh_r":0.1122,"source_level":"emd","flood_years":[],"landslide_hist_n":0},"geometry":{"type":"Polygon","coordinates":[[[126.98136,37.38356],[126.98084,37.38791],[126.97665,37.38986],[126.97297,37.38747],[126.97348,37.38313],[126.97768,37.38118],[126.98136,37.38356]]]}},{"type":"Feature","properties":{"h3":"8830e0359dfffff","emd_code":"4117363000","emd_name":"갈산동","area_km2":0.5068,"edge":true,"slope_mean":9.57,"elev_mean":85.2,"flood_hist_n":0,"flood_depth_max_m":null,"flood_risk_100y":null,"semi_basement_r":null,"elderly_alone_r":0.0791,"bldg_age30_r":null,"shelter_min_walk":2,"pop":10279,"hh":3868,"elderly65_r":0.1993,"single_hh_r":0.257,"source_level":"emd","flood_years":[],"landslide_hist_n":0},"geometry":{"type":"Polygon","coordinates":[[[126.97819,37.37684],[126.97768,37.38118],[126.97348,37.38313],[126.9698,37.38075],[126.97032,37.37641],[126.97451,37.37445],[126.97819,37.37684]]]}},{"type":"Feature","properties":{"h3":"8830e035abfffff","emd_code":"4117360000","emd_name":"호계3동","area_km2":0.5066,"edge":true,"slope_mean":4.94,"elev_mean":53.3,"flood_hist_n":0,"flood_depth_max_m":null,"flood_risk_100y":null,"semi_basement_r":null,"elderly_alone_r":0.0703,"bldg_age30_r":null,"shelter_min_walk":4,"pop":23835,"hh":9530,"elderly65_r":0.1824,"single_hh_r":0.262,"source_level":"emd","flood_years":[],"landslide_hist_n":0},"geometry":{"type":"Polygon","coordinates":[[[126.9687,37.35666],[126.96818,37.361],[126.96399,37.36296],[126.96031,37.36057],[126.96083,37.35623],[126.96502,37.35428],[126.9687,37.35666]]]}},{"type":"Feature","properties":{"h3":"8830e035c1fffff","emd_code":"4117359000","emd_name":"호계2동","area_km2":0.5064,"edge":false,"slope_mean":7.2,"elev_mean":43.7,"flood_hist_n":0,"flood_depth_max_m":null,"flood_risk_100y":null,"semi_basement_r":null,"elderly_alone_r":0.0635,"bldg_age30_r":null,"shelter_min_walk":3,"pop":27182,"hh":10606,"elderly65_r":0.1653,"single_hh_r":0.2341,"source_level":"emd","flood_years":[],"landslide_hist_n":0},"geometry":{"type":"Polygon","coordinates":[[[126.94987,37.38184],[126.94935,37.38618],[126.94516,37.38813],[126.94148,37.38574],[126.942,37.38141],[126.94619,37.37945],[126.94987,37.38184]]]}},{"type":"Feature","properties":{"h3":"8830e035c3fffff","emd_code":"4117361000","emd_name":"범계동","area_km2":0.5065,"edge":false,"slope_mean":5.55,"elev_mean":43.3,"flood_hist_n":0,"flood_depth_max_m":null,"flood_risk_100y":null,"semi_basement_r":null,"elderly_alone_r":0.0692,"bldg_age30_r":null,"shelter_min_walk":1,"pop":14885,"hh":5839,"elderly65_r":0.1502,"single_hh_r":0.2673,"source_level":"emd","flood_years":[],"landslide_hist_n":0},"geometry":{"type":"Polygon","coordinates":[[[126.95774,37.38227],[126.95722,37.38661],[126.95303,37.38856],[126.94935,37.38618],[126.94987,37.38184],[126.95406,37.37988],[126.95774,37.38227]]]}},{"type":"Feature","properties":{"h3":"8830e035c5fffff","emd_code":"4117359000","emd_name":"호계2동","area_km2":0.5064,"edge":true,"slope_mean":8.32,"elev_mean":43.2,"flood_hist_n":0,"flood_depth_max_m":null,"flood_risk_100y":null,"semi_basement_r":null,"elderly_alone_r":0.0635,"bldg_age30_r":null,"shelter_min_walk":4,"pop":27182,"hh":10606,"elderly65_r":0.1653,"single_hh_r":0.2341,"source_level":"emd","flood_years":[],"landslide_hist_n":0},"geometry":{"type":"Polygon","coordinates":[[[126.94671,37.37511],[126.94619,37.37945],[126.942,37.38141],[126.93832,37.37902],[126.93884,37.37468],[126.94303,37.37273],[126.94671,37.37511]]]}},{"type":"Feature","properties":{"h3":"8830e035c7fffff","emd_code":"4117359000","emd_name":"호계2동","area_km2":0.5065,"edge":false,"slope_mean":9.25,"elev_mean":56.1,"flood_hist_n":0,"flood_depth_max_m":null,"flood_risk_100y":null,"semi_basement_r":null,"elderly_alone_r":0.0635,"bldg_age30_r":null,"shelter_min_walk":2,"pop":27182,"hh":10606,"elderly65_r":0.1653,"single_hh_r":0.2341,"source_level":"emd","flood_years":[],"landslide_hist_n":0},"geometry":{"type":"Polygon","coordinates":[[[126.95457,37.37554],[126.95406,37.37988],[126.94987,37.38184],[126.94619,37.37945],[126.94671,37.37511],[126.9509,37.37316],[126.95457,37.37554]]]}},{"type":"Feature","properties":{"h3":"8830e035c9fffff","emd_code":"4117359000","emd_name":"호계2동","area_km2":0.5064,"edge":true,"slope_mean":5.3,"elev_mean":33.1,"flood_hist_n":0,"flood_depth_max_m":null,"flood_risk_100y":null,"semi_basement_r":null,"elderly_alone_r":0.0635,"bldg_age30_r":null,"shelter_min_walk":5,"pop":27182,"hh":10606,"elderly65_r":0.1653,"single_hh_r":0.2341,"source_level":"emd","flood_years":[],"landslide_hist_n":0},"geometry":{"type":"Polygon","coordinates":[[[126.94516,37.38813],[126.94464,37.39247],[126.94045,37.39442],[126.93677,37.39204],[126.93729,37.3877],[126.94148,37.38574],[126.94516,37.38813]]]}},{"type":"Feature","properties":{"h3":"8830e035cbfffff","emd_code":"4117354000","emd_name":"부흥동","area_km2":0.5065,"edge":false,"slope_mean":5.72,"elev_mean":35.9,"flood_hist_n":0,"flood_depth_max_m":null,"flood_risk_100y":null,"semi_basement_r":null,"elderly_alone_r":0.1097,"bldg_age30_r":null,"shelter_min_walk":3,"pop":15741,"hh":6290,"elderly65_r":0.197,"single_hh_r":0.2685,"source_level":"emd","flood_years":[],"landslide_hist_n":0},"geometry":{"type":"Polygon","coordinates":[[[126.95303,37.38856],[126.95251,37.3929],[126.94832,37.39486],[126.94464,37.39247],[126.94516,37.38813],[126.94935,37.38618],[126.95303,37.38856]]]}},{"type":"Feature","properties":{"h3":"8830e035cdfffff","emd_code":"4117359000","emd_name":"호계2동","area_km2":0.5063,"edge":true,"slope_mean":7.47,"elev_mean":39.3,"flood_hist_n":0,"flood_depth_max_m":null,"flood_risk_100y":null,"semi_basement_r":null,"elderly_alone_r":0.0635,"bldg_age30_r":null,"shelter_min_walk":5,"pop":27182,"hh":10606,"elderly65_r":0.1653,"single_hh_r":0.2341,"source_level":"emd","flood_years":[],"landslide_hist_n":0},"geometry":{"type":"Polygon","coordinates":[[[126.942,37.38141],[126.94148,37.38574],[126.93729,37.3877],[126.93361,37.38531],[126.93413,37.38097],[126.93832,37.37902],[126.942,37.38141]]]}},{"type":"Feature","properties":{"h3":"8830e035d1fffff","emd_code":"4117357600","emd_name":"평안동","area_km2":0.5067,"edge":false,"slope_mean":5.83,"elev_mean":43.3,"flood_hist_n":0,"flood_depth_max_m":null,"flood_risk_100y":null,"semi_basement_r":null,"elderly_alone_r":0.0583,"bldg_age30_r":null,"shelter_min_walk":2,"pop":22183,"hh":8051,"elderly65_r":0.1219,"single_hh_r":0.1774,"source_level":"emd","flood_years":[],"landslide_hist_n":0},"geometry":{"type":"Polygon","coordinates":[[[126.96877,37.38943],[126.96826,37.39377],[126.96406,37.39572],[126.96038,37.39334],[126.9609,37.389],[126.96509,37.38704],[126.96877,37.38943]]]}},{"type":"Feature","properties":{"h3":"8830e035d3fffff","emd_code":"4117355900","emd_name":"인덕원동","area_km2":0.5068,"edge":false,"slope_mean":5.16,"elev_mean":46.0,"flood_hist_n":0,"flood_depth_max_m":null,"flood_risk_100y":null,"semi_basement_r":null,"elderly_alone_r":0.1068,"bldg_age30_r":null,"shelter_min_walk":4,"pop":17799,"hh":8826,"elderly65_r":0.1936,"single_hh_r":0.46,"source_level":"emd","flood_years":[],"landslide_hist_n":0},"geometry":{"type":"Polygon","coordinates":[[[126.97665,37.38986],[126.97613,37.3942],[126.97194,37.39616],[126.96826,37.39377],[126.96877,37.38943],[126.97297,37.38747],[126.97665,37.38986]]]}},{"type":"Feature","properties":{"h3":"8830e035d5fffff","emd_code":"4117357800","emd_name":"귀인동","area_km2":0.5067,"edge":false,"slope_mean":5.81,"elev_mean":48.9,"flood_hist_n":0,"flood_depth_max_m":null,"flood_risk_100y":null,"semi_basement_r":null,"elderly_alone_r":0.04,"bldg_age30_r":null,"shelter_min_walk":2,"pop":15902,"hh":5073,"elderly65_r":0.1156,"single_hh_r":0.1122,"source_level":"emd","flood_years":[],"landslide_hist_n":0},"geometry":{"type":"Polygon","coordinates":[[[126.96561,37.3827],[126.96509,37.38704],[126.9609,37.389],[126.95722,37.38661],[126.95774,37.38227],[126.96193,37.38032],[126.96561,37.3827]]]}},{"type":"Feature","properties":{"h3":"8830e035d7fffff","emd_code":"4117357800","emd_name":"귀인동","area_km2":0.5068,"edge":false,"slope_mean":5.87,"elev_mean":54.9,"flood_hist_n":0,"flood_depth_max_m":null,"flood_risk_100y":null,"semi_basement_r":null,"elderly_alone_r":0.04,"bldg_age30_r":null,"shelter_min_walk":1,"pop":15902,"hh":5073,"elderly65_r":0.1156,"single_hh_r":0.1122,"source_level":"emd","flood_years":[],"landslide_hist_n":0},"geometry":{"type":"Polygon","coordinates":[[[126.97348,37.38313],[126.97297,37.38747],[126.96877,37.38943],[126.96509,37.38704],[126.96561,37.3827],[126.9698,37.38075],[126.97348,37.38313]]]}},{"type":"Feature","properties":{"h3":"8830e035d9fffff","emd_code":"4117356600","emd_name":"부림동","area_km2":0.5067,"edge":false,"slope_mean":5.03,"elev_mean":37.4,"flood_hist_n":0,"flood_depth_max_m":null,"flood_risk_100y":null,"semi_basement_r":null,"elderly_alone_r":0.0718,"bldg_age30_r":null,"shelter_min_walk":2,"pop":26421,"hh":12747,"elderly65_r":0.1385,"single_hh_r":0.4123,"source_level":"emd","flood_years":[],"landslide_hist_n":0},"geometry":{"type":"Polygon","coordinates":[[[126.96406,37.39572],[126.96355,37.40006],[126.95935,37.40202],[126.95567,37.39963],[126.95619,37.39529],[126.96038,37.39334],[126.96406,37.39572]]]}},{"type":"Feature","properties":{"h3":"8830e035dbfffff","emd_code":"4117355900","emd_name":"인덕원동","area_km2":0.5068,"edge":false,"slope_mean":4.21,"elev_mean":38.0,"flood_hist_n":0,"flood_depth_max_m":null,"flood_risk_100y":null,"semi_basement_r":null,"elderly_alone_r":0.1068,"bldg_age30_r":null,"shelter_min_walk":4,"pop":17799,"hh":8826,"elderly65_r":0.1936,"single_hh_r":0.46,"source_level":"emd","flood_years":[],"landslide_hist_n":0},"geometry":{"type":"Polygon","coordinates":[[[126.97194,37.39616],[126.97142,37.4005],[126.96723,37.40245],[126.96355,37.40006],[126.96406,37.39572],[126.96826,37.39377],[126.97194,37.39616]]]}},{"type":"Feature","properties":{"h3":"8830e035ddfffff","emd_code":"4117356600","emd_name":"부림동","area_km2":0.5066,"edge":false,"slope_mean":5.77,"elev_mean":38.9,"flood_hist_n":0,"flood_depth_max_m":null,"flood_risk_100y":null,"semi_basement_r":null,"elderly_alone_r":0.0718,"bldg_age30_r":null,"shelter_min_walk":2,"pop":26421,"hh":12747,"elderly65_r":0.1385,"single_hh_r":0.4123,"source_level":"emd","flood_years":[],"landslide_hist_n":0},"geometry":{"type":"Polygon","coordinates":[[[126.9609,37.389],[126.96038,37.39334],[126.95619,37.39529],[126.95251,37.3929],[126.95303,37.38856],[126.95722,37.38661],[126.9609,37.389]]]}},{"type":"Feature","properties":{"h3":"8830e035e3fffff","emd_code":"4117360000","emd_name":"호계3동","area_km2":0.5065,"edge":true,"slope_mean":4.07,"elev_mean":41.2,"flood_hist_n":0,"flood_depth_max_m":null,"flood_risk_100y":null,"semi_basement_r":null,"elderly_alone_r":0.0703,"bldg_age30_r":null,"shelter_min_walk":6,"pop":23835,"hh":9530,"elderly65_r":0.1824,"single_hh_r":0.262,"source_level":"emd","flood_years":[],"landslide_hist_n":0},"geometry":{"type":"Polygon","coordinates":[[[126.95612,37.36253],[126.95561,37.36687],[126.95141,37.36882],[126.94774,37.36643],[126.94825,37.36209],[126.95245,37.36014],[126.95612,37.36253]]]}},{"type":"Feature","properties":{"h3":"8830e035ebfffff","emd_code":"4117358000","emd_name":"호계1동","area_km2":0.5064,"edge":false,"slope_mean":5.34,"elev_mean":39.5,"flood_hist_n":0,"flood_depth_max_m":null,"flood_risk_100y":null,"semi_basement_r":null,"elderly_alone_r":0.0471,"bldg_age30_r":null,"shelter_min_walk":3,"pop":27088,"hh":10340,"elderly65_r":0.1034,"single_hh_r":0.2353,"source_level":"emd","flood_years":[],"landslide_hist_n":0},"geometry":{"type":"Polygon","coordinates":[[[126.95141,37.36882],[126.9509,37.37316],[126.94671,37.37511],[126.94303,37.37273],[126.94355,37.36839],[126.94774,37.36643],[126.95141,37.36882]]]}},{"type":"Feature","properties":{"h3":"8830e036a1fffff","emd_code":"4117353000","emd_name":"비산3동","area_km2":0.5067,"edge":true,"slope_mean":15.99,"elev_mean":262.1,"flood_hist_n":0,"flood_depth_max_m":null,"flood_risk_100y":null,"semi_basement_r":null,"elderly_alone_r":0.1174,"bldg_age30_r":null,"shelter_min_walk":57,"pop":17817,"hh":7680,"elderly65_r":0.2003,"single_hh_r":0.3264,"source_level":"emd","flood_years":[],"landslide_hist_n":0},"geometry":{"type":"Polygon","coordinates":[[[126.95471,37.44108],[126.95419,37.44542],[126.94999,37.44737],[126.94631,37.44498],[126.94683,37.44064],[126.95103,37.43869],[126.95471,37.44108]]]}},{"type":"Feature","properties":{"h3":"8830e036a3fffff","emd_code":"4117353000","emd_name":"비산3동","area_km2":0.5068,"edge":true,"slope_mean":25.84,"elev_mean":431.2,"flood_hist_n":0,"flood_depth_max_m":null,"flood_risk_100y":null,"semi_basement_r":null,"elderly_alone_r":0.1174,"bldg_age30_r":null,"shelter_min_walk":48,"pop":17817,"hh":7680,"elderly65_r":0.2003,"single_hh_r":0.3264,"source_level":"emd","flood_years":[],"landslide_hist_n":0},"geometry":{"type":"Polygon","coordinates":[[[126.96259,37.44152],[126.96207,37.44586],[126.95787,37.44781],[126.95419,37.44542],[126.95471,37.44108],[126.9589,37.43913],[126.96259,37.44152]]]}},{"type":"Feature","properties":{"h3":"8830e036a5fffff","emd_code":"4117353000","emd_name":"비산3동","area_km2":0.5066,"edge":true,"slope_mean":19.28,"elev_mean":269.5,"flood_hist_n":0,"flood_depth_max_m":null,"flood_risk_100y":null,"semi_basement_r":null,"elderly_alone_r":0.1174,"bldg_age30_r":null,"shelter_min_walk":46,"pop":17817,"hh":7680,"elderly65_r":0.2003,"single_hh_r":0.3264,"source_level":"emd","flood_years":[],"landslide_hist_n":0},"geometry":{"type":"Polygon","coordinates":[[[126.95154,37.43435],[126.95103,37.43869],[126.94683,37.44064],[126.94315,37.43825],[126.94367,37.43391],[126.94786,37.43196],[126.95154,37.43435]]]}},{"type":"Feature","properties":{"h3":"8830e036a7fffff","emd_code":"4117353000","emd_name":"비산3동","area_km2":0.5067,"edge":false,"slope_mean":24.01,"elev_mean":378.9,"flood_hist_n":0,"flood_depth_max_m":null,"flood_risk_100y":null,"semi_basement_r":null,"elderly_alone_r":0.1174,"bldg_age30_r":null,"shelter_min_walk":48,"pop":17817,"hh":7680,"elderly65_r":0.2003,"single_hh_r":0.3264,"source_level":"emd","flood_years":[],"landslide_hist_n":0},"geometry":{"type":"Polygon","coordinates":[[[126.95942,37.43479],[126.9589,37.43913],[126.95471,37.44108],[126.95103,37.43869],[126.95154,37.43435],[126.95574,37.4324],[126.95942,37.43479]]]}}]}