{"type":"FeatureCollection","name":"grid_41171_h3r8","meta":{"sgg_code":"41171","h3_res":8,"n_cells":98,"dem":"Copernicus GLO-30 (bbox-mean)","crs":"EPSG:4326","jumin_basis":"2026-07","flood_src":"행안부 침수흔적도(전국, 재난안전데이터공유플랫폼)","landslide_src":"행안부 산사태 발생이력"},"features":[{"type":"Feature","properties":{"h3":"8830e03093fffff","emd_code":"4117165000","emd_name":"호현동","area_km2":0.5055,"edge":true,"slope_mean":16.33,"elev_mean":118.3,"flood_hist_n":0,"flood_depth_max_m":null,"flood_risk_100y":null,"semi_basement_r":null,"elderly_alone_r":0.0759,"bldg_age30_r":null,"shelter_min_walk":17,"pop":19875,"hh":7512,"elderly65_r":0.1857,"single_hh_r":0.2145,"source_level":"emd","flood_years":[],"landslide_hist_n":0},"geometry":{"type":"Polygon","coordinates":[[[126.88379,37.37164],[126.88327,37.37598],[126.87908,37.37793],[126.87541,37.37554],[126.87593,37.3712],[126.88012,37.36925],[126.88379,37.37164]]]}},{"type":"Feature","properties":{"h3":"8830e03401fffff","emd_code":"4117152000","emd_name":"안양2동","area_km2":0.5063,"edge":false,"slope_mean":19.25,"elev_mean":166.8,"flood_hist_n":0,"flood_depth_max_m":null,"flood_risk_100y":null,"semi_basement_r":null,"elderly_alone_r":0.1339,"bldg_age30_r":null,"shelter_min_walk":18,"pop":22058,"hh":10775,"elderly65_r":0.2322,"single_hh_r":0.4246,"source_level":"emd","flood_years":[],"landslide_hist_n":0},"geometry":{"type":"Polygon","coordinates":[[[126.93418,37.41373],[126.93367,37.41807],[126.92947,37.42002],[126.92579,37.41763],[126.92631,37.4133],[126.93051,37.41134],[126.93418,37.41373]]]}},{"type":"Feature","properties":{"h3":"8830e03403fffff","emd_code":"4117152000","emd_name":"안양2동","area_km2":0.5064,"edge":false,"slope_mean":21.62,"elev_mean":176.5,"flood_hist_n":0,"flood_depth_max_m":null,"flood_risk_100y":null,"semi_basement_r":null,"elderly_alone_r":0.1339,"bldg_age30_r":null,"shelter_min_walk":18,"pop":22058,"hh":10775,"elderly65_r":0.2322,"single_hh_r":0.4246,"source_level":"emd","flood_years":[],"landslide_hist_n":0},"geometry":{"type":"Polygon","coordinates":[[[126.94206,37.41417],[126.94154,37.41851],[126.93734,37.42046],[126.93367,37.41807],[126.93418,37.41373],[126.93838,37.41178],[126.94206,37.41417]]]}},{"type":"Feature","properties":{"h3":"8830e03405fffff","emd_code":"4117152000","emd_name":"안양2동","area_km2":0.5062,"edge":false,"slope_mean":19.31,"elev_mean":146.2,"flood_hist_n":0,"flood_depth_max_m":null,"flood_risk_100y":null,"semi_basement_r":null,"elderly_alone_r":0.1339,"bldg_age30_r":null,"shelter_min_walk":10,"pop":22058,"hh":10775,"elderly65_r":0.2322,"single_hh_r":0.4246,"source_level":"emd","flood_years":[],"landslide_hist_n":0},"geometry":{"type":"Polygon","coordinates":[[[126.93102,37.40701],[126.93051,37.41134],[126.92631,37.4133],[126.92264,37.41091],[126.92315,37.40657],[126.92735,37.40462],[126.93102,37.40701]]]}},{"type":"Feature","properties":{"h3":"8830e03409fffff","emd_code":"4117159000","emd_name":"석수1동","area_km2":0.5063,"edge":false,"slope_mean":15.7,"elev_mean":108.1,"flood_hist_n":0,"flood_depth_max_m":null,"flood_risk_100y":null,"semi_basement_r":null,"elderly_alone_r":0.113,"bldg_age30_r":null,"shelter_min_walk":16,"pop":18066,"hh":7462,"elderly65_r":0.252,"single_hh_r":0.2653,"source_level":"emd","flood_years":[],"landslide_hist_n":0},"geometry":{"type":"Polygon","coordinates":[[[126.92947,37.42002],[126.92895,37.42436],[126.92476,37.42631],[126.92108,37.42392],[126.9216,37.41959],[126.92579,37.41763],[126.92947,37.42002]]]}},{"type":"Feature","properties":{"h3":"8830e0340bfffff","emd_code":"4117159000","emd_name":"석수1동","area_km2":0.5064,"edge":false,"slope_mean":17.6,"elev_mean":145.3,"flood_hist_n":0,"flood_depth_max_m":null,"flood_risk_100y":null,"semi_basement_r":null,"elderly_alone_r":0.113,"bldg_age30_r":null,"shelter_min_walk":26,"pop":18066,"hh":7462,"elderly65_r":0.252,"single_hh_r":0.2653,"source_level":"emd","flood_years":[],"landslide_hist_n":0},"geometry":{"type":"Polygon","coordinates":[[[126.93734,37.42046],[126.93683,37.4248],[126.93263,37.42675],[126.92895,37.42436],[126.92947,37.42002],[126.93367,37.41807],[126.93734,37.42046]]]}},{"type":"Feature","properties":{"h3":"8830e0340dfffff","emd_code":"4117152000","emd_name":"안양2동","area_km2":0.5062,"edge":false,"slope_mean":15.34,"elev_mean":88.4,"flood_hist_n":0,"flood_depth_max_m":null,"flood_risk_100y":null,"semi_basement_r":null,"elderly_alone_r":0.1339,"bldg_age30_r":null,"shelter_min_walk":8,"pop":22058,"hh":10775,"elderly65_r":0.2322,"single_hh_r":0.4246,"source_level":"emd","flood_years":[],"landslide_hist_n":0},"geometry":{"type":"Polygon","coordinates":[[[126.92631,37.4133],[126.92579,37.41763],[126.9216,37.41959],[126.91792,37.4172],[126.91844,37.41286],[126.92264,37.41091],[126.92631,37.4133]]]}},{"type":"Feature","properties":{"h3":"8830e03411fffff","emd_code":"4117159000","emd_name":"석수1동","area_km2":0.5066,"edge":true,"slope_mean":20.33,"elev_mean":173.7,"flood_hist_n":0,"flood_depth_max_m":null,"flood_risk_100y":null,"semi_basement_r":null,"elderly_alone_r":0.113,"bldg_age30_r":null,"shelter_min_walk":24,"pop":18066,"hh":7462,"elderly65_r":0.252,"single_hh_r":0.2653,"source_level":"emd","flood_years":[],"landslide_hist_n":0},"geometry":{"type":"Polygon","coordinates":[[[126.95309,37.42133],[126.95258,37.42567],[126.94838,37.42762],[126.9447,37.42524],[126.94522,37.4209],[126.94941,37.41894],[126.95309,37.42133]]]}},{"type":"Feature","properties":{"h3":"8830e03419fffff","emd_code":"4117159000","emd_name":"석수1동","area_km2":0.5065,"edge":false,"slope_mean":22.86,"elev_mean":262.5,"flood_hist_n":0,"flood_depth_max_m":null,"flood_risk_100y":null,"semi_basement_r":null,"elderly_alone_r":0.113,"bldg_age30_r":null,"shelter_min_walk":35,"pop":18066,"hh":7462,"elderly65_r":0.252,"single_hh_r":0.2653,"source_level":"emd","flood_years":[],"landslide_hist_n":0},"geometry":{"type":"Polygon","coordinates":[[[126.94838,37.42762],[126.94786,37.43196],[126.94367,37.43391],[126.93999,37.43153],[126.9405,37.42719],[126.9447,37.42524],[126.94838,37.42762]]]}},{"type":"Feature","properties":{"h3":"8830e0341bfffff","emd_code":"4117159000","emd_name":"석수1동","area_km2":0.5066,"edge":true,"slope_mean":23.0,"elev_mean":266.8,"flood_hist_n":0,"flood_depth_max_m":null,"flood_risk_100y":null,"semi_basement_r":null,"elderly_alone_r":0.113,"bldg_age30_r":null,"shelter_min_walk":36,"pop":18066,"hh":7462,"elderly65_r":0.252,"single_hh_r":0.2653,"source_level":"emd","flood_years":[],"landslide_hist_n":0},"geometry":{"type":"Polygon","coordinates":[[[126.95626,37.42806],[126.95574,37.4324],[126.95154,37.43435],[126.94786,37.43196],[126.94838,37.42762],[126.95258,37.42567],[126.95626,37.42806]]]}},{"type":"Feature","properties":{"h3":"8830e0341dfffff","emd_code":"4117159000","emd_name":"석수1동","area_km2":0.5065,"edge":false,"slope_mean":21.66,"elev_mean":175.3,"flood_hist_n":0,"flood_depth_max_m":null,"flood_risk_100y":null,"semi_basement_r":null,"elderly_alone_r":0.113,"bldg_age30_r":null,"shelter_min_walk":25,"pop":18066,"hh":7462,"elderly65_r":0.252,"single_hh_r":0.2653,"source_level":"emd","flood_years":[],"landslide_hist_n":0},"geometry":{"type":"Polygon","coordinates":[[[126.94522,37.4209],[126.9447,37.42524],[126.9405,37.42719],[126.93683,37.4248],[126.93734,37.42046],[126.94154,37.41851],[126.94522,37.4209]]]}},{"type":"Feature","properties":{"h3":"8830e03421fffff","emd_code":"4117151000","emd_name":"안양1동","area_km2":0.5062,"edge":false,"slope_mean":5.01,"elev_mean":35.8,"flood_hist_n":0,"flood_depth_max_m":null,"flood_risk_100y":null,"semi_basement_r":null,"elderly_alone_r":0.0769,"bldg_age30_r":null,"shelter_min_walk":6,"pop":18944,"hh":8117,"elderly65_r":0.1806,"single_hh_r":0.3017,"source_level":"emd","flood_years":[],"landslide_hist_n":0},"geometry":{"type":"Polygon","coordinates":[[[126.93258,37.39399],[126.93206,37.39833],[126.92787,37.40028],[126.92419,37.39789],[126.92471,37.39355],[126.9289,37.3916],[126.93258,37.39399]]]}},{"type":"Feature","properties":{"h3":"8830e03423fffff","emd_code":"4117157000","emd_name":"안양7동","area_km2":0.5063,"edge":true,"slope_mean":5.52,"elev_mean":33.2,"flood_hist_n":0,"flood_depth_max_m":null,"flood_risk_100y":null,"semi_basement_r":null,"elderly_alone_r":0.0806,"bldg_age30_r":null,"shelter_min_walk":1,"pop":14773,"hh":5944,"elderly65_r":0.1607,"single_hh_r":0.2572,"source_level":"emd","flood_years":[],"landslide_hist_n":0},"geometry":{"type":"Polygon","coordinates":[[[126.94045,37.39442],[126.93993,37.39876],[126.93574,37.40071],[126.93206,37.39833],[126.93258,37.39399],[126.93677,37.39204],[126.94045,37.39442]]]}},{"type":"Feature","properties":{"h3":"8830e03425fffff","emd_code":"4117156000","emd_name":"안양6동","area_km2":0.5062,"edge":false,"slope_mean":10.21,"elev_mean":68.6,"flood_hist_n":0,"flood_depth_max_m":null,"flood_risk_100y":null,"semi_basement_r":null,"elderly_alone_r":0.0941,"bldg_age30_r":null,"shelter_min_walk":1,"pop":27220,"hh":13319,"elderly65_r":0.1829,"single_hh_r":0.4388,"source_level":"emd","flood_years":[],"landslide_hist_n":0},"geometry":{"type":"Polygon","coordinates":[[[126.92942,37.38726],[126.9289,37.3916],[126.92471,37.39355],[126.92103,37.39117],[126.92155,37.38683],[126.92574,37.38488],[126.92942,37.38726]]]}},{"type":"Feature","properties":{"h3":"8830e03427fffff","emd_code":"4117156000","emd_name":"안양6동","area_km2":0.5063,"edge":false,"slope_mean":4.37,"elev_mean":39.4,"flood_hist_n":0,"flood_depth_max_m":null,"flood_risk_100y":null,"semi_basement_r":null,"elderly_alone_r":0.0941,"bldg_age30_r":null,"shelter_min_walk":3,"pop":27220,"hh":13319,"elderly65_r":0.1829,"single_hh_r":0.4388,"source_level":"emd","flood_years":[],"landslide_hist_n":0},"geometry":{"type":"Polygon","coordinates":[[[126.93729,37.3877],[126.93677,37.39204],[126.93258,37.39399],[126.9289,37.3916],[126.92942,37.38726],[126.93361,37.38531],[126.93729,37.3877]]]}},{"type":"Feature","properties":{"h3":"8830e03429fffff","emd_code":"4117151000","emd_name":"안양1동","area_km2":0.5062,"edge":false,"slope_mean":10.21,"elev_mean":42.6,"flood_hist_n":0,"flood_depth_max_m":null,"flood_risk_100y":null,"semi_basement_r":null,"elderly_alone_r":0.0769,"bldg_age30_r":null,"shelter_min_walk":2,"pop":18944,"hh":8117,"elderly65_r":0.1806,"single_hh_r":0.3017,"source_level":"emd","flood_years":[],"landslide_hist_n":0},"geometry":{"type":"Polygon","coordinates":[[[126.92787,37.40028],[126.92735,37.40462],[126.92315,37.40657],[126.91948,37.40418],[126.92,37.39984],[126.92419,37.39789],[126.92787,37.40028]]]}},{"type":"Feature","properties":{"h3":"8830e0342bfffff","emd_code":"4117152000","emd_name":"안양2동","area_km2":0.5063,"edge":true,"slope_mean":12.8,"elev_mean":64.5,"flood_hist_n":0,"flood_depth_max_m":null,"flood_risk_100y":null,"semi_basement_r":null,"elderly_alone_r":0.1339,"bldg_age30_r":null,"shelter_min_walk":2,"pop":22058,"hh":10775,"elderly65_r":0.2322,"single_hh_r":0.4246,"source_level":"emd","flood_years":[],"landslide_hist_n":0},"geometry":{"type":"Polygon","coordinates":[[[126.93574,37.40071],[126.93522,37.40505],[126.93102,37.40701],[126.92735,37.40462],[126.92787,37.40028],[126.93206,37.39833],[126.93574,37.40071]]]}},{"type":"Feature","properties":{"h3":"8830e0342dfffff","emd_code":"4117154000","emd_name":"안양4동","area_km2":0.5061,"edge":false,"slope_mean":6.55,"elev_mean":48.9,"flood_hist_n":0,"flood_depth_max_m":null,"flood_risk_100y":null,"semi_basement_r":null,"elderly_alone_r":0.1785,"bldg_age30_r":null,"shelter_min_walk":2,"pop":6580,"hh":3648,"elderly65_r":0.2822,"single_hh_r":0.545,"source_level":"emd","flood_years":[],"landslide_hist_n":0},"geometry":{"type":"Polygon","coordinates":[[[126.92471,37.39355],[126.92419,37.39789],[126.92,37.39984],[126.91632,37.39746],[126.91684,37.39312],[126.92103,37.39117],[126.92471,37.39355]]]}},{"type":"Feature","properties":{"h3":"8830e03441fffff","emd_code":"4117159000","emd_name":"석수1동","area_km2":0.5061,"edge":false,"slope_mean":13.05,"elev_mean":81.5,"flood_hist_n":0,"flood_depth_max_m":null,"flood_risk_100y":null,"semi_basement_r":null,"elderly_alone_r":0.113,"bldg_age30_r":null,"shelter_min_walk":11,"pop":18066,"hh":7462,"elderly65_r":0.252,"single_hh_r":0.2653,"source_level":"emd","flood_years":[],"landslide_hist_n":0},"geometry":{"type":"Polygon","coordinates":[[[126.91689,37.42587],[126.91637,37.43021],[126.91217,37.43216],[126.9085,37.42978],[126.90902,37.42544],[126.91321,37.42349],[126.91689,37.42587]]]}},{"type":"Feature","properties":{"h3":"8830e03443fffff","emd_code":"4117159000","emd_name":"석수1동","area_km2":0.5062,"edge":false,"slope_mean":16.01,"elev_mean":129.7,"flood_hist_n":0,"flood_depth_max_m":null,"flood_risk_100y":null,"semi_basement_r":null,"elderly_alone_r":0.113,"bldg_age30_r":null,"shelter_min_walk":17,"pop":18066,"hh":7462,"elderly65_r":0.252,"single_hh_r":0.2653,"source_level":"emd","flood_years":[],"landslide_hist_n":0},"geometry":{"type":"Polygon","coordinates":[[[126.92476,37.42631],[126.92424,37.43065],[126.92005,37.4326],[126.91637,37.43021],[126.91689,37.42587],[126.92108,37.42392],[126.92476,37.42631]]]}},{"type":"Feature","properties":{"h3":"8830e03445fffff","emd_code":"4117159000","emd_name":"석수1동","area_km2":0.506,"edge":false,"slope_mean":9.24,"elev_mean":44.2,"flood_hist_n":0,"flood_depth_max_m":null,"flood_risk_100y":null,"semi_basement_r":null,"elderly_alone_r":0.113,"bldg_age30_r":null,"shelter_min_walk":1,"pop":18066,"hh":7462,"elderly65_r":0.252,"single_hh_r":0.2653,"source_level":"emd","flood_years":[],"landslide_hist_n":0},"geometry":{"type":"Polygon","coordinates":[[[126.91373,37.41915],[126.91321,37.42349],[126.90902,37.42544],[126.90534,37.42305],[126.90586,37.41871],[126.91006,37.41676],[126.91373,37.41915]]]}},{"type":"Feature","properties":{"h3":"8830e03447fffff","emd_code":"4117159000","emd_name":"석수1동","area_km2":0.5061,"edge":false,"slope_mean":13.77,"elev_mean":72.2,"flood_hist_n":0,"flood_depth_max_m":null,"flood_risk_100y":null,"semi_basement_r":null,"elderly_alone_r":0.113,"bldg_age30_r":null,"shelter_min_walk":8,"pop":18066,"hh":7462,"elderly65_r":0.252,"single_hh_r":0.2653,"source_level":"emd","flood_years":[],"landslide_hist_n":0},"geometry":{"type":"Polygon","coordinates":[[[126.9216,37.41959],[126.92108,37.42392],[126.91689,37.42587],[126.91321,37.42349],[126.91373,37.41915],[126.91792,37.4172],[126.9216,37.41959]]]}},{"type":"Feature","properties":{"h3":"8830e03449fffff","emd_code":"4117159000","emd_name":"석수1동","area_km2":0.506,"edge":false,"slope_mean":15.2,"elev_mean":85.8,"flood_hist_n":0,"flood_depth_max_m":null,"flood_risk_100y":null,"semi_basement_r":null,"elderly_alone_r":0.113,"bldg_age30_r":null,"shelter_min_walk":5,"pop":18066,"hh":7462,"elderly65_r":0.252,"single_hh_r":0.2653,"source_level":"emd","flood_years":[],"landslide_hist_n":0},"geometry":{"type":"Polygon","coordinates":[[[126.91217,37.43216],[126.91166,37.4365],[126.90746,37.43845],[126.90379,37.43606],[126.9043,37.43172],[126.9085,37.42978],[126.91217,37.43216]]]}},{"type":"Feature","properties":{"h3":"8830e0344bfffff","emd_code":"4117159000","emd_name":"석수1동","area_km2":0.5062,"edge":false,"slope_mean":14.67,"elev_mean":108.5,"flood_hist_n":0,"flood_depth_max_m":null,"flood_risk_100y":null,"semi_basement_r":null,"elderly_alone_r":0.113,"bldg_age30_r":null,"shelter_min_walk":15,"pop":18066,"hh":7462,"elderly65_r":0.252,"single_hh_r":0.2653,"source_level":"emd","flood_years":[],"landslide_hist_n":0},"geometry":{"type":"Polygon","coordinates":[[[126.92005,37.4326],[126.91953,37.43694],[126.91533,37.43889],[126.91166,37.4365],[126.91217,37.43216],[126.91637,37.43021],[126.92005,37.4326]]]}},{"type":"Feature","properties":{"h3":"8830e0344dfffff","emd_code":"4117159000","emd_name":"석수1동","area_km2":0.506,"edge":false,"slope_mean":10.31,"elev_mean":45.4,"flood_hist_n":0,"flood_depth_max_m":null,"flood_risk_100y":null,"semi_basement_r":null,"elderly_alone_r":0.113,"bldg_age30_r":null,"shelter_min_walk":3,"pop":18066,"hh":7462,"elderly65_r":0.252,"single_hh_r":0.2653,"source_level":"emd","flood_years":[],"landslide_hist_n":0},"geometry":{"type":"Polygon","coordinates":[[[126.90902,37.42544],[126.9085,37.42978],[126.9043,37.43172],[126.90063,37.42934],[126.90115,37.425],[126.90534,37.42305],[126.90902,37.42544]]]}},{"type":"Feature","properties":{"h3":"8830e03451fffff","emd_code":"4117159000","emd_name":"석수1동","area_km2":0.5064,"edge":false,"slope_mean":21.46,"elev_mean":276.0,"flood_hist_n":0,"flood_depth_max_m":null,"flood_risk_100y":null,"semi_basement_r":null,"elderly_alone_r":0.113,"bldg_age30_r":null,"shelter_min_walk":36,"pop":18066,"hh":7462,"elderly65_r":0.252,"single_hh_r":0.2653,"source_level":"emd","flood_years":[],"landslide_hist_n":0},"geometry":{"type":"Polygon","coordinates":[[[126.93579,37.43348],[126.93527,37.43782],[126.93108,37.43977],[126.9274,37.43738],[126.92792,37.43304],[126.93211,37.43109],[126.93579,37.43348]]]}},{"type":"Feature","properties":{"h3":"8830e03453fffff","emd_code":"4117159000","emd_name":"석수1동","area_km2":0.5065,"edge":false,"slope_mean":22.66,"elev_mean":381.4,"flood_hist_n":0,"flood_depth_max_m":null,"flood_risk_100y":null,"semi_basement_r":null,"elderly_alone_r":0.113,"bldg_age30_r":null,"shelter_min_walk":44,"pop":18066,"hh":7462,"elderly65_r":0.252,"single_hh_r":0.2653,"source_level":"emd","flood_years":[],"landslide_hist_n":0},"geometry":{"type":"Polygon","coordinates":[[[126.94367,37.43391],[126.94315,37.43825],[126.93895,37.44021],[126.93527,37.43782],[126.93579,37.43348],[126.93999,37.43153],[126.94367,37.43391]]]}},{"type":"Feature","properties":{"h3":"8830e03455fffff","emd_code":"4117159000","emd_name":"석수1동","area_km2":0.5063,"edge":false,"slope_mean":23.06,"elev_mean":241.9,"flood_hist_n":0,"flood_depth_max_m":null,"flood_risk_100y":null,"semi_basement_r":null,"elderly_alone_r":0.113,"bldg_age30_r":null,"shelter_min_walk":26,"pop":18066,"hh":7462,"elderly65_r":0.252,"single_hh_r":0.2653,"source_level":"emd","flood_years":[],"landslide_hist_n":0},"geometry":{"type":"Polygon","coordinates":[[[126.93263,37.42675],[126.93211,37.43109],[126.92792,37.43304],[126.92424,37.43065],[126.92476,37.42631],[126.92895,37.42436],[126.93263,37.42675]]]}},{"type":"Feature","properties":{"h3":"8830e03457fffff","emd_code":"4117159000","emd_name":"석수1동","area_km2":0.5064,"edge":false,"slope_mean":24.35,"elev_mean":307.1,"flood_hist_n":0,"flood_depth_max_m":null,"flood_risk_100y":null,"semi_basement_r":null,"elderly_alone_r":0.113,"bldg_age30_r":null,"shelter_min_walk":35,"pop":18066,"hh":7462,"elderly65_r":0.252,"single_hh_r":0.2653,"source_level":"emd","flood_years":[],"landslide_hist_n":0},"geometry":{"type":"Polygon","coordinates":[[[126.9405,37.42719],[126.93999,37.43153],[126.93579,37.43348],[126.93211,37.43109],[126.93263,37.42675],[126.93683,37.4248],[126.9405,37.42719]]]}},{"type":"Feature","properties":{"h3":"8830e03459fffff","emd_code":"4117159000","emd_name":"석수1동","area_km2":0.5063,"edge":false,"slope_mean":19.43,"elev_mean":242.1,"flood_hist_n":0,"flood_depth_max_m":null,"flood_risk_100y":null,"semi_basement_r":null,"elderly_alone_r":0.113,"bldg_age30_r":null,"shelter_min_walk":33,"pop":18066,"hh":7462,"elderly65_r":0.252,"single_hh_r":0.2653,"source_level":"emd","flood_years":[],"landslide_hist_n":0},"geometry":{"type":"Polygon","coordinates":[[[126.93108,37.43977],[126.93056,37.44411],[126.92636,37.44606],[126.92269,37.44367],[126.9232,37.43933],[126.9274,37.43738],[126.93108,37.43977]]]}},{"type":"Feature","properties":{"h3":"8830e0345bfffff","emd_code":"4117159000","emd_name":"석수1동","area_km2":0.5064,"edge":false,"slope_mean":21.11,"elev_mean":315.4,"flood_hist_n":0,"flood_depth_max_m":null,"flood_risk_100y":null,"semi_basement_r":null,"elderly_alone_r":0.113,"bldg_age30_r":null,"shelter_min_walk":43,"pop":18066,"hh":7462,"elderly65_r":0.252,"single_hh_r":0.2653,"source_level":"emd","flood_years":[],"landslide_hist_n":0},"geometry":{"type":"Polygon","coordinates":[[[126.93895,37.44021],[126.93844,37.44455],[126.93424,37.4465],[126.93056,37.44411],[126.93108,37.43977],[126.93527,37.43782],[126.93895,37.44021]]]}},{"type":"Feature","properties":{"h3":"8830e0345dfffff","emd_code":"4117159000","emd_name":"석수1동","area_km2":0.5063,"edge":false,"slope_mean":17.35,"elev_mean":149.1,"flood_hist_n":0,"flood_depth_max_m":null,"flood_risk_100y":null,"semi_basement_r":null,"elderly_alone_r":0.113,"bldg_age30_r":null,"shelter_min_walk":26,"pop":18066,"hh":7462,"elderly65_r":0.252,"single_hh_r":0.2653,"source_level":"emd","flood_years":[],"landslide_hist_n":0},"geometry":{"type":"Polygon","coordinates":[[[126.92792,37.43304],[126.9274,37.43738],[126.9232,37.43933],[126.91953,37.43694],[126.92005,37.4326],[126.92424,37.43065],[126.92792,37.43304]]]}},{"type":"Feature","properties":{"h3":"8830e03461fffff","emd_code":"4117164000","emd_name":"박달동","area_km2":0.506,"edge":false,"slope_mean":3.32,"elev_mean":26.7,"flood_hist_n":0,"flood_depth_max_m":null,"flood_risk_100y":null,"semi_basement_r":null,"elderly_alone_r":0.1898,"bldg_age30_r":null,"shelter_min_walk":7,"pop":13201,"hh":6665,"elderly65_r":0.2921,"single_hh_r":0.4567,"source_level":"emd","flood_years":[],"landslide_hist_n":0},"geometry":{"type":"Polygon","coordinates":[[[126.91529,37.40613],[126.91477,37.41047],[126.91057,37.41242],[126.9069,37.41003],[126.90742,37.4057],[126.91161,37.40375],[126.91529,37.40613]]]}},{"type":"Feature","properties":{"h3":"8830e03463fffff","emd_code":"4117152000","emd_name":"안양2동","area_km2":0.5061,"edge":false,"slope_mean":8.38,"elev_mean":37.5,"flood_hist_n":0,"flood_depth_max_m":null,"flood_risk_100y":null,"semi_basement_r":null,"elderly_alone_r":0.1339,"bldg_age30_r":null,"shelter_min_walk":3,"pop":22058,"hh":10775,"elderly65_r":0.2322,"single_hh_r":0.4246,"source_level":"emd","flood_years":[],"landslide_hist_n":0},"geometry":{"type":"Polygon","coordinates":[[[126.92315,37.40657],[126.92264,37.41091],[126.91844,37.41286],[126.91477,37.41047],[126.91529,37.40613],[126.91948,37.40418],[126.92315,37.40657]]]}},{"type":"Feature","properties":{"h3":"8830e03465fffff","emd_code":"4117165000","emd_name":"호현동","area_km2":0.506,"edge":false,"slope_mean":10.59,"elev_mean":54.5,"flood_hist_n":0,"flood_depth_max_m":null,"flood_risk_100y":null,"semi_basement_r":null,"elderly_alone_r":0.0759,"bldg_age30_r":null,"shelter_min_walk":4,"pop":19875,"hh":7512,"elderly65_r":0.1857,"single_hh_r":0.2145,"source_level":"emd","flood_years":[],"landslide_hist_n":0},"geometry":{"type":"Polygon","coordinates":[[[126.91213,37.39941],[126.91161,37.40375],[126.90742,37.4057],[126.90374,37.40331],[126.90426,37.39897],[126.90846,37.39702],[126.91213,37.39941]]]}},{"type":"Feature","properties":{"h3":"8830e03467fffff","emd_code":"4117153000","emd_name":"안양3동","area_km2":0.5061,"edge":false,"slope_mean":3.54,"elev_mean":35.4,"flood_hist_n":0,"flood_depth_max_m":null,"flood_risk_100y":null,"semi_basement_r":null,"elderly_alone_r":0.1538,"bldg_age30_r":null,"shelter_min_walk":4,"pop":14650,"hh":7218,"elderly65_r":0.2706,"single_hh_r":0.4338,"source_level":"emd","flood_years":[],"landslide_hist_n":0},"geometry":{"type":"Polygon","coordinates":[[[126.92,37.39984],[126.91948,37.40418],[126.91529,37.40613],[126.91161,37.40375],[126.91213,37.39941],[126.91632,37.39746],[126.92,37.39984]]]}},{"type":"Feature","properties":{"h3":"8830e03469fffff","emd_code":"4117160000","emd_name":"석수2동","area_km2":0.506,"edge":false,"slope_mean":8.98,"elev_mean":46.2,"flood_hist_n":0,"flood_depth_max_m":null,"flood_risk_100y":null,"semi_basement_r":null,"elderly_alone_r":0.1259,"bldg_age30_r":null,"shelter_min_walk":4,"pop":29296,"hh":12758,"elderly65_r":0.2347,"single_hh_r":0.3269,"source_level":"emd","flood_years":[],"landslide_hist_n":0},"geometry":{"type":"Polygon","coordinates":[[[126.91057,37.41242],[126.91006,37.41676],[126.90586,37.41871],[126.90219,37.41632],[126.90271,37.41198],[126.9069,37.41003],[126.91057,37.41242]]]}},{"type":"Feature","properties":{"h3":"8830e0346bfffff","emd_code":"4117159000","emd_name":"석수1동","area_km2":0.5061,"edge":false,"slope_mean":6.77,"elev_mean":37.0,"flood_hist_n":0,"flood_depth_max_m":null,"flood_risk_100y":null,"semi_basement_r":null,"elderly_alone_r":0.113,"bldg_age30_r":null,"shelter_min_walk":2,"pop":18066,"hh":7462,"elderly65_r":0.252,"single_hh_r":0.2653,"source_level":"emd","flood_years":[],"landslide_hist_n":0},"geometry":{"type":"Polygon","coordinates":[[[126.91844,37.41286],[126.91792,37.4172],[126.91373,37.41915],[126.91006,37.41676],[126.91057,37.41242],[126.91477,37.41047],[126.91844,37.41286]]]}},{"type":"Feature","properties":{"h3":"8830e0346dfffff","emd_code":"4117161100","emd_name":"충훈동","area_km2":0.5059,"edge":false,"slope_mean":11.62,"elev_mean":42.1,"flood_hist_n":0,"flood_depth_max_m":null,"flood_risk_100y":null,"semi_basement_r":null,"elderly_alone_r":0.1654,"bldg_age30_r":null,"shelter_min_walk":3,"pop":11524,"hh":5273,"elderly65_r":0.2408,"single_hh_r":0.3808,"source_level":"emd","flood_years":[],"landslide_hist_n":0},"geometry":{"type":"Polygon","coordinates":[[[126.90742,37.4057],[126.9069,37.41003],[126.90271,37.41198],[126.89903,37.4096],[126.89955,37.40526],[126.90374,37.40331],[126.90742,37.4057]]]}},{"type":"Feature","properties":{"h3":"8830e03501fffff","emd_code":"4117158300","emd_name":"병목안동","area_km2":0.5059,"edge":false,"slope_mean":27.79,"elev_mean":246.8,"flood_hist_n":0,"flood_depth_max_m":null,"flood_risk_100y":null,"semi_basement_r":null,"elderly_alone_r":0.1548,"bldg_age30_r":null,"shelter_min_walk":20,"pop":15478,"hh":6956,"elderly65_r":0.2948,"single_hh_r":0.3286,"source_level":"emd","flood_years":[],"landslide_hist_n":0},"geometry":{"type":"Polygon","coordinates":[[[126.91208,37.36666],[126.91157,37.37099],[126.90738,37.37294],[126.9037,37.37056],[126.90422,37.36622],[126.90841,37.36427],[126.91208,37.36666]]]}},{"type":"Feature","properties":{"h3":"8830e03503fffff","emd_code":"4117158300","emd_name":"병목안동","area_km2":0.506,"edge":true,"slope_mean":23.76,"elev_mean":279.0,"flood_hist_n":0,"flood_depth_max_m":null,"flood_risk_100y":null,"semi_basement_r":null,"elderly_alone_r":0.1548,"bldg_age30_r":null,"shelter_min_walk":12,"pop":15478,"hh":6956,"elderly65_r":0.2948,"single_hh_r":0.3286,"source_level":"emd","flood_years":[],"landslide_hist_n":0},"geometry":{"type":"Polygon","coordinates":[[[126.91995,37.36709],[126.91943,37.37143],[126.91524,37.37338],[126.91157,37.37099],[126.91208,37.36666],[126.91628,37.3647],[126.91995,37.36709]]]}},{"type":"Feature","properties":{"h3":"8830e03505fffff","emd_code":"4117158300","emd_name":"병목안동","area_km2":0.5058,"edge":false,"slope_mean":27.79,"elev_mean":302.8,"flood_hist_n":0,"flood_depth_max_m":null,"flood_risk_100y":null,"semi_basement_r":null,"elderly_alone_r":0.1548,"bldg_age30_r":null,"shelter_min_walk":17,"pop":15478,"hh":6956,"elderly65_r":0.2948,"single_hh_r":0.3286,"source_level":"emd","flood_years":[],"landslide_hist_n":0},"geometry":{"type":"Polygon","coordinates":[[[126.90893,37.35993],[126.90841,37.36427],[126.90422,37.36622],[126.90055,37.36384],[126.90107,37.3595],[126.90526,37.35755],[126.90893,37.35993]]]}},{"type":"Feature","properties":{"h3":"8830e03507fffff","emd_code":"4117158300","emd_name":"병목안동","area_km2":0.5059,"edge":true,"slope_mean":22.05,"elev_mean":229.1,"flood_hist_n":0,"flood_depth_max_m":null,"flood_risk_100y":null,"semi_basement_r":null,"elderly_alone_r":0.1548,"bldg_age30_r":null,"shelter_min_walk":9,"pop":15478,"hh":6956,"elderly65_r":0.2948,"single_hh_r":0.3286,"source_level":"emd","flood_years":[],"landslide_hist_n":0},"geometry":{"type":"Polygon","coordinates":[[[126.91679,37.36037],[126.91628,37.3647],[126.91208,37.36666],[126.90841,37.36427],[126.90893,37.35993],[126.91312,37.35798],[126.91679,37.36037]]]}},{"type":"Feature","properties":{"h3":"8830e03509fffff","emd_code":"4117158300","emd_name":"병목안동","area_km2":0.5058,"edge":false,"slope_mean":23.47,"elev_mean":164.2,"flood_hist_n":0,"flood_depth_max_m":null,"flood_risk_100y":null,"semi_basement_r":null,"elderly_alone_r":0.1548,"bldg_age30_r":null,"shelter_min_walk":17,"pop":15478,"hh":6956,"elderly65_r":0.2948,"single_hh_r":0.3286,"source_level":"emd","flood_years":[],"landslide_hist_n":0},"geometry":{"type":"Polygon","coordinates":[[[126.90738,37.37294],[126.90686,37.37728],[126.90267,37.37923],[126.89899,37.37685],[126.89951,37.37251],[126.9037,37.37056],[126.90738,37.37294]]]}},{"type":"Feature","properties":{"h3":"8830e0350bfffff","emd_code":"4117158300","emd_name":"병목안동","area_km2":0.5059,"edge":false,"slope_mean":28.98,"elev_mean":294.4,"flood_hist_n":0,"flood_depth_max_m":null,"flood_risk_100y":null,"semi_basement_r":null,"elderly_alone_r":0.1548,"bldg_age30_r":null,"shelter_min_walk":19,"pop":15478,"hh":6956,"elderly65_r":0.2948,"single_hh_r":0.3286,"source_level":"emd","flood_years":[],"landslide_hist_n":0},"geometry":{"type":"Polygon","coordinates":[[[126.91524,37.37338],[126.91472,37.37772],[126.91053,37.37967],[126.90686,37.37728],[126.90738,37.37294],[126.91157,37.37099],[126.91524,37.37338]]]}},{"type":"Feature","properties":{"h3":"8830e0350dfffff","emd_code":"4117158300","emd_name":"병목안동","area_km2":0.5057,"edge":false,"slope_mean":24.24,"elev_mean":222.0,"flood_hist_n":0,"flood_depth_max_m":null,"flood_risk_100y":null,"semi_basement_r":null,"elderly_alone_r":0.1548,"bldg_age30_r":null,"shelter_min_walk":27,"pop":15478,"hh":6956,"elderly65_r":0.2948,"single_hh_r":0.3286,"source_level":"emd","flood_years":[],"landslide_hist_n":0},"geometry":{"type":"Polygon","coordinates":[[[126.90422,37.36622],[126.9037,37.37056],[126.89951,37.37251],[126.89584,37.37012],[126.89636,37.36579],[126.90055,37.36384],[126.90422,37.36622]]]}},{"type":"Feature","properties":{"h3":"8830e03511fffff","emd_code":"4117158200","emd_name":"명학동","area_km2":0.5061,"edge":true,"slope_mean":17.92,"elev_mean":136.0,"flood_hist_n":0,"flood_depth_max_m":null,"flood_risk_100y":null,"semi_basement_r":null,"elderly_alone_r":0.1612,"bldg_age30_r":null,"shelter_min_walk":8,"pop":7788,"hh":4125,"elderly65_r":0.2871,"single_hh_r":0.489,"source_level":"emd","flood_years":[],"landslide_hist_n":0},"geometry":{"type":"Polygon","coordinates":[[[126.93097,37.37425],[126.93045,37.37859],[126.92626,37.38054],[126.92259,37.37815],[126.9231,37.37381],[126.9273,37.37186],[126.93097,37.37425]]]}},{"type":"Feature","properties":{"h3":"8830e03513fffff","emd_code":"4117158200","emd_name":"명학동","area_km2":0.5063,"edge":true,"slope_mean":12.51,"elev_mean":79.6,"flood_hist_n":0,"flood_depth_max_m":null,"flood_risk_100y":null,"semi_basement_r":null,"elderly_alone_r":0.1612,"bldg_age30_r":null,"shelter_min_walk":4,"pop":7788,"hh":4125,"elderly65_r":0.2871,"single_hh_r":0.489,"source_level":"emd","flood_years":[],"landslide_hist_n":0},"geometry":{"type":"Polygon","coordinates":[[[126.93884,37.37468],[126.93832,37.37902],[126.93413,37.38097],[126.93045,37.37859],[126.93097,37.37425],[126.93516,37.37229],[126.93884,37.37468]]]}},{"type":"Feature","properties":{"h3":"8830e03519fffff","emd_code":"4117156000","emd_name":"안양6동","area_km2":0.5061,"edge":false,"slope_mean":21.82,"elev_mean":163.0,"flood_hist_n":0,"flood_depth_max_m":null,"flood_risk_100y":null,"semi_basement_r":null,"elderly_alone_r":0.0941,"bldg_age30_r":null,"shelter_min_walk":4,"pop":27220,"hh":13319,"elderly65_r":0.1829,"single_hh_r":0.4388,"source_level":"emd","flood_years":[],"landslide_hist_n":0},"geometry":{"type":"Polygon","coordinates":[[[126.92626,37.38054],[126.92574,37.38488],[126.92155,37.38683],[126.91788,37.38444],[126.91839,37.3801],[126.92259,37.37815],[126.92626,37.38054]]]}},{"type":"Feature","properties":{"h3":"8830e0351bfffff","emd_code":"4117158200","emd_name":"명학동","area_km2":0.5062,"edge":false,"slope_mean":11.3,"elev_mean":70.6,"flood_hist_n":0,"flood_depth_max_m":null,"flood_risk_100y":null,"semi_basement_r":null,"elderly_alone_r":0.1612,"bldg_age30_r":null,"shelter_min_walk":3,"pop":7788,"hh":4125,"elderly65_r":0.2871,"single_hh_r":0.489,"source_level":"emd","flood_years":[],"landslide_hist_n":0},"geometry":{"type":"Polygon","coordinates":[[[126.93413,37.38097],[126.93361,37.38531],[126.92942,37.38726],[126.92574,37.38488],[126.92626,37.38054],[126.93045,37.37859],[126.93413,37.38097]]]}},{"type":"Feature","properties":{"h3":"8830e0351dfffff","emd_code":"4117156000","emd_name":"안양6동","area_km2":0.506,"edge":true,"slope_mean":27.02,"elev_mean":305.4,"flood_hist_n":0,"flood_depth_max_m":null,"flood_risk_100y":null,"semi_basement_r":null,"elderly_alone_r":0.0941,"bldg_age30_r":null,"shelter_min_walk":15,"pop":27220,"hh":13319,"elderly65_r":0.1829,"single_hh_r":0.4388,"source_level":"emd","flood_years":[],"landslide_hist_n":0},"geometry":{"type":"Polygon","coordinates":[[[126.9231,37.37381],[126.92259,37.37815],[126.91839,37.3801],[126.91472,37.37772],[126.91524,37.37338],[126.91943,37.37143],[126.9231,37.37381]]]}},{"type":"Feature","properties":{"h3":"8830e03529fffff","emd_code":"4117158300","emd_name":"병목안동","area_km2":0.5057,"edge":true,"slope_mean":28.9,"elev_mean":312.7,"flood_hist_n":0,"flood_depth_max_m":null,"flood_risk_100y":null,"semi_basement_r":null,"elderly_alone_r":0.1548,"bldg_age30_r":null,"shelter_min_walk":21,"pop":15478,"hh":6956,"elderly65_r":0.2948,"single_hh_r":0.3286,"source_level":"emd","flood_years":[],"landslide_hist_n":1},"geometry":{"type":"Polygon","coordinates":[[[126.90578,37.35321],[126.90526,37.35755],[126.90107,37.3595],[126.8974,37.35711],[126.89792,37.35278],[126.90211,37.35082],[126.90578,37.35321]]]}},{"type":"Feature","properties":{"h3":"8830e03541fffff","emd_code":"4117165000","emd_name":"호현동","area_km2":0.5057,"edge":false,"slope_mean":21.5,"elev_mean":180.5,"flood_hist_n":0,"flood_depth_max_m":null,"flood_risk_100y":null,"semi_basement_r":null,"elderly_alone_r":0.0759,"bldg_age30_r":null,"shelter_min_walk":18,"pop":19875,"hh":7512,"elderly65_r":0.1857,"single_hh_r":0.2145,"source_level":"emd","flood_years":[],"landslide_hist_n":0},"geometry":{"type":"Polygon","coordinates":[[[126.8948,37.3788],[126.89429,37.38314],[126.89009,37.38509],[126.88642,37.3827],[126.88694,37.37836],[126.89113,37.37641],[126.8948,37.3788]]]}},{"type":"Feature","properties":{"h3":"8830e03543fffff","emd_code":"4117158300","emd_name":"병목안동","area_km2":0.5058,"edge":false,"slope_mean":22.26,"elev_mean":179.7,"flood_hist_n":0,"flood_depth_max_m":null,"flood_risk_100y":null,"semi_basement_r":null,"elderly_alone_r":0.1548,"bldg_age30_r":null,"shelter_min_walk":9,"pop":15478,"hh":6956,"elderly65_r":0.2948,"single_hh_r":0.3286,"source_level":"emd","flood_years":[],"landslide_hist_n":0},"geometry":{"type":"Polygon","coordinates":[[[126.90267,37.37923],[126.90215,37.38357],[126.89796,37.38552],[126.89429,37.38314],[126.8948,37.3788],[126.89899,37.37685],[126.90267,37.37923]]]}},{"type":"Feature","properties":{"h3":"8830e03545fffff","emd_code":"4117165000","emd_name":"호현동","area_km2":0.5056,"edge":true,"slope_mean":21.96,"elev_mean":199.4,"flood_hist_n":0,"flood_depth_max_m":null,"flood_risk_100y":null,"semi_basement_r":null,"elderly_alone_r":0.0759,"bldg_age30_r":null,"shelter_min_walk":22,"pop":19875,"hh":7512,"elderly65_r":0.1857,"single_hh_r":0.2145,"source_level":"emd","flood_years":[],"landslide_hist_n":0},"geometry":{"type":"Polygon","coordinates":[[[126.89165,37.37207],[126.89113,37.37641],[126.88694,37.37836],[126.88327,37.37598],[126.88379,37.37164],[126.88798,37.36969],[126.89165,37.37207]]]}},{"type":"Feature","properties":{"h3":"8830e03547fffff","emd_code":"4117158300","emd_name":"병목안동","area_km2":0.5057,"edge":false,"slope_mean":22.92,"elev_mean":256.2,"flood_hist_n":0,"flood_depth_max_m":null,"flood_risk_100y":null,"semi_basement_r":null,"elderly_alone_r":0.1548,"bldg_age30_r":null,"shelter_min_walk":20,"pop":15478,"hh":6956,"elderly65_r":0.2948,"single_hh_r":0.3286,"source_level":"emd","flood_years":[],"landslide_hist_n":0},"geometry":{"type":"Polygon","coordinates":[[[126.89951,37.37251],[126.89899,37.37685],[126.8948,37.3788],[126.89113,37.37641],[126.89165,37.37207],[126.89584,37.37012],[126.89951,37.37251]]]}},{"type":"Feature","properties":{"h3":"8830e03549fffff","emd_code":"4117165000","emd_name":"호현동","area_km2":0.5056,"edge":false,"slope_mean":12.39,"elev_mean":76.2,"flood_hist_n":0,"flood_depth_max_m":null,"flood_risk_100y":null,"semi_basement_r":null,"elderly_alone_r":0.0759,"bldg_age30_r":null,"shelter_min_walk":24,"pop":19875,"hh":7512,"elderly65_r":0.1857,"single_hh_r":0.2145,"source_level":"emd","flood_years":[],"landslide_hist_n":0},"geometry":{"type":"Polygon","coordinates":[[[126.89009,37.38509],[126.88957,37.38942],[126.88538,37.39137],[126.88171,37.38899],[126.88223,37.38465],[126.88642,37.3827],[126.89009,37.38509]]]}},{"type":"Feature","properties":{"h3":"8830e0354bfffff","emd_code":"4117165000","emd_name":"호현동","area_km2":0.5057,"edge":false,"slope_mean":18.7,"elev_mean":119.0,"flood_hist_n":0,"flood_depth_max_m":null,"flood_risk_100y":null,"semi_basement_r":null,"elderly_alone_r":0.0759,"bldg_age30_r":null,"shelter_min_walk":14,"pop":19875,"hh":7512,"elderly65_r":0.1857,"single_hh_r":0.2145,"source_level":"emd","flood_years":[],"landslide_hist_n":0},"geometry":{"type":"Polygon","coordinates":[[[126.89796,37.38552],[126.89744,37.38986],[126.89325,37.39181],[126.88957,37.38942],[126.89009,37.38509],[126.89429,37.38314],[126.89796,37.38552]]]}},{"type":"Feature","properties":{"h3":"8830e0354dfffff","emd_code":"4117165000","emd_name":"호현동","area_km2":0.5055,"edge":false,"slope_mean":19.51,"elev_mean":145.0,"flood_hist_n":0,"flood_depth_max_m":null,"flood_risk_100y":null,"semi_basement_r":null,"elderly_alone_r":0.0759,"bldg_age30_r":null,"shelter_min_walk":29,"pop":19875,"hh":7512,"elderly65_r":0.1857,"single_hh_r":0.2145,"source_level":"emd","flood_years":[],"landslide_hist_n":0},"geometry":{"type":"Polygon","coordinates":[[[126.88694,37.37836],[126.88642,37.3827],[126.88223,37.38465],[126.87856,37.38226],[126.87908,37.37793],[126.88327,37.37598],[126.88694,37.37836]]]}},{"type":"Feature","properties":{"h3":"8830e03551fffff","emd_code":"4117158300","emd_name":"병목안동","area_km2":0.5059,"edge":false,"slope_mean":17.75,"elev_mean":96.7,"flood_hist_n":0,"flood_depth_max_m":null,"flood_risk_100y":null,"semi_basement_r":null,"elderly_alone_r":0.1548,"bldg_age30_r":null,"shelter_min_walk":7,"pop":15478,"hh":6956,"elderly65_r":0.2948,"single_hh_r":0.3286,"source_level":"emd","flood_years":[],"landslide_hist_n":0},"geometry":{"type":"Polygon","coordinates":[[[126.91368,37.38639],[126.91317,37.39073],[126.90897,37.39268],[126.9053,37.3903],[126.90582,37.38596],[126.91001,37.38401],[126.91368,37.38639]]]}},{"type":"Feature","properties":{"h3":"8830e03553fffff","emd_code":"4117158300","emd_name":"병목안동","area_km2":0.506,"edge":false,"slope_mean":17.42,"elev_mean":109.9,"flood_hist_n":0,"flood_depth_max_m":null,"flood_risk_100y":null,"semi_basement_r":null,"elderly_alone_r":0.1548,"bldg_age30_r":null,"shelter_min_walk":7,"pop":15478,"hh":6956,"elderly65_r":0.2948,"single_hh_r":0.3286,"source_level":"emd","flood_years":[],"landslide_hist_n":0},"geometry":{"type":"Polygon","coordinates":[[[126.92155,37.38683],[126.92103,37.39117],[126.91684,37.39312],[126.91317,37.39073],[126.91368,37.38639],[126.91788,37.38444],[126.92155,37.38683]]]}},{"type":"Feature","properties":{"h3":"8830e03555fffff","emd_code":"4117158300","emd_name":"병목안동","area_km2":0.5059,"edge":false,"slope_mean":21.15,"elev_mean":124.6,"flood_hist_n":0,"flood_depth_max_m":null,"flood_risk_100y":null,"semi_basement_r":null,"elderly_alone_r":0.1548,"bldg_age30_r":null,"shelter_min_walk":6,"pop":15478,"hh":6956,"elderly65_r":0.2948,"single_hh_r":0.3286,"source_level":"emd","flood_years":[],"landslide_hist_n":0},"geometry":{"type":"Polygon","coordinates":[[[126.91053,37.37967],[126.91001,37.38401],[126.90582,37.38596],[126.90215,37.38357],[126.90267,37.37923],[126.90686,37.37728],[126.91053,37.37967]]]}},{"type":"Feature","properties":{"h3":"8830e03557fffff","emd_code":"4117158300","emd_name":"병목안동","area_km2":0.506,"edge":false,"slope_mean":24.06,"elev_mean":199.7,"flood_hist_n":0,"flood_depth_max_m":null,"flood_risk_100y":null,"semi_basement_r":null,"elderly_alone_r":0.1548,"bldg_age30_r":null,"shelter_min_walk":11,"pop":15478,"hh":6956,"elderly65_r":0.2948,"single_hh_r":0.3286,"source_level":"emd","flood_years":[],"landslide_hist_n":0},"geometry":{"type":"Polygon","coordinates":[[[126.91839,37.3801],[126.91788,37.38444],[126.91368,37.38639],[126.91001,37.38401],[126.91053,37.37967],[126.91472,37.37772],[126.91839,37.3801]]]}},{"type":"Feature","properties":{"h3":"8830e03559fffff","emd_code":"4117158300","emd_name":"병목안동","area_km2":0.5059,"edge":false,"slope_mean":18.54,"elev_mean":99.8,"flood_hist_n":0,"flood_depth_max_m":null,"flood_risk_100y":null,"semi_basement_r":null,"elderly_alone_r":0.1548,"bldg_age30_r":null,"shelter_min_walk":3,"pop":15478,"hh":6956,"elderly65_r":0.2948,"single_hh_r":0.3286,"source_level":"emd","flood_years":[],"landslide_hist_n":0},"geometry":{"type":"Polygon","coordinates":[[[126.90897,37.39268],[126.90846,37.39702],[126.90426,37.39897],[126.90059,37.39658],[126.90111,37.39225],[126.9053,37.3903],[126.90897,37.39268]]]}},{"type":"Feature","properties":{"h3":"8830e0355bfffff","emd_code":"4117153000","emd_name":"안양3동","area_km2":0.506,"edge":false,"slope_mean":11.41,"elev_mean":61.8,"flood_hist_n":0,"flood_depth_max_m":null,"flood_risk_100y":null,"semi_basement_r":null,"elderly_alone_r":0.1538,"bldg_age30_r":null,"shelter_min_walk":1,"pop":14650,"hh":7218,"elderly65_r":0.2706,"single_hh_r":0.4338,"source_level":"emd","flood_years":[],"landslide_hist_n":0},"geometry":{"type":"Polygon","coordinates":[[[126.91684,37.39312],[126.91632,37.39746],[126.91213,37.39941],[126.90846,37.39702],[126.90897,37.39268],[126.91317,37.39073],[126.91684,37.39312]]]}},{"type":"Feature","properties":{"h3":"8830e0355dfffff","emd_code":"4117158300","emd_name":"병목안동","area_km2":0.5058,"edge":false,"slope_mean":19.24,"elev_mean":135.9,"flood_hist_n":0,"flood_depth_max_m":null,"flood_risk_100y":null,"semi_basement_r":null,"elderly_alone_r":0.1548,"bldg_age30_r":null,"shelter_min_walk":6,"pop":15478,"hh":6956,"elderly65_r":0.2948,"single_hh_r":0.3286,"source_level":"emd","flood_years":[],"landslide_hist_n":0},"geometry":{"type":"Polygon","coordinates":[[[126.90582,37.38596],[126.9053,37.3903],[126.90111,37.39225],[126.89744,37.38986],[126.89796,37.38552],[126.90215,37.38357],[126.90582,37.38596]]]}},{"type":"Feature","properties":{"h3":"8830e03563fffff","emd_code":"4117158300","emd_name":"병목안동","area_km2":0.5057,"edge":false,"slope_mean":26.73,"elev_mean":306.0,"flood_hist_n":0,"flood_depth_max_m":null,"flood_risk_100y":null,"semi_basement_r":null,"elderly_alone_r":0.1548,"bldg_age30_r":null,"shelter_min_walk":21,"pop":15478,"hh":6956,"elderly65_r":0.2948,"single_hh_r":0.3286,"source_level":"emd","flood_years":[],"landslide_hist_n":0},"geometry":{"type":"Polygon","coordinates":[[[126.90107,37.3595],[126.90055,37.36384],[126.89636,37.36579],[126.89269,37.3634],[126.89321,37.35906],[126.8974,37.35711],[126.90107,37.3595]]]}},{"type":"Feature","properties":{"h3":"8830e0356bfffff","emd_code":"4117158300","emd_name":"병목안동","area_km2":0.5056,"edge":true,"slope_mean":25.13,"elev_mean":265.9,"flood_hist_n":0,"flood_depth_max_m":null,"flood_risk_100y":null,"semi_basement_r":null,"elderly_alone_r":0.1548,"bldg_age30_r":null,"shelter_min_walk":18,"pop":15478,"hh":6956,"elderly65_r":0.2948,"single_hh_r":0.3286,"source_level":"emd","flood_years":[],"landslide_hist_n":0},"geometry":{"type":"Polygon","coordinates":[[[126.89636,37.36579],[126.89584,37.37012],[126.89165,37.37207],[126.88798,37.36969],[126.8885,37.36535],[126.89269,37.3634],[126.89636,37.36579]]]}},{"type":"Feature","properties":{"h3":"8830e035c5fffff","emd_code":"4117157000","emd_name":"안양7동","area_km2":0.5064,"edge":true,"slope_mean":8.32,"elev_mean":43.2,"flood_hist_n":0,"flood_depth_max_m":null,"flood_risk_100y":null,"semi_basement_r":null,"elderly_alone_r":0.0806,"bldg_age30_r":null,"shelter_min_walk":4,"pop":14773,"hh":5944,"elderly65_r":0.1607,"single_hh_r":0.2572,"source_level":"emd","flood_years":[],"landslide_hist_n":0},"geometry":{"type":"Polygon","coordinates":[[[126.94671,37.37511],[126.94619,37.37945],[126.942,37.38141],[126.93832,37.37902],[126.93884,37.37468],[126.94303,37.37273],[126.94671,37.37511]]]}},{"type":"Feature","properties":{"h3":"8830e035c9fffff","emd_code":"4117157000","emd_name":"안양7동","area_km2":0.5064,"edge":false,"slope_mean":5.3,"elev_mean":33.1,"flood_hist_n":0,"flood_depth_max_m":null,"flood_risk_100y":null,"semi_basement_r":null,"elderly_alone_r":0.0806,"bldg_age30_r":null,"shelter_min_walk":5,"pop":14773,"hh":5944,"elderly65_r":0.1607,"single_hh_r":0.2572,"source_level":"emd","flood_years":[],"landslide_hist_n":0},"geometry":{"type":"Polygon","coordinates":[[[126.94516,37.38813],[126.94464,37.39247],[126.94045,37.39442],[126.93677,37.39204],[126.93729,37.3877],[126.94148,37.38574],[126.94516,37.38813]]]}},{"type":"Feature","properties":{"h3":"8830e035cdfffff","emd_code":"4117157000","emd_name":"안양7동","area_km2":0.5063,"edge":false,"slope_mean":7.4,"elev_mean":39.1,"flood_hist_n":0,"flood_depth_max_m":null,"flood_risk_100y":null,"semi_basement_r":null,"elderly_alone_r":0.0806,"bldg_age30_r":null,"shelter_min_walk":5,"pop":14773,"hh":5944,"elderly65_r":0.1607,"single_hh_r":0.2572,"source_level":"emd","flood_years":[],"landslide_hist_n":0},"geometry":{"type":"Polygon","coordinates":[[[126.942,37.38141],[126.94148,37.38574],[126.93729,37.3877],[126.93361,37.38531],[126.93413,37.38097],[126.93832,37.37902],[126.942,37.38141]]]}},{"type":"Feature","properties":{"h3":"8830e03627fffff","emd_code":"4117160000","emd_name":"석수2동","area_km2":0.5059,"edge":false,"slope_mean":4.32,"elev_mean":17.9,"flood_hist_n":0,"flood_depth_max_m":null,"flood_risk_100y":null,"semi_basement_r":null,"elderly_alone_r":0.1259,"bldg_age30_r":null,"shelter_min_walk":5,"pop":29296,"hh":12758,"elderly65_r":0.2347,"single_hh_r":0.3269,"source_level":"emd","flood_years":[],"landslide_hist_n":0},"geometry":{"type":"Polygon","coordinates":[[[126.9043,37.43172],[126.90379,37.43606],[126.89959,37.43801],[126.89592,37.43562],[126.89644,37.43129],[126.90063,37.42934],[126.9043,37.43172]]]}},{"type":"Feature","properties":{"h3":"8830e03633fffff","emd_code":"4117159000","emd_name":"석수1동","area_km2":0.5063,"edge":true,"slope_mean":20.99,"elev_mean":221.6,"flood_hist_n":0,"flood_depth_max_m":null,"flood_risk_100y":null,"semi_basement_r":null,"elderly_alone_r":0.113,"bldg_age30_r":null,"shelter_min_walk":34,"pop":18066,"hh":7462,"elderly65_r":0.252,"single_hh_r":0.2653,"source_level":"emd","flood_years":[],"landslide_hist_n":0},"geometry":{"type":"Polygon","coordinates":[[[126.92636,37.44606],[126.92585,37.4504],[126.92165,37.45235],[126.91797,37.44996],[126.91849,37.44562],[126.92269,37.44367],[126.92636,37.44606]]]}},{"type":"Feature","properties":{"h3":"8830e03635fffff","emd_code":"4117159000","emd_name":"석수1동","area_km2":0.5061,"edge":true,"slope_mean":18.06,"elev_mean":124.3,"flood_hist_n":0,"flood_depth_max_m":null,"flood_risk_100y":null,"semi_basement_r":null,"elderly_alone_r":0.113,"bldg_age30_r":null,"shelter_min_walk":15,"pop":18066,"hh":7462,"elderly65_r":0.252,"single_hh_r":0.2653,"source_level":"emd","flood_years":[],"landslide_hist_n":0},"geometry":{"type":"Polygon","coordinates":[[[126.91533,37.43889],[126.91481,37.44323],[126.91062,37.44518],[126.90694,37.44279],[126.90746,37.43845],[126.91166,37.4365],[126.91533,37.43889]]]}},{"type":"Feature","properties":{"h3":"8830e03637fffff","emd_code":"4117159000","emd_name":"석수1동","area_km2":0.5062,"edge":true,"slope_mean":23.47,"elev_mean":211.3,"flood_hist_n":0,"flood_depth_max_m":null,"flood_risk_100y":null,"semi_basement_r":null,"elderly_alone_r":0.113,"bldg_age30_r":null,"shelter_min_walk":23,"pop":18066,"hh":7462,"elderly65_r":0.252,"single_hh_r":0.2653,"source_level":"emd","flood_years":[],"landslide_hist_n":0},"geometry":{"type":"Polygon","coordinates":[[[126.9232,37.43933],[126.92269,37.44367],[126.91849,37.44562],[126.91481,37.44323],[126.91533,37.43889],[126.91953,37.43694],[126.9232,37.43933]]]}},{"type":"Feature","properties":{"h3":"8830e036a5fffff","emd_code":"4117159000","emd_name":"석수1동","area_km2":0.5066,"edge":false,"slope_mean":19.28,"elev_mean":269.5,"flood_hist_n":0,"flood_depth_max_m":null,"flood_risk_100y":null,"semi_basement_r":null,"elderly_alone_r":0.113,"bldg_age30_r":null,"shelter_min_walk":46,"pop":18066,"hh":7462,"elderly65_r":0.252,"single_hh_r":0.2653,"source_level":"emd","flood_years":[],"landslide_hist_n":0},"geometry":{"type":"Polygon","coordinates":[[[126.95154,37.43435],[126.95103,37.43869],[126.94683,37.44064],[126.94315,37.43825],[126.94367,37.43391],[126.94786,37.43196],[126.95154,37.43435]]]}},{"type":"Feature","properties":{"h3":"8830e036e5fffff","emd_code":"4117159000","emd_name":"석수1동","area_km2":0.5064,"edge":false,"slope_mean":19.46,"elev_mean":339.3,"flood_hist_n":0,"flood_depth_max_m":null,"flood_risk_100y":null,"semi_basement_r":null,"elderly_alone_r":0.113,"bldg_age30_r":null,"shelter_min_walk":42,"pop":18066,"hh":7462,"elderly65_r":0.252,"single_hh_r":0.2653,"source_level":"emd","flood_years":[],"landslide_hist_n":0},"geometry":{"type":"Polygon","coordinates":[[[126.93424,37.4465],[126.93372,37.45084],[126.92952,37.45279],[126.92585,37.4504],[126.92636,37.44606],[126.93056,37.44411],[126.93424,37.4465]]]}},{"type":"Feature","properties":{"h3":"8830e03701fffff","emd_code":"4117165000","emd_name":"호현동","area_km2":0.5055,"edge":true,"slope_mean":16.28,"elev_mean":105.5,"flood_hist_n":0,"flood_depth_max_m":null,"flood_risk_100y":null,"semi_basement_r":null,"elderly_alone_r":0.0759,"bldg_age30_r":null,"shelter_min_walk":8,"pop":19875,"hh":7512,"elderly65_r":0.1857,"single_hh_r":0.2145,"source_level":"emd","flood_years":[],"landslide_hist_n":0},"geometry":{"type":"Polygon","coordinates":[[[126.87911,37.41067],[126.87859,37.41501],[126.8744,37.41695],[126.87073,37.41457],[126.87125,37.41023],[126.87544,37.40828],[126.87911,37.41067]]]}},{"type":"Feature","properties":{"h3":"8830e03703fffff","emd_code":"4117165000","emd_name":"호현동","area_km2":0.5056,"edge":true,"slope_mean":8.19,"elev_mean":38.9,"flood_hist_n":0,"flood_depth_max_m":null,"flood_risk_100y":null,"semi_basement_r":null,"elderly_alone_r":0.0759,"bldg_age30_r":null,"shelter_min_walk":3,"pop":19875,"hh":7512,"elderly65_r":0.1857,"single_hh_r":0.2145,"source_level":"emd","flood_years":[],"landslide_hist_n":0},"geometry":{"type":"Polygon","coordinates":[[[126.88698,37.41111],[126.88646,37.41545],[126.88226,37.41739],[126.87859,37.41501],[126.87911,37.41067],[126.8833,37.40872],[126.88698,37.41111]]]}},{"type":"Feature","properties":{"h3":"8830e03705fffff","emd_code":"4117165000","emd_name":"호현동","area_km2":0.5055,"edge":true,"slope_mean":15.38,"elev_mean":96.6,"flood_hist_n":0,"flood_depth_max_m":null,"flood_risk_100y":null,"semi_basement_r":null,"elderly_alone_r":0.0759,"bldg_age30_r":null,"shelter_min_walk":17,"pop":19875,"hh":7512,"elderly65_r":0.1857,"single_hh_r":0.2145,"source_level":"emd","flood_years":[],"landslide_hist_n":0},"geometry":{"type":"Polygon","coordinates":[[[126.87596,37.40394],[126.87544,37.40828],[126.87125,37.41023],[126.86758,37.40784],[126.8681,37.40351],[126.87229,37.40156],[126.87596,37.40394]]]}},{"type":"Feature","properties":{"h3":"8830e03707fffff","emd_code":"4117165000","emd_name":"호현동","area_km2":0.5056,"edge":false,"slope_mean":15.87,"elev_mean":76.6,"flood_hist_n":0,"flood_depth_max_m":null,"flood_risk_100y":null,"semi_basement_r":null,"elderly_alone_r":0.0759,"bldg_age30_r":null,"shelter_min_walk":12,"pop":19875,"hh":7512,"elderly65_r":0.1857,"single_hh_r":0.2145,"source_level":"emd","flood_years":[],"landslide_hist_n":0},"geometry":{"type":"Polygon","coordinates":[[[126.88382,37.40438],[126.8833,37.40872],[126.87911,37.41067],[126.87544,37.40828],[126.87596,37.40394],[126.88015,37.402],[126.88382,37.40438]]]}},{"type":"Feature","properties":{"h3":"8830e03711fffff","emd_code":"4117160000","emd_name":"석수2동","area_km2":0.5058,"edge":false,"slope_mean":6.26,"elev_mean":23.5,"flood_hist_n":0,"flood_depth_max_m":null,"flood_risk_100y":null,"semi_basement_r":null,"elderly_alone_r":0.1259,"bldg_age30_r":null,"shelter_min_walk":12,"pop":29296,"hh":12758,"elderly65_r":0.2347,"single_hh_r":0.3269,"source_level":"emd","flood_years":[],"landslide_hist_n":0},"geometry":{"type":"Polygon","coordinates":[[[126.89799,37.41827],[126.89748,37.42261],[126.89328,37.42456],[126.88961,37.42217],[126.89013,37.41783],[126.89432,37.41588],[126.89799,37.41827]]]}},{"type":"Feature","properties":{"h3":"8830e03713fffff","emd_code":"4117160000","emd_name":"석수2동","area_km2":0.5059,"edge":false,"slope_mean":13.93,"elev_mean":61.7,"flood_hist_n":0,"flood_depth_max_m":null,"flood_risk_100y":null,"semi_basement_r":null,"elderly_alone_r":0.1259,"bldg_age30_r":null,"shelter_min_walk":10,"pop":29296,"hh":12758,"elderly65_r":0.2347,"single_hh_r":0.3269,"source_level":"emd","flood_years":[],"landslide_hist_n":0},"geometry":{"type":"Polygon","coordinates":[[[126.90586,37.41871],[126.90534,37.42305],[126.90115,37.425],[126.89748,37.42261],[126.89799,37.41827],[126.90219,37.41632],[126.90586,37.41871]]]}},{"type":"Feature","properties":{"h3":"8830e03715fffff","emd_code":"4117165000","emd_name":"호현동","area_km2":0.5057,"edge":false,"slope_mean":8.71,"elev_mean":28.5,"flood_hist_n":0,"flood_depth_max_m":null,"flood_risk_100y":null,"semi_basement_r":null,"elderly_alone_r":0.0759,"bldg_age30_r":null,"shelter_min_walk":6,"pop":19875,"hh":7512,"elderly65_r":0.1857,"single_hh_r":0.2145,"source_level":"emd","flood_years":[],"landslide_hist_n":0},"geometry":{"type":"Polygon","coordinates":[[[126.89484,37.41155],[126.89432,37.41588],[126.89013,37.41783],[126.88646,37.41545],[126.88698,37.41111],[126.89117,37.40916],[126.89484,37.41155]]]}},{"type":"Feature","properties":{"h3":"8830e03717fffff","emd_code":"4117160000","emd_name":"석수2동","area_km2":0.5059,"edge":false,"slope_mean":16.83,"elev_mean":67.2,"flood_hist_n":0,"flood_depth_max_m":null,"flood_risk_100y":null,"semi_basement_r":null,"elderly_alone_r":0.1259,"bldg_age30_r":null,"shelter_min_walk":8,"pop":29296,"hh":12758,"elderly65_r":0.2347,"single_hh_r":0.3269,"source_level":"emd","flood_years":[],"landslide_hist_n":0},"geometry":{"type":"Polygon","coordinates":[[[126.90271,37.41198],[126.90219,37.41632],[126.89799,37.41827],[126.89432,37.41588],[126.89484,37.41155],[126.89903,37.4096],[126.90271,37.41198]]]}},{"type":"Feature","properties":{"h3":"8830e0371bfffff","emd_code":"4117160000","emd_name":"석수2동","area_km2":0.5059,"edge":false,"slope_mean":7.22,"elev_mean":23.3,"flood_hist_n":0,"flood_depth_max_m":null,"flood_risk_100y":null,"semi_basement_r":null,"elderly_alone_r":0.1259,"bldg_age30_r":null,"shelter_min_walk":7,"pop":29296,"hh":12758,"elderly65_r":0.2347,"single_hh_r":0.3269,"source_level":"emd","flood_years":[],"landslide_hist_n":0},"geometry":{"type":"Polygon","coordinates":[[[126.90115,37.425],[126.90063,37.42934],[126.89644,37.43129],[126.89276,37.4289],[126.89328,37.42456],[126.89748,37.42261],[126.90115,37.425]]]}},{"type":"Feature","properties":{"h3":"8830e0371dfffff","emd_code":"4117160000","emd_name":"석수2동","area_km2":0.5057,"edge":true,"slope_mean":5.35,"elev_mean":27.1,"flood_hist_n":0,"flood_depth_max_m":null,"flood_risk_100y":null,"semi_basement_r":null,"elderly_alone_r":0.1259,"bldg_age30_r":null,"shelter_min_walk":6,"pop":29296,"hh":12758,"elderly65_r":0.2347,"single_hh_r":0.3269,"source_level":"emd","flood_years":[],"landslide_hist_n":0},"geometry":{"type":"Polygon","coordinates":[[[126.89013,37.41783],[126.88961,37.42217],[126.88542,37.42412],[126.88174,37.42173],[126.88226,37.41739],[126.88646,37.41545],[126.89013,37.41783]]]}},{"type":"Feature","properties":{"h3":"8830e03721fffff","emd_code":"4117165000","emd_name":"호현동","area_km2":0.5054,"edge":true,"slope_mean":12.34,"elev_mean":84.7,"flood_hist_n":0,"flood_depth_max_m":null,"flood_risk_100y":null,"semi_basement_r":null,"elderly_alone_r":0.0759,"bldg_age30_r":null,"shelter_min_walk":18,"pop":19875,"hh":7512,"elderly65_r":0.1857,"single_hh_r":0.2145,"source_level":"emd","flood_years":[],"landslide_hist_n":0},"geometry":{"type":"Polygon","coordinates":[[[126.87752,37.39093],[126.877,37.39527],[126.87281,37.39722],[126.86914,37.39483],[126.86966,37.3905],[126.87385,37.38855],[126.87752,37.39093]]]}},{"type":"Feature","properties":{"h3":"8830e03723fffff","emd_code":"4117165000","emd_name":"호현동","area_km2":0.5056,"edge":false,"slope_mean":14.13,"elev_mean":85.6,"flood_hist_n":0,"flood_depth_max_m":null,"flood_risk_100y":null,"semi_basement_r":null,"elderly_alone_r":0.0759,"bldg_age30_r":null,"shelter_min_walk":23,"pop":19875,"hh":7512,"elderly65_r":0.1857,"single_hh_r":0.2145,"source_level":"emd","flood_years":[],"landslide_hist_n":0},"geometry":{"type":"Polygon","coordinates":[[[126.88538,37.39137],[126.88486,37.39571],[126.88067,37.39766],[126.877,37.39527],[126.87752,37.39093],[126.88171,37.38899],[126.88538,37.39137]]]}},{"type":"Feature","properties":{"h3":"8830e03727fffff","emd_code":"4117165000","emd_name":"호현동","area_km2":0.5055,"edge":true,"slope_mean":16.03,"elev_mean":100.9,"flood_hist_n":0,"flood_depth_max_m":null,"flood_risk_100y":null,"semi_basement_r":null,"elderly_alone_r":0.0759,"bldg_age30_r":null,"shelter_min_walk":23,"pop":19875,"hh":7512,"elderly65_r":0.1857,"single_hh_r":0.2145,"source_level":"emd","flood_years":[],"landslide_hist_n":0},"geometry":{"type":"Polygon","coordinates":[[[126.88223,37.38465],[126.88171,37.38899],[126.87752,37.39093],[126.87385,37.38855],[126.87437,37.38421],[126.87856,37.38226],[126.88223,37.38465]]]}},{"type":"Feature","properties":{"h3":"8830e0372bfffff","emd_code":"4117165000","emd_name":"호현동","area_km2":0.5055,"edge":true,"slope_mean":14.59,"elev_mean":83.3,"flood_hist_n":0,"flood_depth_max_m":null,"flood_risk_100y":null,"semi_basement_r":null,"elderly_alone_r":0.0759,"bldg_age30_r":null,"shelter_min_walk":22,"pop":19875,"hh":7512,"elderly65_r":0.1857,"single_hh_r":0.2145,"source_level":"emd","flood_years":[],"landslide_hist_n":0},"geometry":{"type":"Polygon","coordinates":[[[126.88067,37.39766],[126.88015,37.402],[126.87596,37.40394],[126.87229,37.40156],[126.87281,37.39722],[126.877,37.39527],[126.88067,37.39766]]]}},{"type":"Feature","properties":{"h3":"8830e03731fffff","emd_code":"4117165000","emd_name":"호현동","area_km2":0.5057,"edge":false,"slope_mean":15.95,"elev_mean":64.1,"flood_hist_n":0,"flood_depth_max_m":null,"flood_risk_100y":null,"semi_basement_r":null,"elderly_alone_r":0.0759,"bldg_age30_r":null,"shelter_min_walk":7,"pop":19875,"hh":7512,"elderly65_r":0.1857,"single_hh_r":0.2145,"source_level":"emd","flood_years":[],"landslide_hist_n":0},"geometry":{"type":"Polygon","coordinates":[[[126.8964,37.39853],[126.89588,37.40287],[126.89169,37.40482],[126.88802,37.40243],[126.88854,37.3981],[126.89273,37.39615],[126.8964,37.39853]]]}},{"type":"Feature","properties":{"h3":"8830e03733fffff","emd_code":"4117165000","emd_name":"호현동","area_km2":0.5058,"edge":false,"slope_mean":10.28,"elev_mean":38.9,"flood_hist_n":0,"flood_depth_max_m":null,"flood_risk_100y":null,"semi_basement_r":null,"elderly_alone_r":0.0759,"bldg_age30_r":null,"shelter_min_walk":2,"pop":19875,"hh":7512,"elderly65_r":0.1857,"single_hh_r":0.2145,"source_level":"emd","flood_years":[],"landslide_hist_n":0},"geometry":{"type":"Polygon","coordinates":[[[126.90426,37.39897],[126.90374,37.40331],[126.89955,37.40526],[126.89588,37.40287],[126.8964,37.39853],[126.90059,37.39658],[126.90426,37.39897]]]}},{"type":"Feature","properties":{"h3":"8830e03735fffff","emd_code":"4117165000","emd_name":"호현동","area_km2":0.5057,"edge":false,"slope_mean":12.51,"elev_mean":56.5,"flood_hist_n":0,"flood_depth_max_m":null,"flood_risk_100y":null,"semi_basement_r":null,"elderly_alone_r":0.0759,"bldg_age30_r":null,"shelter_min_walk":18,"pop":19875,"hh":7512,"elderly65_r":0.1857,"single_hh_r":0.2145,"source_level":"emd","flood_years":[],"landslide_hist_n":0},"geometry":{"type":"Polygon","coordinates":[[[126.89325,37.39181],[126.89273,37.39615],[126.88854,37.3981],[126.88486,37.39571],[126.88538,37.39137],[126.88957,37.38942],[126.89325,37.39181]]]}},{"type":"Feature","properties":{"h3":"8830e03737fffff","emd_code":"4117165000","emd_name":"호현동","area_km2":0.5058,"edge":false,"slope_mean":15.64,"elev_mean":83.2,"flood_hist_n":0,"flood_depth_max_m":null,"flood_risk_100y":null,"semi_basement_r":null,"elderly_alone_r":0.0759,"bldg_age30_r":null,"shelter_min_walk":10,"pop":19875,"hh":7512,"elderly65_r":0.1857,"single_hh_r":0.2145,"source_level":"emd","flood_years":[],"landslide_hist_n":0},"geometry":{"type":"Polygon","coordinates":[[[126.90111,37.39225],[126.90059,37.39658],[126.8964,37.39853],[126.89273,37.39615],[126.89325,37.39181],[126.89744,37.38986],[126.90111,37.39225]]]}},{"type":"Feature","properties":{"h3":"8830e03739fffff","emd_code":"4117165000","emd_name":"호현동","area_km2":0.5057,"edge":false,"slope_mean":9.21,"elev_mean":37.2,"flood_hist_n":0,"flood_depth_max_m":null,"flood_risk_100y":null,"semi_basement_r":null,"elderly_alone_r":0.0759,"bldg_age30_r":null,"shelter_min_walk":6,"pop":19875,"hh":7512,"elderly65_r":0.1857,"single_hh_r":0.2145,"source_level":"emd","flood_years":[],"landslide_hist_n":0},"geometry":{"type":"Polygon","coordinates":[[[126.89169,37.40482],[126.89117,37.40916],[126.88698,37.41111],[126.8833,37.40872],[126.88382,37.40438],[126.88802,37.40243],[126.89169,37.40482]]]}},{"type":"Feature","properties":{"h3":"8830e0373bfffff","emd_code":"4117161100","emd_name":"충훈동","area_km2":0.5058,"edge":false,"slope_mean":8.6,"elev_mean":31.0,"flood_hist_n":0,"flood_depth_max_m":null,"flood_risk_100y":null,"semi_basement_r":null,"elderly_alone_r":0.1654,"bldg_age30_r":null,"shelter_min_walk":6,"pop":11524,"hh":5273,"elderly65_r":0.2408,"single_hh_r":0.3808,"source_level":"emd","flood_years":[],"landslide_hist_n":0},"geometry":{"type":"Polygon","coordinates":[[[126.89955,37.40526],[126.89903,37.4096],[126.89484,37.41155],[126.89117,37.40916],[126.89169,37.40482],[126.89588,37.40287],[126.89955,37.40526]]]}},{"type":"Feature","properties":{"h3":"8830e0373dfffff","emd_code":"4117165000","emd_name":"호현동","area_km2":0.5056,"edge":false,"slope_mean":16.07,"elev_mean":75.6,"flood_hist_n":0,"flood_depth_max_m":null,"flood_risk_100y":null,"semi_basement_r":null,"elderly_alone_r":0.0759,"bldg_age30_r":null,"shelter_min_walk":12,"pop":19875,"hh":7512,"elderly65_r":0.1857,"single_hh_r":0.2145,"source_level":"emd","flood_years":[],"landslide_hist_n":0},"geometry":{"type":"Polygon","coordinates":[[[126.88854,37.3981],[126.88802,37.40243],[126.88382,37.40438],[126.88015,37.402],[126.88067,37.39766],[126.88486,37.39571],[126.88854,37.3981]]]}}]}