{"type":"FeatureCollection","name":"grid_41196_h3r8","meta":{"sgg_code":"41196","h3_res":8,"n_cells":58,"dem":"Copernicus GLO-30 (bbox-mean)","crs":"EPSG:4326","jumin_basis":"2026-07","flood_src":"행안부 침수흔적도(전국, 재난안전데이터공유플랫폼)","landslide_src":"행안부 산사태 발생이력"},"features":[{"type":"Feature","properties":{"h3":"8830e0ac09fffff","emd_code":"4119651000","emd_name":"성곡동","area_km2":0.5048,"edge":false,"slope_mean":12.99,"elev_mean":52.3,"flood_hist_n":0,"flood_depth_max_m":null,"flood_risk_100y":null,"semi_basement_r":null,"elderly_alone_r":0.149,"bldg_age30_r":null,"shelter_min_walk":4,"pop":36908,"hh":16917,"elderly65_r":0.2382,"single_hh_r":0.369,"source_level":"emd","flood_years":[],"landslide_hist_n":0},"geometry":{"type":"Polygon","coordinates":[[[126.80838,37.50488],[126.80785,37.50922],[126.80366,37.51116],[126.79999,37.50877],[126.80051,37.50443],[126.80471,37.50249],[126.80838,37.50488]]]}},{"type":"Feature","properties":{"h3":"8830e0ac0bfffff","emd_code":"4119651000","emd_name":"성곡동","area_km2":0.5049,"edge":false,"slope_mean":7.82,"elev_mean":41.9,"flood_hist_n":0,"flood_depth_max_m":null,"flood_risk_100y":null,"semi_basement_r":null,"elderly_alone_r":0.149,"bldg_age30_r":null,"shelter_min_walk":2,"pop":36908,"hh":16917,"elderly65_r":0.2382,"single_hh_r":0.369,"source_level":"emd","flood_years":[],"landslide_hist_n":0},"geometry":{"type":"Polygon","coordinates":[[[126.81624,37.50534],[126.81572,37.50967],[126.81152,37.51161],[126.80785,37.50922],[126.80838,37.50488],[126.81257,37.50294],[126.81624,37.50534]]]}},{"type":"Feature","properties":{"h3":"8830e0ac11fffff","emd_code":"4119651000","emd_name":"성곡동","area_km2":0.5051,"edge":true,"slope_mean":12.99,"elev_mean":75.0,"flood_hist_n":0,"flood_depth_max_m":null,"flood_risk_100y":null,"semi_basement_r":null,"elderly_alone_r":0.149,"bldg_age30_r":null,"shelter_min_walk":21,"pop":36908,"hh":16917,"elderly65_r":0.2382,"single_hh_r":0.369,"source_level":"emd","flood_years":[],"landslide_hist_n":0},"geometry":{"type":"Polygon","coordinates":[[[126.83197,37.50623],[126.83145,37.51057],[126.82725,37.51251],[126.82358,37.51012],[126.82411,37.50579],[126.8283,37.50384],[126.83197,37.50623]]]}},{"type":"Feature","properties":{"h3":"8830e0ac19fffff","emd_code":"4119651000","emd_name":"성곡동","area_km2":0.5051,"edge":false,"slope_mean":12.84,"elev_mean":75.3,"flood_hist_n":0,"flood_depth_max_m":null,"flood_risk_100y":null,"semi_basement_r":null,"elderly_alone_r":0.149,"bldg_age30_r":null,"shelter_min_walk":17,"pop":36908,"hh":16917,"elderly65_r":0.2382,"single_hh_r":0.369,"source_level":"emd","flood_years":[],"landslide_hist_n":0},"geometry":{"type":"Polygon","coordinates":[[[126.82725,37.51251],[126.82673,37.51685],[126.82253,37.51879],[126.81886,37.5164],[126.81939,37.51206],[126.82358,37.51012],[126.82725,37.51251]]]}},{"type":"Feature","properties":{"h3":"8830e0ac1dfffff","emd_code":"4119651000","emd_name":"성곡동","area_km2":0.505,"edge":false,"slope_mean":12.66,"elev_mean":80.4,"flood_hist_n":0,"flood_depth_max_m":null,"flood_risk_100y":null,"semi_basement_r":null,"elderly_alone_r":0.149,"bldg_age30_r":null,"shelter_min_walk":11,"pop":36908,"hh":16917,"elderly65_r":0.2382,"single_hh_r":0.369,"source_level":"emd","flood_years":[],"landslide_hist_n":0},"geometry":{"type":"Polygon","coordinates":[[[126.82411,37.50579],[126.82358,37.51012],[126.81939,37.51206],[126.81572,37.50967],[126.81624,37.50534],[126.82044,37.50339],[126.82411,37.50579]]]}},{"type":"Feature","properties":{"h3":"8830e0ac41fffff","emd_code":"4119651000","emd_name":"성곡동","area_km2":0.5046,"edge":false,"slope_mean":11.98,"elev_mean":57.7,"flood_hist_n":0,"flood_depth_max_m":null,"flood_risk_100y":null,"semi_basement_r":null,"elderly_alone_r":0.149,"bldg_age30_r":null,"shelter_min_walk":7,"pop":36908,"hh":16917,"elderly65_r":0.2382,"single_hh_r":0.369,"source_level":"emd","flood_years":[],"landslide_hist_n":0},"geometry":{"type":"Polygon","coordinates":[[[126.7958,37.51071],[126.79527,37.51504],[126.79108,37.51698],[126.78741,37.51459],[126.78793,37.51026],[126.79213,37.50832],[126.7958,37.51071]]]}},{"type":"Feature","properties":{"h3":"8830e0ac43fffff","emd_code":"4119651000","emd_name":"성곡동","area_km2":0.5047,"edge":false,"slope_mean":8.44,"elev_mean":33.3,"flood_hist_n":0,"flood_depth_max_m":null,"flood_risk_100y":null,"semi_basement_r":null,"elderly_alone_r":0.149,"bldg_age30_r":null,"shelter_min_walk":3,"pop":36908,"hh":16917,"elderly65_r":0.2382,"single_hh_r":0.369,"source_level":"emd","flood_years":[],"landslide_hist_n":0},"geometry":{"type":"Polygon","coordinates":[[[126.80366,37.51116],[126.80313,37.5155],[126.79894,37.51744],[126.79527,37.51504],[126.7958,37.51071],[126.79999,37.50877],[126.80366,37.51116]]]}},{"type":"Feature","properties":{"h3":"8830e0ac45fffff","emd_code":"4119651000","emd_name":"성곡동","area_km2":0.5046,"edge":true,"slope_mean":8.04,"elev_mean":37.3,"flood_hist_n":0,"flood_depth_max_m":null,"flood_risk_100y":null,"semi_basement_r":null,"elderly_alone_r":0.149,"bldg_age30_r":null,"shelter_min_walk":4,"pop":36908,"hh":16917,"elderly65_r":0.2382,"single_hh_r":0.369,"source_level":"emd","flood_years":[],"landslide_hist_n":0},"geometry":{"type":"Polygon","coordinates":[[[126.79265,37.50398],[126.79213,37.50832],[126.78793,37.51026],[126.78427,37.50786],[126.78479,37.50353],[126.78899,37.50159],[126.79265,37.50398]]]}},{"type":"Feature","properties":{"h3":"8830e0ac47fffff","emd_code":"4119651000","emd_name":"성곡동","area_km2":0.5047,"edge":false,"slope_mean":7.44,"elev_mean":37.1,"flood_hist_n":0,"flood_depth_max_m":null,"flood_risk_100y":null,"semi_basement_r":null,"elderly_alone_r":0.149,"bldg_age30_r":null,"shelter_min_walk":3,"pop":36908,"hh":16917,"elderly65_r":0.2382,"single_hh_r":0.369,"source_level":"emd","flood_years":[],"landslide_hist_n":0},"geometry":{"type":"Polygon","coordinates":[[[126.80051,37.50443],[126.79999,37.50877],[126.7958,37.51071],[126.79213,37.50832],[126.79265,37.50398],[126.79685,37.50204],[126.80051,37.50443]]]}},{"type":"Feature","properties":{"h3":"8830e0ac49fffff","emd_code":"4119657000","emd_name":"신흥동","area_km2":0.5046,"edge":true,"slope_mean":4.73,"elev_mean":20.7,"flood_hist_n":0,"flood_depth_max_m":null,"flood_risk_100y":null,"semi_basement_r":null,"elderly_alone_r":0.1392,"bldg_age30_r":null,"shelter_min_walk":4,"pop":16331,"hh":7961,"elderly65_r":0.2248,"single_hh_r":0.427,"source_level":"emd","flood_years":[],"landslide_hist_n":0},"geometry":{"type":"Polygon","coordinates":[[[126.79108,37.51698],[126.79055,37.52132],[126.78635,37.52326],[126.78269,37.52087],[126.78321,37.51653],[126.78741,37.51459],[126.79108,37.51698]]]}},{"type":"Feature","properties":{"h3":"8830e0ac4bfffff","emd_code":"4119651000","emd_name":"성곡동","area_km2":0.5047,"edge":true,"slope_mean":5.91,"elev_mean":32.3,"flood_hist_n":0,"flood_depth_max_m":null,"flood_risk_100y":null,"semi_basement_r":null,"elderly_alone_r":0.149,"bldg_age30_r":null,"shelter_min_walk":2,"pop":36908,"hh":16917,"elderly65_r":0.2382,"single_hh_r":0.369,"source_level":"emd","flood_years":[],"landslide_hist_n":0},"geometry":{"type":"Polygon","coordinates":[[[126.79894,37.51744],[126.79841,37.52177],[126.79422,37.52371],[126.79055,37.52132],[126.79108,37.51698],[126.79527,37.51504],[126.79894,37.51744]]]}},{"type":"Feature","properties":{"h3":"8830e0ac51fffff","emd_code":"4119651000","emd_name":"성곡동","area_km2":0.5049,"edge":false,"slope_mean":7.6,"elev_mean":36.8,"flood_hist_n":0,"flood_depth_max_m":null,"flood_risk_100y":null,"semi_basement_r":null,"elderly_alone_r":0.149,"bldg_age30_r":null,"shelter_min_walk":3,"pop":36908,"hh":16917,"elderly65_r":0.2382,"single_hh_r":0.369,"source_level":"emd","flood_years":[],"landslide_hist_n":0},"geometry":{"type":"Polygon","coordinates":[[[126.81467,37.51834],[126.81414,37.52268],[126.80995,37.52462],[126.80628,37.52222],[126.8068,37.51789],[126.811,37.51595],[126.81467,37.51834]]]}},{"type":"Feature","properties":{"h3":"8830e0ac53fffff","emd_code":"4119651000","emd_name":"성곡동","area_km2":0.505,"edge":false,"slope_mean":9.82,"elev_mean":50.2,"flood_hist_n":0,"flood_depth_max_m":null,"flood_risk_100y":null,"semi_basement_r":null,"elderly_alone_r":0.149,"bldg_age30_r":null,"shelter_min_walk":8,"pop":36908,"hh":16917,"elderly65_r":0.2382,"single_hh_r":0.369,"source_level":"emd","flood_years":[],"landslide_hist_n":0},"geometry":{"type":"Polygon","coordinates":[[[126.82253,37.51879],[126.82201,37.52313],[126.81781,37.52507],[126.81414,37.52268],[126.81467,37.51834],[126.81886,37.5164],[126.82253,37.51879]]]}},{"type":"Feature","properties":{"h3":"8830e0ac55fffff","emd_code":"4119651000","emd_name":"성곡동","area_km2":0.5049,"edge":false,"slope_mean":7.14,"elev_mean":31.7,"flood_hist_n":0,"flood_depth_max_m":null,"flood_risk_100y":null,"semi_basement_r":null,"elderly_alone_r":0.149,"bldg_age30_r":null,"shelter_min_walk":4,"pop":36908,"hh":16917,"elderly65_r":0.2382,"single_hh_r":0.369,"source_level":"emd","flood_years":[],"landslide_hist_n":0},"geometry":{"type":"Polygon","coordinates":[[[126.81152,37.51161],[126.811,37.51595],[126.8068,37.51789],[126.80313,37.5155],[126.80366,37.51116],[126.80785,37.50922],[126.81152,37.51161]]]}},{"type":"Feature","properties":{"h3":"8830e0ac57fffff","emd_code":"4119651000","emd_name":"성곡동","area_km2":0.505,"edge":false,"slope_mean":9.88,"elev_mean":48.7,"flood_hist_n":0,"flood_depth_max_m":null,"flood_risk_100y":null,"semi_basement_r":null,"elderly_alone_r":0.149,"bldg_age30_r":null,"shelter_min_walk":11,"pop":36908,"hh":16917,"elderly65_r":0.2382,"single_hh_r":0.369,"source_level":"emd","flood_years":[],"landslide_hist_n":0},"geometry":{"type":"Polygon","coordinates":[[[126.81939,37.51206],[126.81886,37.5164],[126.81467,37.51834],[126.811,37.51595],[126.81152,37.51161],[126.81572,37.50967],[126.81939,37.51206]]]}},{"type":"Feature","properties":{"h3":"8830e0ac59fffff","emd_code":"4119652000","emd_name":"원종1동","area_km2":0.5049,"edge":false,"slope_mean":3.83,"elev_mean":20.7,"flood_hist_n":0,"flood_depth_max_m":null,"flood_risk_100y":null,"semi_basement_r":null,"elderly_alone_r":0.1308,"bldg_age30_r":null,"shelter_min_walk":1,"pop":23836,"hh":11182,"elderly65_r":0.2095,"single_hh_r":0.3832,"source_level":"emd","flood_years":[],"landslide_hist_n":0},"geometry":{"type":"Polygon","coordinates":[[[126.80995,37.52462],[126.80942,37.52895],[126.80523,37.53089],[126.80156,37.5285],[126.80208,37.52416],[126.80628,37.52222],[126.80995,37.52462]]]}},{"type":"Feature","properties":{"h3":"8830e0ac5bfffff","emd_code":"4119655000","emd_name":"고강1동","area_km2":0.505,"edge":false,"slope_mean":4.03,"elev_mean":25.1,"flood_hist_n":0,"flood_depth_max_m":null,"flood_risk_100y":null,"semi_basement_r":null,"elderly_alone_r":0.163,"bldg_age30_r":null,"shelter_min_walk":1,"pop":11754,"hh":5650,"elderly65_r":0.2591,"single_hh_r":0.4032,"source_level":"emd","flood_years":[],"landslide_hist_n":0},"geometry":{"type":"Polygon","coordinates":[[[126.81781,37.52507],[126.81729,37.5294],[126.81309,37.53135],[126.80942,37.52895],[126.80995,37.52462],[126.81414,37.52268],[126.81781,37.52507]]]}},{"type":"Feature","properties":{"h3":"8830e0ac5dfffff","emd_code":"4119651000","emd_name":"성곡동","area_km2":0.5048,"edge":false,"slope_mean":3.62,"elev_mean":21.4,"flood_hist_n":0,"flood_depth_max_m":null,"flood_risk_100y":null,"semi_basement_r":null,"elderly_alone_r":0.149,"bldg_age30_r":null,"shelter_min_walk":1,"pop":36908,"hh":16917,"elderly65_r":0.2382,"single_hh_r":0.369,"source_level":"emd","flood_years":[],"landslide_hist_n":0},"geometry":{"type":"Polygon","coordinates":[[[126.8068,37.51789],[126.80628,37.52222],[126.80208,37.52416],[126.79841,37.52177],[126.79894,37.51744],[126.80313,37.5155],[126.8068,37.51789]]]}},{"type":"Feature","properties":{"h3":"8830e0ae01fffff","emd_code":"4119656000","emd_name":"오정동","area_km2":0.5045,"edge":false,"slope_mean":0.81,"elev_mean":6.1,"flood_hist_n":0,"flood_depth_max_m":null,"flood_risk_100y":null,"semi_basement_r":null,"elderly_alone_r":0.1099,"bldg_age30_r":null,"shelter_min_walk":27,"pop":18324,"hh":8260,"elderly65_r":0.2257,"single_hh_r":0.3607,"source_level":"emd","flood_years":[],"landslide_hist_n":0},"geometry":{"type":"Polygon","coordinates":[[[126.78005,37.54253],[126.77953,37.54687],[126.77533,37.54881],[126.77166,37.54641],[126.77219,37.54208],[126.77639,37.54014],[126.78005,37.54253]]]}},{"type":"Feature","properties":{"h3":"8830e0ae03fffff","emd_code":"4119656000","emd_name":"오정동","area_km2":0.5046,"edge":false,"slope_mean":1.63,"elev_mean":8.2,"flood_hist_n":0,"flood_depth_max_m":null,"flood_risk_100y":null,"semi_basement_r":null,"elderly_alone_r":0.1099,"bldg_age30_r":null,"shelter_min_walk":24,"pop":18324,"hh":8260,"elderly65_r":0.2257,"single_hh_r":0.3607,"source_level":"emd","flood_years":[],"landslide_hist_n":0},"geometry":{"type":"Polygon","coordinates":[[[126.78792,37.54299],[126.78739,37.54732],[126.78319,37.54926],[126.77953,37.54687],[126.78005,37.54253],[126.78425,37.54059],[126.78792,37.54299]]]}},{"type":"Feature","properties":{"h3":"8830e0ae05fffff","emd_code":"4119656000","emd_name":"오정동","area_km2":0.5044,"edge":false,"slope_mean":0.63,"elev_mean":6.0,"flood_hist_n":0,"flood_depth_max_m":null,"flood_risk_100y":null,"semi_basement_r":null,"elderly_alone_r":0.1099,"bldg_age30_r":null,"shelter_min_walk":19,"pop":18324,"hh":8260,"elderly65_r":0.2257,"single_hh_r":0.3607,"source_level":"emd","flood_years":[],"landslide_hist_n":0},"geometry":{"type":"Polygon","coordinates":[[[126.77691,37.53581],[126.77639,37.54014],[126.77219,37.54208],[126.76852,37.53968],[126.76905,37.53535],[126.77324,37.53341],[126.77691,37.53581]]]}},{"type":"Feature","properties":{"h3":"8830e0ae07fffff","emd_code":"4119656000","emd_name":"오정동","area_km2":0.5046,"edge":false,"slope_mean":1.08,"elev_mean":6.8,"flood_hist_n":0,"flood_depth_max_m":null,"flood_risk_100y":null,"semi_basement_r":null,"elderly_alone_r":0.1099,"bldg_age30_r":null,"shelter_min_walk":15,"pop":18324,"hh":8260,"elderly65_r":0.2257,"single_hh_r":0.3607,"source_level":"emd","flood_years":[],"landslide_hist_n":0},"geometry":{"type":"Polygon","coordinates":[[[126.78478,37.53626],[126.78425,37.54059],[126.78005,37.54253],[126.77639,37.54014],[126.77691,37.53581],[126.78111,37.53387],[126.78478,37.53626]]]}},{"type":"Feature","properties":{"h3":"8830e0ae09fffff","emd_code":"4119656000","emd_name":"오정동","area_km2":0.5045,"edge":true,"slope_mean":1.76,"elev_mean":8.1,"flood_hist_n":0,"flood_depth_max_m":null,"flood_risk_100y":null,"semi_basement_r":null,"elderly_alone_r":0.1099,"bldg_age30_r":null,"shelter_min_walk":39,"pop":18324,"hh":8260,"elderly65_r":0.2257,"single_hh_r":0.3607,"source_level":"emd","flood_years":[],"landslide_hist_n":0},"geometry":{"type":"Polygon","coordinates":[[[126.77533,37.54881],[126.7748,37.55314],[126.77061,37.55508],[126.76694,37.55268],[126.76747,37.54835],[126.77166,37.54641],[126.77533,37.54881]]]}},{"type":"Feature","properties":{"h3":"8830e0ae0bfffff","emd_code":"4119656000","emd_name":"오정동","area_km2":0.5046,"edge":true,"slope_mean":1.08,"elev_mean":7.4,"flood_hist_n":0,"flood_depth_max_m":null,"flood_risk_100y":null,"semi_basement_r":null,"elderly_alone_r":0.1099,"bldg_age30_r":null,"shelter_min_walk":36,"pop":18324,"hh":8260,"elderly65_r":0.2257,"single_hh_r":0.3607,"source_level":"emd","flood_years":[],"landslide_hist_n":0},"geometry":{"type":"Polygon","coordinates":[[[126.78319,37.54926],[126.78267,37.5536],[126.77847,37.55553],[126.7748,37.55314],[126.77533,37.54881],[126.77953,37.54687],[126.78319,37.54926]]]}},{"type":"Feature","properties":{"h3":"8830e0ae0dfffff","emd_code":"4119656000","emd_name":"오정동","area_km2":0.5044,"edge":false,"slope_mean":2.77,"elev_mean":9.7,"flood_hist_n":0,"flood_depth_max_m":null,"flood_risk_100y":null,"semi_basement_r":null,"elderly_alone_r":0.1099,"bldg_age30_r":null,"shelter_min_walk":31,"pop":18324,"hh":8260,"elderly65_r":0.2257,"single_hh_r":0.3607,"source_level":"emd","flood_years":[],"landslide_hist_n":0},"geometry":{"type":"Polygon","coordinates":[[[126.77219,37.54208],[126.77166,37.54641],[126.76747,37.54835],[126.7638,37.54596],[126.76433,37.54162],[126.76852,37.53968],[126.77219,37.54208]]]}},{"type":"Feature","properties":{"h3":"8830e0ae15fffff","emd_code":"4119656000","emd_name":"오정동","area_km2":0.5047,"edge":true,"slope_mean":2.64,"elev_mean":10.0,"flood_hist_n":0,"flood_depth_max_m":null,"flood_risk_100y":null,"semi_basement_r":null,"elderly_alone_r":0.1099,"bldg_age30_r":null,"shelter_min_walk":26,"pop":18324,"hh":8260,"elderly65_r":0.2257,"single_hh_r":0.3607,"source_level":"emd","flood_years":[],"landslide_hist_n":0},"geometry":{"type":"Polygon","coordinates":[[[126.79578,37.54344],[126.79526,37.54778],[126.79106,37.54972],[126.78739,37.54732],[126.78792,37.54299],[126.79211,37.54105],[126.79578,37.54344]]]}},{"type":"Feature","properties":{"h3":"8830e0ae21fffff","emd_code":"4119657000","emd_name":"신흥동","area_km2":0.5044,"edge":false,"slope_mean":3.79,"elev_mean":11.8,"flood_hist_n":0,"flood_depth_max_m":null,"flood_risk_100y":null,"semi_basement_r":null,"elderly_alone_r":0.1392,"bldg_age30_r":null,"shelter_min_walk":13,"pop":16331,"hh":7961,"elderly65_r":0.2248,"single_hh_r":0.427,"source_level":"emd","flood_years":[],"landslide_hist_n":0},"geometry":{"type":"Polygon","coordinates":[[[126.77849,37.52281],[126.77797,37.52714],[126.77377,37.52908],[126.77011,37.52668],[126.77063,37.52235],[126.77483,37.52041],[126.77849,37.52281]]]}},{"type":"Feature","properties":{"h3":"8830e0ae23fffff","emd_code":"4119656000","emd_name":"오정동","area_km2":0.5045,"edge":false,"slope_mean":4.25,"elev_mean":13.9,"flood_hist_n":0,"flood_depth_max_m":null,"flood_risk_100y":null,"semi_basement_r":null,"elderly_alone_r":0.1099,"bldg_age30_r":null,"shelter_min_walk":3,"pop":18324,"hh":8260,"elderly65_r":0.2257,"single_hh_r":0.3607,"source_level":"emd","flood_years":[],"landslide_hist_n":0},"geometry":{"type":"Polygon","coordinates":[[[126.78635,37.52326],[126.78583,37.52759],[126.78163,37.52953],[126.77797,37.52714],[126.77849,37.52281],[126.78269,37.52087],[126.78635,37.52326]]]}},{"type":"Feature","properties":{"h3":"8830e0ae25fffff","emd_code":"4119657000","emd_name":"신흥동","area_km2":0.5044,"edge":false,"slope_mean":3.26,"elev_mean":13.9,"flood_hist_n":0,"flood_depth_max_m":null,"flood_risk_100y":null,"semi_basement_r":null,"elderly_alone_r":0.1392,"bldg_age30_r":null,"shelter_min_walk":1,"pop":16331,"hh":7961,"elderly65_r":0.2248,"single_hh_r":0.427,"source_level":"emd","flood_years":[],"landslide_hist_n":0},"geometry":{"type":"Polygon","coordinates":[[[126.77535,37.51608],[126.77483,37.52041],[126.77063,37.52235],[126.76697,37.51996],[126.76749,37.51562],[126.77169,37.51368],[126.77535,37.51608]]]}},{"type":"Feature","properties":{"h3":"8830e0ae27fffff","emd_code":"4119657000","emd_name":"신흥동","area_km2":0.5045,"edge":false,"slope_mean":3.99,"elev_mean":15.6,"flood_hist_n":0,"flood_depth_max_m":null,"flood_risk_100y":null,"semi_basement_r":null,"elderly_alone_r":0.1392,"bldg_age30_r":null,"shelter_min_walk":3,"pop":16331,"hh":7961,"elderly65_r":0.2248,"single_hh_r":0.427,"source_level":"emd","flood_years":[],"landslide_hist_n":0},"geometry":{"type":"Polygon","coordinates":[[[126.78321,37.51653],[126.78269,37.52087],[126.77849,37.52281],[126.77483,37.52041],[126.77535,37.51608],[126.77955,37.51414],[126.78321,37.51653]]]}},{"type":"Feature","properties":{"h3":"8830e0ae29fffff","emd_code":"4119656000","emd_name":"오정동","area_km2":0.5044,"edge":false,"slope_mean":2.6,"elev_mean":8.7,"flood_hist_n":0,"flood_depth_max_m":null,"flood_risk_100y":null,"semi_basement_r":null,"elderly_alone_r":0.1099,"bldg_age30_r":null,"shelter_min_walk":17,"pop":18324,"hh":8260,"elderly65_r":0.2257,"single_hh_r":0.3607,"source_level":"emd","flood_years":[],"landslide_hist_n":0},"geometry":{"type":"Polygon","coordinates":[[[126.77377,37.52908],[126.77324,37.53341],[126.76905,37.53535],[126.76538,37.53296],[126.76591,37.52862],[126.77011,37.52668],[126.77377,37.52908]]]}},{"type":"Feature","properties":{"h3":"8830e0ae2bfffff","emd_code":"4119656000","emd_name":"오정동","area_km2":0.5045,"edge":false,"slope_mean":2.94,"elev_mean":10.0,"flood_hist_n":0,"flood_depth_max_m":null,"flood_risk_100y":null,"semi_basement_r":null,"elderly_alone_r":0.1099,"bldg_age30_r":null,"shelter_min_walk":8,"pop":18324,"hh":8260,"elderly65_r":0.2257,"single_hh_r":0.3607,"source_level":"emd","flood_years":[],"landslide_hist_n":0},"geometry":{"type":"Polygon","coordinates":[[[126.78163,37.52953],[126.78111,37.53387],[126.77691,37.53581],[126.77324,37.53341],[126.77377,37.52908],[126.77797,37.52714],[126.78163,37.52953]]]}},{"type":"Feature","properties":{"h3":"8830e0ae2dfffff","emd_code":"4119657000","emd_name":"신흥동","area_km2":0.5043,"edge":false,"slope_mean":3.62,"elev_mean":11.3,"flood_hist_n":0,"flood_depth_max_m":null,"flood_risk_100y":null,"semi_basement_r":null,"elderly_alone_r":0.1392,"bldg_age30_r":null,"shelter_min_walk":9,"pop":16331,"hh":7961,"elderly65_r":0.2248,"single_hh_r":0.427,"source_level":"emd","flood_years":[],"landslide_hist_n":0},"geometry":{"type":"Polygon","coordinates":[[[126.77063,37.52235],[126.77011,37.52668],[126.76591,37.52862],[126.76225,37.52623],[126.76277,37.5219],[126.76697,37.51996],[126.77063,37.52235]]]}},{"type":"Feature","properties":{"h3":"8830e0ae31fffff","emd_code":"4119656000","emd_name":"오정동","area_km2":0.5047,"edge":false,"slope_mean":2.53,"elev_mean":11.2,"flood_hist_n":0,"flood_depth_max_m":null,"flood_risk_100y":null,"semi_basement_r":null,"elderly_alone_r":0.1099,"bldg_age30_r":null,"shelter_min_walk":8,"pop":18324,"hh":8260,"elderly65_r":0.2257,"single_hh_r":0.3607,"source_level":"emd","flood_years":[],"landslide_hist_n":0},"geometry":{"type":"Polygon","coordinates":[[[126.79736,37.53044],[126.79683,37.53477],[126.79264,37.53671],[126.78897,37.53432],[126.7895,37.52999],[126.79369,37.52805],[126.79736,37.53044]]]}},{"type":"Feature","properties":{"h3":"8830e0ae33fffff","emd_code":"4119652000","emd_name":"원종1동","area_km2":0.5048,"edge":false,"slope_mean":2.66,"elev_mean":12.4,"flood_hist_n":0,"flood_depth_max_m":null,"flood_risk_100y":null,"semi_basement_r":null,"elderly_alone_r":0.1308,"bldg_age30_r":null,"shelter_min_walk":6,"pop":23836,"hh":11182,"elderly65_r":0.2095,"single_hh_r":0.3832,"source_level":"emd","flood_years":[],"landslide_hist_n":0},"geometry":{"type":"Polygon","coordinates":[[[126.80523,37.53089],[126.8047,37.53523],[126.8005,37.53717],[126.79683,37.53477],[126.79736,37.53044],[126.80156,37.5285],[126.80523,37.53089]]]}},{"type":"Feature","properties":{"h3":"8830e0ae35fffff","emd_code":"4119656000","emd_name":"오정동","area_km2":0.5047,"edge":false,"slope_mean":3.43,"elev_mean":16.7,"flood_hist_n":0,"flood_depth_max_m":null,"flood_risk_100y":null,"semi_basement_r":null,"elderly_alone_r":0.1099,"bldg_age30_r":null,"shelter_min_walk":4,"pop":18324,"hh":8260,"elderly65_r":0.2257,"single_hh_r":0.3607,"source_level":"emd","flood_years":[],"landslide_hist_n":0},"geometry":{"type":"Polygon","coordinates":[[[126.79422,37.52371],[126.79369,37.52805],[126.7895,37.52999],[126.78583,37.52759],[126.78635,37.52326],[126.79055,37.52132],[126.79422,37.52371]]]}},{"type":"Feature","properties":{"h3":"8830e0ae37fffff","emd_code":"4119653000","emd_name":"원종2동","area_km2":0.5048,"edge":false,"slope_mean":3.76,"elev_mean":18.4,"flood_hist_n":0,"flood_depth_max_m":null,"flood_risk_100y":null,"semi_basement_r":null,"elderly_alone_r":0.1431,"bldg_age30_r":null,"shelter_min_walk":2,"pop":17019,"hh":8137,"elderly65_r":0.2253,"single_hh_r":0.4022,"source_level":"emd","flood_years":[],"landslide_hist_n":0},"geometry":{"type":"Polygon","coordinates":[[[126.80208,37.52416],[126.80156,37.5285],[126.79736,37.53044],[126.79369,37.52805],[126.79422,37.52371],[126.79841,37.52177],[126.80208,37.52416]]]}},{"type":"Feature","properties":{"h3":"8830e0ae39fffff","emd_code":"4119656000","emd_name":"오정동","area_km2":0.5047,"edge":false,"slope_mean":1.48,"elev_mean":8.6,"flood_hist_n":0,"flood_depth_max_m":null,"flood_risk_100y":null,"semi_basement_r":null,"elderly_alone_r":0.1099,"bldg_age30_r":null,"shelter_min_walk":14,"pop":18324,"hh":8260,"elderly65_r":0.2257,"single_hh_r":0.3607,"source_level":"emd","flood_years":[],"landslide_hist_n":0},"geometry":{"type":"Polygon","coordinates":[[[126.79264,37.53671],[126.79211,37.54105],[126.78792,37.54299],[126.78425,37.54059],[126.78478,37.53626],[126.78897,37.53432],[126.79264,37.53671]]]}},{"type":"Feature","properties":{"h3":"8830e0ae3bfffff","emd_code":"4119656000","emd_name":"오정동","area_km2":0.5048,"edge":true,"slope_mean":1.79,"elev_mean":10.1,"flood_hist_n":0,"flood_depth_max_m":null,"flood_risk_100y":null,"semi_basement_r":null,"elderly_alone_r":0.1099,"bldg_age30_r":null,"shelter_min_walk":17,"pop":18324,"hh":8260,"elderly65_r":0.2257,"single_hh_r":0.3607,"source_level":"emd","flood_years":[],"landslide_hist_n":0},"geometry":{"type":"Polygon","coordinates":[[[126.8005,37.53717],[126.79998,37.5415],[126.79578,37.54344],[126.79211,37.54105],[126.79264,37.53671],[126.79683,37.53477],[126.8005,37.53717]]]}},{"type":"Feature","properties":{"h3":"8830e0ae3dfffff","emd_code":"4119656000","emd_name":"오정동","area_km2":0.5046,"edge":false,"slope_mean":3.36,"elev_mean":13.0,"flood_hist_n":0,"flood_depth_max_m":null,"flood_risk_100y":null,"semi_basement_r":null,"elderly_alone_r":0.1099,"bldg_age30_r":null,"shelter_min_walk":3,"pop":18324,"hh":8260,"elderly65_r":0.2257,"single_hh_r":0.3607,"source_level":"emd","flood_years":[],"landslide_hist_n":0},"geometry":{"type":"Polygon","coordinates":[[[126.7895,37.52999],[126.78897,37.53432],[126.78478,37.53626],[126.78111,37.53387],[126.78163,37.52953],[126.78583,37.52759],[126.7895,37.52999]]]}},{"type":"Feature","properties":{"h3":"8830e0ae47fffff","emd_code":"4119656000","emd_name":"오정동","area_km2":0.5043,"edge":true,"slope_mean":1.66,"elev_mean":7.5,"flood_hist_n":0,"flood_depth_max_m":null,"flood_risk_100y":null,"semi_basement_r":null,"elderly_alone_r":0.1099,"bldg_age30_r":null,"shelter_min_walk":43,"pop":18324,"hh":8260,"elderly65_r":0.2257,"single_hh_r":0.3607,"source_level":"emd","flood_years":[],"landslide_hist_n":0},"geometry":{"type":"Polygon","coordinates":[[[126.76747,37.54835],[126.76694,37.55268],[126.76274,37.55462],[126.75908,37.55223],[126.75961,37.54789],[126.7638,37.54596],[126.76747,37.54835]]]}},{"type":"Feature","properties":{"h3":"8830e0ae61fffff","emd_code":"4119656000","emd_name":"오정동","area_km2":0.5042,"edge":true,"slope_mean":1.52,"elev_mean":7.6,"flood_hist_n":1,"flood_depth_max_m":0.78,"flood_risk_100y":null,"semi_basement_r":null,"elderly_alone_r":0.1099,"bldg_age30_r":null,"shelter_min_walk":33,"pop":18324,"hh":8260,"elderly65_r":0.2257,"single_hh_r":0.3607,"source_level":"emd","flood_years":[2006],"landslide_hist_n":0},"geometry":{"type":"Polygon","coordinates":[[[126.76119,37.53489],[126.76066,37.53923],[126.75647,37.54117],[126.7528,37.53877],[126.75333,37.53444],[126.75752,37.5325],[126.76119,37.53489]]]}},{"type":"Feature","properties":{"h3":"8830e0ae63fffff","emd_code":"4119656000","emd_name":"오정동","area_km2":0.5043,"edge":false,"slope_mean":1.86,"elev_mean":7.2,"flood_hist_n":0,"flood_depth_max_m":null,"flood_risk_100y":null,"semi_basement_r":null,"elderly_alone_r":0.1099,"bldg_age30_r":null,"shelter_min_walk":27,"pop":18324,"hh":8260,"elderly65_r":0.2257,"single_hh_r":0.3607,"source_level":"emd","flood_years":[],"landslide_hist_n":0},"geometry":{"type":"Polygon","coordinates":[[[126.76905,37.53535],[126.76852,37.53968],[126.76433,37.54162],[126.76066,37.53923],[126.76119,37.53489],[126.76538,37.53296],[126.76905,37.53535]]]}},{"type":"Feature","properties":{"h3":"8830e0ae67fffff","emd_code":"4119657000","emd_name":"신흥동","area_km2":0.5043,"edge":false,"slope_mean":3.29,"elev_mean":9.1,"flood_hist_n":1,"flood_depth_max_m":0.78,"flood_risk_100y":null,"semi_basement_r":null,"elderly_alone_r":0.1392,"bldg_age30_r":null,"shelter_min_walk":21,"pop":16331,"hh":7961,"elderly65_r":0.2248,"single_hh_r":0.427,"source_level":"emd","flood_years":[2006],"landslide_hist_n":0},"geometry":{"type":"Polygon","coordinates":[[[126.76591,37.52862],[126.76538,37.53296],[126.76119,37.53489],[126.75752,37.5325],[126.75805,37.52817],[126.76225,37.52623],[126.76591,37.52862]]]}},{"type":"Feature","properties":{"h3":"8830e0ae6bfffff","emd_code":"4119656000","emd_name":"오정동","area_km2":0.5043,"edge":true,"slope_mean":1.61,"elev_mean":7.2,"flood_hist_n":0,"flood_depth_max_m":null,"flood_risk_100y":null,"semi_basement_r":null,"elderly_alone_r":0.1099,"bldg_age30_r":null,"shelter_min_walk":38,"pop":18324,"hh":8260,"elderly65_r":0.2257,"single_hh_r":0.3607,"source_level":"emd","flood_years":[],"landslide_hist_n":0},"geometry":{"type":"Polygon","coordinates":[[[126.76433,37.54162],[126.7638,37.54596],[126.75961,37.54789],[126.75594,37.5455],[126.75647,37.54117],[126.76066,37.53923],[126.76433,37.54162]]]}},{"type":"Feature","properties":{"h3":"8830e0aea1fffff","emd_code":"4119654000","emd_name":"고강본동","area_km2":0.5052,"edge":true,"slope_mean":7.44,"elev_mean":36.5,"flood_hist_n":0,"flood_depth_max_m":null,"flood_risk_100y":null,"semi_basement_r":null,"elderly_alone_r":0.1617,"bldg_age30_r":null,"shelter_min_walk":7,"pop":24538,"hh":12070,"elderly65_r":0.2471,"single_hh_r":0.4232,"source_level":"emd","flood_years":[],"landslide_hist_n":0},"geometry":{"type":"Polygon","coordinates":[[[126.83355,37.52597],[126.83303,37.53031],[126.82883,37.53225],[126.82516,37.52986],[126.82568,37.52552],[126.82988,37.52358],[126.83355,37.52597]]]}},{"type":"Feature","properties":{"h3":"8830e0aea5fffff","emd_code":"4119654000","emd_name":"고강본동","area_km2":0.5051,"edge":true,"slope_mean":11.55,"elev_mean":68.6,"flood_hist_n":0,"flood_depth_max_m":null,"flood_risk_100y":null,"semi_basement_r":null,"elderly_alone_r":0.1617,"bldg_age30_r":null,"shelter_min_walk":7,"pop":24538,"hh":12070,"elderly65_r":0.2471,"single_hh_r":0.4232,"source_level":"emd","flood_years":[],"landslide_hist_n":0},"geometry":{"type":"Polygon","coordinates":[[[126.8304,37.51924],[126.82988,37.52358],[126.82568,37.52552],[126.82201,37.52313],[126.82253,37.51879],[126.82673,37.51685],[126.8304,37.51924]]]}},{"type":"Feature","properties":{"h3":"8830e0aea9fffff","emd_code":"4119654000","emd_name":"고강본동","area_km2":0.5052,"edge":true,"slope_mean":5.42,"elev_mean":34.1,"flood_hist_n":0,"flood_depth_max_m":null,"flood_risk_100y":null,"semi_basement_r":null,"elderly_alone_r":0.1617,"bldg_age30_r":null,"shelter_min_walk":14,"pop":24538,"hh":12070,"elderly65_r":0.2471,"single_hh_r":0.4232,"source_level":"emd","flood_years":[],"landslide_hist_n":0},"geometry":{"type":"Polygon","coordinates":[[[126.82883,37.53225],[126.82831,37.53658],[126.82411,37.53853],[126.82044,37.53613],[126.82096,37.5318],[126.82516,37.52986],[126.82883,37.53225]]]}},{"type":"Feature","properties":{"h3":"8830e0aeadfffff","emd_code":"4119654000","emd_name":"고강본동","area_km2":0.5051,"edge":false,"slope_mean":6.3,"elev_mean":35.2,"flood_hist_n":0,"flood_depth_max_m":null,"flood_risk_100y":null,"semi_basement_r":null,"elderly_alone_r":0.1617,"bldg_age30_r":null,"shelter_min_walk":5,"pop":24538,"hh":12070,"elderly65_r":0.2471,"single_hh_r":0.4232,"source_level":"emd","flood_years":[],"landslide_hist_n":0},"geometry":{"type":"Polygon","coordinates":[[[126.82568,37.52552],[126.82516,37.52986],[126.82096,37.5318],[126.81729,37.5294],[126.81781,37.52507],[126.82201,37.52313],[126.82568,37.52552]]]}},{"type":"Feature","properties":{"h3":"8830e0aee1fffff","emd_code":"4119655000","emd_name":"고강1동","area_km2":0.505,"edge":false,"slope_mean":3.17,"elev_mean":17.2,"flood_hist_n":0,"flood_depth_max_m":null,"flood_risk_100y":null,"semi_basement_r":null,"elderly_alone_r":0.163,"bldg_age30_r":null,"shelter_min_walk":15,"pop":11754,"hh":5650,"elderly65_r":0.2591,"single_hh_r":0.4032,"source_level":"emd","flood_years":[],"landslide_hist_n":0},"geometry":{"type":"Polygon","coordinates":[[[126.81624,37.53807],[126.81571,37.54241],[126.81152,37.54435],[126.80785,37.54196],[126.80837,37.53762],[126.81257,37.53568],[126.81624,37.53807]]]}},{"type":"Feature","properties":{"h3":"8830e0aee3fffff","emd_code":"4119655000","emd_name":"고강1동","area_km2":0.5051,"edge":false,"slope_mean":4.08,"elev_mean":26.8,"flood_hist_n":0,"flood_depth_max_m":null,"flood_risk_100y":null,"semi_basement_r":null,"elderly_alone_r":0.163,"bldg_age30_r":null,"shelter_min_walk":20,"pop":11754,"hh":5650,"elderly65_r":0.2591,"single_hh_r":0.4032,"source_level":"emd","flood_years":[],"landslide_hist_n":0},"geometry":{"type":"Polygon","coordinates":[[[126.82411,37.53853],[126.82358,37.54286],[126.81939,37.5448],[126.81571,37.54241],[126.81624,37.53807],[126.82044,37.53613],[126.82411,37.53853]]]}},{"type":"Feature","properties":{"h3":"8830e0aee5fffff","emd_code":"4119655000","emd_name":"고강1동","area_km2":0.5049,"edge":false,"slope_mean":2.7,"elev_mean":15.3,"flood_hist_n":0,"flood_depth_max_m":null,"flood_risk_100y":null,"semi_basement_r":null,"elderly_alone_r":0.163,"bldg_age30_r":null,"shelter_min_walk":4,"pop":11754,"hh":5650,"elderly65_r":0.2591,"single_hh_r":0.4032,"source_level":"emd","flood_years":[],"landslide_hist_n":0},"geometry":{"type":"Polygon","coordinates":[[[126.81309,37.53135],[126.81257,37.53568],[126.80837,37.53762],[126.8047,37.53523],[126.80523,37.53089],[126.80942,37.52895],[126.81309,37.53135]]]}},{"type":"Feature","properties":{"h3":"8830e0aee7fffff","emd_code":"4119654000","emd_name":"고강본동","area_km2":0.505,"edge":false,"slope_mean":4.52,"elev_mean":25.2,"flood_hist_n":0,"flood_depth_max_m":null,"flood_risk_100y":null,"semi_basement_r":null,"elderly_alone_r":0.1617,"bldg_age30_r":null,"shelter_min_walk":8,"pop":24538,"hh":12070,"elderly65_r":0.2471,"single_hh_r":0.4232,"source_level":"emd","flood_years":[],"landslide_hist_n":0},"geometry":{"type":"Polygon","coordinates":[[[126.82096,37.5318],[126.82044,37.53613],[126.81624,37.53807],[126.81257,37.53568],[126.81309,37.53135],[126.81729,37.5294],[126.82096,37.5318]]]}},{"type":"Feature","properties":{"h3":"8830e0aee9fffff","emd_code":"4119655000","emd_name":"고강1동","area_km2":0.5049,"edge":true,"slope_mean":1.18,"elev_mean":13.3,"flood_hist_n":0,"flood_depth_max_m":null,"flood_risk_100y":null,"semi_basement_r":null,"elderly_alone_r":0.163,"bldg_age30_r":null,"shelter_min_walk":23,"pop":11754,"hh":5650,"elderly65_r":0.2591,"single_hh_r":0.4032,"source_level":"emd","flood_years":[],"landslide_hist_n":0},"geometry":{"type":"Polygon","coordinates":[[[126.81152,37.54435],[126.81099,37.54869],[126.80679,37.55063],[126.80312,37.54823],[126.80365,37.5439],[126.80785,37.54196],[126.81152,37.54435]]]}},{"type":"Feature","properties":{"h3":"8830e0aeedfffff","emd_code":"4119655000","emd_name":"고강1동","area_km2":0.5049,"edge":false,"slope_mean":2.04,"elev_mean":12.3,"flood_hist_n":0,"flood_depth_max_m":null,"flood_risk_100y":null,"semi_basement_r":null,"elderly_alone_r":0.163,"bldg_age30_r":null,"shelter_min_walk":12,"pop":11754,"hh":5650,"elderly65_r":0.2591,"single_hh_r":0.4032,"source_level":"emd","flood_years":[],"landslide_hist_n":0},"geometry":{"type":"Polygon","coordinates":[[[126.80837,37.53762],[126.80785,37.54196],[126.80365,37.5439],[126.79998,37.5415],[126.8005,37.53717],[126.8047,37.53523],[126.80837,37.53762]]]}},{"type":"Feature","properties":{"h3":"8830e0af1bfffff","emd_code":"4119657000","emd_name":"신흥동","area_km2":0.5044,"edge":true,"slope_mean":4.33,"elev_mean":15.9,"flood_hist_n":0,"flood_depth_max_m":null,"flood_risk_100y":null,"semi_basement_r":null,"elderly_alone_r":0.1392,"bldg_age30_r":null,"shelter_min_walk":3,"pop":16331,"hh":7961,"elderly65_r":0.2248,"single_hh_r":0.427,"source_level":"emd","flood_years":[],"landslide_hist_n":0},"geometry":{"type":"Polygon","coordinates":[[[126.78007,37.5098],[126.77955,37.51414],[126.77535,37.51608],[126.77169,37.51368],[126.77221,37.50935],[126.77641,37.50741],[126.78007,37.5098]]]}},{"type":"Feature","properties":{"h3":"8830e0af53fffff","emd_code":"4119657000","emd_name":"신흥동","area_km2":0.5043,"edge":true,"slope_mean":4.24,"elev_mean":12.4,"flood_hist_n":0,"flood_depth_max_m":null,"flood_risk_100y":null,"semi_basement_r":null,"elderly_alone_r":0.1392,"bldg_age30_r":null,"shelter_min_walk":5,"pop":16331,"hh":7961,"elderly65_r":0.2248,"single_hh_r":0.427,"source_level":"emd","flood_years":[],"landslide_hist_n":0},"geometry":{"type":"Polygon","coordinates":[[[126.76749,37.51562],[126.76697,37.51996],[126.76277,37.5219],[126.75911,37.5195],[126.75964,37.51517],[126.76383,37.51323],[126.76749,37.51562]]]}},{"type":"Feature","properties":{"h3":"8830e0af5bfffff","emd_code":"4119657000","emd_name":"신흥동","area_km2":0.5042,"edge":true,"slope_mean":2.88,"elev_mean":8.3,"flood_hist_n":0,"flood_depth_max_m":null,"flood_risk_100y":null,"semi_basement_r":null,"elderly_alone_r":0.1392,"bldg_age30_r":null,"shelter_min_walk":14,"pop":16331,"hh":7961,"elderly65_r":0.2248,"single_hh_r":0.427,"source_level":"emd","flood_years":[],"landslide_hist_n":0},"geometry":{"type":"Polygon","coordinates":[[[126.76277,37.5219],[126.76225,37.52623],[126.75805,37.52817],[126.75439,37.52577],[126.75492,37.52144],[126.75911,37.5195],[126.76277,37.5219]]]}}]}