{"type":"FeatureCollection","name":"grid_41192_h3r8","meta":{"sgg_code":"41192","h3_res":8,"n_cells":60,"dem":"Copernicus GLO-30 (bbox-mean)","crs":"EPSG:4326","jumin_basis":"2026-07","flood_src":"행안부 침수흔적도(전국, 재난안전데이터공유플랫폼)","landslide_src":"행안부 산사태 발생이력"},"features":[{"type":"Feature","properties":{"h3":"8830e0ac01fffff","emd_code":"4119259000","emd_name":"춘의동","area_km2":0.5048,"edge":false,"slope_mean":11.63,"elev_mean":62.4,"flood_hist_n":0,"flood_depth_max_m":null,"flood_risk_100y":null,"semi_basement_r":null,"elderly_alone_r":0.1678,"bldg_age30_r":null,"shelter_min_walk":10,"pop":13343,"hh":6680,"elderly65_r":0.2477,"single_hh_r":0.446,"source_level":"emd","flood_years":[],"landslide_hist_n":0},"geometry":{"type":"Polygon","coordinates":[[[126.8131,37.49861],[126.81257,37.50294],[126.80838,37.50488],[126.80471,37.50249],[126.80523,37.49816],[126.80943,37.49622],[126.8131,37.49861]]]}},{"type":"Feature","properties":{"h3":"8830e0ac03fffff","emd_code":"4119259000","emd_name":"춘의동","area_km2":0.505,"edge":false,"slope_mean":13.08,"elev_mean":69.2,"flood_hist_n":0,"flood_depth_max_m":null,"flood_risk_100y":null,"semi_basement_r":null,"elderly_alone_r":0.1678,"bldg_age30_r":null,"shelter_min_walk":11,"pop":13343,"hh":6680,"elderly65_r":0.2477,"single_hh_r":0.446,"source_level":"emd","flood_years":[],"landslide_hist_n":0},"geometry":{"type":"Polygon","coordinates":[[[126.82096,37.49906],[126.82044,37.50339],[126.81624,37.50534],[126.81257,37.50294],[126.8131,37.49861],[126.81729,37.49667],[126.82096,37.49906]]]}},{"type":"Feature","properties":{"h3":"8830e0ac05fffff","emd_code":"4119257000","emd_name":"역곡1동","area_km2":0.5048,"edge":false,"slope_mean":12.07,"elev_mean":66.0,"flood_hist_n":0,"flood_depth_max_m":null,"flood_risk_100y":null,"semi_basement_r":null,"elderly_alone_r":0.134,"bldg_age30_r":null,"shelter_min_walk":9,"pop":15976,"hh":6986,"elderly65_r":0.2615,"single_hh_r":0.3236,"source_level":"emd","flood_years":[],"landslide_hist_n":0},"geometry":{"type":"Polygon","coordinates":[[[126.80995,37.49188],[126.80943,37.49622],[126.80523,37.49816],[126.80157,37.49577],[126.80209,37.49143],[126.80628,37.48949],[126.80995,37.49188]]]}},{"type":"Feature","properties":{"h3":"8830e0ac07fffff","emd_code":"4119257000","emd_name":"역곡1동","area_km2":0.5049,"edge":false,"slope_mean":9.06,"elev_mean":57.5,"flood_hist_n":0,"flood_depth_max_m":null,"flood_risk_100y":null,"semi_basement_r":null,"elderly_alone_r":0.134,"bldg_age30_r":null,"shelter_min_walk":5,"pop":15976,"hh":6986,"elderly65_r":0.2615,"single_hh_r":0.3236,"source_level":"emd","flood_years":[],"landslide_hist_n":0},"geometry":{"type":"Polygon","coordinates":[[[126.81782,37.49233],[126.81729,37.49667],[126.8131,37.49861],[126.80943,37.49622],[126.80995,37.49188],[126.81415,37.48994],[126.81782,37.49233]]]}},{"type":"Feature","properties":{"h3":"8830e0ac09fffff","emd_code":"4119259000","emd_name":"춘의동","area_km2":0.5048,"edge":true,"slope_mean":12.99,"elev_mean":52.3,"flood_hist_n":0,"flood_depth_max_m":null,"flood_risk_100y":null,"semi_basement_r":null,"elderly_alone_r":0.1678,"bldg_age30_r":null,"shelter_min_walk":4,"pop":13343,"hh":6680,"elderly65_r":0.2477,"single_hh_r":0.446,"source_level":"emd","flood_years":[],"landslide_hist_n":0},"geometry":{"type":"Polygon","coordinates":[[[126.80838,37.50488],[126.80785,37.50922],[126.80366,37.51116],[126.79999,37.50877],[126.80051,37.50443],[126.80471,37.50249],[126.80838,37.50488]]]}},{"type":"Feature","properties":{"h3":"8830e0ac0bfffff","emd_code":"4119259000","emd_name":"춘의동","area_km2":0.5049,"edge":true,"slope_mean":7.84,"elev_mean":41.4,"flood_hist_n":0,"flood_depth_max_m":null,"flood_risk_100y":null,"semi_basement_r":null,"elderly_alone_r":0.1678,"bldg_age30_r":null,"shelter_min_walk":2,"pop":13343,"hh":6680,"elderly65_r":0.2477,"single_hh_r":0.446,"source_level":"emd","flood_years":[],"landslide_hist_n":0},"geometry":{"type":"Polygon","coordinates":[[[126.81624,37.50534],[126.81572,37.50967],[126.81152,37.51161],[126.80785,37.50922],[126.80838,37.50488],[126.81257,37.50294],[126.81624,37.50534]]]}},{"type":"Feature","properties":{"h3":"8830e0ac0dfffff","emd_code":"4119259000","emd_name":"춘의동","area_km2":0.5047,"edge":false,"slope_mean":14.9,"elev_mean":81.7,"flood_hist_n":0,"flood_depth_max_m":null,"flood_risk_100y":null,"semi_basement_r":null,"elderly_alone_r":0.1678,"bldg_age30_r":null,"shelter_min_walk":10,"pop":13343,"hh":6680,"elderly65_r":0.2477,"single_hh_r":0.446,"source_level":"emd","flood_years":[],"landslide_hist_n":0},"geometry":{"type":"Polygon","coordinates":[[[126.80523,37.49816],[126.80471,37.50249],[126.80051,37.50443],[126.79685,37.50204],[126.79737,37.49771],[126.80157,37.49577],[126.80523,37.49816]]]}},{"type":"Feature","properties":{"h3":"8830e0ac15fffff","emd_code":"4119259000","emd_name":"춘의동","area_km2":0.5051,"edge":true,"slope_mean":11.75,"elev_mean":63.1,"flood_hist_n":0,"flood_depth_max_m":null,"flood_risk_100y":null,"semi_basement_r":null,"elderly_alone_r":0.1678,"bldg_age30_r":null,"shelter_min_walk":19,"pop":13343,"hh":6680,"elderly65_r":0.2477,"single_hh_r":0.446,"source_level":"emd","flood_years":[],"landslide_hist_n":0},"geometry":{"type":"Polygon","coordinates":[[[126.82883,37.49951],[126.8283,37.50384],[126.82411,37.50579],[126.82044,37.50339],[126.82096,37.49906],[126.82515,37.49711],[126.82883,37.49951]]]}},{"type":"Feature","properties":{"h3":"8830e0ac1dfffff","emd_code":"4119259000","emd_name":"춘의동","area_km2":0.505,"edge":true,"slope_mean":12.62,"elev_mean":79.7,"flood_hist_n":0,"flood_depth_max_m":null,"flood_risk_100y":null,"semi_basement_r":null,"elderly_alone_r":0.1678,"bldg_age30_r":null,"shelter_min_walk":11,"pop":13343,"hh":6680,"elderly65_r":0.2477,"single_hh_r":0.446,"source_level":"emd","flood_years":[],"landslide_hist_n":0},"geometry":{"type":"Polygon","coordinates":[[[126.82411,37.50579],[126.82358,37.51012],[126.81939,37.51206],[126.81572,37.50967],[126.81624,37.50534],[126.82044,37.50339],[126.82411,37.50579]]]}},{"type":"Feature","properties":{"h3":"8830e0ac21fffff","emd_code":"4119258000","emd_name":"역곡2동","area_km2":0.5048,"edge":true,"slope_mean":5.74,"elev_mean":40.9,"flood_hist_n":0,"flood_depth_max_m":null,"flood_risk_100y":null,"semi_basement_r":null,"elderly_alone_r":0.1182,"bldg_age30_r":null,"shelter_min_walk":2,"pop":16133,"hh":7659,"elderly65_r":0.2471,"single_hh_r":0.4002,"source_level":"emd","flood_years":[],"landslide_hist_n":0},"geometry":{"type":"Polygon","coordinates":[[[126.81153,37.47888],[126.811,37.48321],[126.80681,37.48515],[126.80314,37.48276],[126.80367,37.47843],[126.80786,37.47649],[126.81153,37.47888]]]}},{"type":"Feature","properties":{"h3":"8830e0ac29fffff","emd_code":"4119258000","emd_name":"역곡2동","area_km2":0.5047,"edge":false,"slope_mean":10.55,"elev_mean":61.1,"flood_hist_n":0,"flood_depth_max_m":null,"flood_risk_100y":null,"semi_basement_r":null,"elderly_alone_r":0.1182,"bldg_age30_r":null,"shelter_min_walk":2,"pop":16133,"hh":7659,"elderly65_r":0.2471,"single_hh_r":0.4002,"source_level":"emd","flood_years":[],"landslide_hist_n":0},"geometry":{"type":"Polygon","coordinates":[[[126.80681,37.48515],[126.80628,37.48949],[126.80209,37.49143],[126.79842,37.48904],[126.79895,37.48471],[126.80314,37.48276],[126.80681,37.48515]]]}},{"type":"Feature","properties":{"h3":"8830e0ac2bfffff","emd_code":"4119258000","emd_name":"역곡2동","area_km2":0.5048,"edge":false,"slope_mean":5.05,"elev_mean":34.4,"flood_hist_n":0,"flood_depth_max_m":null,"flood_risk_100y":null,"semi_basement_r":null,"elderly_alone_r":0.1182,"bldg_age30_r":null,"shelter_min_walk":4,"pop":16133,"hh":7659,"elderly65_r":0.2471,"single_hh_r":0.4002,"source_level":"emd","flood_years":[],"landslide_hist_n":0},"geometry":{"type":"Polygon","coordinates":[[[126.81467,37.4856],[126.81415,37.48994],[126.80995,37.49188],[126.80628,37.48949],[126.80681,37.48515],[126.811,37.48321],[126.81467,37.4856]]]}},{"type":"Feature","properties":{"h3":"8830e0ac2dfffff","emd_code":"4119258000","emd_name":"역곡2동","area_km2":0.5047,"edge":true,"slope_mean":4.95,"elev_mean":39.4,"flood_hist_n":0,"flood_depth_max_m":null,"flood_risk_100y":null,"semi_basement_r":null,"elderly_alone_r":0.1182,"bldg_age30_r":null,"shelter_min_walk":3,"pop":16133,"hh":7659,"elderly65_r":0.2471,"single_hh_r":0.4002,"source_level":"emd","flood_years":[],"landslide_hist_n":0},"geometry":{"type":"Polygon","coordinates":[[[126.80367,37.47843],[126.80314,37.48276],[126.79895,37.48471],[126.79528,37.48231],[126.79581,37.47798],[126.8,37.47604],[126.80367,37.47843]]]}},{"type":"Feature","properties":{"h3":"8830e0ac3dfffff","emd_code":"4119257000","emd_name":"역곡1동","area_km2":0.5049,"edge":true,"slope_mean":5.45,"elev_mean":35.5,"flood_hist_n":0,"flood_depth_max_m":null,"flood_risk_100y":null,"semi_basement_r":null,"elderly_alone_r":0.134,"bldg_age30_r":null,"shelter_min_walk":4,"pop":15976,"hh":6986,"elderly65_r":0.2615,"single_hh_r":0.3236,"source_level":"emd","flood_years":[],"landslide_hist_n":0},"geometry":{"type":"Polygon","coordinates":[[[126.82253,37.48605],[126.82201,37.49039],[126.81782,37.49233],[126.81415,37.48994],[126.81467,37.4856],[126.81886,37.48366],[126.82253,37.48605]]]}},{"type":"Feature","properties":{"h3":"8830e0ac41fffff","emd_code":"4119260000","emd_name":"도당동","area_km2":0.5046,"edge":true,"slope_mean":11.89,"elev_mean":56.9,"flood_hist_n":0,"flood_depth_max_m":null,"flood_risk_100y":null,"semi_basement_r":null,"elderly_alone_r":0.1336,"bldg_age30_r":null,"shelter_min_walk":7,"pop":19603,"hh":9058,"elderly65_r":0.2123,"single_hh_r":0.3832,"source_level":"emd","flood_years":[],"landslide_hist_n":0},"geometry":{"type":"Polygon","coordinates":[[[126.7958,37.51071],[126.79527,37.51504],[126.79108,37.51698],[126.78741,37.51459],[126.78793,37.51026],[126.79213,37.50832],[126.7958,37.51071]]]}},{"type":"Feature","properties":{"h3":"8830e0ac45fffff","emd_code":"4119259000","emd_name":"춘의동","area_km2":0.5046,"edge":false,"slope_mean":7.81,"elev_mean":36.5,"flood_hist_n":0,"flood_depth_max_m":null,"flood_risk_100y":null,"semi_basement_r":null,"elderly_alone_r":0.1678,"bldg_age30_r":null,"shelter_min_walk":4,"pop":13343,"hh":6680,"elderly65_r":0.2477,"single_hh_r":0.446,"source_level":"emd","flood_years":[],"landslide_hist_n":0},"geometry":{"type":"Polygon","coordinates":[[[126.79265,37.50398],[126.79213,37.50832],[126.78793,37.51026],[126.78427,37.50786],[126.78479,37.50353],[126.78899,37.50159],[126.79265,37.50398]]]}},{"type":"Feature","properties":{"h3":"8830e0ac47fffff","emd_code":"4119259000","emd_name":"춘의동","area_km2":0.5047,"edge":true,"slope_mean":7.58,"elev_mean":37.7,"flood_hist_n":0,"flood_depth_max_m":null,"flood_risk_100y":null,"semi_basement_r":null,"elderly_alone_r":0.1678,"bldg_age30_r":null,"shelter_min_walk":3,"pop":13343,"hh":6680,"elderly65_r":0.2477,"single_hh_r":0.446,"source_level":"emd","flood_years":[],"landslide_hist_n":0},"geometry":{"type":"Polygon","coordinates":[[[126.80051,37.50443],[126.79999,37.50877],[126.7958,37.51071],[126.79213,37.50832],[126.79265,37.50398],[126.79685,37.50204],[126.80051,37.50443]]]}},{"type":"Feature","properties":{"h3":"8830e0ac49fffff","emd_code":"4119260000","emd_name":"도당동","area_km2":0.5046,"edge":false,"slope_mean":4.71,"elev_mean":20.7,"flood_hist_n":0,"flood_depth_max_m":null,"flood_risk_100y":null,"semi_basement_r":null,"elderly_alone_r":0.1336,"bldg_age30_r":null,"shelter_min_walk":4,"pop":19603,"hh":9058,"elderly65_r":0.2123,"single_hh_r":0.3832,"source_level":"emd","flood_years":[],"landslide_hist_n":0},"geometry":{"type":"Polygon","coordinates":[[[126.79108,37.51698],[126.79055,37.52132],[126.78635,37.52326],[126.78269,37.52087],[126.78321,37.51653],[126.78741,37.51459],[126.79108,37.51698]]]}},{"type":"Feature","properties":{"h3":"8830e0ac4bfffff","emd_code":"4119260000","emd_name":"도당동","area_km2":0.5047,"edge":false,"slope_mean":5.91,"elev_mean":32.3,"flood_hist_n":0,"flood_depth_max_m":null,"flood_risk_100y":null,"semi_basement_r":null,"elderly_alone_r":0.1336,"bldg_age30_r":null,"shelter_min_walk":2,"pop":19603,"hh":9058,"elderly65_r":0.2123,"single_hh_r":0.3832,"source_level":"emd","flood_years":[],"landslide_hist_n":0},"geometry":{"type":"Polygon","coordinates":[[[126.79894,37.51744],[126.79841,37.52177],[126.79422,37.52371],[126.79055,37.52132],[126.79108,37.51698],[126.79527,37.51504],[126.79894,37.51744]]]}},{"type":"Feature","properties":{"h3":"8830e0ac4dfffff","emd_code":"4119260000","emd_name":"도당동","area_km2":0.5045,"edge":false,"slope_mean":5.41,"elev_mean":22.6,"flood_hist_n":0,"flood_depth_max_m":null,"flood_risk_100y":null,"semi_basement_r":null,"elderly_alone_r":0.1336,"bldg_age30_r":null,"shelter_min_walk":3,"pop":19603,"hh":9058,"elderly65_r":0.2123,"single_hh_r":0.3832,"source_level":"emd","flood_years":[],"landslide_hist_n":0},"geometry":{"type":"Polygon","coordinates":[[[126.78793,37.51026],[126.78741,37.51459],[126.78321,37.51653],[126.77955,37.51414],[126.78007,37.5098],[126.78427,37.50786],[126.78793,37.51026]]]}},{"type":"Feature","properties":{"h3":"8830e0ac61fffff","emd_code":"4119254000","emd_name":"원미1동","area_km2":0.5046,"edge":false,"slope_mean":4.41,"elev_mean":27.5,"flood_hist_n":0,"flood_depth_max_m":null,"flood_risk_100y":null,"semi_basement_r":null,"elderly_alone_r":0.146,"bldg_age30_r":null,"shelter_min_walk":2,"pop":16162,"hh":7590,"elderly65_r":0.2346,"single_hh_r":0.3943,"source_level":"emd","flood_years":[],"landslide_hist_n":0},"geometry":{"type":"Polygon","coordinates":[[[126.79423,37.49098],[126.79371,37.49531],[126.78951,37.49726],[126.78585,37.49486],[126.78637,37.49053],[126.79056,37.48859],[126.79423,37.49098]]]}},{"type":"Feature","properties":{"h3":"8830e0ac63fffff","emd_code":"4119254000","emd_name":"원미1동","area_km2":0.5047,"edge":false,"slope_mean":15.78,"elev_mean":91.0,"flood_hist_n":0,"flood_depth_max_m":null,"flood_risk_100y":null,"semi_basement_r":null,"elderly_alone_r":0.146,"bldg_age30_r":null,"shelter_min_walk":10,"pop":16162,"hh":7590,"elderly65_r":0.2346,"single_hh_r":0.3943,"source_level":"emd","flood_years":[],"landslide_hist_n":0},"geometry":{"type":"Polygon","coordinates":[[[126.80209,37.49143],[126.80157,37.49577],[126.79737,37.49771],[126.79371,37.49531],[126.79423,37.49098],[126.79842,37.48904],[126.80209,37.49143]]]}},{"type":"Feature","properties":{"h3":"8830e0ac65fffff","emd_code":"4119252000","emd_name":"심곡2동","area_km2":0.5045,"edge":false,"slope_mean":4.81,"elev_mean":26.1,"flood_hist_n":0,"flood_depth_max_m":null,"flood_risk_100y":null,"semi_basement_r":null,"elderly_alone_r":0.119,"bldg_age30_r":null,"shelter_min_walk":5,"pop":18272,"hh":11236,"elderly65_r":0.1896,"single_hh_r":0.6231,"source_level":"emd","flood_years":[],"landslide_hist_n":0},"geometry":{"type":"Polygon","coordinates":[[[126.79109,37.48426],[126.79056,37.48859],[126.78637,37.49053],[126.78271,37.48814],[126.78323,37.48381],[126.78742,37.48186],[126.79109,37.48426]]]}},{"type":"Feature","properties":{"h3":"8830e0ac67fffff","emd_code":"4119256000","emd_name":"소사동","area_km2":0.5046,"edge":false,"slope_mean":8.51,"elev_mean":48.6,"flood_hist_n":0,"flood_depth_max_m":null,"flood_risk_100y":null,"semi_basement_r":null,"elderly_alone_r":0.2191,"bldg_age30_r":null,"shelter_min_walk":2,"pop":5760,"hh":3117,"elderly65_r":0.3382,"single_hh_r":0.522,"source_level":"emd","flood_years":[],"landslide_hist_n":0},"geometry":{"type":"Polygon","coordinates":[[[126.79895,37.48471],[126.79842,37.48904],[126.79423,37.49098],[126.79056,37.48859],[126.79109,37.48426],[126.79528,37.48231],[126.79895,37.48471]]]}},{"type":"Feature","properties":{"h3":"8830e0ac69fffff","emd_code":"4119259000","emd_name":"춘의동","area_km2":0.5045,"edge":false,"slope_mean":3.89,"elev_mean":19.3,"flood_hist_n":0,"flood_depth_max_m":null,"flood_risk_100y":null,"semi_basement_r":null,"elderly_alone_r":0.1678,"bldg_age30_r":null,"shelter_min_walk":5,"pop":13343,"hh":6680,"elderly65_r":0.2477,"single_hh_r":0.446,"source_level":"emd","flood_years":[],"landslide_hist_n":0},"geometry":{"type":"Polygon","coordinates":[[[126.78951,37.49726],[126.78899,37.50159],[126.78479,37.50353],[126.78113,37.50114],[126.78165,37.4968],[126.78585,37.49486],[126.78951,37.49726]]]}},{"type":"Feature","properties":{"h3":"8830e0ac6bfffff","emd_code":"4119254000","emd_name":"원미1동","area_km2":0.5046,"edge":false,"slope_mean":6.78,"elev_mean":36.4,"flood_hist_n":0,"flood_depth_max_m":null,"flood_risk_100y":null,"semi_basement_r":null,"elderly_alone_r":0.146,"bldg_age30_r":null,"shelter_min_walk":7,"pop":16162,"hh":7590,"elderly65_r":0.2346,"single_hh_r":0.3943,"source_level":"emd","flood_years":[],"landslide_hist_n":0},"geometry":{"type":"Polygon","coordinates":[[[126.79737,37.49771],[126.79685,37.50204],[126.79265,37.50398],[126.78899,37.50159],[126.78951,37.49726],[126.79371,37.49531],[126.79737,37.49771]]]}},{"type":"Feature","properties":{"h3":"8830e0ac6dfffff","emd_code":"4119251000","emd_name":"심곡1동","area_km2":0.5045,"edge":false,"slope_mean":4.46,"elev_mean":19.5,"flood_hist_n":0,"flood_depth_max_m":null,"flood_risk_100y":null,"semi_basement_r":null,"elderly_alone_r":0.1441,"bldg_age30_r":null,"shelter_min_walk":4,"pop":11892,"hh":6508,"elderly65_r":0.2233,"single_hh_r":0.5389,"source_level":"emd","flood_years":[],"landslide_hist_n":0},"geometry":{"type":"Polygon","coordinates":[[[126.78637,37.49053],[126.78585,37.49486],[126.78165,37.4968],[126.77799,37.49441],[126.77851,37.49008],[126.78271,37.48814],[126.78637,37.49053]]]}},{"type":"Feature","properties":{"h3":"8830e0ad5bfffff","emd_code":"4119252000","emd_name":"심곡2동","area_km2":0.5045,"edge":true,"slope_mean":7.43,"elev_mean":45.5,"flood_hist_n":0,"flood_depth_max_m":null,"flood_risk_100y":null,"semi_basement_r":null,"elderly_alone_r":0.119,"bldg_age30_r":null,"shelter_min_walk":1,"pop":18272,"hh":11236,"elderly65_r":0.1896,"single_hh_r":0.6231,"source_level":"emd","flood_years":[],"landslide_hist_n":0},"geometry":{"type":"Polygon","coordinates":[[[126.79581,37.47798],[126.79528,37.48231],[126.79109,37.48426],[126.78742,37.48186],[126.78795,37.47753],[126.79214,37.47559],[126.79581,37.47798]]]}},{"type":"Feature","properties":{"h3":"8830e0ae25fffff","emd_code":"4119261000","emd_name":"약대동","area_km2":0.5044,"edge":true,"slope_mean":3.28,"elev_mean":14.0,"flood_hist_n":0,"flood_depth_max_m":null,"flood_risk_100y":null,"semi_basement_r":null,"elderly_alone_r":0.086,"bldg_age30_r":null,"shelter_min_walk":1,"pop":16871,"hh":6847,"elderly65_r":0.1816,"single_hh_r":0.2719,"source_level":"emd","flood_years":[],"landslide_hist_n":0},"geometry":{"type":"Polygon","coordinates":[[[126.77535,37.51608],[126.77483,37.52041],[126.77063,37.52235],[126.76697,37.51996],[126.76749,37.51562],[126.77169,37.51368],[126.77535,37.51608]]]}},{"type":"Feature","properties":{"h3":"8830e0ae27fffff","emd_code":"4119260000","emd_name":"도당동","area_km2":0.5045,"edge":true,"slope_mean":3.95,"elev_mean":15.4,"flood_hist_n":0,"flood_depth_max_m":null,"flood_risk_100y":null,"semi_basement_r":null,"elderly_alone_r":0.1336,"bldg_age30_r":null,"shelter_min_walk":3,"pop":19603,"hh":9058,"elderly65_r":0.2123,"single_hh_r":0.3832,"source_level":"emd","flood_years":[],"landslide_hist_n":0},"geometry":{"type":"Polygon","coordinates":[[[126.78321,37.51653],[126.78269,37.52087],[126.77849,37.52281],[126.77483,37.52041],[126.77535,37.51608],[126.77955,37.51414],[126.78321,37.51653]]]}},{"type":"Feature","properties":{"h3":"8830e0af01fffff","emd_code":"4119269000","emd_name":"상2동","area_km2":0.5041,"edge":false,"slope_mean":4.77,"elev_mean":13.9,"flood_hist_n":0,"flood_depth_max_m":null,"flood_risk_100y":null,"semi_basement_r":null,"elderly_alone_r":0.0593,"bldg_age30_r":null,"shelter_min_walk":1,"pop":27531,"hh":10242,"elderly65_r":0.1288,"single_hh_r":0.2004,"source_level":"emd","flood_years":[],"landslide_hist_n":0},"geometry":{"type":"Polygon","coordinates":[[[126.75808,37.49545],[126.75756,37.49978],[126.75336,37.50172],[126.7497,37.49933],[126.75023,37.49499],[126.75442,37.49306],[126.75808,37.49545]]]}},{"type":"Feature","properties":{"h3":"8830e0af03fffff","emd_code":"4119263000","emd_name":"중1동","area_km2":0.5042,"edge":false,"slope_mean":4.63,"elev_mean":16.3,"flood_hist_n":0,"flood_depth_max_m":null,"flood_risk_100y":null,"semi_basement_r":null,"elderly_alone_r":0.0559,"bldg_age30_r":null,"shelter_min_walk":1,"pop":40354,"hh":19596,"elderly65_r":0.1489,"single_hh_r":0.457,"source_level":"emd","flood_years":[],"landslide_hist_n":0},"geometry":{"type":"Polygon","coordinates":[[[126.76594,37.4959],[126.76541,37.50023],[126.76122,37.50217],[126.75756,37.49978],[126.75808,37.49545],[126.76228,37.49351],[126.76594,37.4959]]]}},{"type":"Feature","properties":{"h3":"8830e0af05fffff","emd_code":"4119268000","emd_name":"상1동","area_km2":0.504,"edge":false,"slope_mean":5.14,"elev_mean":17.5,"flood_hist_n":0,"flood_depth_max_m":null,"flood_risk_100y":null,"semi_basement_r":null,"elderly_alone_r":0.091,"bldg_age30_r":null,"shelter_min_walk":1,"pop":23314,"hh":10194,"elderly65_r":0.2018,"single_hh_r":0.3249,"source_level":"emd","flood_years":[],"landslide_hist_n":0},"geometry":{"type":"Polygon","coordinates":[[[126.75495,37.48872],[126.75442,37.49306],[126.75023,37.49499],[126.74657,37.4926],[126.7471,37.48827],[126.75129,37.48633],[126.75495,37.48872]]]}},{"type":"Feature","properties":{"h3":"8830e0af07fffff","emd_code":"4119267000","emd_name":"상동","area_km2":0.5041,"edge":false,"slope_mean":4.58,"elev_mean":18.1,"flood_hist_n":0,"flood_depth_max_m":null,"flood_risk_100y":null,"semi_basement_r":null,"elderly_alone_r":0.1442,"bldg_age30_r":null,"shelter_min_walk":5,"pop":17306,"hh":8208,"elderly65_r":0.2436,"single_hh_r":0.4299,"source_level":"emd","flood_years":[],"landslide_hist_n":0},"geometry":{"type":"Polygon","coordinates":[[[126.7628,37.48918],[126.76228,37.49351],[126.75808,37.49545],[126.75442,37.49306],[126.75495,37.48872],[126.75914,37.48678],[126.7628,37.48918]]]}},{"type":"Feature","properties":{"h3":"8830e0af09fffff","emd_code":"4119269000","emd_name":"상2동","area_km2":0.504,"edge":false,"slope_mean":6.29,"elev_mean":14.9,"flood_hist_n":0,"flood_depth_max_m":null,"flood_risk_100y":null,"semi_basement_r":null,"elderly_alone_r":0.0593,"bldg_age30_r":null,"shelter_min_walk":1,"pop":27531,"hh":10242,"elderly65_r":0.1288,"single_hh_r":0.2004,"source_level":"emd","flood_years":[],"landslide_hist_n":0},"geometry":{"type":"Polygon","coordinates":[[[126.75336,37.50172],[126.75284,37.50605],[126.74865,37.50799],[126.74498,37.5056],[126.74551,37.50127],[126.7497,37.49933],[126.75336,37.50172]]]}},{"type":"Feature","properties":{"h3":"8830e0af0bfffff","emd_code":"4119269000","emd_name":"상2동","area_km2":0.5041,"edge":false,"slope_mean":5.69,"elev_mean":13.7,"flood_hist_n":0,"flood_depth_max_m":null,"flood_risk_100y":null,"semi_basement_r":null,"elderly_alone_r":0.0593,"bldg_age30_r":null,"shelter_min_walk":4,"pop":27531,"hh":10242,"elderly65_r":0.1288,"single_hh_r":0.2004,"source_level":"emd","flood_years":[],"landslide_hist_n":0},"geometry":{"type":"Polygon","coordinates":[[[126.76122,37.50217],[126.76069,37.50651],[126.7565,37.50844],[126.75284,37.50605],[126.75336,37.50172],[126.75756,37.49978],[126.76122,37.50217]]]}},{"type":"Feature","properties":{"h3":"8830e0af0dfffff","emd_code":"4119269000","emd_name":"상2동","area_km2":0.504,"edge":false,"slope_mean":5.24,"elev_mean":16.2,"flood_hist_n":0,"flood_depth_max_m":null,"flood_risk_100y":null,"semi_basement_r":null,"elderly_alone_r":0.0593,"bldg_age30_r":null,"shelter_min_walk":2,"pop":27531,"hh":10242,"elderly65_r":0.1288,"single_hh_r":0.2004,"source_level":"emd","flood_years":[],"landslide_hist_n":0},"geometry":{"type":"Polygon","coordinates":[[[126.75023,37.49499],[126.7497,37.49933],[126.74551,37.50127],[126.74185,37.49887],[126.74238,37.49454],[126.74657,37.4926],[126.75023,37.49499]]]}},{"type":"Feature","properties":{"h3":"8830e0af11fffff","emd_code":"4119265000","emd_name":"중3동","area_km2":0.5044,"edge":false,"slope_mean":6.35,"elev_mean":15.9,"flood_hist_n":0,"flood_depth_max_m":null,"flood_risk_100y":null,"semi_basement_r":null,"elderly_alone_r":0.1323,"bldg_age30_r":null,"shelter_min_walk":5,"pop":21536,"hh":10181,"elderly65_r":0.2139,"single_hh_r":0.4094,"source_level":"emd","flood_years":[],"landslide_hist_n":0},"geometry":{"type":"Polygon","coordinates":[[[126.77693,37.50308],[126.77641,37.50741],[126.77221,37.50935],[126.76855,37.50696],[126.76908,37.50263],[126.77327,37.50069],[126.77693,37.50308]]]}},{"type":"Feature","properties":{"h3":"8830e0af13fffff","emd_code":"4119259000","emd_name":"춘의동","area_km2":0.5045,"edge":false,"slope_mean":3.8,"elev_mean":17.6,"flood_hist_n":0,"flood_depth_max_m":null,"flood_risk_100y":null,"semi_basement_r":null,"elderly_alone_r":0.1678,"bldg_age30_r":null,"shelter_min_walk":2,"pop":13343,"hh":6680,"elderly65_r":0.2477,"single_hh_r":0.446,"source_level":"emd","flood_years":[],"landslide_hist_n":0},"geometry":{"type":"Polygon","coordinates":[[[126.78479,37.50353],[126.78427,37.50786],[126.78007,37.5098],[126.77641,37.50741],[126.77693,37.50308],[126.78113,37.50114],[126.78479,37.50353]]]}},{"type":"Feature","properties":{"h3":"8830e0af15fffff","emd_code":"4119264000","emd_name":"중2동","area_km2":0.5043,"edge":false,"slope_mean":4.77,"elev_mean":15.3,"flood_hist_n":0,"flood_depth_max_m":null,"flood_risk_100y":null,"semi_basement_r":null,"elderly_alone_r":0.0771,"bldg_age30_r":null,"shelter_min_walk":1,"pop":29125,"hh":11427,"elderly65_r":0.2137,"single_hh_r":0.244,"source_level":"emd","flood_years":[],"landslide_hist_n":0},"geometry":{"type":"Polygon","coordinates":[[[126.7738,37.49635],[126.77327,37.50069],[126.76908,37.50263],[126.76541,37.50023],[126.76594,37.4959],[126.77013,37.49396],[126.7738,37.49635]]]}},{"type":"Feature","properties":{"h3":"8830e0af17fffff","emd_code":"4119264000","emd_name":"중2동","area_km2":0.5044,"edge":false,"slope_mean":6.01,"elev_mean":15.7,"flood_hist_n":0,"flood_depth_max_m":null,"flood_risk_100y":null,"semi_basement_r":null,"elderly_alone_r":0.0771,"bldg_age30_r":null,"shelter_min_walk":4,"pop":29125,"hh":11427,"elderly65_r":0.2137,"single_hh_r":0.244,"source_level":"emd","flood_years":[],"landslide_hist_n":0},"geometry":{"type":"Polygon","coordinates":[[[126.78165,37.4968],[126.78113,37.50114],[126.77693,37.50308],[126.77327,37.50069],[126.7738,37.49635],[126.77799,37.49441],[126.78165,37.4968]]]}},{"type":"Feature","properties":{"h3":"8830e0af19fffff","emd_code":"4119261000","emd_name":"약대동","area_km2":0.5043,"edge":false,"slope_mean":4.31,"elev_mean":14.6,"flood_hist_n":0,"flood_depth_max_m":null,"flood_risk_100y":null,"semi_basement_r":null,"elderly_alone_r":0.086,"bldg_age30_r":null,"shelter_min_walk":2,"pop":16871,"hh":6847,"elderly65_r":0.1816,"single_hh_r":0.2719,"source_level":"emd","flood_years":[],"landslide_hist_n":0},"geometry":{"type":"Polygon","coordinates":[[[126.77221,37.50935],[126.77169,37.51368],[126.76749,37.51562],[126.76383,37.51323],[126.76436,37.5089],[126.76855,37.50696],[126.77221,37.50935]]]}},{"type":"Feature","properties":{"h3":"8830e0af1bfffff","emd_code":"4119261000","emd_name":"약대동","area_km2":0.5044,"edge":false,"slope_mean":4.36,"elev_mean":15.9,"flood_hist_n":0,"flood_depth_max_m":null,"flood_risk_100y":null,"semi_basement_r":null,"elderly_alone_r":0.086,"bldg_age30_r":null,"shelter_min_walk":3,"pop":16871,"hh":6847,"elderly65_r":0.1816,"single_hh_r":0.2719,"source_level":"emd","flood_years":[],"landslide_hist_n":0},"geometry":{"type":"Polygon","coordinates":[[[126.78007,37.5098],[126.77955,37.51414],[126.77535,37.51608],[126.77169,37.51368],[126.77221,37.50935],[126.77641,37.50741],[126.78007,37.5098]]]}},{"type":"Feature","properties":{"h3":"8830e0af1dfffff","emd_code":"4119266000","emd_name":"중4동","area_km2":0.5042,"edge":false,"slope_mean":5.81,"elev_mean":14.3,"flood_hist_n":0,"flood_depth_max_m":null,"flood_risk_100y":null,"semi_basement_r":null,"elderly_alone_r":0.1283,"bldg_age30_r":null,"shelter_min_walk":1,"pop":16462,"hh":7973,"elderly65_r":0.2141,"single_hh_r":0.4157,"source_level":"emd","flood_years":[],"landslide_hist_n":0},"geometry":{"type":"Polygon","coordinates":[[[126.76908,37.50263],[126.76855,37.50696],[126.76436,37.5089],[126.76069,37.50651],[126.76122,37.50217],[126.76541,37.50023],[126.76908,37.50263]]]}},{"type":"Feature","properties":{"h3":"8830e0af29fffff","emd_code":"4119268000","emd_name":"상1동","area_km2":0.5039,"edge":true,"slope_mean":4.1,"elev_mean":19.3,"flood_hist_n":0,"flood_depth_max_m":null,"flood_risk_100y":null,"semi_basement_r":null,"elderly_alone_r":0.091,"bldg_age30_r":null,"shelter_min_walk":13,"pop":23314,"hh":10194,"elderly65_r":0.2018,"single_hh_r":0.3249,"source_level":"emd","flood_years":[],"landslide_hist_n":0},"geometry":{"type":"Polygon","coordinates":[[[126.75181,37.482],[126.75129,37.48633],[126.7471,37.48827],[126.74343,37.48588],[126.74396,37.48155],[126.74815,37.47961],[126.75181,37.482]]]}},{"type":"Feature","properties":{"h3":"8830e0af2bfffff","emd_code":"4119267000","emd_name":"상동","area_km2":0.5041,"edge":true,"slope_mean":5.31,"elev_mean":26.0,"flood_hist_n":0,"flood_depth_max_m":null,"flood_risk_100y":null,"semi_basement_r":null,"elderly_alone_r":0.1442,"bldg_age30_r":null,"shelter_min_walk":5,"pop":17306,"hh":8208,"elderly65_r":0.2436,"single_hh_r":0.4299,"source_level":"emd","flood_years":[],"landslide_hist_n":0},"geometry":{"type":"Polygon","coordinates":[[[126.75967,37.48245],[126.75914,37.48678],[126.75495,37.48872],[126.75129,37.48633],[126.75181,37.482],[126.756,37.48006],[126.75967,37.48245]]]}},{"type":"Feature","properties":{"h3":"8830e0af31fffff","emd_code":"4119262000","emd_name":"중동","area_km2":0.5043,"edge":true,"slope_mean":4.92,"elev_mean":31.0,"flood_hist_n":0,"flood_depth_max_m":null,"flood_risk_100y":null,"semi_basement_r":null,"elderly_alone_r":0.1277,"bldg_age30_r":null,"shelter_min_walk":3,"pop":21022,"hh":9366,"elderly65_r":0.213,"single_hh_r":0.3623,"source_level":"emd","flood_years":[],"landslide_hist_n":0},"geometry":{"type":"Polygon","coordinates":[[[126.77538,37.48335],[126.77485,37.48769],[126.77066,37.48963],[126.76699,37.48724],[126.76752,37.4829],[126.77171,37.48096],[126.77538,37.48335]]]}},{"type":"Feature","properties":{"h3":"8830e0af33fffff","emd_code":"4119252000","emd_name":"심곡2동","area_km2":0.5044,"edge":false,"slope_mean":4.8,"elev_mean":31.5,"flood_hist_n":0,"flood_depth_max_m":null,"flood_risk_100y":null,"semi_basement_r":null,"elderly_alone_r":0.119,"bldg_age30_r":null,"shelter_min_walk":2,"pop":18272,"hh":11236,"elderly65_r":0.1896,"single_hh_r":0.6231,"source_level":"emd","flood_years":[],"landslide_hist_n":0},"geometry":{"type":"Polygon","coordinates":[[[126.78323,37.48381],[126.78271,37.48814],[126.77851,37.49008],[126.77485,37.48769],[126.77538,37.48335],[126.77957,37.48141],[126.78323,37.48381]]]}},{"type":"Feature","properties":{"h3":"8830e0af39fffff","emd_code":"4119262000","emd_name":"중동","area_km2":0.5042,"edge":false,"slope_mean":4.18,"elev_mean":20.3,"flood_hist_n":0,"flood_depth_max_m":null,"flood_risk_100y":null,"semi_basement_r":null,"elderly_alone_r":0.1277,"bldg_age30_r":null,"shelter_min_walk":1,"pop":21022,"hh":9366,"elderly65_r":0.213,"single_hh_r":0.3623,"source_level":"emd","flood_years":[],"landslide_hist_n":0},"geometry":{"type":"Polygon","coordinates":[[[126.77066,37.48963],[126.77013,37.49396],[126.76594,37.4959],[126.76228,37.49351],[126.7628,37.48918],[126.76699,37.48724],[126.77066,37.48963]]]}},{"type":"Feature","properties":{"h3":"8830e0af3bfffff","emd_code":"4119253000","emd_name":"심곡3동","area_km2":0.5043,"edge":false,"slope_mean":4.52,"elev_mean":21.3,"flood_hist_n":0,"flood_depth_max_m":null,"flood_risk_100y":null,"semi_basement_r":null,"elderly_alone_r":0.1502,"bldg_age30_r":null,"shelter_min_walk":2,"pop":10540,"hh":5386,"elderly65_r":0.2378,"single_hh_r":0.4677,"source_level":"emd","flood_years":[],"landslide_hist_n":0},"geometry":{"type":"Polygon","coordinates":[[[126.77851,37.49008],[126.77799,37.49441],[126.7738,37.49635],[126.77013,37.49396],[126.77066,37.48963],[126.77485,37.48769],[126.77851,37.49008]]]}},{"type":"Feature","properties":{"h3":"8830e0af3dfffff","emd_code":"4119267000","emd_name":"상동","area_km2":0.5042,"edge":true,"slope_mean":4.91,"elev_mean":26.7,"flood_hist_n":0,"flood_depth_max_m":null,"flood_risk_100y":null,"semi_basement_r":null,"elderly_alone_r":0.1442,"bldg_age30_r":null,"shelter_min_walk":2,"pop":17306,"hh":8208,"elderly65_r":0.2436,"single_hh_r":0.4299,"source_level":"emd","flood_years":[],"landslide_hist_n":0},"geometry":{"type":"Polygon","coordinates":[[[126.76752,37.4829],[126.76699,37.48724],[126.7628,37.48918],[126.75914,37.48678],[126.75967,37.48245],[126.76386,37.48051],[126.76752,37.4829]]]}},{"type":"Feature","properties":{"h3":"8830e0af43fffff","emd_code":"4119270000","emd_name":"상3동","area_km2":0.504,"edge":false,"slope_mean":3.92,"elev_mean":11.8,"flood_hist_n":0,"flood_depth_max_m":null,"flood_risk_100y":null,"semi_basement_r":null,"elderly_alone_r":0.0511,"bldg_age30_r":null,"shelter_min_walk":8,"pop":29977,"hh":11370,"elderly65_r":0.1349,"single_hh_r":0.2469,"source_level":"emd","flood_years":[],"landslide_hist_n":0},"geometry":{"type":"Polygon","coordinates":[[[126.74865,37.50799],[126.74812,37.51232],[126.74393,37.51426],[126.74026,37.51187],[126.74079,37.50754],[126.74498,37.5056],[126.74865,37.50799]]]}},{"type":"Feature","properties":{"h3":"8830e0af47fffff","emd_code":"4119269000","emd_name":"상2동","area_km2":0.5039,"edge":true,"slope_mean":4.39,"elev_mean":13.1,"flood_hist_n":0,"flood_depth_max_m":null,"flood_risk_100y":null,"semi_basement_r":null,"elderly_alone_r":0.0593,"bldg_age30_r":null,"shelter_min_walk":11,"pop":27531,"hh":10242,"elderly65_r":0.1288,"single_hh_r":0.2004,"source_level":"emd","flood_years":[],"landslide_hist_n":0},"geometry":{"type":"Polygon","coordinates":[[[126.74551,37.50127],[126.74498,37.5056],[126.74079,37.50754],[126.73713,37.50514],[126.73766,37.50081],[126.74185,37.49887],[126.74551,37.50127]]]}},{"type":"Feature","properties":{"h3":"8830e0af51fffff","emd_code":"4119270000","emd_name":"상3동","area_km2":0.5041,"edge":true,"slope_mean":2.89,"elev_mean":9.0,"flood_hist_n":0,"flood_depth_max_m":null,"flood_risk_100y":null,"semi_basement_r":null,"elderly_alone_r":0.0511,"bldg_age30_r":null,"shelter_min_walk":4,"pop":29977,"hh":11370,"elderly65_r":0.1349,"single_hh_r":0.2469,"source_level":"emd","flood_years":[],"landslide_hist_n":0},"geometry":{"type":"Polygon","coordinates":[[[126.75964,37.51517],[126.75911,37.5195],[126.75492,37.52144],[126.75125,37.51905],[126.75178,37.51472],[126.75597,37.51278],[126.75964,37.51517]]]}},{"type":"Feature","properties":{"h3":"8830e0af53fffff","emd_code":"4119261000","emd_name":"약대동","area_km2":0.5043,"edge":false,"slope_mean":4.23,"elev_mean":12.4,"flood_hist_n":0,"flood_depth_max_m":null,"flood_risk_100y":null,"semi_basement_r":null,"elderly_alone_r":0.086,"bldg_age30_r":null,"shelter_min_walk":5,"pop":16871,"hh":6847,"elderly65_r":0.1816,"single_hh_r":0.2719,"source_level":"emd","flood_years":[],"landslide_hist_n":0},"geometry":{"type":"Polygon","coordinates":[[[126.76749,37.51562],[126.76697,37.51996],[126.76277,37.5219],[126.75911,37.5195],[126.75964,37.51517],[126.76383,37.51323],[126.76749,37.51562]]]}},{"type":"Feature","properties":{"h3":"8830e0af55fffff","emd_code":"4119270000","emd_name":"상3동","area_km2":0.5041,"edge":false,"slope_mean":5.82,"elev_mean":13.3,"flood_hist_n":0,"flood_depth_max_m":null,"flood_risk_100y":null,"semi_basement_r":null,"elderly_alone_r":0.0511,"bldg_age30_r":null,"shelter_min_walk":2,"pop":29977,"hh":11370,"elderly65_r":0.1349,"single_hh_r":0.2469,"source_level":"emd","flood_years":[],"landslide_hist_n":0},"geometry":{"type":"Polygon","coordinates":[[[126.7565,37.50844],[126.75597,37.51278],[126.75178,37.51472],[126.74812,37.51232],[126.74865,37.50799],[126.75284,37.50605],[126.7565,37.50844]]]}},{"type":"Feature","properties":{"h3":"8830e0af57fffff","emd_code":"4119266000","emd_name":"중4동","area_km2":0.5042,"edge":false,"slope_mean":4.57,"elev_mean":13.1,"flood_hist_n":0,"flood_depth_max_m":null,"flood_risk_100y":null,"semi_basement_r":null,"elderly_alone_r":0.1283,"bldg_age30_r":null,"shelter_min_walk":1,"pop":16462,"hh":7973,"elderly65_r":0.2141,"single_hh_r":0.4157,"source_level":"emd","flood_years":[],"landslide_hist_n":0},"geometry":{"type":"Polygon","coordinates":[[[126.76436,37.5089],[126.76383,37.51323],[126.75964,37.51517],[126.75597,37.51278],[126.7565,37.50844],[126.76069,37.50651],[126.76436,37.5089]]]}},{"type":"Feature","properties":{"h3":"8830e0af5dfffff","emd_code":"4119270000","emd_name":"상3동","area_km2":0.504,"edge":true,"slope_mean":4.55,"elev_mean":12.2,"flood_hist_n":0,"flood_depth_max_m":null,"flood_risk_100y":null,"semi_basement_r":null,"elderly_alone_r":0.0511,"bldg_age30_r":null,"shelter_min_walk":8,"pop":29977,"hh":11370,"elderly65_r":0.1349,"single_hh_r":0.2469,"source_level":"emd","flood_years":[],"landslide_hist_n":0},"geometry":{"type":"Polygon","coordinates":[[[126.75178,37.51472],[126.75125,37.51905],[126.74706,37.52099],[126.7434,37.51859],[126.74393,37.51426],[126.74812,37.51232],[126.75178,37.51472]]]}},{"type":"Feature","properties":{"h3":"8830e0af63fffff","emd_code":"4119269000","emd_name":"상2동","area_km2":0.5039,"edge":false,"slope_mean":3.94,"elev_mean":19.1,"flood_hist_n":0,"flood_depth_max_m":null,"flood_risk_100y":null,"semi_basement_r":null,"elderly_alone_r":0.0593,"bldg_age30_r":null,"shelter_min_walk":10,"pop":27531,"hh":10242,"elderly65_r":0.1288,"single_hh_r":0.2004,"source_level":"emd","flood_years":[],"landslide_hist_n":0},"geometry":{"type":"Polygon","coordinates":[[[126.7471,37.48827],[126.74657,37.4926],[126.74238,37.49454],[126.73872,37.49215],[126.73925,37.48782],[126.74343,37.48588],[126.7471,37.48827]]]}},{"type":"Feature","properties":{"h3":"8830e0af6bfffff","emd_code":"4119269000","emd_name":"상2동","area_km2":0.5039,"edge":true,"slope_mean":3.43,"elev_mean":14.6,"flood_hist_n":0,"flood_depth_max_m":null,"flood_risk_100y":null,"semi_basement_r":null,"elderly_alone_r":0.0593,"bldg_age30_r":null,"shelter_min_walk":13,"pop":27531,"hh":10242,"elderly65_r":0.1288,"single_hh_r":0.2004,"source_level":"emd","flood_years":[],"landslide_hist_n":0},"geometry":{"type":"Polygon","coordinates":[[[126.74238,37.49454],[126.74185,37.49887],[126.73766,37.50081],[126.734,37.49842],[126.73453,37.49409],[126.73872,37.49215],[126.74238,37.49454]]]}}]}