{"type":"FeatureCollection","name":"grid_41194_h3r8","meta":{"sgg_code":"41194","h3_res":8,"n_cells":45,"dem":"Copernicus GLO-30 (bbox-mean)","crs":"EPSG:4326","jumin_basis":"2026-07","flood_src":"행안부 침수흔적도(전국, 재난안전데이터공유플랫폼)","landslide_src":"행안부 산사태 발생이력"},"features":[{"type":"Feature","properties":{"h3":"8830e0ac21fffff","emd_code":"4119457000","emd_name":"괴안동","area_km2":0.5048,"edge":false,"slope_mean":5.74,"elev_mean":40.9,"flood_hist_n":0,"flood_depth_max_m":null,"flood_risk_100y":null,"semi_basement_r":null,"elderly_alone_r":0.1484,"bldg_age30_r":null,"shelter_min_walk":2,"pop":18095,"hh":8310,"elderly65_r":0.2516,"single_hh_r":0.3615,"source_level":"emd","flood_years":[],"landslide_hist_n":0},"geometry":{"type":"Polygon","coordinates":[[[126.81153,37.47888],[126.811,37.48321],[126.80681,37.48515],[126.80314,37.48276],[126.80367,37.47843],[126.80786,37.47649],[126.81153,37.47888]]]}},{"type":"Feature","properties":{"h3":"8830e0ac23fffff","emd_code":"4119458000","emd_name":"역곡3동","area_km2":0.5049,"edge":false,"slope_mean":6.04,"elev_mean":32.2,"flood_hist_n":0,"flood_depth_max_m":null,"flood_risk_100y":null,"semi_basement_r":null,"elderly_alone_r":0.1712,"bldg_age30_r":null,"shelter_min_walk":4,"pop":21688,"hh":10692,"elderly65_r":0.2609,"single_hh_r":0.4137,"source_level":"emd","flood_years":[],"landslide_hist_n":0},"geometry":{"type":"Polygon","coordinates":[[[126.81939,37.47933],[126.81886,37.48366],[126.81467,37.4856],[126.811,37.48321],[126.81153,37.47888],[126.81572,37.47693],[126.81939,37.47933]]]}},{"type":"Feature","properties":{"h3":"8830e0ac25fffff","emd_code":"4119457000","emd_name":"괴안동","area_km2":0.5047,"edge":false,"slope_mean":6.46,"elev_mean":59.9,"flood_hist_n":0,"flood_depth_max_m":null,"flood_risk_100y":null,"semi_basement_r":null,"elderly_alone_r":0.1484,"bldg_age30_r":null,"shelter_min_walk":4,"pop":18095,"hh":8310,"elderly65_r":0.2516,"single_hh_r":0.3615,"source_level":"emd","flood_years":[],"landslide_hist_n":0},"geometry":{"type":"Polygon","coordinates":[[[126.80838,37.47215],[126.80786,37.47649],[126.80367,37.47843],[126.8,37.47604],[126.80053,37.4717],[126.80472,37.46976],[126.80838,37.47215]]]}},{"type":"Feature","properties":{"h3":"8830e0ac27fffff","emd_code":"4119455000","emd_name":"범박동","area_km2":0.5048,"edge":false,"slope_mean":7.03,"elev_mean":42.7,"flood_hist_n":0,"flood_depth_max_m":null,"flood_risk_100y":null,"semi_basement_r":null,"elderly_alone_r":0.0539,"bldg_age30_r":null,"shelter_min_walk":4,"pop":28319,"hh":10097,"elderly65_r":0.1489,"single_hh_r":0.1646,"source_level":"emd","flood_years":[],"landslide_hist_n":0},"geometry":{"type":"Polygon","coordinates":[[[126.81624,37.4726],[126.81572,37.47693],[126.81153,37.47888],[126.80786,37.47649],[126.80838,37.47215],[126.81258,37.47021],[126.81624,37.4726]]]}},{"type":"Feature","properties":{"h3":"8830e0ac2bfffff","emd_code":"4119458000","emd_name":"역곡3동","area_km2":0.5048,"edge":true,"slope_mean":5.12,"elev_mean":34.7,"flood_hist_n":0,"flood_depth_max_m":null,"flood_risk_100y":null,"semi_basement_r":null,"elderly_alone_r":0.1712,"bldg_age30_r":null,"shelter_min_walk":4,"pop":21688,"hh":10692,"elderly65_r":0.2609,"single_hh_r":0.4137,"source_level":"emd","flood_years":[],"landslide_hist_n":0},"geometry":{"type":"Polygon","coordinates":[[[126.81467,37.4856],[126.81415,37.48994],[126.80995,37.49188],[126.80628,37.48949],[126.80681,37.48515],[126.811,37.48321],[126.81467,37.4856]]]}},{"type":"Feature","properties":{"h3":"8830e0ac2dfffff","emd_code":"4119453000","emd_name":"소사본동","area_km2":0.5047,"edge":false,"slope_mean":4.95,"elev_mean":39.3,"flood_hist_n":0,"flood_depth_max_m":null,"flood_risk_100y":null,"semi_basement_r":null,"elderly_alone_r":0.1494,"bldg_age30_r":null,"shelter_min_walk":3,"pop":25841,"hh":12273,"elderly65_r":0.2397,"single_hh_r":0.3789,"source_level":"emd","flood_years":[],"landslide_hist_n":0},"geometry":{"type":"Polygon","coordinates":[[[126.80367,37.47843],[126.80314,37.48276],[126.79895,37.48471],[126.79528,37.48231],[126.79581,37.47798],[126.8,37.47604],[126.80367,37.47843]]]}},{"type":"Feature","properties":{"h3":"8830e0ac31fffff","emd_code":"4119458000","emd_name":"역곡3동","area_km2":0.5051,"edge":true,"slope_mean":7.88,"elev_mean":40.1,"flood_hist_n":0,"flood_depth_max_m":null,"flood_risk_100y":null,"semi_basement_r":null,"elderly_alone_r":0.1712,"bldg_age30_r":null,"shelter_min_walk":14,"pop":21688,"hh":10692,"elderly65_r":0.2609,"single_hh_r":0.4137,"source_level":"emd","flood_years":[],"landslide_hist_n":0},"geometry":{"type":"Polygon","coordinates":[[[126.8304,37.4865],[126.82987,37.49084],[126.82568,37.49278],[126.82201,37.49039],[126.82253,37.48605],[126.82673,37.48411],[126.8304,37.4865]]]}},{"type":"Feature","properties":{"h3":"8830e0ac35fffff","emd_code":"4119458000","emd_name":"역곡3동","area_km2":0.505,"edge":true,"slope_mean":5.75,"elev_mean":27.8,"flood_hist_n":0,"flood_depth_max_m":null,"flood_risk_100y":null,"semi_basement_r":null,"elderly_alone_r":0.1712,"bldg_age30_r":null,"shelter_min_walk":8,"pop":21688,"hh":10692,"elderly65_r":0.2609,"single_hh_r":0.4137,"source_level":"emd","flood_years":[],"landslide_hist_n":0},"geometry":{"type":"Polygon","coordinates":[[[126.82725,37.47977],[126.82673,37.48411],[126.82253,37.48605],[126.81886,37.48366],[126.81939,37.47933],[126.82358,37.47738],[126.82725,37.47977]]]}},{"type":"Feature","properties":{"h3":"8830e0ac3dfffff","emd_code":"4119458000","emd_name":"역곡3동","area_km2":0.5049,"edge":false,"slope_mean":5.45,"elev_mean":35.5,"flood_hist_n":0,"flood_depth_max_m":null,"flood_risk_100y":null,"semi_basement_r":null,"elderly_alone_r":0.1712,"bldg_age30_r":null,"shelter_min_walk":4,"pop":21688,"hh":10692,"elderly65_r":0.2609,"single_hh_r":0.4137,"source_level":"emd","flood_years":[],"landslide_hist_n":0},"geometry":{"type":"Polygon","coordinates":[[[126.82253,37.48605],[126.82201,37.49039],[126.81782,37.49233],[126.81415,37.48994],[126.81467,37.4856],[126.81886,37.48366],[126.82253,37.48605]]]}},{"type":"Feature","properties":{"h3":"8830e0ac65fffff","emd_code":"4119452000","emd_name":"심곡본동","area_km2":0.5045,"edge":true,"slope_mean":4.81,"elev_mean":26.1,"flood_hist_n":0,"flood_depth_max_m":null,"flood_risk_100y":null,"semi_basement_r":null,"elderly_alone_r":0.1859,"bldg_age30_r":null,"shelter_min_walk":5,"pop":13837,"hh":7413,"elderly65_r":0.298,"single_hh_r":0.4914,"source_level":"emd","flood_years":[],"landslide_hist_n":0},"geometry":{"type":"Polygon","coordinates":[[[126.79109,37.48426],[126.79056,37.48859],[126.78637,37.49053],[126.78271,37.48814],[126.78323,37.48381],[126.78742,37.48186],[126.79109,37.48426]]]}},{"type":"Feature","properties":{"h3":"8830e0ac67fffff","emd_code":"4119453000","emd_name":"소사본동","area_km2":0.5046,"edge":true,"slope_mean":8.51,"elev_mean":48.6,"flood_hist_n":0,"flood_depth_max_m":null,"flood_risk_100y":null,"semi_basement_r":null,"elderly_alone_r":0.1494,"bldg_age30_r":null,"shelter_min_walk":2,"pop":25841,"hh":12273,"elderly65_r":0.2397,"single_hh_r":0.3789,"source_level":"emd","flood_years":[],"landslide_hist_n":0},"geometry":{"type":"Polygon","coordinates":[[[126.79895,37.48471],[126.79842,37.48904],[126.79423,37.49098],[126.79056,37.48859],[126.79109,37.48426],[126.79528,37.48231],[126.79895,37.48471]]]}},{"type":"Feature","properties":{"h3":"8830e0ad11fffff","emd_code":"4119455000","emd_name":"범박동","area_km2":0.5047,"edge":true,"slope_mean":10.96,"elev_mean":69.5,"flood_hist_n":0,"flood_depth_max_m":null,"flood_risk_100y":null,"semi_basement_r":null,"elderly_alone_r":0.0539,"bldg_age30_r":null,"shelter_min_walk":11,"pop":28319,"hh":10097,"elderly65_r":0.1489,"single_hh_r":0.1646,"source_level":"emd","flood_years":[],"landslide_hist_n":0},"geometry":{"type":"Polygon","coordinates":[[[126.80996,37.45915],[126.80943,37.46348],[126.80524,37.46543],[126.80158,37.46304],[126.8021,37.4587],[126.80629,37.45676],[126.80996,37.45915]]]}},{"type":"Feature","properties":{"h3":"8830e0ad13fffff","emd_code":"4119456000","emd_name":"옥길동","area_km2":0.5048,"edge":false,"slope_mean":7.64,"elev_mean":44.6,"flood_hist_n":0,"flood_depth_max_m":null,"flood_risk_100y":null,"semi_basement_r":null,"elderly_alone_r":0.0929,"bldg_age30_r":null,"shelter_min_walk":7,"pop":30925,"hh":11410,"elderly65_r":0.1332,"single_hh_r":0.2345,"source_level":"emd","flood_years":[],"landslide_hist_n":0},"geometry":{"type":"Polygon","coordinates":[[[126.81782,37.4596],[126.81729,37.46393],[126.8131,37.46587],[126.80943,37.46348],[126.80996,37.45915],[126.81415,37.45721],[126.81782,37.4596]]]}},{"type":"Feature","properties":{"h3":"8830e0ad19fffff","emd_code":"4119454000","emd_name":"소사본1동","area_km2":0.5046,"edge":false,"slope_mean":10.38,"elev_mean":79.3,"flood_hist_n":0,"flood_depth_max_m":null,"flood_risk_100y":null,"semi_basement_r":null,"elderly_alone_r":0.1199,"bldg_age30_r":null,"shelter_min_walk":1,"pop":27090,"hh":11463,"elderly65_r":0.2543,"single_hh_r":0.2857,"source_level":"emd","flood_years":[],"landslide_hist_n":0},"geometry":{"type":"Polygon","coordinates":[[[126.80524,37.46543],[126.80472,37.46976],[126.80053,37.4717],[126.79686,37.46931],[126.79738,37.46498],[126.80158,37.46304],[126.80524,37.46543]]]}},{"type":"Feature","properties":{"h3":"8830e0ad1bfffff","emd_code":"4119455000","emd_name":"범박동","area_km2":0.5048,"edge":false,"slope_mean":8.72,"elev_mean":66.5,"flood_hist_n":0,"flood_depth_max_m":null,"flood_risk_100y":null,"semi_basement_r":null,"elderly_alone_r":0.0539,"bldg_age30_r":null,"shelter_min_walk":5,"pop":28319,"hh":10097,"elderly65_r":0.1489,"single_hh_r":0.1646,"source_level":"emd","flood_years":[],"landslide_hist_n":0},"geometry":{"type":"Polygon","coordinates":[[[126.8131,37.46587],[126.81258,37.47021],[126.80838,37.47215],[126.80472,37.46976],[126.80524,37.46543],[126.80943,37.46348],[126.8131,37.46587]]]}},{"type":"Feature","properties":{"h3":"8830e0ad1dfffff","emd_code":"4119453000","emd_name":"소사본동","area_km2":0.5046,"edge":true,"slope_mean":9.06,"elev_mean":67.0,"flood_hist_n":0,"flood_depth_max_m":null,"flood_risk_100y":null,"semi_basement_r":null,"elderly_alone_r":0.1494,"bldg_age30_r":null,"shelter_min_walk":11,"pop":25841,"hh":12273,"elderly65_r":0.2397,"single_hh_r":0.3789,"source_level":"emd","flood_years":[],"landslide_hist_n":0},"geometry":{"type":"Polygon","coordinates":[[[126.8021,37.4587],[126.80158,37.46304],[126.79738,37.46498],[126.79372,37.46259],[126.79424,37.45825],[126.79843,37.45631],[126.8021,37.4587]]]}},{"type":"Feature","properties":{"h3":"8830e0ad49fffff","emd_code":"4119460000","emd_name":"송내2동","area_km2":0.5042,"edge":true,"slope_mean":15.27,"elev_mean":148.4,"flood_hist_n":0,"flood_depth_max_m":null,"flood_risk_100y":null,"semi_basement_r":null,"elderly_alone_r":0.1266,"bldg_age30_r":null,"shelter_min_walk":13,"pop":23503,"hh":10484,"elderly65_r":0.2226,"single_hh_r":0.349,"source_level":"emd","flood_years":[],"landslide_hist_n":0},"geometry":{"type":"Polygon","coordinates":[[[126.7691,37.46991],[126.76858,37.47424],[126.76439,37.47618],[126.76072,37.47379],[126.76125,37.46945],[126.76544,37.46751],[126.7691,37.46991]]]}},{"type":"Feature","properties":{"h3":"8830e0ad4bfffff","emd_code":"4119451000","emd_name":"심곡본1동","area_km2":0.5043,"edge":false,"slope_mean":16.4,"elev_mean":123.1,"flood_hist_n":0,"flood_depth_max_m":null,"flood_risk_100y":null,"semi_basement_r":null,"elderly_alone_r":0.194,"bldg_age30_r":null,"shelter_min_walk":8,"pop":15038,"hh":8115,"elderly65_r":0.2836,"single_hh_r":0.5057,"source_level":"emd","flood_years":[],"landslide_hist_n":0},"geometry":{"type":"Polygon","coordinates":[[[126.77696,37.47036],[126.77643,37.47469],[126.77224,37.47663],[126.76858,37.47424],[126.7691,37.46991],[126.77329,37.46796],[126.77696,37.47036]]]}},{"type":"Feature","properties":{"h3":"8830e0ad51fffff","emd_code":"4119453000","emd_name":"소사본동","area_km2":0.5045,"edge":false,"slope_mean":14.09,"elev_mean":98.5,"flood_hist_n":0,"flood_depth_max_m":null,"flood_risk_100y":null,"semi_basement_r":null,"elderly_alone_r":0.1494,"bldg_age30_r":null,"shelter_min_walk":12,"pop":25841,"hh":12273,"elderly65_r":0.2397,"single_hh_r":0.3789,"source_level":"emd","flood_years":[],"landslide_hist_n":0},"geometry":{"type":"Polygon","coordinates":[[[126.79267,37.47125],[126.79214,37.47559],[126.78795,37.47753],[126.78429,37.47514],[126.78481,37.47081],[126.789,37.46886],[126.79267,37.47125]]]}},{"type":"Feature","properties":{"h3":"8830e0ad53fffff","emd_code":"4119454000","emd_name":"소사본1동","area_km2":0.5046,"edge":false,"slope_mean":4.07,"elev_mean":40.0,"flood_hist_n":0,"flood_depth_max_m":null,"flood_risk_100y":null,"semi_basement_r":null,"elderly_alone_r":0.1199,"bldg_age30_r":null,"shelter_min_walk":5,"pop":27090,"hh":11463,"elderly65_r":0.2543,"single_hh_r":0.2857,"source_level":"emd","flood_years":[],"landslide_hist_n":0},"geometry":{"type":"Polygon","coordinates":[[[126.80053,37.4717],[126.8,37.47604],[126.79581,37.47798],[126.79214,37.47559],[126.79267,37.47125],[126.79686,37.46931],[126.80053,37.4717]]]}},{"type":"Feature","properties":{"h3":"8830e0ad55fffff","emd_code":"4119453000","emd_name":"소사본동","area_km2":0.5044,"edge":true,"slope_mean":13.24,"elev_mean":96.1,"flood_hist_n":0,"flood_depth_max_m":null,"flood_risk_100y":null,"semi_basement_r":null,"elderly_alone_r":0.1494,"bldg_age30_r":null,"shelter_min_walk":15,"pop":25841,"hh":12273,"elderly65_r":0.2397,"single_hh_r":0.3789,"source_level":"emd","flood_years":[],"landslide_hist_n":0},"geometry":{"type":"Polygon","coordinates":[[[126.78953,37.46453],[126.789,37.46886],[126.78481,37.47081],[126.78115,37.46841],[126.78167,37.46408],[126.78586,37.46214],[126.78953,37.46453]]]}},{"type":"Feature","properties":{"h3":"8830e0ad57fffff","emd_code":"4119453000","emd_name":"소사본동","area_km2":0.5045,"edge":false,"slope_mean":11.73,"elev_mean":83.7,"flood_hist_n":0,"flood_depth_max_m":null,"flood_risk_100y":null,"semi_basement_r":null,"elderly_alone_r":0.1494,"bldg_age30_r":null,"shelter_min_walk":6,"pop":25841,"hh":12273,"elderly65_r":0.2397,"single_hh_r":0.3789,"source_level":"emd","flood_years":[],"landslide_hist_n":0},"geometry":{"type":"Polygon","coordinates":[[[126.79738,37.46498],[126.79686,37.46931],[126.79267,37.47125],[126.789,37.46886],[126.78953,37.46453],[126.79372,37.46259],[126.79738,37.46498]]]}},{"type":"Feature","properties":{"h3":"8830e0ad59fffff","emd_code":"4119452000","emd_name":"심곡본동","area_km2":0.5044,"edge":false,"slope_mean":10.61,"elev_mean":71.5,"flood_hist_n":0,"flood_depth_max_m":null,"flood_risk_100y":null,"semi_basement_r":null,"elderly_alone_r":0.1859,"bldg_age30_r":null,"shelter_min_walk":3,"pop":13837,"hh":7413,"elderly65_r":0.298,"single_hh_r":0.4914,"source_level":"emd","flood_years":[],"landslide_hist_n":0},"geometry":{"type":"Polygon","coordinates":[[[126.78795,37.47753],[126.78742,37.48186],[126.78323,37.48381],[126.77957,37.48141],[126.78009,37.47708],[126.78429,37.47514],[126.78795,37.47753]]]}},{"type":"Feature","properties":{"h3":"8830e0ad5bfffff","emd_code":"4119453000","emd_name":"소사본동","area_km2":0.5045,"edge":false,"slope_mean":7.43,"elev_mean":45.5,"flood_hist_n":0,"flood_depth_max_m":null,"flood_risk_100y":null,"semi_basement_r":null,"elderly_alone_r":0.1494,"bldg_age30_r":null,"shelter_min_walk":1,"pop":25841,"hh":12273,"elderly65_r":0.2397,"single_hh_r":0.3789,"source_level":"emd","flood_years":[],"landslide_hist_n":0},"geometry":{"type":"Polygon","coordinates":[[[126.79581,37.47798],[126.79528,37.48231],[126.79109,37.48426],[126.78742,37.48186],[126.78795,37.47753],[126.79214,37.47559],[126.79581,37.47798]]]}},{"type":"Feature","properties":{"h3":"8830e0ad5dfffff","emd_code":"4119452000","emd_name":"심곡본동","area_km2":0.5044,"edge":false,"slope_mean":17.05,"elev_mean":129.1,"flood_hist_n":0,"flood_depth_max_m":null,"flood_risk_100y":null,"semi_basement_r":null,"elderly_alone_r":0.1859,"bldg_age30_r":null,"shelter_min_walk":10,"pop":13837,"hh":7413,"elderly65_r":0.298,"single_hh_r":0.4914,"source_level":"emd","flood_years":[],"landslide_hist_n":0},"geometry":{"type":"Polygon","coordinates":[[[126.78481,37.47081],[126.78429,37.47514],[126.78009,37.47708],[126.77643,37.47469],[126.77696,37.47036],[126.78115,37.46841],[126.78481,37.47081]]]}},{"type":"Feature","properties":{"h3":"8830e0adc1fffff","emd_code":"4119456000","emd_name":"옥길동","area_km2":0.505,"edge":false,"slope_mean":5.57,"elev_mean":23.0,"flood_hist_n":0,"flood_depth_max_m":null,"flood_risk_100y":null,"semi_basement_r":null,"elderly_alone_r":0.0929,"bldg_age30_r":null,"shelter_min_walk":7,"pop":30925,"hh":11410,"elderly65_r":0.1332,"single_hh_r":0.2345,"source_level":"emd","flood_years":[],"landslide_hist_n":0},"geometry":{"type":"Polygon","coordinates":[[[126.82882,37.46677],[126.8283,37.4711],[126.82411,37.47305],[126.82044,37.47066],[126.82096,37.46632],[126.82515,37.46438],[126.82882,37.46677]]]}},{"type":"Feature","properties":{"h3":"8830e0adc3fffff","emd_code":"4119456000","emd_name":"옥길동","area_km2":0.5051,"edge":false,"slope_mean":9.0,"elev_mean":30.3,"flood_hist_n":0,"flood_depth_max_m":null,"flood_risk_100y":null,"semi_basement_r":null,"elderly_alone_r":0.0929,"bldg_age30_r":null,"shelter_min_walk":12,"pop":30925,"hh":11410,"elderly65_r":0.1332,"single_hh_r":0.2345,"source_level":"emd","flood_years":[],"landslide_hist_n":0},"geometry":{"type":"Polygon","coordinates":[[[126.83668,37.46721],[126.83616,37.47155],[126.83197,37.47349],[126.8283,37.4711],[126.82882,37.46677],[126.83301,37.46482],[126.83668,37.46721]]]}},{"type":"Feature","properties":{"h3":"8830e0adc5fffff","emd_code":"4119456000","emd_name":"옥길동","area_km2":0.5049,"edge":false,"slope_mean":11.62,"elev_mean":46.2,"flood_hist_n":0,"flood_depth_max_m":null,"flood_risk_100y":null,"semi_basement_r":null,"elderly_alone_r":0.0929,"bldg_age30_r":null,"shelter_min_walk":4,"pop":30925,"hh":11410,"elderly65_r":0.1332,"single_hh_r":0.2345,"source_level":"emd","flood_years":[],"landslide_hist_n":0},"geometry":{"type":"Polygon","coordinates":[[[126.82568,37.46004],[126.82515,37.46438],[126.82096,37.46632],[126.81729,37.46393],[126.81782,37.4596],[126.82201,37.45765],[126.82568,37.46004]]]}},{"type":"Feature","properties":{"h3":"8830e0adc7fffff","emd_code":"4119456000","emd_name":"옥길동","area_km2":0.505,"edge":true,"slope_mean":8.55,"elev_mean":33.6,"flood_hist_n":0,"flood_depth_max_m":null,"flood_risk_100y":null,"semi_basement_r":null,"elderly_alone_r":0.0929,"bldg_age30_r":null,"shelter_min_walk":6,"pop":30925,"hh":11410,"elderly65_r":0.1332,"single_hh_r":0.2345,"source_level":"emd","flood_years":[],"landslide_hist_n":0},"geometry":{"type":"Polygon","coordinates":[[[126.83354,37.46049],[126.83301,37.46482],[126.82882,37.46677],[126.82515,37.46438],[126.82568,37.46004],[126.82987,37.4581],[126.83354,37.46049]]]}},{"type":"Feature","properties":{"h3":"8830e0adc9fffff","emd_code":"4119456000","emd_name":"옥길동","area_km2":0.5049,"edge":false,"slope_mean":8.33,"elev_mean":29.9,"flood_hist_n":0,"flood_depth_max_m":null,"flood_risk_100y":null,"semi_basement_r":null,"elderly_alone_r":0.0929,"bldg_age30_r":null,"shelter_min_walk":7,"pop":30925,"hh":11410,"elderly65_r":0.1332,"single_hh_r":0.2345,"source_level":"emd","flood_years":[],"landslide_hist_n":0},"geometry":{"type":"Polygon","coordinates":[[[126.82411,37.47305],[126.82358,37.47738],[126.81939,37.47933],[126.81572,37.47693],[126.81624,37.4726],[126.82044,37.47066],[126.82411,37.47305]]]}},{"type":"Feature","properties":{"h3":"8830e0adcbfffff","emd_code":"4119456000","emd_name":"옥길동","area_km2":0.505,"edge":false,"slope_mean":13.19,"elev_mean":51.2,"flood_hist_n":0,"flood_depth_max_m":null,"flood_risk_100y":null,"semi_basement_r":null,"elderly_alone_r":0.0929,"bldg_age30_r":null,"shelter_min_walk":15,"pop":30925,"hh":11410,"elderly65_r":0.1332,"single_hh_r":0.2345,"source_level":"emd","flood_years":[],"landslide_hist_n":0},"geometry":{"type":"Polygon","coordinates":[[[126.83197,37.47349],[126.83144,37.47783],[126.82725,37.47977],[126.82358,37.47738],[126.82411,37.47305],[126.8283,37.4711],[126.83197,37.47349]]]}},{"type":"Feature","properties":{"h3":"8830e0adcdfffff","emd_code":"4119456000","emd_name":"옥길동","area_km2":0.5049,"edge":false,"slope_mean":9.67,"elev_mean":40.4,"flood_hist_n":0,"flood_depth_max_m":null,"flood_risk_100y":null,"semi_basement_r":null,"elderly_alone_r":0.0929,"bldg_age30_r":null,"shelter_min_walk":5,"pop":30925,"hh":11410,"elderly65_r":0.1332,"single_hh_r":0.2345,"source_level":"emd","flood_years":[],"landslide_hist_n":0},"geometry":{"type":"Polygon","coordinates":[[[126.82096,37.46632],[126.82044,37.47066],[126.81624,37.4726],[126.81258,37.47021],[126.8131,37.46587],[126.81729,37.46393],[126.82096,37.46632]]]}},{"type":"Feature","properties":{"h3":"8830e0adddfffff","emd_code":"4119456000","emd_name":"옥길동","area_km2":0.5052,"edge":true,"slope_mean":11.51,"elev_mean":44.8,"flood_hist_n":0,"flood_depth_max_m":null,"flood_risk_100y":null,"semi_basement_r":null,"elderly_alone_r":0.0929,"bldg_age30_r":null,"shelter_min_walk":14,"pop":30925,"hh":11410,"elderly65_r":0.1332,"single_hh_r":0.2345,"source_level":"emd","flood_years":[],"landslide_hist_n":0},"geometry":{"type":"Polygon","coordinates":[[[126.83983,37.47394],[126.83931,37.47828],[126.83511,37.48022],[126.83144,37.47783],[126.83197,37.47349],[126.83616,37.47155],[126.83983,37.47394]]]}},{"type":"Feature","properties":{"h3":"8830e0ade9fffff","emd_code":"4119456000","emd_name":"옥길동","area_km2":0.5049,"edge":true,"slope_mean":7.22,"elev_mean":39.1,"flood_hist_n":0,"flood_depth_max_m":null,"flood_risk_100y":null,"semi_basement_r":null,"elderly_alone_r":0.0929,"bldg_age30_r":null,"shelter_min_walk":13,"pop":30925,"hh":11410,"elderly65_r":0.1332,"single_hh_r":0.2345,"source_level":"emd","flood_years":[],"landslide_hist_n":0},"geometry":{"type":"Polygon","coordinates":[[[126.82253,37.45332],[126.82201,37.45765],[126.81782,37.4596],[126.81415,37.45721],[126.81467,37.45287],[126.81887,37.45093],[126.82253,37.45332]]]}},{"type":"Feature","properties":{"h3":"8830e0adebfffff","emd_code":"4119456000","emd_name":"옥길동","area_km2":0.505,"edge":true,"slope_mean":12.4,"elev_mean":49.5,"flood_hist_n":0,"flood_depth_max_m":null,"flood_risk_100y":null,"semi_basement_r":null,"elderly_alone_r":0.0929,"bldg_age30_r":null,"shelter_min_walk":10,"pop":30925,"hh":11410,"elderly65_r":0.1332,"single_hh_r":0.2345,"source_level":"emd","flood_years":[],"landslide_hist_n":0},"geometry":{"type":"Polygon","coordinates":[[[126.83039,37.45376],[126.82987,37.4581],[126.82568,37.46004],[126.82201,37.45765],[126.82253,37.45332],[126.82672,37.45137],[126.83039,37.45376]]]}},{"type":"Feature","properties":{"h3":"8830e0af05fffff","emd_code":"4119459000","emd_name":"송내1동","area_km2":0.504,"edge":true,"slope_mean":5.14,"elev_mean":17.4,"flood_hist_n":0,"flood_depth_max_m":null,"flood_risk_100y":null,"semi_basement_r":null,"elderly_alone_r":0.121,"bldg_age30_r":null,"shelter_min_walk":1,"pop":19671,"hh":8679,"elderly65_r":0.2399,"single_hh_r":0.3269,"source_level":"emd","flood_years":[],"landslide_hist_n":0},"geometry":{"type":"Polygon","coordinates":[[[126.75495,37.48872],[126.75442,37.49306],[126.75023,37.49499],[126.74657,37.4926],[126.7471,37.48827],[126.75129,37.48633],[126.75495,37.48872]]]}},{"type":"Feature","properties":{"h3":"8830e0af07fffff","emd_code":"4119459000","emd_name":"송내1동","area_km2":0.5041,"edge":true,"slope_mean":4.58,"elev_mean":18.1,"flood_hist_n":0,"flood_depth_max_m":null,"flood_risk_100y":null,"semi_basement_r":null,"elderly_alone_r":0.121,"bldg_age30_r":null,"shelter_min_walk":5,"pop":19671,"hh":8679,"elderly65_r":0.2399,"single_hh_r":0.3269,"source_level":"emd","flood_years":[],"landslide_hist_n":0},"geometry":{"type":"Polygon","coordinates":[[[126.7628,37.48918],[126.76228,37.49351],[126.75808,37.49545],[126.75442,37.49306],[126.75495,37.48872],[126.75914,37.48678],[126.7628,37.48918]]]}},{"type":"Feature","properties":{"h3":"8830e0af23fffff","emd_code":"4119459000","emd_name":"송내1동","area_km2":0.5041,"edge":false,"slope_mean":12.3,"elev_mean":75.3,"flood_hist_n":0,"flood_depth_max_m":null,"flood_risk_100y":null,"semi_basement_r":null,"elderly_alone_r":0.121,"bldg_age30_r":null,"shelter_min_walk":6,"pop":19671,"hh":8679,"elderly65_r":0.2399,"single_hh_r":0.3269,"source_level":"emd","flood_years":[],"landslide_hist_n":0},"geometry":{"type":"Polygon","coordinates":[[[126.76439,37.47618],[126.76386,37.48051],[126.75967,37.48245],[126.756,37.48006],[126.75653,37.47573],[126.76072,37.47379],[126.76439,37.47618]]]}},{"type":"Feature","properties":{"h3":"8830e0af29fffff","emd_code":"4119459000","emd_name":"송내1동","area_km2":0.5039,"edge":true,"slope_mean":4.1,"elev_mean":19.2,"flood_hist_n":0,"flood_depth_max_m":null,"flood_risk_100y":null,"semi_basement_r":null,"elderly_alone_r":0.121,"bldg_age30_r":null,"shelter_min_walk":13,"pop":19671,"hh":8679,"elderly65_r":0.2399,"single_hh_r":0.3269,"source_level":"emd","flood_years":[],"landslide_hist_n":0},"geometry":{"type":"Polygon","coordinates":[[[126.75181,37.482],[126.75129,37.48633],[126.7471,37.48827],[126.74343,37.48588],[126.74396,37.48155],[126.74815,37.47961],[126.75181,37.482]]]}},{"type":"Feature","properties":{"h3":"8830e0af2bfffff","emd_code":"4119459000","emd_name":"송내1동","area_km2":0.5041,"edge":false,"slope_mean":5.31,"elev_mean":26.0,"flood_hist_n":0,"flood_depth_max_m":null,"flood_risk_100y":null,"semi_basement_r":null,"elderly_alone_r":0.121,"bldg_age30_r":null,"shelter_min_walk":5,"pop":19671,"hh":8679,"elderly65_r":0.2399,"single_hh_r":0.3269,"source_level":"emd","flood_years":[],"landslide_hist_n":0},"geometry":{"type":"Polygon","coordinates":[[[126.75967,37.48245],[126.75914,37.48678],[126.75495,37.48872],[126.75129,37.48633],[126.75181,37.482],[126.756,37.48006],[126.75967,37.48245]]]}},{"type":"Feature","properties":{"h3":"8830e0af31fffff","emd_code":"4119460000","emd_name":"송내2동","area_km2":0.5043,"edge":false,"slope_mean":4.92,"elev_mean":31.0,"flood_hist_n":0,"flood_depth_max_m":null,"flood_risk_100y":null,"semi_basement_r":null,"elderly_alone_r":0.1266,"bldg_age30_r":null,"shelter_min_walk":3,"pop":23503,"hh":10484,"elderly65_r":0.2226,"single_hh_r":0.349,"source_level":"emd","flood_years":[],"landslide_hist_n":0},"geometry":{"type":"Polygon","coordinates":[[[126.77538,37.48335],[126.77485,37.48769],[126.77066,37.48963],[126.76699,37.48724],[126.76752,37.4829],[126.77171,37.48096],[126.77538,37.48335]]]}},{"type":"Feature","properties":{"h3":"8830e0af33fffff","emd_code":"4119451000","emd_name":"심곡본1동","area_km2":0.5044,"edge":true,"slope_mean":4.8,"elev_mean":31.5,"flood_hist_n":0,"flood_depth_max_m":null,"flood_risk_100y":null,"semi_basement_r":null,"elderly_alone_r":0.194,"bldg_age30_r":null,"shelter_min_walk":2,"pop":15038,"hh":8115,"elderly65_r":0.2836,"single_hh_r":0.5057,"source_level":"emd","flood_years":[],"landslide_hist_n":0},"geometry":{"type":"Polygon","coordinates":[[[126.78323,37.48381],[126.78271,37.48814],[126.77851,37.49008],[126.77485,37.48769],[126.77538,37.48335],[126.77957,37.48141],[126.78323,37.48381]]]}},{"type":"Feature","properties":{"h3":"8830e0af35fffff","emd_code":"4119460000","emd_name":"송내2동","area_km2":0.5042,"edge":false,"slope_mean":10.22,"elev_mean":72.8,"flood_hist_n":0,"flood_depth_max_m":null,"flood_risk_100y":null,"semi_basement_r":null,"elderly_alone_r":0.1266,"bldg_age30_r":null,"shelter_min_walk":2,"pop":23503,"hh":10484,"elderly65_r":0.2226,"single_hh_r":0.349,"source_level":"emd","flood_years":[],"landslide_hist_n":0},"geometry":{"type":"Polygon","coordinates":[[[126.77224,37.47663],[126.77171,37.48096],[126.76752,37.4829],[126.76386,37.48051],[126.76439,37.47618],[126.76858,37.47424],[126.77224,37.47663]]]}},{"type":"Feature","properties":{"h3":"8830e0af37fffff","emd_code":"4119451000","emd_name":"심곡본1동","area_km2":0.5043,"edge":false,"slope_mean":7.32,"elev_mean":59.9,"flood_hist_n":0,"flood_depth_max_m":null,"flood_risk_100y":null,"semi_basement_r":null,"elderly_alone_r":0.194,"bldg_age30_r":null,"shelter_min_walk":4,"pop":15038,"hh":8115,"elderly65_r":0.2836,"single_hh_r":0.5057,"source_level":"emd","flood_years":[],"landslide_hist_n":0},"geometry":{"type":"Polygon","coordinates":[[[126.78009,37.47708],[126.77957,37.48141],[126.77538,37.48335],[126.77171,37.48096],[126.77224,37.47663],[126.77643,37.47469],[126.78009,37.47708]]]}},{"type":"Feature","properties":{"h3":"8830e0af3dfffff","emd_code":"4119459000","emd_name":"송내1동","area_km2":0.5042,"edge":false,"slope_mean":4.86,"elev_mean":26.3,"flood_hist_n":0,"flood_depth_max_m":null,"flood_risk_100y":null,"semi_basement_r":null,"elderly_alone_r":0.121,"bldg_age30_r":null,"shelter_min_walk":2,"pop":19671,"hh":8679,"elderly65_r":0.2399,"single_hh_r":0.3269,"source_level":"emd","flood_years":[],"landslide_hist_n":0},"geometry":{"type":"Polygon","coordinates":[[[126.76752,37.4829],[126.76699,37.48724],[126.7628,37.48918],[126.75914,37.48678],[126.75967,37.48245],[126.76386,37.48051],[126.76752,37.4829]]]}}]}