{"type":"FeatureCollection","name":"grid_41210_h3r8","meta":{"sgg_code":"41210","h3_res":8,"n_cells":102,"dem":"Copernicus GLO-30 (bbox-mean)","crs":"EPSG:4326","jumin_basis":"2026-07","flood_src":"행안부 침수흔적도(전국, 재난안전데이터공유플랫폼)","landslide_src":"행안부 산사태 발생이력"},"features":[{"type":"Feature","properties":{"h3":"8830e03293fffff","emd_code":"4121066000","emd_name":"학온동","area_km2":0.5051,"edge":false,"slope_mean":4.2,"elev_mean":25.7,"flood_hist_n":0,"flood_depth_max_m":null,"flood_risk_100y":null,"semi_basement_r":null,"elderly_alone_r":0.2345,"bldg_age30_r":null,"shelter_min_walk":11,"pop":1620,"hh":857,"elderly65_r":0.4198,"single_hh_r":0.4924,"source_level":"emd","flood_years":[],"landslide_hist_n":0},"geometry":{"type":"Polygon","coordinates":[[[126.85082,37.41563],[126.85029,37.41997],[126.8461,37.42191],[126.84244,37.41953],[126.84296,37.41519],[126.84715,37.41324],[126.85082,37.41563]]]}},{"type":"Feature","properties":{"h3":"8830e03297fffff","emd_code":"4121066000","emd_name":"학온동","area_km2":0.5051,"edge":true,"slope_mean":8.16,"elev_mean":37.4,"flood_hist_n":0,"flood_depth_max_m":null,"flood_risk_100y":null,"semi_basement_r":null,"elderly_alone_r":0.2345,"bldg_age30_r":null,"shelter_min_walk":6,"pop":1620,"hh":857,"elderly65_r":0.4198,"single_hh_r":0.4924,"source_level":"emd","flood_years":[],"landslide_hist_n":0},"geometry":{"type":"Polygon","coordinates":[[[126.84767,37.40891],[126.84715,37.41324],[126.84296,37.41519],[126.83929,37.4128],[126.83981,37.40847],[126.844,37.40652],[126.84767,37.40891]]]}},{"type":"Feature","properties":{"h3":"8830e0329bfffff","emd_code":"4121066000","emd_name":"학온동","area_km2":0.5051,"edge":true,"slope_mean":2.45,"elev_mean":23.4,"flood_hist_n":0,"flood_depth_max_m":null,"flood_risk_100y":null,"semi_basement_r":null,"elderly_alone_r":0.2345,"bldg_age30_r":null,"shelter_min_walk":18,"pop":1620,"hh":857,"elderly65_r":0.4198,"single_hh_r":0.4924,"source_level":"emd","flood_years":[],"landslide_hist_n":0},"geometry":{"type":"Polygon","coordinates":[[[126.8461,37.42191],[126.84558,37.42625],[126.84139,37.4282],[126.83772,37.42581],[126.83825,37.42147],[126.84244,37.41953],[126.8461,37.42191]]]}},{"type":"Feature","properties":{"h3":"8830e03605fffff","emd_code":"4121064000","emd_name":"소하1동","area_km2":0.5059,"edge":true,"slope_mean":4.77,"elev_mean":15.6,"flood_hist_n":0,"flood_depth_max_m":null,"flood_risk_100y":null,"semi_basement_r":null,"elderly_alone_r":0.092,"bldg_age30_r":null,"shelter_min_walk":6,"pop":28913,"hh":11200,"elderly65_r":0.181,"single_hh_r":0.2605,"source_level":"emd","flood_years":[],"landslide_hist_n":0},"geometry":{"type":"Polygon","coordinates":[[[126.89803,37.45103],[126.89751,37.45536],[126.89332,37.45731],[126.88964,37.45492],[126.89016,37.45058],[126.89436,37.44864],[126.89803,37.45103]]]}},{"type":"Feature","properties":{"h3":"8830e0360dfffff","emd_code":"4121063300","emd_name":"하안3동","area_km2":0.5058,"edge":true,"slope_mean":5.43,"elev_mean":15.1,"flood_hist_n":0,"flood_depth_max_m":null,"flood_risk_100y":null,"semi_basement_r":null,"elderly_alone_r":0.181,"bldg_age30_r":null,"shelter_min_walk":7,"pop":17920,"hh":8535,"elderly65_r":0.2379,"single_hh_r":0.3979,"source_level":"emd","flood_years":[],"landslide_hist_n":0},"geometry":{"type":"Polygon","coordinates":[[[126.89332,37.45731],[126.8928,37.46165],[126.8886,37.4636],[126.88493,37.46121],[126.88545,37.45687],[126.88964,37.45492],[126.89332,37.45731]]]}},{"type":"Feature","properties":{"h3":"8830e03621fffff","emd_code":"4121064000","emd_name":"소하1동","area_km2":0.5059,"edge":false,"slope_mean":3.16,"elev_mean":15.7,"flood_hist_n":1,"flood_depth_max_m":0.56,"flood_risk_100y":null,"semi_basement_r":null,"elderly_alone_r":0.092,"bldg_age30_r":null,"shelter_min_walk":10,"pop":28913,"hh":11200,"elderly65_r":0.181,"single_hh_r":0.2605,"source_level":"emd","flood_years":[2012],"landslide_hist_n":0},"geometry":{"type":"Polygon","coordinates":[[[126.89959,37.43801],[126.89907,37.44235],[126.89488,37.4443],[126.8912,37.44191],[126.89172,37.43757],[126.89592,37.43562],[126.89959,37.43801]]]}},{"type":"Feature","properties":{"h3":"8830e03625fffff","emd_code":"4121064000","emd_name":"소하1동","area_km2":0.5058,"edge":false,"slope_mean":10.6,"elev_mean":44.8,"flood_hist_n":0,"flood_depth_max_m":null,"flood_risk_100y":null,"semi_basement_r":null,"elderly_alone_r":0.092,"bldg_age30_r":null,"shelter_min_walk":9,"pop":28913,"hh":11200,"elderly65_r":0.181,"single_hh_r":0.2605,"source_level":"emd","flood_years":[],"landslide_hist_n":0},"geometry":{"type":"Polygon","coordinates":[[[126.89644,37.43129],[126.89592,37.43562],[126.89172,37.43757],[126.88805,37.43518],[126.88857,37.43085],[126.89276,37.4289],[126.89644,37.43129]]]}},{"type":"Feature","properties":{"h3":"8830e03627fffff","emd_code":"4121064000","emd_name":"소하1동","area_km2":0.5059,"edge":true,"slope_mean":4.29,"elev_mean":17.7,"flood_hist_n":0,"flood_depth_max_m":null,"flood_risk_100y":null,"semi_basement_r":null,"elderly_alone_r":0.092,"bldg_age30_r":null,"shelter_min_walk":5,"pop":28913,"hh":11200,"elderly65_r":0.181,"single_hh_r":0.2605,"source_level":"emd","flood_years":[],"landslide_hist_n":0},"geometry":{"type":"Polygon","coordinates":[[[126.9043,37.43172],[126.90379,37.43606],[126.89959,37.43801],[126.89592,37.43562],[126.89644,37.43129],[126.90063,37.42934],[126.9043,37.43172]]]}},{"type":"Feature","properties":{"h3":"8830e03629fffff","emd_code":"4121064000","emd_name":"소하1동","area_km2":0.5058,"edge":false,"slope_mean":3.54,"elev_mean":15.5,"flood_hist_n":0,"flood_depth_max_m":null,"flood_risk_100y":null,"semi_basement_r":null,"elderly_alone_r":0.092,"bldg_age30_r":null,"shelter_min_walk":1,"pop":28913,"hh":11200,"elderly65_r":0.181,"single_hh_r":0.2605,"source_level":"emd","flood_years":[],"landslide_hist_n":0},"geometry":{"type":"Polygon","coordinates":[[[126.89488,37.4443],[126.89436,37.44864],[126.89016,37.45058],[126.88649,37.4482],[126.88701,37.44386],[126.8912,37.44191],[126.89488,37.4443]]]}},{"type":"Feature","properties":{"h3":"8830e0362bfffff","emd_code":"4121064000","emd_name":"소하1동","area_km2":0.5059,"edge":true,"slope_mean":6.09,"elev_mean":21.9,"flood_hist_n":0,"flood_depth_max_m":null,"flood_risk_100y":null,"semi_basement_r":null,"elderly_alone_r":0.092,"bldg_age30_r":null,"shelter_min_walk":6,"pop":28913,"hh":11200,"elderly65_r":0.181,"single_hh_r":0.2605,"source_level":"emd","flood_years":[],"landslide_hist_n":0},"geometry":{"type":"Polygon","coordinates":[[[126.90275,37.44474],[126.90223,37.44908],[126.89803,37.45103],[126.89436,37.44864],[126.89488,37.4443],[126.89907,37.44235],[126.90275,37.44474]]]}},{"type":"Feature","properties":{"h3":"8830e0362dfffff","emd_code":"4121064000","emd_name":"소하1동","area_km2":0.5058,"edge":false,"slope_mean":3.89,"elev_mean":19.8,"flood_hist_n":0,"flood_depth_max_m":null,"flood_risk_100y":null,"semi_basement_r":null,"elderly_alone_r":0.092,"bldg_age30_r":null,"shelter_min_walk":7,"pop":28913,"hh":11200,"elderly65_r":0.181,"single_hh_r":0.2605,"source_level":"emd","flood_years":[],"landslide_hist_n":0},"geometry":{"type":"Polygon","coordinates":[[[126.89172,37.43757],[126.8912,37.44191],[126.88701,37.44386],[126.88333,37.44147],[126.88386,37.43713],[126.88805,37.43518],[126.89172,37.43757]]]}},{"type":"Feature","properties":{"h3":"8830e03641fffff","emd_code":"4121061000","emd_name":"철산3동","area_km2":0.5058,"edge":false,"slope_mean":5.95,"elev_mean":13.9,"flood_hist_n":0,"flood_depth_max_m":null,"flood_risk_100y":null,"semi_basement_r":null,"elderly_alone_r":0.0629,"bldg_age30_r":null,"shelter_min_walk":5,"pop":35095,"hh":12583,"elderly65_r":0.1621,"single_hh_r":0.1713,"source_level":"emd","flood_years":[],"landslide_hist_n":0},"geometry":{"type":"Polygon","coordinates":[[[126.88389,37.46988],[126.88337,37.47422],[126.87917,37.47617],[126.87549,37.47378],[126.87602,37.46944],[126.88021,37.46749],[126.88389,37.46988]]]}},{"type":"Feature","properties":{"h3":"8830e03645fffff","emd_code":"4121063200","emd_name":"하안2동","area_km2":0.5057,"edge":false,"slope_mean":5.31,"elev_mean":17.2,"flood_hist_n":0,"flood_depth_max_m":null,"flood_risk_100y":null,"semi_basement_r":null,"elderly_alone_r":0.1338,"bldg_age30_r":null,"shelter_min_walk":1,"pop":12375,"hh":6429,"elderly65_r":0.2149,"single_hh_r":0.4494,"source_level":"emd","flood_years":[],"landslide_hist_n":0},"geometry":{"type":"Polygon","coordinates":[[[126.88073,37.46315],[126.88021,37.46749],[126.87602,37.46944],[126.87234,37.46705],[126.87286,37.46271],[126.87706,37.46076],[126.88073,37.46315]]]}},{"type":"Feature","properties":{"h3":"8830e03647fffff","emd_code":"4121063400","emd_name":"하안4동","area_km2":0.5058,"edge":false,"slope_mean":5.22,"elev_mean":13.8,"flood_hist_n":0,"flood_depth_max_m":null,"flood_risk_100y":null,"semi_basement_r":null,"elderly_alone_r":0.0887,"bldg_age30_r":null,"shelter_min_walk":4,"pop":11173,"hh":4994,"elderly65_r":0.1637,"single_hh_r":0.3374,"source_level":"emd","flood_years":[],"landslide_hist_n":0},"geometry":{"type":"Polygon","coordinates":[[[126.8886,37.4636],[126.88808,37.46794],[126.88389,37.46988],[126.88021,37.46749],[126.88073,37.46315],[126.88493,37.46121],[126.8886,37.4636]]]}},{"type":"Feature","properties":{"h3":"8830e03649fffff","emd_code":"4121061000","emd_name":"철산3동","area_km2":0.5057,"edge":false,"slope_mean":5.46,"elev_mean":13.3,"flood_hist_n":0,"flood_depth_max_m":null,"flood_risk_100y":null,"semi_basement_r":null,"elderly_alone_r":0.0629,"bldg_age30_r":null,"shelter_min_walk":4,"pop":35095,"hh":12583,"elderly65_r":0.1621,"single_hh_r":0.1713,"source_level":"emd","flood_years":[],"landslide_hist_n":0},"geometry":{"type":"Polygon","coordinates":[[[126.87917,37.47617],[126.87865,37.4805],[126.87445,37.48245],[126.87078,37.48006],[126.8713,37.47572],[126.87549,37.47378],[126.87917,37.47617]]]}},{"type":"Feature","properties":{"h3":"8830e0364dfffff","emd_code":"4121061000","emd_name":"철산3동","area_km2":0.5056,"edge":false,"slope_mean":7.65,"elev_mean":22.4,"flood_hist_n":0,"flood_depth_max_m":null,"flood_risk_100y":null,"semi_basement_r":null,"elderly_alone_r":0.0629,"bldg_age30_r":null,"shelter_min_walk":2,"pop":35095,"hh":12583,"elderly65_r":0.1621,"single_hh_r":0.1713,"source_level":"emd","flood_years":[],"landslide_hist_n":0},"geometry":{"type":"Polygon","coordinates":[[[126.87602,37.46944],[126.87549,37.47378],[126.8713,37.47572],[126.86763,37.47333],[126.86815,37.469],[126.87234,37.46705],[126.87602,37.46944]]]}},{"type":"Feature","properties":{"h3":"8830e03661fffff","emd_code":"4121064000","emd_name":"소하1동","area_km2":0.5057,"edge":false,"slope_mean":13.2,"elev_mean":57.2,"flood_hist_n":0,"flood_depth_max_m":null,"flood_risk_100y":null,"semi_basement_r":null,"elderly_alone_r":0.092,"bldg_age30_r":null,"shelter_min_walk":7,"pop":28913,"hh":11200,"elderly65_r":0.181,"single_hh_r":0.2605,"source_level":"emd","flood_years":[],"landslide_hist_n":0},"geometry":{"type":"Polygon","coordinates":[[[126.88229,37.45014],[126.88177,37.45448],[126.87758,37.45643],[126.87391,37.45404],[126.87443,37.4497],[126.87862,37.44775],[126.88229,37.45014]]]}},{"type":"Feature","properties":{"h3":"8830e03663fffff","emd_code":"4121064000","emd_name":"소하1동","area_km2":0.5058,"edge":false,"slope_mean":4.41,"elev_mean":16.6,"flood_hist_n":1,"flood_depth_max_m":0.317,"flood_risk_100y":null,"semi_basement_r":null,"elderly_alone_r":0.092,"bldg_age30_r":null,"shelter_min_walk":1,"pop":28913,"hh":11200,"elderly65_r":0.181,"single_hh_r":0.2605,"source_level":"emd","flood_years":[2020],"landslide_hist_n":0},"geometry":{"type":"Polygon","coordinates":[[[126.89016,37.45058],[126.88964,37.45492],[126.88545,37.45687],[126.88177,37.45448],[126.88229,37.45014],[126.88649,37.4482],[126.89016,37.45058]]]}},{"type":"Feature","properties":{"h3":"8830e03665fffff","emd_code":"4121064000","emd_name":"소하1동","area_km2":0.5056,"edge":false,"slope_mean":15.72,"elev_mean":80.2,"flood_hist_n":0,"flood_depth_max_m":null,"flood_risk_100y":null,"semi_basement_r":null,"elderly_alone_r":0.092,"bldg_age30_r":null,"shelter_min_walk":14,"pop":28913,"hh":11200,"elderly65_r":0.181,"single_hh_r":0.2605,"source_level":"emd","flood_years":[],"landslide_hist_n":0},"geometry":{"type":"Polygon","coordinates":[[[126.87914,37.44342],[126.87862,37.44775],[126.87443,37.4497],[126.87075,37.44731],[126.87127,37.44297],[126.87547,37.44103],[126.87914,37.44342]]]}},{"type":"Feature","properties":{"h3":"8830e03667fffff","emd_code":"4121064000","emd_name":"소하1동","area_km2":0.5057,"edge":false,"slope_mean":4.04,"elev_mean":20.0,"flood_hist_n":0,"flood_depth_max_m":null,"flood_risk_100y":null,"semi_basement_r":null,"elderly_alone_r":0.092,"bldg_age30_r":null,"shelter_min_walk":7,"pop":28913,"hh":11200,"elderly65_r":0.181,"single_hh_r":0.2605,"source_level":"emd","flood_years":[],"landslide_hist_n":0},"geometry":{"type":"Polygon","coordinates":[[[126.88701,37.44386],[126.88649,37.4482],[126.88229,37.45014],[126.87862,37.44775],[126.87914,37.44342],[126.88333,37.44147],[126.88701,37.44386]]]}},{"type":"Feature","properties":{"h3":"8830e03669fffff","emd_code":"4121063100","emd_name":"하안1동","area_km2":0.5056,"edge":false,"slope_mean":9.78,"elev_mean":32.6,"flood_hist_n":2,"flood_depth_max_m":0.315,"flood_risk_100y":null,"semi_basement_r":null,"elderly_alone_r":0.107,"bldg_age30_r":null,"shelter_min_walk":7,"pop":24124,"hh":9725,"elderly65_r":0.1848,"single_hh_r":0.2913,"source_level":"emd","flood_years":[2013,2020],"landslide_hist_n":0},"geometry":{"type":"Polygon","coordinates":[[[126.87758,37.45643],[126.87706,37.46076],[126.87286,37.46271],[126.86919,37.46032],[126.86971,37.45598],[126.87391,37.45404],[126.87758,37.45643]]]}},{"type":"Feature","properties":{"h3":"8830e0366bfffff","emd_code":"4121063300","emd_name":"하안3동","area_km2":0.5057,"edge":false,"slope_mean":5.17,"elev_mean":18.1,"flood_hist_n":0,"flood_depth_max_m":null,"flood_risk_100y":null,"semi_basement_r":null,"elderly_alone_r":0.181,"bldg_age30_r":null,"shelter_min_walk":2,"pop":17920,"hh":8535,"elderly65_r":0.2379,"single_hh_r":0.3979,"source_level":"emd","flood_years":[],"landslide_hist_n":0},"geometry":{"type":"Polygon","coordinates":[[[126.88545,37.45687],[126.88493,37.46121],[126.88073,37.46315],[126.87706,37.46076],[126.87758,37.45643],[126.88177,37.45448],[126.88545,37.45687]]]}},{"type":"Feature","properties":{"h3":"8830e0366dfffff","emd_code":"4121063100","emd_name":"하안1동","area_km2":0.5056,"edge":false,"slope_mean":16.82,"elev_mean":87.8,"flood_hist_n":0,"flood_depth_max_m":null,"flood_risk_100y":null,"semi_basement_r":null,"elderly_alone_r":0.107,"bldg_age30_r":null,"shelter_min_walk":17,"pop":24124,"hh":9725,"elderly65_r":0.1848,"single_hh_r":0.2913,"source_level":"emd","flood_years":[],"landslide_hist_n":0},"geometry":{"type":"Polygon","coordinates":[[[126.87443,37.4497],[126.87391,37.45404],[126.86971,37.45598],[126.86604,37.45359],[126.86656,37.44926],[126.87075,37.44731],[126.87443,37.4497]]]}},{"type":"Feature","properties":{"h3":"8830e03701fffff","emd_code":"4121065500","emd_name":"일직동","area_km2":0.5055,"edge":false,"slope_mean":16.29,"elev_mean":105.5,"flood_hist_n":0,"flood_depth_max_m":null,"flood_risk_100y":null,"semi_basement_r":null,"elderly_alone_r":0.0219,"bldg_age30_r":null,"shelter_min_walk":8,"pop":21055,"hh":9024,"elderly65_r":0.0827,"single_hh_r":0.3747,"source_level":"emd","flood_years":[],"landslide_hist_n":0},"geometry":{"type":"Polygon","coordinates":[[[126.87911,37.41067],[126.87859,37.41501],[126.8744,37.41695],[126.87073,37.41457],[126.87125,37.41023],[126.87544,37.40828],[126.87911,37.41067]]]}},{"type":"Feature","properties":{"h3":"8830e03703fffff","emd_code":"4121065500","emd_name":"일직동","area_km2":0.5056,"edge":false,"slope_mean":7.94,"elev_mean":38.0,"flood_hist_n":0,"flood_depth_max_m":null,"flood_risk_100y":null,"semi_basement_r":null,"elderly_alone_r":0.0219,"bldg_age30_r":null,"shelter_min_walk":3,"pop":21055,"hh":9024,"elderly65_r":0.0827,"single_hh_r":0.3747,"source_level":"emd","flood_years":[],"landslide_hist_n":0},"geometry":{"type":"Polygon","coordinates":[[[126.88698,37.41111],[126.88646,37.41545],[126.88226,37.41739],[126.87859,37.41501],[126.87911,37.41067],[126.8833,37.40872],[126.88698,37.41111]]]}},{"type":"Feature","properties":{"h3":"8830e03705fffff","emd_code":"4121066000","emd_name":"학온동","area_km2":0.5055,"edge":false,"slope_mean":15.71,"elev_mean":97.0,"flood_hist_n":0,"flood_depth_max_m":null,"flood_risk_100y":null,"semi_basement_r":null,"elderly_alone_r":0.2345,"bldg_age30_r":null,"shelter_min_walk":17,"pop":1620,"hh":857,"elderly65_r":0.4198,"single_hh_r":0.4924,"source_level":"emd","flood_years":[],"landslide_hist_n":0},"geometry":{"type":"Polygon","coordinates":[[[126.87596,37.40394],[126.87544,37.40828],[126.87125,37.41023],[126.86758,37.40784],[126.8681,37.40351],[126.87229,37.40156],[126.87596,37.40394]]]}},{"type":"Feature","properties":{"h3":"8830e03707fffff","emd_code":"4121066000","emd_name":"학온동","area_km2":0.5056,"edge":true,"slope_mean":15.95,"elev_mean":76.8,"flood_hist_n":0,"flood_depth_max_m":null,"flood_risk_100y":null,"semi_basement_r":null,"elderly_alone_r":0.2345,"bldg_age30_r":null,"shelter_min_walk":12,"pop":1620,"hh":857,"elderly65_r":0.4198,"single_hh_r":0.4924,"source_level":"emd","flood_years":[],"landslide_hist_n":0},"geometry":{"type":"Polygon","coordinates":[[[126.88382,37.40438],[126.8833,37.40872],[126.87911,37.41067],[126.87544,37.40828],[126.87596,37.40394],[126.88015,37.402],[126.88382,37.40438]]]}},{"type":"Feature","properties":{"h3":"8830e03709fffff","emd_code":"4121065500","emd_name":"일직동","area_km2":0.5055,"edge":false,"slope_mean":20.42,"elev_mean":138.3,"flood_hist_n":0,"flood_depth_max_m":null,"flood_risk_100y":null,"semi_basement_r":null,"elderly_alone_r":0.0219,"bldg_age30_r":null,"shelter_min_walk":14,"pop":21055,"hh":9024,"elderly65_r":0.0827,"single_hh_r":0.3747,"source_level":"emd","flood_years":[],"landslide_hist_n":0},"geometry":{"type":"Polygon","coordinates":[[[126.8744,37.41695],[126.87388,37.42129],[126.86969,37.42324],[126.86602,37.42085],[126.86654,37.41651],[126.87073,37.41457],[126.8744,37.41695]]]}},{"type":"Feature","properties":{"h3":"8830e0370bfffff","emd_code":"4121065500","emd_name":"일직동","area_km2":0.5056,"edge":false,"slope_mean":12.28,"elev_mean":69.2,"flood_hist_n":0,"flood_depth_max_m":null,"flood_risk_100y":null,"semi_basement_r":null,"elderly_alone_r":0.0219,"bldg_age30_r":null,"shelter_min_walk":4,"pop":21055,"hh":9024,"elderly65_r":0.0827,"single_hh_r":0.3747,"source_level":"emd","flood_years":[],"landslide_hist_n":0},"geometry":{"type":"Polygon","coordinates":[[[126.88226,37.41739],[126.88174,37.42173],[126.87755,37.42368],[126.87388,37.42129],[126.8744,37.41695],[126.87859,37.41501],[126.88226,37.41739]]]}},{"type":"Feature","properties":{"h3":"8830e0370dfffff","emd_code":"4121066000","emd_name":"학온동","area_km2":0.5054,"edge":false,"slope_mean":13.51,"elev_mean":87.3,"flood_hist_n":0,"flood_depth_max_m":null,"flood_risk_100y":null,"semi_basement_r":null,"elderly_alone_r":0.2345,"bldg_age30_r":null,"shelter_min_walk":18,"pop":1620,"hh":857,"elderly65_r":0.4198,"single_hh_r":0.4924,"source_level":"emd","flood_years":[],"landslide_hist_n":0},"geometry":{"type":"Polygon","coordinates":[[[126.87125,37.41023],[126.87073,37.41457],[126.86654,37.41651],[126.86287,37.41413],[126.86339,37.40979],[126.86758,37.40784],[126.87125,37.41023]]]}},{"type":"Feature","properties":{"h3":"8830e03711fffff","emd_code":"4121065500","emd_name":"일직동","area_km2":0.5058,"edge":true,"slope_mean":6.29,"elev_mean":23.6,"flood_hist_n":0,"flood_depth_max_m":null,"flood_risk_100y":null,"semi_basement_r":null,"elderly_alone_r":0.0219,"bldg_age30_r":null,"shelter_min_walk":12,"pop":21055,"hh":9024,"elderly65_r":0.0827,"single_hh_r":0.3747,"source_level":"emd","flood_years":[],"landslide_hist_n":0},"geometry":{"type":"Polygon","coordinates":[[[126.89799,37.41827],[126.89748,37.42261],[126.89328,37.42456],[126.88961,37.42217],[126.89013,37.41783],[126.89432,37.41588],[126.89799,37.41827]]]}},{"type":"Feature","properties":{"h3":"8830e03715fffff","emd_code":"4121065500","emd_name":"일직동","area_km2":0.5057,"edge":true,"slope_mean":8.45,"elev_mean":27.9,"flood_hist_n":0,"flood_depth_max_m":null,"flood_risk_100y":null,"semi_basement_r":null,"elderly_alone_r":0.0219,"bldg_age30_r":null,"shelter_min_walk":6,"pop":21055,"hh":9024,"elderly65_r":0.0827,"single_hh_r":0.3747,"source_level":"emd","flood_years":[],"landslide_hist_n":0},"geometry":{"type":"Polygon","coordinates":[[[126.89484,37.41155],[126.89432,37.41588],[126.89013,37.41783],[126.88646,37.41545],[126.88698,37.41111],[126.89117,37.40916],[126.89484,37.41155]]]}},{"type":"Feature","properties":{"h3":"8830e03719fffff","emd_code":"4121065500","emd_name":"일직동","area_km2":0.5058,"edge":false,"slope_mean":14.04,"elev_mean":57.7,"flood_hist_n":0,"flood_depth_max_m":null,"flood_risk_100y":null,"semi_basement_r":null,"elderly_alone_r":0.0219,"bldg_age30_r":null,"shelter_min_walk":8,"pop":21055,"hh":9024,"elderly65_r":0.0827,"single_hh_r":0.3747,"source_level":"emd","flood_years":[],"landslide_hist_n":0},"geometry":{"type":"Polygon","coordinates":[[[126.89328,37.42456],[126.89276,37.4289],[126.88857,37.43085],[126.8849,37.42846],[126.88542,37.42412],[126.88961,37.42217],[126.89328,37.42456]]]}},{"type":"Feature","properties":{"h3":"8830e0371bfffff","emd_code":"4121065500","emd_name":"일직동","area_km2":0.5059,"edge":true,"slope_mean":7.14,"elev_mean":23.0,"flood_hist_n":0,"flood_depth_max_m":null,"flood_risk_100y":null,"semi_basement_r":null,"elderly_alone_r":0.0219,"bldg_age30_r":null,"shelter_min_walk":7,"pop":21055,"hh":9024,"elderly65_r":0.0827,"single_hh_r":0.3747,"source_level":"emd","flood_years":[],"landslide_hist_n":0},"geometry":{"type":"Polygon","coordinates":[[[126.90115,37.425],[126.90063,37.42934],[126.89644,37.43129],[126.89276,37.4289],[126.89328,37.42456],[126.89748,37.42261],[126.90115,37.425]]]}},{"type":"Feature","properties":{"h3":"8830e0371dfffff","emd_code":"4121065500","emd_name":"일직동","area_km2":0.5057,"edge":false,"slope_mean":5.34,"elev_mean":27.4,"flood_hist_n":0,"flood_depth_max_m":null,"flood_risk_100y":null,"semi_basement_r":null,"elderly_alone_r":0.0219,"bldg_age30_r":null,"shelter_min_walk":6,"pop":21055,"hh":9024,"elderly65_r":0.0827,"single_hh_r":0.3747,"source_level":"emd","flood_years":[],"landslide_hist_n":0},"geometry":{"type":"Polygon","coordinates":[[[126.89013,37.41783],[126.88961,37.42217],[126.88542,37.42412],[126.88174,37.42173],[126.88226,37.41739],[126.88646,37.41545],[126.89013,37.41783]]]}},{"type":"Feature","properties":{"h3":"8830e03729fffff","emd_code":"4121066000","emd_name":"학온동","area_km2":0.5054,"edge":true,"slope_mean":7.68,"elev_mean":51.7,"flood_hist_n":0,"flood_depth_max_m":null,"flood_risk_100y":null,"semi_basement_r":null,"elderly_alone_r":0.2345,"bldg_age30_r":null,"shelter_min_walk":19,"pop":1620,"hh":857,"elderly65_r":0.4198,"single_hh_r":0.4924,"source_level":"emd","flood_years":[],"landslide_hist_n":0},"geometry":{"type":"Polygon","coordinates":[[[126.87281,37.39722],[126.87229,37.40156],[126.8681,37.40351],[126.86443,37.40112],[126.86495,37.39678],[126.86914,37.39483],[126.87281,37.39722]]]}},{"type":"Feature","properties":{"h3":"8830e0372bfffff","emd_code":"4121066000","emd_name":"학온동","area_km2":0.5055,"edge":true,"slope_mean":14.58,"elev_mean":82.7,"flood_hist_n":0,"flood_depth_max_m":null,"flood_risk_100y":null,"semi_basement_r":null,"elderly_alone_r":0.2345,"bldg_age30_r":null,"shelter_min_walk":22,"pop":1620,"hh":857,"elderly65_r":0.4198,"single_hh_r":0.4924,"source_level":"emd","flood_years":[],"landslide_hist_n":0},"geometry":{"type":"Polygon","coordinates":[[[126.88067,37.39766],[126.88015,37.402],[126.87596,37.40394],[126.87229,37.40156],[126.87281,37.39722],[126.877,37.39527],[126.88067,37.39766]]]}},{"type":"Feature","properties":{"h3":"8830e03741fffff","emd_code":"4121066000","emd_name":"학온동","area_km2":0.5053,"edge":false,"slope_mean":11.27,"elev_mean":55.3,"flood_hist_n":0,"flood_depth_max_m":null,"flood_risk_100y":null,"semi_basement_r":null,"elderly_alone_r":0.2345,"bldg_age30_r":null,"shelter_min_walk":23,"pop":1620,"hh":857,"elderly65_r":0.4198,"single_hh_r":0.4924,"source_level":"emd","flood_years":[],"landslide_hist_n":0},"geometry":{"type":"Polygon","coordinates":[[[126.86183,37.4228],[126.8613,37.42713],[126.85711,37.42908],[126.85344,37.42669],[126.85396,37.42236],[126.85816,37.42041],[126.86183,37.4228]]]}},{"type":"Feature","properties":{"h3":"8830e03743fffff","emd_code":"4121066000","emd_name":"학온동","area_km2":0.5054,"edge":false,"slope_mean":16.05,"elev_mean":109.8,"flood_hist_n":0,"flood_depth_max_m":null,"flood_risk_100y":null,"semi_basement_r":null,"elderly_alone_r":0.2345,"bldg_age30_r":null,"shelter_min_walk":21,"pop":1620,"hh":857,"elderly65_r":0.4198,"single_hh_r":0.4924,"source_level":"emd","flood_years":[],"landslide_hist_n":0},"geometry":{"type":"Polygon","coordinates":[[[126.86969,37.42324],[126.86917,37.42758],[126.86497,37.42952],[126.8613,37.42713],[126.86183,37.4228],[126.86602,37.42085],[126.86969,37.42324]]]}},{"type":"Feature","properties":{"h3":"8830e03745fffff","emd_code":"4121066000","emd_name":"학온동","area_km2":0.5053,"edge":false,"slope_mean":8.62,"elev_mean":43.6,"flood_hist_n":1,"flood_depth_max_m":0.87,"flood_risk_100y":null,"semi_basement_r":null,"elderly_alone_r":0.2345,"bldg_age30_r":null,"shelter_min_walk":21,"pop":1620,"hh":857,"elderly65_r":0.4198,"single_hh_r":0.4924,"source_level":"emd","flood_years":[2012],"landslide_hist_n":0},"geometry":{"type":"Polygon","coordinates":[[[126.85868,37.41607],[126.85816,37.42041],[126.85396,37.42236],[126.85029,37.41997],[126.85082,37.41563],[126.85501,37.41369],[126.85868,37.41607]]]}},{"type":"Feature","properties":{"h3":"8830e03747fffff","emd_code":"4121066000","emd_name":"학온동","area_km2":0.5054,"edge":false,"slope_mean":7.63,"elev_mean":51.3,"flood_hist_n":0,"flood_depth_max_m":null,"flood_risk_100y":null,"semi_basement_r":null,"elderly_alone_r":0.2345,"bldg_age30_r":null,"shelter_min_walk":24,"pop":1620,"hh":857,"elderly65_r":0.4198,"single_hh_r":0.4924,"source_level":"emd","flood_years":[],"landslide_hist_n":0},"geometry":{"type":"Polygon","coordinates":[[[126.86654,37.41651],[126.86602,37.42085],[126.86183,37.4228],[126.85816,37.42041],[126.85868,37.41607],[126.86287,37.41413],[126.86654,37.41651]]]}},{"type":"Feature","properties":{"h3":"8830e03749fffff","emd_code":"4121066000","emd_name":"학온동","area_km2":0.5053,"edge":false,"slope_mean":12.27,"elev_mean":50.7,"flood_hist_n":0,"flood_depth_max_m":null,"flood_risk_100y":null,"semi_basement_r":null,"elderly_alone_r":0.2345,"bldg_age30_r":null,"shelter_min_walk":11,"pop":1620,"hh":857,"elderly65_r":0.4198,"single_hh_r":0.4924,"source_level":"emd","flood_years":[],"landslide_hist_n":0},"geometry":{"type":"Polygon","coordinates":[[[126.85711,37.42908],[126.85659,37.43342],[126.8524,37.43536],[126.84873,37.43297],[126.84925,37.42864],[126.85344,37.42669],[126.85711,37.42908]]]}},{"type":"Feature","properties":{"h3":"8830e0374bfffff","emd_code":"4121066000","emd_name":"학온동","area_km2":0.5054,"edge":false,"slope_mean":13.21,"elev_mean":80.7,"flood_hist_n":0,"flood_depth_max_m":null,"flood_risk_100y":null,"semi_basement_r":null,"elderly_alone_r":0.2345,"bldg_age30_r":null,"shelter_min_walk":20,"pop":1620,"hh":857,"elderly65_r":0.4198,"single_hh_r":0.4924,"source_level":"emd","flood_years":[],"landslide_hist_n":0},"geometry":{"type":"Polygon","coordinates":[[[126.86497,37.42952],[126.86445,37.43386],[126.86026,37.43581],[126.85659,37.43342],[126.85711,37.42908],[126.8613,37.42713],[126.86497,37.42952]]]}},{"type":"Feature","properties":{"h3":"8830e0374dfffff","emd_code":"4121066000","emd_name":"학온동","area_km2":0.5052,"edge":false,"slope_mean":7.66,"elev_mean":35.1,"flood_hist_n":0,"flood_depth_max_m":null,"flood_risk_100y":null,"semi_basement_r":null,"elderly_alone_r":0.2345,"bldg_age30_r":null,"shelter_min_walk":19,"pop":1620,"hh":857,"elderly65_r":0.4198,"single_hh_r":0.4924,"source_level":"emd","flood_years":[],"landslide_hist_n":0},"geometry":{"type":"Polygon","coordinates":[[[126.85396,37.42236],[126.85344,37.42669],[126.84925,37.42864],[126.84558,37.42625],[126.8461,37.42191],[126.85029,37.41997],[126.85396,37.42236]]]}},{"type":"Feature","properties":{"h3":"8830e03751fffff","emd_code":"4121065000","emd_name":"소하2동","area_km2":0.5056,"edge":false,"slope_mean":9.47,"elev_mean":44.7,"flood_hist_n":2,"flood_depth_max_m":0.32,"flood_risk_100y":null,"semi_basement_r":null,"elderly_alone_r":0.128,"bldg_age30_r":null,"shelter_min_walk":3,"pop":25404,"hh":10881,"elderly65_r":0.2445,"single_hh_r":0.3044,"source_level":"emd","flood_years":[2013,2020],"landslide_hist_n":0},"geometry":{"type":"Polygon","coordinates":[[[126.8807,37.4304],[126.88018,37.43474],[126.87599,37.43669],[126.87232,37.4343],[126.87284,37.42996],[126.87703,37.42802],[126.8807,37.4304]]]}},{"type":"Feature","properties":{"h3":"8830e03753fffff","emd_code":"4121065000","emd_name":"소하2동","area_km2":0.5057,"edge":false,"slope_mean":6.51,"elev_mean":34.4,"flood_hist_n":3,"flood_depth_max_m":0.321,"flood_risk_100y":null,"semi_basement_r":null,"elderly_alone_r":0.128,"bldg_age30_r":null,"shelter_min_walk":3,"pop":25404,"hh":10881,"elderly65_r":0.2445,"single_hh_r":0.3044,"source_level":"emd","flood_years":[2012,2013,2020],"landslide_hist_n":0},"geometry":{"type":"Polygon","coordinates":[[[126.88857,37.43085],[126.88805,37.43518],[126.88386,37.43713],[126.88018,37.43474],[126.8807,37.4304],[126.8849,37.42846],[126.88857,37.43085]]]}},{"type":"Feature","properties":{"h3":"8830e03755fffff","emd_code":"4121065000","emd_name":"소하2동","area_km2":0.5055,"edge":false,"slope_mean":19.09,"elev_mean":131.4,"flood_hist_n":0,"flood_depth_max_m":null,"flood_risk_100y":null,"semi_basement_r":null,"elderly_alone_r":0.128,"bldg_age30_r":null,"shelter_min_walk":15,"pop":25404,"hh":10881,"elderly65_r":0.2445,"single_hh_r":0.3044,"source_level":"emd","flood_years":[],"landslide_hist_n":0},"geometry":{"type":"Polygon","coordinates":[[[126.87755,37.42368],[126.87703,37.42802],[126.87284,37.42996],[126.86917,37.42758],[126.86969,37.42324],[126.87388,37.42129],[126.87755,37.42368]]]}},{"type":"Feature","properties":{"h3":"8830e03757fffff","emd_code":"4121065500","emd_name":"일직동","area_km2":0.5056,"edge":false,"slope_mean":9.9,"elev_mean":49.2,"flood_hist_n":0,"flood_depth_max_m":null,"flood_risk_100y":null,"semi_basement_r":null,"elderly_alone_r":0.0219,"bldg_age30_r":null,"shelter_min_walk":7,"pop":21055,"hh":9024,"elderly65_r":0.0827,"single_hh_r":0.3747,"source_level":"emd","flood_years":[],"landslide_hist_n":0},"geometry":{"type":"Polygon","coordinates":[[[126.88542,37.42412],[126.8849,37.42846],[126.8807,37.4304],[126.87703,37.42802],[126.87755,37.42368],[126.88174,37.42173],[126.88542,37.42412]]]}},{"type":"Feature","properties":{"h3":"8830e03759fffff","emd_code":"4121065000","emd_name":"소하2동","area_km2":0.5056,"edge":false,"slope_mean":15.86,"elev_mean":96.4,"flood_hist_n":0,"flood_depth_max_m":null,"flood_risk_100y":null,"semi_basement_r":null,"elderly_alone_r":0.128,"bldg_age30_r":null,"shelter_min_walk":7,"pop":25404,"hh":10881,"elderly65_r":0.2445,"single_hh_r":0.3044,"source_level":"emd","flood_years":[],"landslide_hist_n":0},"geometry":{"type":"Polygon","coordinates":[[[126.87599,37.43669],[126.87547,37.44103],[126.87127,37.44297],[126.8676,37.44058],[126.86812,37.43625],[126.87232,37.4343],[126.87599,37.43669]]]}},{"type":"Feature","properties":{"h3":"8830e0375bfffff","emd_code":"4121065000","emd_name":"소하2동","area_km2":0.5057,"edge":false,"slope_mean":5.19,"elev_mean":32.2,"flood_hist_n":2,"flood_depth_max_m":0.321,"flood_risk_100y":null,"semi_basement_r":null,"elderly_alone_r":0.128,"bldg_age30_r":null,"shelter_min_walk":6,"pop":25404,"hh":10881,"elderly65_r":0.2445,"single_hh_r":0.3044,"source_level":"emd","flood_years":[2013,2020],"landslide_hist_n":0},"geometry":{"type":"Polygon","coordinates":[[[126.88386,37.43713],[126.88333,37.44147],[126.87914,37.44342],[126.87547,37.44103],[126.87599,37.43669],[126.88018,37.43474],[126.88386,37.43713]]]}},{"type":"Feature","properties":{"h3":"8830e0375dfffff","emd_code":"4121065000","emd_name":"소하2동","area_km2":0.5055,"edge":false,"slope_mean":17.36,"elev_mean":115.7,"flood_hist_n":0,"flood_depth_max_m":null,"flood_risk_100y":null,"semi_basement_r":null,"elderly_alone_r":0.128,"bldg_age30_r":null,"shelter_min_walk":12,"pop":25404,"hh":10881,"elderly65_r":0.2445,"single_hh_r":0.3044,"source_level":"emd","flood_years":[],"landslide_hist_n":0},"geometry":{"type":"Polygon","coordinates":[[[126.87284,37.42996],[126.87232,37.4343],[126.86812,37.43625],[126.86445,37.43386],[126.86497,37.42952],[126.86917,37.42758],[126.87284,37.42996]]]}},{"type":"Feature","properties":{"h3":"8830e03761fffff","emd_code":"4121066000","emd_name":"학온동","area_km2":0.5052,"edge":false,"slope_mean":7.35,"elev_mean":37.4,"flood_hist_n":1,"flood_depth_max_m":0.63,"flood_risk_100y":null,"semi_basement_r":null,"elderly_alone_r":0.2345,"bldg_age30_r":null,"shelter_min_walk":17,"pop":1620,"hh":857,"elderly65_r":0.4198,"single_hh_r":0.4924,"source_level":"emd","flood_years":[2012],"landslide_hist_n":0},"geometry":{"type":"Polygon","coordinates":[[[126.86024,37.40307],[126.85972,37.4074],[126.85553,37.40935],[126.85186,37.40696],[126.85238,37.40263],[126.85657,37.40068],[126.86024,37.40307]]]}},{"type":"Feature","properties":{"h3":"8830e03763fffff","emd_code":"4121066000","emd_name":"학온동","area_km2":0.5053,"edge":false,"slope_mean":7.85,"elev_mean":48.7,"flood_hist_n":0,"flood_depth_max_m":null,"flood_risk_100y":null,"semi_basement_r":null,"elderly_alone_r":0.2345,"bldg_age30_r":null,"shelter_min_walk":21,"pop":1620,"hh":857,"elderly65_r":0.4198,"single_hh_r":0.4924,"source_level":"emd","flood_years":[],"landslide_hist_n":0},"geometry":{"type":"Polygon","coordinates":[[[126.8681,37.40351],[126.86758,37.40784],[126.86339,37.40979],[126.85972,37.4074],[126.86024,37.40307],[126.86443,37.40112],[126.8681,37.40351]]]}},{"type":"Feature","properties":{"h3":"8830e03767fffff","emd_code":"4121066000","emd_name":"학온동","area_km2":0.5053,"edge":true,"slope_mean":7.18,"elev_mean":43.7,"flood_hist_n":0,"flood_depth_max_m":null,"flood_risk_100y":null,"semi_basement_r":null,"elderly_alone_r":0.2345,"bldg_age30_r":null,"shelter_min_walk":9,"pop":1620,"hh":857,"elderly65_r":0.4198,"single_hh_r":0.4924,"source_level":"emd","flood_years":[],"landslide_hist_n":0},"geometry":{"type":"Polygon","coordinates":[[[126.86495,37.39678],[126.86443,37.40112],[126.86024,37.40307],[126.85657,37.40068],[126.85709,37.39634],[126.86128,37.39439],[126.86495,37.39678]]]}},{"type":"Feature","properties":{"h3":"8830e03769fffff","emd_code":"4121066000","emd_name":"학온동","area_km2":0.5052,"edge":false,"slope_mean":5.15,"elev_mean":30.6,"flood_hist_n":1,"flood_depth_max_m":0.85,"flood_risk_100y":null,"semi_basement_r":null,"elderly_alone_r":0.2345,"bldg_age30_r":null,"shelter_min_walk":15,"pop":1620,"hh":857,"elderly65_r":0.4198,"single_hh_r":0.4924,"source_level":"emd","flood_years":[2012],"landslide_hist_n":0},"geometry":{"type":"Polygon","coordinates":[[[126.85553,37.40935],[126.85501,37.41369],[126.85082,37.41563],[126.84715,37.41324],[126.84767,37.40891],[126.85186,37.40696],[126.85553,37.40935]]]}},{"type":"Feature","properties":{"h3":"8830e0376bfffff","emd_code":"4121066000","emd_name":"학온동","area_km2":0.5053,"edge":false,"slope_mean":7.18,"elev_mean":40.1,"flood_hist_n":0,"flood_depth_max_m":null,"flood_risk_100y":null,"semi_basement_r":null,"elderly_alone_r":0.2345,"bldg_age30_r":null,"shelter_min_walk":25,"pop":1620,"hh":857,"elderly65_r":0.4198,"single_hh_r":0.4924,"source_level":"emd","flood_years":[],"landslide_hist_n":0},"geometry":{"type":"Polygon","coordinates":[[[126.86339,37.40979],[126.86287,37.41413],[126.85868,37.41607],[126.85501,37.41369],[126.85553,37.40935],[126.85972,37.4074],[126.86339,37.40979]]]}},{"type":"Feature","properties":{"h3":"8830e0ac87fffff","emd_code":"4121059000","emd_name":"철산1동","area_km2":0.5057,"edge":true,"slope_mean":5.8,"elev_mean":13.3,"flood_hist_n":0,"flood_depth_max_m":null,"flood_risk_100y":null,"semi_basement_r":null,"elderly_alone_r":0.0608,"bldg_age30_r":null,"shelter_min_walk":9,"pop":9889,"hh":3800,"elderly65_r":0.163,"single_hh_r":0.2255,"source_level":"emd","flood_years":[],"landslide_hist_n":0},"geometry":{"type":"Polygon","coordinates":[[[126.87289,37.49546],[126.87237,37.4998],[126.86817,37.50175],[126.8645,37.49935],[126.86502,37.49502],[126.86921,37.49307],[126.87289,37.49546]]]}},{"type":"Feature","properties":{"h3":"8830e0aca1fffff","emd_code":"4121051000","emd_name":"광명1동","area_km2":0.5055,"edge":false,"slope_mean":6.73,"elev_mean":28.7,"flood_hist_n":2,"flood_depth_max_m":0.8,"flood_risk_100y":null,"semi_basement_r":null,"elderly_alone_r":0.0337,"bldg_age30_r":null,"shelter_min_walk":3,"pop":16172,"hh":6625,"elderly65_r":0.1083,"single_hh_r":0.2645,"source_level":"emd","flood_years":[2010,2013],"landslide_hist_n":0},"geometry":{"type":"Polygon","coordinates":[[[126.86658,37.48201],[126.86606,37.48634],[126.86187,37.48829],[126.85819,37.4859],[126.85871,37.48156],[126.86291,37.47961],[126.86658,37.48201]]]}},{"type":"Feature","properties":{"h3":"8830e0aca3fffff","emd_code":"4121060000","emd_name":"철산2동","area_km2":0.5057,"edge":false,"slope_mean":4.33,"elev_mean":14.1,"flood_hist_n":1,"flood_depth_max_m":0.8,"flood_risk_100y":null,"semi_basement_r":null,"elderly_alone_r":0.0924,"bldg_age30_r":null,"shelter_min_walk":6,"pop":19170,"hh":8023,"elderly65_r":0.1553,"single_hh_r":0.3059,"source_level":"emd","flood_years":[2010],"landslide_hist_n":0},"geometry":{"type":"Polygon","coordinates":[[[126.87445,37.48245],[126.87393,37.48679],[126.86974,37.48873],[126.86606,37.48634],[126.86658,37.48201],[126.87078,37.48006],[126.87445,37.48245]]]}},{"type":"Feature","properties":{"h3":"8830e0aca5fffff","emd_code":"4121055000","emd_name":"광명4동","area_km2":0.5055,"edge":false,"slope_mean":8.56,"elev_mean":36.7,"flood_hist_n":2,"flood_depth_max_m":0.8,"flood_risk_100y":null,"semi_basement_r":null,"elderly_alone_r":0.1527,"bldg_age30_r":null,"shelter_min_walk":7,"pop":7118,"hh":3340,"elderly65_r":0.3275,"single_hh_r":0.3668,"source_level":"emd","flood_years":[2010,2013],"landslide_hist_n":0},"geometry":{"type":"Polygon","coordinates":[[[126.86343,37.47528],[126.86291,37.47961],[126.85871,37.48156],[126.85504,37.47917],[126.85556,37.47483],[126.85976,37.47289],[126.86343,37.47528]]]}},{"type":"Feature","properties":{"h3":"8830e0aca7fffff","emd_code":"4121061000","emd_name":"철산3동","area_km2":0.5056,"edge":false,"slope_mean":6.46,"elev_mean":26.3,"flood_hist_n":1,"flood_depth_max_m":0.396,"flood_risk_100y":null,"semi_basement_r":null,"elderly_alone_r":0.0629,"bldg_age30_r":null,"shelter_min_walk":1,"pop":35095,"hh":12583,"elderly65_r":0.1621,"single_hh_r":0.1713,"source_level":"emd","flood_years":[2010],"landslide_hist_n":0},"geometry":{"type":"Polygon","coordinates":[[[126.8713,37.47572],[126.87078,37.48006],[126.86658,37.48201],[126.86291,37.47961],[126.86343,37.47528],[126.86763,37.47333],[126.8713,37.47572]]]}},{"type":"Feature","properties":{"h3":"8830e0aca9fffff","emd_code":"4121051000","emd_name":"광명1동","area_km2":0.5055,"edge":true,"slope_mean":4.45,"elev_mean":16.2,"flood_hist_n":0,"flood_depth_max_m":null,"flood_risk_100y":null,"semi_basement_r":null,"elderly_alone_r":0.0337,"bldg_age30_r":null,"shelter_min_walk":7,"pop":16172,"hh":6625,"elderly65_r":0.1083,"single_hh_r":0.2645,"source_level":"emd","flood_years":[],"landslide_hist_n":0},"geometry":{"type":"Polygon","coordinates":[[[126.86187,37.48829],[126.86134,37.49263],[126.85715,37.49457],[126.85347,37.49218],[126.854,37.48784],[126.85819,37.4859],[126.86187,37.48829]]]}},{"type":"Feature","properties":{"h3":"8830e0acabfffff","emd_code":"4121051000","emd_name":"광명1동","area_km2":0.5056,"edge":false,"slope_mean":5.7,"elev_mean":17.4,"flood_hist_n":1,"flood_depth_max_m":0.279,"flood_risk_100y":null,"semi_basement_r":null,"elderly_alone_r":0.0337,"bldg_age30_r":null,"shelter_min_walk":1,"pop":16172,"hh":6625,"elderly65_r":0.1083,"single_hh_r":0.2645,"source_level":"emd","flood_years":[2020],"landslide_hist_n":0},"geometry":{"type":"Polygon","coordinates":[[[126.86974,37.48873],[126.86921,37.49307],[126.86502,37.49502],[126.86134,37.49263],[126.86187,37.48829],[126.86606,37.48634],[126.86974,37.48873]]]}},{"type":"Feature","properties":{"h3":"8830e0acadfffff","emd_code":"4121052000","emd_name":"광명2동","area_km2":0.5054,"edge":false,"slope_mean":4.7,"elev_mean":17.7,"flood_hist_n":3,"flood_depth_max_m":0.8,"flood_risk_100y":null,"semi_basement_r":null,"elderly_alone_r":0.1217,"bldg_age30_r":null,"shelter_min_walk":3,"pop":7098,"hh":3336,"elderly65_r":0.206,"single_hh_r":0.3747,"source_level":"emd","flood_years":[2010,2013,2020],"landslide_hist_n":0},"geometry":{"type":"Polygon","coordinates":[[[126.85871,37.48156],[126.85819,37.4859],[126.854,37.48784],[126.85032,37.48545],[126.85085,37.48111],[126.85504,37.47917],[126.85871,37.48156]]]}},{"type":"Feature","properties":{"h3":"8830e0acb5fffff","emd_code":"4121059000","emd_name":"철산1동","area_km2":0.5058,"edge":true,"slope_mean":5.12,"elev_mean":13.4,"flood_hist_n":0,"flood_depth_max_m":null,"flood_risk_100y":null,"semi_basement_r":null,"elderly_alone_r":0.0608,"bldg_age30_r":null,"shelter_min_walk":12,"pop":9889,"hh":3800,"elderly65_r":0.163,"single_hh_r":0.2255,"source_level":"emd","flood_years":[],"landslide_hist_n":0},"geometry":{"type":"Polygon","coordinates":[[[126.88232,37.4829],[126.8818,37.48723],[126.87761,37.48918],[126.87393,37.48679],[126.87445,37.48245],[126.87865,37.4805],[126.88232,37.4829]]]}},{"type":"Feature","properties":{"h3":"8830e0acbdfffff","emd_code":"4121059000","emd_name":"철산1동","area_km2":0.5057,"edge":true,"slope_mean":4.44,"elev_mean":11.1,"flood_hist_n":0,"flood_depth_max_m":null,"flood_risk_100y":null,"semi_basement_r":null,"elderly_alone_r":0.0608,"bldg_age30_r":null,"shelter_min_walk":7,"pop":9889,"hh":3800,"elderly65_r":0.163,"single_hh_r":0.2255,"source_level":"emd","flood_years":[],"landslide_hist_n":0},"geometry":{"type":"Polygon","coordinates":[[[126.87761,37.48918],[126.87709,37.49352],[126.87289,37.49546],[126.86921,37.49307],[126.86974,37.48873],[126.87393,37.48679],[126.87761,37.48918]]]}},{"type":"Feature","properties":{"h3":"8830e0ad81fffff","emd_code":"4121066000","emd_name":"학온동","area_km2":0.5052,"edge":false,"slope_mean":2.91,"elev_mean":17.3,"flood_hist_n":1,"flood_depth_max_m":0.45,"flood_risk_100y":null,"semi_basement_r":null,"elderly_alone_r":0.2345,"bldg_age30_r":null,"shelter_min_walk":12,"pop":1620,"hh":857,"elderly65_r":0.4198,"single_hh_r":0.4924,"source_level":"emd","flood_years":[2012],"landslide_hist_n":0},"geometry":{"type":"Polygon","coordinates":[[[126.84612,37.45465],[126.84559,37.45899],[126.8414,37.46093],[126.83773,37.45854],[126.83825,37.45421],[126.84245,37.45226],[126.84612,37.45465]]]}},{"type":"Feature","properties":{"h3":"8830e0ad83fffff","emd_code":"4121066000","emd_name":"학온동","area_km2":0.5053,"edge":false,"slope_mean":8.41,"elev_mean":36.8,"flood_hist_n":0,"flood_depth_max_m":null,"flood_risk_100y":null,"semi_basement_r":null,"elderly_alone_r":0.2345,"bldg_age30_r":null,"shelter_min_walk":18,"pop":1620,"hh":857,"elderly65_r":0.4198,"single_hh_r":0.4924,"source_level":"emd","flood_years":[],"landslide_hist_n":0},"geometry":{"type":"Polygon","coordinates":[[[126.85398,37.4551],[126.85346,37.45943],[126.84926,37.46138],[126.84559,37.45899],[126.84612,37.45465],[126.85031,37.45271],[126.85398,37.4551]]]}},{"type":"Feature","properties":{"h3":"8830e0ad85fffff","emd_code":"4121066000","emd_name":"학온동","area_km2":0.5051,"edge":false,"slope_mean":2.06,"elev_mean":16.0,"flood_hist_n":1,"flood_depth_max_m":0.45,"flood_risk_100y":null,"semi_basement_r":null,"elderly_alone_r":0.2345,"bldg_age30_r":null,"shelter_min_walk":16,"pop":1620,"hh":857,"elderly65_r":0.4198,"single_hh_r":0.4924,"source_level":"emd","flood_years":[2012],"landslide_hist_n":0},"geometry":{"type":"Polygon","coordinates":[[[126.84297,37.44793],[126.84245,37.45226],[126.83825,37.45421],[126.83458,37.45182],[126.83511,37.44748],[126.8393,37.44554],[126.84297,37.44793]]]}},{"type":"Feature","properties":{"h3":"8830e0ad87fffff","emd_code":"4121066000","emd_name":"학온동","area_km2":0.5052,"edge":false,"slope_mean":7.75,"elev_mean":28.2,"flood_hist_n":0,"flood_depth_max_m":null,"flood_risk_100y":null,"semi_basement_r":null,"elderly_alone_r":0.2345,"bldg_age30_r":null,"shelter_min_walk":14,"pop":1620,"hh":857,"elderly65_r":0.4198,"single_hh_r":0.4924,"source_level":"emd","flood_years":[],"landslide_hist_n":0},"geometry":{"type":"Polygon","coordinates":[[[126.85083,37.44837],[126.85031,37.45271],[126.84612,37.45465],[126.84245,37.45226],[126.84297,37.44793],[126.84716,37.44598],[126.85083,37.44837]]]}},{"type":"Feature","properties":{"h3":"8830e0ad89fffff","emd_code":"4121057000","emd_name":"광명6동","area_km2":0.5051,"edge":false,"slope_mean":2.53,"elev_mean":16.1,"flood_hist_n":1,"flood_depth_max_m":0.9,"flood_risk_100y":null,"semi_basement_r":null,"elderly_alone_r":0.1059,"bldg_age30_r":null,"shelter_min_walk":10,"pop":12395,"hh":4864,"elderly65_r":0.2071,"single_hh_r":0.2455,"source_level":"emd","flood_years":[2012],"landslide_hist_n":0},"geometry":{"type":"Polygon","coordinates":[[[126.8414,37.46093],[126.84088,37.46527],[126.83668,37.46721],[126.83301,37.46482],[126.83354,37.46049],[126.83773,37.45854],[126.8414,37.46093]]]}},{"type":"Feature","properties":{"h3":"8830e0ad8bfffff","emd_code":"4121058000","emd_name":"광명7동","area_km2":0.5052,"edge":false,"slope_mean":5.16,"elev_mean":18.7,"flood_hist_n":0,"flood_depth_max_m":null,"flood_risk_100y":null,"semi_basement_r":null,"elderly_alone_r":0.0879,"bldg_age30_r":null,"shelter_min_walk":11,"pop":25197,"hh":10373,"elderly65_r":0.19,"single_hh_r":0.2643,"source_level":"emd","flood_years":[],"landslide_hist_n":0},"geometry":{"type":"Polygon","coordinates":[[[126.84926,37.46138],[126.84874,37.46572],[126.84455,37.46766],[126.84088,37.46527],[126.8414,37.46093],[126.84559,37.45899],[126.84926,37.46138]]]}},{"type":"Feature","properties":{"h3":"8830e0ad8dfffff","emd_code":"4121057000","emd_name":"광명6동","area_km2":0.5051,"edge":true,"slope_mean":6.3,"elev_mean":25.8,"flood_hist_n":0,"flood_depth_max_m":null,"flood_risk_100y":null,"semi_basement_r":null,"elderly_alone_r":0.1059,"bldg_age30_r":null,"shelter_min_walk":4,"pop":12395,"hh":4864,"elderly65_r":0.2071,"single_hh_r":0.2455,"source_level":"emd","flood_years":[],"landslide_hist_n":0},"geometry":{"type":"Polygon","coordinates":[[[126.83825,37.45421],[126.83773,37.45854],[126.83354,37.46049],[126.82987,37.4581],[126.83039,37.45376],[126.83458,37.45182],[126.83825,37.45421]]]}},{"type":"Feature","properties":{"h3":"8830e0ad91fffff","emd_code":"4121063100","emd_name":"하안1동","area_km2":0.5055,"edge":false,"slope_mean":17.01,"elev_mean":95.5,"flood_hist_n":0,"flood_depth_max_m":null,"flood_risk_100y":null,"semi_basement_r":null,"elderly_alone_r":0.107,"bldg_age30_r":null,"shelter_min_walk":8,"pop":24124,"hh":9725,"elderly65_r":0.1848,"single_hh_r":0.2913,"source_level":"emd","flood_years":[],"landslide_hist_n":0},"geometry":{"type":"Polygon","coordinates":[[[126.865,37.46227],[126.86447,37.4666],[126.86028,37.46855],[126.85661,37.46616],[126.85713,37.46182],[126.86132,37.45988],[126.865,37.46227]]]}},{"type":"Feature","properties":{"h3":"8830e0ad93fffff","emd_code":"4121063100","emd_name":"하안1동","area_km2":0.5056,"edge":false,"slope_mean":10.37,"elev_mean":41.6,"flood_hist_n":0,"flood_depth_max_m":null,"flood_risk_100y":null,"semi_basement_r":null,"elderly_alone_r":0.107,"bldg_age30_r":null,"shelter_min_walk":7,"pop":24124,"hh":9725,"elderly65_r":0.1848,"single_hh_r":0.2913,"source_level":"emd","flood_years":[],"landslide_hist_n":0},"geometry":{"type":"Polygon","coordinates":[[[126.87286,37.46271],[126.87234,37.46705],[126.86815,37.469],[126.86447,37.4666],[126.865,37.46227],[126.86919,37.46032],[126.87286,37.46271]]]}},{"type":"Feature","properties":{"h3":"8830e0ad95fffff","emd_code":"4121063100","emd_name":"하안1동","area_km2":0.5054,"edge":false,"slope_mean":14.9,"elev_mean":72.4,"flood_hist_n":0,"flood_depth_max_m":null,"flood_risk_100y":null,"semi_basement_r":null,"elderly_alone_r":0.107,"bldg_age30_r":null,"shelter_min_walk":20,"pop":24124,"hh":9725,"elderly65_r":0.1848,"single_hh_r":0.2913,"source_level":"emd","flood_years":[],"landslide_hist_n":0},"geometry":{"type":"Polygon","coordinates":[[[126.86185,37.45554],[126.86132,37.45988],[126.85713,37.46182],[126.85346,37.45943],[126.85398,37.4551],[126.85817,37.45315],[126.86185,37.45554]]]}},{"type":"Feature","properties":{"h3":"8830e0ad97fffff","emd_code":"4121063100","emd_name":"하안1동","area_km2":0.5055,"edge":false,"slope_mean":11.83,"elev_mean":51.7,"flood_hist_n":0,"flood_depth_max_m":null,"flood_risk_100y":null,"semi_basement_r":null,"elderly_alone_r":0.107,"bldg_age30_r":null,"shelter_min_walk":12,"pop":24124,"hh":9725,"elderly65_r":0.1848,"single_hh_r":0.2913,"source_level":"emd","flood_years":[],"landslide_hist_n":0},"geometry":{"type":"Polygon","coordinates":[[[126.86971,37.45598],[126.86919,37.46032],[126.865,37.46227],[126.86132,37.45988],[126.86185,37.45554],[126.86604,37.45359],[126.86971,37.45598]]]}},{"type":"Feature","properties":{"h3":"8830e0ad99fffff","emd_code":"4121058000","emd_name":"광명7동","area_km2":0.5054,"edge":false,"slope_mean":13.5,"elev_mean":65.6,"flood_hist_n":1,"flood_depth_max_m":1.2,"flood_risk_100y":null,"semi_basement_r":null,"elderly_alone_r":0.0879,"bldg_age30_r":null,"shelter_min_walk":1,"pop":25197,"hh":10373,"elderly65_r":0.19,"single_hh_r":0.2643,"source_level":"emd","flood_years":[2013],"landslide_hist_n":0},"geometry":{"type":"Polygon","coordinates":[[[126.86028,37.46855],[126.85976,37.47289],[126.85556,37.47483],[126.85189,37.47244],[126.85241,37.46811],[126.85661,37.46616],[126.86028,37.46855]]]}},{"type":"Feature","properties":{"h3":"8830e0ad9bfffff","emd_code":"4121062000","emd_name":"철산4동","area_km2":0.5055,"edge":false,"slope_mean":14.46,"elev_mean":69.9,"flood_hist_n":0,"flood_depth_max_m":null,"flood_risk_100y":null,"semi_basement_r":null,"elderly_alone_r":0.0629,"bldg_age30_r":null,"shelter_min_walk":4,"pop":8864,"hh":3638,"elderly65_r":0.1504,"single_hh_r":0.2584,"source_level":"emd","flood_years":[],"landslide_hist_n":0},"geometry":{"type":"Polygon","coordinates":[[[126.86815,37.469],[126.86763,37.47333],[126.86343,37.47528],[126.85976,37.47289],[126.86028,37.46855],[126.86447,37.4666],[126.86815,37.469]]]}},{"type":"Feature","properties":{"h3":"8830e0ad9dfffff","emd_code":"4121058000","emd_name":"광명7동","area_km2":0.5054,"edge":false,"slope_mean":14.44,"elev_mean":66.2,"flood_hist_n":0,"flood_depth_max_m":null,"flood_risk_100y":null,"semi_basement_r":null,"elderly_alone_r":0.0879,"bldg_age30_r":null,"shelter_min_walk":8,"pop":25197,"hh":10373,"elderly65_r":0.19,"single_hh_r":0.2643,"source_level":"emd","flood_years":[],"landslide_hist_n":0},"geometry":{"type":"Polygon","coordinates":[[[126.85713,37.46182],[126.85661,37.46616],[126.85241,37.46811],[126.84874,37.46572],[126.84926,37.46138],[126.85346,37.45943],[126.85713,37.46182]]]}},{"type":"Feature","properties":{"h3":"8830e0ada1fffff","emd_code":"4121066000","emd_name":"학온동","area_km2":0.5051,"edge":false,"slope_mean":2.09,"elev_mean":19.1,"flood_hist_n":1,"flood_depth_max_m":0.67,"flood_risk_100y":null,"semi_basement_r":null,"elderly_alone_r":0.2345,"bldg_age30_r":null,"shelter_min_walk":8,"pop":1620,"hh":857,"elderly65_r":0.4198,"single_hh_r":0.4924,"source_level":"emd","flood_years":[2012],"landslide_hist_n":0},"geometry":{"type":"Polygon","coordinates":[[[126.84454,37.43492],[126.84401,37.43926],[126.83982,37.4412],[126.83615,37.43881],[126.83668,37.43448],[126.84087,37.43253],[126.84454,37.43492]]]}},{"type":"Feature","properties":{"h3":"8830e0ada3fffff","emd_code":"4121066000","emd_name":"학온동","area_km2":0.5052,"edge":false,"slope_mean":7.71,"elev_mean":37.3,"flood_hist_n":0,"flood_depth_max_m":null,"flood_risk_100y":null,"semi_basement_r":null,"elderly_alone_r":0.2345,"bldg_age30_r":null,"shelter_min_walk":3,"pop":1620,"hh":857,"elderly65_r":0.4198,"single_hh_r":0.4924,"source_level":"emd","flood_years":[],"landslide_hist_n":0},"geometry":{"type":"Polygon","coordinates":[[[126.8524,37.43536],[126.85188,37.4397],[126.84768,37.44165],[126.84401,37.43926],[126.84454,37.43492],[126.84873,37.43297],[126.8524,37.43536]]]}},{"type":"Feature","properties":{"h3":"8830e0ada5fffff","emd_code":"4121066000","emd_name":"학온동","area_km2":0.505,"edge":true,"slope_mean":3.96,"elev_mean":27.3,"flood_hist_n":0,"flood_depth_max_m":null,"flood_risk_100y":null,"semi_basement_r":null,"elderly_alone_r":0.2345,"bldg_age30_r":null,"shelter_min_walk":15,"pop":1620,"hh":857,"elderly65_r":0.4198,"single_hh_r":0.4924,"source_level":"emd","flood_years":[],"landslide_hist_n":0},"geometry":{"type":"Polygon","coordinates":[[[126.84139,37.4282],[126.84087,37.43253],[126.83668,37.43448],[126.83301,37.43209],[126.83353,37.42775],[126.83772,37.42581],[126.84139,37.4282]]]}},{"type":"Feature","properties":{"h3":"8830e0ada7fffff","emd_code":"4121066000","emd_name":"학온동","area_km2":0.5052,"edge":false,"slope_mean":3.89,"elev_mean":24.4,"flood_hist_n":0,"flood_depth_max_m":null,"flood_risk_100y":null,"semi_basement_r":null,"elderly_alone_r":0.2345,"bldg_age30_r":null,"shelter_min_walk":9,"pop":1620,"hh":857,"elderly65_r":0.4198,"single_hh_r":0.4924,"source_level":"emd","flood_years":[],"landslide_hist_n":0},"geometry":{"type":"Polygon","coordinates":[[[126.84925,37.42864],[126.84873,37.43297],[126.84454,37.43492],[126.84087,37.43253],[126.84139,37.4282],[126.84558,37.42625],[126.84925,37.42864]]]}},{"type":"Feature","properties":{"h3":"8830e0ada9fffff","emd_code":"4121066000","emd_name":"학온동","area_km2":0.5051,"edge":true,"slope_mean":2.94,"elev_mean":19.5,"flood_hist_n":0,"flood_depth_max_m":null,"flood_risk_100y":null,"semi_basement_r":null,"elderly_alone_r":0.2345,"bldg_age30_r":null,"shelter_min_walk":15,"pop":1620,"hh":857,"elderly65_r":0.4198,"single_hh_r":0.4924,"source_level":"emd","flood_years":[],"landslide_hist_n":0},"geometry":{"type":"Polygon","coordinates":[[[126.83982,37.4412],[126.8393,37.44554],[126.83511,37.44748],[126.83144,37.44509],[126.83196,37.44076],[126.83615,37.43881],[126.83982,37.4412]]]}},{"type":"Feature","properties":{"h3":"8830e0adabfffff","emd_code":"4121066000","emd_name":"학온동","area_km2":0.5052,"edge":false,"slope_mean":4.38,"elev_mean":25.1,"flood_hist_n":0,"flood_depth_max_m":null,"flood_risk_100y":null,"semi_basement_r":null,"elderly_alone_r":0.2345,"bldg_age30_r":null,"shelter_min_walk":5,"pop":1620,"hh":857,"elderly65_r":0.4198,"single_hh_r":0.4924,"source_level":"emd","flood_years":[],"landslide_hist_n":0},"geometry":{"type":"Polygon","coordinates":[[[126.84768,37.44165],[126.84716,37.44598],[126.84297,37.44793],[126.8393,37.44554],[126.83982,37.4412],[126.84401,37.43926],[126.84768,37.44165]]]}},{"type":"Feature","properties":{"h3":"8830e0adb1fffff","emd_code":"4121066000","emd_name":"학온동","area_km2":0.5054,"edge":false,"slope_mean":11.06,"elev_mean":64.4,"flood_hist_n":0,"flood_depth_max_m":null,"flood_risk_100y":null,"semi_basement_r":null,"elderly_alone_r":0.2345,"bldg_age30_r":null,"shelter_min_walk":16,"pop":1620,"hh":857,"elderly65_r":0.4198,"single_hh_r":0.4924,"source_level":"emd","flood_years":[],"landslide_hist_n":0},"geometry":{"type":"Polygon","coordinates":[[[126.86341,37.44253],[126.86289,37.44687],[126.8587,37.44881],[126.85502,37.44643],[126.85555,37.44209],[126.85974,37.44014],[126.86341,37.44253]]]}},{"type":"Feature","properties":{"h3":"8830e0adb3fffff","emd_code":"4121063100","emd_name":"하안1동","area_km2":0.5055,"edge":false,"slope_mean":19.72,"elev_mean":138.0,"flood_hist_n":0,"flood_depth_max_m":null,"flood_risk_100y":null,"semi_basement_r":null,"elderly_alone_r":0.107,"bldg_age30_r":null,"shelter_min_walk":19,"pop":24124,"hh":9725,"elderly65_r":0.1848,"single_hh_r":0.2913,"source_level":"emd","flood_years":[],"landslide_hist_n":0},"geometry":{"type":"Polygon","coordinates":[[[126.87127,37.44297],[126.87075,37.44731],[126.86656,37.44926],[126.86289,37.44687],[126.86341,37.44253],[126.8676,37.44058],[126.87127,37.44297]]]}},{"type":"Feature","properties":{"h3":"8830e0adb5fffff","emd_code":"4121066000","emd_name":"학온동","area_km2":0.5053,"edge":false,"slope_mean":12.03,"elev_mean":57.2,"flood_hist_n":0,"flood_depth_max_m":null,"flood_risk_100y":null,"semi_basement_r":null,"elderly_alone_r":0.2345,"bldg_age30_r":null,"shelter_min_walk":13,"pop":1620,"hh":857,"elderly65_r":0.4198,"single_hh_r":0.4924,"source_level":"emd","flood_years":[],"landslide_hist_n":0},"geometry":{"type":"Polygon","coordinates":[[[126.86026,37.43581],[126.85974,37.44014],[126.85555,37.44209],[126.85188,37.4397],[126.8524,37.43536],[126.85659,37.43342],[126.86026,37.43581]]]}},{"type":"Feature","properties":{"h3":"8830e0adb7fffff","emd_code":"4121066000","emd_name":"학온동","area_km2":0.5054,"edge":false,"slope_mean":16.22,"elev_mean":112.3,"flood_hist_n":0,"flood_depth_max_m":null,"flood_risk_100y":null,"semi_basement_r":null,"elderly_alone_r":0.2345,"bldg_age30_r":null,"shelter_min_walk":17,"pop":1620,"hh":857,"elderly65_r":0.4198,"single_hh_r":0.4924,"source_level":"emd","flood_years":[],"landslide_hist_n":0},"geometry":{"type":"Polygon","coordinates":[[[126.86812,37.43625],[126.8676,37.44058],[126.86341,37.44253],[126.85974,37.44014],[126.86026,37.43581],[126.86445,37.43386],[126.86812,37.43625]]]}},{"type":"Feature","properties":{"h3":"8830e0adb9fffff","emd_code":"4121066000","emd_name":"학온동","area_km2":0.5053,"edge":false,"slope_mean":11.06,"elev_mean":55.6,"flood_hist_n":0,"flood_depth_max_m":null,"flood_risk_100y":null,"semi_basement_r":null,"elderly_alone_r":0.2345,"bldg_age30_r":null,"shelter_min_walk":17,"pop":1620,"hh":857,"elderly65_r":0.4198,"single_hh_r":0.4924,"source_level":"emd","flood_years":[],"landslide_hist_n":0},"geometry":{"type":"Polygon","coordinates":[[[126.8587,37.44881],[126.85817,37.45315],[126.85398,37.4551],[126.85031,37.45271],[126.85083,37.44837],[126.85502,37.44643],[126.8587,37.44881]]]}},{"type":"Feature","properties":{"h3":"8830e0adbbfffff","emd_code":"4121063100","emd_name":"하안1동","area_km2":0.5055,"edge":false,"slope_mean":8.97,"elev_mean":47.0,"flood_hist_n":0,"flood_depth_max_m":null,"flood_risk_100y":null,"semi_basement_r":null,"elderly_alone_r":0.107,"bldg_age30_r":null,"shelter_min_walk":23,"pop":24124,"hh":9725,"elderly65_r":0.1848,"single_hh_r":0.2913,"source_level":"emd","flood_years":[],"landslide_hist_n":0},"geometry":{"type":"Polygon","coordinates":[[[126.86656,37.44926],[126.86604,37.45359],[126.86185,37.45554],[126.85817,37.45315],[126.8587,37.44881],[126.86289,37.44687],[126.86656,37.44926]]]}},{"type":"Feature","properties":{"h3":"8830e0adbdfffff","emd_code":"4121066000","emd_name":"학온동","area_km2":0.5053,"edge":false,"slope_mean":11.21,"elev_mean":44.4,"flood_hist_n":0,"flood_depth_max_m":null,"flood_risk_100y":null,"semi_basement_r":null,"elderly_alone_r":0.2345,"bldg_age30_r":null,"shelter_min_walk":6,"pop":1620,"hh":857,"elderly65_r":0.4198,"single_hh_r":0.4924,"source_level":"emd","flood_years":[],"landslide_hist_n":0},"geometry":{"type":"Polygon","coordinates":[[[126.85555,37.44209],[126.85502,37.44643],[126.85083,37.44837],[126.84716,37.44598],[126.84768,37.44165],[126.85188,37.4397],[126.85555,37.44209]]]}},{"type":"Feature","properties":{"h3":"8830e0adc3fffff","emd_code":"4121057000","emd_name":"광명6동","area_km2":0.5051,"edge":true,"slope_mean":9.39,"elev_mean":31.2,"flood_hist_n":0,"flood_depth_max_m":null,"flood_risk_100y":null,"semi_basement_r":null,"elderly_alone_r":0.1059,"bldg_age30_r":null,"shelter_min_walk":12,"pop":12395,"hh":4864,"elderly65_r":0.2071,"single_hh_r":0.2455,"source_level":"emd","flood_years":[],"landslide_hist_n":0},"geometry":{"type":"Polygon","coordinates":[[[126.83668,37.46721],[126.83616,37.47155],[126.83197,37.47349],[126.8283,37.4711],[126.82882,37.46677],[126.83301,37.46482],[126.83668,37.46721]]]}},{"type":"Feature","properties":{"h3":"8830e0adc7fffff","emd_code":"4121057000","emd_name":"광명6동","area_km2":0.505,"edge":false,"slope_mean":8.42,"elev_mean":33.1,"flood_hist_n":0,"flood_depth_max_m":null,"flood_risk_100y":null,"semi_basement_r":null,"elderly_alone_r":0.1059,"bldg_age30_r":null,"shelter_min_walk":6,"pop":12395,"hh":4864,"elderly65_r":0.2071,"single_hh_r":0.2455,"source_level":"emd","flood_years":[],"landslide_hist_n":0},"geometry":{"type":"Polygon","coordinates":[[[126.83354,37.46049],[126.83301,37.46482],[126.82882,37.46677],[126.82515,37.46438],[126.82568,37.46004],[126.82987,37.4581],[126.83354,37.46049]]]}},{"type":"Feature","properties":{"h3":"8830e0add1fffff","emd_code":"4121057000","emd_name":"광명6동","area_km2":0.5053,"edge":true,"slope_mean":4.87,"elev_mean":17.9,"flood_hist_n":0,"flood_depth_max_m":null,"flood_risk_100y":null,"semi_basement_r":null,"elderly_alone_r":0.1059,"bldg_age30_r":null,"shelter_min_walk":4,"pop":12395,"hh":4864,"elderly65_r":0.2071,"single_hh_r":0.2455,"source_level":"emd","flood_years":[],"landslide_hist_n":0},"geometry":{"type":"Polygon","coordinates":[[[126.8477,37.47439],[126.84717,37.47872],[126.84298,37.48067],[126.83931,37.47828],[126.83983,37.47394],[126.84403,37.472],[126.8477,37.47439]]]}},{"type":"Feature","properties":{"h3":"8830e0add3fffff","emd_code":"4121056000","emd_name":"광명5동","area_km2":0.5054,"edge":false,"slope_mean":4.75,"elev_mean":19.6,"flood_hist_n":2,"flood_depth_max_m":0.65,"flood_risk_100y":null,"semi_basement_r":null,"elderly_alone_r":0.1555,"bldg_age30_r":null,"shelter_min_walk":3,"pop":11271,"hh":5049,"elderly65_r":0.2585,"single_hh_r":0.3498,"source_level":"emd","flood_years":[2013,2020],"landslide_hist_n":0},"geometry":{"type":"Polygon","coordinates":[[[126.85556,37.47483],[126.85504,37.47917],[126.85085,37.48111],[126.84717,37.47872],[126.8477,37.47439],[126.85189,37.47244],[126.85556,37.47483]]]}},{"type":"Feature","properties":{"h3":"8830e0add5fffff","emd_code":"4121057000","emd_name":"광명6동","area_km2":0.5052,"edge":false,"slope_mean":4.61,"elev_mean":18.5,"flood_hist_n":1,"flood_depth_max_m":0.6,"flood_risk_100y":null,"semi_basement_r":null,"elderly_alone_r":0.1059,"bldg_age30_r":null,"shelter_min_walk":9,"pop":12395,"hh":4864,"elderly65_r":0.2071,"single_hh_r":0.2455,"source_level":"emd","flood_years":[2012],"landslide_hist_n":0},"geometry":{"type":"Polygon","coordinates":[[[126.84455,37.46766],[126.84403,37.472],[126.83983,37.47394],[126.83616,37.47155],[126.83668,37.46721],[126.84088,37.46527],[126.84455,37.46766]]]}},{"type":"Feature","properties":{"h3":"8830e0add7fffff","emd_code":"4121057000","emd_name":"광명6동","area_km2":0.5053,"edge":false,"slope_mean":5.06,"elev_mean":19.8,"flood_hist_n":1,"flood_depth_max_m":0.313,"flood_risk_100y":null,"semi_basement_r":null,"elderly_alone_r":0.1059,"bldg_age30_r":null,"shelter_min_walk":1,"pop":12395,"hh":4864,"elderly65_r":0.2071,"single_hh_r":0.2455,"source_level":"emd","flood_years":[2020],"landslide_hist_n":0},"geometry":{"type":"Polygon","coordinates":[[[126.85241,37.46811],[126.85189,37.47244],[126.8477,37.47439],[126.84403,37.472],[126.84455,37.46766],[126.84874,37.46572],[126.85241,37.46811]]]}},{"type":"Feature","properties":{"h3":"8830e0addbfffff","emd_code":"4121054000","emd_name":"광명3동","area_km2":0.5053,"edge":true,"slope_mean":12.31,"elev_mean":40.9,"flood_hist_n":0,"flood_depth_max_m":null,"flood_risk_100y":null,"semi_basement_r":null,"elderly_alone_r":0.2171,"bldg_age30_r":null,"shelter_min_walk":10,"pop":8873,"hh":4702,"elderly65_r":0.3268,"single_hh_r":0.4921,"source_level":"emd","flood_years":[],"landslide_hist_n":0},"geometry":{"type":"Polygon","coordinates":[[[126.85085,37.48111],[126.85032,37.48545],[126.84613,37.4874],[126.84246,37.485],[126.84298,37.48067],[126.84717,37.47872],[126.85085,37.48111]]]}},{"type":"Feature","properties":{"h3":"8830e0adddfffff","emd_code":"4121057000","emd_name":"광명6동","area_km2":0.5052,"edge":true,"slope_mean":11.55,"elev_mean":45.0,"flood_hist_n":0,"flood_depth_max_m":null,"flood_risk_100y":null,"semi_basement_r":null,"elderly_alone_r":0.1059,"bldg_age30_r":null,"shelter_min_walk":14,"pop":12395,"hh":4864,"elderly65_r":0.2071,"single_hh_r":0.2455,"source_level":"emd","flood_years":[],"landslide_hist_n":0},"geometry":{"type":"Polygon","coordinates":[[[126.83983,37.47394],[126.83931,37.47828],[126.83511,37.48022],[126.83144,37.47783],[126.83197,37.47349],[126.83616,37.47155],[126.83983,37.47394]]]}},{"type":"Feature","properties":{"h3":"8830e0adebfffff","emd_code":"4121057000","emd_name":"광명6동","area_km2":0.505,"edge":true,"slope_mean":12.4,"elev_mean":49.5,"flood_hist_n":0,"flood_depth_max_m":null,"flood_risk_100y":null,"semi_basement_r":null,"elderly_alone_r":0.1059,"bldg_age30_r":null,"shelter_min_walk":10,"pop":12395,"hh":4864,"elderly65_r":0.2071,"single_hh_r":0.2455,"source_level":"emd","flood_years":[],"landslide_hist_n":0},"geometry":{"type":"Polygon","coordinates":[[[126.83039,37.45376],[126.82987,37.4581],[126.82568,37.46004],[126.82201,37.45765],[126.82253,37.45332],[126.82672,37.45137],[126.83039,37.45376]]]}}]}