{"type":"FeatureCollection","name":"grid_41287_h3r8","meta":{"sgg_code":"41287","h3_res":8,"n_cells":111,"dem":"Copernicus GLO-30 (bbox-mean)","crs":"EPSG:4326","jumin_basis":"2026-07","flood_src":"행안부 침수흔적도(전국, 재난안전데이터공유플랫폼)","landslide_src":"행안부 산사태 발생이력"},"features":[{"type":"Feature","properties":{"h3":"8830e0a293fffff","emd_code":"4128758000","emd_name":"송포동","area_km2":0.5042,"edge":true,"slope_mean":0.21,"elev_mean":2.2,"flood_hist_n":0,"flood_depth_max_m":null,"flood_risk_100y":null,"semi_basement_r":null,"elderly_alone_r":0.0776,"bldg_age30_r":null,"shelter_min_walk":31,"pop":19811,"hh":7883,"elderly65_r":0.1827,"single_hh_r":0.2372,"source_level":"emd","flood_years":[],"landslide_hist_n":0},"geometry":{"type":"Polygon","coordinates":[[[126.74063,37.63842],[126.7401,37.64276],[126.7359,37.64469],[126.73223,37.64229],[126.73276,37.63796],[126.73696,37.63602],[126.74063,37.63842]]]}},{"type":"Feature","properties":{"h3":"8830e0a299fffff","emd_code":"4128758000","emd_name":"송포동","area_km2":0.5041,"edge":true,"slope_mean":0.15,"elev_mean":2.1,"flood_hist_n":0,"flood_depth_max_m":null,"flood_risk_100y":null,"semi_basement_r":null,"elderly_alone_r":0.0776,"bldg_age30_r":null,"shelter_min_walk":28,"pop":19811,"hh":7883,"elderly65_r":0.1827,"single_hh_r":0.2372,"source_level":"emd","flood_years":[],"landslide_hist_n":0},"geometry":{"type":"Polygon","coordinates":[[[126.72803,37.64422],[126.7275,37.64856],[126.7233,37.65049],[126.71964,37.64809],[126.72017,37.64376],[126.72437,37.64182],[126.72803,37.64422]]]}},{"type":"Feature","properties":{"h3":"8830e0a29bfffff","emd_code":"4128758000","emd_name":"송포동","area_km2":0.5042,"edge":false,"slope_mean":0.78,"elev_mean":3.2,"flood_hist_n":0,"flood_depth_max_m":null,"flood_risk_100y":null,"semi_basement_r":null,"elderly_alone_r":0.0776,"bldg_age30_r":null,"shelter_min_walk":33,"pop":19811,"hh":7883,"elderly65_r":0.1827,"single_hh_r":0.2372,"source_level":"emd","flood_years":[],"landslide_hist_n":0},"geometry":{"type":"Polygon","coordinates":[[[126.7359,37.64469],[126.73537,37.64902],[126.73117,37.65096],[126.7275,37.64856],[126.72803,37.64422],[126.73223,37.64229],[126.7359,37.64469]]]}},{"type":"Feature","properties":{"h3":"8830e0a2d1fffff","emd_code":"4128758000","emd_name":"송포동","area_km2":0.5039,"edge":true,"slope_mean":0.06,"elev_mean":1.5,"flood_hist_n":0,"flood_depth_max_m":null,"flood_risk_100y":null,"semi_basement_r":null,"elderly_alone_r":0.0776,"bldg_age30_r":null,"shelter_min_walk":26,"pop":19811,"hh":7883,"elderly65_r":0.1827,"single_hh_r":0.2372,"source_level":"emd","flood_years":[],"landslide_hist_n":0},"geometry":{"type":"Polygon","coordinates":[[[126.71544,37.65002],[126.7149,37.65435],[126.71071,37.65629],[126.70704,37.65389],[126.70757,37.64955],[126.71177,37.64762],[126.71544,37.65002]]]}},{"type":"Feature","properties":{"h3":"8830e0a2d3fffff","emd_code":"4128758000","emd_name":"송포동","area_km2":0.504,"edge":false,"slope_mean":0.43,"elev_mean":2.0,"flood_hist_n":0,"flood_depth_max_m":null,"flood_risk_100y":null,"semi_basement_r":null,"elderly_alone_r":0.0776,"bldg_age30_r":null,"shelter_min_walk":32,"pop":19811,"hh":7883,"elderly65_r":0.1827,"single_hh_r":0.2372,"source_level":"emd","flood_years":[],"landslide_hist_n":0},"geometry":{"type":"Polygon","coordinates":[[[126.7233,37.65049],[126.72277,37.65482],[126.71857,37.65675],[126.7149,37.65435],[126.71544,37.65002],[126.71964,37.64809],[126.7233,37.65049]]]}},{"type":"Feature","properties":{"h3":"8830e0a2d9fffff","emd_code":"4128758000","emd_name":"송포동","area_km2":0.5039,"edge":false,"slope_mean":0.14,"elev_mean":1.5,"flood_hist_n":0,"flood_depth_max_m":null,"flood_risk_100y":null,"semi_basement_r":null,"elderly_alone_r":0.0776,"bldg_age30_r":null,"shelter_min_walk":22,"pop":19811,"hh":7883,"elderly65_r":0.1827,"single_hh_r":0.2372,"source_level":"emd","flood_years":[],"landslide_hist_n":0},"geometry":{"type":"Polygon","coordinates":[[[126.71071,37.65629],[126.71017,37.66062],[126.70597,37.66255],[126.70231,37.66015],[126.70284,37.65582],[126.70704,37.65389],[126.71071,37.65629]]]}},{"type":"Feature","properties":{"h3":"8830e0a2dbfffff","emd_code":"4128758000","emd_name":"송포동","area_km2":0.504,"edge":false,"slope_mean":1.2,"elev_mean":3.0,"flood_hist_n":0,"flood_depth_max_m":null,"flood_risk_100y":null,"semi_basement_r":null,"elderly_alone_r":0.0776,"bldg_age30_r":null,"shelter_min_walk":28,"pop":19811,"hh":7883,"elderly65_r":0.1827,"single_hh_r":0.2372,"source_level":"emd","flood_years":[],"landslide_hist_n":0},"geometry":{"type":"Polygon","coordinates":[[[126.71857,37.65675],[126.71804,37.66109],[126.71384,37.66302],[126.71017,37.66062],[126.71071,37.65629],[126.7149,37.65435],[126.71857,37.65675]]]}},{"type":"Feature","properties":{"h3":"8830e0a60dfffff","emd_code":"4128752000","emd_name":"일산2동","area_km2":0.5049,"edge":true,"slope_mean":5.52,"elev_mean":27.8,"flood_hist_n":0,"flood_depth_max_m":null,"flood_risk_100y":null,"semi_basement_r":null,"elderly_alone_r":0.1492,"bldg_age30_r":null,"shelter_min_walk":2,"pop":18420,"hh":8380,"elderly65_r":0.2477,"single_hh_r":0.3659,"source_level":"emd","flood_years":[],"landslide_hist_n":0},"geometry":{"type":"Polygon","coordinates":[[[126.78312,37.68022],[126.78259,37.68455],[126.77839,37.68649],[126.77471,37.68409],[126.77524,37.67975],[126.77944,37.67782],[126.78312,37.68022]]]}},{"type":"Feature","properties":{"h3":"8830e0a641fffff","emd_code":"4128754500","emd_name":"탄현1동","area_km2":0.5048,"edge":false,"slope_mean":5.61,"elev_mean":31.8,"flood_hist_n":0,"flood_depth_max_m":null,"flood_risk_100y":null,"semi_basement_r":null,"elderly_alone_r":0.0909,"bldg_age30_r":null,"shelter_min_walk":2,"pop":28829,"hh":12306,"elderly65_r":0.1703,"single_hh_r":0.3295,"source_level":"emd","flood_years":[],"landslide_hist_n":0},"geometry":{"type":"Polygon","coordinates":[[[126.77365,37.69276],[126.77313,37.69709],[126.76892,37.69903],[126.76525,37.69663],[126.76577,37.69229],[126.76998,37.69036],[126.77365,37.69276]]]}},{"type":"Feature","properties":{"h3":"8830e0a643fffff","emd_code":"4128754600","emd_name":"탄현2동","area_km2":0.5049,"edge":false,"slope_mean":7.23,"elev_mean":45.2,"flood_hist_n":0,"flood_depth_max_m":null,"flood_risk_100y":null,"semi_basement_r":null,"elderly_alone_r":0.0902,"bldg_age30_r":null,"shelter_min_walk":4,"pop":18282,"hh":7142,"elderly65_r":0.1762,"single_hh_r":0.2408,"source_level":"emd","flood_years":[],"landslide_hist_n":0},"geometry":{"type":"Polygon","coordinates":[[[126.78153,37.69322],[126.78101,37.69756],[126.7768,37.69949],[126.77313,37.69709],[126.77365,37.69276],[126.77786,37.69082],[126.78153,37.69322]]]}},{"type":"Feature","properties":{"h3":"8830e0a645fffff","emd_code":"4128751000","emd_name":"일산1동","area_km2":0.5048,"edge":false,"slope_mean":5.02,"elev_mean":22.7,"flood_hist_n":0,"flood_depth_max_m":null,"flood_risk_100y":null,"semi_basement_r":null,"elderly_alone_r":0.1102,"bldg_age30_r":null,"shelter_min_walk":2,"pop":24384,"hh":9877,"elderly65_r":0.2303,"single_hh_r":0.2555,"source_level":"emd","flood_years":[],"landslide_hist_n":0},"geometry":{"type":"Polygon","coordinates":[[[126.77051,37.68602],[126.76998,37.69036],[126.76577,37.69229],[126.7621,37.68989],[126.76263,37.68556],[126.76683,37.68362],[126.77051,37.68602]]]}},{"type":"Feature","properties":{"h3":"8830e0a647fffff","emd_code":"4128752000","emd_name":"일산2동","area_km2":0.5049,"edge":false,"slope_mean":4.61,"elev_mean":30.9,"flood_hist_n":0,"flood_depth_max_m":null,"flood_risk_100y":null,"semi_basement_r":null,"elderly_alone_r":0.1492,"bldg_age30_r":null,"shelter_min_walk":3,"pop":18420,"hh":8380,"elderly65_r":0.2477,"single_hh_r":0.3659,"source_level":"emd","flood_years":[],"landslide_hist_n":0},"geometry":{"type":"Polygon","coordinates":[[[126.77839,37.68649],[126.77786,37.69082],[126.77365,37.69276],[126.76998,37.69036],[126.77051,37.68602],[126.77471,37.68409],[126.77839,37.68649]]]}},{"type":"Feature","properties":{"h3":"8830e0a649fffff","emd_code":"4128754600","emd_name":"탄현2동","area_km2":0.5048,"edge":false,"slope_mean":5.37,"elev_mean":31.3,"flood_hist_n":0,"flood_depth_max_m":null,"flood_risk_100y":null,"semi_basement_r":null,"elderly_alone_r":0.0902,"bldg_age30_r":null,"shelter_min_walk":3,"pop":18282,"hh":7142,"elderly65_r":0.1762,"single_hh_r":0.2408,"source_level":"emd","flood_years":[],"landslide_hist_n":0},"geometry":{"type":"Polygon","coordinates":[[[126.76892,37.69903],[126.76839,37.70336],[126.76419,37.70529],[126.76051,37.70289],[126.76104,37.69856],[126.76525,37.69663],[126.76892,37.69903]]]}},{"type":"Feature","properties":{"h3":"8830e0a64bfffff","emd_code":"4128754600","emd_name":"탄현2동","area_km2":0.5049,"edge":false,"slope_mean":11.19,"elev_mean":62.7,"flood_hist_n":0,"flood_depth_max_m":null,"flood_risk_100y":null,"semi_basement_r":null,"elderly_alone_r":0.0902,"bldg_age30_r":null,"shelter_min_walk":7,"pop":18282,"hh":7142,"elderly65_r":0.1762,"single_hh_r":0.2408,"source_level":"emd","flood_years":[],"landslide_hist_n":0},"geometry":{"type":"Polygon","coordinates":[[[126.7768,37.69949],[126.77627,37.70383],[126.77207,37.70576],[126.76839,37.70336],[126.76892,37.69903],[126.77313,37.69709],[126.7768,37.69949]]]}},{"type":"Feature","properties":{"h3":"8830e0a64dfffff","emd_code":"4128754500","emd_name":"탄현1동","area_km2":0.5047,"edge":false,"slope_mean":4.7,"elev_mean":21.5,"flood_hist_n":0,"flood_depth_max_m":null,"flood_risk_100y":null,"semi_basement_r":null,"elderly_alone_r":0.0909,"bldg_age30_r":null,"shelter_min_walk":3,"pop":28829,"hh":12306,"elderly65_r":0.1703,"single_hh_r":0.3295,"source_level":"emd","flood_years":[],"landslide_hist_n":0},"geometry":{"type":"Polygon","coordinates":[[[126.76577,37.69229],[126.76525,37.69663],[126.76104,37.69856],[126.75737,37.69616],[126.7579,37.69182],[126.7621,37.68989],[126.76577,37.69229]]]}},{"type":"Feature","properties":{"h3":"8830e0a65dfffff","emd_code":"4128754600","emd_name":"탄현2동","area_km2":0.505,"edge":true,"slope_mean":11.07,"elev_mean":56.2,"flood_hist_n":0,"flood_depth_max_m":null,"flood_risk_100y":null,"semi_basement_r":null,"elderly_alone_r":0.0902,"bldg_age30_r":null,"shelter_min_walk":9,"pop":18282,"hh":7142,"elderly65_r":0.1762,"single_hh_r":0.2408,"source_level":"emd","flood_years":[],"landslide_hist_n":0},"geometry":{"type":"Polygon","coordinates":[[[126.78468,37.69996],[126.78416,37.7043],[126.77995,37.70623],[126.77627,37.70383],[126.7768,37.69949],[126.78101,37.69756],[126.78468,37.69996]]]}},{"type":"Feature","properties":{"h3":"8830e0a661fffff","emd_code":"4128755000","emd_name":"주엽1동","area_km2":0.5047,"edge":false,"slope_mean":5.73,"elev_mean":18.4,"flood_hist_n":0,"flood_depth_max_m":null,"flood_risk_100y":null,"semi_basement_r":null,"elderly_alone_r":0.1232,"bldg_age30_r":null,"shelter_min_walk":2,"pop":25688,"hh":10914,"elderly65_r":0.2229,"single_hh_r":0.3134,"source_level":"emd","flood_years":[],"landslide_hist_n":0},"geometry":{"type":"Polygon","coordinates":[[[126.77209,37.67302],[126.77156,37.67735],[126.76736,37.67929],[126.76369,37.67689],[126.76422,37.67255],[126.76842,37.67062],[126.77209,37.67302]]]}},{"type":"Feature","properties":{"h3":"8830e0a663fffff","emd_code":"4128753000","emd_name":"일산3동","area_km2":0.5049,"edge":true,"slope_mean":4.12,"elev_mean":21.5,"flood_hist_n":0,"flood_depth_max_m":null,"flood_risk_100y":null,"semi_basement_r":null,"elderly_alone_r":0.0722,"bldg_age30_r":null,"shelter_min_walk":1,"pop":32889,"hh":11954,"elderly65_r":0.1487,"single_hh_r":0.179,"source_level":"emd","flood_years":[],"landslide_hist_n":0},"geometry":{"type":"Polygon","coordinates":[[[126.77997,37.67348],[126.77944,37.67782],[126.77524,37.67975],[126.77156,37.67735],[126.77209,37.67302],[126.7763,37.67108],[126.77997,37.67348]]]}},{"type":"Feature","properties":{"h3":"8830e0a665fffff","emd_code":"4128755000","emd_name":"주엽1동","area_km2":0.5047,"edge":false,"slope_mean":5.85,"elev_mean":15.3,"flood_hist_n":0,"flood_depth_max_m":null,"flood_risk_100y":null,"semi_basement_r":null,"elderly_alone_r":0.1232,"bldg_age30_r":null,"shelter_min_walk":1,"pop":25688,"hh":10914,"elderly65_r":0.2229,"single_hh_r":0.3134,"source_level":"emd","flood_years":[],"landslide_hist_n":0},"geometry":{"type":"Polygon","coordinates":[[[126.76895,37.66628],[126.76842,37.67062],[126.76422,37.67255],[126.76054,37.67015],[126.76107,37.66582],[126.76527,37.66388],[126.76895,37.66628]]]}},{"type":"Feature","properties":{"h3":"8830e0a667fffff","emd_code":"4128755000","emd_name":"주엽1동","area_km2":0.5048,"edge":true,"slope_mean":3.79,"elev_mean":18.9,"flood_hist_n":0,"flood_depth_max_m":null,"flood_risk_100y":null,"semi_basement_r":null,"elderly_alone_r":0.1232,"bldg_age30_r":null,"shelter_min_walk":1,"pop":25688,"hh":10914,"elderly65_r":0.2229,"single_hh_r":0.3134,"source_level":"emd","flood_years":[],"landslide_hist_n":0},"geometry":{"type":"Polygon","coordinates":[[[126.77682,37.66675],[126.7763,37.67108],[126.77209,37.67302],[126.76842,37.67062],[126.76895,37.66628],[126.77315,37.66435],[126.77682,37.66675]]]}},{"type":"Feature","properties":{"h3":"8830e0a669fffff","emd_code":"4128753000","emd_name":"일산3동","area_km2":0.5047,"edge":false,"slope_mean":4.84,"elev_mean":18.2,"flood_hist_n":0,"flood_depth_max_m":null,"flood_risk_100y":null,"semi_basement_r":null,"elderly_alone_r":0.0722,"bldg_age30_r":null,"shelter_min_walk":2,"pop":32889,"hh":11954,"elderly65_r":0.1487,"single_hh_r":0.179,"source_level":"emd","flood_years":[],"landslide_hist_n":0},"geometry":{"type":"Polygon","coordinates":[[[126.76736,37.67929],[126.76683,37.68362],[126.76263,37.68556],[126.75895,37.68316],[126.75948,37.67882],[126.76369,37.67689],[126.76736,37.67929]]]}},{"type":"Feature","properties":{"h3":"8830e0a66bfffff","emd_code":"4128752000","emd_name":"일산2동","area_km2":0.5048,"edge":false,"slope_mean":4.65,"elev_mean":21.5,"flood_hist_n":0,"flood_depth_max_m":null,"flood_risk_100y":null,"semi_basement_r":null,"elderly_alone_r":0.1492,"bldg_age30_r":null,"shelter_min_walk":3,"pop":18420,"hh":8380,"elderly65_r":0.2477,"single_hh_r":0.3659,"source_level":"emd","flood_years":[],"landslide_hist_n":0},"geometry":{"type":"Polygon","coordinates":[[[126.77524,37.67975],[126.77471,37.68409],[126.77051,37.68602],[126.76683,37.68362],[126.76736,37.67929],[126.77156,37.67735],[126.77524,37.67975]]]}},{"type":"Feature","properties":{"h3":"8830e0a66dfffff","emd_code":"4128756000","emd_name":"주엽2동","area_km2":0.5046,"edge":false,"slope_mean":5.47,"elev_mean":16.2,"flood_hist_n":0,"flood_depth_max_m":null,"flood_risk_100y":null,"semi_basement_r":null,"elderly_alone_r":0.1508,"bldg_age30_r":null,"shelter_min_walk":3,"pop":26150,"hh":11286,"elderly65_r":0.2301,"single_hh_r":0.3306,"source_level":"emd","flood_years":[],"landslide_hist_n":0},"geometry":{"type":"Polygon","coordinates":[[[126.76422,37.67255],[126.76369,37.67689],[126.75948,37.67882],[126.75581,37.67642],[126.75634,37.67209],[126.76054,37.67015],[126.76422,37.67255]]]}},{"type":"Feature","properties":{"h3":"8830e0a745fffff","emd_code":"4128758000","emd_name":"송포동","area_km2":0.5043,"edge":true,"slope_mean":0.92,"elev_mean":3.8,"flood_hist_n":0,"flood_depth_max_m":null,"flood_risk_100y":null,"semi_basement_r":null,"elderly_alone_r":0.0776,"bldg_age30_r":null,"shelter_min_walk":32,"pop":19811,"hh":7883,"elderly65_r":0.1827,"single_hh_r":0.2372,"source_level":"emd","flood_years":[],"landslide_hist_n":0},"geometry":{"type":"Polygon","coordinates":[[[126.7485,37.63889],[126.74797,37.64322],[126.74377,37.64515],[126.7401,37.64276],[126.74063,37.63842],[126.74483,37.63649],[126.7485,37.63889]]]}},{"type":"Feature","properties":{"h3":"8830e0a749fffff","emd_code":"4128758000","emd_name":"송포동","area_km2":0.5043,"edge":true,"slope_mean":2.35,"elev_mean":6.3,"flood_hist_n":0,"flood_depth_max_m":null,"flood_risk_100y":null,"semi_basement_r":null,"elderly_alone_r":0.0776,"bldg_age30_r":null,"shelter_min_walk":15,"pop":19811,"hh":7883,"elderly65_r":0.1827,"single_hh_r":0.2372,"source_level":"emd","flood_years":[],"landslide_hist_n":0},"geometry":{"type":"Polygon","coordinates":[[[126.74691,37.65189],[126.74638,37.65622],[126.74218,37.65815],[126.73851,37.65575],[126.73904,37.65142],[126.74324,37.64949],[126.74691,37.65189]]]}},{"type":"Feature","properties":{"h3":"8830e0a74dfffff","emd_code":"4128758000","emd_name":"송포동","area_km2":0.5043,"edge":false,"slope_mean":2.59,"elev_mean":6.2,"flood_hist_n":0,"flood_depth_max_m":null,"flood_risk_100y":null,"semi_basement_r":null,"elderly_alone_r":0.0776,"bldg_age30_r":null,"shelter_min_walk":27,"pop":19811,"hh":7883,"elderly65_r":0.1827,"single_hh_r":0.2372,"source_level":"emd","flood_years":[],"landslide_hist_n":0},"geometry":{"type":"Polygon","coordinates":[[[126.74377,37.64515],[126.74324,37.64949],[126.73904,37.65142],[126.73537,37.64902],[126.7359,37.64469],[126.7401,37.64276],[126.74377,37.64515]]]}},{"type":"Feature","properties":{"h3":"8830e0a759fffff","emd_code":"4128755000","emd_name":"주엽1동","area_km2":0.5046,"edge":true,"slope_mean":4.03,"elev_mean":11.2,"flood_hist_n":0,"flood_depth_max_m":null,"flood_risk_100y":null,"semi_basement_r":null,"elderly_alone_r":0.1232,"bldg_age30_r":null,"shelter_min_walk":4,"pop":25688,"hh":10914,"elderly65_r":0.2229,"single_hh_r":0.3134,"source_level":"emd","flood_years":[],"landslide_hist_n":0},"geometry":{"type":"Polygon","coordinates":[[[126.7658,37.65955],[126.76527,37.66388],[126.76107,37.66582],[126.7574,37.66342],[126.75793,37.65909],[126.76213,37.65715],[126.7658,37.65955]]]}},{"type":"Feature","properties":{"h3":"8830e0b425fffff","emd_code":"4128761000","emd_name":"가좌동","area_km2":0.5038,"edge":true,"slope_mean":2.69,"elev_mean":6.9,"flood_hist_n":0,"flood_depth_max_m":null,"flood_risk_100y":null,"semi_basement_r":null,"elderly_alone_r":0.0954,"bldg_age30_r":null,"shelter_min_walk":22,"pop":18007,"hh":7057,"elderly65_r":0.1948,"single_hh_r":0.2568,"source_level":"emd","flood_years":[],"landslide_hist_n":0},"geometry":{"type":"Polygon","coordinates":[[[126.69805,37.6948],[126.69751,37.69913],[126.69331,37.70106],[126.68965,37.69866],[126.69018,37.69433],[126.69438,37.6924],[126.69805,37.6948]]]}},{"type":"Feature","properties":{"h3":"8830e0b427fffff","emd_code":"4128761000","emd_name":"가좌동","area_km2":0.5039,"edge":true,"slope_mean":5.61,"elev_mean":18.2,"flood_hist_n":0,"flood_depth_max_m":null,"flood_risk_100y":null,"semi_basement_r":null,"elderly_alone_r":0.0954,"bldg_age30_r":null,"shelter_min_walk":26,"pop":18007,"hh":7057,"elderly65_r":0.1948,"single_hh_r":0.2568,"source_level":"emd","flood_years":[],"landslide_hist_n":0},"geometry":{"type":"Polygon","coordinates":[[[126.70592,37.69527],[126.70538,37.6996],[126.70118,37.70153],[126.69751,37.69913],[126.69805,37.6948],[126.70225,37.69287],[126.70592,37.69527]]]}},{"type":"Feature","properties":{"h3":"8830e0b437fffff","emd_code":"4128761000","emd_name":"가좌동","area_km2":0.5042,"edge":true,"slope_mean":8.06,"elev_mean":30.0,"flood_hist_n":0,"flood_depth_max_m":null,"flood_risk_100y":null,"semi_basement_r":null,"elderly_alone_r":0.0954,"bldg_age30_r":null,"shelter_min_walk":4,"pop":18007,"hh":7057,"elderly65_r":0.1948,"single_hh_r":0.2568,"source_level":"emd","flood_years":[],"landslide_hist_n":0},"geometry":{"type":"Polygon","coordinates":[[[126.7248,37.70295],[126.72427,37.70728],[126.72007,37.70921],[126.71639,37.70681],[126.71693,37.70248],[126.72113,37.70055],[126.7248,37.70295]]]}},{"type":"Feature","properties":{"h3":"8830e0b4a1fffff","emd_code":"4128760000","emd_name":"덕이동","area_km2":0.5046,"edge":true,"slope_mean":5.69,"elev_mean":24.5,"flood_hist_n":0,"flood_depth_max_m":null,"flood_risk_100y":null,"semi_basement_r":null,"elderly_alone_r":0.0754,"bldg_age30_r":null,"shelter_min_walk":5,"pop":30439,"hh":11832,"elderly65_r":0.1699,"single_hh_r":0.2556,"source_level":"emd","flood_years":[],"landslide_hist_n":0},"geometry":{"type":"Polygon","coordinates":[[[126.75631,37.70483],[126.75578,37.70916],[126.75157,37.71109],[126.7479,37.70869],[126.74843,37.70436],[126.75263,37.70242],[126.75631,37.70483]]]}},{"type":"Feature","properties":{"h3":"8830e0b4a3fffff","emd_code":"4128754600","emd_name":"탄현2동","area_km2":0.5047,"edge":true,"slope_mean":3.83,"elev_mean":20.9,"flood_hist_n":0,"flood_depth_max_m":null,"flood_risk_100y":null,"semi_basement_r":null,"elderly_alone_r":0.0902,"bldg_age30_r":null,"shelter_min_walk":6,"pop":18282,"hh":7142,"elderly65_r":0.1762,"single_hh_r":0.2408,"source_level":"emd","flood_years":[],"landslide_hist_n":0},"geometry":{"type":"Polygon","coordinates":[[[126.76419,37.70529],[126.76366,37.70963],[126.75945,37.71156],[126.75578,37.70916],[126.75631,37.70483],[126.76051,37.70289],[126.76419,37.70529]]]}},{"type":"Feature","properties":{"h3":"8830e0b4a5fffff","emd_code":"4128760000","emd_name":"덕이동","area_km2":0.5046,"edge":false,"slope_mean":5.29,"elev_mean":17.1,"flood_hist_n":0,"flood_depth_max_m":null,"flood_risk_100y":null,"semi_basement_r":null,"elderly_alone_r":0.0754,"bldg_age30_r":null,"shelter_min_walk":5,"pop":30439,"hh":11832,"elderly65_r":0.1699,"single_hh_r":0.2556,"source_level":"emd","flood_years":[],"landslide_hist_n":0},"geometry":{"type":"Polygon","coordinates":[[[126.75316,37.69809],[126.75263,37.70242],[126.74843,37.70436],[126.74475,37.70196],[126.74528,37.69762],[126.74949,37.69569],[126.75316,37.69809]]]}},{"type":"Feature","properties":{"h3":"8830e0b4a7fffff","emd_code":"4128760000","emd_name":"덕이동","area_km2":0.5047,"edge":false,"slope_mean":4.93,"elev_mean":28.1,"flood_hist_n":0,"flood_depth_max_m":null,"flood_risk_100y":null,"semi_basement_r":null,"elderly_alone_r":0.0754,"bldg_age30_r":null,"shelter_min_walk":2,"pop":30439,"hh":11832,"elderly65_r":0.1699,"single_hh_r":0.2556,"source_level":"emd","flood_years":[],"landslide_hist_n":0},"geometry":{"type":"Polygon","coordinates":[[[126.76104,37.69856],[126.76051,37.70289],[126.75631,37.70483],[126.75263,37.70242],[126.75316,37.69809],[126.75737,37.69616],[126.76104,37.69856]]]}},{"type":"Feature","properties":{"h3":"8830e0b4adfffff","emd_code":"4128760000","emd_name":"덕이동","area_km2":0.5045,"edge":true,"slope_mean":6.68,"elev_mean":24.9,"flood_hist_n":0,"flood_depth_max_m":null,"flood_risk_100y":null,"semi_basement_r":null,"elderly_alone_r":0.0754,"bldg_age30_r":null,"shelter_min_walk":4,"pop":30439,"hh":11832,"elderly65_r":0.1699,"single_hh_r":0.2556,"source_level":"emd","flood_years":[],"landslide_hist_n":0},"geometry":{"type":"Polygon","coordinates":[[[126.74843,37.70436],[126.7479,37.70869],[126.74369,37.71062],[126.74002,37.70822],[126.74055,37.70389],[126.74475,37.70196],[126.74843,37.70436]]]}},{"type":"Feature","properties":{"h3":"8830e0b4b5fffff","emd_code":"4128754600","emd_name":"탄현2동","area_km2":0.5048,"edge":true,"slope_mean":5.92,"elev_mean":32.9,"flood_hist_n":0,"flood_depth_max_m":null,"flood_risk_100y":null,"semi_basement_r":null,"elderly_alone_r":0.0902,"bldg_age30_r":null,"shelter_min_walk":4,"pop":18282,"hh":7142,"elderly65_r":0.1762,"single_hh_r":0.2408,"source_level":"emd","flood_years":[],"landslide_hist_n":0},"geometry":{"type":"Polygon","coordinates":[[[126.77207,37.70576],[126.77154,37.7101],[126.76733,37.71203],[126.76366,37.70963],[126.76419,37.70529],[126.76839,37.70336],[126.77207,37.70576]]]}},{"type":"Feature","properties":{"h3":"8830e0b501fffff","emd_code":"4128761000","emd_name":"가좌동","area_km2":0.5035,"edge":false,"slope_mean":0.15,"elev_mean":1.6,"flood_hist_n":0,"flood_depth_max_m":null,"flood_risk_100y":null,"semi_basement_r":null,"elderly_alone_r":0.0954,"bldg_age30_r":null,"shelter_min_walk":29,"pop":18007,"hh":7057,"elderly65_r":0.1948,"single_hh_r":0.2568,"source_level":"emd","flood_years":[],"landslide_hist_n":0},"geometry":{"type":"Polygon","coordinates":[[[126.68078,37.67413],[126.68025,37.67846],[126.67605,37.68039],[126.67238,37.67799],[126.67292,37.67366],[126.67712,37.67173],[126.68078,37.67413]]]}},{"type":"Feature","properties":{"h3":"8830e0b503fffff","emd_code":"4128761000","emd_name":"가좌동","area_km2":0.5036,"edge":false,"slope_mean":1.76,"elev_mean":4.2,"flood_hist_n":0,"flood_depth_max_m":null,"flood_risk_100y":null,"semi_basement_r":null,"elderly_alone_r":0.0954,"bldg_age30_r":null,"shelter_min_walk":23,"pop":18007,"hh":7057,"elderly65_r":0.1948,"single_hh_r":0.2568,"source_level":"emd","flood_years":[],"landslide_hist_n":0},"geometry":{"type":"Polygon","coordinates":[[[126.68865,37.6746],[126.68811,37.67893],[126.68391,37.68086],[126.68025,37.67846],[126.68078,37.67413],[126.68498,37.6722],[126.68865,37.6746]]]}},{"type":"Feature","properties":{"h3":"8830e0b507fffff","emd_code":"4128761000","emd_name":"가좌동","area_km2":0.5035,"edge":true,"slope_mean":0.05,"elev_mean":1.5,"flood_hist_n":0,"flood_depth_max_m":null,"flood_risk_100y":null,"semi_basement_r":null,"elderly_alone_r":0.0954,"bldg_age30_r":null,"shelter_min_walk":18,"pop":18007,"hh":7057,"elderly65_r":0.1948,"single_hh_r":0.2568,"source_level":"emd","flood_years":[],"landslide_hist_n":0},"geometry":{"type":"Polygon","coordinates":[[[126.68551,37.66787],[126.68498,37.6722],[126.68078,37.67413],[126.67712,37.67173],[126.67765,37.6674],[126.68185,37.66547],[126.68551,37.66787]]]}},{"type":"Feature","properties":{"h3":"8830e0b509fffff","emd_code":"4128761000","emd_name":"가좌동","area_km2":0.5034,"edge":false,"slope_mean":0.08,"elev_mean":1.6,"flood_hist_n":0,"flood_depth_max_m":null,"flood_risk_100y":null,"semi_basement_r":null,"elderly_alone_r":0.0954,"bldg_age30_r":null,"shelter_min_walk":38,"pop":18007,"hh":7057,"elderly65_r":0.1948,"single_hh_r":0.2568,"source_level":"emd","flood_years":[],"landslide_hist_n":0},"geometry":{"type":"Polygon","coordinates":[[[126.67605,37.68039],[126.67551,37.68472],[126.67131,37.68665],[126.66765,37.68425],[126.66818,37.67992],[126.67238,37.67799],[126.67605,37.68039]]]}},{"type":"Feature","properties":{"h3":"8830e0b50bfffff","emd_code":"4128761000","emd_name":"가좌동","area_km2":0.5035,"edge":false,"slope_mean":1.73,"elev_mean":4.9,"flood_hist_n":0,"flood_depth_max_m":null,"flood_risk_100y":null,"semi_basement_r":null,"elderly_alone_r":0.0954,"bldg_age30_r":null,"shelter_min_walk":28,"pop":18007,"hh":7057,"elderly65_r":0.1948,"single_hh_r":0.2568,"source_level":"emd","flood_years":[],"landslide_hist_n":0},"geometry":{"type":"Polygon","coordinates":[[[126.68391,37.68086],[126.68338,37.68519],[126.67918,37.68712],[126.67551,37.68472],[126.67605,37.68039],[126.68025,37.67846],[126.68391,37.68086]]]}},{"type":"Feature","properties":{"h3":"8830e0b50dfffff","emd_code":"4128761000","emd_name":"가좌동","area_km2":0.5034,"edge":true,"slope_mean":0.92,"elev_mean":2.5,"flood_hist_n":0,"flood_depth_max_m":null,"flood_risk_100y":null,"semi_basement_r":null,"elderly_alone_r":0.0954,"bldg_age30_r":null,"shelter_min_walk":33,"pop":18007,"hh":7057,"elderly65_r":0.1948,"single_hh_r":0.2568,"source_level":"emd","flood_years":[],"landslide_hist_n":0},"geometry":{"type":"Polygon","coordinates":[[[126.67292,37.67366],[126.67238,37.67799],[126.66818,37.67992],[126.66452,37.67752],[126.66506,37.67319],[126.66925,37.67126],[126.67292,37.67366]]]}},{"type":"Feature","properties":{"h3":"8830e0b511fffff","emd_code":"4128761000","emd_name":"가좌동","area_km2":0.5038,"edge":false,"slope_mean":1.28,"elev_mean":4.9,"flood_hist_n":0,"flood_depth_max_m":null,"flood_risk_100y":null,"semi_basement_r":null,"elderly_alone_r":0.0954,"bldg_age30_r":null,"shelter_min_walk":8,"pop":18007,"hh":7057,"elderly65_r":0.1948,"single_hh_r":0.2568,"source_level":"emd","flood_years":[],"landslide_hist_n":0},"geometry":{"type":"Polygon","coordinates":[[[126.69965,37.68181],[126.69911,37.68614],[126.69491,37.68807],[126.69125,37.68567],[126.69178,37.68134],[126.69598,37.67941],[126.69965,37.68181]]]}},{"type":"Feature","properties":{"h3":"8830e0b513fffff","emd_code":"4128761000","emd_name":"가좌동","area_km2":0.5039,"edge":false,"slope_mean":1.74,"elev_mean":6.2,"flood_hist_n":0,"flood_depth_max_m":null,"flood_risk_100y":null,"semi_basement_r":null,"elderly_alone_r":0.0954,"bldg_age30_r":null,"shelter_min_walk":5,"pop":18007,"hh":7057,"elderly65_r":0.1948,"single_hh_r":0.2568,"source_level":"emd","flood_years":[],"landslide_hist_n":0},"geometry":{"type":"Polygon","coordinates":[[[126.70751,37.68228],[126.70698,37.68661],[126.70278,37.68854],[126.69911,37.68614],[126.69965,37.68181],[126.70385,37.67988],[126.70751,37.68228]]]}},{"type":"Feature","properties":{"h3":"8830e0b515fffff","emd_code":"4128761000","emd_name":"가좌동","area_km2":0.5037,"edge":false,"slope_mean":1.29,"elev_mean":4.8,"flood_hist_n":0,"flood_depth_max_m":null,"flood_risk_100y":null,"semi_basement_r":null,"elderly_alone_r":0.0954,"bldg_age30_r":null,"shelter_min_walk":14,"pop":18007,"hh":7057,"elderly65_r":0.1948,"single_hh_r":0.2568,"source_level":"emd","flood_years":[],"landslide_hist_n":0},"geometry":{"type":"Polygon","coordinates":[[[126.69651,37.67507],[126.69598,37.67941],[126.69178,37.68134],[126.68811,37.67893],[126.68865,37.6746],[126.69284,37.67267],[126.69651,37.67507]]]}},{"type":"Feature","properties":{"h3":"8830e0b517fffff","emd_code":"4128761000","emd_name":"가좌동","area_km2":0.5038,"edge":false,"slope_mean":1.33,"elev_mean":5.1,"flood_hist_n":0,"flood_depth_max_m":null,"flood_risk_100y":null,"semi_basement_r":null,"elderly_alone_r":0.0954,"bldg_age30_r":null,"shelter_min_walk":7,"pop":18007,"hh":7057,"elderly65_r":0.1948,"single_hh_r":0.2568,"source_level":"emd","flood_years":[],"landslide_hist_n":0},"geometry":{"type":"Polygon","coordinates":[[[126.70438,37.67554],[126.70385,37.67988],[126.69965,37.68181],[126.69598,37.67941],[126.69651,37.67507],[126.70071,37.67314],[126.70438,37.67554]]]}},{"type":"Feature","properties":{"h3":"8830e0b519fffff","emd_code":"4128761000","emd_name":"가좌동","area_km2":0.5037,"edge":true,"slope_mean":1.74,"elev_mean":4.9,"flood_hist_n":0,"flood_depth_max_m":null,"flood_risk_100y":null,"semi_basement_r":null,"elderly_alone_r":0.0954,"bldg_age30_r":null,"shelter_min_walk":19,"pop":18007,"hh":7057,"elderly65_r":0.1948,"single_hh_r":0.2568,"source_level":"emd","flood_years":[],"landslide_hist_n":0},"geometry":{"type":"Polygon","coordinates":[[[126.69491,37.68807],[126.69438,37.6924],[126.69018,37.69433],[126.68651,37.69193],[126.68705,37.6876],[126.69125,37.68567],[126.69491,37.68807]]]}},{"type":"Feature","properties":{"h3":"8830e0b51bfffff","emd_code":"4128761000","emd_name":"가좌동","area_km2":0.5038,"edge":false,"slope_mean":1.74,"elev_mean":5.7,"flood_hist_n":0,"flood_depth_max_m":null,"flood_risk_100y":null,"semi_basement_r":null,"elderly_alone_r":0.0954,"bldg_age30_r":null,"shelter_min_walk":15,"pop":18007,"hh":7057,"elderly65_r":0.1948,"single_hh_r":0.2568,"source_level":"emd","flood_years":[],"landslide_hist_n":0},"geometry":{"type":"Polygon","coordinates":[[[126.70278,37.68854],[126.70225,37.69287],[126.69805,37.6948],[126.69438,37.6924],[126.69491,37.68807],[126.69911,37.68614],[126.70278,37.68854]]]}},{"type":"Feature","properties":{"h3":"8830e0b51dfffff","emd_code":"4128761000","emd_name":"가좌동","area_km2":0.5037,"edge":false,"slope_mean":1.23,"elev_mean":4.9,"flood_hist_n":0,"flood_depth_max_m":null,"flood_risk_100y":null,"semi_basement_r":null,"elderly_alone_r":0.0954,"bldg_age30_r":null,"shelter_min_walk":18,"pop":18007,"hh":7057,"elderly65_r":0.1948,"single_hh_r":0.2568,"source_level":"emd","flood_years":[],"landslide_hist_n":0},"geometry":{"type":"Polygon","coordinates":[[[126.69178,37.68134],[126.69125,37.68567],[126.68705,37.6876],[126.68338,37.68519],[126.68391,37.68086],[126.68811,37.67893],[126.69178,37.68134]]]}},{"type":"Feature","properties":{"h3":"8830e0b531fffff","emd_code":"4128758000","emd_name":"송포동","area_km2":0.5037,"edge":false,"slope_mean":0.27,"elev_mean":1.7,"flood_hist_n":0,"flood_depth_max_m":null,"flood_risk_100y":null,"semi_basement_r":null,"elderly_alone_r":0.0776,"bldg_age30_r":null,"shelter_min_walk":18,"pop":19811,"hh":7883,"elderly65_r":0.1827,"single_hh_r":0.2372,"source_level":"emd","flood_years":[],"landslide_hist_n":0},"geometry":{"type":"Polygon","coordinates":[[[126.69811,37.66208],[126.69758,37.66641],[126.69338,37.66834],[126.68971,37.66594],[126.69024,37.66161],[126.69444,37.65968],[126.69811,37.66208]]]}},{"type":"Feature","properties":{"h3":"8830e0b533fffff","emd_code":"4128758000","emd_name":"송포동","area_km2":0.5038,"edge":false,"slope_mean":1.19,"elev_mean":3.2,"flood_hist_n":0,"flood_depth_max_m":null,"flood_risk_100y":null,"semi_basement_r":null,"elderly_alone_r":0.0776,"bldg_age30_r":null,"shelter_min_walk":25,"pop":19811,"hh":7883,"elderly65_r":0.1827,"single_hh_r":0.2372,"source_level":"emd","flood_years":[],"landslide_hist_n":0},"geometry":{"type":"Polygon","coordinates":[[[126.70597,37.66255],[126.70544,37.66688],[126.70124,37.66881],[126.69758,37.66641],[126.69811,37.66208],[126.70231,37.66015],[126.70597,37.66255]]]}},{"type":"Feature","properties":{"h3":"8830e0b537fffff","emd_code":"4128758000","emd_name":"송포동","area_km2":0.5037,"edge":true,"slope_mean":1.68,"elev_mean":4.1,"flood_hist_n":0,"flood_depth_max_m":null,"flood_risk_100y":null,"semi_basement_r":null,"elderly_alone_r":0.0776,"bldg_age30_r":null,"shelter_min_walk":13,"pop":19811,"hh":7883,"elderly65_r":0.1827,"single_hh_r":0.2372,"source_level":"emd","flood_years":[],"landslide_hist_n":0},"geometry":{"type":"Polygon","coordinates":[[[126.70284,37.65582],[126.70231,37.66015],[126.69811,37.66208],[126.69444,37.65968],[126.69498,37.65535],[126.69917,37.65342],[126.70284,37.65582]]]}},{"type":"Feature","properties":{"h3":"8830e0b539fffff","emd_code":"4128761000","emd_name":"가좌동","area_km2":0.5036,"edge":false,"slope_mean":1.09,"elev_mean":3.0,"flood_hist_n":0,"flood_depth_max_m":null,"flood_risk_100y":null,"semi_basement_r":null,"elderly_alone_r":0.0954,"bldg_age30_r":null,"shelter_min_walk":21,"pop":18007,"hh":7057,"elderly65_r":0.1948,"single_hh_r":0.2568,"source_level":"emd","flood_years":[],"landslide_hist_n":0},"geometry":{"type":"Polygon","coordinates":[[[126.69338,37.66834],[126.69284,37.67267],[126.68865,37.6746],[126.68498,37.6722],[126.68551,37.66787],[126.68971,37.66594],[126.69338,37.66834]]]}},{"type":"Feature","properties":{"h3":"8830e0b53bfffff","emd_code":"4128758000","emd_name":"송포동","area_km2":0.5038,"edge":false,"slope_mean":1.81,"elev_mean":5.2,"flood_hist_n":0,"flood_depth_max_m":null,"flood_risk_100y":null,"semi_basement_r":null,"elderly_alone_r":0.0776,"bldg_age30_r":null,"shelter_min_walk":19,"pop":19811,"hh":7883,"elderly65_r":0.1827,"single_hh_r":0.2372,"source_level":"emd","flood_years":[],"landslide_hist_n":0},"geometry":{"type":"Polygon","coordinates":[[[126.70124,37.66881],[126.70071,37.67314],[126.69651,37.67507],[126.69284,37.67267],[126.69338,37.66834],[126.69758,37.66641],[126.70124,37.66881]]]}},{"type":"Feature","properties":{"h3":"8830e0b543fffff","emd_code":"4128761000","emd_name":"가좌동","area_km2":0.5034,"edge":false,"slope_mean":0.02,"elev_mean":1.5,"flood_hist_n":0,"flood_depth_max_m":null,"flood_risk_100y":null,"semi_basement_r":null,"elderly_alone_r":0.0954,"bldg_age30_r":null,"shelter_min_walk":26,"pop":18007,"hh":7057,"elderly65_r":0.1948,"single_hh_r":0.2568,"source_level":"emd","flood_years":[],"landslide_hist_n":0},"geometry":{"type":"Polygon","coordinates":[[[126.67131,37.68665],[126.67078,37.69098],[126.66658,37.69291],[126.66292,37.69051],[126.66345,37.68618],[126.66765,37.68425],[126.67131,37.68665]]]}},{"type":"Feature","properties":{"h3":"8830e0b547fffff","emd_code":"4128761000","emd_name":"가좌동","area_km2":0.5033,"edge":true,"slope_mean":0.65,"elev_mean":2.3,"flood_hist_n":0,"flood_depth_max_m":null,"flood_risk_100y":null,"semi_basement_r":null,"elderly_alone_r":0.0954,"bldg_age30_r":null,"shelter_min_walk":35,"pop":18007,"hh":7057,"elderly65_r":0.1948,"single_hh_r":0.2568,"source_level":"emd","flood_years":[],"landslide_hist_n":0},"geometry":{"type":"Polygon","coordinates":[[[126.66818,37.67992],[126.66765,37.68425],[126.66345,37.68618],[126.65979,37.68378],[126.66032,37.67945],[126.66452,37.67752],[126.66818,37.67992]]]}},{"type":"Feature","properties":{"h3":"8830e0b551fffff","emd_code":"4128761000","emd_name":"가좌동","area_km2":0.5036,"edge":false,"slope_mean":1.02,"elev_mean":4.4,"flood_hist_n":0,"flood_depth_max_m":null,"flood_risk_100y":null,"semi_basement_r":null,"elderly_alone_r":0.0954,"bldg_age30_r":null,"shelter_min_walk":24,"pop":18007,"hh":7057,"elderly65_r":0.1948,"single_hh_r":0.2568,"source_level":"emd","flood_years":[],"landslide_hist_n":0},"geometry":{"type":"Polygon","coordinates":[[[126.68231,37.69386],[126.68178,37.69819],[126.67758,37.70012],[126.67391,37.69771],[126.67445,37.69338],[126.67865,37.69145],[126.68231,37.69386]]]}},{"type":"Feature","properties":{"h3":"8830e0b553fffff","emd_code":"4128761000","emd_name":"가좌동","area_km2":0.5037,"edge":true,"slope_mean":2.47,"elev_mean":5.8,"flood_hist_n":0,"flood_depth_max_m":null,"flood_risk_100y":null,"semi_basement_r":null,"elderly_alone_r":0.0954,"bldg_age30_r":null,"shelter_min_walk":21,"pop":18007,"hh":7057,"elderly65_r":0.1948,"single_hh_r":0.2568,"source_level":"emd","flood_years":[],"landslide_hist_n":0},"geometry":{"type":"Polygon","coordinates":[[[126.69018,37.69433],[126.68965,37.69866],[126.68545,37.70059],[126.68178,37.69819],[126.68231,37.69386],[126.68651,37.69193],[126.69018,37.69433]]]}},{"type":"Feature","properties":{"h3":"8830e0b555fffff","emd_code":"4128761000","emd_name":"가좌동","area_km2":0.5035,"edge":false,"slope_mean":0.71,"elev_mean":3.5,"flood_hist_n":0,"flood_depth_max_m":null,"flood_risk_100y":null,"semi_basement_r":null,"elderly_alone_r":0.0954,"bldg_age30_r":null,"shelter_min_walk":31,"pop":18007,"hh":7057,"elderly65_r":0.1948,"single_hh_r":0.2568,"source_level":"emd","flood_years":[],"landslide_hist_n":0},"geometry":{"type":"Polygon","coordinates":[[[126.67918,37.68712],[126.67865,37.69145],[126.67445,37.69338],[126.67078,37.69098],[126.67131,37.68665],[126.67551,37.68472],[126.67918,37.68712]]]}},{"type":"Feature","properties":{"h3":"8830e0b557fffff","emd_code":"4128761000","emd_name":"가좌동","area_km2":0.5036,"edge":false,"slope_mean":2.45,"elev_mean":6.0,"flood_hist_n":0,"flood_depth_max_m":null,"flood_risk_100y":null,"semi_basement_r":null,"elderly_alone_r":0.0954,"bldg_age30_r":null,"shelter_min_walk":27,"pop":18007,"hh":7057,"elderly65_r":0.1948,"single_hh_r":0.2568,"source_level":"emd","flood_years":[],"landslide_hist_n":0},"geometry":{"type":"Polygon","coordinates":[[[126.68705,37.6876],[126.68651,37.69193],[126.68231,37.69386],[126.67865,37.69145],[126.67918,37.68712],[126.68338,37.68519],[126.68705,37.6876]]]}},{"type":"Feature","properties":{"h3":"8830e0b559fffff","emd_code":"4128761000","emd_name":"가좌동","area_km2":0.5035,"edge":true,"slope_mean":0.56,"elev_mean":2.8,"flood_hist_n":0,"flood_depth_max_m":null,"flood_risk_100y":null,"semi_basement_r":null,"elderly_alone_r":0.0954,"bldg_age30_r":null,"shelter_min_walk":20,"pop":18007,"hh":7057,"elderly65_r":0.1948,"single_hh_r":0.2568,"source_level":"emd","flood_years":[],"landslide_hist_n":0},"geometry":{"type":"Polygon","coordinates":[[[126.67758,37.70012],[126.67704,37.70445],[126.67284,37.70638],[126.66918,37.70397],[126.66971,37.69964],[126.67391,37.69771],[126.67758,37.70012]]]}},{"type":"Feature","properties":{"h3":"8830e0b55dfffff","emd_code":"4128761000","emd_name":"가좌동","area_km2":0.5034,"edge":true,"slope_mean":0.46,"elev_mean":2.4,"flood_hist_n":0,"flood_depth_max_m":null,"flood_risk_100y":null,"semi_basement_r":null,"elderly_alone_r":0.0954,"bldg_age30_r":null,"shelter_min_walk":20,"pop":18007,"hh":7057,"elderly65_r":0.1948,"single_hh_r":0.2568,"source_level":"emd","flood_years":[],"landslide_hist_n":0},"geometry":{"type":"Polygon","coordinates":[[[126.67445,37.69338],[126.67391,37.69771],[126.66971,37.69964],[126.66605,37.69724],[126.66658,37.69291],[126.67078,37.69098],[126.67445,37.69338]]]}},{"type":"Feature","properties":{"h3":"8830e0b581fffff","emd_code":"4128758000","emd_name":"송포동","area_km2":0.5043,"edge":false,"slope_mean":1.37,"elev_mean":6.6,"flood_hist_n":0,"flood_depth_max_m":null,"flood_risk_100y":null,"semi_basement_r":null,"elderly_alone_r":0.0776,"bldg_age30_r":null,"shelter_min_walk":10,"pop":19811,"hh":7883,"elderly65_r":0.1827,"single_hh_r":0.2372,"source_level":"emd","flood_years":[],"landslide_hist_n":0},"geometry":{"type":"Polygon","coordinates":[[[126.73586,37.67742],[126.73533,37.68175],[126.73113,37.68368],[126.72746,37.68128],[126.72799,37.67695],[126.73219,37.67502],[126.73586,37.67742]]]}},{"type":"Feature","properties":{"h3":"8830e0b583fffff","emd_code":"4128757000","emd_name":"대화동","area_km2":0.5044,"edge":false,"slope_mean":2.73,"elev_mean":10.7,"flood_hist_n":0,"flood_depth_max_m":null,"flood_risk_100y":null,"semi_basement_r":null,"elderly_alone_r":0.1002,"bldg_age30_r":null,"shelter_min_walk":7,"pop":33260,"hh":16026,"elderly65_r":0.1897,"single_hh_r":0.4321,"source_level":"emd","flood_years":[],"landslide_hist_n":0},"geometry":{"type":"Polygon","coordinates":[[[126.74373,37.67789],[126.7432,37.68222],[126.739,37.68415],[126.73533,37.68175],[126.73586,37.67742],[126.74006,37.67549],[126.74373,37.67789]]]}},{"type":"Feature","properties":{"h3":"8830e0b585fffff","emd_code":"4128758000","emd_name":"송포동","area_km2":0.5042,"edge":false,"slope_mean":2.02,"elev_mean":8.8,"flood_hist_n":0,"flood_depth_max_m":null,"flood_risk_100y":null,"semi_basement_r":null,"elderly_alone_r":0.0776,"bldg_age30_r":null,"shelter_min_walk":1,"pop":19811,"hh":7883,"elderly65_r":0.1827,"single_hh_r":0.2372,"source_level":"emd","flood_years":[],"landslide_hist_n":0},"geometry":{"type":"Polygon","coordinates":[[[126.73272,37.67069],[126.73219,37.67502],[126.72799,37.67695],[126.72432,37.67455],[126.72485,37.67022],[126.72905,37.66829],[126.73272,37.67069]]]}},{"type":"Feature","properties":{"h3":"8830e0b587fffff","emd_code":"4128758000","emd_name":"송포동","area_km2":0.5043,"edge":false,"slope_mean":3.16,"elev_mean":12.1,"flood_hist_n":0,"flood_depth_max_m":null,"flood_risk_100y":null,"semi_basement_r":null,"elderly_alone_r":0.0776,"bldg_age30_r":null,"shelter_min_walk":3,"pop":19811,"hh":7883,"elderly65_r":0.1827,"single_hh_r":0.2372,"source_level":"emd","flood_years":[],"landslide_hist_n":0},"geometry":{"type":"Polygon","coordinates":[[[126.74059,37.67115],[126.74006,37.67549],[126.73586,37.67742],[126.73219,37.67502],[126.73272,37.67069],[126.73692,37.66875],[126.74059,37.67115]]]}},{"type":"Feature","properties":{"h3":"8830e0b589fffff","emd_code":"4128761000","emd_name":"가좌동","area_km2":0.5042,"edge":false,"slope_mean":1.83,"elev_mean":7.3,"flood_hist_n":0,"flood_depth_max_m":null,"flood_risk_100y":null,"semi_basement_r":null,"elderly_alone_r":0.0954,"bldg_age30_r":null,"shelter_min_walk":7,"pop":18007,"hh":7057,"elderly65_r":0.1948,"single_hh_r":0.2568,"source_level":"emd","flood_years":[],"landslide_hist_n":0},"geometry":{"type":"Polygon","coordinates":[[[126.73113,37.68368],[126.7306,37.68802],[126.72639,37.68995],[126.72272,37.68755],[126.72325,37.68322],[126.72746,37.68128],[126.73113,37.68368]]]}},{"type":"Feature","properties":{"h3":"8830e0b58bfffff","emd_code":"4128760000","emd_name":"덕이동","area_km2":0.5043,"edge":false,"slope_mean":2.15,"elev_mean":7.6,"flood_hist_n":0,"flood_depth_max_m":null,"flood_risk_100y":null,"semi_basement_r":null,"elderly_alone_r":0.0754,"bldg_age30_r":null,"shelter_min_walk":17,"pop":30439,"hh":11832,"elderly65_r":0.1699,"single_hh_r":0.2556,"source_level":"emd","flood_years":[],"landslide_hist_n":0},"geometry":{"type":"Polygon","coordinates":[[[126.739,37.68415],[126.73847,37.68849],[126.73427,37.69042],[126.7306,37.68802],[126.73113,37.68368],[126.73533,37.68175],[126.739,37.68415]]]}},{"type":"Feature","properties":{"h3":"8830e0b58dfffff","emd_code":"4128758000","emd_name":"송포동","area_km2":0.5041,"edge":false,"slope_mean":1.6,"elev_mean":6.5,"flood_hist_n":0,"flood_depth_max_m":null,"flood_risk_100y":null,"semi_basement_r":null,"elderly_alone_r":0.0776,"bldg_age30_r":null,"shelter_min_walk":7,"pop":19811,"hh":7883,"elderly65_r":0.1827,"single_hh_r":0.2372,"source_level":"emd","flood_years":[],"landslide_hist_n":0},"geometry":{"type":"Polygon","coordinates":[[[126.72799,37.67695],[126.72746,37.68128],[126.72325,37.68322],[126.71958,37.68081],[126.72012,37.67648],[126.72432,37.67455],[126.72799,37.67695]]]}},{"type":"Feature","properties":{"h3":"8830e0b591fffff","emd_code":"4128758000","emd_name":"송포동","area_km2":0.5045,"edge":false,"slope_mean":2.27,"elev_mean":11.0,"flood_hist_n":0,"flood_depth_max_m":null,"flood_risk_100y":null,"semi_basement_r":null,"elderly_alone_r":0.0776,"bldg_age30_r":null,"shelter_min_walk":5,"pop":19811,"hh":7883,"elderly65_r":0.1827,"single_hh_r":0.2372,"source_level":"emd","flood_years":[],"landslide_hist_n":0},"geometry":{"type":"Polygon","coordinates":[[[126.75475,37.68509],[126.75422,37.68942],[126.75002,37.69136],[126.74635,37.68895],[126.74688,37.68462],[126.75108,37.68269],[126.75475,37.68509]]]}},{"type":"Feature","properties":{"h3":"8830e0b593fffff","emd_code":"4128757000","emd_name":"대화동","area_km2":0.5047,"edge":false,"slope_mean":2.99,"elev_mean":14.5,"flood_hist_n":0,"flood_depth_max_m":null,"flood_risk_100y":null,"semi_basement_r":null,"elderly_alone_r":0.1002,"bldg_age30_r":null,"shelter_min_walk":3,"pop":33260,"hh":16026,"elderly65_r":0.1897,"single_hh_r":0.4321,"source_level":"emd","flood_years":[],"landslide_hist_n":0},"geometry":{"type":"Polygon","coordinates":[[[126.76263,37.68556],[126.7621,37.68989],[126.7579,37.69182],[126.75422,37.68942],[126.75475,37.68509],[126.75895,37.68316],[126.76263,37.68556]]]}},{"type":"Feature","properties":{"h3":"8830e0b595fffff","emd_code":"4128757000","emd_name":"대화동","area_km2":0.5045,"edge":false,"slope_mean":4.03,"elev_mean":14.8,"flood_hist_n":0,"flood_depth_max_m":null,"flood_risk_100y":null,"semi_basement_r":null,"elderly_alone_r":0.1002,"bldg_age30_r":null,"shelter_min_walk":3,"pop":33260,"hh":16026,"elderly65_r":0.1897,"single_hh_r":0.4321,"source_level":"emd","flood_years":[],"landslide_hist_n":0},"geometry":{"type":"Polygon","coordinates":[[[126.75161,37.67835],[126.75108,37.68269],[126.74688,37.68462],[126.7432,37.68222],[126.74373,37.67789],[126.74793,37.67595],[126.75161,37.67835]]]}},{"type":"Feature","properties":{"h3":"8830e0b597fffff","emd_code":"4128757000","emd_name":"대화동","area_km2":0.5046,"edge":false,"slope_mean":3.27,"elev_mean":16.7,"flood_hist_n":0,"flood_depth_max_m":null,"flood_risk_100y":null,"semi_basement_r":null,"elderly_alone_r":0.1002,"bldg_age30_r":null,"shelter_min_walk":4,"pop":33260,"hh":16026,"elderly65_r":0.1897,"single_hh_r":0.4321,"source_level":"emd","flood_years":[],"landslide_hist_n":0},"geometry":{"type":"Polygon","coordinates":[[[126.75948,37.67882],[126.75895,37.68316],[126.75475,37.68509],[126.75108,37.68269],[126.75161,37.67835],[126.75581,37.67642],[126.75948,37.67882]]]}},{"type":"Feature","properties":{"h3":"8830e0b599fffff","emd_code":"4128760000","emd_name":"덕이동","area_km2":0.5045,"edge":false,"slope_mean":3.79,"elev_mean":11.6,"flood_hist_n":0,"flood_depth_max_m":null,"flood_risk_100y":null,"semi_basement_r":null,"elderly_alone_r":0.0754,"bldg_age30_r":null,"shelter_min_walk":11,"pop":30439,"hh":11832,"elderly65_r":0.1699,"single_hh_r":0.2556,"source_level":"emd","flood_years":[],"landslide_hist_n":0},"geometry":{"type":"Polygon","coordinates":[[[126.75002,37.69136],[126.74949,37.69569],[126.74528,37.69762],[126.74161,37.69522],[126.74214,37.69089],[126.74635,37.68895],[126.75002,37.69136]]]}},{"type":"Feature","properties":{"h3":"8830e0b59bfffff","emd_code":"4128760000","emd_name":"덕이동","area_km2":0.5046,"edge":false,"slope_mean":4.84,"elev_mean":18.6,"flood_hist_n":0,"flood_depth_max_m":null,"flood_risk_100y":null,"semi_basement_r":null,"elderly_alone_r":0.0754,"bldg_age30_r":null,"shelter_min_walk":6,"pop":30439,"hh":11832,"elderly65_r":0.1699,"single_hh_r":0.2556,"source_level":"emd","flood_years":[],"landslide_hist_n":0},"geometry":{"type":"Polygon","coordinates":[[[126.7579,37.69182],[126.75737,37.69616],[126.75316,37.69809],[126.74949,37.69569],[126.75002,37.69136],[126.75422,37.68942],[126.7579,37.69182]]]}},{"type":"Feature","properties":{"h3":"8830e0b59dfffff","emd_code":"4128758000","emd_name":"송포동","area_km2":0.5044,"edge":false,"slope_mean":2.4,"elev_mean":9.6,"flood_hist_n":0,"flood_depth_max_m":null,"flood_risk_100y":null,"semi_basement_r":null,"elderly_alone_r":0.0776,"bldg_age30_r":null,"shelter_min_walk":13,"pop":19811,"hh":7883,"elderly65_r":0.1827,"single_hh_r":0.2372,"source_level":"emd","flood_years":[],"landslide_hist_n":0},"geometry":{"type":"Polygon","coordinates":[[[126.74688,37.68462],[126.74635,37.68895],[126.74214,37.69089],[126.73847,37.68849],[126.739,37.68415],[126.7432,37.68222],[126.74688,37.68462]]]}},{"type":"Feature","properties":{"h3":"8830e0b5a1fffff","emd_code":"4128758000","emd_name":"송포동","area_km2":0.5042,"edge":false,"slope_mean":3.14,"elev_mean":7.1,"flood_hist_n":0,"flood_depth_max_m":null,"flood_risk_100y":null,"semi_basement_r":null,"elderly_alone_r":0.0776,"bldg_age30_r":null,"shelter_min_walk":14,"pop":19811,"hh":7883,"elderly65_r":0.1827,"single_hh_r":0.2372,"source_level":"emd","flood_years":[],"landslide_hist_n":0},"geometry":{"type":"Polygon","coordinates":[[[126.73431,37.65769],[126.73378,37.66202],[126.72958,37.66395],[126.72591,37.66155],[126.72644,37.65722],[126.73064,37.65529],[126.73431,37.65769]]]}},{"type":"Feature","properties":{"h3":"8830e0b5a3fffff","emd_code":"4128758000","emd_name":"송포동","area_km2":0.5043,"edge":false,"slope_mean":2.84,"elev_mean":7.2,"flood_hist_n":0,"flood_depth_max_m":null,"flood_risk_100y":null,"semi_basement_r":null,"elderly_alone_r":0.0776,"bldg_age30_r":null,"shelter_min_walk":12,"pop":19811,"hh":7883,"elderly65_r":0.1827,"single_hh_r":0.2372,"source_level":"emd","flood_years":[],"landslide_hist_n":0},"geometry":{"type":"Polygon","coordinates":[[[126.74218,37.65815],[126.74165,37.66249],[126.73745,37.66442],[126.73378,37.66202],[126.73431,37.65769],[126.73851,37.65575],[126.74218,37.65815]]]}},{"type":"Feature","properties":{"h3":"8830e0b5a5fffff","emd_code":"4128758000","emd_name":"송포동","area_km2":0.5041,"edge":false,"slope_mean":2.72,"elev_mean":5.2,"flood_hist_n":0,"flood_depth_max_m":null,"flood_risk_100y":null,"semi_basement_r":null,"elderly_alone_r":0.0776,"bldg_age30_r":null,"shelter_min_walk":26,"pop":19811,"hh":7883,"elderly65_r":0.1827,"single_hh_r":0.2372,"source_level":"emd","flood_years":[],"landslide_hist_n":0},"geometry":{"type":"Polygon","coordinates":[[[126.73117,37.65096],[126.73064,37.65529],[126.72644,37.65722],[126.72277,37.65482],[126.7233,37.65049],[126.7275,37.64856],[126.73117,37.65096]]]}},{"type":"Feature","properties":{"h3":"8830e0b5a7fffff","emd_code":"4128758000","emd_name":"송포동","area_km2":0.5042,"edge":false,"slope_mean":3.23,"elev_mean":6.7,"flood_hist_n":1,"flood_depth_max_m":1.0,"flood_risk_100y":null,"semi_basement_r":null,"elderly_alone_r":0.0776,"bldg_age30_r":null,"shelter_min_walk":23,"pop":19811,"hh":7883,"elderly65_r":0.1827,"single_hh_r":0.2372,"source_level":"emd","flood_years":[2006],"landslide_hist_n":0},"geometry":{"type":"Polygon","coordinates":[[[126.73904,37.65142],[126.73851,37.65575],[126.73431,37.65769],[126.73064,37.65529],[126.73117,37.65096],[126.73537,37.64902],[126.73904,37.65142]]]}},{"type":"Feature","properties":{"h3":"8830e0b5a9fffff","emd_code":"4128758000","emd_name":"송포동","area_km2":0.5041,"edge":false,"slope_mean":2.33,"elev_mean":8.2,"flood_hist_n":0,"flood_depth_max_m":null,"flood_risk_100y":null,"semi_basement_r":null,"elderly_alone_r":0.0776,"bldg_age30_r":null,"shelter_min_walk":9,"pop":19811,"hh":7883,"elderly65_r":0.1827,"single_hh_r":0.2372,"source_level":"emd","flood_years":[],"landslide_hist_n":0},"geometry":{"type":"Polygon","coordinates":[[[126.72958,37.66395],[126.72905,37.66829],[126.72485,37.67022],[126.72118,37.66782],[126.72171,37.66349],[126.72591,37.66155],[126.72958,37.66395]]]}},{"type":"Feature","properties":{"h3":"8830e0b5abfffff","emd_code":"4128758000","emd_name":"송포동","area_km2":0.5042,"edge":false,"slope_mean":2.99,"elev_mean":9.9,"flood_hist_n":0,"flood_depth_max_m":null,"flood_risk_100y":null,"semi_basement_r":null,"elderly_alone_r":0.0776,"bldg_age30_r":null,"shelter_min_walk":2,"pop":19811,"hh":7883,"elderly65_r":0.1827,"single_hh_r":0.2372,"source_level":"emd","flood_years":[],"landslide_hist_n":0},"geometry":{"type":"Polygon","coordinates":[[[126.73745,37.66442],[126.73692,37.66875],[126.73272,37.67069],[126.72905,37.66829],[126.72958,37.66395],[126.73378,37.66202],[126.73745,37.66442]]]}},{"type":"Feature","properties":{"h3":"8830e0b5adfffff","emd_code":"4128758000","emd_name":"송포동","area_km2":0.5041,"edge":false,"slope_mean":3.23,"elev_mean":8.0,"flood_hist_n":0,"flood_depth_max_m":null,"flood_risk_100y":null,"semi_basement_r":null,"elderly_alone_r":0.0776,"bldg_age30_r":null,"shelter_min_walk":21,"pop":19811,"hh":7883,"elderly65_r":0.1827,"single_hh_r":0.2372,"source_level":"emd","flood_years":[],"landslide_hist_n":0},"geometry":{"type":"Polygon","coordinates":[[[126.72644,37.65722],[126.72591,37.66155],[126.72171,37.66349],[126.71804,37.66109],[126.71857,37.65675],[126.72277,37.65482],[126.72644,37.65722]]]}},{"type":"Feature","properties":{"h3":"8830e0b5b1fffff","emd_code":"4128757000","emd_name":"대화동","area_km2":0.5045,"edge":false,"slope_mean":3.2,"elev_mean":12.1,"flood_hist_n":0,"flood_depth_max_m":null,"flood_risk_100y":null,"semi_basement_r":null,"elderly_alone_r":0.1002,"bldg_age30_r":null,"shelter_min_walk":2,"pop":33260,"hh":16026,"elderly65_r":0.1897,"single_hh_r":0.4321,"source_level":"emd","flood_years":[],"landslide_hist_n":0},"geometry":{"type":"Polygon","coordinates":[[[126.7532,37.66535],[126.75267,37.66969],[126.74846,37.67162],[126.74479,37.66922],[126.74532,37.66489],[126.74952,37.66295],[126.7532,37.66535]]]}},{"type":"Feature","properties":{"h3":"8830e0b5b3fffff","emd_code":"4128756000","emd_name":"주엽2동","area_km2":0.5046,"edge":false,"slope_mean":4.25,"elev_mean":13.0,"flood_hist_n":0,"flood_depth_max_m":null,"flood_risk_100y":null,"semi_basement_r":null,"elderly_alone_r":0.1508,"bldg_age30_r":null,"shelter_min_walk":1,"pop":26150,"hh":11286,"elderly65_r":0.2301,"single_hh_r":0.3306,"source_level":"emd","flood_years":[],"landslide_hist_n":0},"geometry":{"type":"Polygon","coordinates":[[[126.76107,37.66582],[126.76054,37.67015],[126.75634,37.67209],[126.75267,37.66969],[126.7532,37.66535],[126.7574,37.66342],[126.76107,37.66582]]]}},{"type":"Feature","properties":{"h3":"8830e0b5b5fffff","emd_code":"4128758000","emd_name":"송포동","area_km2":0.5044,"edge":false,"slope_mean":2.69,"elev_mean":9.0,"flood_hist_n":0,"flood_depth_max_m":null,"flood_risk_100y":null,"semi_basement_r":null,"elderly_alone_r":0.0776,"bldg_age30_r":null,"shelter_min_walk":4,"pop":19811,"hh":7883,"elderly65_r":0.1827,"single_hh_r":0.2372,"source_level":"emd","flood_years":[],"landslide_hist_n":0},"geometry":{"type":"Polygon","coordinates":[[[126.75005,37.65862],[126.74952,37.66295],[126.74532,37.66489],[126.74165,37.66249],[126.74218,37.65815],[126.74638,37.65622],[126.75005,37.65862]]]}},{"type":"Feature","properties":{"h3":"8830e0b5b7fffff","emd_code":"4128757000","emd_name":"대화동","area_km2":0.5045,"edge":true,"slope_mean":1.96,"elev_mean":8.3,"flood_hist_n":0,"flood_depth_max_m":null,"flood_risk_100y":null,"semi_basement_r":null,"elderly_alone_r":0.1002,"bldg_age30_r":null,"shelter_min_walk":3,"pop":33260,"hh":16026,"elderly65_r":0.1897,"single_hh_r":0.4321,"source_level":"emd","flood_years":[],"landslide_hist_n":0},"geometry":{"type":"Polygon","coordinates":[[[126.75793,37.65909],[126.7574,37.66342],[126.7532,37.66535],[126.74952,37.66295],[126.75005,37.65862],[126.75425,37.65669],[126.75793,37.65909]]]}},{"type":"Feature","properties":{"h3":"8830e0b5b9fffff","emd_code":"4128757000","emd_name":"대화동","area_km2":0.5044,"edge":false,"slope_mean":5.39,"elev_mean":14.4,"flood_hist_n":0,"flood_depth_max_m":null,"flood_risk_100y":null,"semi_basement_r":null,"elderly_alone_r":0.1002,"bldg_age30_r":null,"shelter_min_walk":2,"pop":33260,"hh":16026,"elderly65_r":0.1897,"single_hh_r":0.4321,"source_level":"emd","flood_years":[],"landslide_hist_n":0},"geometry":{"type":"Polygon","coordinates":[[[126.74846,37.67162],[126.74793,37.67595],[126.74373,37.67789],[126.74006,37.67549],[126.74059,37.67115],[126.74479,37.66922],[126.74846,37.67162]]]}},{"type":"Feature","properties":{"h3":"8830e0b5bbfffff","emd_code":"4128757000","emd_name":"대화동","area_km2":0.5045,"edge":false,"slope_mean":3.76,"elev_mean":14.4,"flood_hist_n":0,"flood_depth_max_m":null,"flood_risk_100y":null,"semi_basement_r":null,"elderly_alone_r":0.1002,"bldg_age30_r":null,"shelter_min_walk":3,"pop":33260,"hh":16026,"elderly65_r":0.1897,"single_hh_r":0.4321,"source_level":"emd","flood_years":[],"landslide_hist_n":0},"geometry":{"type":"Polygon","coordinates":[[[126.75634,37.67209],[126.75581,37.67642],[126.75161,37.67835],[126.74793,37.67595],[126.74846,37.67162],[126.75267,37.66969],[126.75634,37.67209]]]}},{"type":"Feature","properties":{"h3":"8830e0b5bdfffff","emd_code":"4128757000","emd_name":"대화동","area_km2":0.5044,"edge":false,"slope_mean":4.91,"elev_mean":14.2,"flood_hist_n":0,"flood_depth_max_m":null,"flood_risk_100y":null,"semi_basement_r":null,"elderly_alone_r":0.1002,"bldg_age30_r":null,"shelter_min_walk":7,"pop":33260,"hh":16026,"elderly65_r":0.1897,"single_hh_r":0.4321,"source_level":"emd","flood_years":[],"landslide_hist_n":0},"geometry":{"type":"Polygon","coordinates":[[[126.74532,37.66489],[126.74479,37.66922],[126.74059,37.67115],[126.73692,37.66875],[126.73745,37.66442],[126.74165,37.66249],[126.74532,37.66489]]]}},{"type":"Feature","properties":{"h3":"8830e0b5c1fffff","emd_code":"4128761000","emd_name":"가좌동","area_km2":0.504,"edge":false,"slope_mean":2.54,"elev_mean":9.6,"flood_hist_n":0,"flood_depth_max_m":null,"flood_risk_100y":null,"semi_basement_r":null,"elderly_alone_r":0.0954,"bldg_age30_r":null,"shelter_min_walk":7,"pop":18007,"hh":7057,"elderly65_r":0.1948,"single_hh_r":0.2568,"source_level":"emd","flood_years":[],"landslide_hist_n":0},"geometry":{"type":"Polygon","coordinates":[[[126.71852,37.68948],[126.71799,37.69381],[126.71379,37.69574],[126.71012,37.69334],[126.71065,37.68901],[126.71485,37.68708],[126.71852,37.68948]]]}},{"type":"Feature","properties":{"h3":"8830e0b5c3fffff","emd_code":"4128761000","emd_name":"가좌동","area_km2":0.5042,"edge":false,"slope_mean":3.87,"elev_mean":13.3,"flood_hist_n":0,"flood_depth_max_m":null,"flood_risk_100y":null,"semi_basement_r":null,"elderly_alone_r":0.0954,"bldg_age30_r":null,"shelter_min_walk":2,"pop":18007,"hh":7057,"elderly65_r":0.1948,"single_hh_r":0.2568,"source_level":"emd","flood_years":[],"landslide_hist_n":0},"geometry":{"type":"Polygon","coordinates":[[[126.72639,37.68995],[126.72586,37.69428],[126.72166,37.69621],[126.71799,37.69381],[126.71852,37.68948],[126.72272,37.68755],[126.72639,37.68995]]]}},{"type":"Feature","properties":{"h3":"8830e0b5c5fffff","emd_code":"4128761000","emd_name":"가좌동","area_km2":0.504,"edge":false,"slope_mean":1.37,"elev_mean":6.4,"flood_hist_n":0,"flood_depth_max_m":null,"flood_risk_100y":null,"semi_basement_r":null,"elderly_alone_r":0.0954,"bldg_age30_r":null,"shelter_min_walk":7,"pop":18007,"hh":7057,"elderly65_r":0.1948,"single_hh_r":0.2568,"source_level":"emd","flood_years":[],"landslide_hist_n":0},"geometry":{"type":"Polygon","coordinates":[[[126.71538,37.68275],[126.71485,37.68708],[126.71065,37.68901],[126.70698,37.68661],[126.70751,37.68228],[126.71171,37.68035],[126.71538,37.68275]]]}},{"type":"Feature","properties":{"h3":"8830e0b5c7fffff","emd_code":"4128761000","emd_name":"가좌동","area_km2":0.5041,"edge":false,"slope_mean":3.55,"elev_mean":10.6,"flood_hist_n":0,"flood_depth_max_m":null,"flood_risk_100y":null,"semi_basement_r":null,"elderly_alone_r":0.0954,"bldg_age30_r":null,"shelter_min_walk":3,"pop":18007,"hh":7057,"elderly65_r":0.1948,"single_hh_r":0.2568,"source_level":"emd","flood_years":[],"landslide_hist_n":0},"geometry":{"type":"Polygon","coordinates":[[[126.72325,37.68322],[126.72272,37.68755],[126.71852,37.68948],[126.71485,37.68708],[126.71538,37.68275],[126.71958,37.68081],[126.72325,37.68322]]]}},{"type":"Feature","properties":{"h3":"8830e0b5c9fffff","emd_code":"4128761000","emd_name":"가좌동","area_km2":0.504,"edge":false,"slope_mean":6.15,"elev_mean":24.2,"flood_hist_n":0,"flood_depth_max_m":null,"flood_risk_100y":null,"semi_basement_r":null,"elderly_alone_r":0.0954,"bldg_age30_r":null,"shelter_min_walk":18,"pop":18007,"hh":7057,"elderly65_r":0.1948,"single_hh_r":0.2568,"source_level":"emd","flood_years":[],"landslide_hist_n":0},"geometry":{"type":"Polygon","coordinates":[[[126.71379,37.69574],[126.71326,37.70008],[126.70905,37.70201],[126.70538,37.6996],[126.70592,37.69527],[126.71012,37.69334],[126.71379,37.69574]]]}},{"type":"Feature","properties":{"h3":"8830e0b5cbfffff","emd_code":"4128761000","emd_name":"가좌동","area_km2":0.5041,"edge":false,"slope_mean":5.91,"elev_mean":23.1,"flood_hist_n":0,"flood_depth_max_m":null,"flood_risk_100y":null,"semi_basement_r":null,"elderly_alone_r":0.0954,"bldg_age30_r":null,"shelter_min_walk":13,"pop":18007,"hh":7057,"elderly65_r":0.1948,"single_hh_r":0.2568,"source_level":"emd","flood_years":[],"landslide_hist_n":0},"geometry":{"type":"Polygon","coordinates":[[[126.72166,37.69621],[126.72113,37.70055],[126.71693,37.70248],[126.71326,37.70008],[126.71379,37.69574],[126.71799,37.69381],[126.72166,37.69621]]]}},{"type":"Feature","properties":{"h3":"8830e0b5cdfffff","emd_code":"4128761000","emd_name":"가좌동","area_km2":0.5039,"edge":false,"slope_mean":1.44,"elev_mean":7.3,"flood_hist_n":0,"flood_depth_max_m":null,"flood_risk_100y":null,"semi_basement_r":null,"elderly_alone_r":0.0954,"bldg_age30_r":null,"shelter_min_walk":16,"pop":18007,"hh":7057,"elderly65_r":0.1948,"single_hh_r":0.2568,"source_level":"emd","flood_years":[],"landslide_hist_n":0},"geometry":{"type":"Polygon","coordinates":[[[126.71065,37.68901],[126.71012,37.69334],[126.70592,37.69527],[126.70225,37.69287],[126.70278,37.68854],[126.70698,37.68661],[126.71065,37.68901]]]}},{"type":"Feature","properties":{"h3":"8830e0b5d1fffff","emd_code":"4128760000","emd_name":"덕이동","area_km2":0.5043,"edge":false,"slope_mean":4.99,"elev_mean":16.7,"flood_hist_n":0,"flood_depth_max_m":null,"flood_risk_100y":null,"semi_basement_r":null,"elderly_alone_r":0.0754,"bldg_age30_r":null,"shelter_min_walk":21,"pop":30439,"hh":11832,"elderly65_r":0.1699,"single_hh_r":0.2556,"source_level":"emd","flood_years":[],"landslide_hist_n":0},"geometry":{"type":"Polygon","coordinates":[[[126.73741,37.69715],[126.73688,37.70149],[126.73268,37.70342],[126.729,37.70102],[126.72953,37.69668],[126.73374,37.69475],[126.73741,37.69715]]]}},{"type":"Feature","properties":{"h3":"8830e0b5d3fffff","emd_code":"4128760000","emd_name":"덕이동","area_km2":0.5044,"edge":false,"slope_mean":5.75,"elev_mean":20.9,"flood_hist_n":0,"flood_depth_max_m":null,"flood_risk_100y":null,"semi_basement_r":null,"elderly_alone_r":0.0754,"bldg_age30_r":null,"shelter_min_walk":16,"pop":30439,"hh":11832,"elderly65_r":0.1699,"single_hh_r":0.2556,"source_level":"emd","flood_years":[],"landslide_hist_n":0},"geometry":{"type":"Polygon","coordinates":[[[126.74528,37.69762],[126.74475,37.70196],[126.74055,37.70389],[126.73688,37.70149],[126.73741,37.69715],[126.74161,37.69522],[126.74528,37.69762]]]}},{"type":"Feature","properties":{"h3":"8830e0b5d5fffff","emd_code":"4128760000","emd_name":"덕이동","area_km2":0.5043,"edge":false,"slope_mean":3.33,"elev_mean":10.9,"flood_hist_n":0,"flood_depth_max_m":null,"flood_risk_100y":null,"semi_basement_r":null,"elderly_alone_r":0.0754,"bldg_age30_r":null,"shelter_min_walk":11,"pop":30439,"hh":11832,"elderly65_r":0.1699,"single_hh_r":0.2556,"source_level":"emd","flood_years":[],"landslide_hist_n":0},"geometry":{"type":"Polygon","coordinates":[[[126.73427,37.69042],[126.73374,37.69475],[126.72953,37.69668],[126.72586,37.69428],[126.72639,37.68995],[126.7306,37.68802],[126.73427,37.69042]]]}},{"type":"Feature","properties":{"h3":"8830e0b5d7fffff","emd_code":"4128760000","emd_name":"덕이동","area_km2":0.5044,"edge":false,"slope_mean":3.38,"elev_mean":13.8,"flood_hist_n":0,"flood_depth_max_m":null,"flood_risk_100y":null,"semi_basement_r":null,"elderly_alone_r":0.0754,"bldg_age30_r":null,"shelter_min_walk":21,"pop":30439,"hh":11832,"elderly65_r":0.1699,"single_hh_r":0.2556,"source_level":"emd","flood_years":[],"landslide_hist_n":0},"geometry":{"type":"Polygon","coordinates":[[[126.74214,37.69089],[126.74161,37.69522],[126.73741,37.69715],[126.73374,37.69475],[126.73427,37.69042],[126.73847,37.68849],[126.74214,37.69089]]]}},{"type":"Feature","properties":{"h3":"8830e0b5d9fffff","emd_code":"4128760000","emd_name":"덕이동","area_km2":0.5043,"edge":true,"slope_mean":4.06,"elev_mean":13.6,"flood_hist_n":0,"flood_depth_max_m":null,"flood_risk_100y":null,"semi_basement_r":null,"elderly_alone_r":0.0754,"bldg_age30_r":null,"shelter_min_walk":9,"pop":30439,"hh":11832,"elderly65_r":0.1699,"single_hh_r":0.2556,"source_level":"emd","flood_years":[],"landslide_hist_n":0},"geometry":{"type":"Polygon","coordinates":[[[126.73268,37.70342],[126.73214,37.70775],[126.72794,37.70968],[126.72427,37.70728],[126.7248,37.70295],[126.729,37.70102],[126.73268,37.70342]]]}},{"type":"Feature","properties":{"h3":"8830e0b5dbfffff","emd_code":"4128760000","emd_name":"덕이동","area_km2":0.5044,"edge":true,"slope_mean":5.01,"elev_mean":22.6,"flood_hist_n":0,"flood_depth_max_m":null,"flood_risk_100y":null,"semi_basement_r":null,"elderly_alone_r":0.0754,"bldg_age30_r":null,"shelter_min_walk":9,"pop":30439,"hh":11832,"elderly65_r":0.1699,"single_hh_r":0.2556,"source_level":"emd","flood_years":[],"landslide_hist_n":0},"geometry":{"type":"Polygon","coordinates":[[[126.74055,37.70389],[126.74002,37.70822],[126.73582,37.71015],[126.73214,37.70775],[126.73268,37.70342],[126.73688,37.70149],[126.74055,37.70389]]]}},{"type":"Feature","properties":{"h3":"8830e0b5ddfffff","emd_code":"4128761000","emd_name":"가좌동","area_km2":0.5042,"edge":false,"slope_mean":2.74,"elev_mean":11.3,"flood_hist_n":0,"flood_depth_max_m":null,"flood_risk_100y":null,"semi_basement_r":null,"elderly_alone_r":0.0954,"bldg_age30_r":null,"shelter_min_walk":14,"pop":18007,"hh":7057,"elderly65_r":0.1948,"single_hh_r":0.2568,"source_level":"emd","flood_years":[],"landslide_hist_n":0},"geometry":{"type":"Polygon","coordinates":[[[126.72953,37.69668],[126.729,37.70102],[126.7248,37.70295],[126.72113,37.70055],[126.72166,37.69621],[126.72586,37.69428],[126.72953,37.69668]]]}},{"type":"Feature","properties":{"h3":"8830e0b5e1fffff","emd_code":"4128758000","emd_name":"송포동","area_km2":0.504,"edge":false,"slope_mean":1.58,"elev_mean":5.4,"flood_hist_n":0,"flood_depth_max_m":null,"flood_risk_100y":null,"semi_basement_r":null,"elderly_alone_r":0.0776,"bldg_age30_r":null,"shelter_min_walk":22,"pop":19811,"hh":7883,"elderly65_r":0.1827,"single_hh_r":0.2372,"source_level":"emd","flood_years":[],"landslide_hist_n":0},"geometry":{"type":"Polygon","coordinates":[[[126.71698,37.66975],[126.71645,37.67408],[126.71225,37.67601],[126.70858,37.67361],[126.70911,37.66928],[126.71331,37.66735],[126.71698,37.66975]]]}},{"type":"Feature","properties":{"h3":"8830e0b5e3fffff","emd_code":"4128758000","emd_name":"송포동","area_km2":0.5041,"edge":false,"slope_mean":1.55,"elev_mean":6.3,"flood_hist_n":0,"flood_depth_max_m":null,"flood_risk_100y":null,"semi_basement_r":null,"elderly_alone_r":0.0776,"bldg_age30_r":null,"shelter_min_walk":12,"pop":19811,"hh":7883,"elderly65_r":0.1827,"single_hh_r":0.2372,"source_level":"emd","flood_years":[],"landslide_hist_n":0},"geometry":{"type":"Polygon","coordinates":[[[126.72485,37.67022],[126.72432,37.67455],[126.72012,37.67648],[126.71645,37.67408],[126.71698,37.66975],[126.72118,37.66782],[126.72485,37.67022]]]}},{"type":"Feature","properties":{"h3":"8830e0b5e5fffff","emd_code":"4128758000","emd_name":"송포동","area_km2":0.5039,"edge":false,"slope_mean":1.88,"elev_mean":5.0,"flood_hist_n":0,"flood_depth_max_m":null,"flood_risk_100y":null,"semi_basement_r":null,"elderly_alone_r":0.0776,"bldg_age30_r":null,"shelter_min_walk":27,"pop":19811,"hh":7883,"elderly65_r":0.1827,"single_hh_r":0.2372,"source_level":"emd","flood_years":[],"landslide_hist_n":0},"geometry":{"type":"Polygon","coordinates":[[[126.71384,37.66302],[126.71331,37.66735],[126.70911,37.66928],[126.70544,37.66688],[126.70597,37.66255],[126.71017,37.66062],[126.71384,37.66302]]]}},{"type":"Feature","properties":{"h3":"8830e0b5e7fffff","emd_code":"4128758000","emd_name":"송포동","area_km2":0.504,"edge":false,"slope_mean":2.3,"elev_mean":6.0,"flood_hist_n":0,"flood_depth_max_m":null,"flood_risk_100y":null,"semi_basement_r":null,"elderly_alone_r":0.0776,"bldg_age30_r":null,"shelter_min_walk":18,"pop":19811,"hh":7883,"elderly65_r":0.1827,"single_hh_r":0.2372,"source_level":"emd","flood_years":[],"landslide_hist_n":0},"geometry":{"type":"Polygon","coordinates":[[[126.72171,37.66349],[126.72118,37.66782],[126.71698,37.66975],[126.71331,37.66735],[126.71384,37.66302],[126.71804,37.66109],[126.72171,37.66349]]]}},{"type":"Feature","properties":{"h3":"8830e0b5e9fffff","emd_code":"4128758000","emd_name":"송포동","area_km2":0.5039,"edge":false,"slope_mean":1.25,"elev_mean":5.1,"flood_hist_n":0,"flood_depth_max_m":null,"flood_risk_100y":null,"semi_basement_r":null,"elderly_alone_r":0.0776,"bldg_age30_r":null,"shelter_min_walk":11,"pop":19811,"hh":7883,"elderly65_r":0.1827,"single_hh_r":0.2372,"source_level":"emd","flood_years":[],"landslide_hist_n":0},"geometry":{"type":"Polygon","coordinates":[[[126.71225,37.67601],[126.71171,37.68035],[126.70751,37.68228],[126.70385,37.67988],[126.70438,37.67554],[126.70858,37.67361],[126.71225,37.67601]]]}},{"type":"Feature","properties":{"h3":"8830e0b5ebfffff","emd_code":"4128758000","emd_name":"송포동","area_km2":0.504,"edge":false,"slope_mean":1.05,"elev_mean":5.8,"flood_hist_n":0,"flood_depth_max_m":null,"flood_risk_100y":null,"semi_basement_r":null,"elderly_alone_r":0.0776,"bldg_age30_r":null,"shelter_min_walk":12,"pop":19811,"hh":7883,"elderly65_r":0.1827,"single_hh_r":0.2372,"source_level":"emd","flood_years":[],"landslide_hist_n":0},"geometry":{"type":"Polygon","coordinates":[[[126.72012,37.67648],[126.71958,37.68081],[126.71538,37.68275],[126.71171,37.68035],[126.71225,37.67601],[126.71645,37.67408],[126.72012,37.67648]]]}},{"type":"Feature","properties":{"h3":"8830e0b5edfffff","emd_code":"4128758000","emd_name":"송포동","area_km2":0.5039,"edge":false,"slope_mean":1.42,"elev_mean":5.1,"flood_hist_n":0,"flood_depth_max_m":null,"flood_risk_100y":null,"semi_basement_r":null,"elderly_alone_r":0.0776,"bldg_age30_r":null,"shelter_min_walk":18,"pop":19811,"hh":7883,"elderly65_r":0.1827,"single_hh_r":0.2372,"source_level":"emd","flood_years":[],"landslide_hist_n":0},"geometry":{"type":"Polygon","coordinates":[[[126.70911,37.66928],[126.70858,37.67361],[126.70438,37.67554],[126.70071,37.67314],[126.70124,37.66881],[126.70544,37.66688],[126.70911,37.66928]]]}}]}