{"type":"FeatureCollection","name":"grid_41285_h3r8","meta":{"sgg_code":"41285","h3_res":8,"n_cells":151,"dem":"Copernicus GLO-30 (bbox-mean)","crs":"EPSG:4326","jumin_basis":"2026-07","flood_src":"행안부 침수흔적도(전국, 재난안전데이터공유플랫폼)","landslide_src":"행안부 산사태 발생이력"},"features":[{"type":"Feature","properties":{"h3":"8830e0a409fffff","emd_code":"4128554000","emd_name":"풍산동","area_km2":0.5053,"edge":false,"slope_mean":8.84,"elev_mean":28.5,"flood_hist_n":0,"flood_depth_max_m":null,"flood_risk_100y":null,"semi_basement_r":null,"elderly_alone_r":0.0922,"bldg_age30_r":null,"shelter_min_walk":20,"pop":42241,"hh":16998,"elderly65_r":0.1836,"single_hh_r":0.2666,"source_level":"emd","flood_years":[],"landslide_hist_n":0},"geometry":{"type":"Polygon","coordinates":[[[126.81938,37.64305],[126.81886,37.64738],[126.81465,37.64932],[126.81098,37.64692],[126.8115,37.64259],[126.81571,37.64065],[126.81938,37.64305]]]}},{"type":"Feature","properties":{"h3":"8830e0a441fffff","emd_code":"4128554000","emd_name":"풍산동","area_km2":0.5052,"edge":false,"slope_mean":2.98,"elev_mean":9.9,"flood_hist_n":1,"flood_depth_max_m":0.5,"flood_risk_100y":null,"semi_basement_r":null,"elderly_alone_r":0.0922,"bldg_age30_r":null,"shelter_min_walk":9,"pop":42241,"hh":16998,"elderly65_r":0.1836,"single_hh_r":0.2666,"source_level":"emd","flood_years":[2006],"landslide_hist_n":0},"geometry":{"type":"Polygon","coordinates":[[[126.80677,37.64886],[126.80625,37.6532],[126.80204,37.65513],[126.79837,37.65273],[126.79889,37.6484],[126.8031,37.64646],[126.80677,37.64886]]]}},{"type":"Feature","properties":{"h3":"8830e0a443fffff","emd_code":"4128554000","emd_name":"풍산동","area_km2":0.5053,"edge":false,"slope_mean":6.82,"elev_mean":20.1,"flood_hist_n":0,"flood_depth_max_m":null,"flood_risk_100y":null,"semi_basement_r":null,"elderly_alone_r":0.0922,"bldg_age30_r":null,"shelter_min_walk":18,"pop":42241,"hh":16998,"elderly65_r":0.1836,"single_hh_r":0.2666,"source_level":"emd","flood_years":[],"landslide_hist_n":0},"geometry":{"type":"Polygon","coordinates":[[[126.81465,37.64932],[126.81413,37.65366],[126.80992,37.6556],[126.80625,37.6532],[126.80677,37.64886],[126.81098,37.64692],[126.81465,37.64932]]]}},{"type":"Feature","properties":{"h3":"8830e0a445fffff","emd_code":"4128555100","emd_name":"백석1동","area_km2":0.5051,"edge":false,"slope_mean":3.78,"elev_mean":11.9,"flood_hist_n":0,"flood_depth_max_m":null,"flood_risk_100y":null,"semi_basement_r":null,"elderly_alone_r":0.0915,"bldg_age30_r":null,"shelter_min_walk":7,"pop":27990,"hh":12716,"elderly65_r":0.1864,"single_hh_r":0.3708,"source_level":"emd","flood_years":[],"landslide_hist_n":0},"geometry":{"type":"Polygon","coordinates":[[[126.80362,37.64213],[126.8031,37.64646],[126.79889,37.6484],[126.79522,37.646],[126.79574,37.64166],[126.79995,37.63973],[126.80362,37.64213]]]}},{"type":"Feature","properties":{"h3":"8830e0a447fffff","emd_code":"4128554000","emd_name":"풍산동","area_km2":0.5052,"edge":true,"slope_mean":4.87,"elev_mean":13.2,"flood_hist_n":0,"flood_depth_max_m":null,"flood_risk_100y":null,"semi_basement_r":null,"elderly_alone_r":0.0922,"bldg_age30_r":null,"shelter_min_walk":17,"pop":42241,"hh":16998,"elderly65_r":0.1836,"single_hh_r":0.2666,"source_level":"emd","flood_years":[],"landslide_hist_n":0},"geometry":{"type":"Polygon","coordinates":[[[126.8115,37.64259],[126.81098,37.64692],[126.80677,37.64886],[126.8031,37.64646],[126.80362,37.64213],[126.80783,37.64019],[126.8115,37.64259]]]}},{"type":"Feature","properties":{"h3":"8830e0a449fffff","emd_code":"4128554000","emd_name":"풍산동","area_km2":0.5051,"edge":false,"slope_mean":3.63,"elev_mean":12.5,"flood_hist_n":1,"flood_depth_max_m":1.0,"flood_risk_100y":null,"semi_basement_r":null,"elderly_alone_r":0.0922,"bldg_age30_r":null,"shelter_min_walk":5,"pop":42241,"hh":16998,"elderly65_r":0.1836,"single_hh_r":0.2666,"source_level":"emd","flood_years":[2006],"landslide_hist_n":0},"geometry":{"type":"Polygon","coordinates":[[[126.80204,37.65513],[126.80152,37.65947],[126.79731,37.66141],[126.79364,37.65901],[126.79416,37.65467],[126.79837,37.65273],[126.80204,37.65513]]]}},{"type":"Feature","properties":{"h3":"8830e0a44bfffff","emd_code":"4128554000","emd_name":"풍산동","area_km2":0.5052,"edge":false,"slope_mean":4.99,"elev_mean":14.1,"flood_hist_n":1,"flood_depth_max_m":0.5,"flood_risk_100y":null,"semi_basement_r":null,"elderly_alone_r":0.0922,"bldg_age30_r":null,"shelter_min_walk":7,"pop":42241,"hh":16998,"elderly65_r":0.1836,"single_hh_r":0.2666,"source_level":"emd","flood_years":[2006],"landslide_hist_n":0},"geometry":{"type":"Polygon","coordinates":[[[126.80992,37.6556],[126.8094,37.65993],[126.80519,37.66187],[126.80152,37.65947],[126.80204,37.65513],[126.80625,37.6532],[126.80992,37.6556]]]}},{"type":"Feature","properties":{"h3":"8830e0a44dfffff","emd_code":"4128555100","emd_name":"백석1동","area_km2":0.5051,"edge":false,"slope_mean":4.75,"elev_mean":16.3,"flood_hist_n":0,"flood_depth_max_m":null,"flood_risk_100y":null,"semi_basement_r":null,"elderly_alone_r":0.0915,"bldg_age30_r":null,"shelter_min_walk":2,"pop":27990,"hh":12716,"elderly65_r":0.1864,"single_hh_r":0.3708,"source_level":"emd","flood_years":[],"landslide_hist_n":0},"geometry":{"type":"Polygon","coordinates":[[[126.79889,37.6484],[126.79837,37.65273],[126.79416,37.65467],[126.79049,37.65227],[126.79101,37.64794],[126.79522,37.646],[126.79889,37.6484]]]}},{"type":"Feature","properties":{"h3":"8830e0a455fffff","emd_code":"4128554000","emd_name":"풍산동","area_km2":0.5054,"edge":true,"slope_mean":7.79,"elev_mean":26.4,"flood_hist_n":0,"flood_depth_max_m":null,"flood_risk_100y":null,"semi_basement_r":null,"elderly_alone_r":0.0922,"bldg_age30_r":null,"shelter_min_walk":21,"pop":42241,"hh":16998,"elderly65_r":0.1836,"single_hh_r":0.2666,"source_level":"emd","flood_years":[],"landslide_hist_n":0},"geometry":{"type":"Polygon","coordinates":[[[126.82254,37.64978],[126.82201,37.65412],[126.81781,37.65606],[126.81413,37.65366],[126.81465,37.64932],[126.81886,37.64738],[126.82254,37.64978]]]}},{"type":"Feature","properties":{"h3":"8830e0a459fffff","emd_code":"4128551000","emd_name":"식사동","area_km2":0.5054,"edge":false,"slope_mean":6.83,"elev_mean":32.3,"flood_hist_n":0,"flood_depth_max_m":null,"flood_risk_100y":null,"semi_basement_r":null,"elderly_alone_r":0.049,"bldg_age30_r":null,"shelter_min_walk":16,"pop":40167,"hh":15026,"elderly65_r":0.1302,"single_hh_r":0.245,"source_level":"emd","flood_years":[],"landslide_hist_n":0},"geometry":{"type":"Polygon","coordinates":[[[126.82096,37.66279],[126.82043,37.66713],[126.81623,37.66907],[126.81255,37.66667],[126.81308,37.66233],[126.81728,37.66039],[126.82096,37.66279]]]}},{"type":"Feature","properties":{"h3":"8830e0a45dfffff","emd_code":"4128554000","emd_name":"풍산동","area_km2":0.5053,"edge":true,"slope_mean":6.4,"elev_mean":26.4,"flood_hist_n":0,"flood_depth_max_m":null,"flood_risk_100y":null,"semi_basement_r":null,"elderly_alone_r":0.0922,"bldg_age30_r":null,"shelter_min_walk":17,"pop":42241,"hh":16998,"elderly65_r":0.1836,"single_hh_r":0.2666,"source_level":"emd","flood_years":[],"landslide_hist_n":0},"geometry":{"type":"Polygon","coordinates":[[[126.81781,37.65606],[126.81728,37.66039],[126.81308,37.66233],[126.8094,37.65993],[126.80992,37.6556],[126.81413,37.65366],[126.81781,37.65606]]]}},{"type":"Feature","properties":{"h3":"8830e0a469fffff","emd_code":"4128558000","emd_name":"장항1동","area_km2":0.505,"edge":true,"slope_mean":2.32,"elev_mean":8.3,"flood_hist_n":1,"flood_depth_max_m":0.5,"flood_risk_100y":null,"semi_basement_r":null,"elderly_alone_r":0.0518,"bldg_age30_r":null,"shelter_min_walk":7,"pop":20013,"hh":8441,"elderly65_r":0.0914,"single_hh_r":0.2803,"source_level":"emd","flood_years":[2006],"landslide_hist_n":0},"geometry":{"type":"Polygon","coordinates":[[[126.80047,37.63539],[126.79995,37.63973],[126.79574,37.64166],[126.79207,37.63927],[126.7926,37.63493],[126.7968,37.63299],[126.80047,37.63539]]]}},{"type":"Feature","properties":{"h3":"8830e0a46dfffff","emd_code":"4128558000","emd_name":"장항1동","area_km2":0.505,"edge":false,"slope_mean":1.83,"elev_mean":7.1,"flood_hist_n":1,"flood_depth_max_m":0.8,"flood_risk_100y":null,"semi_basement_r":null,"elderly_alone_r":0.0518,"bldg_age30_r":null,"shelter_min_walk":18,"pop":20013,"hh":8441,"elderly65_r":0.0914,"single_hh_r":0.2803,"source_level":"emd","flood_years":[2006],"landslide_hist_n":0},"geometry":{"type":"Polygon","coordinates":[[[126.79732,37.62866],[126.7968,37.63299],[126.7926,37.63493],[126.78892,37.63253],[126.78945,37.6282],[126.79365,37.62626],[126.79732,37.62866]]]}},{"type":"Feature","properties":{"h3":"8830e0a601fffff","emd_code":"4128552600","emd_name":"중산2동","area_km2":0.505,"edge":false,"slope_mean":7.79,"elev_mean":44.0,"flood_hist_n":0,"flood_depth_max_m":null,"flood_risk_100y":null,"semi_basement_r":null,"elderly_alone_r":0.1092,"bldg_age30_r":null,"shelter_min_walk":1,"pop":22595,"hh":9442,"elderly65_r":0.2022,"single_hh_r":0.2819,"source_level":"emd","flood_years":[],"landslide_hist_n":0},"geometry":{"type":"Polygon","coordinates":[[[126.791,37.68068],[126.79047,37.68502],[126.78627,37.68695],[126.78259,37.68455],[126.78312,37.68022],[126.78732,37.67828],[126.791,37.68068]]]}},{"type":"Feature","properties":{"h3":"8830e0a603fffff","emd_code":"4128554000","emd_name":"풍산동","area_km2":0.5051,"edge":false,"slope_mean":9.25,"elev_mean":53.1,"flood_hist_n":0,"flood_depth_max_m":null,"flood_risk_100y":null,"semi_basement_r":null,"elderly_alone_r":0.0922,"bldg_age30_r":null,"shelter_min_walk":10,"pop":42241,"hh":16998,"elderly65_r":0.1836,"single_hh_r":0.2666,"source_level":"emd","flood_years":[],"landslide_hist_n":0},"geometry":{"type":"Polygon","coordinates":[[[126.79888,37.68115],[126.79836,37.68548],[126.79415,37.68742],[126.79047,37.68502],[126.791,37.68068],[126.7952,37.67875],[126.79888,37.68115]]]}},{"type":"Feature","properties":{"h3":"8830e0a605fffff","emd_code":"4128552600","emd_name":"중산2동","area_km2":0.505,"edge":false,"slope_mean":4.29,"elev_mean":27.5,"flood_hist_n":0,"flood_depth_max_m":null,"flood_risk_100y":null,"semi_basement_r":null,"elderly_alone_r":0.1092,"bldg_age30_r":null,"shelter_min_walk":2,"pop":22595,"hh":9442,"elderly65_r":0.2022,"single_hh_r":0.2819,"source_level":"emd","flood_years":[],"landslide_hist_n":0},"geometry":{"type":"Polygon","coordinates":[[[126.78785,37.67395],[126.78732,37.67828],[126.78312,37.68022],[126.77944,37.67782],[126.77997,37.67348],[126.78417,37.67155],[126.78785,37.67395]]]}},{"type":"Feature","properties":{"h3":"8830e0a607fffff","emd_code":"4128554000","emd_name":"풍산동","area_km2":0.5051,"edge":false,"slope_mean":5.97,"elev_mean":32.7,"flood_hist_n":0,"flood_depth_max_m":null,"flood_risk_100y":null,"semi_basement_r":null,"elderly_alone_r":0.0922,"bldg_age30_r":null,"shelter_min_walk":5,"pop":42241,"hh":16998,"elderly65_r":0.1836,"single_hh_r":0.2666,"source_level":"emd","flood_years":[],"landslide_hist_n":0},"geometry":{"type":"Polygon","coordinates":[[[126.79573,37.67441],[126.7952,37.67875],[126.791,37.68068],[126.78732,37.67828],[126.78785,37.67395],[126.79205,37.67201],[126.79573,37.67441]]]}},{"type":"Feature","properties":{"h3":"8830e0a609fffff","emd_code":"4128552500","emd_name":"중산1동","area_km2":0.505,"edge":false,"slope_mean":6.37,"elev_mean":46.4,"flood_hist_n":0,"flood_depth_max_m":null,"flood_risk_100y":null,"semi_basement_r":null,"elderly_alone_r":0.1484,"bldg_age30_r":null,"shelter_min_walk":1,"pop":19781,"hh":8951,"elderly65_r":0.2604,"single_hh_r":0.3715,"source_level":"emd","flood_years":[],"landslide_hist_n":0},"geometry":{"type":"Polygon","coordinates":[[[126.78627,37.68695],[126.78574,37.69129],[126.78153,37.69322],[126.77786,37.69082],[126.77839,37.68649],[126.78259,37.68455],[126.78627,37.68695]]]}},{"type":"Feature","properties":{"h3":"8830e0a60bfffff","emd_code":"4128552500","emd_name":"중산1동","area_km2":0.5051,"edge":false,"slope_mean":16.35,"elev_mean":109.5,"flood_hist_n":0,"flood_depth_max_m":null,"flood_risk_100y":null,"semi_basement_r":null,"elderly_alone_r":0.1484,"bldg_age30_r":null,"shelter_min_walk":9,"pop":19781,"hh":8951,"elderly65_r":0.2604,"single_hh_r":0.3715,"source_level":"emd","flood_years":[],"landslide_hist_n":0},"geometry":{"type":"Polygon","coordinates":[[[126.79415,37.68742],[126.79362,37.69176],[126.78942,37.69369],[126.78574,37.69129],[126.78627,37.68695],[126.79047,37.68502],[126.79415,37.68742]]]}},{"type":"Feature","properties":{"h3":"8830e0a60dfffff","emd_code":"4128552600","emd_name":"중산2동","area_km2":0.5049,"edge":false,"slope_mean":5.58,"elev_mean":28.1,"flood_hist_n":0,"flood_depth_max_m":null,"flood_risk_100y":null,"semi_basement_r":null,"elderly_alone_r":0.1092,"bldg_age30_r":null,"shelter_min_walk":2,"pop":22595,"hh":9442,"elderly65_r":0.2022,"single_hh_r":0.2819,"source_level":"emd","flood_years":[],"landslide_hist_n":0},"geometry":{"type":"Polygon","coordinates":[[[126.78312,37.68022],[126.78259,37.68455],[126.77839,37.68649],[126.77471,37.68409],[126.77524,37.67975],[126.77944,37.67782],[126.78312,37.68022]]]}},{"type":"Feature","properties":{"h3":"8830e0a611fffff","emd_code":"4128560000","emd_name":"고봉동","area_km2":0.5053,"edge":false,"slope_mean":9.07,"elev_mean":50.9,"flood_hist_n":0,"flood_depth_max_m":null,"flood_risk_100y":null,"semi_basement_r":null,"elderly_alone_r":0.1825,"bldg_age30_r":null,"shelter_min_walk":15,"pop":20741,"hh":10557,"elderly65_r":0.277,"single_hh_r":0.4762,"source_level":"emd","flood_years":[],"landslide_hist_n":0},"geometry":{"type":"Polygon","coordinates":[[[126.80992,37.68835],[126.80939,37.69269],[126.80519,37.69462],[126.80151,37.69222],[126.80203,37.68788],[126.80624,37.68595],[126.80992,37.68835]]]}},{"type":"Feature","properties":{"h3":"8830e0a613fffff","emd_code":"4128551000","emd_name":"식사동","area_km2":0.5054,"edge":false,"slope_mean":8.32,"elev_mean":57.3,"flood_hist_n":0,"flood_depth_max_m":null,"flood_risk_100y":null,"semi_basement_r":null,"elderly_alone_r":0.049,"bldg_age30_r":null,"shelter_min_walk":14,"pop":40167,"hh":15026,"elderly65_r":0.1302,"single_hh_r":0.245,"source_level":"emd","flood_years":[],"landslide_hist_n":0},"geometry":{"type":"Polygon","coordinates":[[[126.8178,37.68881],[126.81728,37.69315],[126.81307,37.69509],[126.80939,37.69269],[126.80992,37.68835],[126.81412,37.68641],[126.8178,37.68881]]]}},{"type":"Feature","properties":{"h3":"8830e0a615fffff","emd_code":"4128551000","emd_name":"식사동","area_km2":0.5053,"edge":false,"slope_mean":7.4,"elev_mean":45.0,"flood_hist_n":0,"flood_depth_max_m":null,"flood_risk_100y":null,"semi_basement_r":null,"elderly_alone_r":0.049,"bldg_age30_r":null,"shelter_min_walk":12,"pop":40167,"hh":15026,"elderly65_r":0.1302,"single_hh_r":0.245,"source_level":"emd","flood_years":[],"landslide_hist_n":0},"geometry":{"type":"Polygon","coordinates":[[[126.80677,37.68161],[126.80624,37.68595],[126.80203,37.68788],[126.79836,37.68548],[126.79888,37.68115],[126.80309,37.67921],[126.80677,37.68161]]]}},{"type":"Feature","properties":{"h3":"8830e0a617fffff","emd_code":"4128551000","emd_name":"식사동","area_km2":0.5054,"edge":false,"slope_mean":8.68,"elev_mean":50.2,"flood_hist_n":0,"flood_depth_max_m":null,"flood_risk_100y":null,"semi_basement_r":null,"elderly_alone_r":0.049,"bldg_age30_r":null,"shelter_min_walk":3,"pop":40167,"hh":15026,"elderly65_r":0.1302,"single_hh_r":0.245,"source_level":"emd","flood_years":[],"landslide_hist_n":0},"geometry":{"type":"Polygon","coordinates":[[[126.81465,37.68208],[126.81412,37.68641],[126.80992,37.68835],[126.80624,37.68595],[126.80677,37.68161],[126.81097,37.67968],[126.81465,37.68208]]]}},{"type":"Feature","properties":{"h3":"8830e0a619fffff","emd_code":"4128560000","emd_name":"고봉동","area_km2":0.5053,"edge":false,"slope_mean":5.73,"elev_mean":34.5,"flood_hist_n":0,"flood_depth_max_m":null,"flood_risk_100y":null,"semi_basement_r":null,"elderly_alone_r":0.1825,"bldg_age30_r":null,"shelter_min_walk":25,"pop":20741,"hh":10557,"elderly65_r":0.277,"single_hh_r":0.4762,"source_level":"emd","flood_years":[],"landslide_hist_n":0},"geometry":{"type":"Polygon","coordinates":[[[126.80519,37.69462],[126.80466,37.69896],[126.80045,37.70089],[126.79677,37.69849],[126.7973,37.69416],[126.80151,37.69222],[126.80519,37.69462]]]}},{"type":"Feature","properties":{"h3":"8830e0a61bfffff","emd_code":"4128560000","emd_name":"고봉동","area_km2":0.5054,"edge":false,"slope_mean":9.85,"elev_mean":50.1,"flood_hist_n":0,"flood_depth_max_m":null,"flood_risk_100y":null,"semi_basement_r":null,"elderly_alone_r":0.1825,"bldg_age30_r":null,"shelter_min_walk":25,"pop":20741,"hh":10557,"elderly65_r":0.277,"single_hh_r":0.4762,"source_level":"emd","flood_years":[],"landslide_hist_n":0},"geometry":{"type":"Polygon","coordinates":[[[126.81307,37.69509],[126.81255,37.69942],[126.80834,37.70136],[126.80466,37.69896],[126.80519,37.69462],[126.80939,37.69269],[126.81307,37.69509]]]}},{"type":"Feature","properties":{"h3":"8830e0a61dfffff","emd_code":"4128560000","emd_name":"고봉동","area_km2":0.5052,"edge":false,"slope_mean":8.26,"elev_mean":51.7,"flood_hist_n":0,"flood_depth_max_m":null,"flood_risk_100y":null,"semi_basement_r":null,"elderly_alone_r":0.1825,"bldg_age30_r":null,"shelter_min_walk":18,"pop":20741,"hh":10557,"elderly65_r":0.277,"single_hh_r":0.4762,"source_level":"emd","flood_years":[],"landslide_hist_n":0},"geometry":{"type":"Polygon","coordinates":[[[126.80203,37.68788],[126.80151,37.69222],[126.7973,37.69416],[126.79362,37.69176],[126.79415,37.68742],[126.79836,37.68548],[126.80203,37.68788]]]}},{"type":"Feature","properties":{"h3":"8830e0a621fffff","emd_code":"4128556000","emd_name":"마두1동","area_km2":0.505,"edge":false,"slope_mean":4.9,"elev_mean":25.8,"flood_hist_n":0,"flood_depth_max_m":null,"flood_risk_100y":null,"semi_basement_r":null,"elderly_alone_r":0.0825,"bldg_age30_r":null,"shelter_min_walk":5,"pop":22271,"hh":8666,"elderly65_r":0.182,"single_hh_r":0.2661,"source_level":"emd","flood_years":[],"landslide_hist_n":0},"geometry":{"type":"Polygon","coordinates":[[[126.78943,37.66094],[126.78891,37.66528],[126.7847,37.66721],[126.78103,37.66481],[126.78155,37.66048],[126.78576,37.65854],[126.78943,37.66094]]]}},{"type":"Feature","properties":{"h3":"8830e0a623fffff","emd_code":"4128554000","emd_name":"풍산동","area_km2":0.5051,"edge":false,"slope_mean":3.79,"elev_mean":15.7,"flood_hist_n":0,"flood_depth_max_m":null,"flood_risk_100y":null,"semi_basement_r":null,"elderly_alone_r":0.0922,"bldg_age30_r":null,"shelter_min_walk":4,"pop":42241,"hh":16998,"elderly65_r":0.1836,"single_hh_r":0.2666,"source_level":"emd","flood_years":[],"landslide_hist_n":0},"geometry":{"type":"Polygon","coordinates":[[[126.79731,37.66141],[126.79679,37.66574],[126.79258,37.66768],[126.78891,37.66528],[126.78943,37.66094],[126.79364,37.65901],[126.79731,37.66141]]]}},{"type":"Feature","properties":{"h3":"8830e0a625fffff","emd_code":"4128557000","emd_name":"마두2동","area_km2":0.5049,"edge":false,"slope_mean":5.3,"elev_mean":17.8,"flood_hist_n":0,"flood_depth_max_m":null,"flood_risk_100y":null,"semi_basement_r":null,"elderly_alone_r":0.0973,"bldg_age30_r":null,"shelter_min_walk":1,"pop":15029,"hh":5706,"elderly65_r":0.1846,"single_hh_r":0.2448,"source_level":"emd","flood_years":[],"landslide_hist_n":0},"geometry":{"type":"Polygon","coordinates":[[[126.78629,37.65421],[126.78576,37.65854],[126.78155,37.66048],[126.77788,37.65808],[126.77841,37.65374],[126.78261,37.65181],[126.78629,37.65421]]]}},{"type":"Feature","properties":{"h3":"8830e0a627fffff","emd_code":"4128556000","emd_name":"마두1동","area_km2":0.505,"edge":false,"slope_mean":4.89,"elev_mean":16.7,"flood_hist_n":0,"flood_depth_max_m":null,"flood_risk_100y":null,"semi_basement_r":null,"elderly_alone_r":0.0825,"bldg_age30_r":null,"shelter_min_walk":3,"pop":22271,"hh":8666,"elderly65_r":0.182,"single_hh_r":0.2661,"source_level":"emd","flood_years":[],"landslide_hist_n":0},"geometry":{"type":"Polygon","coordinates":[[[126.79416,37.65467],[126.79364,37.65901],[126.78943,37.66094],[126.78576,37.65854],[126.78629,37.65421],[126.79049,37.65227],[126.79416,37.65467]]]}},{"type":"Feature","properties":{"h3":"8830e0a629fffff","emd_code":"4128553000","emd_name":"정발산동","area_km2":0.5049,"edge":false,"slope_mean":4.45,"elev_mean":31.8,"flood_hist_n":0,"flood_depth_max_m":null,"flood_risk_100y":null,"semi_basement_r":null,"elderly_alone_r":0.1065,"bldg_age30_r":null,"shelter_min_walk":7,"pop":20946,"hh":9926,"elderly65_r":0.2251,"single_hh_r":0.4117,"source_level":"emd","flood_years":[],"landslide_hist_n":0},"geometry":{"type":"Polygon","coordinates":[[[126.7847,37.66721],[126.78417,37.67155],[126.77997,37.67348],[126.7763,37.67108],[126.77682,37.66675],[126.78103,37.66481],[126.7847,37.66721]]]}},{"type":"Feature","properties":{"h3":"8830e0a62bfffff","emd_code":"4128554000","emd_name":"풍산동","area_km2":0.505,"edge":false,"slope_mean":4.06,"elev_mean":24.1,"flood_hist_n":0,"flood_depth_max_m":null,"flood_risk_100y":null,"semi_basement_r":null,"elderly_alone_r":0.0922,"bldg_age30_r":null,"shelter_min_walk":2,"pop":42241,"hh":16998,"elderly65_r":0.1836,"single_hh_r":0.2666,"source_level":"emd","flood_years":[],"landslide_hist_n":0},"geometry":{"type":"Polygon","coordinates":[[[126.79258,37.66768],[126.79205,37.67201],[126.78785,37.67395],[126.78417,37.67155],[126.7847,37.66721],[126.78891,37.66528],[126.79258,37.66768]]]}},{"type":"Feature","properties":{"h3":"8830e0a62dfffff","emd_code":"4128556000","emd_name":"마두1동","area_km2":0.5048,"edge":false,"slope_mean":11.02,"elev_mean":42.1,"flood_hist_n":0,"flood_depth_max_m":null,"flood_risk_100y":null,"semi_basement_r":null,"elderly_alone_r":0.0825,"bldg_age30_r":null,"shelter_min_walk":7,"pop":22271,"hh":8666,"elderly65_r":0.182,"single_hh_r":0.2661,"source_level":"emd","flood_years":[],"landslide_hist_n":0},"geometry":{"type":"Polygon","coordinates":[[[126.78155,37.66048],[126.78103,37.66481],[126.77682,37.66675],[126.77315,37.66435],[126.77368,37.66001],[126.77788,37.65808],[126.78155,37.66048]]]}},{"type":"Feature","properties":{"h3":"8830e0a631fffff","emd_code":"4128551000","emd_name":"식사동","area_km2":0.5052,"edge":false,"slope_mean":4.28,"elev_mean":20.5,"flood_hist_n":0,"flood_depth_max_m":null,"flood_risk_100y":null,"semi_basement_r":null,"elderly_alone_r":0.049,"bldg_age30_r":null,"shelter_min_walk":3,"pop":40167,"hh":15026,"elderly65_r":0.1302,"single_hh_r":0.245,"source_level":"emd","flood_years":[],"landslide_hist_n":0},"geometry":{"type":"Polygon","coordinates":[[[126.80835,37.6686],[126.80782,37.67294],[126.80361,37.67488],[126.79994,37.67248],[126.80046,37.66814],[126.80467,37.6662],[126.80835,37.6686]]]}},{"type":"Feature","properties":{"h3":"8830e0a633fffff","emd_code":"4128551000","emd_name":"식사동","area_km2":0.5054,"edge":false,"slope_mean":4.18,"elev_mean":20.4,"flood_hist_n":0,"flood_depth_max_m":null,"flood_risk_100y":null,"semi_basement_r":null,"elderly_alone_r":0.049,"bldg_age30_r":null,"shelter_min_walk":7,"pop":40167,"hh":15026,"elderly65_r":0.1302,"single_hh_r":0.245,"source_level":"emd","flood_years":[],"landslide_hist_n":0},"geometry":{"type":"Polygon","coordinates":[[[126.81623,37.66907],[126.8157,37.6734],[126.8115,37.67534],[126.80782,37.67294],[126.80835,37.6686],[126.81255,37.66667],[126.81623,37.66907]]]}},{"type":"Feature","properties":{"h3":"8830e0a635fffff","emd_code":"4128554000","emd_name":"풍산동","area_km2":0.5052,"edge":false,"slope_mean":3.96,"elev_mean":15.3,"flood_hist_n":0,"flood_depth_max_m":null,"flood_risk_100y":null,"semi_basement_r":null,"elderly_alone_r":0.0922,"bldg_age30_r":null,"shelter_min_walk":4,"pop":42241,"hh":16998,"elderly65_r":0.1836,"single_hh_r":0.2666,"source_level":"emd","flood_years":[],"landslide_hist_n":0},"geometry":{"type":"Polygon","coordinates":[[[126.80519,37.66187],[126.80467,37.6662],[126.80046,37.66814],[126.79679,37.66574],[126.79731,37.66141],[126.80152,37.65947],[126.80519,37.66187]]]}},{"type":"Feature","properties":{"h3":"8830e0a637fffff","emd_code":"4128554000","emd_name":"풍산동","area_km2":0.5053,"edge":false,"slope_mean":3.28,"elev_mean":13.8,"flood_hist_n":1,"flood_depth_max_m":0.5,"flood_risk_100y":null,"semi_basement_r":null,"elderly_alone_r":0.0922,"bldg_age30_r":null,"shelter_min_walk":6,"pop":42241,"hh":16998,"elderly65_r":0.1836,"single_hh_r":0.2666,"source_level":"emd","flood_years":[2006],"landslide_hist_n":0},"geometry":{"type":"Polygon","coordinates":[[[126.81308,37.66233],[126.81255,37.66667],[126.80835,37.6686],[126.80467,37.6662],[126.80519,37.66187],[126.8094,37.65993],[126.81308,37.66233]]]}},{"type":"Feature","properties":{"h3":"8830e0a639fffff","emd_code":"4128551000","emd_name":"식사동","area_km2":0.5052,"edge":false,"slope_mean":6.09,"elev_mean":31.8,"flood_hist_n":0,"flood_depth_max_m":null,"flood_risk_100y":null,"semi_basement_r":null,"elderly_alone_r":0.049,"bldg_age30_r":null,"shelter_min_walk":9,"pop":40167,"hh":15026,"elderly65_r":0.1302,"single_hh_r":0.245,"source_level":"emd","flood_years":[],"landslide_hist_n":0},"geometry":{"type":"Polygon","coordinates":[[[126.80361,37.67488],[126.80309,37.67921],[126.79888,37.68115],[126.7952,37.67875],[126.79573,37.67441],[126.79994,37.67248],[126.80361,37.67488]]]}},{"type":"Feature","properties":{"h3":"8830e0a63bfffff","emd_code":"4128551000","emd_name":"식사동","area_km2":0.5053,"edge":false,"slope_mean":6.71,"elev_mean":32.7,"flood_hist_n":0,"flood_depth_max_m":null,"flood_risk_100y":null,"semi_basement_r":null,"elderly_alone_r":0.049,"bldg_age30_r":null,"shelter_min_walk":5,"pop":40167,"hh":15026,"elderly65_r":0.1302,"single_hh_r":0.245,"source_level":"emd","flood_years":[],"landslide_hist_n":0},"geometry":{"type":"Polygon","coordinates":[[[126.8115,37.67534],[126.81097,37.67968],[126.80677,37.68161],[126.80309,37.67921],[126.80361,37.67488],[126.80782,37.67294],[126.8115,37.67534]]]}},{"type":"Feature","properties":{"h3":"8830e0a63dfffff","emd_code":"4128554000","emd_name":"풍산동","area_km2":0.5051,"edge":false,"slope_mean":5.65,"elev_mean":26.5,"flood_hist_n":0,"flood_depth_max_m":null,"flood_risk_100y":null,"semi_basement_r":null,"elderly_alone_r":0.0922,"bldg_age30_r":null,"shelter_min_walk":4,"pop":42241,"hh":16998,"elderly65_r":0.1836,"single_hh_r":0.2666,"source_level":"emd","flood_years":[],"landslide_hist_n":0},"geometry":{"type":"Polygon","coordinates":[[[126.80046,37.66814],[126.79994,37.67248],[126.79573,37.67441],[126.79205,37.67201],[126.79258,37.66768],[126.79679,37.66574],[126.80046,37.66814]]]}},{"type":"Feature","properties":{"h3":"8830e0a643fffff","emd_code":"4128552500","emd_name":"중산1동","area_km2":0.5049,"edge":true,"slope_mean":7.19,"elev_mean":45.1,"flood_hist_n":0,"flood_depth_max_m":null,"flood_risk_100y":null,"semi_basement_r":null,"elderly_alone_r":0.1484,"bldg_age30_r":null,"shelter_min_walk":4,"pop":19781,"hh":8951,"elderly65_r":0.2604,"single_hh_r":0.3715,"source_level":"emd","flood_years":[],"landslide_hist_n":0},"geometry":{"type":"Polygon","coordinates":[[[126.78153,37.69322],[126.78101,37.69756],[126.7768,37.69949],[126.77313,37.69709],[126.77365,37.69276],[126.77786,37.69082],[126.78153,37.69322]]]}},{"type":"Feature","properties":{"h3":"8830e0a647fffff","emd_code":"4128552500","emd_name":"중산1동","area_km2":0.5049,"edge":true,"slope_mean":4.57,"elev_mean":31.1,"flood_hist_n":0,"flood_depth_max_m":null,"flood_risk_100y":null,"semi_basement_r":null,"elderly_alone_r":0.1484,"bldg_age30_r":null,"shelter_min_walk":3,"pop":19781,"hh":8951,"elderly65_r":0.2604,"single_hh_r":0.3715,"source_level":"emd","flood_years":[],"landslide_hist_n":0},"geometry":{"type":"Polygon","coordinates":[[[126.77839,37.68649],[126.77786,37.69082],[126.77365,37.69276],[126.76998,37.69036],[126.77051,37.68602],[126.77471,37.68409],[126.77839,37.68649]]]}},{"type":"Feature","properties":{"h3":"8830e0a64bfffff","emd_code":"4128560000","emd_name":"고봉동","area_km2":0.5049,"edge":true,"slope_mean":11.28,"elev_mean":63.7,"flood_hist_n":0,"flood_depth_max_m":null,"flood_risk_100y":null,"semi_basement_r":null,"elderly_alone_r":0.1825,"bldg_age30_r":null,"shelter_min_walk":7,"pop":20741,"hh":10557,"elderly65_r":0.277,"single_hh_r":0.4762,"source_level":"emd","flood_years":[],"landslide_hist_n":0},"geometry":{"type":"Polygon","coordinates":[[[126.7768,37.69949],[126.77627,37.70383],[126.77207,37.70576],[126.76839,37.70336],[126.76892,37.69903],[126.77313,37.69709],[126.7768,37.69949]]]}},{"type":"Feature","properties":{"h3":"8830e0a651fffff","emd_code":"4128560000","emd_name":"고봉동","area_km2":0.5051,"edge":false,"slope_mean":11.52,"elev_mean":70.3,"flood_hist_n":0,"flood_depth_max_m":null,"flood_risk_100y":null,"semi_basement_r":null,"elderly_alone_r":0.1825,"bldg_age30_r":null,"shelter_min_walk":15,"pop":20741,"hh":10557,"elderly65_r":0.277,"single_hh_r":0.4762,"source_level":"emd","flood_years":[],"landslide_hist_n":0},"geometry":{"type":"Polygon","coordinates":[[[126.79257,37.70043],[126.79204,37.70476],[126.78783,37.7067],[126.78416,37.7043],[126.78468,37.69996],[126.78889,37.69803],[126.79257,37.70043]]]}},{"type":"Feature","properties":{"h3":"8830e0a653fffff","emd_code":"4128560000","emd_name":"고봉동","area_km2":0.5052,"edge":false,"slope_mean":9.35,"elev_mean":50.7,"flood_hist_n":0,"flood_depth_max_m":null,"flood_risk_100y":null,"semi_basement_r":null,"elderly_alone_r":0.1825,"bldg_age30_r":null,"shelter_min_walk":20,"pop":20741,"hh":10557,"elderly65_r":0.277,"single_hh_r":0.4762,"source_level":"emd","flood_years":[],"landslide_hist_n":0},"geometry":{"type":"Polygon","coordinates":[[[126.80045,37.70089],[126.79993,37.70523],[126.79572,37.70716],[126.79204,37.70476],[126.79257,37.70043],[126.79677,37.69849],[126.80045,37.70089]]]}},{"type":"Feature","properties":{"h3":"8830e0a655fffff","emd_code":"4128552500","emd_name":"중산1동","area_km2":0.505,"edge":false,"slope_mean":12.79,"elev_mean":88.7,"flood_hist_n":0,"flood_depth_max_m":null,"flood_risk_100y":null,"semi_basement_r":null,"elderly_alone_r":0.1484,"bldg_age30_r":null,"shelter_min_walk":5,"pop":19781,"hh":8951,"elderly65_r":0.2604,"single_hh_r":0.3715,"source_level":"emd","flood_years":[],"landslide_hist_n":0},"geometry":{"type":"Polygon","coordinates":[[[126.78942,37.69369],[126.78889,37.69803],[126.78468,37.69996],[126.78101,37.69756],[126.78153,37.69322],[126.78574,37.69129],[126.78942,37.69369]]]}},{"type":"Feature","properties":{"h3":"8830e0a657fffff","emd_code":"4128560000","emd_name":"고봉동","area_km2":0.5052,"edge":false,"slope_mean":13.42,"elev_mean":87.4,"flood_hist_n":0,"flood_depth_max_m":null,"flood_risk_100y":null,"semi_basement_r":null,"elderly_alone_r":0.1825,"bldg_age30_r":null,"shelter_min_walk":15,"pop":20741,"hh":10557,"elderly65_r":0.277,"single_hh_r":0.4762,"source_level":"emd","flood_years":[],"landslide_hist_n":0},"geometry":{"type":"Polygon","coordinates":[[[126.7973,37.69416],[126.79677,37.69849],[126.79257,37.70043],[126.78889,37.69803],[126.78942,37.69369],[126.79362,37.69176],[126.7973,37.69416]]]}},{"type":"Feature","properties":{"h3":"8830e0a659fffff","emd_code":"4128560000","emd_name":"고봉동","area_km2":0.5051,"edge":false,"slope_mean":6.86,"elev_mean":36.4,"flood_hist_n":0,"flood_depth_max_m":null,"flood_risk_100y":null,"semi_basement_r":null,"elderly_alone_r":0.1825,"bldg_age30_r":null,"shelter_min_walk":13,"pop":20741,"hh":10557,"elderly65_r":0.277,"single_hh_r":0.4762,"source_level":"emd","flood_years":[],"landslide_hist_n":0},"geometry":{"type":"Polygon","coordinates":[[[126.78783,37.7067],[126.78731,37.71103],[126.7831,37.71297],[126.77942,37.71057],[126.77995,37.70623],[126.78416,37.7043],[126.78783,37.7067]]]}},{"type":"Feature","properties":{"h3":"8830e0a65bfffff","emd_code":"4128560000","emd_name":"고봉동","area_km2":0.5052,"edge":false,"slope_mean":7.62,"elev_mean":40.3,"flood_hist_n":0,"flood_depth_max_m":null,"flood_risk_100y":null,"semi_basement_r":null,"elderly_alone_r":0.1825,"bldg_age30_r":null,"shelter_min_walk":8,"pop":20741,"hh":10557,"elderly65_r":0.277,"single_hh_r":0.4762,"source_level":"emd","flood_years":[],"landslide_hist_n":0},"geometry":{"type":"Polygon","coordinates":[[[126.79572,37.70716],[126.79519,37.7115],[126.79098,37.71343],[126.78731,37.71103],[126.78783,37.7067],[126.79204,37.70476],[126.79572,37.70716]]]}},{"type":"Feature","properties":{"h3":"8830e0a65dfffff","emd_code":"4128560000","emd_name":"고봉동","area_km2":0.505,"edge":false,"slope_mean":11.07,"elev_mean":56.2,"flood_hist_n":0,"flood_depth_max_m":null,"flood_risk_100y":null,"semi_basement_r":null,"elderly_alone_r":0.1825,"bldg_age30_r":null,"shelter_min_walk":9,"pop":20741,"hh":10557,"elderly65_r":0.277,"single_hh_r":0.4762,"source_level":"emd","flood_years":[],"landslide_hist_n":0},"geometry":{"type":"Polygon","coordinates":[[[126.78468,37.69996],[126.78416,37.7043],[126.77995,37.70623],[126.77627,37.70383],[126.7768,37.69949],[126.78101,37.69756],[126.78468,37.69996]]]}},{"type":"Feature","properties":{"h3":"8830e0a663fffff","emd_code":"4128553000","emd_name":"정발산동","area_km2":0.5049,"edge":false,"slope_mean":4.12,"elev_mean":21.5,"flood_hist_n":0,"flood_depth_max_m":null,"flood_risk_100y":null,"semi_basement_r":null,"elderly_alone_r":0.1065,"bldg_age30_r":null,"shelter_min_walk":1,"pop":20946,"hh":9926,"elderly65_r":0.2251,"single_hh_r":0.4117,"source_level":"emd","flood_years":[],"landslide_hist_n":0},"geometry":{"type":"Polygon","coordinates":[[[126.77997,37.67348],[126.77944,37.67782],[126.77524,37.67975],[126.77156,37.67735],[126.77209,37.67302],[126.7763,37.67108],[126.77997,37.67348]]]}},{"type":"Feature","properties":{"h3":"8830e0a665fffff","emd_code":"4128559000","emd_name":"장항2동","area_km2":0.5047,"edge":true,"slope_mean":5.83,"elev_mean":15.3,"flood_hist_n":0,"flood_depth_max_m":null,"flood_risk_100y":null,"semi_basement_r":null,"elderly_alone_r":0.0801,"bldg_age30_r":null,"shelter_min_walk":1,"pop":26610,"hh":16409,"elderly65_r":0.1712,"single_hh_r":0.6396,"source_level":"emd","flood_years":[],"landslide_hist_n":0},"geometry":{"type":"Polygon","coordinates":[[[126.76895,37.66628],[126.76842,37.67062],[126.76422,37.67255],[126.76054,37.67015],[126.76107,37.66582],[126.76527,37.66388],[126.76895,37.66628]]]}},{"type":"Feature","properties":{"h3":"8830e0a667fffff","emd_code":"4128553000","emd_name":"정발산동","area_km2":0.5048,"edge":false,"slope_mean":3.73,"elev_mean":18.9,"flood_hist_n":0,"flood_depth_max_m":null,"flood_risk_100y":null,"semi_basement_r":null,"elderly_alone_r":0.1065,"bldg_age30_r":null,"shelter_min_walk":1,"pop":20946,"hh":9926,"elderly65_r":0.2251,"single_hh_r":0.4117,"source_level":"emd","flood_years":[],"landslide_hist_n":0},"geometry":{"type":"Polygon","coordinates":[[[126.77682,37.66675],[126.7763,37.67108],[126.77209,37.67302],[126.76842,37.67062],[126.76895,37.66628],[126.77315,37.66435],[126.77682,37.66675]]]}},{"type":"Feature","properties":{"h3":"8830e0a681fffff","emd_code":"4128560000","emd_name":"고봉동","area_km2":0.5058,"edge":false,"slope_mean":8.86,"elev_mean":54.7,"flood_hist_n":0,"flood_depth_max_m":null,"flood_risk_100y":null,"semi_basement_r":null,"elderly_alone_r":0.1825,"bldg_age30_r":null,"shelter_min_walk":22,"pop":20741,"hh":10557,"elderly65_r":0.277,"single_hh_r":0.4762,"source_level":"emd","flood_years":[],"landslide_hist_n":0},"geometry":{"type":"Polygon","coordinates":[[[126.8462,37.68393],[126.84568,37.68826],[126.84147,37.6902],[126.83779,37.6878],[126.83831,37.68346],[126.84252,37.68153],[126.8462,37.68393]]]}},{"type":"Feature","properties":{"h3":"8830e0a683fffff","emd_code":"4128560000","emd_name":"고봉동","area_km2":0.5059,"edge":true,"slope_mean":3.79,"elev_mean":27.2,"flood_hist_n":1,"flood_depth_max_m":0.5,"flood_risk_100y":null,"semi_basement_r":null,"elderly_alone_r":0.1825,"bldg_age30_r":null,"shelter_min_walk":21,"pop":20741,"hh":10557,"elderly65_r":0.277,"single_hh_r":0.4762,"source_level":"emd","flood_years":[2006],"landslide_hist_n":0},"geometry":{"type":"Polygon","coordinates":[[[126.85409,37.68439],[126.85357,37.68873],[126.84936,37.69066],[126.84568,37.68826],[126.8462,37.68393],[126.85041,37.68199],[126.85409,37.68439]]]}},{"type":"Feature","properties":{"h3":"8830e0a689fffff","emd_code":"4128560000","emd_name":"고봉동","area_km2":0.5058,"edge":false,"slope_mean":8.85,"elev_mean":49.6,"flood_hist_n":0,"flood_depth_max_m":null,"flood_risk_100y":null,"semi_basement_r":null,"elderly_alone_r":0.1825,"bldg_age30_r":null,"shelter_min_walk":17,"pop":20741,"hh":10557,"elderly65_r":0.277,"single_hh_r":0.4762,"source_level":"emd","flood_years":[],"landslide_hist_n":0},"geometry":{"type":"Polygon","coordinates":[[[126.84147,37.6902],[126.84095,37.69454],[126.83674,37.69648],[126.83306,37.69408],[126.83358,37.68974],[126.83779,37.6878],[126.84147,37.6902]]]}},{"type":"Feature","properties":{"h3":"8830e0a68bfffff","emd_code":"4128560000","emd_name":"고봉동","area_km2":0.5059,"edge":false,"slope_mean":6.84,"elev_mean":33.1,"flood_hist_n":1,"flood_depth_max_m":0.5,"flood_risk_100y":null,"semi_basement_r":null,"elderly_alone_r":0.1825,"bldg_age30_r":null,"shelter_min_walk":10,"pop":20741,"hh":10557,"elderly65_r":0.277,"single_hh_r":0.4762,"source_level":"emd","flood_years":[2006],"landslide_hist_n":0},"geometry":{"type":"Polygon","coordinates":[[[126.84936,37.69066],[126.84884,37.695],[126.84463,37.69694],[126.84095,37.69454],[126.84147,37.6902],[126.84568,37.68826],[126.84936,37.69066]]]}},{"type":"Feature","properties":{"h3":"8830e0a68dfffff","emd_code":"4128560000","emd_name":"고봉동","area_km2":0.5057,"edge":false,"slope_mean":9.21,"elev_mean":67.2,"flood_hist_n":0,"flood_depth_max_m":null,"flood_risk_100y":null,"semi_basement_r":null,"elderly_alone_r":0.1825,"bldg_age30_r":null,"shelter_min_walk":26,"pop":20741,"hh":10557,"elderly65_r":0.277,"single_hh_r":0.4762,"source_level":"emd","flood_years":[],"landslide_hist_n":0},"geometry":{"type":"Polygon","coordinates":[[[126.83831,37.68346],[126.83779,37.6878],[126.83358,37.68974],[126.8299,37.68734],[126.83042,37.683],[126.83463,37.68106],[126.83831,37.68346]]]}},{"type":"Feature","properties":{"h3":"8830e0a69dfffff","emd_code":"4128560000","emd_name":"고봉동","area_km2":0.506,"edge":false,"slope_mean":2.73,"elev_mean":21.2,"flood_hist_n":1,"flood_depth_max_m":0.5,"flood_risk_100y":null,"semi_basement_r":null,"elderly_alone_r":0.1825,"bldg_age30_r":null,"shelter_min_walk":13,"pop":20741,"hh":10557,"elderly65_r":0.277,"single_hh_r":0.4762,"source_level":"emd","flood_years":[2006],"landslide_hist_n":0},"geometry":{"type":"Polygon","coordinates":[[[126.85725,37.69113],[126.85673,37.69546],[126.85252,37.6974],[126.84884,37.695],[126.84936,37.69066],[126.85357,37.68873],[126.85725,37.69113]]]}},{"type":"Feature","properties":{"h3":"8830e0a6c1fffff","emd_code":"4128560000","emd_name":"고봉동","area_km2":0.5056,"edge":false,"slope_mean":9.56,"elev_mean":52.7,"flood_hist_n":0,"flood_depth_max_m":null,"flood_risk_100y":null,"semi_basement_r":null,"elderly_alone_r":0.1825,"bldg_age30_r":null,"shelter_min_walk":29,"pop":20741,"hh":10557,"elderly65_r":0.277,"single_hh_r":0.4762,"source_level":"emd","flood_years":[],"landslide_hist_n":0},"geometry":{"type":"Polygon","coordinates":[[[126.82885,37.69601],[126.82832,37.70035],[126.82411,37.70229],[126.82043,37.69989],[126.82096,37.69555],[126.82517,37.69361],[126.82885,37.69601]]]}},{"type":"Feature","properties":{"h3":"8830e0a6c3fffff","emd_code":"4128560000","emd_name":"고봉동","area_km2":0.5057,"edge":false,"slope_mean":8.32,"elev_mean":55.3,"flood_hist_n":0,"flood_depth_max_m":null,"flood_risk_100y":null,"semi_basement_r":null,"elderly_alone_r":0.1825,"bldg_age30_r":null,"shelter_min_walk":19,"pop":20741,"hh":10557,"elderly65_r":0.277,"single_hh_r":0.4762,"source_level":"emd","flood_years":[],"landslide_hist_n":0},"geometry":{"type":"Polygon","coordinates":[[[126.83674,37.69648],[126.83621,37.70082],[126.832,37.70275],[126.82832,37.70035],[126.82885,37.69601],[126.83306,37.69408],[126.83674,37.69648]]]}},{"type":"Feature","properties":{"h3":"8830e0a6c5fffff","emd_code":"4128551000","emd_name":"식사동","area_km2":0.5055,"edge":false,"slope_mean":10.54,"elev_mean":57.6,"flood_hist_n":0,"flood_depth_max_m":null,"flood_risk_100y":null,"semi_basement_r":null,"elderly_alone_r":0.049,"bldg_age30_r":null,"shelter_min_walk":19,"pop":40167,"hh":15026,"elderly65_r":0.1302,"single_hh_r":0.245,"source_level":"emd","flood_years":[],"landslide_hist_n":0},"geometry":{"type":"Polygon","coordinates":[[[126.82569,37.68928],[126.82517,37.69361],[126.82096,37.69555],[126.81728,37.69315],[126.8178,37.68881],[126.82201,37.68688],[126.82569,37.68928]]]}},{"type":"Feature","properties":{"h3":"8830e0a6c7fffff","emd_code":"4128560000","emd_name":"고봉동","area_km2":0.5056,"edge":false,"slope_mean":9.57,"elev_mean":68.0,"flood_hist_n":0,"flood_depth_max_m":null,"flood_risk_100y":null,"semi_basement_r":null,"elderly_alone_r":0.1825,"bldg_age30_r":null,"shelter_min_walk":26,"pop":20741,"hh":10557,"elderly65_r":0.277,"single_hh_r":0.4762,"source_level":"emd","flood_years":[],"landslide_hist_n":0},"geometry":{"type":"Polygon","coordinates":[[[126.83358,37.68974],[126.83306,37.69408],[126.82885,37.69601],[126.82517,37.69361],[126.82569,37.68928],[126.8299,37.68734],[126.83358,37.68974]]]}},{"type":"Feature","properties":{"h3":"8830e0a6c9fffff","emd_code":"4128560000","emd_name":"고봉동","area_km2":0.5055,"edge":false,"slope_mean":6.68,"elev_mean":38.1,"flood_hist_n":0,"flood_depth_max_m":null,"flood_risk_100y":null,"semi_basement_r":null,"elderly_alone_r":0.1825,"bldg_age30_r":null,"shelter_min_walk":36,"pop":20741,"hh":10557,"elderly65_r":0.277,"single_hh_r":0.4762,"source_level":"emd","flood_years":[],"landslide_hist_n":0},"geometry":{"type":"Polygon","coordinates":[[[126.82411,37.70229],[126.82359,37.70663],[126.81938,37.70856],[126.8157,37.70616],[126.81623,37.70182],[126.82043,37.69989],[126.82411,37.70229]]]}},{"type":"Feature","properties":{"h3":"8830e0a6cbfffff","emd_code":"4128560000","emd_name":"고봉동","area_km2":0.5057,"edge":false,"slope_mean":9.48,"elev_mean":60.6,"flood_hist_n":0,"flood_depth_max_m":null,"flood_risk_100y":null,"semi_basement_r":null,"elderly_alone_r":0.1825,"bldg_age30_r":null,"shelter_min_walk":27,"pop":20741,"hh":10557,"elderly65_r":0.277,"single_hh_r":0.4762,"source_level":"emd","flood_years":[],"landslide_hist_n":0},"geometry":{"type":"Polygon","coordinates":[[[126.832,37.70275],[126.83148,37.70709],[126.82727,37.70903],[126.82359,37.70663],[126.82411,37.70229],[126.82832,37.70035],[126.832,37.70275]]]}},{"type":"Feature","properties":{"h3":"8830e0a6cdfffff","emd_code":"4128560000","emd_name":"고봉동","area_km2":0.5055,"edge":false,"slope_mean":8.52,"elev_mean":49.8,"flood_hist_n":0,"flood_depth_max_m":null,"flood_risk_100y":null,"semi_basement_r":null,"elderly_alone_r":0.1825,"bldg_age30_r":null,"shelter_min_walk":26,"pop":20741,"hh":10557,"elderly65_r":0.277,"single_hh_r":0.4762,"source_level":"emd","flood_years":[],"landslide_hist_n":0},"geometry":{"type":"Polygon","coordinates":[[[126.82096,37.69555],[126.82043,37.69989],[126.81623,37.70182],[126.81255,37.69942],[126.81307,37.69509],[126.81728,37.69315],[126.82096,37.69555]]]}},{"type":"Feature","properties":{"h3":"8830e0a6d1fffff","emd_code":"4128560000","emd_name":"고봉동","area_km2":0.5059,"edge":false,"slope_mean":5.05,"elev_mean":24.6,"flood_hist_n":0,"flood_depth_max_m":null,"flood_risk_100y":null,"semi_basement_r":null,"elderly_alone_r":0.1825,"bldg_age30_r":null,"shelter_min_walk":12,"pop":20741,"hh":10557,"elderly65_r":0.277,"single_hh_r":0.4762,"source_level":"emd","flood_years":[],"landslide_hist_n":0},"geometry":{"type":"Polygon","coordinates":[[[126.84779,37.70368],[126.84726,37.70802],[126.84305,37.70996],[126.83937,37.70755],[126.8399,37.70322],[126.8441,37.70128],[126.84779,37.70368]]]}},{"type":"Feature","properties":{"h3":"8830e0a6d5fffff","emd_code":"4128560000","emd_name":"고봉동","area_km2":0.5058,"edge":false,"slope_mean":8.54,"elev_mean":42.7,"flood_hist_n":0,"flood_depth_max_m":null,"flood_risk_100y":null,"semi_basement_r":null,"elderly_alone_r":0.1825,"bldg_age30_r":null,"shelter_min_walk":8,"pop":20741,"hh":10557,"elderly65_r":0.277,"single_hh_r":0.4762,"source_level":"emd","flood_years":[],"landslide_hist_n":0},"geometry":{"type":"Polygon","coordinates":[[[126.84463,37.69694],[126.8441,37.70128],[126.8399,37.70322],[126.83621,37.70082],[126.83674,37.69648],[126.84095,37.69454],[126.84463,37.69694]]]}},{"type":"Feature","properties":{"h3":"8830e0a6d7fffff","emd_code":"4128560000","emd_name":"고봉동","area_km2":0.5059,"edge":false,"slope_mean":3.96,"elev_mean":22.9,"flood_hist_n":0,"flood_depth_max_m":null,"flood_risk_100y":null,"semi_basement_r":null,"elderly_alone_r":0.1825,"bldg_age30_r":null,"shelter_min_walk":2,"pop":20741,"hh":10557,"elderly65_r":0.277,"single_hh_r":0.4762,"source_level":"emd","flood_years":[],"landslide_hist_n":0},"geometry":{"type":"Polygon","coordinates":[[[126.85252,37.6974],[126.852,37.70174],[126.84779,37.70368],[126.8441,37.70128],[126.84463,37.69694],[126.84884,37.695],[126.85252,37.6974]]]}},{"type":"Feature","properties":{"h3":"8830e0a6d9fffff","emd_code":"4128560000","emd_name":"고봉동","area_km2":0.5058,"edge":false,"slope_mean":7.39,"elev_mean":32.7,"flood_hist_n":0,"flood_depth_max_m":null,"flood_risk_100y":null,"semi_basement_r":null,"elderly_alone_r":0.1825,"bldg_age30_r":null,"shelter_min_walk":24,"pop":20741,"hh":10557,"elderly65_r":0.277,"single_hh_r":0.4762,"source_level":"emd","flood_years":[],"landslide_hist_n":0},"geometry":{"type":"Polygon","coordinates":[[[126.84305,37.70996],[126.84253,37.71429],[126.83832,37.71623],[126.83464,37.71383],[126.83516,37.70949],[126.83937,37.70755],[126.84305,37.70996]]]}},{"type":"Feature","properties":{"h3":"8830e0a6dbfffff","emd_code":"4128560000","emd_name":"고봉동","area_km2":0.5059,"edge":true,"slope_mean":2.18,"elev_mean":16.6,"flood_hist_n":1,"flood_depth_max_m":0.8,"flood_risk_100y":null,"semi_basement_r":null,"elderly_alone_r":0.1825,"bldg_age30_r":null,"shelter_min_walk":22,"pop":20741,"hh":10557,"elderly65_r":0.277,"single_hh_r":0.4762,"source_level":"emd","flood_years":[2006],"landslide_hist_n":0},"geometry":{"type":"Polygon","coordinates":[[[126.85095,37.71042],[126.85042,37.71476],[126.84621,37.71669],[126.84253,37.71429],[126.84305,37.70996],[126.84726,37.70802],[126.85095,37.71042]]]}},{"type":"Feature","properties":{"h3":"8830e0a6ddfffff","emd_code":"4128560000","emd_name":"고봉동","area_km2":0.5058,"edge":false,"slope_mean":11.31,"elev_mean":63.8,"flood_hist_n":0,"flood_depth_max_m":null,"flood_risk_100y":null,"semi_basement_r":null,"elderly_alone_r":0.1825,"bldg_age30_r":null,"shelter_min_walk":18,"pop":20741,"hh":10557,"elderly65_r":0.277,"single_hh_r":0.4762,"source_level":"emd","flood_years":[],"landslide_hist_n":0},"geometry":{"type":"Polygon","coordinates":[[[126.8399,37.70322],[126.83937,37.70755],[126.83516,37.70949],[126.83148,37.70709],[126.832,37.70275],[126.83621,37.70082],[126.8399,37.70322]]]}},{"type":"Feature","properties":{"h3":"8830e0a6e1fffff","emd_code":"4128551000","emd_name":"식사동","area_km2":0.5055,"edge":false,"slope_mean":7.57,"elev_mean":38.8,"flood_hist_n":0,"flood_depth_max_m":null,"flood_risk_100y":null,"semi_basement_r":null,"elderly_alone_r":0.049,"bldg_age30_r":null,"shelter_min_walk":12,"pop":40167,"hh":15026,"elderly65_r":0.1302,"single_hh_r":0.245,"source_level":"emd","flood_years":[],"landslide_hist_n":0},"geometry":{"type":"Polygon","coordinates":[[[126.82727,37.67627],[126.82674,37.6806],[126.82254,37.68254],[126.81886,37.68014],[126.81938,37.6758],[126.82359,37.67387],[126.82727,37.67627]]]}},{"type":"Feature","properties":{"h3":"8830e0a6e3fffff","emd_code":"4128551000","emd_name":"식사동","area_km2":0.5056,"edge":false,"slope_mean":10.78,"elev_mean":61.8,"flood_hist_n":0,"flood_depth_max_m":null,"flood_risk_100y":null,"semi_basement_r":null,"elderly_alone_r":0.049,"bldg_age30_r":null,"shelter_min_walk":21,"pop":40167,"hh":15026,"elderly65_r":0.1302,"single_hh_r":0.245,"source_level":"emd","flood_years":[],"landslide_hist_n":0},"geometry":{"type":"Polygon","coordinates":[[[126.83516,37.67673],[126.83463,37.68106],[126.83042,37.683],[126.82674,37.6806],[126.82727,37.67627],[126.83147,37.67433],[126.83516,37.67673]]]}},{"type":"Feature","properties":{"h3":"8830e0a6e5fffff","emd_code":"4128551000","emd_name":"식사동","area_km2":0.5055,"edge":false,"slope_mean":9.37,"elev_mean":43.5,"flood_hist_n":0,"flood_depth_max_m":null,"flood_risk_100y":null,"semi_basement_r":null,"elderly_alone_r":0.049,"bldg_age30_r":null,"shelter_min_walk":15,"pop":40167,"hh":15026,"elderly65_r":0.1302,"single_hh_r":0.245,"source_level":"emd","flood_years":[],"landslide_hist_n":0},"geometry":{"type":"Polygon","coordinates":[[[126.82411,37.66953],[126.82359,37.67387],[126.81938,37.6758],[126.8157,37.6734],[126.81623,37.66907],[126.82043,37.66713],[126.82411,37.66953]]]}},{"type":"Feature","properties":{"h3":"8830e0a6e7fffff","emd_code":"4128551000","emd_name":"식사동","area_km2":0.5056,"edge":true,"slope_mean":9.69,"elev_mean":53.0,"flood_hist_n":0,"flood_depth_max_m":null,"flood_risk_100y":null,"semi_basement_r":null,"elderly_alone_r":0.049,"bldg_age30_r":null,"shelter_min_walk":14,"pop":40167,"hh":15026,"elderly65_r":0.1302,"single_hh_r":0.245,"source_level":"emd","flood_years":[],"landslide_hist_n":0},"geometry":{"type":"Polygon","coordinates":[[[126.832,37.66999],[126.83147,37.67433],[126.82727,37.67627],[126.82359,37.67387],[126.82411,37.66953],[126.82832,37.66759],[126.832,37.66999]]]}},{"type":"Feature","properties":{"h3":"8830e0a6e9fffff","emd_code":"4128551000","emd_name":"식사동","area_km2":0.5055,"edge":false,"slope_mean":5.81,"elev_mean":33.7,"flood_hist_n":0,"flood_depth_max_m":null,"flood_risk_100y":null,"semi_basement_r":null,"elderly_alone_r":0.049,"bldg_age30_r":null,"shelter_min_walk":7,"pop":40167,"hh":15026,"elderly65_r":0.1302,"single_hh_r":0.245,"source_level":"emd","flood_years":[],"landslide_hist_n":0},"geometry":{"type":"Polygon","coordinates":[[[126.82254,37.68254],[126.82201,37.68688],[126.8178,37.68881],[126.81412,37.68641],[126.81465,37.68208],[126.81886,37.68014],[126.82254,37.68254]]]}},{"type":"Feature","properties":{"h3":"8830e0a6ebfffff","emd_code":"4128551000","emd_name":"식사동","area_km2":0.5056,"edge":false,"slope_mean":10.1,"elev_mean":50.4,"flood_hist_n":0,"flood_depth_max_m":null,"flood_risk_100y":null,"semi_basement_r":null,"elderly_alone_r":0.049,"bldg_age30_r":null,"shelter_min_walk":16,"pop":40167,"hh":15026,"elderly65_r":0.1302,"single_hh_r":0.245,"source_level":"emd","flood_years":[],"landslide_hist_n":0},"geometry":{"type":"Polygon","coordinates":[[[126.83042,37.683],[126.8299,37.68734],[126.82569,37.68928],[126.82201,37.68688],[126.82254,37.68254],[126.82674,37.6806],[126.83042,37.683]]]}},{"type":"Feature","properties":{"h3":"8830e0a6edfffff","emd_code":"4128551000","emd_name":"식사동","area_km2":0.5054,"edge":false,"slope_mean":4.8,"elev_mean":27.2,"flood_hist_n":0,"flood_depth_max_m":null,"flood_risk_100y":null,"semi_basement_r":null,"elderly_alone_r":0.049,"bldg_age30_r":null,"shelter_min_walk":5,"pop":40167,"hh":15026,"elderly65_r":0.1302,"single_hh_r":0.245,"source_level":"emd","flood_years":[],"landslide_hist_n":0},"geometry":{"type":"Polygon","coordinates":[[[126.81938,37.6758],[126.81886,37.68014],[126.81465,37.68208],[126.81097,37.67968],[126.8115,37.67534],[126.8157,37.6734],[126.81938,37.6758]]]}},{"type":"Feature","properties":{"h3":"8830e0a701fffff","emd_code":"4128558000","emd_name":"장항1동","area_km2":0.5046,"edge":false,"slope_mean":2.51,"elev_mean":6.8,"flood_hist_n":0,"flood_depth_max_m":null,"flood_risk_100y":null,"semi_basement_r":null,"elderly_alone_r":0.0518,"bldg_age30_r":null,"shelter_min_walk":25,"pop":20013,"hh":8441,"elderly65_r":0.0914,"single_hh_r":0.2803,"source_level":"emd","flood_years":[],"landslide_hist_n":0},"geometry":{"type":"Polygon","coordinates":[[[126.76897,37.63355],[126.76844,37.63788],[126.76424,37.63981],[126.76057,37.63742],[126.7611,37.63308],[126.7653,37.63115],[126.76897,37.63355]]]}},{"type":"Feature","properties":{"h3":"8830e0a703fffff","emd_code":"4128558000","emd_name":"장항1동","area_km2":0.5047,"edge":false,"slope_mean":2.41,"elev_mean":7.7,"flood_hist_n":0,"flood_depth_max_m":null,"flood_risk_100y":null,"semi_basement_r":null,"elderly_alone_r":0.0518,"bldg_age30_r":null,"shelter_min_walk":18,"pop":20013,"hh":8441,"elderly65_r":0.0914,"single_hh_r":0.2803,"source_level":"emd","flood_years":[],"landslide_hist_n":0},"geometry":{"type":"Polygon","coordinates":[[[126.77685,37.63401],[126.77632,37.63834],[126.77212,37.64028],[126.76844,37.63788],[126.76897,37.63355],[126.77317,37.63161],[126.77685,37.63401]]]}},{"type":"Feature","properties":{"h3":"8830e0a705fffff","emd_code":"4128558000","emd_name":"장항1동","area_km2":0.5045,"edge":false,"slope_mean":0.34,"elev_mean":2.5,"flood_hist_n":0,"flood_depth_max_m":null,"flood_risk_100y":null,"semi_basement_r":null,"elderly_alone_r":0.0518,"bldg_age30_r":null,"shelter_min_walk":25,"pop":20013,"hh":8441,"elderly65_r":0.0914,"single_hh_r":0.2803,"source_level":"emd","flood_years":[],"landslide_hist_n":0},"geometry":{"type":"Polygon","coordinates":[[[126.76583,37.62681],[126.7653,37.63115],[126.7611,37.63308],[126.75743,37.63068],[126.75796,37.62635],[126.76216,37.62441],[126.76583,37.62681]]]}},{"type":"Feature","properties":{"h3":"8830e0a707fffff","emd_code":"4128558000","emd_name":"장항1동","area_km2":0.5046,"edge":false,"slope_mean":1.49,"elev_mean":4.2,"flood_hist_n":0,"flood_depth_max_m":null,"flood_risk_100y":null,"semi_basement_r":null,"elderly_alone_r":0.0518,"bldg_age30_r":null,"shelter_min_walk":27,"pop":20013,"hh":8441,"elderly65_r":0.0914,"single_hh_r":0.2803,"source_level":"emd","flood_years":[],"landslide_hist_n":0},"geometry":{"type":"Polygon","coordinates":[[[126.7737,37.62728],[126.77317,37.63161],[126.76897,37.63355],[126.7653,37.63115],[126.76583,37.62681],[126.77003,37.62488],[126.7737,37.62728]]]}},{"type":"Feature","properties":{"h3":"8830e0a709fffff","emd_code":"4128558000","emd_name":"장항1동","area_km2":0.5046,"edge":false,"slope_mean":2.81,"elev_mean":7.8,"flood_hist_n":0,"flood_depth_max_m":null,"flood_risk_100y":null,"semi_basement_r":null,"elderly_alone_r":0.0518,"bldg_age30_r":null,"shelter_min_walk":22,"pop":20013,"hh":8441,"elderly65_r":0.0914,"single_hh_r":0.2803,"source_level":"emd","flood_years":[],"landslide_hist_n":0},"geometry":{"type":"Polygon","coordinates":[[[126.76424,37.63981],[126.76372,37.64415],[126.75951,37.64608],[126.75584,37.64368],[126.75637,37.63935],[126.76057,37.63742],[126.76424,37.63981]]]}},{"type":"Feature","properties":{"h3":"8830e0a70bfffff","emd_code":"4128558000","emd_name":"장항1동","area_km2":0.5047,"edge":false,"slope_mean":1.4,"elev_mean":7.3,"flood_hist_n":0,"flood_depth_max_m":null,"flood_risk_100y":null,"semi_basement_r":null,"elderly_alone_r":0.0518,"bldg_age30_r":null,"shelter_min_walk":14,"pop":20013,"hh":8441,"elderly65_r":0.0914,"single_hh_r":0.2803,"source_level":"emd","flood_years":[],"landslide_hist_n":0},"geometry":{"type":"Polygon","coordinates":[[[126.77212,37.64028],[126.77159,37.64461],[126.76739,37.64655],[126.76372,37.64415],[126.76424,37.63981],[126.76844,37.63788],[126.77212,37.64028]]]}},{"type":"Feature","properties":{"h3":"8830e0a70dfffff","emd_code":"4128558000","emd_name":"장항1동","area_km2":0.5045,"edge":false,"slope_mean":1.13,"elev_mean":3.9,"flood_hist_n":0,"flood_depth_max_m":null,"flood_risk_100y":null,"semi_basement_r":null,"elderly_alone_r":0.0518,"bldg_age30_r":null,"shelter_min_walk":28,"pop":20013,"hh":8441,"elderly65_r":0.0914,"single_hh_r":0.2803,"source_level":"emd","flood_years":[],"landslide_hist_n":0},"geometry":{"type":"Polygon","coordinates":[[[126.7611,37.63308],[126.76057,37.63742],[126.75637,37.63935],[126.7527,37.63695],[126.75323,37.63262],[126.75743,37.63068],[126.7611,37.63308]]]}},{"type":"Feature","properties":{"h3":"8830e0a711fffff","emd_code":"4128555200","emd_name":"백석2동","area_km2":0.5049,"edge":false,"slope_mean":4.26,"elev_mean":13.2,"flood_hist_n":0,"flood_depth_max_m":null,"flood_risk_100y":null,"semi_basement_r":null,"elderly_alone_r":0.1234,"bldg_age30_r":null,"shelter_min_walk":2,"pop":19774,"hh":11682,"elderly65_r":0.1994,"single_hh_r":0.599,"source_level":"emd","flood_years":[],"landslide_hist_n":0},"geometry":{"type":"Polygon","coordinates":[[[126.78787,37.6412],[126.78734,37.64554],[126.78314,37.64747],[126.77946,37.64508],[126.77999,37.64074],[126.78419,37.6388],[126.78787,37.6412]]]}},{"type":"Feature","properties":{"h3":"8830e0a713fffff","emd_code":"4128555100","emd_name":"백석1동","area_km2":0.505,"edge":false,"slope_mean":5.62,"elev_mean":15.3,"flood_hist_n":0,"flood_depth_max_m":null,"flood_risk_100y":null,"semi_basement_r":null,"elderly_alone_r":0.0915,"bldg_age30_r":null,"shelter_min_walk":2,"pop":27990,"hh":12716,"elderly65_r":0.1864,"single_hh_r":0.3708,"source_level":"emd","flood_years":[],"landslide_hist_n":0},"geometry":{"type":"Polygon","coordinates":[[[126.79574,37.64166],[126.79522,37.646],[126.79101,37.64794],[126.78734,37.64554],[126.78787,37.6412],[126.79207,37.63927],[126.79574,37.64166]]]}},{"type":"Feature","properties":{"h3":"8830e0a715fffff","emd_code":"4128558000","emd_name":"장항1동","area_km2":0.5048,"edge":false,"slope_mean":1.72,"elev_mean":7.5,"flood_hist_n":1,"flood_depth_max_m":1.0,"flood_risk_100y":null,"semi_basement_r":null,"elderly_alone_r":0.0518,"bldg_age30_r":null,"shelter_min_walk":9,"pop":20013,"hh":8441,"elderly65_r":0.0914,"single_hh_r":0.2803,"source_level":"emd","flood_years":[2006],"landslide_hist_n":0},"geometry":{"type":"Polygon","coordinates":[[[126.78472,37.63447],[126.78419,37.6388],[126.77999,37.64074],[126.77632,37.63834],[126.77685,37.63401],[126.78105,37.63207],[126.78472,37.63447]]]}},{"type":"Feature","properties":{"h3":"8830e0a717fffff","emd_code":"4128555200","emd_name":"백석2동","area_km2":0.5049,"edge":false,"slope_mean":3.07,"elev_mean":9.7,"flood_hist_n":1,"flood_depth_max_m":0.5,"flood_risk_100y":null,"semi_basement_r":null,"elderly_alone_r":0.1234,"bldg_age30_r":null,"shelter_min_walk":8,"pop":19774,"hh":11682,"elderly65_r":0.1994,"single_hh_r":0.599,"source_level":"emd","flood_years":[2006],"landslide_hist_n":0},"geometry":{"type":"Polygon","coordinates":[[[126.7926,37.63493],[126.79207,37.63927],[126.78787,37.6412],[126.78419,37.6388],[126.78472,37.63447],[126.78892,37.63253],[126.7926,37.63493]]]}},{"type":"Feature","properties":{"h3":"8830e0a719fffff","emd_code":"4128559000","emd_name":"장항2동","area_km2":0.5048,"edge":false,"slope_mean":4.95,"elev_mean":14.6,"flood_hist_n":0,"flood_depth_max_m":null,"flood_risk_100y":null,"semi_basement_r":null,"elderly_alone_r":0.0801,"bldg_age30_r":null,"shelter_min_walk":2,"pop":26610,"hh":16409,"elderly65_r":0.1712,"single_hh_r":0.6396,"source_level":"emd","flood_years":[],"landslide_hist_n":0},"geometry":{"type":"Polygon","coordinates":[[[126.78314,37.64747],[126.78261,37.65181],[126.77841,37.65374],[126.77473,37.65135],[126.77526,37.64701],[126.77946,37.64508],[126.78314,37.64747]]]}},{"type":"Feature","properties":{"h3":"8830e0a71bfffff","emd_code":"4128555100","emd_name":"백석1동","area_km2":0.5049,"edge":false,"slope_mean":3.38,"elev_mean":15.0,"flood_hist_n":0,"flood_depth_max_m":null,"flood_risk_100y":null,"semi_basement_r":null,"elderly_alone_r":0.0915,"bldg_age30_r":null,"shelter_min_walk":2,"pop":27990,"hh":12716,"elderly65_r":0.1864,"single_hh_r":0.3708,"source_level":"emd","flood_years":[],"landslide_hist_n":0},"geometry":{"type":"Polygon","coordinates":[[[126.79101,37.64794],[126.79049,37.65227],[126.78629,37.65421],[126.78261,37.65181],[126.78314,37.64747],[126.78734,37.64554],[126.79101,37.64794]]]}},{"type":"Feature","properties":{"h3":"8830e0a71dfffff","emd_code":"4128558000","emd_name":"장항1동","area_km2":0.5048,"edge":false,"slope_mean":2.29,"elev_mean":9.3,"flood_hist_n":0,"flood_depth_max_m":null,"flood_risk_100y":null,"semi_basement_r":null,"elderly_alone_r":0.0518,"bldg_age30_r":null,"shelter_min_walk":9,"pop":20013,"hh":8441,"elderly65_r":0.0914,"single_hh_r":0.2803,"source_level":"emd","flood_years":[],"landslide_hist_n":0},"geometry":{"type":"Polygon","coordinates":[[[126.77999,37.64074],[126.77946,37.64508],[126.77526,37.64701],[126.77159,37.64461],[126.77212,37.64028],[126.77632,37.63834],[126.77999,37.64074]]]}},{"type":"Feature","properties":{"h3":"8830e0a72bfffff","emd_code":"4128558000","emd_name":"장항1동","area_km2":0.5046,"edge":true,"slope_mean":2.17,"elev_mean":5.4,"flood_hist_n":0,"flood_depth_max_m":null,"flood_risk_100y":null,"semi_basement_r":null,"elderly_alone_r":0.0518,"bldg_age30_r":null,"shelter_min_walk":26,"pop":20013,"hh":8441,"elderly65_r":0.0914,"single_hh_r":0.2803,"source_level":"emd","flood_years":[],"landslide_hist_n":0},"geometry":{"type":"Polygon","coordinates":[[[126.77056,37.62054],[126.77003,37.62488],[126.76583,37.62681],[126.76216,37.62441],[126.76269,37.62008],[126.76689,37.61815],[126.77056,37.62054]]]}},{"type":"Feature","properties":{"h3":"8830e0a733fffff","emd_code":"4128558000","emd_name":"장항1동","area_km2":0.5049,"edge":true,"slope_mean":2.4,"elev_mean":6.0,"flood_hist_n":1,"flood_depth_max_m":0.8,"flood_risk_100y":null,"semi_basement_r":null,"elderly_alone_r":0.0518,"bldg_age30_r":null,"shelter_min_walk":29,"pop":20013,"hh":8441,"elderly65_r":0.0914,"single_hh_r":0.2803,"source_level":"emd","flood_years":[2006],"landslide_hist_n":0},"geometry":{"type":"Polygon","coordinates":[[[126.79418,37.62193],[126.79365,37.62626],[126.78945,37.6282],[126.78578,37.6258],[126.7863,37.62147],[126.7905,37.61953],[126.79418,37.62193]]]}},{"type":"Feature","properties":{"h3":"8830e0a739fffff","emd_code":"4128558000","emd_name":"장항1동","area_km2":0.5048,"edge":true,"slope_mean":2.48,"elev_mean":6.2,"flood_hist_n":0,"flood_depth_max_m":null,"flood_risk_100y":null,"semi_basement_r":null,"elderly_alone_r":0.0518,"bldg_age30_r":null,"shelter_min_walk":20,"pop":20013,"hh":8441,"elderly65_r":0.0914,"single_hh_r":0.2803,"source_level":"emd","flood_years":[],"landslide_hist_n":0},"geometry":{"type":"Polygon","coordinates":[[[126.78157,37.62774],[126.78105,37.63207],[126.77685,37.63401],[126.77317,37.63161],[126.7737,37.62728],[126.7779,37.62534],[126.78157,37.62774]]]}},{"type":"Feature","properties":{"h3":"8830e0a73bfffff","emd_code":"4128558000","emd_name":"장항1동","area_km2":0.5049,"edge":true,"slope_mean":2.14,"elev_mean":7.0,"flood_hist_n":1,"flood_depth_max_m":0.8,"flood_risk_100y":null,"semi_basement_r":null,"elderly_alone_r":0.0518,"bldg_age30_r":null,"shelter_min_walk":17,"pop":20013,"hh":8441,"elderly65_r":0.0914,"single_hh_r":0.2803,"source_level":"emd","flood_years":[2006],"landslide_hist_n":0},"geometry":{"type":"Polygon","coordinates":[[[126.78945,37.6282],[126.78892,37.63253],[126.78472,37.63447],[126.78105,37.63207],[126.78157,37.62774],[126.78578,37.6258],[126.78945,37.6282]]]}},{"type":"Feature","properties":{"h3":"8830e0a73dfffff","emd_code":"4128558000","emd_name":"장항1동","area_km2":0.5047,"edge":true,"slope_mean":0.07,"elev_mean":2.0,"flood_hist_n":0,"flood_depth_max_m":null,"flood_risk_100y":null,"semi_basement_r":null,"elderly_alone_r":0.0518,"bldg_age30_r":null,"shelter_min_walk":27,"pop":20013,"hh":8441,"elderly65_r":0.0914,"single_hh_r":0.2803,"source_level":"emd","flood_years":[],"landslide_hist_n":0},"geometry":{"type":"Polygon","coordinates":[[[126.77843,37.621],[126.7779,37.62534],[126.7737,37.62728],[126.77003,37.62488],[126.77056,37.62054],[126.77476,37.61861],[126.77843,37.621]]]}},{"type":"Feature","properties":{"h3":"8830e0a741fffff","emd_code":"4128558000","emd_name":"장항1동","area_km2":0.5044,"edge":false,"slope_mean":2.38,"elev_mean":6.4,"flood_hist_n":0,"flood_depth_max_m":null,"flood_risk_100y":null,"semi_basement_r":null,"elderly_alone_r":0.0518,"bldg_age30_r":null,"shelter_min_walk":24,"pop":20013,"hh":8441,"elderly65_r":0.0914,"single_hh_r":0.2803,"source_level":"emd","flood_years":[],"landslide_hist_n":0},"geometry":{"type":"Polygon","coordinates":[[[126.75164,37.64562],[126.75111,37.64995],[126.74691,37.65189],[126.74324,37.64949],[126.74377,37.64515],[126.74797,37.64322],[126.75164,37.64562]]]}},{"type":"Feature","properties":{"h3":"8830e0a743fffff","emd_code":"4128558000","emd_name":"장항1동","area_km2":0.5045,"edge":false,"slope_mean":1.73,"elev_mean":6.4,"flood_hist_n":0,"flood_depth_max_m":null,"flood_risk_100y":null,"semi_basement_r":null,"elderly_alone_r":0.0518,"bldg_age30_r":null,"shelter_min_walk":22,"pop":20013,"hh":8441,"elderly65_r":0.0914,"single_hh_r":0.2803,"source_level":"emd","flood_years":[],"landslide_hist_n":0},"geometry":{"type":"Polygon","coordinates":[[[126.75951,37.64608],[126.75899,37.65042],[126.75478,37.65235],[126.75111,37.64995],[126.75164,37.64562],[126.75584,37.64368],[126.75951,37.64608]]]}},{"type":"Feature","properties":{"h3":"8830e0a745fffff","emd_code":"4128558000","emd_name":"장항1동","area_km2":0.5043,"edge":false,"slope_mean":0.93,"elev_mean":3.9,"flood_hist_n":0,"flood_depth_max_m":null,"flood_risk_100y":null,"semi_basement_r":null,"elderly_alone_r":0.0518,"bldg_age30_r":null,"shelter_min_walk":32,"pop":20013,"hh":8441,"elderly65_r":0.0914,"single_hh_r":0.2803,"source_level":"emd","flood_years":[],"landslide_hist_n":0},"geometry":{"type":"Polygon","coordinates":[[[126.7485,37.63889],[126.74797,37.64322],[126.74377,37.64515],[126.7401,37.64276],[126.74063,37.63842],[126.74483,37.63649],[126.7485,37.63889]]]}},{"type":"Feature","properties":{"h3":"8830e0a747fffff","emd_code":"4128558000","emd_name":"장항1동","area_km2":0.5044,"edge":false,"slope_mean":2.43,"elev_mean":6.3,"flood_hist_n":0,"flood_depth_max_m":null,"flood_risk_100y":null,"semi_basement_r":null,"elderly_alone_r":0.0518,"bldg_age30_r":null,"shelter_min_walk":32,"pop":20013,"hh":8441,"elderly65_r":0.0914,"single_hh_r":0.2803,"source_level":"emd","flood_years":[],"landslide_hist_n":0},"geometry":{"type":"Polygon","coordinates":[[[126.75637,37.63935],[126.75584,37.64368],[126.75164,37.64562],[126.74797,37.64322],[126.7485,37.63889],[126.7527,37.63695],[126.75637,37.63935]]]}},{"type":"Feature","properties":{"h3":"8830e0a749fffff","emd_code":"4128558000","emd_name":"장항1동","area_km2":0.5043,"edge":false,"slope_mean":2.35,"elev_mean":6.3,"flood_hist_n":0,"flood_depth_max_m":null,"flood_risk_100y":null,"semi_basement_r":null,"elderly_alone_r":0.0518,"bldg_age30_r":null,"shelter_min_walk":15,"pop":20013,"hh":8441,"elderly65_r":0.0914,"single_hh_r":0.2803,"source_level":"emd","flood_years":[],"landslide_hist_n":0},"geometry":{"type":"Polygon","coordinates":[[[126.74691,37.65189],[126.74638,37.65622],[126.74218,37.65815],[126.73851,37.65575],[126.73904,37.65142],[126.74324,37.64949],[126.74691,37.65189]]]}},{"type":"Feature","properties":{"h3":"8830e0a74bfffff","emd_code":"4128558000","emd_name":"장항1동","area_km2":0.5045,"edge":false,"slope_mean":1.3,"elev_mean":6.4,"flood_hist_n":0,"flood_depth_max_m":null,"flood_risk_100y":null,"semi_basement_r":null,"elderly_alone_r":0.0518,"bldg_age30_r":null,"shelter_min_walk":13,"pop":20013,"hh":8441,"elderly65_r":0.0914,"single_hh_r":0.2803,"source_level":"emd","flood_years":[],"landslide_hist_n":0},"geometry":{"type":"Polygon","coordinates":[[[126.75478,37.65235],[126.75425,37.65669],[126.75005,37.65862],[126.74638,37.65622],[126.74691,37.65189],[126.75111,37.64995],[126.75478,37.65235]]]}},{"type":"Feature","properties":{"h3":"8830e0a74dfffff","emd_code":"4128558000","emd_name":"장항1동","area_km2":0.5043,"edge":true,"slope_mean":2.62,"elev_mean":6.3,"flood_hist_n":0,"flood_depth_max_m":null,"flood_risk_100y":null,"semi_basement_r":null,"elderly_alone_r":0.0518,"bldg_age30_r":null,"shelter_min_walk":27,"pop":20013,"hh":8441,"elderly65_r":0.0914,"single_hh_r":0.2803,"source_level":"emd","flood_years":[],"landslide_hist_n":0},"geometry":{"type":"Polygon","coordinates":[[[126.74377,37.64515],[126.74324,37.64949],[126.73904,37.65142],[126.73537,37.64902],[126.7359,37.64469],[126.7401,37.64276],[126.74377,37.64515]]]}},{"type":"Feature","properties":{"h3":"8830e0a751fffff","emd_code":"4128559000","emd_name":"장항2동","area_km2":0.5047,"edge":false,"slope_mean":3.68,"elev_mean":10.4,"flood_hist_n":0,"flood_depth_max_m":null,"flood_risk_100y":null,"semi_basement_r":null,"elderly_alone_r":0.0801,"bldg_age30_r":null,"shelter_min_walk":8,"pop":26610,"hh":16409,"elderly65_r":0.1712,"single_hh_r":0.6396,"source_level":"emd","flood_years":[],"landslide_hist_n":0},"geometry":{"type":"Polygon","coordinates":[[[126.77053,37.65328],[126.77,37.65762],[126.7658,37.65955],[126.76213,37.65715],[126.76266,37.65282],[126.76686,37.65088],[126.77053,37.65328]]]}},{"type":"Feature","properties":{"h3":"8830e0a753fffff","emd_code":"4128559000","emd_name":"장항2동","area_km2":0.5048,"edge":false,"slope_mean":7.51,"elev_mean":17.4,"flood_hist_n":0,"flood_depth_max_m":null,"flood_risk_100y":null,"semi_basement_r":null,"elderly_alone_r":0.0801,"bldg_age30_r":null,"shelter_min_walk":4,"pop":26610,"hh":16409,"elderly65_r":0.1712,"single_hh_r":0.6396,"source_level":"emd","flood_years":[],"landslide_hist_n":0},"geometry":{"type":"Polygon","coordinates":[[[126.77841,37.65374],[126.77788,37.65808],[126.77368,37.66001],[126.77,37.65762],[126.77053,37.65328],[126.77473,37.65135],[126.77841,37.65374]]]}},{"type":"Feature","properties":{"h3":"8830e0a755fffff","emd_code":"4128558000","emd_name":"장항1동","area_km2":0.5046,"edge":false,"slope_mean":2.14,"elev_mean":8.3,"flood_hist_n":0,"flood_depth_max_m":null,"flood_risk_100y":null,"semi_basement_r":null,"elderly_alone_r":0.0518,"bldg_age30_r":null,"shelter_min_walk":15,"pop":20013,"hh":8441,"elderly65_r":0.0914,"single_hh_r":0.2803,"source_level":"emd","flood_years":[],"landslide_hist_n":0},"geometry":{"type":"Polygon","coordinates":[[[126.76739,37.64655],[126.76686,37.65088],[126.76266,37.65282],[126.75899,37.65042],[126.75951,37.64608],[126.76372,37.64415],[126.76739,37.64655]]]}},{"type":"Feature","properties":{"h3":"8830e0a757fffff","emd_code":"4128559000","emd_name":"장항2동","area_km2":0.5047,"edge":false,"slope_mean":3.51,"elev_mean":11.2,"flood_hist_n":0,"flood_depth_max_m":null,"flood_risk_100y":null,"semi_basement_r":null,"elderly_alone_r":0.0801,"bldg_age30_r":null,"shelter_min_walk":5,"pop":26610,"hh":16409,"elderly65_r":0.1712,"single_hh_r":0.6396,"source_level":"emd","flood_years":[],"landslide_hist_n":0},"geometry":{"type":"Polygon","coordinates":[[[126.77526,37.64701],[126.77473,37.65135],[126.77053,37.65328],[126.76686,37.65088],[126.76739,37.64655],[126.77159,37.64461],[126.77526,37.64701]]]}},{"type":"Feature","properties":{"h3":"8830e0a759fffff","emd_code":"4128559000","emd_name":"장항2동","area_km2":0.5046,"edge":false,"slope_mean":4.13,"elev_mean":11.3,"flood_hist_n":0,"flood_depth_max_m":null,"flood_risk_100y":null,"semi_basement_r":null,"elderly_alone_r":0.0801,"bldg_age30_r":null,"shelter_min_walk":4,"pop":26610,"hh":16409,"elderly65_r":0.1712,"single_hh_r":0.6396,"source_level":"emd","flood_years":[],"landslide_hist_n":0},"geometry":{"type":"Polygon","coordinates":[[[126.7658,37.65955],[126.76527,37.66388],[126.76107,37.66582],[126.7574,37.66342],[126.75793,37.65909],[126.76213,37.65715],[126.7658,37.65955]]]}},{"type":"Feature","properties":{"h3":"8830e0a75bfffff","emd_code":"4128559000","emd_name":"장항2동","area_km2":0.5047,"edge":false,"slope_mean":6.81,"elev_mean":16.6,"flood_hist_n":0,"flood_depth_max_m":null,"flood_risk_100y":null,"semi_basement_r":null,"elderly_alone_r":0.0801,"bldg_age30_r":null,"shelter_min_walk":3,"pop":26610,"hh":16409,"elderly65_r":0.1712,"single_hh_r":0.6396,"source_level":"emd","flood_years":[],"landslide_hist_n":0},"geometry":{"type":"Polygon","coordinates":[[[126.77368,37.66001],[126.77315,37.66435],[126.76895,37.66628],[126.76527,37.66388],[126.7658,37.65955],[126.77,37.65762],[126.77368,37.66001]]]}},{"type":"Feature","properties":{"h3":"8830e0a75dfffff","emd_code":"4128558000","emd_name":"장항1동","area_km2":0.5046,"edge":false,"slope_mean":1.58,"elev_mean":7.5,"flood_hist_n":0,"flood_depth_max_m":null,"flood_risk_100y":null,"semi_basement_r":null,"elderly_alone_r":0.0518,"bldg_age30_r":null,"shelter_min_walk":11,"pop":20013,"hh":8441,"elderly65_r":0.0914,"single_hh_r":0.2803,"source_level":"emd","flood_years":[],"landslide_hist_n":0},"geometry":{"type":"Polygon","coordinates":[[[126.76266,37.65282],[126.76213,37.65715],[126.75793,37.65909],[126.75425,37.65669],[126.75478,37.65235],[126.75899,37.65042],[126.76266,37.65282]]]}},{"type":"Feature","properties":{"h3":"8830e0a763fffff","emd_code":"4128558000","emd_name":"장항1동","area_km2":0.5044,"edge":true,"slope_mean":0.6,"elev_mean":2.8,"flood_hist_n":0,"flood_depth_max_m":null,"flood_risk_100y":null,"semi_basement_r":null,"elderly_alone_r":0.0518,"bldg_age30_r":null,"shelter_min_walk":17,"pop":20013,"hh":8441,"elderly65_r":0.0914,"single_hh_r":0.2803,"source_level":"emd","flood_years":[],"landslide_hist_n":0},"geometry":{"type":"Polygon","coordinates":[[[126.75796,37.62635],[126.75743,37.63068],[126.75323,37.63262],[126.74956,37.63022],[126.75009,37.62589],[126.75429,37.62395],[126.75796,37.62635]]]}},{"type":"Feature","properties":{"h3":"8830e0a76bfffff","emd_code":"4128558000","emd_name":"장항1동","area_km2":0.5044,"edge":false,"slope_mean":0.27,"elev_mean":2.3,"flood_hist_n":0,"flood_depth_max_m":null,"flood_risk_100y":null,"semi_basement_r":null,"elderly_alone_r":0.0518,"bldg_age30_r":null,"shelter_min_walk":23,"pop":20013,"hh":8441,"elderly65_r":0.0914,"single_hh_r":0.2803,"source_level":"emd","flood_years":[],"landslide_hist_n":0},"geometry":{"type":"Polygon","coordinates":[[[126.75323,37.63262],[126.7527,37.63695],[126.7485,37.63889],[126.74483,37.63649],[126.74536,37.63216],[126.74956,37.63022],[126.75323,37.63262]]]}},{"type":"Feature","properties":{"h3":"8830e0b4b3fffff","emd_code":"4128560000","emd_name":"고봉동","area_km2":0.505,"edge":true,"slope_mean":11.28,"elev_mean":57.4,"flood_hist_n":0,"flood_depth_max_m":null,"flood_risk_100y":null,"semi_basement_r":null,"elderly_alone_r":0.1825,"bldg_age30_r":null,"shelter_min_walk":16,"pop":20741,"hh":10557,"elderly65_r":0.277,"single_hh_r":0.4762,"source_level":"emd","flood_years":[],"landslide_hist_n":0},"geometry":{"type":"Polygon","coordinates":[[[126.7831,37.71297],[126.78257,37.7173],[126.77837,37.71924],[126.77469,37.71683],[126.77522,37.7125],[126.77942,37.71057],[126.7831,37.71297]]]}},{"type":"Feature","properties":{"h3":"8830e0b4b7fffff","emd_code":"4128560000","emd_name":"고봉동","area_km2":0.5049,"edge":false,"slope_mean":13.41,"elev_mean":74.7,"flood_hist_n":0,"flood_depth_max_m":null,"flood_risk_100y":null,"semi_basement_r":null,"elderly_alone_r":0.1825,"bldg_age30_r":null,"shelter_min_walk":6,"pop":20741,"hh":10557,"elderly65_r":0.277,"single_hh_r":0.4762,"source_level":"emd","flood_years":[],"landslide_hist_n":0},"geometry":{"type":"Polygon","coordinates":[[[126.77995,37.70623],[126.77942,37.71057],[126.77522,37.7125],[126.77154,37.7101],[126.77207,37.70576],[126.77627,37.70383],[126.77995,37.70623]]]}},{"type":"Feature","properties":{"h3":"8830e0b5b1fffff","emd_code":"4128558000","emd_name":"장항1동","area_km2":0.5045,"edge":true,"slope_mean":3.12,"elev_mean":12.1,"flood_hist_n":0,"flood_depth_max_m":null,"flood_risk_100y":null,"semi_basement_r":null,"elderly_alone_r":0.0518,"bldg_age30_r":null,"shelter_min_walk":2,"pop":20013,"hh":8441,"elderly65_r":0.0914,"single_hh_r":0.2803,"source_level":"emd","flood_years":[],"landslide_hist_n":0},"geometry":{"type":"Polygon","coordinates":[[[126.7532,37.66535],[126.75267,37.66969],[126.74846,37.67162],[126.74479,37.66922],[126.74532,37.66489],[126.74952,37.66295],[126.7532,37.66535]]]}},{"type":"Feature","properties":{"h3":"8830e0b5b3fffff","emd_code":"4128559000","emd_name":"장항2동","area_km2":0.5046,"edge":true,"slope_mean":4.25,"elev_mean":13.0,"flood_hist_n":0,"flood_depth_max_m":null,"flood_risk_100y":null,"semi_basement_r":null,"elderly_alone_r":0.0801,"bldg_age30_r":null,"shelter_min_walk":1,"pop":26610,"hh":16409,"elderly65_r":0.1712,"single_hh_r":0.6396,"source_level":"emd","flood_years":[],"landslide_hist_n":0},"geometry":{"type":"Polygon","coordinates":[[[126.76107,37.66582],[126.76054,37.67015],[126.75634,37.67209],[126.75267,37.66969],[126.7532,37.66535],[126.7574,37.66342],[126.76107,37.66582]]]}},{"type":"Feature","properties":{"h3":"8830e0b5b5fffff","emd_code":"4128558000","emd_name":"장항1동","area_km2":0.5044,"edge":true,"slope_mean":2.65,"elev_mean":8.9,"flood_hist_n":0,"flood_depth_max_m":null,"flood_risk_100y":null,"semi_basement_r":null,"elderly_alone_r":0.0518,"bldg_age30_r":null,"shelter_min_walk":4,"pop":20013,"hh":8441,"elderly65_r":0.0914,"single_hh_r":0.2803,"source_level":"emd","flood_years":[],"landslide_hist_n":0},"geometry":{"type":"Polygon","coordinates":[[[126.75005,37.65862],[126.74952,37.66295],[126.74532,37.66489],[126.74165,37.66249],[126.74218,37.65815],[126.74638,37.65622],[126.75005,37.65862]]]}},{"type":"Feature","properties":{"h3":"8830e0b5b7fffff","emd_code":"4128558000","emd_name":"장항1동","area_km2":0.5045,"edge":false,"slope_mean":1.99,"elev_mean":8.3,"flood_hist_n":0,"flood_depth_max_m":null,"flood_risk_100y":null,"semi_basement_r":null,"elderly_alone_r":0.0518,"bldg_age30_r":null,"shelter_min_walk":3,"pop":20013,"hh":8441,"elderly65_r":0.0914,"single_hh_r":0.2803,"source_level":"emd","flood_years":[],"landslide_hist_n":0},"geometry":{"type":"Polygon","coordinates":[[[126.75793,37.65909],[126.7574,37.66342],[126.7532,37.66535],[126.74952,37.66295],[126.75005,37.65862],[126.75425,37.65669],[126.75793,37.65909]]]}},{"type":"Feature","properties":{"h3":"8830e56901fffff","emd_code":"4128560000","emd_name":"고봉동","area_km2":0.5055,"edge":true,"slope_mean":5.16,"elev_mean":19.5,"flood_hist_n":1,"flood_depth_max_m":1.9,"flood_risk_100y":null,"semi_basement_r":null,"elderly_alone_r":0.1825,"bldg_age30_r":null,"shelter_min_walk":11,"pop":20741,"hh":10557,"elderly65_r":0.277,"single_hh_r":0.4762,"source_level":"emd","flood_years":[2006],"landslide_hist_n":0},"geometry":{"type":"Polygon","coordinates":[[[126.81307,37.72785],[126.81254,37.73218],[126.80833,37.73412],[126.80465,37.73171],[126.80518,37.72738],[126.80939,37.72544],[126.81307,37.72785]]]}},{"type":"Feature","properties":{"h3":"8830e56905fffff","emd_code":"4128560000","emd_name":"고봉동","area_km2":0.5054,"edge":false,"slope_mean":5.32,"elev_mean":20.8,"flood_hist_n":0,"flood_depth_max_m":null,"flood_risk_100y":null,"semi_basement_r":null,"elderly_alone_r":0.1825,"bldg_age30_r":null,"shelter_min_walk":16,"pop":20741,"hh":10557,"elderly65_r":0.277,"single_hh_r":0.4762,"source_level":"emd","flood_years":[],"landslide_hist_n":0},"geometry":{"type":"Polygon","coordinates":[[[126.80991,37.72111],[126.80939,37.72544],[126.80518,37.72738],[126.8015,37.72498],[126.80202,37.72064],[126.80623,37.71871],[126.80991,37.72111]]]}},{"type":"Feature","properties":{"h3":"8830e56907fffff","emd_code":"4128560000","emd_name":"고봉동","area_km2":0.5055,"edge":false,"slope_mean":8.41,"elev_mean":34.1,"flood_hist_n":0,"flood_depth_max_m":null,"flood_risk_100y":null,"semi_basement_r":null,"elderly_alone_r":0.1825,"bldg_age30_r":null,"shelter_min_walk":7,"pop":20741,"hh":10557,"elderly65_r":0.277,"single_hh_r":0.4762,"source_level":"emd","flood_years":[],"landslide_hist_n":0},"geometry":{"type":"Polygon","coordinates":[[[126.8178,37.72157],[126.81728,37.72591],[126.81307,37.72785],[126.80939,37.72544],[126.80991,37.72111],[126.81412,37.71917],[126.8178,37.72157]]]}},{"type":"Feature","properties":{"h3":"8830e56909fffff","emd_code":"4128560000","emd_name":"고봉동","area_km2":0.5054,"edge":true,"slope_mean":1.88,"elev_mean":10.6,"flood_hist_n":1,"flood_depth_max_m":2.8,"flood_risk_100y":null,"semi_basement_r":null,"elderly_alone_r":0.1825,"bldg_age30_r":null,"shelter_min_walk":10,"pop":20741,"hh":10557,"elderly65_r":0.277,"single_hh_r":0.4762,"source_level":"emd","flood_years":[2006],"landslide_hist_n":0},"geometry":{"type":"Polygon","coordinates":[[[126.80833,37.73412],[126.80781,37.73845],[126.8036,37.74039],[126.79991,37.73799],[126.80044,37.73365],[126.80465,37.73171],[126.80833,37.73412]]]}},{"type":"Feature","properties":{"h3":"8830e5690dfffff","emd_code":"4128560000","emd_name":"고봉동","area_km2":0.5054,"edge":false,"slope_mean":3.81,"elev_mean":15.7,"flood_hist_n":0,"flood_depth_max_m":null,"flood_risk_100y":null,"semi_basement_r":null,"elderly_alone_r":0.1825,"bldg_age30_r":null,"shelter_min_walk":21,"pop":20741,"hh":10557,"elderly65_r":0.277,"single_hh_r":0.4762,"source_level":"emd","flood_years":[],"landslide_hist_n":0},"geometry":{"type":"Polygon","coordinates":[[[126.80518,37.72738],[126.80465,37.73171],[126.80044,37.73365],[126.79676,37.73125],[126.79729,37.72691],[126.8015,37.72498],[126.80518,37.72738]]]}},{"type":"Feature","properties":{"h3":"8830e56915fffff","emd_code":"4128560000","emd_name":"고봉동","area_km2":0.5057,"edge":true,"slope_mean":1.55,"elev_mean":11.6,"flood_hist_n":1,"flood_depth_max_m":0.4,"flood_risk_100y":null,"semi_basement_r":null,"elderly_alone_r":0.1825,"bldg_age30_r":null,"shelter_min_walk":9,"pop":20741,"hh":10557,"elderly65_r":0.277,"single_hh_r":0.4762,"source_level":"emd","flood_years":[2006],"landslide_hist_n":0},"geometry":{"type":"Polygon","coordinates":[[[126.82885,37.72878],[126.82833,37.73312],[126.82412,37.73505],[126.82043,37.73265],[126.82096,37.72831],[126.82517,37.72638],[126.82885,37.72878]]]}},{"type":"Feature","properties":{"h3":"8830e56917fffff","emd_code":"4128560000","emd_name":"고봉동","area_km2":0.5058,"edge":true,"slope_mean":4.68,"elev_mean":15.4,"flood_hist_n":0,"flood_depth_max_m":null,"flood_risk_100y":null,"semi_basement_r":null,"elderly_alone_r":0.1825,"bldg_age30_r":null,"shelter_min_walk":13,"pop":20741,"hh":10557,"elderly65_r":0.277,"single_hh_r":0.4762,"source_level":"emd","flood_years":[],"landslide_hist_n":0},"geometry":{"type":"Polygon","coordinates":[[[126.83675,37.72924],[126.83622,37.73358],[126.83201,37.73552],[126.82833,37.73312],[126.82885,37.72878],[126.83306,37.72684],[126.83675,37.72924]]]}},{"type":"Feature","properties":{"h3":"8830e56921fffff","emd_code":"4128560000","emd_name":"고봉동","area_km2":0.5054,"edge":false,"slope_mean":5.3,"elev_mean":28.1,"flood_hist_n":0,"flood_depth_max_m":null,"flood_risk_100y":null,"semi_basement_r":null,"elderly_alone_r":0.1825,"bldg_age30_r":null,"shelter_min_walk":22,"pop":20741,"hh":10557,"elderly65_r":0.277,"single_hh_r":0.4762,"source_level":"emd","flood_years":[],"landslide_hist_n":0},"geometry":{"type":"Polygon","coordinates":[[[126.81149,37.7081],[126.81097,37.71243],[126.80676,37.71437],[126.80308,37.71197],[126.80361,37.70763],[126.80781,37.7057],[126.81149,37.7081]]]}},{"type":"Feature","properties":{"h3":"8830e56923fffff","emd_code":"4128560000","emd_name":"고봉동","area_km2":0.5055,"edge":false,"slope_mean":5.67,"elev_mean":33.7,"flood_hist_n":0,"flood_depth_max_m":null,"flood_risk_100y":null,"semi_basement_r":null,"elderly_alone_r":0.1825,"bldg_age30_r":null,"shelter_min_walk":28,"pop":20741,"hh":10557,"elderly65_r":0.277,"single_hh_r":0.4762,"source_level":"emd","flood_years":[],"landslide_hist_n":0},"geometry":{"type":"Polygon","coordinates":[[[126.81938,37.70856],[126.81886,37.7129],[126.81465,37.71483],[126.81097,37.71243],[126.81149,37.7081],[126.8157,37.70616],[126.81938,37.70856]]]}},{"type":"Feature","properties":{"h3":"8830e56925fffff","emd_code":"4128560000","emd_name":"고봉동","area_km2":0.5053,"edge":false,"slope_mean":5.89,"elev_mean":31.9,"flood_hist_n":0,"flood_depth_max_m":null,"flood_risk_100y":null,"semi_basement_r":null,"elderly_alone_r":0.1825,"bldg_age30_r":null,"shelter_min_walk":24,"pop":20741,"hh":10557,"elderly65_r":0.277,"single_hh_r":0.4762,"source_level":"emd","flood_years":[],"landslide_hist_n":0},"geometry":{"type":"Polygon","coordinates":[[[126.80834,37.70136],[126.80781,37.7057],[126.80361,37.70763],[126.79993,37.70523],[126.80045,37.70089],[126.80466,37.69896],[126.80834,37.70136]]]}},{"type":"Feature","properties":{"h3":"8830e56927fffff","emd_code":"4128560000","emd_name":"고봉동","area_km2":0.5054,"edge":false,"slope_mean":4.95,"elev_mean":30.8,"flood_hist_n":0,"flood_depth_max_m":null,"flood_risk_100y":null,"semi_basement_r":null,"elderly_alone_r":0.1825,"bldg_age30_r":null,"shelter_min_walk":32,"pop":20741,"hh":10557,"elderly65_r":0.277,"single_hh_r":0.4762,"source_level":"emd","flood_years":[],"landslide_hist_n":0},"geometry":{"type":"Polygon","coordinates":[[[126.81623,37.70182],[126.8157,37.70616],[126.81149,37.7081],[126.80781,37.7057],[126.80834,37.70136],[126.81255,37.69942],[126.81623,37.70182]]]}},{"type":"Feature","properties":{"h3":"8830e56929fffff","emd_code":"4128560000","emd_name":"고봉동","area_km2":0.5053,"edge":false,"slope_mean":7.99,"elev_mean":37.8,"flood_hist_n":0,"flood_depth_max_m":null,"flood_risk_100y":null,"semi_basement_r":null,"elderly_alone_r":0.1825,"bldg_age30_r":null,"shelter_min_walk":15,"pop":20741,"hh":10557,"elderly65_r":0.277,"single_hh_r":0.4762,"source_level":"emd","flood_years":[],"landslide_hist_n":0},"geometry":{"type":"Polygon","coordinates":[[[126.80676,37.71437],[126.80623,37.71871],[126.80202,37.72064],[126.79834,37.71824],[126.79887,37.7139],[126.80308,37.71197],[126.80676,37.71437]]]}},{"type":"Feature","properties":{"h3":"8830e5692bfffff","emd_code":"4128560000","emd_name":"고봉동","area_km2":0.5055,"edge":false,"slope_mean":4.34,"elev_mean":22.6,"flood_hist_n":0,"flood_depth_max_m":null,"flood_risk_100y":null,"semi_basement_r":null,"elderly_alone_r":0.1825,"bldg_age30_r":null,"shelter_min_walk":19,"pop":20741,"hh":10557,"elderly65_r":0.277,"single_hh_r":0.4762,"source_level":"emd","flood_years":[],"landslide_hist_n":0},"geometry":{"type":"Polygon","coordinates":[[[126.81465,37.71483],[126.81412,37.71917],[126.80991,37.72111],[126.80623,37.71871],[126.80676,37.71437],[126.81097,37.71243],[126.81465,37.71483]]]}},{"type":"Feature","properties":{"h3":"8830e5692dfffff","emd_code":"4128560000","emd_name":"고봉동","area_km2":0.5053,"edge":false,"slope_mean":7.49,"elev_mean":43.1,"flood_hist_n":0,"flood_depth_max_m":null,"flood_risk_100y":null,"semi_basement_r":null,"elderly_alone_r":0.1825,"bldg_age30_r":null,"shelter_min_walk":13,"pop":20741,"hh":10557,"elderly65_r":0.277,"single_hh_r":0.4762,"source_level":"emd","flood_years":[],"landslide_hist_n":0},"geometry":{"type":"Polygon","coordinates":[[[126.80361,37.70763],[126.80308,37.71197],[126.79887,37.7139],[126.79519,37.7115],[126.79572,37.70716],[126.79993,37.70523],[126.80361,37.70763]]]}},{"type":"Feature","properties":{"h3":"8830e56931fffff","emd_code":"4128560000","emd_name":"고봉동","area_km2":0.5057,"edge":false,"slope_mean":6.29,"elev_mean":29.9,"flood_hist_n":0,"flood_depth_max_m":null,"flood_risk_100y":null,"semi_basement_r":null,"elderly_alone_r":0.1825,"bldg_age30_r":null,"shelter_min_walk":20,"pop":20741,"hh":10557,"elderly65_r":0.277,"single_hh_r":0.4762,"source_level":"emd","flood_years":[],"landslide_hist_n":0},"geometry":{"type":"Polygon","coordinates":[[[126.83043,37.71577],[126.8299,37.7201],[126.82569,37.72204],[126.82201,37.71964],[126.82254,37.7153],[126.82675,37.71336],[126.83043,37.71577]]]}},{"type":"Feature","properties":{"h3":"8830e56933fffff","emd_code":"4128560000","emd_name":"고봉동","area_km2":0.5058,"edge":false,"slope_mean":8.51,"elev_mean":32.9,"flood_hist_n":0,"flood_depth_max_m":null,"flood_risk_100y":null,"semi_basement_r":null,"elderly_alone_r":0.1825,"bldg_age30_r":null,"shelter_min_walk":28,"pop":20741,"hh":10557,"elderly65_r":0.277,"single_hh_r":0.4762,"source_level":"emd","flood_years":[],"landslide_hist_n":0},"geometry":{"type":"Polygon","coordinates":[[[126.83832,37.71623],[126.8378,37.72057],[126.83359,37.7225],[126.8299,37.7201],[126.83043,37.71577],[126.83464,37.71383],[126.83832,37.71623]]]}},{"type":"Feature","properties":{"h3":"8830e56935fffff","emd_code":"4128560000","emd_name":"고봉동","area_km2":0.5056,"edge":false,"slope_mean":6.65,"elev_mean":39.9,"flood_hist_n":0,"flood_depth_max_m":null,"flood_risk_100y":null,"semi_basement_r":null,"elderly_alone_r":0.1825,"bldg_age30_r":null,"shelter_min_walk":28,"pop":20741,"hh":10557,"elderly65_r":0.277,"single_hh_r":0.4762,"source_level":"emd","flood_years":[],"landslide_hist_n":0},"geometry":{"type":"Polygon","coordinates":[[[126.82727,37.70903],[126.82675,37.71336],[126.82254,37.7153],[126.81886,37.7129],[126.81938,37.70856],[126.82359,37.70663],[126.82727,37.70903]]]}},{"type":"Feature","properties":{"h3":"8830e56937fffff","emd_code":"4128560000","emd_name":"고봉동","area_km2":0.5057,"edge":false,"slope_mean":9.8,"elev_mean":56.6,"flood_hist_n":0,"flood_depth_max_m":null,"flood_risk_100y":null,"semi_basement_r":null,"elderly_alone_r":0.1825,"bldg_age30_r":null,"shelter_min_walk":29,"pop":20741,"hh":10557,"elderly65_r":0.277,"single_hh_r":0.4762,"source_level":"emd","flood_years":[],"landslide_hist_n":0},"geometry":{"type":"Polygon","coordinates":[[[126.83516,37.70949],[126.83464,37.71383],[126.83043,37.71577],[126.82675,37.71336],[126.82727,37.70903],[126.83148,37.70709],[126.83516,37.70949]]]}},{"type":"Feature","properties":{"h3":"8830e56939fffff","emd_code":"4128560000","emd_name":"고봉동","area_km2":0.5056,"edge":false,"slope_mean":3.88,"elev_mean":21.1,"flood_hist_n":0,"flood_depth_max_m":null,"flood_risk_100y":null,"semi_basement_r":null,"elderly_alone_r":0.1825,"bldg_age30_r":null,"shelter_min_walk":8,"pop":20741,"hh":10557,"elderly65_r":0.277,"single_hh_r":0.4762,"source_level":"emd","flood_years":[],"landslide_hist_n":0},"geometry":{"type":"Polygon","coordinates":[[[126.82569,37.72204],[126.82517,37.72638],[126.82096,37.72831],[126.81728,37.72591],[126.8178,37.72157],[126.82201,37.71964],[126.82569,37.72204]]]}},{"type":"Feature","properties":{"h3":"8830e5693bfffff","emd_code":"4128560000","emd_name":"고봉동","area_km2":0.5057,"edge":false,"slope_mean":2.58,"elev_mean":16.5,"flood_hist_n":0,"flood_depth_max_m":null,"flood_risk_100y":null,"semi_basement_r":null,"elderly_alone_r":0.1825,"bldg_age30_r":null,"shelter_min_walk":17,"pop":20741,"hh":10557,"elderly65_r":0.277,"single_hh_r":0.4762,"source_level":"emd","flood_years":[],"landslide_hist_n":0},"geometry":{"type":"Polygon","coordinates":[[[126.83359,37.7225],[126.83306,37.72684],[126.82885,37.72878],[126.82517,37.72638],[126.82569,37.72204],[126.8299,37.7201],[126.83359,37.7225]]]}},{"type":"Feature","properties":{"h3":"8830e5693dfffff","emd_code":"4128560000","emd_name":"고봉동","area_km2":0.5056,"edge":false,"slope_mean":6.64,"elev_mean":34.7,"flood_hist_n":0,"flood_depth_max_m":null,"flood_risk_100y":null,"semi_basement_r":null,"elderly_alone_r":0.1825,"bldg_age30_r":null,"shelter_min_walk":17,"pop":20741,"hh":10557,"elderly65_r":0.277,"single_hh_r":0.4762,"source_level":"emd","flood_years":[],"landslide_hist_n":0},"geometry":{"type":"Polygon","coordinates":[[[126.82254,37.7153],[126.82201,37.71964],[126.8178,37.72157],[126.81412,37.71917],[126.81465,37.71483],[126.81886,37.7129],[126.82254,37.7153]]]}},{"type":"Feature","properties":{"h3":"8830e56947fffff","emd_code":"4128560000","emd_name":"고봉동","area_km2":0.5053,"edge":false,"slope_mean":5.36,"elev_mean":18.2,"flood_hist_n":1,"flood_depth_max_m":1.5,"flood_risk_100y":null,"semi_basement_r":null,"elderly_alone_r":0.1825,"bldg_age30_r":null,"shelter_min_walk":13,"pop":20741,"hh":10557,"elderly65_r":0.277,"single_hh_r":0.4762,"source_level":"emd","flood_years":[2006],"landslide_hist_n":0},"geometry":{"type":"Polygon","coordinates":[[[126.80044,37.73365],[126.79991,37.73799],[126.79571,37.73992],[126.79203,37.73752],[126.79255,37.73318],[126.79676,37.73125],[126.80044,37.73365]]]}},{"type":"Feature","properties":{"h3":"8830e56961fffff","emd_code":"4128560000","emd_name":"고봉동","area_km2":0.5052,"edge":false,"slope_mean":4.68,"elev_mean":25.4,"flood_hist_n":0,"flood_depth_max_m":null,"flood_risk_100y":null,"semi_basement_r":null,"elderly_alone_r":0.1825,"bldg_age30_r":null,"shelter_min_walk":14,"pop":20741,"hh":10557,"elderly65_r":0.277,"single_hh_r":0.4762,"source_level":"emd","flood_years":[],"landslide_hist_n":0},"geometry":{"type":"Polygon","coordinates":[[[126.79414,37.72017],[126.79361,37.72451],[126.7894,37.72644],[126.78572,37.72404],[126.78625,37.7197],[126.79046,37.71777],[126.79414,37.72017]]]}},{"type":"Feature","properties":{"h3":"8830e56963fffff","emd_code":"4128560000","emd_name":"고봉동","area_km2":0.5053,"edge":false,"slope_mean":8.79,"elev_mean":35.9,"flood_hist_n":0,"flood_depth_max_m":null,"flood_risk_100y":null,"semi_basement_r":null,"elderly_alone_r":0.1825,"bldg_age30_r":null,"shelter_min_walk":17,"pop":20741,"hh":10557,"elderly65_r":0.277,"single_hh_r":0.4762,"source_level":"emd","flood_years":[],"landslide_hist_n":0},"geometry":{"type":"Polygon","coordinates":[[[126.80202,37.72064],[126.8015,37.72498],[126.79729,37.72691],[126.79361,37.72451],[126.79414,37.72017],[126.79834,37.71824],[126.80202,37.72064]]]}},{"type":"Feature","properties":{"h3":"8830e56965fffff","emd_code":"4128560000","emd_name":"고봉동","area_km2":0.5051,"edge":false,"slope_mean":4.44,"elev_mean":23.5,"flood_hist_n":0,"flood_depth_max_m":null,"flood_risk_100y":null,"semi_basement_r":null,"elderly_alone_r":0.1825,"bldg_age30_r":null,"shelter_min_walk":6,"pop":20741,"hh":10557,"elderly65_r":0.277,"single_hh_r":0.4762,"source_level":"emd","flood_years":[],"landslide_hist_n":0},"geometry":{"type":"Polygon","coordinates":[[[126.79098,37.71343],[126.79046,37.71777],[126.78625,37.7197],[126.78257,37.7173],[126.7831,37.71297],[126.78731,37.71103],[126.79098,37.71343]]]}},{"type":"Feature","properties":{"h3":"8830e56967fffff","emd_code":"4128560000","emd_name":"고봉동","area_km2":0.5052,"edge":false,"slope_mean":6.69,"elev_mean":35.1,"flood_hist_n":0,"flood_depth_max_m":null,"flood_risk_100y":null,"semi_basement_r":null,"elderly_alone_r":0.1825,"bldg_age30_r":null,"shelter_min_walk":5,"pop":20741,"hh":10557,"elderly65_r":0.277,"single_hh_r":0.4762,"source_level":"emd","flood_years":[],"landslide_hist_n":0},"geometry":{"type":"Polygon","coordinates":[[[126.79887,37.7139],[126.79834,37.71824],[126.79414,37.72017],[126.79046,37.71777],[126.79098,37.71343],[126.79519,37.7115],[126.79887,37.7139]]]}},{"type":"Feature","properties":{"h3":"8830e5696bfffff","emd_code":"4128560000","emd_name":"고봉동","area_km2":0.5052,"edge":true,"slope_mean":5.18,"elev_mean":26.4,"flood_hist_n":0,"flood_depth_max_m":null,"flood_risk_100y":null,"semi_basement_r":null,"elderly_alone_r":0.1825,"bldg_age30_r":null,"shelter_min_walk":25,"pop":20741,"hh":10557,"elderly65_r":0.277,"single_hh_r":0.4762,"source_level":"emd","flood_years":[],"landslide_hist_n":0},"geometry":{"type":"Polygon","coordinates":[[[126.79729,37.72691],[126.79676,37.73125],[126.79255,37.73318],[126.78887,37.73078],[126.7894,37.72644],[126.79361,37.72451],[126.79729,37.72691]]]}},{"type":"Feature","properties":{"h3":"8830e5696dfffff","emd_code":"4128560000","emd_name":"고봉동","area_km2":0.5051,"edge":true,"slope_mean":4.64,"elev_mean":21.9,"flood_hist_n":0,"flood_depth_max_m":null,"flood_risk_100y":null,"semi_basement_r":null,"elderly_alone_r":0.1825,"bldg_age30_r":null,"shelter_min_walk":18,"pop":20741,"hh":10557,"elderly65_r":0.277,"single_hh_r":0.4762,"source_level":"emd","flood_years":[],"landslide_hist_n":0},"geometry":{"type":"Polygon","coordinates":[[[126.78625,37.7197],[126.78572,37.72404],[126.78152,37.72597],[126.77784,37.72357],[126.77837,37.71924],[126.78257,37.7173],[126.78625,37.7197]]]}},{"type":"Feature","properties":{"h3":"8830e569e5fffff","emd_code":"4128560000","emd_name":"고봉동","area_km2":0.5059,"edge":true,"slope_mean":2.92,"elev_mean":15.6,"flood_hist_n":1,"flood_depth_max_m":0.8,"flood_risk_100y":null,"semi_basement_r":null,"elderly_alone_r":0.1825,"bldg_age30_r":null,"shelter_min_walk":33,"pop":20741,"hh":10557,"elderly65_r":0.277,"single_hh_r":0.4762,"source_level":"emd","flood_years":[2006],"landslide_hist_n":0},"geometry":{"type":"Polygon","coordinates":[[[126.84621,37.71669],[126.84569,37.72103],[126.84148,37.72297],[126.8378,37.72057],[126.83832,37.71623],[126.84253,37.71429],[126.84621,37.71669]]]}},{"type":"Feature","properties":{"h3":"8830e569edfffff","emd_code":"4128560000","emd_name":"고봉동","area_km2":0.5058,"edge":false,"slope_mean":2.98,"elev_mean":13.9,"flood_hist_n":0,"flood_depth_max_m":null,"flood_risk_100y":null,"semi_basement_r":null,"elderly_alone_r":0.1825,"bldg_age30_r":null,"shelter_min_walk":25,"pop":20741,"hh":10557,"elderly65_r":0.277,"single_hh_r":0.4762,"source_level":"emd","flood_years":[],"landslide_hist_n":0},"geometry":{"type":"Polygon","coordinates":[[[126.84148,37.72297],[126.84096,37.72731],[126.83675,37.72924],[126.83306,37.72684],[126.83359,37.7225],[126.8378,37.72057],[126.84148,37.72297]]]}}]}