{"type":"FeatureCollection","name":"grid_41290_h3r8","meta":{"sgg_code":"41290","h3_res":8,"n_cells":92,"dem":"Copernicus GLO-30 (bbox-mean)","crs":"EPSG:4326","jumin_basis":"2026-07","flood_src":"행안부 침수흔적도(전국, 재난안전데이터공유플랫폼)","landslide_src":"행안부 산사태 발생이력"},"features":[{"type":"Feature","properties":{"h3":"8830e03481fffff","emd_code":"4129051500","emd_name":"원문동","area_km2":0.5071,"edge":false,"slope_mean":10.15,"elev_mean":73.9,"flood_hist_n":0,"flood_depth_max_m":null,"flood_risk_100y":null,"semi_basement_r":null,"elderly_alone_r":0.0528,"bldg_age30_r":null,"shelter_min_walk":8,"pop":16184,"hh":5345,"elderly65_r":0.1503,"single_hh_r":0.119,"source_level":"emd","flood_years":[],"landslide_hist_n":0},"geometry":{"type":"Polygon","coordinates":[[[126.98932,37.41677],[126.9888,37.42111],[126.9846,37.42307],[126.98092,37.42068],[126.98144,37.41634],[126.98563,37.41439],[126.98932,37.41677]]]}},{"type":"Feature","properties":{"h3":"8830e03483fffff","emd_code":"4129051500","emd_name":"원문동","area_km2":0.5072,"edge":false,"slope_mean":6.51,"elev_mean":64.7,"flood_hist_n":0,"flood_depth_max_m":null,"flood_risk_100y":null,"semi_basement_r":null,"elderly_alone_r":0.0528,"bldg_age30_r":null,"shelter_min_walk":5,"pop":16184,"hh":5345,"elderly65_r":0.1503,"single_hh_r":0.119,"source_level":"emd","flood_years":[],"landslide_hist_n":0},"geometry":{"type":"Polygon","coordinates":[[[126.9972,37.41721],[126.99668,37.42155],[126.99249,37.4235],[126.9888,37.42111],[126.98932,37.41677],[126.99351,37.41482],[126.9972,37.41721]]]}},{"type":"Feature","properties":{"h3":"8830e03485fffff","emd_code":"4129052000","emd_name":"갈현동","area_km2":0.507,"edge":false,"slope_mean":6.01,"elev_mean":58.5,"flood_hist_n":0,"flood_depth_max_m":null,"flood_risk_100y":null,"semi_basement_r":null,"elderly_alone_r":0.0481,"bldg_age30_r":null,"shelter_min_walk":2,"pop":19745,"hh":6820,"elderly65_r":0.0785,"single_hh_r":0.2062,"source_level":"emd","flood_years":[],"landslide_hist_n":0},"geometry":{"type":"Polygon","coordinates":[[[126.98615,37.41004],[126.98563,37.41439],[126.98144,37.41634],[126.97775,37.41395],[126.97827,37.40961],[126.98247,37.40766],[126.98615,37.41004]]]}},{"type":"Feature","properties":{"h3":"8830e03487fffff","emd_code":"4129052000","emd_name":"갈현동","area_km2":0.5071,"edge":false,"slope_mean":7.83,"elev_mean":68.7,"flood_hist_n":0,"flood_depth_max_m":null,"flood_risk_100y":null,"semi_basement_r":null,"elderly_alone_r":0.0481,"bldg_age30_r":null,"shelter_min_walk":3,"pop":19745,"hh":6820,"elderly65_r":0.0785,"single_hh_r":0.2062,"source_level":"emd","flood_years":[],"landslide_hist_n":0},"geometry":{"type":"Polygon","coordinates":[[[126.99403,37.41048],[126.99351,37.41482],[126.98932,37.41677],[126.98563,37.41439],[126.98615,37.41004],[126.99034,37.40809],[126.99403,37.41048]]]}},{"type":"Feature","properties":{"h3":"8830e03489fffff","emd_code":"4129051000","emd_name":"중앙동","area_km2":0.507,"edge":false,"slope_mean":12.68,"elev_mean":96.1,"flood_hist_n":0,"flood_depth_max_m":null,"flood_risk_100y":null,"semi_basement_r":null,"elderly_alone_r":0.0933,"bldg_age30_r":null,"shelter_min_walk":13,"pop":11402,"hh":4246,"elderly65_r":0.2229,"single_hh_r":0.2037,"source_level":"emd","flood_years":[],"landslide_hist_n":0},"geometry":{"type":"Polygon","coordinates":[[[126.9846,37.42307],[126.98409,37.42741],[126.97989,37.42936],[126.97621,37.42698],[126.97672,37.42264],[126.98092,37.42068],[126.9846,37.42307]]]}},{"type":"Feature","properties":{"h3":"8830e0348bfffff","emd_code":"4129051000","emd_name":"중앙동","area_km2":0.5071,"edge":false,"slope_mean":6.26,"elev_mean":57.2,"flood_hist_n":0,"flood_depth_max_m":null,"flood_risk_100y":null,"semi_basement_r":null,"elderly_alone_r":0.0933,"bldg_age30_r":null,"shelter_min_walk":2,"pop":11402,"hh":4246,"elderly65_r":0.2229,"single_hh_r":0.2037,"source_level":"emd","flood_years":[],"landslide_hist_n":0},"geometry":{"type":"Polygon","coordinates":[[[126.99249,37.4235],[126.99197,37.42784],[126.98777,37.4298],[126.98409,37.42741],[126.9846,37.42307],[126.9888,37.42111],[126.99249,37.4235]]]}},{"type":"Feature","properties":{"h3":"8830e0348dfffff","emd_code":"4129052000","emd_name":"갈현동","area_km2":0.507,"edge":false,"slope_mean":9.01,"elev_mean":77.0,"flood_hist_n":0,"flood_depth_max_m":null,"flood_risk_100y":null,"semi_basement_r":null,"elderly_alone_r":0.0481,"bldg_age30_r":null,"shelter_min_walk":12,"pop":19745,"hh":6820,"elderly65_r":0.0785,"single_hh_r":0.2062,"source_level":"emd","flood_years":[],"landslide_hist_n":0},"geometry":{"type":"Polygon","coordinates":[[[126.98144,37.41634],[126.98092,37.42068],[126.97672,37.42264],[126.97304,37.42025],[126.97356,37.41591],[126.97775,37.41395],[126.98144,37.41634]]]}},{"type":"Feature","properties":{"h3":"8830e03491fffff","emd_code":"4129056000","emd_name":"문원동","area_km2":0.5074,"edge":false,"slope_mean":13.37,"elev_mean":94.3,"flood_hist_n":0,"flood_depth_max_m":null,"flood_risk_100y":null,"semi_basement_r":null,"elderly_alone_r":0.114,"bldg_age30_r":null,"shelter_min_walk":3,"pop":6625,"hh":2737,"elderly65_r":0.2278,"single_hh_r":0.3109,"source_level":"emd","flood_years":[],"landslide_hist_n":0},"geometry":{"type":"Polygon","coordinates":[[[127.00825,37.42437],[127.00774,37.42871],[127.00354,37.43067],[126.99985,37.42828],[127.00037,37.42394],[127.00457,37.42198],[127.00825,37.42437]]]}},{"type":"Feature","properties":{"h3":"8830e03493fffff","emd_code":"4129056000","emd_name":"문원동","area_km2":0.5075,"edge":false,"slope_mean":12.38,"elev_mean":107.1,"flood_hist_n":0,"flood_depth_max_m":null,"flood_risk_100y":null,"semi_basement_r":null,"elderly_alone_r":0.114,"bldg_age30_r":null,"shelter_min_walk":8,"pop":6625,"hh":2737,"elderly65_r":0.2278,"single_hh_r":0.3109,"source_level":"emd","flood_years":[],"landslide_hist_n":0},"geometry":{"type":"Polygon","coordinates":[[[127.01614,37.4248],[127.01562,37.42914],[127.01142,37.4311],[127.00774,37.42871],[127.00825,37.42437],[127.01245,37.42241],[127.01614,37.4248]]]}},{"type":"Feature","properties":{"h3":"8830e03495fffff","emd_code":"4129056000","emd_name":"문원동","area_km2":0.5073,"edge":false,"slope_mean":13.4,"elev_mean":111.2,"flood_hist_n":0,"flood_depth_max_m":null,"flood_risk_100y":null,"semi_basement_r":null,"elderly_alone_r":0.114,"bldg_age30_r":null,"shelter_min_walk":12,"pop":6625,"hh":2737,"elderly65_r":0.2278,"single_hh_r":0.3109,"source_level":"emd","flood_years":[],"landslide_hist_n":0},"geometry":{"type":"Polygon","coordinates":[[[127.00508,37.41764],[127.00457,37.42198],[127.00037,37.42394],[126.99668,37.42155],[126.9972,37.41721],[127.00139,37.41525],[127.00508,37.41764]]]}},{"type":"Feature","properties":{"h3":"8830e03497fffff","emd_code":"4129056000","emd_name":"문원동","area_km2":0.5074,"edge":false,"slope_mean":15.59,"elev_mean":156.3,"flood_hist_n":0,"flood_depth_max_m":null,"flood_risk_100y":null,"semi_basement_r":null,"elderly_alone_r":0.114,"bldg_age30_r":null,"shelter_min_walk":4,"pop":6625,"hh":2737,"elderly65_r":0.2278,"single_hh_r":0.3109,"source_level":"emd","flood_years":[],"landslide_hist_n":0},"geometry":{"type":"Polygon","coordinates":[[[127.01296,37.41807],[127.01245,37.42241],[127.00825,37.42437],[127.00457,37.42198],[127.00508,37.41764],[127.00928,37.41568],[127.01296,37.41807]]]}},{"type":"Feature","properties":{"h3":"8830e03499fffff","emd_code":"4129054000","emd_name":"부림동","area_km2":0.5073,"edge":false,"slope_mean":5.14,"elev_mean":50.7,"flood_hist_n":0,"flood_depth_max_m":null,"flood_risk_100y":null,"semi_basement_r":null,"elderly_alone_r":0.0725,"bldg_age30_r":null,"shelter_min_walk":1,"pop":8826,"hh":3296,"elderly65_r":0.1858,"single_hh_r":0.2072,"source_level":"emd","flood_years":[],"landslide_hist_n":0},"geometry":{"type":"Polygon","coordinates":[[[127.00354,37.43067],[127.00303,37.43501],[126.99883,37.43696],[126.99514,37.43457],[126.99566,37.43023],[126.99985,37.42828],[127.00354,37.43067]]]}},{"type":"Feature","properties":{"h3":"8830e0349bfffff","emd_code":"4129056000","emd_name":"문원동","area_km2":0.5074,"edge":false,"slope_mean":8.13,"elev_mean":69.7,"flood_hist_n":0,"flood_depth_max_m":null,"flood_risk_100y":null,"semi_basement_r":null,"elderly_alone_r":0.114,"bldg_age30_r":null,"shelter_min_walk":5,"pop":6625,"hh":2737,"elderly65_r":0.2278,"single_hh_r":0.3109,"source_level":"emd","flood_years":[],"landslide_hist_n":0},"geometry":{"type":"Polygon","coordinates":[[[127.01142,37.4311],[127.01091,37.43544],[127.00671,37.4374],[127.00303,37.43501],[127.00354,37.43067],[127.00774,37.42871],[127.01142,37.4311]]]}},{"type":"Feature","properties":{"h3":"8830e0349dfffff","emd_code":"4129053000","emd_name":"별양동","area_km2":0.5073,"edge":false,"slope_mean":5.04,"elev_mean":55.4,"flood_hist_n":0,"flood_depth_max_m":null,"flood_risk_100y":null,"semi_basement_r":null,"elderly_alone_r":0.0632,"bldg_age30_r":null,"shelter_min_walk":5,"pop":12428,"hh":4576,"elderly65_r":0.1749,"single_hh_r":0.2107,"source_level":"emd","flood_years":[],"landslide_hist_n":0},"geometry":{"type":"Polygon","coordinates":[[[127.00037,37.42394],[126.99985,37.42828],[126.99566,37.43023],[126.99197,37.42784],[126.99249,37.4235],[126.99668,37.42155],[127.00037,37.42394]]]}},{"type":"Feature","properties":{"h3":"8830e034a1fffff","emd_code":"4129052000","emd_name":"갈현동","area_km2":0.507,"edge":true,"slope_mean":7.45,"elev_mean":56.1,"flood_hist_n":0,"flood_depth_max_m":null,"flood_risk_100y":null,"semi_basement_r":null,"elderly_alone_r":0.0481,"bldg_age30_r":null,"shelter_min_walk":5,"pop":19745,"hh":6820,"elderly65_r":0.0785,"single_hh_r":0.2062,"source_level":"emd","flood_years":[],"landslide_hist_n":0},"geometry":{"type":"Polygon","coordinates":[[[126.98769,37.39702],[126.98718,37.40136],[126.98298,37.40332],[126.9793,37.40093],[126.97981,37.39659],[126.98401,37.39463],[126.98769,37.39702]]]}},{"type":"Feature","properties":{"h3":"8830e034a9fffff","emd_code":"4129052000","emd_name":"갈현동","area_km2":0.507,"edge":false,"slope_mean":8.03,"elev_mean":52.8,"flood_hist_n":0,"flood_depth_max_m":null,"flood_risk_100y":null,"semi_basement_r":null,"elderly_alone_r":0.0481,"bldg_age30_r":null,"shelter_min_walk":4,"pop":19745,"hh":6820,"elderly65_r":0.0785,"single_hh_r":0.2062,"source_level":"emd","flood_years":[],"landslide_hist_n":0},"geometry":{"type":"Polygon","coordinates":[[[126.98298,37.40332],[126.98247,37.40766],[126.97827,37.40961],[126.97459,37.40722],[126.9751,37.40288],[126.9793,37.40093],[126.98298,37.40332]]]}},{"type":"Feature","properties":{"h3":"8830e034abfffff","emd_code":"4129052000","emd_name":"갈현동","area_km2":0.5071,"edge":true,"slope_mean":9.42,"elev_mean":66.4,"flood_hist_n":0,"flood_depth_max_m":null,"flood_risk_100y":null,"semi_basement_r":null,"elderly_alone_r":0.0481,"bldg_age30_r":null,"shelter_min_walk":4,"pop":19745,"hh":6820,"elderly65_r":0.0785,"single_hh_r":0.2062,"source_level":"emd","flood_years":[],"landslide_hist_n":0},"geometry":{"type":"Polygon","coordinates":[[[126.99086,37.40375],[126.99034,37.40809],[126.98615,37.41004],[126.98247,37.40766],[126.98298,37.40332],[126.98718,37.40136],[126.99086,37.40375]]]}},{"type":"Feature","properties":{"h3":"8830e034b1fffff","emd_code":"4129056000","emd_name":"문원동","area_km2":0.5073,"edge":true,"slope_mean":18.18,"elev_mean":172.7,"flood_hist_n":0,"flood_depth_max_m":null,"flood_risk_100y":null,"semi_basement_r":null,"elderly_alone_r":0.114,"bldg_age30_r":null,"shelter_min_walk":20,"pop":6625,"hh":2737,"elderly65_r":0.2278,"single_hh_r":0.3109,"source_level":"emd","flood_years":[],"landslide_hist_n":0},"geometry":{"type":"Polygon","coordinates":[[[127.00662,37.40461],[127.00611,37.40895],[127.00191,37.41091],[126.99822,37.40852],[126.99874,37.40418],[127.00294,37.40222],[127.00662,37.40461]]]}},{"type":"Feature","properties":{"h3":"8830e034b9fffff","emd_code":"4129056000","emd_name":"문원동","area_km2":0.5072,"edge":false,"slope_mean":13.2,"elev_mean":104.4,"flood_hist_n":0,"flood_depth_max_m":null,"flood_risk_100y":null,"semi_basement_r":null,"elderly_alone_r":0.114,"bldg_age30_r":null,"shelter_min_walk":13,"pop":6625,"hh":2737,"elderly65_r":0.2278,"single_hh_r":0.3109,"source_level":"emd","flood_years":[],"landslide_hist_n":0},"geometry":{"type":"Polygon","coordinates":[[[127.00191,37.41091],[127.00139,37.41525],[126.9972,37.41721],[126.99351,37.41482],[126.99403,37.41048],[126.99822,37.40852],[127.00191,37.41091]]]}},{"type":"Feature","properties":{"h3":"8830e034bbfffff","emd_code":"4129056000","emd_name":"문원동","area_km2":0.5073,"edge":false,"slope_mean":19.2,"elev_mean":194.4,"flood_hist_n":0,"flood_depth_max_m":null,"flood_risk_100y":null,"semi_basement_r":null,"elderly_alone_r":0.114,"bldg_age30_r":null,"shelter_min_walk":15,"pop":6625,"hh":2737,"elderly65_r":0.2278,"single_hh_r":0.3109,"source_level":"emd","flood_years":[],"landslide_hist_n":0},"geometry":{"type":"Polygon","coordinates":[[[127.00979,37.41134],[127.00928,37.41568],[127.00508,37.41764],[127.00139,37.41525],[127.00191,37.41091],[127.00611,37.40895],[127.00979,37.41134]]]}},{"type":"Feature","properties":{"h3":"8830e034bdfffff","emd_code":"4129052000","emd_name":"갈현동","area_km2":0.5072,"edge":false,"slope_mean":13.79,"elev_mean":112.4,"flood_hist_n":0,"flood_depth_max_m":null,"flood_risk_100y":null,"semi_basement_r":null,"elderly_alone_r":0.0481,"bldg_age30_r":null,"shelter_min_walk":11,"pop":19745,"hh":6820,"elderly65_r":0.0785,"single_hh_r":0.2062,"source_level":"emd","flood_years":[],"landslide_hist_n":0},"geometry":{"type":"Polygon","coordinates":[[[126.99874,37.40418],[126.99822,37.40852],[126.99403,37.41048],[126.99034,37.40809],[126.99086,37.40375],[126.99505,37.40179],[126.99874,37.40418]]]}},{"type":"Feature","properties":{"h3":"8830e034c1fffff","emd_code":"4129051000","emd_name":"중앙동","area_km2":0.5069,"edge":false,"slope_mean":25.5,"elev_mean":316.8,"flood_hist_n":0,"flood_depth_max_m":null,"flood_risk_100y":null,"semi_basement_r":null,"elderly_alone_r":0.0933,"bldg_age30_r":null,"shelter_min_walk":30,"pop":11402,"hh":4246,"elderly65_r":0.2229,"single_hh_r":0.2037,"source_level":"emd","flood_years":[],"landslide_hist_n":0},"geometry":{"type":"Polygon","coordinates":[[[126.97201,37.42893],[126.9715,37.43327],[126.9673,37.43522],[126.96362,37.43284],[126.96413,37.42849],[126.96833,37.42654],[126.97201,37.42893]]]}},{"type":"Feature","properties":{"h3":"8830e034c3fffff","emd_code":"4129051000","emd_name":"중앙동","area_km2":0.507,"edge":false,"slope_mean":23.28,"elev_mean":228.0,"flood_hist_n":0,"flood_depth_max_m":null,"flood_risk_100y":null,"semi_basement_r":null,"elderly_alone_r":0.0933,"bldg_age30_r":null,"shelter_min_walk":20,"pop":11402,"hh":4246,"elderly65_r":0.2229,"single_hh_r":0.2037,"source_level":"emd","flood_years":[],"landslide_hist_n":0},"geometry":{"type":"Polygon","coordinates":[[[126.97989,37.42936],[126.97938,37.43371],[126.97518,37.43566],[126.9715,37.43327],[126.97201,37.42893],[126.97621,37.42698],[126.97989,37.42936]]]}},{"type":"Feature","properties":{"h3":"8830e034c5fffff","emd_code":"4129051500","emd_name":"원문동","area_km2":0.5068,"edge":false,"slope_mean":19.9,"elev_mean":247.7,"flood_hist_n":0,"flood_depth_max_m":null,"flood_risk_100y":null,"semi_basement_r":null,"elderly_alone_r":0.0528,"bldg_age30_r":null,"shelter_min_walk":24,"pop":16184,"hh":5345,"elderly65_r":0.1503,"single_hh_r":0.119,"source_level":"emd","flood_years":[],"landslide_hist_n":0},"geometry":{"type":"Polygon","coordinates":[[[126.96885,37.4222],[126.96833,37.42654],[126.96413,37.42849],[126.96045,37.42611],[126.96097,37.42177],[126.96516,37.41981],[126.96885,37.4222]]]}},{"type":"Feature","properties":{"h3":"8830e034c7fffff","emd_code":"4129051000","emd_name":"중앙동","area_km2":0.5069,"edge":false,"slope_mean":16.49,"elev_mean":144.7,"flood_hist_n":0,"flood_depth_max_m":null,"flood_risk_100y":null,"semi_basement_r":null,"elderly_alone_r":0.0933,"bldg_age30_r":null,"shelter_min_walk":23,"pop":11402,"hh":4246,"elderly65_r":0.2229,"single_hh_r":0.2037,"source_level":"emd","flood_years":[],"landslide_hist_n":0},"geometry":{"type":"Polygon","coordinates":[[[126.97672,37.42264],[126.97621,37.42698],[126.97201,37.42893],[126.96833,37.42654],[126.96885,37.4222],[126.97304,37.42025],[126.97672,37.42264]]]}},{"type":"Feature","properties":{"h3":"8830e034c9fffff","emd_code":"4129051000","emd_name":"중앙동","area_km2":0.5068,"edge":true,"slope_mean":26.21,"elev_mean":496.9,"flood_hist_n":0,"flood_depth_max_m":null,"flood_risk_100y":null,"semi_basement_r":null,"elderly_alone_r":0.0933,"bldg_age30_r":null,"shelter_min_walk":38,"pop":11402,"hh":4246,"elderly65_r":0.2229,"single_hh_r":0.2037,"source_level":"emd","flood_years":[],"landslide_hist_n":0},"geometry":{"type":"Polygon","coordinates":[[[126.9673,37.43522],[126.96678,37.43956],[126.96259,37.44152],[126.9589,37.43913],[126.95942,37.43479],[126.96362,37.43284],[126.9673,37.43522]]]}},{"type":"Feature","properties":{"h3":"8830e034cbfffff","emd_code":"4129051000","emd_name":"중앙동","area_km2":0.5069,"edge":false,"slope_mean":25.13,"elev_mean":377.5,"flood_hist_n":0,"flood_depth_max_m":null,"flood_risk_100y":null,"semi_basement_r":null,"elderly_alone_r":0.0933,"bldg_age30_r":null,"shelter_min_walk":29,"pop":11402,"hh":4246,"elderly65_r":0.2229,"single_hh_r":0.2037,"source_level":"emd","flood_years":[],"landslide_hist_n":0},"geometry":{"type":"Polygon","coordinates":[[[126.97518,37.43566],[126.97466,37.44],[126.97047,37.44195],[126.96678,37.43956],[126.9673,37.43522],[126.9715,37.43327],[126.97518,37.43566]]]}},{"type":"Feature","properties":{"h3":"8830e034cdfffff","emd_code":"4129051500","emd_name":"원문동","area_km2":0.5068,"edge":true,"slope_mean":25.78,"elev_mean":414.9,"flood_hist_n":0,"flood_depth_max_m":null,"flood_risk_100y":null,"semi_basement_r":null,"elderly_alone_r":0.0528,"bldg_age30_r":null,"shelter_min_walk":36,"pop":16184,"hh":5345,"elderly65_r":0.1503,"single_hh_r":0.119,"source_level":"emd","flood_years":[],"landslide_hist_n":0},"geometry":{"type":"Polygon","coordinates":[[[126.96413,37.42849],[126.96362,37.43284],[126.95942,37.43479],[126.95574,37.4324],[126.95626,37.42806],[126.96045,37.42611],[126.96413,37.42849]]]}},{"type":"Feature","properties":{"h3":"8830e034d1fffff","emd_code":"4129051000","emd_name":"중앙동","area_km2":0.5072,"edge":false,"slope_mean":18.34,"elev_mean":157.7,"flood_hist_n":0,"flood_depth_max_m":null,"flood_risk_100y":null,"semi_basement_r":null,"elderly_alone_r":0.0933,"bldg_age30_r":null,"shelter_min_walk":11,"pop":11402,"hh":4246,"elderly65_r":0.2229,"single_hh_r":0.2037,"source_level":"emd","flood_years":[],"landslide_hist_n":0},"geometry":{"type":"Polygon","coordinates":[[[126.99094,37.43653],[126.99043,37.44087],[126.98623,37.44282],[126.98255,37.44044],[126.98306,37.43609],[126.98726,37.43414],[126.99094,37.43653]]]}},{"type":"Feature","properties":{"h3":"8830e034d3fffff","emd_code":"4129054000","emd_name":"부림동","area_km2":0.5073,"edge":false,"slope_mean":8.02,"elev_mean":54.1,"flood_hist_n":0,"flood_depth_max_m":null,"flood_risk_100y":null,"semi_basement_r":null,"elderly_alone_r":0.0725,"bldg_age30_r":null,"shelter_min_walk":8,"pop":8826,"hh":3296,"elderly65_r":0.1858,"single_hh_r":0.2072,"source_level":"emd","flood_years":[],"landslide_hist_n":0},"geometry":{"type":"Polygon","coordinates":[[[126.99883,37.43696],[126.99831,37.4413],[126.99411,37.44326],[126.99043,37.44087],[126.99094,37.43653],[126.99514,37.43457],[126.99883,37.43696]]]}},{"type":"Feature","properties":{"h3":"8830e034d5fffff","emd_code":"4129051000","emd_name":"중앙동","area_km2":0.5071,"edge":false,"slope_mean":16.54,"elev_mean":121.9,"flood_hist_n":0,"flood_depth_max_m":null,"flood_risk_100y":null,"semi_basement_r":null,"elderly_alone_r":0.0933,"bldg_age30_r":null,"shelter_min_walk":10,"pop":11402,"hh":4246,"elderly65_r":0.2229,"single_hh_r":0.2037,"source_level":"emd","flood_years":[],"landslide_hist_n":0},"geometry":{"type":"Polygon","coordinates":[[[126.98777,37.4298],[126.98726,37.43414],[126.98306,37.43609],[126.97938,37.43371],[126.97989,37.42936],[126.98409,37.42741],[126.98777,37.4298]]]}},{"type":"Feature","properties":{"h3":"8830e034d7fffff","emd_code":"4129051000","emd_name":"중앙동","area_km2":0.5072,"edge":false,"slope_mean":6.69,"elev_mean":59.9,"flood_hist_n":0,"flood_depth_max_m":null,"flood_risk_100y":null,"semi_basement_r":null,"elderly_alone_r":0.0933,"bldg_age30_r":null,"shelter_min_walk":2,"pop":11402,"hh":4246,"elderly65_r":0.2229,"single_hh_r":0.2037,"source_level":"emd","flood_years":[],"landslide_hist_n":0},"geometry":{"type":"Polygon","coordinates":[[[126.99566,37.43023],[126.99514,37.43457],[126.99094,37.43653],[126.98726,37.43414],[126.98777,37.4298],[126.99197,37.42784],[126.99566,37.43023]]]}},{"type":"Feature","properties":{"h3":"8830e034d9fffff","emd_code":"4129055000","emd_name":"과천동","area_km2":0.5071,"edge":false,"slope_mean":21.8,"elev_mean":242.0,"flood_hist_n":0,"flood_depth_max_m":null,"flood_risk_100y":null,"semi_basement_r":null,"elderly_alone_r":0.1383,"bldg_age30_r":null,"shelter_min_walk":18,"pop":5798,"hh":2647,"elderly65_r":0.2465,"single_hh_r":0.4088,"source_level":"emd","flood_years":[],"landslide_hist_n":0},"geometry":{"type":"Polygon","coordinates":[[[126.98623,37.44282],[126.98571,37.44717],[126.98152,37.44912],[126.97783,37.44673],[126.97835,37.44239],[126.98255,37.44044],[126.98623,37.44282]]]}},{"type":"Feature","properties":{"h3":"8830e034dbfffff","emd_code":"4129055000","emd_name":"과천동","area_km2":0.5072,"edge":false,"slope_mean":14.18,"elev_mean":101.1,"flood_hist_n":0,"flood_depth_max_m":null,"flood_risk_100y":null,"semi_basement_r":null,"elderly_alone_r":0.1383,"bldg_age30_r":null,"shelter_min_walk":9,"pop":5798,"hh":2647,"elderly65_r":0.2465,"single_hh_r":0.4088,"source_level":"emd","flood_years":[],"landslide_hist_n":0},"geometry":{"type":"Polygon","coordinates":[[[126.99411,37.44326],[126.9936,37.4476],[126.9894,37.44955],[126.98571,37.44717],[126.98623,37.44282],[126.99043,37.44087],[126.99411,37.44326]]]}},{"type":"Feature","properties":{"h3":"8830e034ddfffff","emd_code":"4129051000","emd_name":"중앙동","area_km2":0.507,"edge":false,"slope_mean":23.37,"elev_mean":240.3,"flood_hist_n":0,"flood_depth_max_m":null,"flood_risk_100y":null,"semi_basement_r":null,"elderly_alone_r":0.0933,"bldg_age30_r":null,"shelter_min_walk":20,"pop":11402,"hh":4246,"elderly65_r":0.2229,"single_hh_r":0.2037,"source_level":"emd","flood_years":[],"landslide_hist_n":0},"geometry":{"type":"Polygon","coordinates":[[[126.98306,37.43609],[126.98255,37.44044],[126.97835,37.44239],[126.97466,37.44],[126.97518,37.43566],[126.97938,37.43371],[126.98306,37.43609]]]}},{"type":"Feature","properties":{"h3":"8830e034e3fffff","emd_code":"4129052000","emd_name":"갈현동","area_km2":0.5069,"edge":true,"slope_mean":8.01,"elev_mean":59.4,"flood_hist_n":0,"flood_depth_max_m":null,"flood_risk_100y":null,"semi_basement_r":null,"elderly_alone_r":0.0481,"bldg_age30_r":null,"shelter_min_walk":6,"pop":19745,"hh":6820,"elderly65_r":0.0785,"single_hh_r":0.2062,"source_level":"emd","flood_years":[],"landslide_hist_n":0},"geometry":{"type":"Polygon","coordinates":[[[126.97827,37.40961],[126.97775,37.41395],[126.97356,37.41591],[126.96988,37.41352],[126.97039,37.40918],[126.97459,37.40722],[126.97827,37.40961]]]}},{"type":"Feature","properties":{"h3":"8830e034e9fffff","emd_code":"4129051500","emd_name":"원문동","area_km2":0.5067,"edge":true,"slope_mean":15.69,"elev_mean":175.6,"flood_hist_n":0,"flood_depth_max_m":null,"flood_risk_100y":null,"semi_basement_r":null,"elderly_alone_r":0.0528,"bldg_age30_r":null,"shelter_min_walk":15,"pop":16184,"hh":5345,"elderly65_r":0.1503,"single_hh_r":0.119,"source_level":"emd","flood_years":[],"landslide_hist_n":0},"geometry":{"type":"Polygon","coordinates":[[[126.96568,37.41547],[126.96516,37.41981],[126.96097,37.42177],[126.95729,37.41938],[126.9578,37.41504],[126.962,37.41309],[126.96568,37.41547]]]}},{"type":"Feature","properties":{"h3":"8830e034ebfffff","emd_code":"4129051500","emd_name":"원문동","area_km2":0.5069,"edge":false,"slope_mean":14.57,"elev_mean":122.5,"flood_hist_n":0,"flood_depth_max_m":null,"flood_risk_100y":null,"semi_basement_r":null,"elderly_alone_r":0.0528,"bldg_age30_r":null,"shelter_min_walk":14,"pop":16184,"hh":5345,"elderly65_r":0.1503,"single_hh_r":0.119,"source_level":"emd","flood_years":[],"landslide_hist_n":0},"geometry":{"type":"Polygon","coordinates":[[[126.97356,37.41591],[126.97304,37.42025],[126.96885,37.4222],[126.96516,37.41981],[126.96568,37.41547],[126.96988,37.41352],[126.97356,37.41591]]]}},{"type":"Feature","properties":{"h3":"8830e036b1fffff","emd_code":"4129051000","emd_name":"중앙동","area_km2":0.5069,"edge":true,"slope_mean":24.06,"elev_mean":434.8,"flood_hist_n":0,"flood_depth_max_m":null,"flood_risk_100y":null,"semi_basement_r":null,"elderly_alone_r":0.0933,"bldg_age30_r":null,"shelter_min_walk":33,"pop":11402,"hh":4246,"elderly65_r":0.2229,"single_hh_r":0.2037,"source_level":"emd","flood_years":[],"landslide_hist_n":0},"geometry":{"type":"Polygon","coordinates":[[[126.97363,37.44868],[126.97312,37.45302],[126.96892,37.45498],[126.96524,37.45259],[126.96575,37.44825],[126.96995,37.44629],[126.97363,37.44868]]]}},{"type":"Feature","properties":{"h3":"8830e036b3fffff","emd_code":"4129055000","emd_name":"과천동","area_km2":0.5071,"edge":true,"slope_mean":24.43,"elev_mean":327.5,"flood_hist_n":0,"flood_depth_max_m":null,"flood_risk_100y":null,"semi_basement_r":null,"elderly_alone_r":0.1383,"bldg_age30_r":null,"shelter_min_walk":23,"pop":5798,"hh":2647,"elderly65_r":0.2465,"single_hh_r":0.4088,"source_level":"emd","flood_years":[],"landslide_hist_n":0},"geometry":{"type":"Polygon","coordinates":[[[126.98152,37.44912],[126.981,37.45346],[126.9768,37.45541],[126.97312,37.45302],[126.97363,37.44868],[126.97783,37.44673],[126.98152,37.44912]]]}},{"type":"Feature","properties":{"h3":"8830e036b5fffff","emd_code":"4129051000","emd_name":"중앙동","area_km2":0.5069,"edge":false,"slope_mean":26.24,"elev_mean":508.7,"flood_hist_n":0,"flood_depth_max_m":null,"flood_risk_100y":null,"semi_basement_r":null,"elderly_alone_r":0.0933,"bldg_age30_r":null,"shelter_min_walk":38,"pop":11402,"hh":4246,"elderly65_r":0.2229,"single_hh_r":0.2037,"source_level":"emd","flood_years":[],"landslide_hist_n":0},"geometry":{"type":"Polygon","coordinates":[[[126.97047,37.44195],[126.96995,37.44629],[126.96575,37.44825],[126.96207,37.44586],[126.96259,37.44152],[126.96678,37.43956],[126.97047,37.44195]]]}},{"type":"Feature","properties":{"h3":"8830e036b7fffff","emd_code":"4129051000","emd_name":"중앙동","area_km2":0.507,"edge":false,"slope_mean":25.31,"elev_mean":381.0,"flood_hist_n":0,"flood_depth_max_m":null,"flood_risk_100y":null,"semi_basement_r":null,"elderly_alone_r":0.0933,"bldg_age30_r":null,"shelter_min_walk":28,"pop":11402,"hh":4246,"elderly65_r":0.2229,"single_hh_r":0.2037,"source_level":"emd","flood_years":[],"landslide_hist_n":0},"geometry":{"type":"Polygon","coordinates":[[[126.97835,37.44239],[126.97783,37.44673],[126.97363,37.44868],[126.96995,37.44629],[126.97047,37.44195],[126.97466,37.44],[126.97835,37.44239]]]}},{"type":"Feature","properties":{"h3":"8830e1c865fffff","emd_code":"4129055000","emd_name":"과천동","area_km2":0.5079,"edge":true,"slope_mean":13.58,"elev_mean":86.1,"flood_hist_n":0,"flood_depth_max_m":null,"flood_risk_100y":null,"semi_basement_r":null,"elderly_alone_r":0.1383,"bldg_age30_r":null,"shelter_min_walk":46,"pop":5798,"hh":2647,"elderly65_r":0.2465,"single_hh_r":0.4088,"source_level":"emd","flood_years":[],"landslide_hist_n":0},"geometry":{"type":"Polygon","coordinates":[[[127.04462,37.45259],[127.04411,37.45693],[127.03991,37.45889],[127.03622,37.4565],[127.03673,37.45216],[127.04093,37.4502],[127.04462,37.45259]]]}},{"type":"Feature","properties":{"h3":"8830e1c86dfffff","emd_code":"4129055000","emd_name":"과천동","area_km2":0.5079,"edge":true,"slope_mean":6.5,"elev_mean":35.0,"flood_hist_n":0,"flood_depth_max_m":null,"flood_risk_100y":null,"semi_basement_r":null,"elderly_alone_r":0.1383,"bldg_age30_r":null,"shelter_min_walk":46,"pop":5798,"hh":2647,"elderly65_r":0.2465,"single_hh_r":0.4088,"source_level":"emd","flood_years":[],"landslide_hist_n":0},"geometry":{"type":"Polygon","coordinates":[[[127.03991,37.45889],[127.03939,37.46323],[127.03519,37.46519],[127.0315,37.4628],[127.03201,37.45846],[127.03622,37.4565],[127.03991,37.45889]]]}},{"type":"Feature","properties":{"h3":"8830e1c901fffff","emd_code":"4129056000","emd_name":"문원동","area_km2":0.5079,"edge":false,"slope_mean":26.64,"elev_mean":463.6,"flood_hist_n":0,"flood_depth_max_m":null,"flood_risk_100y":null,"semi_basement_r":null,"elderly_alone_r":0.114,"bldg_age30_r":null,"shelter_min_walk":41,"pop":6625,"hh":2737,"elderly65_r":0.2278,"single_hh_r":0.3109,"source_level":"emd","flood_years":[],"landslide_hist_n":0},"geometry":{"type":"Polygon","coordinates":[[[127.04451,37.41979],[127.044,37.42414],[127.0398,37.42609],[127.03611,37.42371],[127.03662,37.41936],[127.04082,37.4174],[127.04451,37.41979]]]}},{"type":"Feature","properties":{"h3":"8830e1c905fffff","emd_code":"4129056000","emd_name":"문원동","area_km2":0.5078,"edge":false,"slope_mean":23.25,"elev_mean":342.2,"flood_hist_n":0,"flood_depth_max_m":null,"flood_risk_100y":null,"semi_basement_r":null,"elderly_alone_r":0.114,"bldg_age30_r":null,"shelter_min_walk":39,"pop":6625,"hh":2737,"elderly65_r":0.2278,"single_hh_r":0.3109,"source_level":"emd","flood_years":[],"landslide_hist_n":0},"geometry":{"type":"Polygon","coordinates":[[[127.04133,37.41306],[127.04082,37.4174],[127.03662,37.41936],[127.03293,37.41697],[127.03344,37.41263],[127.03764,37.41067],[127.04133,37.41306]]]}},{"type":"Feature","properties":{"h3":"8830e1c907fffff","emd_code":"4129056000","emd_name":"문원동","area_km2":0.5079,"edge":true,"slope_mean":23.9,"elev_mean":458.2,"flood_hist_n":0,"flood_depth_max_m":null,"flood_risk_100y":null,"semi_basement_r":null,"elderly_alone_r":0.114,"bldg_age30_r":null,"shelter_min_walk":48,"pop":6625,"hh":2737,"elderly65_r":0.2278,"single_hh_r":0.3109,"source_level":"emd","flood_years":[],"landslide_hist_n":0},"geometry":{"type":"Polygon","coordinates":[[[127.04922,37.41349],[127.04871,37.41783],[127.04451,37.41979],[127.04082,37.4174],[127.04133,37.41306],[127.04553,37.4111],[127.04922,37.41349]]]}},{"type":"Feature","properties":{"h3":"8830e1c909fffff","emd_code":"4129056000","emd_name":"문원동","area_km2":0.5078,"edge":false,"slope_mean":23.52,"elev_mean":318.3,"flood_hist_n":0,"flood_depth_max_m":null,"flood_risk_100y":null,"semi_basement_r":null,"elderly_alone_r":0.114,"bldg_age30_r":null,"shelter_min_walk":36,"pop":6625,"hh":2737,"elderly65_r":0.2278,"single_hh_r":0.3109,"source_level":"emd","flood_years":[],"landslide_hist_n":0},"geometry":{"type":"Polygon","coordinates":[[[127.0398,37.42609],[127.03929,37.43044],[127.03509,37.43239],[127.0314,37.43001],[127.03191,37.42566],[127.03611,37.42371],[127.0398,37.42609]]]}},{"type":"Feature","properties":{"h3":"8830e1c90bfffff","emd_code":"4129056000","emd_name":"문원동","area_km2":0.5079,"edge":false,"slope_mean":25.16,"elev_mean":475.0,"flood_hist_n":0,"flood_depth_max_m":null,"flood_risk_100y":null,"semi_basement_r":null,"elderly_alone_r":0.114,"bldg_age30_r":null,"shelter_min_walk":46,"pop":6625,"hh":2737,"elderly65_r":0.2278,"single_hh_r":0.3109,"source_level":"emd","flood_years":[],"landslide_hist_n":0},"geometry":{"type":"Polygon","coordinates":[[[127.04769,37.42652],[127.04718,37.43087],[127.04298,37.43282],[127.03929,37.43044],[127.0398,37.42609],[127.044,37.42414],[127.04769,37.42652]]]}},{"type":"Feature","properties":{"h3":"8830e1c90dfffff","emd_code":"4129056000","emd_name":"문원동","area_km2":0.5077,"edge":false,"slope_mean":19.38,"elev_mean":270.2,"flood_hist_n":0,"flood_depth_max_m":null,"flood_risk_100y":null,"semi_basement_r":null,"elderly_alone_r":0.114,"bldg_age30_r":null,"shelter_min_walk":30,"pop":6625,"hh":2737,"elderly65_r":0.2278,"single_hh_r":0.3109,"source_level":"emd","flood_years":[],"landslide_hist_n":0},"geometry":{"type":"Polygon","coordinates":[[[127.03662,37.41936],[127.03611,37.42371],[127.03191,37.42566],[127.02822,37.42327],[127.02873,37.41893],[127.03293,37.41697],[127.03662,37.41936]]]}},{"type":"Feature","properties":{"h3":"8830e1c91dfffff","emd_code":"4129056000","emd_name":"문원동","area_km2":0.508,"edge":true,"slope_mean":22.74,"elev_mean":364.6,"flood_hist_n":0,"flood_depth_max_m":null,"flood_risk_100y":null,"semi_basement_r":null,"elderly_alone_r":0.114,"bldg_age30_r":null,"shelter_min_walk":57,"pop":6625,"hh":2737,"elderly65_r":0.2278,"single_hh_r":0.3109,"source_level":"emd","flood_years":[],"landslide_hist_n":0},"geometry":{"type":"Polygon","coordinates":[[[127.05558,37.42695],[127.05507,37.4313],[127.05087,37.43325],[127.04718,37.43087],[127.04769,37.42652],[127.05189,37.42457],[127.05558,37.42695]]]}},{"type":"Feature","properties":{"h3":"8830e1c941fffff","emd_code":"4129056000","emd_name":"문원동","area_km2":0.5076,"edge":false,"slope_mean":12.35,"elev_mean":117.7,"flood_hist_n":0,"flood_depth_max_m":null,"flood_risk_100y":null,"semi_basement_r":null,"elderly_alone_r":0.114,"bldg_age30_r":null,"shelter_min_walk":23,"pop":6625,"hh":2737,"elderly65_r":0.2278,"single_hh_r":0.3109,"source_level":"emd","flood_years":[],"landslide_hist_n":0},"geometry":{"type":"Polygon","coordinates":[[[127.0272,37.43196],[127.02668,37.43631],[127.02248,37.43826],[127.0188,37.43587],[127.01931,37.43153],[127.02351,37.42957],[127.0272,37.43196]]]}},{"type":"Feature","properties":{"h3":"8830e1c943fffff","emd_code":"4129056000","emd_name":"문원동","area_km2":0.5078,"edge":false,"slope_mean":17.72,"elev_mean":188.6,"flood_hist_n":0,"flood_depth_max_m":null,"flood_risk_100y":null,"semi_basement_r":null,"elderly_alone_r":0.114,"bldg_age30_r":null,"shelter_min_walk":33,"pop":6625,"hh":2737,"elderly65_r":0.2278,"single_hh_r":0.3109,"source_level":"emd","flood_years":[],"landslide_hist_n":0},"geometry":{"type":"Polygon","coordinates":[[[127.03509,37.43239],[127.03457,37.43674],[127.03037,37.43869],[127.02668,37.43631],[127.0272,37.43196],[127.0314,37.43001],[127.03509,37.43239]]]}},{"type":"Feature","properties":{"h3":"8830e1c945fffff","emd_code":"4129056000","emd_name":"문원동","area_km2":0.5076,"edge":false,"slope_mean":11.52,"elev_mean":107.4,"flood_hist_n":0,"flood_depth_max_m":null,"flood_risk_100y":null,"semi_basement_r":null,"elderly_alone_r":0.114,"bldg_age30_r":null,"shelter_min_walk":16,"pop":6625,"hh":2737,"elderly65_r":0.2278,"single_hh_r":0.3109,"source_level":"emd","flood_years":[],"landslide_hist_n":0},"geometry":{"type":"Polygon","coordinates":[[[127.02402,37.42523],[127.02351,37.42957],[127.01931,37.43153],[127.01562,37.42914],[127.01614,37.4248],[127.02034,37.42284],[127.02402,37.42523]]]}},{"type":"Feature","properties":{"h3":"8830e1c947fffff","emd_code":"4129056000","emd_name":"문원동","area_km2":0.5077,"edge":false,"slope_mean":18.21,"elev_mean":200.1,"flood_hist_n":0,"flood_depth_max_m":null,"flood_risk_100y":null,"semi_basement_r":null,"elderly_alone_r":0.114,"bldg_age30_r":null,"shelter_min_walk":26,"pop":6625,"hh":2737,"elderly65_r":0.2278,"single_hh_r":0.3109,"source_level":"emd","flood_years":[],"landslide_hist_n":0},"geometry":{"type":"Polygon","coordinates":[[[127.03191,37.42566],[127.0314,37.43001],[127.0272,37.43196],[127.02351,37.42957],[127.02402,37.42523],[127.02822,37.42327],[127.03191,37.42566]]]}},{"type":"Feature","properties":{"h3":"8830e1c949fffff","emd_code":"4129055000","emd_name":"과천동","area_km2":0.5076,"edge":false,"slope_mean":12.21,"elev_mean":92.3,"flood_hist_n":0,"flood_depth_max_m":null,"flood_risk_100y":null,"semi_basement_r":null,"elderly_alone_r":0.1383,"bldg_age30_r":null,"shelter_min_walk":15,"pop":5798,"hh":2647,"elderly65_r":0.2465,"single_hh_r":0.4088,"source_level":"emd","flood_years":[],"landslide_hist_n":0},"geometry":{"type":"Polygon","coordinates":[[[127.02248,37.43826],[127.02197,37.4426],[127.01777,37.44456],[127.01408,37.44217],[127.0146,37.43783],[127.0188,37.43587],[127.02248,37.43826]]]}},{"type":"Feature","properties":{"h3":"8830e1c94bfffff","emd_code":"4129055000","emd_name":"과천동","area_km2":0.5077,"edge":false,"slope_mean":14.77,"elev_mean":138.1,"flood_hist_n":0,"flood_depth_max_m":null,"flood_risk_100y":null,"semi_basement_r":null,"elderly_alone_r":0.1383,"bldg_age30_r":null,"shelter_min_walk":25,"pop":5798,"hh":2647,"elderly65_r":0.2465,"single_hh_r":0.4088,"source_level":"emd","flood_years":[],"landslide_hist_n":0},"geometry":{"type":"Polygon","coordinates":[[[127.03037,37.43869],[127.02986,37.44304],[127.02566,37.44499],[127.02197,37.4426],[127.02248,37.43826],[127.02668,37.43631],[127.03037,37.43869]]]}},{"type":"Feature","properties":{"h3":"8830e1c94dfffff","emd_code":"4129056000","emd_name":"문원동","area_km2":0.5075,"edge":false,"slope_mean":6.78,"elev_mean":77.2,"flood_hist_n":0,"flood_depth_max_m":null,"flood_risk_100y":null,"semi_basement_r":null,"elderly_alone_r":0.114,"bldg_age30_r":null,"shelter_min_walk":13,"pop":6625,"hh":2737,"elderly65_r":0.2278,"single_hh_r":0.3109,"source_level":"emd","flood_years":[],"landslide_hist_n":0},"geometry":{"type":"Polygon","coordinates":[[[127.01931,37.43153],[127.0188,37.43587],[127.0146,37.43783],[127.01091,37.43544],[127.01142,37.4311],[127.01562,37.42914],[127.01931,37.43153]]]}},{"type":"Feature","properties":{"h3":"8830e1c951fffff","emd_code":"4129056000","emd_name":"문원동","area_km2":0.5079,"edge":true,"slope_mean":18.36,"elev_mean":234.5,"flood_hist_n":0,"flood_depth_max_m":null,"flood_risk_100y":null,"semi_basement_r":null,"elderly_alone_r":0.114,"bldg_age30_r":null,"shelter_min_walk":45,"pop":6625,"hh":2737,"elderly65_r":0.2278,"single_hh_r":0.3109,"source_level":"emd","flood_years":[],"landslide_hist_n":0},"geometry":{"type":"Polygon","coordinates":[[[127.04615,37.43956],[127.04564,37.4439],[127.04144,37.44586],[127.03775,37.44347],[127.03826,37.43912],[127.04246,37.43717],[127.04615,37.43956]]]}},{"type":"Feature","properties":{"h3":"8830e1c955fffff","emd_code":"4129056000","emd_name":"문원동","area_km2":0.5079,"edge":false,"slope_mean":23.17,"elev_mean":323.6,"flood_hist_n":0,"flood_depth_max_m":null,"flood_risk_100y":null,"semi_basement_r":null,"elderly_alone_r":0.114,"bldg_age30_r":null,"shelter_min_walk":43,"pop":6625,"hh":2737,"elderly65_r":0.2278,"single_hh_r":0.3109,"source_level":"emd","flood_years":[],"landslide_hist_n":0},"geometry":{"type":"Polygon","coordinates":[[[127.04298,37.43282],[127.04246,37.43717],[127.03826,37.43912],[127.03457,37.43674],[127.03509,37.43239],[127.03929,37.43044],[127.04298,37.43282]]]}},{"type":"Feature","properties":{"h3":"8830e1c957fffff","emd_code":"4129056000","emd_name":"문원동","area_km2":0.508,"edge":true,"slope_mean":19.44,"elev_mean":328.2,"flood_hist_n":0,"flood_depth_max_m":null,"flood_risk_100y":null,"semi_basement_r":null,"elderly_alone_r":0.114,"bldg_age30_r":null,"shelter_min_walk":53,"pop":6625,"hh":2737,"elderly65_r":0.2278,"single_hh_r":0.3109,"source_level":"emd","flood_years":[],"landslide_hist_n":0},"geometry":{"type":"Polygon","coordinates":[[[127.05087,37.43325],[127.05036,37.4376],[127.04615,37.43956],[127.04246,37.43717],[127.04298,37.43282],[127.04718,37.43087],[127.05087,37.43325]]]}},{"type":"Feature","properties":{"h3":"8830e1c959fffff","emd_code":"4129055000","emd_name":"과천동","area_km2":0.5079,"edge":false,"slope_mean":16.05,"elev_mean":161.1,"flood_hist_n":0,"flood_depth_max_m":null,"flood_risk_100y":null,"semi_basement_r":null,"elderly_alone_r":0.1383,"bldg_age30_r":null,"shelter_min_walk":39,"pop":5798,"hh":2647,"elderly65_r":0.2465,"single_hh_r":0.4088,"source_level":"emd","flood_years":[],"landslide_hist_n":0},"geometry":{"type":"Polygon","coordinates":[[[127.04144,37.44586],[127.04093,37.4502],[127.03673,37.45216],[127.03304,37.44977],[127.03355,37.44543],[127.03775,37.44347],[127.04144,37.44586]]]}},{"type":"Feature","properties":{"h3":"8830e1c95dfffff","emd_code":"4129056000","emd_name":"문원동","area_km2":0.5078,"edge":false,"slope_mean":22.52,"elev_mean":255.3,"flood_hist_n":0,"flood_depth_max_m":null,"flood_risk_100y":null,"semi_basement_r":null,"elderly_alone_r":0.114,"bldg_age30_r":null,"shelter_min_walk":35,"pop":6625,"hh":2737,"elderly65_r":0.2278,"single_hh_r":0.3109,"source_level":"emd","flood_years":[],"landslide_hist_n":0},"geometry":{"type":"Polygon","coordinates":[[[127.03826,37.43912],[127.03775,37.44347],[127.03355,37.44543],[127.02986,37.44304],[127.03037,37.43869],[127.03457,37.43674],[127.03826,37.43912]]]}},{"type":"Feature","properties":{"h3":"8830e1c961fffff","emd_code":"4129056000","emd_name":"문원동","area_km2":0.5076,"edge":false,"slope_mean":20.24,"elev_mean":222.6,"flood_hist_n":0,"flood_depth_max_m":null,"flood_risk_100y":null,"semi_basement_r":null,"elderly_alone_r":0.114,"bldg_age30_r":null,"shelter_min_walk":21,"pop":6625,"hh":2737,"elderly65_r":0.2278,"single_hh_r":0.3109,"source_level":"emd","flood_years":[],"landslide_hist_n":0},"geometry":{"type":"Polygon","coordinates":[[[127.02556,37.4122],[127.02505,37.41654],[127.02085,37.4185],[127.01716,37.41611],[127.01767,37.41177],[127.02187,37.40981],[127.02556,37.4122]]]}},{"type":"Feature","properties":{"h3":"8830e1c963fffff","emd_code":"4129056000","emd_name":"문원동","area_km2":0.5077,"edge":false,"slope_mean":19.41,"elev_mean":278.9,"flood_hist_n":0,"flood_depth_max_m":null,"flood_risk_100y":null,"semi_basement_r":null,"elderly_alone_r":0.114,"bldg_age30_r":null,"shelter_min_walk":29,"pop":6625,"hh":2737,"elderly65_r":0.2278,"single_hh_r":0.3109,"source_level":"emd","flood_years":[],"landslide_hist_n":0},"geometry":{"type":"Polygon","coordinates":[[[127.03344,37.41263],[127.03293,37.41697],[127.02873,37.41893],[127.02505,37.41654],[127.02556,37.4122],[127.02976,37.41024],[127.03344,37.41263]]]}},{"type":"Feature","properties":{"h3":"8830e1c969fffff","emd_code":"4129056000","emd_name":"문원동","area_km2":0.5075,"edge":false,"slope_mean":15.84,"elev_mean":159.2,"flood_hist_n":0,"flood_depth_max_m":null,"flood_risk_100y":null,"semi_basement_r":null,"elderly_alone_r":0.114,"bldg_age30_r":null,"shelter_min_walk":10,"pop":6625,"hh":2737,"elderly65_r":0.2278,"single_hh_r":0.3109,"source_level":"emd","flood_years":[],"landslide_hist_n":0},"geometry":{"type":"Polygon","coordinates":[[[127.02085,37.4185],[127.02034,37.42284],[127.01614,37.4248],[127.01245,37.42241],[127.01296,37.41807],[127.01716,37.41611],[127.02085,37.4185]]]}},{"type":"Feature","properties":{"h3":"8830e1c96bfffff","emd_code":"4129056000","emd_name":"문원동","area_km2":0.5076,"edge":false,"slope_mean":14.51,"elev_mean":146.3,"flood_hist_n":0,"flood_depth_max_m":null,"flood_risk_100y":null,"semi_basement_r":null,"elderly_alone_r":0.114,"bldg_age30_r":null,"shelter_min_walk":20,"pop":6625,"hh":2737,"elderly65_r":0.2278,"single_hh_r":0.3109,"source_level":"emd","flood_years":[],"landslide_hist_n":0},"geometry":{"type":"Polygon","coordinates":[[[127.02873,37.41893],[127.02822,37.42327],[127.02402,37.42523],[127.02034,37.42284],[127.02085,37.4185],[127.02505,37.41654],[127.02873,37.41893]]]}},{"type":"Feature","properties":{"h3":"8830e1c96dfffff","emd_code":"4129056000","emd_name":"문원동","area_km2":0.5075,"edge":false,"slope_mean":22.08,"elev_mean":256.3,"flood_hist_n":0,"flood_depth_max_m":null,"flood_risk_100y":null,"semi_basement_r":null,"elderly_alone_r":0.114,"bldg_age30_r":null,"shelter_min_walk":15,"pop":6625,"hh":2737,"elderly65_r":0.2278,"single_hh_r":0.3109,"source_level":"emd","flood_years":[],"landslide_hist_n":0},"geometry":{"type":"Polygon","coordinates":[[[127.01767,37.41177],[127.01716,37.41611],[127.01296,37.41807],[127.00928,37.41568],[127.00979,37.41134],[127.01399,37.40938],[127.01767,37.41177]]]}},{"type":"Feature","properties":{"h3":"8830e1cb01fffff","emd_code":"4129055000","emd_name":"과천동","area_km2":0.5075,"edge":true,"slope_mean":19.13,"elev_mean":179.4,"flood_hist_n":0,"flood_depth_max_m":null,"flood_risk_100y":null,"semi_basement_r":null,"elderly_alone_r":0.1383,"bldg_age30_r":null,"shelter_min_walk":24,"pop":5798,"hh":2647,"elderly65_r":0.2465,"single_hh_r":0.4088,"source_level":"emd","flood_years":[],"landslide_hist_n":0},"geometry":{"type":"Polygon","coordinates":[[[127.01152,37.46389],[127.011,37.46823],[127.0068,37.47018],[127.00312,37.4678],[127.00363,37.46345],[127.00783,37.4615],[127.01152,37.46389]]]}},{"type":"Feature","properties":{"h3":"8830e1cb05fffff","emd_code":"4129055000","emd_name":"과천동","area_km2":0.5075,"edge":false,"slope_mean":15.09,"elev_mean":95.4,"flood_hist_n":0,"flood_depth_max_m":null,"flood_risk_100y":null,"semi_basement_r":null,"elderly_alone_r":0.1383,"bldg_age30_r":null,"shelter_min_walk":13,"pop":5798,"hh":2647,"elderly65_r":0.2465,"single_hh_r":0.4088,"source_level":"emd","flood_years":[],"landslide_hist_n":0},"geometry":{"type":"Polygon","coordinates":[[[127.00834,37.45716],[127.00783,37.4615],[127.00363,37.46345],[126.99994,37.46106],[127.00046,37.45672],[127.00466,37.45477],[127.00834,37.45716]]]}},{"type":"Feature","properties":{"h3":"8830e1cb07fffff","emd_code":"4129055000","emd_name":"과천동","area_km2":0.5076,"edge":true,"slope_mean":12.56,"elev_mean":64.8,"flood_hist_n":0,"flood_depth_max_m":null,"flood_risk_100y":null,"semi_basement_r":null,"elderly_alone_r":0.1383,"bldg_age30_r":null,"shelter_min_walk":19,"pop":5798,"hh":2647,"elderly65_r":0.2465,"single_hh_r":0.4088,"source_level":"emd","flood_years":[],"landslide_hist_n":0},"geometry":{"type":"Polygon","coordinates":[[[127.01623,37.45759],[127.01572,37.46193],[127.01152,37.46389],[127.00783,37.4615],[127.00834,37.45716],[127.01254,37.4552],[127.01623,37.45759]]]}},{"type":"Feature","properties":{"h3":"8830e1cb0dfffff","emd_code":"4129055000","emd_name":"과천동","area_km2":0.5074,"edge":false,"slope_mean":18.49,"elev_mean":157.7,"flood_hist_n":0,"flood_depth_max_m":null,"flood_risk_100y":null,"semi_basement_r":null,"elderly_alone_r":0.1383,"bldg_age30_r":null,"shelter_min_walk":23,"pop":5798,"hh":2647,"elderly65_r":0.2465,"single_hh_r":0.4088,"source_level":"emd","flood_years":[],"landslide_hist_n":0},"geometry":{"type":"Polygon","coordinates":[[[127.00363,37.46345],[127.00312,37.4678],[126.99891,37.46975],[126.99523,37.46736],[126.99574,37.46302],[126.99994,37.46106],[127.00363,37.46345]]]}},{"type":"Feature","properties":{"h3":"8830e1cb17fffff","emd_code":"4129055000","emd_name":"과천동","area_km2":0.5078,"edge":true,"slope_mean":7.54,"elev_mean":29.0,"flood_hist_n":0,"flood_depth_max_m":null,"flood_risk_100y":null,"semi_basement_r":null,"elderly_alone_r":0.1383,"bldg_age30_r":null,"shelter_min_walk":47,"pop":5798,"hh":2647,"elderly65_r":0.2465,"single_hh_r":0.4088,"source_level":"emd","flood_years":[],"landslide_hist_n":0},"geometry":{"type":"Polygon","coordinates":[[[127.03519,37.46519],[127.03468,37.46953],[127.03048,37.47149],[127.02679,37.4691],[127.0273,37.46476],[127.0315,37.4628],[127.03519,37.46519]]]}},{"type":"Feature","properties":{"h3":"8830e1cb21fffff","emd_code":"4129055000","emd_name":"과천동","area_km2":0.5074,"edge":false,"slope_mean":2.53,"elev_mean":37.8,"flood_hist_n":0,"flood_depth_max_m":null,"flood_risk_100y":null,"semi_basement_r":null,"elderly_alone_r":0.1383,"bldg_age30_r":null,"shelter_min_walk":4,"pop":5798,"hh":2647,"elderly65_r":0.2465,"single_hh_r":0.4088,"source_level":"emd","flood_years":[],"landslide_hist_n":0},"geometry":{"type":"Polygon","coordinates":[[[127.00988,37.44413],[127.00937,37.44847],[127.00517,37.45042],[127.00148,37.44804],[127.002,37.44369],[127.0062,37.44174],[127.00988,37.44413]]]}},{"type":"Feature","properties":{"h3":"8830e1cb23fffff","emd_code":"4129055000","emd_name":"과천동","area_km2":0.5075,"edge":false,"slope_mean":5.27,"elev_mean":42.8,"flood_hist_n":0,"flood_depth_max_m":null,"flood_risk_100y":null,"semi_basement_r":null,"elderly_alone_r":0.1383,"bldg_age30_r":null,"shelter_min_walk":8,"pop":5798,"hh":2647,"elderly65_r":0.2465,"single_hh_r":0.4088,"source_level":"emd","flood_years":[],"landslide_hist_n":0},"geometry":{"type":"Polygon","coordinates":[[[127.01777,37.44456],[127.01726,37.4489],[127.01306,37.45086],[127.00937,37.44847],[127.00988,37.44413],[127.01408,37.44217],[127.01777,37.44456]]]}},{"type":"Feature","properties":{"h3":"8830e1cb25fffff","emd_code":"4129055000","emd_name":"과천동","area_km2":0.5074,"edge":false,"slope_mean":2.97,"elev_mean":44.6,"flood_hist_n":0,"flood_depth_max_m":null,"flood_risk_100y":null,"semi_basement_r":null,"elderly_alone_r":0.1383,"bldg_age30_r":null,"shelter_min_walk":7,"pop":5798,"hh":2647,"elderly65_r":0.2465,"single_hh_r":0.4088,"source_level":"emd","flood_years":[],"landslide_hist_n":0},"geometry":{"type":"Polygon","coordinates":[[[127.00671,37.4374],[127.0062,37.44174],[127.002,37.44369],[126.99831,37.4413],[126.99883,37.43696],[127.00303,37.43501],[127.00671,37.4374]]]}},{"type":"Feature","properties":{"h3":"8830e1cb27fffff","emd_code":"4129056000","emd_name":"문원동","area_km2":0.5075,"edge":false,"slope_mean":7.39,"elev_mean":59.2,"flood_hist_n":0,"flood_depth_max_m":null,"flood_risk_100y":null,"semi_basement_r":null,"elderly_alone_r":0.114,"bldg_age30_r":null,"shelter_min_walk":8,"pop":6625,"hh":2737,"elderly65_r":0.2278,"single_hh_r":0.3109,"source_level":"emd","flood_years":[],"landslide_hist_n":0},"geometry":{"type":"Polygon","coordinates":[[[127.0146,37.43783],[127.01408,37.44217],[127.00988,37.44413],[127.0062,37.44174],[127.00671,37.4374],[127.01091,37.43544],[127.0146,37.43783]]]}},{"type":"Feature","properties":{"h3":"8830e1cb29fffff","emd_code":"4129055000","emd_name":"과천동","area_km2":0.5074,"edge":false,"slope_mean":8.36,"elev_mean":47.6,"flood_hist_n":0,"flood_depth_max_m":null,"flood_risk_100y":null,"semi_basement_r":null,"elderly_alone_r":0.1383,"bldg_age30_r":null,"shelter_min_walk":1,"pop":5798,"hh":2647,"elderly65_r":0.2465,"single_hh_r":0.4088,"source_level":"emd","flood_years":[],"landslide_hist_n":0},"geometry":{"type":"Polygon","coordinates":[[[127.00517,37.45042],[127.00466,37.45477],[127.00046,37.45672],[126.99677,37.45433],[126.99728,37.44999],[127.00148,37.44804],[127.00517,37.45042]]]}},{"type":"Feature","properties":{"h3":"8830e1cb2bfffff","emd_code":"4129055000","emd_name":"과천동","area_km2":0.5075,"edge":false,"slope_mean":4.91,"elev_mean":34.2,"flood_hist_n":0,"flood_depth_max_m":null,"flood_risk_100y":null,"semi_basement_r":null,"elderly_alone_r":0.1383,"bldg_age30_r":null,"shelter_min_walk":10,"pop":5798,"hh":2647,"elderly65_r":0.2465,"single_hh_r":0.4088,"source_level":"emd","flood_years":[],"landslide_hist_n":0},"geometry":{"type":"Polygon","coordinates":[[[127.01306,37.45086],[127.01254,37.4552],[127.00834,37.45716],[127.00466,37.45477],[127.00517,37.45042],[127.00937,37.44847],[127.01306,37.45086]]]}},{"type":"Feature","properties":{"h3":"8830e1cb2dfffff","emd_code":"4129055000","emd_name":"과천동","area_km2":0.5073,"edge":false,"slope_mean":3.75,"elev_mean":38.8,"flood_hist_n":0,"flood_depth_max_m":null,"flood_risk_100y":null,"semi_basement_r":null,"elderly_alone_r":0.1383,"bldg_age30_r":null,"shelter_min_walk":2,"pop":5798,"hh":2647,"elderly65_r":0.2465,"single_hh_r":0.4088,"source_level":"emd","flood_years":[],"landslide_hist_n":0},"geometry":{"type":"Polygon","coordinates":[[[127.002,37.44369],[127.00148,37.44804],[126.99728,37.44999],[126.9936,37.4476],[126.99411,37.44326],[126.99831,37.4413],[127.002,37.44369]]]}},{"type":"Feature","properties":{"h3":"8830e1cb31fffff","emd_code":"4129055000","emd_name":"과천동","area_km2":0.5077,"edge":false,"slope_mean":5.48,"elev_mean":36.9,"flood_hist_n":0,"flood_depth_max_m":null,"flood_risk_100y":null,"semi_basement_r":null,"elderly_alone_r":0.1383,"bldg_age30_r":null,"shelter_min_walk":27,"pop":5798,"hh":2647,"elderly65_r":0.2465,"single_hh_r":0.4088,"source_level":"emd","flood_years":[],"landslide_hist_n":0},"geometry":{"type":"Polygon","coordinates":[[[127.02884,37.45172],[127.02832,37.45607],[127.02412,37.45802],[127.02043,37.45563],[127.02095,37.45129],[127.02515,37.44934],[127.02884,37.45172]]]}},{"type":"Feature","properties":{"h3":"8830e1cb33fffff","emd_code":"4129055000","emd_name":"과천동","area_km2":0.5078,"edge":false,"slope_mean":12.34,"elev_mean":78.6,"flood_hist_n":0,"flood_depth_max_m":null,"flood_risk_100y":null,"semi_basement_r":null,"elderly_alone_r":0.1383,"bldg_age30_r":null,"shelter_min_walk":36,"pop":5798,"hh":2647,"elderly65_r":0.2465,"single_hh_r":0.4088,"source_level":"emd","flood_years":[],"landslide_hist_n":0},"geometry":{"type":"Polygon","coordinates":[[[127.03673,37.45216],[127.03622,37.4565],[127.03201,37.45846],[127.02832,37.45607],[127.02884,37.45172],[127.03304,37.44977],[127.03673,37.45216]]]}},{"type":"Feature","properties":{"h3":"8830e1cb35fffff","emd_code":"4129055000","emd_name":"과천동","area_km2":0.5077,"edge":false,"slope_mean":8.51,"elev_mean":57.4,"flood_hist_n":0,"flood_depth_max_m":null,"flood_risk_100y":null,"semi_basement_r":null,"elderly_alone_r":0.1383,"bldg_age30_r":null,"shelter_min_walk":18,"pop":5798,"hh":2647,"elderly65_r":0.2465,"single_hh_r":0.4088,"source_level":"emd","flood_years":[],"landslide_hist_n":0},"geometry":{"type":"Polygon","coordinates":[[[127.02566,37.44499],[127.02515,37.44934],[127.02095,37.45129],[127.01726,37.4489],[127.01777,37.44456],[127.02197,37.4426],[127.02566,37.44499]]]}},{"type":"Feature","properties":{"h3":"8830e1cb37fffff","emd_code":"4129055000","emd_name":"과천동","area_km2":0.5078,"edge":false,"slope_mean":14.14,"elev_mean":110.4,"flood_hist_n":0,"flood_depth_max_m":null,"flood_risk_100y":null,"semi_basement_r":null,"elderly_alone_r":0.1383,"bldg_age30_r":null,"shelter_min_walk":29,"pop":5798,"hh":2647,"elderly65_r":0.2465,"single_hh_r":0.4088,"source_level":"emd","flood_years":[],"landslide_hist_n":0},"geometry":{"type":"Polygon","coordinates":[[[127.03355,37.44543],[127.03304,37.44977],[127.02884,37.45172],[127.02515,37.44934],[127.02566,37.44499],[127.02986,37.44304],[127.03355,37.44543]]]}},{"type":"Feature","properties":{"h3":"8830e1cb39fffff","emd_code":"4129055000","emd_name":"과천동","area_km2":0.5077,"edge":true,"slope_mean":7.39,"elev_mean":35.9,"flood_hist_n":0,"flood_depth_max_m":null,"flood_risk_100y":null,"semi_basement_r":null,"elderly_alone_r":0.1383,"bldg_age30_r":null,"shelter_min_walk":28,"pop":5798,"hh":2647,"elderly65_r":0.2465,"single_hh_r":0.4088,"source_level":"emd","flood_years":[],"landslide_hist_n":0},"geometry":{"type":"Polygon","coordinates":[[[127.02412,37.45802],[127.02361,37.46237],[127.01941,37.46432],[127.01572,37.46193],[127.01623,37.45759],[127.02043,37.45563],[127.02412,37.45802]]]}},{"type":"Feature","properties":{"h3":"8830e1cb3bfffff","emd_code":"4129055000","emd_name":"과천동","area_km2":0.5078,"edge":false,"slope_mean":4.86,"elev_mean":27.6,"flood_hist_n":0,"flood_depth_max_m":null,"flood_risk_100y":null,"semi_basement_r":null,"elderly_alone_r":0.1383,"bldg_age30_r":null,"shelter_min_walk":37,"pop":5798,"hh":2647,"elderly65_r":0.2465,"single_hh_r":0.4088,"source_level":"emd","flood_years":[],"landslide_hist_n":0},"geometry":{"type":"Polygon","coordinates":[[[127.03201,37.45846],[127.0315,37.4628],[127.0273,37.46476],[127.02361,37.46237],[127.02412,37.45802],[127.02832,37.45607],[127.03201,37.45846]]]}},{"type":"Feature","properties":{"h3":"8830e1cb3dfffff","emd_code":"4129055000","emd_name":"과천동","area_km2":0.5076,"edge":false,"slope_mean":3.33,"elev_mean":31.2,"flood_hist_n":0,"flood_depth_max_m":null,"flood_risk_100y":null,"semi_basement_r":null,"elderly_alone_r":0.1383,"bldg_age30_r":null,"shelter_min_walk":19,"pop":5798,"hh":2647,"elderly65_r":0.2465,"single_hh_r":0.4088,"source_level":"emd","flood_years":[],"landslide_hist_n":0},"geometry":{"type":"Polygon","coordinates":[[[127.02095,37.45129],[127.02043,37.45563],[127.01623,37.45759],[127.01254,37.4552],[127.01306,37.45086],[127.01726,37.4489],[127.02095,37.45129]]]}},{"type":"Feature","properties":{"h3":"8830e1cb61fffff","emd_code":"4129055000","emd_name":"과천동","area_km2":0.5072,"edge":true,"slope_mean":15.08,"elev_mean":126.0,"flood_hist_n":0,"flood_depth_max_m":null,"flood_risk_100y":null,"semi_basement_r":null,"elderly_alone_r":0.1383,"bldg_age30_r":null,"shelter_min_walk":16,"pop":5798,"hh":2647,"elderly65_r":0.2465,"single_hh_r":0.4088,"source_level":"emd","flood_years":[],"landslide_hist_n":0},"geometry":{"type":"Polygon","coordinates":[[[126.99257,37.45629],[126.99206,37.46063],[126.98786,37.46258],[126.98417,37.46019],[126.98468,37.45585],[126.98888,37.4539],[126.99257,37.45629]]]}},{"type":"Feature","properties":{"h3":"8830e1cb63fffff","emd_code":"4129055000","emd_name":"과천동","area_km2":0.5073,"edge":false,"slope_mean":15.34,"elev_mean":105.1,"flood_hist_n":0,"flood_depth_max_m":null,"flood_risk_100y":null,"semi_basement_r":null,"elderly_alone_r":0.1383,"bldg_age30_r":null,"shelter_min_walk":13,"pop":5798,"hh":2647,"elderly65_r":0.2465,"single_hh_r":0.4088,"source_level":"emd","flood_years":[],"landslide_hist_n":0},"geometry":{"type":"Polygon","coordinates":[[[127.00046,37.45672],[126.99994,37.46106],[126.99574,37.46302],[126.99206,37.46063],[126.99257,37.45629],[126.99677,37.45433],[127.00046,37.45672]]]}},{"type":"Feature","properties":{"h3":"8830e1cb65fffff","emd_code":"4129055000","emd_name":"과천동","area_km2":0.5072,"edge":false,"slope_mean":19.34,"elev_mean":178.3,"flood_hist_n":0,"flood_depth_max_m":null,"flood_risk_100y":null,"semi_basement_r":null,"elderly_alone_r":0.1383,"bldg_age30_r":null,"shelter_min_walk":12,"pop":5798,"hh":2647,"elderly65_r":0.2465,"single_hh_r":0.4088,"source_level":"emd","flood_years":[],"landslide_hist_n":0},"geometry":{"type":"Polygon","coordinates":[[[126.9894,37.44955],[126.98888,37.4539],[126.98468,37.45585],[126.981,37.45346],[126.98152,37.44912],[126.98571,37.44717],[126.9894,37.44955]]]}},{"type":"Feature","properties":{"h3":"8830e1cb67fffff","emd_code":"4129055000","emd_name":"과천동","area_km2":0.5073,"edge":false,"slope_mean":10.38,"elev_mean":68.5,"flood_hist_n":0,"flood_depth_max_m":null,"flood_risk_100y":null,"semi_basement_r":null,"elderly_alone_r":0.1383,"bldg_age30_r":null,"shelter_min_walk":4,"pop":5798,"hh":2647,"elderly65_r":0.2465,"single_hh_r":0.4088,"source_level":"emd","flood_years":[],"landslide_hist_n":0},"geometry":{"type":"Polygon","coordinates":[[[126.99728,37.44999],[126.99677,37.45433],[126.99257,37.45629],[126.98888,37.4539],[126.9894,37.44955],[126.9936,37.4476],[126.99728,37.44999]]]}},{"type":"Feature","properties":{"h3":"8830e1cb6dfffff","emd_code":"4129055000","emd_name":"과천동","area_km2":0.5071,"edge":true,"slope_mean":21.45,"elev_mean":207.9,"flood_hist_n":0,"flood_depth_max_m":null,"flood_risk_100y":null,"semi_basement_r":null,"elderly_alone_r":0.1383,"bldg_age30_r":null,"shelter_min_walk":23,"pop":5798,"hh":2647,"elderly65_r":0.2465,"single_hh_r":0.4088,"source_level":"emd","flood_years":[],"landslide_hist_n":0},"geometry":{"type":"Polygon","coordinates":[[[126.98468,37.45585],[126.98417,37.46019],[126.97997,37.46214],[126.97629,37.45975],[126.9768,37.45541],[126.981,37.45346],[126.98468,37.45585]]]}}]}