{"type":"FeatureCollection","name":"grid_41310_h3r8","meta":{"sgg_code":"41310","h3_res":8,"n_cells":89,"dem":"Copernicus GLO-30 (bbox-mean)","crs":"EPSG:4326","jumin_basis":"2026-07","flood_src":"행안부 침수흔적도(전국, 재난안전데이터공유플랫폼)","landslide_src":"행안부 산사태 발생이력"},"features":[{"type":"Feature","properties":{"h3":"8830e1c081fffff","emd_code":"4131053000","emd_name":"인창동","area_km2":0.5096,"edge":false,"slope_mean":8.91,"elev_mean":55.3,"flood_hist_n":0,"flood_depth_max_m":null,"flood_risk_100y":null,"semi_basement_r":null,"elderly_alone_r":0.0859,"bldg_age30_r":null,"shelter_min_walk":2,"pop":26339,"hh":11139,"elderly65_r":0.1755,"single_hh_r":0.3123,"source_level":"emd","flood_years":[],"landslide_hist_n":0},"geometry":{"type":"Polygon","coordinates":[[[127.13381,37.60844],[127.13331,37.61279],[127.12909,37.61475],[127.12538,37.61236],[127.12589,37.60801],[127.13011,37.60605],[127.13381,37.60844]]]}},{"type":"Feature","properties":{"h3":"8830e1c083fffff","emd_code":"4131052000","emd_name":"동구동","area_km2":0.5097,"edge":false,"slope_mean":6.43,"elev_mean":31.2,"flood_hist_n":0,"flood_depth_max_m":null,"flood_risk_100y":null,"semi_basement_r":null,"elderly_alone_r":0.0895,"bldg_age30_r":null,"shelter_min_walk":2,"pop":34672,"hh":13669,"elderly65_r":0.1928,"single_hh_r":0.2415,"source_level":"emd","flood_years":[],"landslide_hist_n":0},"geometry":{"type":"Polygon","coordinates":[[[127.14174,37.60888],[127.14123,37.61323],[127.13702,37.61519],[127.13331,37.61279],[127.13381,37.60844],[127.13803,37.60649],[127.14174,37.60888]]]}},{"type":"Feature","properties":{"h3":"8830e1c085fffff","emd_code":"4131054100","emd_name":"교문1동","area_km2":0.5095,"edge":false,"slope_mean":13.44,"elev_mean":85.1,"flood_hist_n":0,"flood_depth_max_m":null,"flood_risk_100y":null,"semi_basement_r":null,"elderly_alone_r":0.1755,"bldg_age30_r":null,"shelter_min_walk":9,"pop":14624,"hh":8082,"elderly65_r":0.2586,"single_hh_r":0.5395,"source_level":"emd","flood_years":[],"landslide_hist_n":0},"geometry":{"type":"Polygon","coordinates":[[[127.13061,37.6017],[127.13011,37.60605],[127.12589,37.60801],[127.12218,37.60561],[127.12269,37.60126],[127.12691,37.59931],[127.13061,37.6017]]]}},{"type":"Feature","properties":{"h3":"8830e1c087fffff","emd_code":"4131053000","emd_name":"인창동","area_km2":0.5097,"edge":false,"slope_mean":6.13,"elev_mean":34.5,"flood_hist_n":0,"flood_depth_max_m":null,"flood_risk_100y":null,"semi_basement_r":null,"elderly_alone_r":0.0859,"bldg_age30_r":null,"shelter_min_walk":1,"pop":26339,"hh":11139,"elderly65_r":0.1755,"single_hh_r":0.3123,"source_level":"emd","flood_years":[],"landslide_hist_n":0},"geometry":{"type":"Polygon","coordinates":[[[127.13854,37.60214],[127.13803,37.60649],[127.13381,37.60844],[127.13011,37.60605],[127.13061,37.6017],[127.13483,37.59974],[127.13854,37.60214]]]}},{"type":"Feature","properties":{"h3":"8830e1c089fffff","emd_code":"4131052000","emd_name":"동구동","area_km2":0.5096,"edge":false,"slope_mean":12.58,"elev_mean":95.5,"flood_hist_n":0,"flood_depth_max_m":null,"flood_risk_100y":null,"semi_basement_r":null,"elderly_alone_r":0.0895,"bldg_age30_r":null,"shelter_min_walk":14,"pop":34672,"hh":13669,"elderly65_r":0.1928,"single_hh_r":0.2415,"source_level":"emd","flood_years":[],"landslide_hist_n":0},"geometry":{"type":"Polygon","coordinates":[[[127.12909,37.61475],[127.12858,37.6191],[127.12437,37.62106],[127.12066,37.61866],[127.12117,37.61431],[127.12538,37.61236],[127.12909,37.61475]]]}},{"type":"Feature","properties":{"h3":"8830e1c08bfffff","emd_code":"4131052000","emd_name":"동구동","area_km2":0.5097,"edge":false,"slope_mean":9.34,"elev_mean":50.2,"flood_hist_n":0,"flood_depth_max_m":null,"flood_risk_100y":null,"semi_basement_r":null,"elderly_alone_r":0.0895,"bldg_age30_r":null,"shelter_min_walk":10,"pop":34672,"hh":13669,"elderly65_r":0.1928,"single_hh_r":0.2415,"source_level":"emd","flood_years":[],"landslide_hist_n":0},"geometry":{"type":"Polygon","coordinates":[[[127.13702,37.61519],[127.13651,37.61954],[127.13229,37.62149],[127.12858,37.6191],[127.12909,37.61475],[127.13331,37.61279],[127.13702,37.61519]]]}},{"type":"Feature","properties":{"h3":"8830e1c08dfffff","emd_code":"4131053000","emd_name":"인창동","area_km2":0.5095,"edge":false,"slope_mean":13.34,"elev_mean":95.8,"flood_hist_n":0,"flood_depth_max_m":null,"flood_risk_100y":null,"semi_basement_r":null,"elderly_alone_r":0.0859,"bldg_age30_r":null,"shelter_min_walk":13,"pop":26339,"hh":11139,"elderly65_r":0.1755,"single_hh_r":0.3123,"source_level":"emd","flood_years":[],"landslide_hist_n":0},"geometry":{"type":"Polygon","coordinates":[[[127.12589,37.60801],[127.12538,37.61236],[127.12117,37.61431],[127.11746,37.61192],[127.11797,37.60757],[127.12218,37.60561],[127.12589,37.60801]]]}},{"type":"Feature","properties":{"h3":"8830e1c091fffff","emd_code":"4131052000","emd_name":"동구동","area_km2":0.5099,"edge":true,"slope_mean":2.05,"elev_mean":18.9,"flood_hist_n":1,"flood_depth_max_m":1.0,"flood_risk_100y":null,"semi_basement_r":null,"elderly_alone_r":0.0895,"bldg_age30_r":null,"shelter_min_walk":5,"pop":34672,"hh":13669,"elderly65_r":0.1928,"single_hh_r":0.2415,"source_level":"emd","flood_years":[2006],"landslide_hist_n":0},"geometry":{"type":"Polygon","coordinates":[[[127.15287,37.61606],[127.15237,37.62042],[127.14815,37.62237],[127.14444,37.61998],[127.14494,37.61563],[127.14916,37.61367],[127.15287,37.61606]]]}},{"type":"Feature","properties":{"h3":"8830e1c095fffff","emd_code":"4131052000","emd_name":"동구동","area_km2":0.5098,"edge":false,"slope_mean":4.86,"elev_mean":21.4,"flood_hist_n":0,"flood_depth_max_m":null,"flood_risk_100y":null,"semi_basement_r":null,"elderly_alone_r":0.0895,"bldg_age30_r":null,"shelter_min_walk":5,"pop":34672,"hh":13669,"elderly65_r":0.1928,"single_hh_r":0.2415,"source_level":"emd","flood_years":[],"landslide_hist_n":0},"geometry":{"type":"Polygon","coordinates":[[[127.14967,37.60932],[127.14916,37.61367],[127.14494,37.61563],[127.14123,37.61323],[127.14174,37.60888],[127.14596,37.60693],[127.14967,37.60932]]]}},{"type":"Feature","properties":{"h3":"8830e1c099fffff","emd_code":"4131052000","emd_name":"동구동","area_km2":0.5098,"edge":true,"slope_mean":2.8,"elev_mean":22.1,"flood_hist_n":1,"flood_depth_max_m":1.0,"flood_risk_100y":null,"semi_basement_r":null,"elderly_alone_r":0.0895,"bldg_age30_r":null,"shelter_min_walk":6,"pop":34672,"hh":13669,"elderly65_r":0.1928,"single_hh_r":0.2415,"source_level":"emd","flood_years":[2006],"landslide_hist_n":0},"geometry":{"type":"Polygon","coordinates":[[[127.14815,37.62237],[127.14764,37.62672],[127.14342,37.62868],[127.13971,37.62628],[127.14022,37.62193],[127.14444,37.61998],[127.14815,37.62237]]]}},{"type":"Feature","properties":{"h3":"8830e1c09dfffff","emd_code":"4131052000","emd_name":"동구동","area_km2":0.5098,"edge":false,"slope_mean":5.75,"elev_mean":29.3,"flood_hist_n":0,"flood_depth_max_m":null,"flood_risk_100y":null,"semi_basement_r":null,"elderly_alone_r":0.0895,"bldg_age30_r":null,"shelter_min_walk":1,"pop":34672,"hh":13669,"elderly65_r":0.1928,"single_hh_r":0.2415,"source_level":"emd","flood_years":[],"landslide_hist_n":0},"geometry":{"type":"Polygon","coordinates":[[[127.14494,37.61563],[127.14444,37.61998],[127.14022,37.62193],[127.13651,37.61954],[127.13702,37.61519],[127.14123,37.61323],[127.14494,37.61563]]]}},{"type":"Feature","properties":{"h3":"8830e1c0a1fffff","emd_code":"4131054100","emd_name":"교문1동","area_km2":0.5095,"edge":false,"slope_mean":11.29,"elev_mean":60.3,"flood_hist_n":0,"flood_depth_max_m":null,"flood_risk_100y":null,"semi_basement_r":null,"elderly_alone_r":0.1755,"bldg_age30_r":null,"shelter_min_walk":7,"pop":14624,"hh":8082,"elderly65_r":0.2586,"single_hh_r":0.5395,"source_level":"emd","flood_years":[],"landslide_hist_n":0},"geometry":{"type":"Polygon","coordinates":[[[127.13214,37.58865],[127.13163,37.593],[127.12741,37.59496],[127.12371,37.59256],[127.12422,37.58821],[127.12843,37.58626],[127.13214,37.58865]]]}},{"type":"Feature","properties":{"h3":"8830e1c0a3fffff","emd_code":"4131054200","emd_name":"교문2동","area_km2":0.5096,"edge":false,"slope_mean":4.34,"elev_mean":24.9,"flood_hist_n":0,"flood_depth_max_m":null,"flood_risk_100y":null,"semi_basement_r":null,"elderly_alone_r":0.0884,"bldg_age30_r":null,"shelter_min_walk":2,"pop":20428,"hh":7909,"elderly65_r":0.1972,"single_hh_r":0.2405,"source_level":"emd","flood_years":[],"landslide_hist_n":0},"geometry":{"type":"Polygon","coordinates":[[[127.14006,37.58909],[127.13955,37.59344],[127.13534,37.59539],[127.13163,37.593],[127.13214,37.58865],[127.13635,37.58669],[127.14006,37.58909]]]}},{"type":"Feature","properties":{"h3":"8830e1c0a5fffff","emd_code":"4131054100","emd_name":"교문1동","area_km2":0.5095,"edge":false,"slope_mean":13.94,"elev_mean":64.6,"flood_hist_n":0,"flood_depth_max_m":null,"flood_risk_100y":null,"semi_basement_r":null,"elderly_alone_r":0.1755,"bldg_age30_r":null,"shelter_min_walk":3,"pop":14624,"hh":8082,"elderly65_r":0.2586,"single_hh_r":0.5395,"source_level":"emd","flood_years":[],"landslide_hist_n":0},"geometry":{"type":"Polygon","coordinates":[[[127.12894,37.58191],[127.12843,37.58626],[127.12422,37.58821],[127.12051,37.58582],[127.12102,37.58147],[127.12523,37.57952],[127.12894,37.58191]]]}},{"type":"Feature","properties":{"h3":"8830e1c0a7fffff","emd_code":"4131054200","emd_name":"교문2동","area_km2":0.5096,"edge":false,"slope_mean":3.82,"elev_mean":21.3,"flood_hist_n":0,"flood_depth_max_m":null,"flood_risk_100y":null,"semi_basement_r":null,"elderly_alone_r":0.0884,"bldg_age30_r":null,"shelter_min_walk":4,"pop":20428,"hh":7909,"elderly65_r":0.1972,"single_hh_r":0.2405,"source_level":"emd","flood_years":[],"landslide_hist_n":0},"geometry":{"type":"Polygon","coordinates":[[[127.13686,37.58234],[127.13635,37.58669],[127.13214,37.58865],[127.12843,37.58626],[127.12894,37.58191],[127.13315,37.57995],[127.13686,37.58234]]]}},{"type":"Feature","properties":{"h3":"8830e1c0a9fffff","emd_code":"4131054100","emd_name":"교문1동","area_km2":0.5095,"edge":false,"slope_mean":13.83,"elev_mean":114.4,"flood_hist_n":0,"flood_depth_max_m":null,"flood_risk_100y":null,"semi_basement_r":null,"elderly_alone_r":0.1755,"bldg_age30_r":null,"shelter_min_walk":7,"pop":14624,"hh":8082,"elderly65_r":0.2586,"single_hh_r":0.5395,"source_level":"emd","flood_years":[],"landslide_hist_n":0},"geometry":{"type":"Polygon","coordinates":[[[127.12741,37.59496],[127.12691,37.59931],[127.12269,37.60126],[127.11898,37.59887],[127.11949,37.59452],[127.12371,37.59256],[127.12741,37.59496]]]}},{"type":"Feature","properties":{"h3":"8830e1c0abfffff","emd_code":"4131054100","emd_name":"교문1동","area_km2":0.5096,"edge":false,"slope_mean":7.33,"elev_mean":45.3,"flood_hist_n":0,"flood_depth_max_m":null,"flood_risk_100y":null,"semi_basement_r":null,"elderly_alone_r":0.1755,"bldg_age30_r":null,"shelter_min_walk":3,"pop":14624,"hh":8082,"elderly65_r":0.2586,"single_hh_r":0.5395,"source_level":"emd","flood_years":[],"landslide_hist_n":0},"geometry":{"type":"Polygon","coordinates":[[[127.13534,37.59539],[127.13483,37.59974],[127.13061,37.6017],[127.12691,37.59931],[127.12741,37.59496],[127.13163,37.593],[127.13534,37.59539]]]}},{"type":"Feature","properties":{"h3":"8830e1c0adfffff","emd_code":"4131054100","emd_name":"교문1동","area_km2":0.5094,"edge":false,"slope_mean":15.15,"elev_mean":136.3,"flood_hist_n":0,"flood_depth_max_m":null,"flood_risk_100y":null,"semi_basement_r":null,"elderly_alone_r":0.1755,"bldg_age30_r":null,"shelter_min_walk":15,"pop":14624,"hh":8082,"elderly65_r":0.2586,"single_hh_r":0.5395,"source_level":"emd","flood_years":[],"landslide_hist_n":0},"geometry":{"type":"Polygon","coordinates":[[[127.12422,37.58821],[127.12371,37.59256],[127.11949,37.59452],[127.11579,37.59213],[127.11629,37.58778],[127.12051,37.58582],[127.12422,37.58821]]]}},{"type":"Feature","properties":{"h3":"8830e1c0b1fffff","emd_code":"4131057000","emd_name":"수택1동","area_km2":0.5098,"edge":false,"slope_mean":5.12,"elev_mean":24.1,"flood_hist_n":0,"flood_depth_max_m":null,"flood_risk_100y":null,"semi_basement_r":null,"elderly_alone_r":0.1432,"bldg_age30_r":null,"shelter_min_walk":3,"pop":16866,"hh":8610,"elderly65_r":0.212,"single_hh_r":0.4865,"source_level":"emd","flood_years":[],"landslide_hist_n":0},"geometry":{"type":"Polygon","coordinates":[[[127.15119,37.59627],[127.15068,37.60062],[127.14646,37.60257],[127.14276,37.60018],[127.14326,37.59583],[127.14748,37.59387],[127.15119,37.59627]]]}},{"type":"Feature","properties":{"h3":"8830e1c0b3fffff","emd_code":"4131057000","emd_name":"수택1동","area_km2":0.5099,"edge":true,"slope_mean":5.29,"elev_mean":19.9,"flood_hist_n":0,"flood_depth_max_m":null,"flood_risk_100y":null,"semi_basement_r":null,"elderly_alone_r":0.1432,"bldg_age30_r":null,"shelter_min_walk":4,"pop":16866,"hh":8610,"elderly65_r":0.212,"single_hh_r":0.4865,"source_level":"emd","flood_years":[],"landslide_hist_n":0},"geometry":{"type":"Polygon","coordinates":[[[127.15911,37.5967],[127.15861,37.60105],[127.15439,37.60301],[127.15068,37.60062],[127.15119,37.59627],[127.1554,37.59431],[127.15911,37.5967]]]}},{"type":"Feature","properties":{"h3":"8830e1c0b5fffff","emd_code":"4131059000","emd_name":"수택3동","area_km2":0.5098,"edge":false,"slope_mean":4.5,"elev_mean":22.9,"flood_hist_n":0,"flood_depth_max_m":null,"flood_risk_100y":null,"semi_basement_r":null,"elderly_alone_r":0.109,"bldg_age30_r":null,"shelter_min_walk":5,"pop":20763,"hh":9556,"elderly65_r":0.1956,"single_hh_r":0.397,"source_level":"emd","flood_years":[],"landslide_hist_n":0},"geometry":{"type":"Polygon","coordinates":[[[127.14798,37.58952],[127.14748,37.59387],[127.14326,37.59583],[127.13955,37.59344],[127.14006,37.58909],[127.14428,37.58713],[127.14798,37.58952]]]}},{"type":"Feature","properties":{"h3":"8830e1c0b7fffff","emd_code":"4131059000","emd_name":"수택3동","area_km2":0.5099,"edge":false,"slope_mean":3.06,"elev_mean":18.7,"flood_hist_n":0,"flood_depth_max_m":null,"flood_risk_100y":null,"semi_basement_r":null,"elderly_alone_r":0.109,"bldg_age30_r":null,"shelter_min_walk":3,"pop":20763,"hh":9556,"elderly65_r":0.1956,"single_hh_r":0.397,"source_level":"emd","flood_years":[],"landslide_hist_n":0},"geometry":{"type":"Polygon","coordinates":[[[127.15591,37.58996],[127.1554,37.59431],[127.15119,37.59627],[127.14748,37.59387],[127.14798,37.58952],[127.1522,37.58757],[127.15591,37.58996]]]}},{"type":"Feature","properties":{"h3":"8830e1c0b9fffff","emd_code":"4131052000","emd_name":"동구동","area_km2":0.5098,"edge":false,"slope_mean":5.34,"elev_mean":23.4,"flood_hist_n":0,"flood_depth_max_m":null,"flood_risk_100y":null,"semi_basement_r":null,"elderly_alone_r":0.0895,"bldg_age30_r":null,"shelter_min_walk":4,"pop":34672,"hh":13669,"elderly65_r":0.1928,"single_hh_r":0.2415,"source_level":"emd","flood_years":[],"landslide_hist_n":0},"geometry":{"type":"Polygon","coordinates":[[[127.14646,37.60257],[127.14596,37.60693],[127.14174,37.60888],[127.13803,37.60649],[127.13854,37.60214],[127.14276,37.60018],[127.14646,37.60257]]]}},{"type":"Feature","properties":{"h3":"8830e1c0bbfffff","emd_code":"4131052000","emd_name":"동구동","area_km2":0.5099,"edge":true,"slope_mean":5.6,"elev_mean":21.4,"flood_hist_n":0,"flood_depth_max_m":null,"flood_risk_100y":null,"semi_basement_r":null,"elderly_alone_r":0.0895,"bldg_age30_r":null,"shelter_min_walk":5,"pop":34672,"hh":13669,"elderly65_r":0.1928,"single_hh_r":0.2415,"source_level":"emd","flood_years":[],"landslide_hist_n":0},"geometry":{"type":"Polygon","coordinates":[[[127.15439,37.60301],[127.15389,37.60736],[127.14967,37.60932],[127.14596,37.60693],[127.14646,37.60257],[127.15068,37.60062],[127.15439,37.60301]]]}},{"type":"Feature","properties":{"h3":"8830e1c0bdfffff","emd_code":"4131057000","emd_name":"수택1동","area_km2":0.5097,"edge":false,"slope_mean":4.87,"elev_mean":29.1,"flood_hist_n":0,"flood_depth_max_m":null,"flood_risk_100y":null,"semi_basement_r":null,"elderly_alone_r":0.1432,"bldg_age30_r":null,"shelter_min_walk":4,"pop":16866,"hh":8610,"elderly65_r":0.212,"single_hh_r":0.4865,"source_level":"emd","flood_years":[],"landslide_hist_n":0},"geometry":{"type":"Polygon","coordinates":[[[127.14326,37.59583],[127.14276,37.60018],[127.13854,37.60214],[127.13483,37.59974],[127.13534,37.59539],[127.13955,37.59344],[127.14326,37.59583]]]}},{"type":"Feature","properties":{"h3":"8830e1c0c1fffff","emd_code":"4131051000","emd_name":"갈매동","area_km2":0.5094,"edge":false,"slope_mean":11.72,"elev_mean":79.4,"flood_hist_n":0,"flood_depth_max_m":null,"flood_risk_100y":null,"semi_basement_r":null,"elderly_alone_r":0.0862,"bldg_age30_r":null,"shelter_min_walk":5,"pop":30404,"hh":12577,"elderly65_r":0.1572,"single_hh_r":0.3023,"source_level":"emd","flood_years":[],"landslide_hist_n":0},"geometry":{"type":"Polygon","coordinates":[[[127.11644,37.62062],[127.11593,37.62497],[127.11172,37.62692],[127.10801,37.62452],[127.10852,37.62018],[127.11273,37.61822],[127.11644,37.62062]]]}},{"type":"Feature","properties":{"h3":"8830e1c0c3fffff","emd_code":"4131051000","emd_name":"갈매동","area_km2":0.5095,"edge":false,"slope_mean":12.42,"elev_mean":97.7,"flood_hist_n":0,"flood_depth_max_m":null,"flood_risk_100y":null,"semi_basement_r":null,"elderly_alone_r":0.0862,"bldg_age30_r":null,"shelter_min_walk":12,"pop":30404,"hh":12577,"elderly65_r":0.1572,"single_hh_r":0.3023,"source_level":"emd","flood_years":[],"landslide_hist_n":0},"geometry":{"type":"Polygon","coordinates":[[[127.12437,37.62106],[127.12386,37.62541],[127.11964,37.62736],[127.11593,37.62497],[127.11644,37.62062],[127.12066,37.61866],[127.12437,37.62106]]]}},{"type":"Feature","properties":{"h3":"8830e1c0c7fffff","emd_code":"4131053000","emd_name":"인창동","area_km2":0.5095,"edge":true,"slope_mean":15.22,"elev_mean":116.2,"flood_hist_n":0,"flood_depth_max_m":null,"flood_risk_100y":null,"semi_basement_r":null,"elderly_alone_r":0.0859,"bldg_age30_r":null,"shelter_min_walk":17,"pop":26339,"hh":11139,"elderly65_r":0.1755,"single_hh_r":0.3123,"source_level":"emd","flood_years":[],"landslide_hist_n":0},"geometry":{"type":"Polygon","coordinates":[[[127.12117,37.61431],[127.12066,37.61866],[127.11644,37.62062],[127.11273,37.61822],[127.11324,37.61387],[127.11746,37.61192],[127.12117,37.61431]]]}},{"type":"Feature","properties":{"h3":"8830e1c0c9fffff","emd_code":"4131051000","emd_name":"갈매동","area_km2":0.5094,"edge":true,"slope_mean":5.95,"elev_mean":49.5,"flood_hist_n":0,"flood_depth_max_m":null,"flood_risk_100y":null,"semi_basement_r":null,"elderly_alone_r":0.0862,"bldg_age30_r":null,"shelter_min_walk":8,"pop":30404,"hh":12577,"elderly65_r":0.1572,"single_hh_r":0.3023,"source_level":"emd","flood_years":[],"landslide_hist_n":0},"geometry":{"type":"Polygon","coordinates":[[[127.11172,37.62692],[127.11121,37.63127],[127.10699,37.63322],[127.10328,37.63083],[127.10379,37.62648],[127.10801,37.62452],[127.11172,37.62692]]]}},{"type":"Feature","properties":{"h3":"8830e1c0cbfffff","emd_code":"4131051000","emd_name":"갈매동","area_km2":0.5095,"edge":false,"slope_mean":4.03,"elev_mean":44.8,"flood_hist_n":0,"flood_depth_max_m":null,"flood_risk_100y":null,"semi_basement_r":null,"elderly_alone_r":0.0862,"bldg_age30_r":null,"shelter_min_walk":5,"pop":30404,"hh":12577,"elderly65_r":0.1572,"single_hh_r":0.3023,"source_level":"emd","flood_years":[],"landslide_hist_n":0},"geometry":{"type":"Polygon","coordinates":[[[127.11964,37.62736],[127.11913,37.63171],[127.11491,37.63366],[127.11121,37.63127],[127.11172,37.62692],[127.11593,37.62497],[127.11964,37.62736]]]}},{"type":"Feature","properties":{"h3":"8830e1c0cdfffff","emd_code":"4131051000","emd_name":"갈매동","area_km2":0.5093,"edge":true,"slope_mean":8.66,"elev_mean":58.5,"flood_hist_n":0,"flood_depth_max_m":null,"flood_risk_100y":null,"semi_basement_r":null,"elderly_alone_r":0.0862,"bldg_age30_r":null,"shelter_min_walk":11,"pop":30404,"hh":12577,"elderly65_r":0.1572,"single_hh_r":0.3023,"source_level":"emd","flood_years":[],"landslide_hist_n":0},"geometry":{"type":"Polygon","coordinates":[[[127.10852,37.62018],[127.10801,37.62452],[127.10379,37.62648],[127.10009,37.62408],[127.1006,37.61973],[127.10481,37.61778],[127.10852,37.62018]]]}},{"type":"Feature","properties":{"h3":"8830e1c0d1fffff","emd_code":"4131052000","emd_name":"동구동","area_km2":0.5097,"edge":false,"slope_mean":12.24,"elev_mean":79.5,"flood_hist_n":0,"flood_depth_max_m":null,"flood_risk_100y":null,"semi_basement_r":null,"elderly_alone_r":0.0895,"bldg_age30_r":null,"shelter_min_walk":12,"pop":34672,"hh":13669,"elderly65_r":0.1928,"single_hh_r":0.2415,"source_level":"emd","flood_years":[],"landslide_hist_n":0},"geometry":{"type":"Polygon","coordinates":[[[127.13549,37.62824],[127.13499,37.63259],[127.13077,37.63455],[127.12706,37.63215],[127.12757,37.6278],[127.13178,37.62584],[127.13549,37.62824]]]}},{"type":"Feature","properties":{"h3":"8830e1c0d3fffff","emd_code":"4131052000","emd_name":"동구동","area_km2":0.5098,"edge":false,"slope_mean":6.27,"elev_mean":39.6,"flood_hist_n":0,"flood_depth_max_m":null,"flood_risk_100y":null,"semi_basement_r":null,"elderly_alone_r":0.0895,"bldg_age30_r":null,"shelter_min_walk":4,"pop":34672,"hh":13669,"elderly65_r":0.1928,"single_hh_r":0.2415,"source_level":"emd","flood_years":[],"landslide_hist_n":0},"geometry":{"type":"Polygon","coordinates":[[[127.14342,37.62868],[127.14291,37.63303],[127.1387,37.63498],[127.13499,37.63259],[127.13549,37.62824],[127.13971,37.62628],[127.14342,37.62868]]]}},{"type":"Feature","properties":{"h3":"8830e1c0d5fffff","emd_code":"4131052000","emd_name":"동구동","area_km2":0.5096,"edge":false,"slope_mean":10.9,"elev_mean":77.1,"flood_hist_n":0,"flood_depth_max_m":null,"flood_risk_100y":null,"semi_basement_r":null,"elderly_alone_r":0.0895,"bldg_age30_r":null,"shelter_min_walk":17,"pop":34672,"hh":13669,"elderly65_r":0.1928,"single_hh_r":0.2415,"source_level":"emd","flood_years":[],"landslide_hist_n":0},"geometry":{"type":"Polygon","coordinates":[[[127.13229,37.62149],[127.13178,37.62584],[127.12757,37.6278],[127.12386,37.62541],[127.12437,37.62106],[127.12858,37.6191],[127.13229,37.62149]]]}},{"type":"Feature","properties":{"h3":"8830e1c0d7fffff","emd_code":"4131052000","emd_name":"동구동","area_km2":0.5097,"edge":false,"slope_mean":12.34,"elev_mean":65.0,"flood_hist_n":0,"flood_depth_max_m":null,"flood_risk_100y":null,"semi_basement_r":null,"elderly_alone_r":0.0895,"bldg_age30_r":null,"shelter_min_walk":11,"pop":34672,"hh":13669,"elderly65_r":0.1928,"single_hh_r":0.2415,"source_level":"emd","flood_years":[],"landslide_hist_n":0},"geometry":{"type":"Polygon","coordinates":[[[127.14022,37.62193],[127.13971,37.62628],[127.13549,37.62824],[127.13178,37.62584],[127.13229,37.62149],[127.13651,37.61954],[127.14022,37.62193]]]}},{"type":"Feature","properties":{"h3":"8830e1c0d9fffff","emd_code":"4131051000","emd_name":"갈매동","area_km2":0.5096,"edge":false,"slope_mean":9.6,"elev_mean":62.0,"flood_hist_n":0,"flood_depth_max_m":null,"flood_risk_100y":null,"semi_basement_r":null,"elderly_alone_r":0.0862,"bldg_age30_r":null,"shelter_min_walk":9,"pop":30404,"hh":12577,"elderly65_r":0.1572,"single_hh_r":0.3023,"source_level":"emd","flood_years":[],"landslide_hist_n":0},"geometry":{"type":"Polygon","coordinates":[[[127.13077,37.63455],[127.13026,37.6389],[127.12604,37.64085],[127.12233,37.63845],[127.12284,37.6341],[127.12706,37.63215],[127.13077,37.63455]]]}},{"type":"Feature","properties":{"h3":"8830e1c0dbfffff","emd_code":"4131052000","emd_name":"동구동","area_km2":0.5098,"edge":false,"slope_mean":8.16,"elev_mean":51.4,"flood_hist_n":0,"flood_depth_max_m":null,"flood_risk_100y":null,"semi_basement_r":null,"elderly_alone_r":0.0895,"bldg_age30_r":null,"shelter_min_walk":9,"pop":34672,"hh":13669,"elderly65_r":0.1928,"single_hh_r":0.2415,"source_level":"emd","flood_years":[],"landslide_hist_n":0},"geometry":{"type":"Polygon","coordinates":[[[127.1387,37.63498],[127.13819,37.63934],[127.13397,37.64129],[127.13026,37.6389],[127.13077,37.63455],[127.13499,37.63259],[127.1387,37.63498]]]}},{"type":"Feature","properties":{"h3":"8830e1c0ddfffff","emd_code":"4131051000","emd_name":"갈매동","area_km2":0.5096,"edge":false,"slope_mean":9.8,"elev_mean":64.9,"flood_hist_n":0,"flood_depth_max_m":null,"flood_risk_100y":null,"semi_basement_r":null,"elderly_alone_r":0.0862,"bldg_age30_r":null,"shelter_min_walk":5,"pop":30404,"hh":12577,"elderly65_r":0.1572,"single_hh_r":0.3023,"source_level":"emd","flood_years":[],"landslide_hist_n":0},"geometry":{"type":"Polygon","coordinates":[[[127.12757,37.6278],[127.12706,37.63215],[127.12284,37.6341],[127.11913,37.63171],[127.11964,37.62736],[127.12386,37.62541],[127.12757,37.6278]]]}},{"type":"Feature","properties":{"h3":"8830e1c0e3fffff","emd_code":"4131054100","emd_name":"교문1동","area_km2":0.5094,"edge":false,"slope_mean":12.76,"elev_mean":104.5,"flood_hist_n":0,"flood_depth_max_m":null,"flood_risk_100y":null,"semi_basement_r":null,"elderly_alone_r":0.1755,"bldg_age30_r":null,"shelter_min_walk":15,"pop":14624,"hh":8082,"elderly65_r":0.2586,"single_hh_r":0.5395,"source_level":"emd","flood_years":[],"landslide_hist_n":0},"geometry":{"type":"Polygon","coordinates":[[[127.12269,37.60126],[127.12218,37.60561],[127.11797,37.60757],[127.11426,37.60517],[127.11477,37.60082],[127.11898,37.59887],[127.12269,37.60126]]]}},{"type":"Feature","properties":{"h3":"8830e1c0e7fffff","emd_code":"4131054100","emd_name":"교문1동","area_km2":0.5094,"edge":true,"slope_mean":15.13,"elev_mean":162.8,"flood_hist_n":0,"flood_depth_max_m":null,"flood_risk_100y":null,"semi_basement_r":null,"elderly_alone_r":0.1755,"bldg_age30_r":null,"shelter_min_walk":17,"pop":14624,"hh":8082,"elderly65_r":0.2586,"single_hh_r":0.5395,"source_level":"emd","flood_years":[],"landslide_hist_n":0},"geometry":{"type":"Polygon","coordinates":[[[127.11949,37.59452],[127.11898,37.59887],[127.11477,37.60082],[127.11106,37.59843],[127.11157,37.59408],[127.11579,37.59213],[127.11949,37.59452]]]}},{"type":"Feature","properties":{"h3":"8830e1c0ebfffff","emd_code":"4131054100","emd_name":"교문1동","area_km2":0.5094,"edge":true,"slope_mean":10.31,"elev_mean":66.9,"flood_hist_n":0,"flood_depth_max_m":null,"flood_risk_100y":null,"semi_basement_r":null,"elderly_alone_r":0.1755,"bldg_age30_r":null,"shelter_min_walk":23,"pop":14624,"hh":8082,"elderly65_r":0.2586,"single_hh_r":0.5395,"source_level":"emd","flood_years":[],"landslide_hist_n":0},"geometry":{"type":"Polygon","coordinates":[[[127.11797,37.60757],[127.11746,37.61192],[127.11324,37.61387],[127.10954,37.61148],[127.11004,37.60713],[127.11426,37.60517],[127.11797,37.60757]]]}},{"type":"Feature","properties":{"h3":"8830e1c181fffff","emd_code":"4131054100","emd_name":"교문1동","area_km2":0.5092,"edge":false,"slope_mean":19.47,"elev_mean":144.6,"flood_hist_n":0,"flood_depth_max_m":null,"flood_risk_100y":null,"semi_basement_r":null,"elderly_alone_r":0.1755,"bldg_age30_r":null,"shelter_min_walk":39,"pop":14624,"hh":8082,"elderly65_r":0.2586,"single_hh_r":0.5395,"source_level":"emd","flood_years":[],"landslide_hist_n":0},"geometry":{"type":"Polygon","coordinates":[[[127.11143,37.56125],[127.11092,37.5656],[127.10671,37.56755],[127.103,37.56516],[127.10351,37.56081],[127.10772,37.55885],[127.11143,37.56125]]]}},{"type":"Feature","properties":{"h3":"8830e1c183fffff","emd_code":"4131054100","emd_name":"교문1동","area_km2":0.5093,"edge":false,"slope_mean":10.06,"elev_mean":34.1,"flood_hist_n":0,"flood_depth_max_m":null,"flood_risk_100y":null,"semi_basement_r":null,"elderly_alone_r":0.1755,"bldg_age30_r":null,"shelter_min_walk":34,"pop":14624,"hh":8082,"elderly65_r":0.2586,"single_hh_r":0.5395,"source_level":"emd","flood_years":[],"landslide_hist_n":0},"geometry":{"type":"Polygon","coordinates":[[[127.11934,37.56168],[127.11884,37.56603],[127.11462,37.56799],[127.11092,37.5656],[127.11143,37.56125],[127.11564,37.55929],[127.11934,37.56168]]]}},{"type":"Feature","properties":{"h3":"8830e1c185fffff","emd_code":"4131054100","emd_name":"교문1동","area_km2":0.5091,"edge":true,"slope_mean":17.11,"elev_mean":146.4,"flood_hist_n":0,"flood_depth_max_m":null,"flood_risk_100y":null,"semi_basement_r":null,"elderly_alone_r":0.1755,"bldg_age30_r":null,"shelter_min_walk":51,"pop":14624,"hh":8082,"elderly65_r":0.2586,"single_hh_r":0.5395,"source_level":"emd","flood_years":[],"landslide_hist_n":0},"geometry":{"type":"Polygon","coordinates":[[[127.10823,37.55451],[127.10772,37.55885],[127.10351,37.56081],[127.09981,37.55842],[127.10032,37.55407],[127.10453,37.55211],[127.10823,37.55451]]]}},{"type":"Feature","properties":{"h3":"8830e1c187fffff","emd_code":"4131054100","emd_name":"교문1동","area_km2":0.5092,"edge":true,"slope_mean":13.72,"elev_mean":56.5,"flood_hist_n":0,"flood_depth_max_m":null,"flood_risk_100y":null,"semi_basement_r":null,"elderly_alone_r":0.1755,"bldg_age30_r":null,"shelter_min_walk":46,"pop":14624,"hh":8082,"elderly65_r":0.2586,"single_hh_r":0.5395,"source_level":"emd","flood_years":[],"landslide_hist_n":0},"geometry":{"type":"Polygon","coordinates":[[[127.11615,37.55494],[127.11564,37.55929],[127.11143,37.56125],[127.10772,37.55885],[127.10823,37.55451],[127.11244,37.55255],[127.11615,37.55494]]]}},{"type":"Feature","properties":{"h3":"8830e1c189fffff","emd_code":"4131054100","emd_name":"교문1동","area_km2":0.5091,"edge":true,"slope_mean":21.56,"elev_mean":229.4,"flood_hist_n":0,"flood_depth_max_m":null,"flood_risk_100y":null,"semi_basement_r":null,"elderly_alone_r":0.1755,"bldg_age30_r":null,"shelter_min_walk":36,"pop":14624,"hh":8082,"elderly65_r":0.2586,"single_hh_r":0.5395,"source_level":"emd","flood_years":[],"landslide_hist_n":0},"geometry":{"type":"Polygon","coordinates":[[[127.10671,37.56755],[127.1062,37.5719],[127.10198,37.57386],[127.09828,37.57146],[127.09879,37.56711],[127.103,37.56516],[127.10671,37.56755]]]}},{"type":"Feature","properties":{"h3":"8830e1c18bfffff","emd_code":"4131054100","emd_name":"교문1동","area_km2":0.5092,"edge":false,"slope_mean":18.01,"elev_mean":130.2,"flood_hist_n":0,"flood_depth_max_m":null,"flood_risk_100y":null,"semi_basement_r":null,"elderly_alone_r":0.1755,"bldg_age30_r":null,"shelter_min_walk":28,"pop":14624,"hh":8082,"elderly65_r":0.2586,"single_hh_r":0.5395,"source_level":"emd","flood_years":[],"landslide_hist_n":0},"geometry":{"type":"Polygon","coordinates":[[[127.11462,37.56799],[127.11411,37.57234],[127.1099,37.57429],[127.1062,37.5719],[127.10671,37.56755],[127.11092,37.5656],[127.11462,37.56799]]]}},{"type":"Feature","properties":{"h3":"8830e1c18dfffff","emd_code":"4131054100","emd_name":"교문1동","area_km2":0.5091,"edge":true,"slope_mean":21.93,"elev_mean":170.2,"flood_hist_n":0,"flood_depth_max_m":null,"flood_risk_100y":null,"semi_basement_r":null,"elderly_alone_r":0.1755,"bldg_age30_r":null,"shelter_min_walk":47,"pop":14624,"hh":8082,"elderly65_r":0.2586,"single_hh_r":0.5395,"source_level":"emd","flood_years":[],"landslide_hist_n":0},"geometry":{"type":"Polygon","coordinates":[[[127.10351,37.56081],[127.103,37.56516],[127.09879,37.56711],[127.09509,37.56472],[127.0956,37.56037],[127.09981,37.55842],[127.10351,37.56081]]]}},{"type":"Feature","properties":{"h3":"8830e1c191fffff","emd_code":"4131054100","emd_name":"교문1동","area_km2":0.5095,"edge":false,"slope_mean":3.46,"elev_mean":13.0,"flood_hist_n":0,"flood_depth_max_m":null,"flood_risk_100y":null,"semi_basement_r":null,"elderly_alone_r":0.1755,"bldg_age30_r":null,"shelter_min_walk":19,"pop":14624,"hh":8082,"elderly65_r":0.2586,"single_hh_r":0.5395,"source_level":"emd","flood_years":[],"landslide_hist_n":0},"geometry":{"type":"Polygon","coordinates":[[[127.13046,37.56886],[127.12995,37.57321],[127.12574,37.57517],[127.12203,37.57277],[127.12254,37.56842],[127.12675,37.56647],[127.13046,37.56886]]]}},{"type":"Feature","properties":{"h3":"8830e1c193fffff","emd_code":"4131059000","emd_name":"수택3동","area_km2":0.5096,"edge":false,"slope_mean":1.67,"elev_mean":8.3,"flood_hist_n":0,"flood_depth_max_m":null,"flood_risk_100y":null,"semi_basement_r":null,"elderly_alone_r":0.109,"bldg_age30_r":null,"shelter_min_walk":22,"pop":20763,"hh":9556,"elderly65_r":0.1956,"single_hh_r":0.397,"source_level":"emd","flood_years":[],"landslide_hist_n":0},"geometry":{"type":"Polygon","coordinates":[[[127.13838,37.56929],[127.13787,37.57364],[127.13366,37.5756],[127.12995,37.57321],[127.13046,37.56886],[127.13467,37.5669],[127.13838,37.56929]]]}},{"type":"Feature","properties":{"h3":"8830e1c195fffff","emd_code":"4131054100","emd_name":"교문1동","area_km2":0.5094,"edge":true,"slope_mean":1.53,"elev_mean":6.7,"flood_hist_n":0,"flood_depth_max_m":null,"flood_risk_100y":null,"semi_basement_r":null,"elderly_alone_r":0.1755,"bldg_age30_r":null,"shelter_min_walk":30,"pop":14624,"hh":8082,"elderly65_r":0.2586,"single_hh_r":0.5395,"source_level":"emd","flood_years":[],"landslide_hist_n":0},"geometry":{"type":"Polygon","coordinates":[[[127.12726,37.56212],[127.12675,37.56647],[127.12254,37.56842],[127.11884,37.56603],[127.11934,37.56168],[127.12356,37.55973],[127.12726,37.56212]]]}},{"type":"Feature","properties":{"h3":"8830e1c197fffff","emd_code":"4131054100","emd_name":"교문1동","area_km2":0.5095,"edge":true,"slope_mean":3.2,"elev_mean":11.7,"flood_hist_n":0,"flood_depth_max_m":null,"flood_risk_100y":null,"semi_basement_r":null,"elderly_alone_r":0.1755,"bldg_age30_r":null,"shelter_min_walk":30,"pop":14624,"hh":8082,"elderly65_r":0.2586,"single_hh_r":0.5395,"source_level":"emd","flood_years":[],"landslide_hist_n":0},"geometry":{"type":"Polygon","coordinates":[[[127.13518,37.56255],[127.13467,37.5669],[127.13046,37.56886],[127.12675,37.56647],[127.12726,37.56212],[127.13148,37.56016],[127.13518,37.56255]]]}},{"type":"Feature","properties":{"h3":"8830e1c199fffff","emd_code":"4131054100","emd_name":"교문1동","area_km2":0.5094,"edge":false,"slope_mean":13.44,"elev_mean":71.4,"flood_hist_n":0,"flood_depth_max_m":null,"flood_risk_100y":null,"semi_basement_r":null,"elderly_alone_r":0.1755,"bldg_age30_r":null,"shelter_min_walk":10,"pop":14624,"hh":8082,"elderly65_r":0.2586,"single_hh_r":0.5395,"source_level":"emd","flood_years":[],"landslide_hist_n":0},"geometry":{"type":"Polygon","coordinates":[[[127.12574,37.57517],[127.12523,37.57952],[127.12102,37.58147],[127.11731,37.57908],[127.11782,37.57473],[127.12203,37.57277],[127.12574,37.57517]]]}},{"type":"Feature","properties":{"h3":"8830e1c19bfffff","emd_code":"4131054200","emd_name":"교문2동","area_km2":0.5095,"edge":false,"slope_mean":4.77,"elev_mean":20.9,"flood_hist_n":0,"flood_depth_max_m":null,"flood_risk_100y":null,"semi_basement_r":null,"elderly_alone_r":0.0884,"bldg_age30_r":null,"shelter_min_walk":10,"pop":20428,"hh":7909,"elderly65_r":0.1972,"single_hh_r":0.2405,"source_level":"emd","flood_years":[],"landslide_hist_n":0},"geometry":{"type":"Polygon","coordinates":[[[127.13366,37.5756],[127.13315,37.57995],[127.12894,37.58191],[127.12523,37.57952],[127.12574,37.57517],[127.12995,37.57321],[127.13366,37.5756]]]}},{"type":"Feature","properties":{"h3":"8830e1c19dfffff","emd_code":"4131054100","emd_name":"교문1동","area_km2":0.5093,"edge":false,"slope_mean":10.89,"elev_mean":43.4,"flood_hist_n":0,"flood_depth_max_m":null,"flood_risk_100y":null,"semi_basement_r":null,"elderly_alone_r":0.1755,"bldg_age30_r":null,"shelter_min_walk":22,"pop":14624,"hh":8082,"elderly65_r":0.2586,"single_hh_r":0.5395,"source_level":"emd","flood_years":[],"landslide_hist_n":0},"geometry":{"type":"Polygon","coordinates":[[[127.12254,37.56842],[127.12203,37.57277],[127.11782,37.57473],[127.11411,37.57234],[127.11462,37.56799],[127.11884,37.56603],[127.12254,37.56842]]]}},{"type":"Feature","properties":{"h3":"8830e1c1c3fffff","emd_code":"4131054100","emd_name":"교문1동","area_km2":0.5091,"edge":true,"slope_mean":22.88,"elev_mean":198.0,"flood_hist_n":0,"flood_depth_max_m":null,"flood_risk_100y":null,"semi_basement_r":null,"elderly_alone_r":0.1755,"bldg_age30_r":null,"shelter_min_walk":37,"pop":14624,"hh":8082,"elderly65_r":0.2586,"single_hh_r":0.5395,"source_level":"emd","flood_years":[],"landslide_hist_n":0},"geometry":{"type":"Polygon","coordinates":[[[127.10198,37.57386],[127.10148,37.5782],[127.09726,37.58016],[127.09356,37.57777],[127.09407,37.57342],[127.09828,37.57146],[127.10198,37.57386]]]}},{"type":"Feature","properties":{"h3":"8830e1c1d1fffff","emd_code":"4131054100","emd_name":"교문1동","area_km2":0.5092,"edge":false,"slope_mean":15.28,"elev_mean":216.7,"flood_hist_n":0,"flood_depth_max_m":null,"flood_risk_100y":null,"semi_basement_r":null,"elderly_alone_r":0.1755,"bldg_age30_r":null,"shelter_min_walk":21,"pop":14624,"hh":8082,"elderly65_r":0.2586,"single_hh_r":0.5395,"source_level":"emd","flood_years":[],"landslide_hist_n":0},"geometry":{"type":"Polygon","coordinates":[[[127.1131,37.58103],[127.11259,37.58538],[127.10837,37.58734],[127.10467,37.58495],[127.10518,37.5806],[127.10939,37.57864],[127.1131,37.58103]]]}},{"type":"Feature","properties":{"h3":"8830e1c1d3fffff","emd_code":"4131054100","emd_name":"교문1동","area_km2":0.5094,"edge":false,"slope_mean":15.89,"elev_mean":136.1,"flood_hist_n":0,"flood_depth_max_m":null,"flood_risk_100y":null,"semi_basement_r":null,"elderly_alone_r":0.1755,"bldg_age30_r":null,"shelter_min_walk":11,"pop":14624,"hh":8082,"elderly65_r":0.2586,"single_hh_r":0.5395,"source_level":"emd","flood_years":[],"landslide_hist_n":0},"geometry":{"type":"Polygon","coordinates":[[[127.12102,37.58147],[127.12051,37.58582],[127.11629,37.58778],[127.11259,37.58538],[127.1131,37.58103],[127.11731,37.57908],[127.12102,37.58147]]]}},{"type":"Feature","properties":{"h3":"8830e1c1d5fffff","emd_code":"4131054100","emd_name":"교문1동","area_km2":0.5092,"edge":false,"slope_mean":21.25,"elev_mean":196.5,"flood_hist_n":0,"flood_depth_max_m":null,"flood_risk_100y":null,"semi_basement_r":null,"elderly_alone_r":0.1755,"bldg_age30_r":null,"shelter_min_walk":27,"pop":14624,"hh":8082,"elderly65_r":0.2586,"single_hh_r":0.5395,"source_level":"emd","flood_years":[],"landslide_hist_n":0},"geometry":{"type":"Polygon","coordinates":[[[127.1099,37.57429],[127.10939,37.57864],[127.10518,37.5806],[127.10148,37.5782],[127.10198,37.57386],[127.1062,37.5719],[127.1099,37.57429]]]}},{"type":"Feature","properties":{"h3":"8830e1c1d7fffff","emd_code":"4131054100","emd_name":"교문1동","area_km2":0.5093,"edge":false,"slope_mean":16.77,"elev_mean":113.8,"flood_hist_n":0,"flood_depth_max_m":null,"flood_risk_100y":null,"semi_basement_r":null,"elderly_alone_r":0.1755,"bldg_age30_r":null,"shelter_min_walk":18,"pop":14624,"hh":8082,"elderly65_r":0.2586,"single_hh_r":0.5395,"source_level":"emd","flood_years":[],"landslide_hist_n":0},"geometry":{"type":"Polygon","coordinates":[[[127.11782,37.57473],[127.11731,37.57908],[127.1131,37.58103],[127.10939,37.57864],[127.1099,37.57429],[127.11411,37.57234],[127.11782,37.57473]]]}},{"type":"Feature","properties":{"h3":"8830e1c1dbfffff","emd_code":"4131054100","emd_name":"교문1동","area_km2":0.5093,"edge":false,"slope_mean":16.5,"elev_mean":208.9,"flood_hist_n":0,"flood_depth_max_m":null,"flood_risk_100y":null,"semi_basement_r":null,"elderly_alone_r":0.1755,"bldg_age30_r":null,"shelter_min_walk":21,"pop":14624,"hh":8082,"elderly65_r":0.2586,"single_hh_r":0.5395,"source_level":"emd","flood_years":[],"landslide_hist_n":0},"geometry":{"type":"Polygon","coordinates":[[[127.11629,37.58778],[127.11579,37.59213],[127.11157,37.59408],[127.10787,37.59169],[127.10837,37.58734],[127.11259,37.58538],[127.11629,37.58778]]]}},{"type":"Feature","properties":{"h3":"8830e1c1ddfffff","emd_code":"4131054100","emd_name":"교문1동","area_km2":0.5091,"edge":true,"slope_mean":16.95,"elev_mean":147.2,"flood_hist_n":0,"flood_depth_max_m":null,"flood_risk_100y":null,"semi_basement_r":null,"elderly_alone_r":0.1755,"bldg_age30_r":null,"shelter_min_walk":32,"pop":14624,"hh":8082,"elderly65_r":0.2586,"single_hh_r":0.5395,"source_level":"emd","flood_years":[],"landslide_hist_n":0},"geometry":{"type":"Polygon","coordinates":[[[127.10518,37.5806],[127.10467,37.58495],[127.10046,37.5869],[127.09675,37.58451],[127.09726,37.58016],[127.10148,37.5782],[127.10518,37.5806]]]}},{"type":"Feature","properties":{"h3":"8830e1c2b1fffff","emd_code":"4131051000","emd_name":"갈매동","area_km2":0.5095,"edge":false,"slope_mean":4.62,"elev_mean":46.5,"flood_hist_n":0,"flood_depth_max_m":null,"flood_risk_100y":null,"semi_basement_r":null,"elderly_alone_r":0.0862,"bldg_age30_r":null,"shelter_min_walk":5,"pop":30404,"hh":12577,"elderly65_r":0.1572,"single_hh_r":0.3023,"source_level":"emd","flood_years":[],"landslide_hist_n":0},"geometry":{"type":"Polygon","coordinates":[[[127.11811,37.64041],[127.11761,37.64476],[127.11339,37.64671],[127.10968,37.64432],[127.11019,37.63997],[127.11441,37.63801],[127.11811,37.64041]]]}},{"type":"Feature","properties":{"h3":"8830e1c2b3fffff","emd_code":"4131051000","emd_name":"갈매동","area_km2":0.5096,"edge":true,"slope_mean":3.0,"elev_mean":35.1,"flood_hist_n":0,"flood_depth_max_m":null,"flood_risk_100y":null,"semi_basement_r":null,"elderly_alone_r":0.0862,"bldg_age30_r":null,"shelter_min_walk":7,"pop":30404,"hh":12577,"elderly65_r":0.1572,"single_hh_r":0.3023,"source_level":"emd","flood_years":[],"landslide_hist_n":0},"geometry":{"type":"Polygon","coordinates":[[[127.12604,37.64085],[127.12553,37.6452],[127.12132,37.64715],[127.11761,37.64476],[127.11811,37.64041],[127.12233,37.63845],[127.12604,37.64085]]]}},{"type":"Feature","properties":{"h3":"8830e1c2b5fffff","emd_code":"4131051000","emd_name":"갈매동","area_km2":0.5094,"edge":true,"slope_mean":5.09,"elev_mean":46.2,"flood_hist_n":0,"flood_depth_max_m":null,"flood_risk_100y":null,"semi_basement_r":null,"elderly_alone_r":0.0862,"bldg_age30_r":null,"shelter_min_walk":14,"pop":30404,"hh":12577,"elderly65_r":0.1572,"single_hh_r":0.3023,"source_level":"emd","flood_years":[],"landslide_hist_n":0},"geometry":{"type":"Polygon","coordinates":[[[127.11491,37.63366],[127.11441,37.63801],[127.11019,37.63997],[127.10648,37.63757],[127.10699,37.63322],[127.11121,37.63127],[127.11491,37.63366]]]}},{"type":"Feature","properties":{"h3":"8830e1c2b7fffff","emd_code":"4131051000","emd_name":"갈매동","area_km2":0.5095,"edge":false,"slope_mean":2.95,"elev_mean":38.0,"flood_hist_n":0,"flood_depth_max_m":null,"flood_risk_100y":null,"semi_basement_r":null,"elderly_alone_r":0.0862,"bldg_age30_r":null,"shelter_min_walk":7,"pop":30404,"hh":12577,"elderly65_r":0.1572,"single_hh_r":0.3023,"source_level":"emd","flood_years":[],"landslide_hist_n":0},"geometry":{"type":"Polygon","coordinates":[[[127.12284,37.6341],[127.12233,37.63845],[127.11811,37.64041],[127.11441,37.63801],[127.11491,37.63366],[127.11913,37.63171],[127.12284,37.6341]]]}},{"type":"Feature","properties":{"h3":"8830e1c721fffff","emd_code":"4131052000","emd_name":"동구동","area_km2":0.51,"edge":true,"slope_mean":3.74,"elev_mean":25.7,"flood_hist_n":0,"flood_depth_max_m":null,"flood_risk_100y":null,"semi_basement_r":null,"elderly_alone_r":0.0895,"bldg_age30_r":null,"shelter_min_walk":16,"pop":34672,"hh":13669,"elderly65_r":0.1928,"single_hh_r":0.2415,"source_level":"emd","flood_years":[],"landslide_hist_n":0},"geometry":{"type":"Polygon","coordinates":[[[127.15456,37.63586],[127.15405,37.64021],[127.14983,37.64217],[127.14612,37.63978],[127.14663,37.63542],[127.15085,37.63347],[127.15456,37.63586]]]}},{"type":"Feature","properties":{"h3":"8830e1c725fffff","emd_code":"4131052000","emd_name":"동구동","area_km2":0.5099,"edge":false,"slope_mean":2.13,"elev_mean":22.2,"flood_hist_n":1,"flood_depth_max_m":1.0,"flood_risk_100y":null,"semi_basement_r":null,"elderly_alone_r":0.0895,"bldg_age30_r":null,"shelter_min_walk":9,"pop":34672,"hh":13669,"elderly65_r":0.1928,"single_hh_r":0.2415,"source_level":"emd","flood_years":[2006],"landslide_hist_n":0},"geometry":{"type":"Polygon","coordinates":[[[127.15135,37.62912],[127.15085,37.63347],[127.14663,37.63542],[127.14291,37.63303],[127.14342,37.62868],[127.14764,37.62672],[127.15135,37.62912]]]}},{"type":"Feature","properties":{"h3":"8830e1c729fffff","emd_code":"4131052000","emd_name":"동구동","area_km2":0.5099,"edge":false,"slope_mean":6.7,"elev_mean":33.4,"flood_hist_n":0,"flood_depth_max_m":null,"flood_risk_100y":null,"semi_basement_r":null,"elderly_alone_r":0.0895,"bldg_age30_r":null,"shelter_min_walk":10,"pop":34672,"hh":13669,"elderly65_r":0.1928,"single_hh_r":0.2415,"source_level":"emd","flood_years":[],"landslide_hist_n":0},"geometry":{"type":"Polygon","coordinates":[[[127.14983,37.64217],[127.14932,37.64652],[127.1451,37.64848],[127.14139,37.64608],[127.1419,37.64173],[127.14612,37.63978],[127.14983,37.64217]]]}},{"type":"Feature","properties":{"h3":"8830e1c72dfffff","emd_code":"4131052000","emd_name":"동구동","area_km2":0.5099,"edge":false,"slope_mean":5.95,"elev_mean":37.6,"flood_hist_n":0,"flood_depth_max_m":null,"flood_risk_100y":null,"semi_basement_r":null,"elderly_alone_r":0.0895,"bldg_age30_r":null,"shelter_min_walk":8,"pop":34672,"hh":13669,"elderly65_r":0.1928,"single_hh_r":0.2415,"source_level":"emd","flood_years":[],"landslide_hist_n":0},"geometry":{"type":"Polygon","coordinates":[[[127.14663,37.63542],[127.14612,37.63978],[127.1419,37.64173],[127.13819,37.63934],[127.1387,37.63498],[127.14291,37.63303],[127.14663,37.63542]]]}},{"type":"Feature","properties":{"h3":"8830e1c763fffff","emd_code":"4131052000","emd_name":"동구동","area_km2":0.5099,"edge":true,"slope_mean":8.91,"elev_mean":55.0,"flood_hist_n":0,"flood_depth_max_m":null,"flood_risk_100y":null,"semi_basement_r":null,"elderly_alone_r":0.0895,"bldg_age30_r":null,"shelter_min_walk":3,"pop":34672,"hh":13669,"elderly65_r":0.1928,"single_hh_r":0.2415,"source_level":"emd","flood_years":[],"landslide_hist_n":0},"geometry":{"type":"Polygon","coordinates":[[[127.1451,37.64848],[127.1446,37.65283],[127.14038,37.65478],[127.13667,37.65239],[127.13717,37.64804],[127.14139,37.64608],[127.1451,37.64848]]]}},{"type":"Feature","properties":{"h3":"8830e1c765fffff","emd_code":"4131052000","emd_name":"동구동","area_km2":0.5097,"edge":true,"slope_mean":7.86,"elev_mean":39.4,"flood_hist_n":0,"flood_depth_max_m":null,"flood_risk_100y":null,"semi_basement_r":null,"elderly_alone_r":0.0895,"bldg_age30_r":null,"shelter_min_walk":3,"pop":34672,"hh":13669,"elderly65_r":0.1928,"single_hh_r":0.2415,"source_level":"emd","flood_years":[],"landslide_hist_n":0},"geometry":{"type":"Polygon","coordinates":[[[127.13397,37.64129],[127.13346,37.64564],[127.12924,37.6476],[127.12553,37.6452],[127.12604,37.64085],[127.13026,37.6389],[127.13397,37.64129]]]}},{"type":"Feature","properties":{"h3":"8830e1c767fffff","emd_code":"4131052000","emd_name":"동구동","area_km2":0.5098,"edge":false,"slope_mean":6.11,"elev_mean":36.9,"flood_hist_n":0,"flood_depth_max_m":null,"flood_risk_100y":null,"semi_basement_r":null,"elderly_alone_r":0.0895,"bldg_age30_r":null,"shelter_min_walk":9,"pop":34672,"hh":13669,"elderly65_r":0.1928,"single_hh_r":0.2415,"source_level":"emd","flood_years":[],"landslide_hist_n":0},"geometry":{"type":"Polygon","coordinates":[[[127.1419,37.64173],[127.14139,37.64608],[127.13717,37.64804],[127.13346,37.64564],[127.13397,37.64129],[127.13819,37.63934],[127.1419,37.64173]]]}},{"type":"Feature","properties":{"h3":"8830e1ce09fffff","emd_code":"4131059000","emd_name":"수택3동","area_km2":0.5099,"edge":true,"slope_mean":2.35,"elev_mean":11.3,"flood_hist_n":0,"flood_depth_max_m":null,"flood_risk_100y":null,"semi_basement_r":null,"elderly_alone_r":0.109,"bldg_age30_r":null,"shelter_min_walk":26,"pop":20763,"hh":9556,"elderly65_r":0.1956,"single_hh_r":0.397,"source_level":"emd","flood_years":[],"landslide_hist_n":0},"geometry":{"type":"Polygon","coordinates":[[[127.16215,37.5706],[127.16164,37.57495],[127.15743,37.57691],[127.15372,37.57451],[127.15423,37.57016],[127.15844,37.5682],[127.16215,37.5706]]]}},{"type":"Feature","properties":{"h3":"8830e1ce41fffff","emd_code":"4131059000","emd_name":"수택3동","area_km2":0.5097,"edge":false,"slope_mean":2.63,"elev_mean":16.7,"flood_hist_n":0,"flood_depth_max_m":null,"flood_risk_100y":null,"semi_basement_r":null,"elderly_alone_r":0.109,"bldg_age30_r":null,"shelter_min_walk":12,"pop":20763,"hh":9556,"elderly65_r":0.1956,"single_hh_r":0.397,"source_level":"emd","flood_years":[],"landslide_hist_n":0},"geometry":{"type":"Polygon","coordinates":[[[127.1495,37.57647],[127.149,37.58082],[127.14478,37.58278],[127.14107,37.58039],[127.14158,37.57604],[127.1458,37.57408],[127.1495,37.57647]]]}},{"type":"Feature","properties":{"h3":"8830e1ce43fffff","emd_code":"4131059000","emd_name":"수택3동","area_km2":0.5099,"edge":false,"slope_mean":2.42,"elev_mean":14.4,"flood_hist_n":0,"flood_depth_max_m":null,"flood_risk_100y":null,"semi_basement_r":null,"elderly_alone_r":0.109,"bldg_age30_r":null,"shelter_min_walk":17,"pop":20763,"hh":9556,"elderly65_r":0.1956,"single_hh_r":0.397,"source_level":"emd","flood_years":[],"landslide_hist_n":0},"geometry":{"type":"Polygon","coordinates":[[[127.15743,37.57691],[127.15692,37.58126],[127.15271,37.58322],[127.149,37.58082],[127.1495,37.57647],[127.15372,37.57451],[127.15743,37.57691]]]}},{"type":"Feature","properties":{"h3":"8830e1ce45fffff","emd_code":"4131059000","emd_name":"수택3동","area_km2":0.5097,"edge":false,"slope_mean":2.85,"elev_mean":8.0,"flood_hist_n":0,"flood_depth_max_m":null,"flood_risk_100y":null,"semi_basement_r":null,"elderly_alone_r":0.109,"bldg_age30_r":null,"shelter_min_walk":24,"pop":20763,"hh":9556,"elderly65_r":0.1956,"single_hh_r":0.397,"source_level":"emd","flood_years":[],"landslide_hist_n":0},"geometry":{"type":"Polygon","coordinates":[[[127.1463,37.56973],[127.1458,37.57408],[127.14158,37.57604],[127.13787,37.57364],[127.13838,37.56929],[127.1426,37.56734],[127.1463,37.56973]]]}},{"type":"Feature","properties":{"h3":"8830e1ce47fffff","emd_code":"4131059000","emd_name":"수택3동","area_km2":0.5098,"edge":false,"slope_mean":1.83,"elev_mean":6.9,"flood_hist_n":0,"flood_depth_max_m":null,"flood_risk_100y":null,"semi_basement_r":null,"elderly_alone_r":0.109,"bldg_age30_r":null,"shelter_min_walk":24,"pop":20763,"hh":9556,"elderly65_r":0.1956,"single_hh_r":0.397,"source_level":"emd","flood_years":[],"landslide_hist_n":0},"geometry":{"type":"Polygon","coordinates":[[[127.15423,37.57016],[127.15372,37.57451],[127.1495,37.57647],[127.1458,37.57408],[127.1463,37.56973],[127.15052,37.56777],[127.15423,37.57016]]]}},{"type":"Feature","properties":{"h3":"8830e1ce49fffff","emd_code":"4131059000","emd_name":"수택3동","area_km2":0.5097,"edge":false,"slope_mean":2.85,"elev_mean":18.1,"flood_hist_n":0,"flood_depth_max_m":null,"flood_risk_100y":null,"semi_basement_r":null,"elderly_alone_r":0.109,"bldg_age30_r":null,"shelter_min_walk":4,"pop":20763,"hh":9556,"elderly65_r":0.1956,"single_hh_r":0.397,"source_level":"emd","flood_years":[],"landslide_hist_n":0},"geometry":{"type":"Polygon","coordinates":[[[127.14478,37.58278],[127.14428,37.58713],[127.14006,37.58909],[127.13635,37.58669],[127.13686,37.58234],[127.14107,37.58039],[127.14478,37.58278]]]}},{"type":"Feature","properties":{"h3":"8830e1ce4bfffff","emd_code":"4131059000","emd_name":"수택3동","area_km2":0.5098,"edge":false,"slope_mean":2.21,"elev_mean":18.6,"flood_hist_n":0,"flood_depth_max_m":null,"flood_risk_100y":null,"semi_basement_r":null,"elderly_alone_r":0.109,"bldg_age30_r":null,"shelter_min_walk":6,"pop":20763,"hh":9556,"elderly65_r":0.1956,"single_hh_r":0.397,"source_level":"emd","flood_years":[],"landslide_hist_n":0},"geometry":{"type":"Polygon","coordinates":[[[127.15271,37.58322],[127.1522,37.58757],[127.14798,37.58952],[127.14428,37.58713],[127.14478,37.58278],[127.149,37.58082],[127.15271,37.58322]]]}},{"type":"Feature","properties":{"h3":"8830e1ce4dfffff","emd_code":"4131059000","emd_name":"수택3동","area_km2":0.5096,"edge":false,"slope_mean":2.38,"elev_mean":16.4,"flood_hist_n":0,"flood_depth_max_m":null,"flood_risk_100y":null,"semi_basement_r":null,"elderly_alone_r":0.109,"bldg_age30_r":null,"shelter_min_walk":13,"pop":20763,"hh":9556,"elderly65_r":0.1956,"single_hh_r":0.397,"source_level":"emd","flood_years":[],"landslide_hist_n":0},"geometry":{"type":"Polygon","coordinates":[[[127.14158,37.57604],[127.14107,37.58039],[127.13686,37.58234],[127.13315,37.57995],[127.13366,37.5756],[127.13787,37.57364],[127.14158,37.57604]]]}},{"type":"Feature","properties":{"h3":"8830e1ce51fffff","emd_code":"4131059000","emd_name":"수택3동","area_km2":0.51,"edge":true,"slope_mean":4.61,"elev_mean":15.0,"flood_hist_n":0,"flood_depth_max_m":null,"flood_risk_100y":null,"semi_basement_r":null,"elderly_alone_r":0.109,"bldg_age30_r":null,"shelter_min_walk":19,"pop":20763,"hh":9556,"elderly65_r":0.1956,"single_hh_r":0.397,"source_level":"emd","flood_years":[],"landslide_hist_n":0},"geometry":{"type":"Polygon","coordinates":[[[127.16856,37.58408],[127.16805,37.58844],[127.16384,37.59039],[127.16013,37.588],[127.16063,37.58365],[127.16485,37.58169],[127.16856,37.58408]]]}},{"type":"Feature","properties":{"h3":"8830e1ce55fffff","emd_code":"4131059000","emd_name":"수택3동","area_km2":0.51,"edge":false,"slope_mean":2.73,"elev_mean":10.0,"flood_hist_n":0,"flood_depth_max_m":null,"flood_risk_100y":null,"semi_basement_r":null,"elderly_alone_r":0.109,"bldg_age30_r":null,"shelter_min_walk":22,"pop":20763,"hh":9556,"elderly65_r":0.1956,"single_hh_r":0.397,"source_level":"emd","flood_years":[],"landslide_hist_n":0},"geometry":{"type":"Polygon","coordinates":[[[127.16535,37.57734],[127.16485,37.58169],[127.16063,37.58365],[127.15692,37.58126],[127.15743,37.57691],[127.16164,37.57495],[127.16535,37.57734]]]}},{"type":"Feature","properties":{"h3":"8830e1ce57fffff","emd_code":"4131059000","emd_name":"수택3동","area_km2":0.5101,"edge":false,"slope_mean":1.93,"elev_mean":10.2,"flood_hist_n":0,"flood_depth_max_m":null,"flood_risk_100y":null,"semi_basement_r":null,"elderly_alone_r":0.109,"bldg_age30_r":null,"shelter_min_walk":13,"pop":20763,"hh":9556,"elderly65_r":0.1956,"single_hh_r":0.397,"source_level":"emd","flood_years":[],"landslide_hist_n":0},"geometry":{"type":"Polygon","coordinates":[[[127.17328,37.57777],[127.17278,37.58213],[127.16856,37.58408],[127.16485,37.58169],[127.16535,37.57734],[127.16957,37.57538],[127.17328,37.57777]]]}},{"type":"Feature","properties":{"h3":"8830e1ce59fffff","emd_code":"4131059000","emd_name":"수택3동","area_km2":0.51,"edge":false,"slope_mean":4.52,"elev_mean":18.0,"flood_hist_n":0,"flood_depth_max_m":null,"flood_risk_100y":null,"semi_basement_r":null,"elderly_alone_r":0.109,"bldg_age30_r":null,"shelter_min_walk":8,"pop":20763,"hh":9556,"elderly65_r":0.1956,"single_hh_r":0.397,"source_level":"emd","flood_years":[],"landslide_hist_n":0},"geometry":{"type":"Polygon","coordinates":[[[127.16384,37.59039],[127.16333,37.59474],[127.15911,37.5967],[127.1554,37.59431],[127.15591,37.58996],[127.16013,37.588],[127.16384,37.59039]]]}},{"type":"Feature","properties":{"h3":"8830e1ce5bfffff","emd_code":"4131059000","emd_name":"수택3동","area_km2":0.5101,"edge":false,"slope_mean":5.66,"elev_mean":18.7,"flood_hist_n":0,"flood_depth_max_m":null,"flood_risk_100y":null,"semi_basement_r":null,"elderly_alone_r":0.109,"bldg_age30_r":null,"shelter_min_walk":16,"pop":20763,"hh":9556,"elderly65_r":0.1956,"single_hh_r":0.397,"source_level":"emd","flood_years":[],"landslide_hist_n":0},"geometry":{"type":"Polygon","coordinates":[[[127.17177,37.59083],[127.17126,37.59518],[127.16704,37.59714],[127.16333,37.59474],[127.16384,37.59039],[127.16805,37.58844],[127.17177,37.59083]]]}},{"type":"Feature","properties":{"h3":"8830e1ce5dfffff","emd_code":"4131059000","emd_name":"수택3동","area_km2":0.5099,"edge":false,"slope_mean":3.16,"elev_mean":18.8,"flood_hist_n":0,"flood_depth_max_m":null,"flood_risk_100y":null,"semi_basement_r":null,"elderly_alone_r":0.109,"bldg_age30_r":null,"shelter_min_walk":12,"pop":20763,"hh":9556,"elderly65_r":0.1956,"single_hh_r":0.397,"source_level":"emd","flood_years":[],"landslide_hist_n":0},"geometry":{"type":"Polygon","coordinates":[[[127.16063,37.58365],[127.16013,37.588],[127.15591,37.58996],[127.1522,37.58757],[127.15271,37.58322],[127.15692,37.58126],[127.16063,37.58365]]]}},{"type":"Feature","properties":{"h3":"8830e1ce69fffff","emd_code":"4131059000","emd_name":"수택3동","area_km2":0.5096,"edge":true,"slope_mean":7.36,"elev_mean":30.3,"flood_hist_n":0,"flood_depth_max_m":null,"flood_risk_100y":null,"semi_basement_r":null,"elderly_alone_r":0.109,"bldg_age30_r":null,"shelter_min_walk":34,"pop":20763,"hh":9556,"elderly65_r":0.1956,"single_hh_r":0.397,"source_level":"emd","flood_years":[],"landslide_hist_n":0},"geometry":{"type":"Polygon","coordinates":[[[127.1431,37.56299],[127.1426,37.56734],[127.13838,37.56929],[127.13467,37.5669],[127.13518,37.56255],[127.13939,37.56059],[127.1431,37.56299]]]}},{"type":"Feature","properties":{"h3":"8830e1ce6bfffff","emd_code":"4131059000","emd_name":"수택3동","area_km2":0.5097,"edge":true,"slope_mean":9.15,"elev_mean":38.8,"flood_hist_n":0,"flood_depth_max_m":null,"flood_risk_100y":null,"semi_basement_r":null,"elderly_alone_r":0.109,"bldg_age30_r":null,"shelter_min_walk":34,"pop":20763,"hh":9556,"elderly65_r":0.1956,"single_hh_r":0.397,"source_level":"emd","flood_years":[],"landslide_hist_n":0},"geometry":{"type":"Polygon","coordinates":[[[127.15102,37.56342],[127.15052,37.56777],[127.1463,37.56973],[127.1426,37.56734],[127.1431,37.56299],[127.14732,37.56103],[127.15102,37.56342]]]}}]}