{"type":"FeatureCollection","name":"grid_41370_h3r8","meta":{"sgg_code":"41370","h3_res":8,"n_cells":112,"dem":"Copernicus GLO-30 (bbox-mean)","crs":"EPSG:4326","jumin_basis":"2026-07","flood_src":"행안부 침수흔적도(전국, 재난안전데이터공유플랫폼)","landslide_src":"행안부 산사태 발생이력"},"features":[{"type":"Feature","properties":{"h3":"8830e02c01fffff","emd_code":"4137055000","emd_name":"세마동","area_km2":0.5072,"edge":false,"slope_mean":4.35,"elev_mean":31.0,"flood_hist_n":0,"flood_depth_max_m":null,"flood_risk_100y":null,"semi_basement_r":null,"elderly_alone_r":0.0726,"bldg_age30_r":null,"shelter_min_walk":8,"pop":31891,"hh":13814,"elderly65_r":0.1287,"single_hh_r":0.3597,"source_level":"emd","flood_years":[],"landslide_hist_n":0},"geometry":{"type":"Polygon","coordinates":[[[127.04374,37.19031],[127.04323,37.19465],[127.03904,37.19662],[127.03537,37.19424],[127.03588,37.1899],[127.04006,37.18793],[127.04374,37.19031]]]}},{"type":"Feature","properties":{"h3":"8830e02c03fffff","emd_code":"4137055000","emd_name":"세마동","area_km2":0.5073,"edge":false,"slope_mean":3.51,"elev_mean":32.2,"flood_hist_n":0,"flood_depth_max_m":null,"flood_risk_100y":null,"semi_basement_r":null,"elderly_alone_r":0.0726,"bldg_age30_r":null,"shelter_min_walk":11,"pop":31891,"hh":13814,"elderly65_r":0.1287,"single_hh_r":0.3597,"source_level":"emd","flood_years":[],"landslide_hist_n":0},"geometry":{"type":"Polygon","coordinates":[[[127.0516,37.19072],[127.05109,37.19507],[127.0469,37.19703],[127.04323,37.19465],[127.04374,37.19031],[127.04792,37.18835],[127.0516,37.19072]]]}},{"type":"Feature","properties":{"h3":"8830e02c05fffff","emd_code":"4137055000","emd_name":"세마동","area_km2":0.5071,"edge":false,"slope_mean":7.17,"elev_mean":46.9,"flood_hist_n":0,"flood_depth_max_m":null,"flood_risk_100y":null,"semi_basement_r":null,"elderly_alone_r":0.0726,"bldg_age30_r":null,"shelter_min_walk":6,"pop":31891,"hh":13814,"elderly65_r":0.1287,"single_hh_r":0.3597,"source_level":"emd","flood_years":[],"landslide_hist_n":0},"geometry":{"type":"Polygon","coordinates":[[[127.04057,37.18359],[127.04006,37.18793],[127.03588,37.1899],[127.0322,37.18752],[127.03271,37.18318],[127.0369,37.18122],[127.04057,37.18359]]]}},{"type":"Feature","properties":{"h3":"8830e02c07fffff","emd_code":"4137055000","emd_name":"세마동","area_km2":0.5072,"edge":false,"slope_mean":5.58,"elev_mean":45.8,"flood_hist_n":0,"flood_depth_max_m":null,"flood_risk_100y":null,"semi_basement_r":null,"elderly_alone_r":0.0726,"bldg_age30_r":null,"shelter_min_walk":5,"pop":31891,"hh":13814,"elderly65_r":0.1287,"single_hh_r":0.3597,"source_level":"emd","flood_years":[],"landslide_hist_n":0},"geometry":{"type":"Polygon","coordinates":[[[127.04843,37.184],[127.04792,37.18835],[127.04374,37.19031],[127.04006,37.18793],[127.04057,37.18359],[127.04476,37.18163],[127.04843,37.184]]]}},{"type":"Feature","properties":{"h3":"8830e02c09fffff","emd_code":"4137055000","emd_name":"세마동","area_km2":0.5072,"edge":false,"slope_mean":3.96,"elev_mean":23.9,"flood_hist_n":1,"flood_depth_max_m":0.26,"flood_risk_100y":null,"semi_basement_r":null,"elderly_alone_r":0.0726,"bldg_age30_r":null,"shelter_min_walk":2,"pop":31891,"hh":13814,"elderly65_r":0.1287,"single_hh_r":0.3597,"source_level":"emd","flood_years":[2020],"landslide_hist_n":0},"geometry":{"type":"Polygon","coordinates":[[[127.03904,37.19662],[127.03853,37.20096],[127.03435,37.20292],[127.03067,37.20054],[127.03118,37.1962],[127.03537,37.19424],[127.03904,37.19662]]]}},{"type":"Feature","properties":{"h3":"8830e02c0bfffff","emd_code":"4137055000","emd_name":"세마동","area_km2":0.5073,"edge":true,"slope_mean":4.62,"elev_mean":29.7,"flood_hist_n":0,"flood_depth_max_m":null,"flood_risk_100y":null,"semi_basement_r":null,"elderly_alone_r":0.0726,"bldg_age30_r":null,"shelter_min_walk":2,"pop":31891,"hh":13814,"elderly65_r":0.1287,"single_hh_r":0.3597,"source_level":"emd","flood_years":[],"landslide_hist_n":0},"geometry":{"type":"Polygon","coordinates":[[[127.0469,37.19703],[127.0464,37.20137],[127.04221,37.20334],[127.03853,37.20096],[127.03904,37.19662],[127.04323,37.19465],[127.0469,37.19703]]]}},{"type":"Feature","properties":{"h3":"8830e02c0dfffff","emd_code":"4137055000","emd_name":"세마동","area_km2":0.5071,"edge":false,"slope_mean":7.53,"elev_mean":45.4,"flood_hist_n":0,"flood_depth_max_m":null,"flood_risk_100y":null,"semi_basement_r":null,"elderly_alone_r":0.0726,"bldg_age30_r":null,"shelter_min_walk":2,"pop":31891,"hh":13814,"elderly65_r":0.1287,"single_hh_r":0.3597,"source_level":"emd","flood_years":[],"landslide_hist_n":0},"geometry":{"type":"Polygon","coordinates":[[[127.03588,37.1899],[127.03537,37.19424],[127.03118,37.1962],[127.02751,37.19383],[127.02802,37.18948],[127.0322,37.18752],[127.03588,37.1899]]]}},{"type":"Feature","properties":{"h3":"8830e02c11fffff","emd_code":"4137055000","emd_name":"세마동","area_km2":0.5075,"edge":true,"slope_mean":5.34,"elev_mean":45.9,"flood_hist_n":0,"flood_depth_max_m":null,"flood_risk_100y":null,"semi_basement_r":null,"elderly_alone_r":0.0726,"bldg_age30_r":null,"shelter_min_walk":3,"pop":31891,"hh":13814,"elderly65_r":0.1287,"single_hh_r":0.3597,"source_level":"emd","flood_years":[],"landslide_hist_n":0},"geometry":{"type":"Polygon","coordinates":[[[127.06263,37.19785],[127.06213,37.2022],[127.05794,37.20416],[127.05426,37.20178],[127.05477,37.19744],[127.05896,37.19548],[127.06263,37.19785]]]}},{"type":"Feature","properties":{"h3":"8830e02c13fffff","emd_code":"4137055000","emd_name":"세마동","area_km2":0.5076,"edge":true,"slope_mean":6.69,"elev_mean":56.1,"flood_hist_n":0,"flood_depth_max_m":null,"flood_risk_100y":null,"semi_basement_r":null,"elderly_alone_r":0.0726,"bldg_age30_r":null,"shelter_min_walk":1,"pop":31891,"hh":13814,"elderly65_r":0.1287,"single_hh_r":0.3597,"source_level":"emd","flood_years":[],"landslide_hist_n":0},"geometry":{"type":"Polygon","coordinates":[[[127.0705,37.19827],[127.06999,37.20261],[127.0658,37.20457],[127.06213,37.2022],[127.06263,37.19785],[127.06682,37.19589],[127.0705,37.19827]]]}},{"type":"Feature","properties":{"h3":"8830e02c15fffff","emd_code":"4137055000","emd_name":"세마동","area_km2":0.5074,"edge":false,"slope_mean":4.48,"elev_mean":37.8,"flood_hist_n":0,"flood_depth_max_m":null,"flood_risk_100y":null,"semi_basement_r":null,"elderly_alone_r":0.0726,"bldg_age30_r":null,"shelter_min_walk":13,"pop":31891,"hh":13814,"elderly65_r":0.1287,"single_hh_r":0.3597,"source_level":"emd","flood_years":[],"landslide_hist_n":0},"geometry":{"type":"Polygon","coordinates":[[[127.05946,37.19113],[127.05896,37.19548],[127.05477,37.19744],[127.05109,37.19507],[127.0516,37.19072],[127.05579,37.18876],[127.05946,37.19113]]]}},{"type":"Feature","properties":{"h3":"8830e02c17fffff","emd_code":"4137055000","emd_name":"세마동","area_km2":0.5075,"edge":false,"slope_mean":5.24,"elev_mean":49.2,"flood_hist_n":0,"flood_depth_max_m":null,"flood_risk_100y":null,"semi_basement_r":null,"elderly_alone_r":0.0726,"bldg_age30_r":null,"shelter_min_walk":7,"pop":31891,"hh":13814,"elderly65_r":0.1287,"single_hh_r":0.3597,"source_level":"emd","flood_years":[],"landslide_hist_n":0},"geometry":{"type":"Polygon","coordinates":[[[127.06733,37.19155],[127.06682,37.19589],[127.06263,37.19785],[127.05896,37.19548],[127.05946,37.19113],[127.06365,37.18917],[127.06733,37.19155]]]}},{"type":"Feature","properties":{"h3":"8830e02c1dfffff","emd_code":"4137055000","emd_name":"세마동","area_km2":0.5074,"edge":true,"slope_mean":4.61,"elev_mean":37.6,"flood_hist_n":0,"flood_depth_max_m":null,"flood_risk_100y":null,"semi_basement_r":null,"elderly_alone_r":0.0726,"bldg_age30_r":null,"shelter_min_walk":1,"pop":31891,"hh":13814,"elderly65_r":0.1287,"single_hh_r":0.3597,"source_level":"emd","flood_years":[],"landslide_hist_n":0},"geometry":{"type":"Polygon","coordinates":[[[127.05477,37.19744],[127.05426,37.20178],[127.05007,37.20375],[127.0464,37.20137],[127.0469,37.19703],[127.05109,37.19507],[127.05477,37.19744]]]}},{"type":"Feature","properties":{"h3":"8830e02c21fffff","emd_code":"4137055000","emd_name":"세마동","area_km2":0.5071,"edge":false,"slope_mean":15.35,"elev_mean":95.2,"flood_hist_n":0,"flood_depth_max_m":null,"flood_risk_100y":null,"semi_basement_r":null,"elderly_alone_r":0.0726,"bldg_age30_r":null,"shelter_min_walk":9,"pop":31891,"hh":13814,"elderly65_r":0.1287,"single_hh_r":0.3597,"source_level":"emd","flood_years":[],"landslide_hist_n":0},"geometry":{"type":"Polygon","coordinates":[[[127.0421,37.17057],[127.04159,37.17491],[127.03741,37.17687],[127.03373,37.1745],[127.03424,37.17016],[127.03843,37.16819],[127.0421,37.17057]]]}},{"type":"Feature","properties":{"h3":"8830e02c23fffff","emd_code":"4137054300","emd_name":"신장1동","area_km2":0.5072,"edge":false,"slope_mean":8.02,"elev_mean":59.5,"flood_hist_n":0,"flood_depth_max_m":null,"flood_risk_100y":null,"semi_basement_r":null,"elderly_alone_r":0.0934,"bldg_age30_r":null,"shelter_min_walk":2,"pop":35328,"hh":16019,"elderly65_r":0.1584,"single_hh_r":0.4,"source_level":"emd","flood_years":[],"landslide_hist_n":0},"geometry":{"type":"Polygon","coordinates":[[[127.04996,37.17098],[127.04945,37.17532],[127.04527,37.17729],[127.04159,37.17491],[127.0421,37.17057],[127.04628,37.1686],[127.04996,37.17098]]]}},{"type":"Feature","properties":{"h3":"8830e02c25fffff","emd_code":"4137053000","emd_name":"남촌동","area_km2":0.5071,"edge":false,"slope_mean":8.34,"elev_mean":65.9,"flood_hist_n":0,"flood_depth_max_m":null,"flood_risk_100y":null,"semi_basement_r":null,"elderly_alone_r":0.0677,"bldg_age30_r":null,"shelter_min_walk":11,"pop":32001,"hh":18296,"elderly65_r":0.0982,"single_hh_r":0.6177,"source_level":"emd","flood_years":[],"landslide_hist_n":0},"geometry":{"type":"Polygon","coordinates":[[[127.03894,37.16385],[127.03843,37.16819],[127.03424,37.17016],[127.03057,37.16778],[127.03108,37.16344],[127.03526,37.16147],[127.03894,37.16385]]]}},{"type":"Feature","properties":{"h3":"8830e02c27fffff","emd_code":"4137053000","emd_name":"남촌동","area_km2":0.5072,"edge":false,"slope_mean":10.66,"elev_mean":69.2,"flood_hist_n":0,"flood_depth_max_m":null,"flood_risk_100y":null,"semi_basement_r":null,"elderly_alone_r":0.0677,"bldg_age30_r":null,"shelter_min_walk":9,"pop":32001,"hh":18296,"elderly65_r":0.0982,"single_hh_r":0.6177,"source_level":"emd","flood_years":[],"landslide_hist_n":0},"geometry":{"type":"Polygon","coordinates":[[[127.04679,37.16426],[127.04628,37.1686],[127.0421,37.17057],[127.03843,37.16819],[127.03894,37.16385],[127.04312,37.16188],[127.04679,37.16426]]]}},{"type":"Feature","properties":{"h3":"8830e02c29fffff","emd_code":"4137055000","emd_name":"세마동","area_km2":0.5071,"edge":false,"slope_mean":11.05,"elev_mean":70.9,"flood_hist_n":0,"flood_depth_max_m":null,"flood_risk_100y":null,"semi_basement_r":null,"elderly_alone_r":0.0726,"bldg_age30_r":null,"shelter_min_walk":12,"pop":31891,"hh":13814,"elderly65_r":0.1287,"single_hh_r":0.3597,"source_level":"emd","flood_years":[],"landslide_hist_n":0},"geometry":{"type":"Polygon","coordinates":[[[127.03741,37.17687],[127.0369,37.18122],[127.03271,37.18318],[127.02904,37.1808],[127.02955,37.17646],[127.03373,37.1745],[127.03741,37.17687]]]}},{"type":"Feature","properties":{"h3":"8830e02c2bfffff","emd_code":"4137054300","emd_name":"신장1동","area_km2":0.5072,"edge":false,"slope_mean":7.16,"elev_mean":62.2,"flood_hist_n":0,"flood_depth_max_m":null,"flood_risk_100y":null,"semi_basement_r":null,"elderly_alone_r":0.0934,"bldg_age30_r":null,"shelter_min_walk":5,"pop":35328,"hh":16019,"elderly65_r":0.1584,"single_hh_r":0.4,"source_level":"emd","flood_years":[],"landslide_hist_n":0},"geometry":{"type":"Polygon","coordinates":[[[127.04527,37.17729],[127.04476,37.18163],[127.04057,37.18359],[127.0369,37.18122],[127.03741,37.17687],[127.04159,37.17491],[127.04527,37.17729]]]}},{"type":"Feature","properties":{"h3":"8830e02c2dfffff","emd_code":"4137055000","emd_name":"세마동","area_km2":0.507,"edge":false,"slope_mean":10.67,"elev_mean":62.8,"flood_hist_n":0,"flood_depth_max_m":null,"flood_risk_100y":null,"semi_basement_r":null,"elderly_alone_r":0.0726,"bldg_age30_r":null,"shelter_min_walk":7,"pop":31891,"hh":13814,"elderly65_r":0.1287,"single_hh_r":0.3597,"source_level":"emd","flood_years":[],"landslide_hist_n":0},"geometry":{"type":"Polygon","coordinates":[[[127.03424,37.17016],[127.03373,37.1745],[127.02955,37.17646],[127.02587,37.17408],[127.02638,37.16974],[127.03057,37.16778],[127.03424,37.17016]]]}},{"type":"Feature","properties":{"h3":"8830e02c31fffff","emd_code":"4137054600","emd_name":"신장2동","area_km2":0.5074,"edge":false,"slope_mean":6.59,"elev_mean":48.7,"flood_hist_n":0,"flood_depth_max_m":null,"flood_risk_100y":null,"semi_basement_r":null,"elderly_alone_r":0.1015,"bldg_age30_r":null,"shelter_min_walk":7,"pop":22546,"hh":9929,"elderly65_r":0.1517,"single_hh_r":0.371,"source_level":"emd","flood_years":[],"landslide_hist_n":0},"geometry":{"type":"Polygon","coordinates":[[[127.06099,37.17811],[127.06048,37.18245],[127.0563,37.18442],[127.05262,37.18204],[127.05313,37.1777],[127.05731,37.17573],[127.06099,37.17811]]]}},{"type":"Feature","properties":{"h3":"8830e02c33fffff","emd_code":"4137054600","emd_name":"신장2동","area_km2":0.5075,"edge":false,"slope_mean":7.59,"elev_mean":50.8,"flood_hist_n":0,"flood_depth_max_m":null,"flood_risk_100y":null,"semi_basement_r":null,"elderly_alone_r":0.1015,"bldg_age30_r":null,"shelter_min_walk":9,"pop":22546,"hh":9929,"elderly65_r":0.1517,"single_hh_r":0.371,"source_level":"emd","flood_years":[],"landslide_hist_n":0},"geometry":{"type":"Polygon","coordinates":[[[127.06885,37.17852],[127.06835,37.18286],[127.06416,37.18483],[127.06048,37.18245],[127.06099,37.17811],[127.06518,37.17614],[127.06885,37.17852]]]}},{"type":"Feature","properties":{"h3":"8830e02c35fffff","emd_code":"4137054300","emd_name":"신장1동","area_km2":0.5073,"edge":false,"slope_mean":6.64,"elev_mean":46.0,"flood_hist_n":0,"flood_depth_max_m":null,"flood_risk_100y":null,"semi_basement_r":null,"elderly_alone_r":0.0934,"bldg_age30_r":null,"shelter_min_walk":2,"pop":35328,"hh":16019,"elderly65_r":0.1584,"single_hh_r":0.4,"source_level":"emd","flood_years":[],"landslide_hist_n":0},"geometry":{"type":"Polygon","coordinates":[[[127.05782,37.17139],[127.05731,37.17573],[127.05313,37.1777],[127.04945,37.17532],[127.04996,37.17098],[127.05414,37.16901],[127.05782,37.17139]]]}},{"type":"Feature","properties":{"h3":"8830e02c37fffff","emd_code":"4137054600","emd_name":"신장2동","area_km2":0.5075,"edge":false,"slope_mean":3.66,"elev_mean":35.3,"flood_hist_n":0,"flood_depth_max_m":null,"flood_risk_100y":null,"semi_basement_r":null,"elderly_alone_r":0.1015,"bldg_age30_r":null,"shelter_min_walk":5,"pop":22546,"hh":9929,"elderly65_r":0.1517,"single_hh_r":0.371,"source_level":"emd","flood_years":[],"landslide_hist_n":0},"geometry":{"type":"Polygon","coordinates":[[[127.06568,37.1718],[127.06518,37.17614],[127.06099,37.17811],[127.05731,37.17573],[127.05782,37.17139],[127.06201,37.16942],[127.06568,37.1718]]]}},{"type":"Feature","properties":{"h3":"8830e02c39fffff","emd_code":"4137055000","emd_name":"세마동","area_km2":0.5074,"edge":false,"slope_mean":9.32,"elev_mean":59.3,"flood_hist_n":0,"flood_depth_max_m":null,"flood_risk_100y":null,"semi_basement_r":null,"elderly_alone_r":0.0726,"bldg_age30_r":null,"shelter_min_walk":12,"pop":31891,"hh":13814,"elderly65_r":0.1287,"single_hh_r":0.3597,"source_level":"emd","flood_years":[],"landslide_hist_n":0},"geometry":{"type":"Polygon","coordinates":[[[127.0563,37.18442],[127.05579,37.18876],[127.0516,37.19072],[127.04792,37.18835],[127.04843,37.184],[127.05262,37.18204],[127.0563,37.18442]]]}},{"type":"Feature","properties":{"h3":"8830e02c3bfffff","emd_code":"4137054600","emd_name":"신장2동","area_km2":0.5075,"edge":false,"slope_mean":8.91,"elev_mean":57.6,"flood_hist_n":0,"flood_depth_max_m":null,"flood_risk_100y":null,"semi_basement_r":null,"elderly_alone_r":0.1015,"bldg_age30_r":null,"shelter_min_walk":18,"pop":22546,"hh":9929,"elderly65_r":0.1517,"single_hh_r":0.371,"source_level":"emd","flood_years":[],"landslide_hist_n":0},"geometry":{"type":"Polygon","coordinates":[[[127.06416,37.18483],[127.06365,37.18917],[127.05946,37.19113],[127.05579,37.18876],[127.0563,37.18442],[127.06048,37.18245],[127.06416,37.18483]]]}},{"type":"Feature","properties":{"h3":"8830e02c3dfffff","emd_code":"4137054300","emd_name":"신장1동","area_km2":0.5073,"edge":false,"slope_mean":9.29,"elev_mean":62.1,"flood_hist_n":0,"flood_depth_max_m":null,"flood_risk_100y":null,"semi_basement_r":null,"elderly_alone_r":0.0934,"bldg_age30_r":null,"shelter_min_walk":2,"pop":35328,"hh":16019,"elderly65_r":0.1584,"single_hh_r":0.4,"source_level":"emd","flood_years":[],"landslide_hist_n":0},"geometry":{"type":"Polygon","coordinates":[[[127.05313,37.1777],[127.05262,37.18204],[127.04843,37.184],[127.04476,37.18163],[127.04527,37.17729],[127.04945,37.17532],[127.05313,37.1777]]]}},{"type":"Feature","properties":{"h3":"8830e02c45fffff","emd_code":"4137055000","emd_name":"세마동","area_km2":0.5069,"edge":true,"slope_mean":5.02,"elev_mean":20.9,"flood_hist_n":0,"flood_depth_max_m":null,"flood_risk_100y":null,"semi_basement_r":null,"elderly_alone_r":0.0726,"bldg_age30_r":null,"shelter_min_walk":8,"pop":31891,"hh":13814,"elderly65_r":0.1287,"single_hh_r":0.3597,"source_level":"emd","flood_years":[],"landslide_hist_n":0},"geometry":{"type":"Polygon","coordinates":[[[127.02332,37.19579],[127.02281,37.20013],[127.01863,37.20209],[127.01495,37.19972],[127.01546,37.19537],[127.01965,37.19341],[127.02332,37.19579]]]}},{"type":"Feature","properties":{"h3":"8830e02c47fffff","emd_code":"4137055000","emd_name":"세마동","area_km2":0.507,"edge":false,"slope_mean":3.18,"elev_mean":22.1,"flood_hist_n":0,"flood_depth_max_m":null,"flood_risk_100y":null,"semi_basement_r":null,"elderly_alone_r":0.0726,"bldg_age30_r":null,"shelter_min_walk":5,"pop":31891,"hh":13814,"elderly65_r":0.1287,"single_hh_r":0.3597,"source_level":"emd","flood_years":[],"landslide_hist_n":0},"geometry":{"type":"Polygon","coordinates":[[[127.03118,37.1962],[127.03067,37.20054],[127.02649,37.20251],[127.02281,37.20013],[127.02332,37.19579],[127.02751,37.19383],[127.03118,37.1962]]]}},{"type":"Feature","properties":{"h3":"8830e02c61fffff","emd_code":"4137055000","emd_name":"세마동","area_km2":0.5069,"edge":false,"slope_mean":16.2,"elev_mean":116.7,"flood_hist_n":0,"flood_depth_max_m":null,"flood_risk_100y":null,"semi_basement_r":null,"elderly_alone_r":0.0726,"bldg_age30_r":null,"shelter_min_walk":21,"pop":31891,"hh":13814,"elderly65_r":0.1287,"single_hh_r":0.3597,"source_level":"emd","flood_years":[],"landslide_hist_n":0},"geometry":{"type":"Polygon","coordinates":[[[127.02485,37.18277],[127.02434,37.18711],[127.02016,37.18907],[127.01648,37.18669],[127.017,37.18235],[127.02118,37.18039],[127.02485,37.18277]]]}},{"type":"Feature","properties":{"h3":"8830e02c63fffff","emd_code":"4137055000","emd_name":"세마동","area_km2":0.507,"edge":false,"slope_mean":12.5,"elev_mean":79.0,"flood_hist_n":0,"flood_depth_max_m":null,"flood_risk_100y":null,"semi_basement_r":null,"elderly_alone_r":0.0726,"bldg_age30_r":null,"shelter_min_walk":13,"pop":31891,"hh":13814,"elderly65_r":0.1287,"single_hh_r":0.3597,"source_level":"emd","flood_years":[],"landslide_hist_n":0},"geometry":{"type":"Polygon","coordinates":[[[127.03271,37.18318],[127.0322,37.18752],[127.02802,37.18948],[127.02434,37.18711],[127.02485,37.18277],[127.02904,37.1808],[127.03271,37.18318]]]}},{"type":"Feature","properties":{"h3":"8830e02c65fffff","emd_code":"4137055000","emd_name":"세마동","area_km2":0.5069,"edge":false,"slope_mean":13.74,"elev_mean":76.0,"flood_hist_n":0,"flood_depth_max_m":null,"flood_risk_100y":null,"semi_basement_r":null,"elderly_alone_r":0.0726,"bldg_age30_r":null,"shelter_min_walk":20,"pop":31891,"hh":13814,"elderly65_r":0.1287,"single_hh_r":0.3597,"source_level":"emd","flood_years":[],"landslide_hist_n":0},"geometry":{"type":"Polygon","coordinates":[[[127.02169,37.17605],[127.02118,37.18039],[127.017,37.18235],[127.01332,37.17998],[127.01383,37.17564],[127.01802,37.17367],[127.02169,37.17605]]]}},{"type":"Feature","properties":{"h3":"8830e02c67fffff","emd_code":"4137055000","emd_name":"세마동","area_km2":0.507,"edge":false,"slope_mean":10.39,"elev_mean":63.0,"flood_hist_n":0,"flood_depth_max_m":null,"flood_risk_100y":null,"semi_basement_r":null,"elderly_alone_r":0.0726,"bldg_age30_r":null,"shelter_min_walk":17,"pop":31891,"hh":13814,"elderly65_r":0.1287,"single_hh_r":0.3597,"source_level":"emd","flood_years":[],"landslide_hist_n":0},"geometry":{"type":"Polygon","coordinates":[[[127.02955,37.17646],[127.02904,37.1808],[127.02485,37.18277],[127.02118,37.18039],[127.02169,37.17605],[127.02587,37.17408],[127.02955,37.17646]]]}},{"type":"Feature","properties":{"h3":"8830e02c69fffff","emd_code":"4137055000","emd_name":"세마동","area_km2":0.5069,"edge":false,"slope_mean":8.02,"elev_mean":37.6,"flood_hist_n":0,"flood_depth_max_m":null,"flood_risk_100y":null,"semi_basement_r":null,"elderly_alone_r":0.0726,"bldg_age30_r":null,"shelter_min_walk":19,"pop":31891,"hh":13814,"elderly65_r":0.1287,"single_hh_r":0.3597,"source_level":"emd","flood_years":[],"landslide_hist_n":0},"geometry":{"type":"Polygon","coordinates":[[[127.02016,37.18907],[127.01965,37.19341],[127.01546,37.19537],[127.01179,37.193],[127.0123,37.18866],[127.01648,37.18669],[127.02016,37.18907]]]}},{"type":"Feature","properties":{"h3":"8830e02c6bfffff","emd_code":"4137055000","emd_name":"세마동","area_km2":0.507,"edge":false,"slope_mean":14.03,"elev_mean":85.8,"flood_hist_n":0,"flood_depth_max_m":null,"flood_risk_100y":null,"semi_basement_r":null,"elderly_alone_r":0.0726,"bldg_age30_r":null,"shelter_min_walk":13,"pop":31891,"hh":13814,"elderly65_r":0.1287,"single_hh_r":0.3597,"source_level":"emd","flood_years":[],"landslide_hist_n":0},"geometry":{"type":"Polygon","coordinates":[[[127.02802,37.18948],[127.02751,37.19383],[127.02332,37.19579],[127.01965,37.19341],[127.02016,37.18907],[127.02434,37.18711],[127.02802,37.18948]]]}},{"type":"Feature","properties":{"h3":"8830e02c6dfffff","emd_code":"4137055000","emd_name":"세마동","area_km2":0.5068,"edge":false,"slope_mean":10.72,"elev_mean":58.6,"flood_hist_n":0,"flood_depth_max_m":null,"flood_risk_100y":null,"semi_basement_r":null,"elderly_alone_r":0.0726,"bldg_age30_r":null,"shelter_min_walk":30,"pop":31891,"hh":13814,"elderly65_r":0.1287,"single_hh_r":0.3597,"source_level":"emd","flood_years":[],"landslide_hist_n":0},"geometry":{"type":"Polygon","coordinates":[[[127.017,37.18235],[127.01648,37.18669],[127.0123,37.18866],[127.00863,37.18628],[127.00914,37.18194],[127.01332,37.17998],[127.017,37.18235]]]}},{"type":"Feature","properties":{"h3":"8830e02ce5fffff","emd_code":"4137054600","emd_name":"신장2동","area_km2":0.5076,"edge":true,"slope_mean":14.06,"elev_mean":71.5,"flood_hist_n":0,"flood_depth_max_m":null,"flood_risk_100y":null,"semi_basement_r":null,"elderly_alone_r":0.1015,"bldg_age30_r":null,"shelter_min_walk":13,"pop":22546,"hh":9929,"elderly65_r":0.1517,"single_hh_r":0.371,"source_level":"emd","flood_years":[],"landslide_hist_n":0},"geometry":{"type":"Polygon","coordinates":[[[127.07672,37.17893],[127.07621,37.18327],[127.07202,37.18524],[127.06835,37.18286],[127.06885,37.17852],[127.07304,37.17655],[127.07672,37.17893]]]}},{"type":"Feature","properties":{"h3":"8830e02cedfffff","emd_code":"4137055000","emd_name":"세마동","area_km2":0.5076,"edge":true,"slope_mean":9.31,"elev_mean":63.6,"flood_hist_n":0,"flood_depth_max_m":null,"flood_risk_100y":null,"semi_basement_r":null,"elderly_alone_r":0.0726,"bldg_age30_r":null,"shelter_min_walk":11,"pop":31891,"hh":13814,"elderly65_r":0.1287,"single_hh_r":0.3597,"source_level":"emd","flood_years":[],"landslide_hist_n":0},"geometry":{"type":"Polygon","coordinates":[[[127.07202,37.18524],[127.07152,37.18958],[127.06733,37.19155],[127.06365,37.18917],[127.06416,37.18483],[127.06835,37.18286],[127.07202,37.18524]]]}},{"type":"Feature","properties":{"h3":"8830e02d11fffff","emd_code":"4137056000","emd_name":"초평동","area_km2":0.507,"edge":false,"slope_mean":9.38,"elev_mean":50.2,"flood_hist_n":0,"flood_depth_max_m":null,"flood_risk_100y":null,"semi_basement_r":null,"elderly_alone_r":0.0705,"bldg_age30_r":null,"shelter_min_walk":18,"pop":30730,"hh":14274,"elderly65_r":0.1121,"single_hh_r":0.398,"source_level":"emd","flood_years":[],"landslide_hist_n":0},"geometry":{"type":"Polygon","coordinates":[[[127.04046,37.15083],[127.03995,37.15517],[127.03577,37.15713],[127.0321,37.15476],[127.03261,37.15042],[127.03679,37.14845],[127.04046,37.15083]]]}},{"type":"Feature","properties":{"h3":"8830e02d13fffff","emd_code":"4137056000","emd_name":"초평동","area_km2":0.5072,"edge":false,"slope_mean":7.66,"elev_mean":45.7,"flood_hist_n":0,"flood_depth_max_m":null,"flood_risk_100y":null,"semi_basement_r":null,"elderly_alone_r":0.0705,"bldg_age30_r":null,"shelter_min_walk":13,"pop":30730,"hh":14274,"elderly65_r":0.1121,"single_hh_r":0.398,"source_level":"emd","flood_years":[],"landslide_hist_n":0},"geometry":{"type":"Polygon","coordinates":[[[127.04832,37.15124],[127.04781,37.15558],[127.04363,37.15754],[127.03995,37.15517],[127.04046,37.15083],[127.04465,37.14886],[127.04832,37.15124]]]}},{"type":"Feature","properties":{"h3":"8830e02d15fffff","emd_code":"4137056000","emd_name":"초평동","area_km2":0.507,"edge":false,"slope_mean":7.08,"elev_mean":41.4,"flood_hist_n":0,"flood_depth_max_m":null,"flood_risk_100y":null,"semi_basement_r":null,"elderly_alone_r":0.0705,"bldg_age30_r":null,"shelter_min_walk":14,"pop":30730,"hh":14274,"elderly65_r":0.1121,"single_hh_r":0.398,"source_level":"emd","flood_years":[],"landslide_hist_n":0},"geometry":{"type":"Polygon","coordinates":[[[127.0373,37.14411],[127.03679,37.14845],[127.03261,37.15042],[127.02893,37.14804],[127.02944,37.1437],[127.03363,37.14173],[127.0373,37.14411]]]}},{"type":"Feature","properties":{"h3":"8830e02d17fffff","emd_code":"4137056000","emd_name":"초평동","area_km2":0.5071,"edge":false,"slope_mean":5.77,"elev_mean":32.6,"flood_hist_n":0,"flood_depth_max_m":null,"flood_risk_100y":null,"semi_basement_r":null,"elderly_alone_r":0.0705,"bldg_age30_r":null,"shelter_min_walk":5,"pop":30730,"hh":14274,"elderly65_r":0.1121,"single_hh_r":0.398,"source_level":"emd","flood_years":[],"landslide_hist_n":0},"geometry":{"type":"Polygon","coordinates":[[[127.04516,37.14452],[127.04465,37.14886],[127.04046,37.15083],[127.03679,37.14845],[127.0373,37.14411],[127.04148,37.14214],[127.04516,37.14452]]]}},{"type":"Feature","properties":{"h3":"8830e02d19fffff","emd_code":"4137053000","emd_name":"남촌동","area_km2":0.507,"edge":false,"slope_mean":11.56,"elev_mean":74.8,"flood_hist_n":0,"flood_depth_max_m":null,"flood_risk_100y":null,"semi_basement_r":null,"elderly_alone_r":0.0677,"bldg_age30_r":null,"shelter_min_walk":17,"pop":32001,"hh":18296,"elderly65_r":0.0982,"single_hh_r":0.6177,"source_level":"emd","flood_years":[],"landslide_hist_n":0},"geometry":{"type":"Polygon","coordinates":[[[127.03577,37.15713],[127.03526,37.16147],[127.03108,37.16344],[127.0274,37.16106],[127.02791,37.15672],[127.0321,37.15476],[127.03577,37.15713]]]}},{"type":"Feature","properties":{"h3":"8830e02d1bfffff","emd_code":"4137053000","emd_name":"남촌동","area_km2":0.5071,"edge":false,"slope_mean":6.63,"elev_mean":47.2,"flood_hist_n":0,"flood_depth_max_m":null,"flood_risk_100y":null,"semi_basement_r":null,"elderly_alone_r":0.0677,"bldg_age30_r":null,"shelter_min_walk":19,"pop":32001,"hh":18296,"elderly65_r":0.0982,"single_hh_r":0.6177,"source_level":"emd","flood_years":[],"landslide_hist_n":0},"geometry":{"type":"Polygon","coordinates":[[[127.04363,37.15754],[127.04312,37.16188],[127.03894,37.16385],[127.03526,37.16147],[127.03577,37.15713],[127.03995,37.15517],[127.04363,37.15754]]]}},{"type":"Feature","properties":{"h3":"8830e02d1dfffff","emd_code":"4137056000","emd_name":"초평동","area_km2":0.5069,"edge":true,"slope_mean":10.14,"elev_mean":56.4,"flood_hist_n":0,"flood_depth_max_m":null,"flood_risk_100y":null,"semi_basement_r":null,"elderly_alone_r":0.0705,"bldg_age30_r":null,"shelter_min_walk":24,"pop":30730,"hh":14274,"elderly65_r":0.1121,"single_hh_r":0.398,"source_level":"emd","flood_years":[],"landslide_hist_n":0},"geometry":{"type":"Polygon","coordinates":[[[127.03261,37.15042],[127.0321,37.15476],[127.02791,37.15672],[127.02424,37.15435],[127.02475,37.15001],[127.02893,37.14804],[127.03261,37.15042]]]}},{"type":"Feature","properties":{"h3":"8830e02d31fffff","emd_code":"4137056000","emd_name":"초평동","area_km2":0.507,"edge":true,"slope_mean":6.28,"elev_mean":37.9,"flood_hist_n":0,"flood_depth_max_m":null,"flood_risk_100y":null,"semi_basement_r":null,"elderly_alone_r":0.0705,"bldg_age30_r":null,"shelter_min_walk":9,"pop":30730,"hh":14274,"elderly65_r":0.1121,"single_hh_r":0.398,"source_level":"emd","flood_years":[],"landslide_hist_n":0},"geometry":{"type":"Polygon","coordinates":[[[127.03883,37.13109],[127.03832,37.13543],[127.03414,37.13739],[127.03046,37.13502],[127.03097,37.13068],[127.03516,37.12871],[127.03883,37.13109]]]}},{"type":"Feature","properties":{"h3":"8830e02d33fffff","emd_code":"4137056000","emd_name":"초평동","area_km2":0.5071,"edge":false,"slope_mean":8.68,"elev_mean":38.2,"flood_hist_n":0,"flood_depth_max_m":null,"flood_risk_100y":null,"semi_basement_r":null,"elderly_alone_r":0.0705,"bldg_age30_r":null,"shelter_min_walk":15,"pop":30730,"hh":14274,"elderly65_r":0.1121,"single_hh_r":0.398,"source_level":"emd","flood_years":[],"landslide_hist_n":0},"geometry":{"type":"Polygon","coordinates":[[[127.04668,37.1315],[127.04617,37.13584],[127.04199,37.1378],[127.03832,37.13543],[127.03883,37.13109],[127.04301,37.12912],[127.04668,37.1315]]]}},{"type":"Feature","properties":{"h3":"8830e02d37fffff","emd_code":"4137056000","emd_name":"초평동","area_km2":0.507,"edge":true,"slope_mean":8.42,"elev_mean":40.5,"flood_hist_n":0,"flood_depth_max_m":null,"flood_risk_100y":null,"semi_basement_r":null,"elderly_alone_r":0.0705,"bldg_age30_r":null,"shelter_min_walk":6,"pop":30730,"hh":14274,"elderly65_r":0.1121,"single_hh_r":0.398,"source_level":"emd","flood_years":[],"landslide_hist_n":0},"geometry":{"type":"Polygon","coordinates":[[[127.04352,37.12478],[127.04301,37.12912],[127.03883,37.13109],[127.03516,37.12871],[127.03566,37.12437],[127.03985,37.12241],[127.04352,37.12478]]]}},{"type":"Feature","properties":{"h3":"8830e02d39fffff","emd_code":"4137056000","emd_name":"초평동","area_km2":0.5069,"edge":true,"slope_mean":4.51,"elev_mean":33.8,"flood_hist_n":0,"flood_depth_max_m":null,"flood_risk_100y":null,"semi_basement_r":null,"elderly_alone_r":0.0705,"bldg_age30_r":null,"shelter_min_walk":10,"pop":30730,"hh":14274,"elderly65_r":0.1121,"single_hh_r":0.398,"source_level":"emd","flood_years":[],"landslide_hist_n":0},"geometry":{"type":"Polygon","coordinates":[[[127.03414,37.13739],[127.03363,37.14173],[127.02944,37.1437],[127.02577,37.14132],[127.02628,37.13698],[127.03046,37.13502],[127.03414,37.13739]]]}},{"type":"Feature","properties":{"h3":"8830e02d3bfffff","emd_code":"4137056000","emd_name":"초평동","area_km2":0.507,"edge":false,"slope_mean":5.73,"elev_mean":35.6,"flood_hist_n":0,"flood_depth_max_m":null,"flood_risk_100y":null,"semi_basement_r":null,"elderly_alone_r":0.0705,"bldg_age30_r":null,"shelter_min_walk":10,"pop":30730,"hh":14274,"elderly65_r":0.1121,"single_hh_r":0.398,"source_level":"emd","flood_years":[],"landslide_hist_n":0},"geometry":{"type":"Polygon","coordinates":[[[127.04199,37.1378],[127.04148,37.14214],[127.0373,37.14411],[127.03363,37.14173],[127.03414,37.13739],[127.03832,37.13543],[127.04199,37.1378]]]}},{"type":"Feature","properties":{"h3":"8830e02d51fffff","emd_code":"4137055000","emd_name":"세마동","area_km2":0.5068,"edge":true,"slope_mean":11.82,"elev_mean":73.8,"flood_hist_n":0,"flood_depth_max_m":null,"flood_risk_100y":null,"semi_basement_r":null,"elderly_alone_r":0.0726,"bldg_age30_r":null,"shelter_min_walk":12,"pop":31891,"hh":13814,"elderly65_r":0.1287,"single_hh_r":0.3597,"source_level":"emd","flood_years":[],"landslide_hist_n":0},"geometry":{"type":"Polygon","coordinates":[[[127.02322,37.16303],[127.02271,37.16737],[127.01853,37.16933],[127.01486,37.16696],[127.01537,37.16262],[127.01955,37.16065],[127.02322,37.16303]]]}},{"type":"Feature","properties":{"h3":"8830e02d53fffff","emd_code":"4137053000","emd_name":"남촌동","area_km2":0.5069,"edge":false,"slope_mean":10.98,"elev_mean":72.4,"flood_hist_n":0,"flood_depth_max_m":null,"flood_risk_100y":null,"semi_basement_r":null,"elderly_alone_r":0.0677,"bldg_age30_r":null,"shelter_min_walk":5,"pop":32001,"hh":18296,"elderly65_r":0.0982,"single_hh_r":0.6177,"source_level":"emd","flood_years":[],"landslide_hist_n":0},"geometry":{"type":"Polygon","coordinates":[[[127.03108,37.16344],[127.03057,37.16778],[127.02638,37.16974],[127.02271,37.16737],[127.02322,37.16303],[127.0274,37.16106],[127.03108,37.16344]]]}},{"type":"Feature","properties":{"h3":"8830e02d57fffff","emd_code":"4137053000","emd_name":"남촌동","area_km2":0.5069,"edge":true,"slope_mean":8.52,"elev_mean":49.5,"flood_hist_n":0,"flood_depth_max_m":null,"flood_risk_100y":null,"semi_basement_r":null,"elderly_alone_r":0.0677,"bldg_age30_r":null,"shelter_min_walk":17,"pop":32001,"hh":18296,"elderly65_r":0.0982,"single_hh_r":0.6177,"source_level":"emd","flood_years":[],"landslide_hist_n":0},"geometry":{"type":"Polygon","coordinates":[[[127.02791,37.15672],[127.0274,37.16106],[127.02322,37.16303],[127.01955,37.16065],[127.02006,37.15631],[127.02424,37.15435],[127.02791,37.15672]]]}},{"type":"Feature","properties":{"h3":"8830e02d59fffff","emd_code":"4137055000","emd_name":"세마동","area_km2":0.5068,"edge":false,"slope_mean":12.91,"elev_mean":65.8,"flood_hist_n":0,"flood_depth_max_m":null,"flood_risk_100y":null,"semi_basement_r":null,"elderly_alone_r":0.0726,"bldg_age30_r":null,"shelter_min_walk":18,"pop":31891,"hh":13814,"elderly65_r":0.1287,"single_hh_r":0.3597,"source_level":"emd","flood_years":[],"landslide_hist_n":0},"geometry":{"type":"Polygon","coordinates":[[[127.01853,37.16933],[127.01802,37.17367],[127.01383,37.17564],[127.01016,37.17326],[127.01067,37.16892],[127.01486,37.16696],[127.01853,37.16933]]]}},{"type":"Feature","properties":{"h3":"8830e02d5bfffff","emd_code":"4137055000","emd_name":"세마동","area_km2":0.5069,"edge":false,"slope_mean":10.49,"elev_mean":51.5,"flood_hist_n":0,"flood_depth_max_m":null,"flood_risk_100y":null,"semi_basement_r":null,"elderly_alone_r":0.0726,"bldg_age30_r":null,"shelter_min_walk":9,"pop":31891,"hh":13814,"elderly65_r":0.1287,"single_hh_r":0.3597,"source_level":"emd","flood_years":[],"landslide_hist_n":0},"geometry":{"type":"Polygon","coordinates":[[[127.02638,37.16974],[127.02587,37.17408],[127.02169,37.17605],[127.01802,37.17367],[127.01853,37.16933],[127.02271,37.16737],[127.02638,37.16974]]]}},{"type":"Feature","properties":{"h3":"8830e02d5dfffff","emd_code":"4137055000","emd_name":"세마동","area_km2":0.5067,"edge":true,"slope_mean":11.35,"elev_mean":62.2,"flood_hist_n":0,"flood_depth_max_m":null,"flood_risk_100y":null,"semi_basement_r":null,"elderly_alone_r":0.0726,"bldg_age30_r":null,"shelter_min_walk":22,"pop":31891,"hh":13814,"elderly65_r":0.1287,"single_hh_r":0.3597,"source_level":"emd","flood_years":[],"landslide_hist_n":0},"geometry":{"type":"Polygon","coordinates":[[[127.01537,37.16262],[127.01486,37.16696],[127.01067,37.16892],[127.007,37.16654],[127.00751,37.1622],[127.0117,37.16024],[127.01537,37.16262]]]}},{"type":"Feature","properties":{"h3":"8830e02d81fffff","emd_code":"4137052300","emd_name":"대원1동","area_km2":0.5075,"edge":false,"slope_mean":3.75,"elev_mean":22.4,"flood_hist_n":0,"flood_depth_max_m":null,"flood_risk_100y":null,"semi_basement_r":null,"elderly_alone_r":0.0865,"bldg_age30_r":null,"shelter_min_walk":3,"pop":44972,"hh":21620,"elderly65_r":0.1511,"single_hh_r":0.457,"source_level":"emd","flood_years":[],"landslide_hist_n":0},"geometry":{"type":"Polygon","coordinates":[[[127.07659,37.14615],[127.07608,37.15049],[127.0719,37.15246],[127.06822,37.15009],[127.06873,37.14574],[127.07292,37.14378],[127.07659,37.14615]]]}},{"type":"Feature","properties":{"h3":"8830e02d83fffff","emd_code":"4137052600","emd_name":"대원2동","area_km2":0.5076,"edge":false,"slope_mean":3.7,"elev_mean":25.8,"flood_hist_n":0,"flood_depth_max_m":null,"flood_risk_100y":null,"semi_basement_r":null,"elderly_alone_r":0.0532,"bldg_age30_r":null,"shelter_min_walk":4,"pop":24504,"hh":10484,"elderly65_r":0.1043,"single_hh_r":0.3409,"source_level":"emd","flood_years":[],"landslide_hist_n":0},"geometry":{"type":"Polygon","coordinates":[[[127.08445,37.14656],[127.08395,37.1509],[127.07976,37.15287],[127.07608,37.15049],[127.07659,37.14615],[127.08078,37.14418],[127.08445,37.14656]]]}},{"type":"Feature","properties":{"h3":"8830e02d85fffff","emd_code":"4137052300","emd_name":"대원1동","area_km2":0.5075,"edge":false,"slope_mean":3.91,"elev_mean":21.1,"flood_hist_n":0,"flood_depth_max_m":null,"flood_risk_100y":null,"semi_basement_r":null,"elderly_alone_r":0.0865,"bldg_age30_r":null,"shelter_min_walk":1,"pop":44972,"hh":21620,"elderly65_r":0.1511,"single_hh_r":0.457,"source_level":"emd","flood_years":[],"landslide_hist_n":0},"geometry":{"type":"Polygon","coordinates":[[[127.07342,37.13943],[127.07292,37.14378],[127.06873,37.14574],[127.06505,37.14337],[127.06556,37.13903],[127.06975,37.13706],[127.07342,37.13943]]]}},{"type":"Feature","properties":{"h3":"8830e02d87fffff","emd_code":"4137052300","emd_name":"대원1동","area_km2":0.5076,"edge":false,"slope_mean":4.03,"elev_mean":27.1,"flood_hist_n":0,"flood_depth_max_m":null,"flood_risk_100y":null,"semi_basement_r":null,"elderly_alone_r":0.0865,"bldg_age30_r":null,"shelter_min_walk":2,"pop":44972,"hh":21620,"elderly65_r":0.1511,"single_hh_r":0.457,"source_level":"emd","flood_years":[],"landslide_hist_n":0},"geometry":{"type":"Polygon","coordinates":[[[127.08128,37.13984],[127.08078,37.14418],[127.07659,37.14615],[127.07292,37.14378],[127.07342,37.13943],[127.07761,37.13747],[127.08128,37.13984]]]}},{"type":"Feature","properties":{"h3":"8830e02d89fffff","emd_code":"4137051000","emd_name":"중앙동","area_km2":0.5075,"edge":false,"slope_mean":3.63,"elev_mean":21.1,"flood_hist_n":0,"flood_depth_max_m":null,"flood_risk_100y":null,"semi_basement_r":null,"elderly_alone_r":0.1023,"bldg_age30_r":null,"shelter_min_walk":7,"pop":32775,"hh":14053,"elderly65_r":0.1604,"single_hh_r":0.3409,"source_level":"emd","flood_years":[],"landslide_hist_n":0},"geometry":{"type":"Polygon","coordinates":[[[127.0719,37.15246],[127.07139,37.1568],[127.06721,37.15877],[127.06353,37.1564],[127.06404,37.15205],[127.06822,37.15009],[127.0719,37.15246]]]}},{"type":"Feature","properties":{"h3":"8830e02d8bfffff","emd_code":"4137051000","emd_name":"중앙동","area_km2":0.5076,"edge":false,"slope_mean":3.75,"elev_mean":22.9,"flood_hist_n":0,"flood_depth_max_m":null,"flood_risk_100y":null,"semi_basement_r":null,"elderly_alone_r":0.1023,"bldg_age30_r":null,"shelter_min_walk":2,"pop":32775,"hh":14053,"elderly65_r":0.1604,"single_hh_r":0.3409,"source_level":"emd","flood_years":[],"landslide_hist_n":0},"geometry":{"type":"Polygon","coordinates":[[[127.07976,37.15287],[127.07926,37.15721],[127.07507,37.15918],[127.07139,37.1568],[127.0719,37.15246],[127.07608,37.15049],[127.07976,37.15287]]]}},{"type":"Feature","properties":{"h3":"8830e02d8dfffff","emd_code":"4137053000","emd_name":"남촌동","area_km2":0.5074,"edge":false,"slope_mean":3.14,"elev_mean":18.8,"flood_hist_n":0,"flood_depth_max_m":null,"flood_risk_100y":null,"semi_basement_r":null,"elderly_alone_r":0.0677,"bldg_age30_r":null,"shelter_min_walk":6,"pop":32001,"hh":18296,"elderly65_r":0.0982,"single_hh_r":0.6177,"source_level":"emd","flood_years":[],"landslide_hist_n":0},"geometry":{"type":"Polygon","coordinates":[[[127.06873,37.14574],[127.06822,37.15009],[127.06404,37.15205],[127.06036,37.14968],[127.06087,37.14534],[127.06505,37.14337],[127.06873,37.14574]]]}},{"type":"Feature","properties":{"h3":"8830e02d91fffff","emd_code":"4137051000","emd_name":"중앙동","area_km2":0.5078,"edge":false,"slope_mean":7.28,"elev_mean":43.5,"flood_hist_n":0,"flood_depth_max_m":null,"flood_risk_100y":null,"semi_basement_r":null,"elderly_alone_r":0.1023,"bldg_age30_r":null,"shelter_min_walk":15,"pop":32775,"hh":14053,"elderly65_r":0.1604,"single_hh_r":0.3409,"source_level":"emd","flood_years":[],"landslide_hist_n":0},"geometry":{"type":"Polygon","coordinates":[[[127.09549,37.15368],[127.09498,37.15803],[127.0908,37.16],[127.08712,37.15762],[127.08763,37.15328],[127.09181,37.15131],[127.09549,37.15368]]]}},{"type":"Feature","properties":{"h3":"8830e02d93fffff","emd_code":"4137051000","emd_name":"중앙동","area_km2":0.5079,"edge":true,"slope_mean":10.65,"elev_mean":58.0,"flood_hist_n":0,"flood_depth_max_m":null,"flood_risk_100y":null,"semi_basement_r":null,"elderly_alone_r":0.1023,"bldg_age30_r":null,"shelter_min_walk":14,"pop":32775,"hh":14053,"elderly65_r":0.1604,"single_hh_r":0.3409,"source_level":"emd","flood_years":[],"landslide_hist_n":0},"geometry":{"type":"Polygon","coordinates":[[[127.10336,37.15409],[127.10285,37.15843],[127.09866,37.1604],[127.09498,37.15803],[127.09549,37.15368],[127.09968,37.15172],[127.10336,37.15409]]]}},{"type":"Feature","properties":{"h3":"8830e02d95fffff","emd_code":"4137051000","emd_name":"중앙동","area_km2":0.5078,"edge":false,"slope_mean":7.55,"elev_mean":44.4,"flood_hist_n":0,"flood_depth_max_m":null,"flood_risk_100y":null,"semi_basement_r":null,"elderly_alone_r":0.1023,"bldg_age30_r":null,"shelter_min_walk":10,"pop":32775,"hh":14053,"elderly65_r":0.1604,"single_hh_r":0.3409,"source_level":"emd","flood_years":[],"landslide_hist_n":0},"geometry":{"type":"Polygon","coordinates":[[[127.09232,37.14697],[127.09181,37.15131],[127.08763,37.15328],[127.08395,37.1509],[127.08445,37.14656],[127.08864,37.14459],[127.09232,37.14697]]]}},{"type":"Feature","properties":{"h3":"8830e02d97fffff","emd_code":"4137051000","emd_name":"중앙동","area_km2":0.5079,"edge":false,"slope_mean":16.4,"elev_mean":89.0,"flood_hist_n":0,"flood_depth_max_m":null,"flood_risk_100y":null,"semi_basement_r":null,"elderly_alone_r":0.1023,"bldg_age30_r":null,"shelter_min_walk":16,"pop":32775,"hh":14053,"elderly65_r":0.1604,"single_hh_r":0.3409,"source_level":"emd","flood_years":[],"landslide_hist_n":0},"geometry":{"type":"Polygon","coordinates":[[[127.10018,37.14737],[127.09968,37.15172],[127.09549,37.15368],[127.09181,37.15131],[127.09232,37.14697],[127.0965,37.145],[127.10018,37.14737]]]}},{"type":"Feature","properties":{"h3":"8830e02d99fffff","emd_code":"4137051000","emd_name":"중앙동","area_km2":0.5078,"edge":true,"slope_mean":3.34,"elev_mean":26.1,"flood_hist_n":0,"flood_depth_max_m":null,"flood_risk_100y":null,"semi_basement_r":null,"elderly_alone_r":0.1023,"bldg_age30_r":null,"shelter_min_walk":7,"pop":32775,"hh":14053,"elderly65_r":0.1604,"single_hh_r":0.3409,"source_level":"emd","flood_years":[],"landslide_hist_n":0},"geometry":{"type":"Polygon","coordinates":[[[127.0908,37.16],[127.09029,37.16434],[127.08611,37.16631],[127.08243,37.16393],[127.08293,37.15959],[127.08712,37.15762],[127.0908,37.16]]]}},{"type":"Feature","properties":{"h3":"8830e02d9bfffff","emd_code":"4137051000","emd_name":"중앙동","area_km2":0.5079,"edge":true,"slope_mean":4.22,"elev_mean":36.2,"flood_hist_n":0,"flood_depth_max_m":null,"flood_risk_100y":null,"semi_basement_r":null,"elderly_alone_r":0.1023,"bldg_age30_r":null,"shelter_min_walk":18,"pop":32775,"hh":14053,"elderly65_r":0.1604,"single_hh_r":0.3409,"source_level":"emd","flood_years":[],"landslide_hist_n":0},"geometry":{"type":"Polygon","coordinates":[[[127.09866,37.1604],[127.09816,37.16475],[127.09397,37.16672],[127.09029,37.16434],[127.0908,37.16],[127.09498,37.15803],[127.09866,37.1604]]]}},{"type":"Feature","properties":{"h3":"8830e02d9dfffff","emd_code":"4137051000","emd_name":"중앙동","area_km2":0.5077,"edge":false,"slope_mean":5.0,"elev_mean":30.0,"flood_hist_n":0,"flood_depth_max_m":null,"flood_risk_100y":null,"semi_basement_r":null,"elderly_alone_r":0.1023,"bldg_age30_r":null,"shelter_min_walk":7,"pop":32775,"hh":14053,"elderly65_r":0.1604,"single_hh_r":0.3409,"source_level":"emd","flood_years":[],"landslide_hist_n":0},"geometry":{"type":"Polygon","coordinates":[[[127.08763,37.15328],[127.08712,37.15762],[127.08293,37.15959],[127.07926,37.15721],[127.07976,37.15287],[127.08395,37.1509],[127.08763,37.15328]]]}},{"type":"Feature","properties":{"h3":"8830e02da1fffff","emd_code":"4137052300","emd_name":"대원1동","area_km2":0.5075,"edge":false,"slope_mean":4.27,"elev_mean":29.2,"flood_hist_n":0,"flood_depth_max_m":null,"flood_risk_100y":null,"semi_basement_r":null,"elderly_alone_r":0.0865,"bldg_age30_r":null,"shelter_min_walk":3,"pop":44972,"hh":21620,"elderly65_r":0.1511,"single_hh_r":0.457,"source_level":"emd","flood_years":[],"landslide_hist_n":0},"geometry":{"type":"Polygon","coordinates":[[[127.07494,37.12641],[127.07444,37.13075],[127.07025,37.13272],[127.06658,37.13034],[127.06709,37.126],[127.07127,37.12403],[127.07494,37.12641]]]}},{"type":"Feature","properties":{"h3":"8830e02da3fffff","emd_code":"4137052300","emd_name":"대원1동","area_km2":0.5076,"edge":false,"slope_mean":5.23,"elev_mean":33.7,"flood_hist_n":0,"flood_depth_max_m":null,"flood_risk_100y":null,"semi_basement_r":null,"elderly_alone_r":0.0865,"bldg_age30_r":null,"shelter_min_walk":5,"pop":44972,"hh":21620,"elderly65_r":0.1511,"single_hh_r":0.457,"source_level":"emd","flood_years":[],"landslide_hist_n":0},"geometry":{"type":"Polygon","coordinates":[[[127.0828,37.12681],[127.0823,37.13116],[127.07811,37.13312],[127.07444,37.13075],[127.07494,37.12641],[127.07913,37.12444],[127.0828,37.12681]]]}},{"type":"Feature","properties":{"h3":"8830e02da9fffff","emd_code":"4137052300","emd_name":"대원1동","area_km2":0.5074,"edge":false,"slope_mean":3.92,"elev_mean":20.9,"flood_hist_n":0,"flood_depth_max_m":null,"flood_risk_100y":null,"semi_basement_r":null,"elderly_alone_r":0.0865,"bldg_age30_r":null,"shelter_min_walk":3,"pop":44972,"hh":21620,"elderly65_r":0.1511,"single_hh_r":0.457,"source_level":"emd","flood_years":[],"landslide_hist_n":0},"geometry":{"type":"Polygon","coordinates":[[[127.07025,37.13272],[127.06975,37.13706],[127.06556,37.13903],[127.06189,37.13665],[127.0624,37.13231],[127.06658,37.13034],[127.07025,37.13272]]]}},{"type":"Feature","properties":{"h3":"8830e02dabfffff","emd_code":"4137052300","emd_name":"대원1동","area_km2":0.5075,"edge":false,"slope_mean":5.64,"elev_mean":33.5,"flood_hist_n":0,"flood_depth_max_m":null,"flood_risk_100y":null,"semi_basement_r":null,"elderly_alone_r":0.0865,"bldg_age30_r":null,"shelter_min_walk":1,"pop":44972,"hh":21620,"elderly65_r":0.1511,"single_hh_r":0.457,"source_level":"emd","flood_years":[],"landslide_hist_n":0},"geometry":{"type":"Polygon","coordinates":[[[127.07811,37.13312],[127.07761,37.13747],[127.07342,37.13943],[127.06975,37.13706],[127.07025,37.13272],[127.07444,37.13075],[127.07811,37.13312]]]}},{"type":"Feature","properties":{"h3":"8830e02dadfffff","emd_code":"4137052300","emd_name":"대원1동","area_km2":0.5073,"edge":true,"slope_mean":1.47,"elev_mean":16.0,"flood_hist_n":0,"flood_depth_max_m":null,"flood_risk_100y":null,"semi_basement_r":null,"elderly_alone_r":0.0865,"bldg_age30_r":null,"shelter_min_walk":7,"pop":44972,"hh":21620,"elderly65_r":0.1511,"single_hh_r":0.457,"source_level":"emd","flood_years":[],"landslide_hist_n":0},"geometry":{"type":"Polygon","coordinates":[[[127.06709,37.126],[127.06658,37.13034],[127.0624,37.13231],[127.05872,37.12994],[127.05923,37.12559],[127.06341,37.12363],[127.06709,37.126]]]}},{"type":"Feature","properties":{"h3":"8830e02db1fffff","emd_code":"4137052600","emd_name":"대원2동","area_km2":0.5077,"edge":true,"slope_mean":9.19,"elev_mean":52.1,"flood_hist_n":0,"flood_depth_max_m":null,"flood_risk_100y":null,"semi_basement_r":null,"elderly_alone_r":0.0532,"bldg_age30_r":null,"shelter_min_walk":9,"pop":24504,"hh":10484,"elderly65_r":0.1043,"single_hh_r":0.3409,"source_level":"emd","flood_years":[],"landslide_hist_n":0},"geometry":{"type":"Polygon","coordinates":[[[127.09384,37.13394],[127.09333,37.13828],[127.08915,37.14025],[127.08547,37.13787],[127.08597,37.13353],[127.09016,37.13156],[127.09384,37.13394]]]}},{"type":"Feature","properties":{"h3":"8830e02db3fffff","emd_code":"4137052600","emd_name":"대원2동","area_km2":0.5079,"edge":true,"slope_mean":14.79,"elev_mean":94.8,"flood_hist_n":0,"flood_depth_max_m":null,"flood_risk_100y":null,"semi_basement_r":null,"elderly_alone_r":0.0532,"bldg_age30_r":null,"shelter_min_walk":17,"pop":24504,"hh":10484,"elderly65_r":0.1043,"single_hh_r":0.3409,"source_level":"emd","flood_years":[],"landslide_hist_n":0},"geometry":{"type":"Polygon","coordinates":[[[127.1017,37.13434],[127.10119,37.13868],[127.09701,37.14065],[127.09333,37.13828],[127.09384,37.13394],[127.09802,37.13197],[127.1017,37.13434]]]}},{"type":"Feature","properties":{"h3":"8830e02db5fffff","emd_code":"4137052600","emd_name":"대원2동","area_km2":0.5077,"edge":false,"slope_mean":4.55,"elev_mean":36.9,"flood_hist_n":0,"flood_depth_max_m":null,"flood_risk_100y":null,"semi_basement_r":null,"elderly_alone_r":0.0532,"bldg_age30_r":null,"shelter_min_walk":2,"pop":24504,"hh":10484,"elderly65_r":0.1043,"single_hh_r":0.3409,"source_level":"emd","flood_years":[],"landslide_hist_n":0},"geometry":{"type":"Polygon","coordinates":[[[127.09067,37.12722],[127.09016,37.13156],[127.08597,37.13353],[127.0823,37.13116],[127.0828,37.12681],[127.08699,37.12484],[127.09067,37.12722]]]}},{"type":"Feature","properties":{"h3":"8830e02db7fffff","emd_code":"4137052600","emd_name":"대원2동","area_km2":0.5078,"edge":true,"slope_mean":11.08,"elev_mean":70.3,"flood_hist_n":0,"flood_depth_max_m":null,"flood_risk_100y":null,"semi_basement_r":null,"elderly_alone_r":0.0532,"bldg_age30_r":null,"shelter_min_walk":11,"pop":24504,"hh":10484,"elderly65_r":0.1043,"single_hh_r":0.3409,"source_level":"emd","flood_years":[],"landslide_hist_n":0},"geometry":{"type":"Polygon","coordinates":[[[127.09853,37.12762],[127.09802,37.13197],[127.09384,37.13394],[127.09016,37.13156],[127.09067,37.12722],[127.09485,37.12525],[127.09853,37.12762]]]}},{"type":"Feature","properties":{"h3":"8830e02db9fffff","emd_code":"4137052600","emd_name":"대원2동","area_km2":0.5077,"edge":false,"slope_mean":4.86,"elev_mean":33.8,"flood_hist_n":0,"flood_depth_max_m":null,"flood_risk_100y":null,"semi_basement_r":null,"elderly_alone_r":0.0532,"bldg_age30_r":null,"shelter_min_walk":3,"pop":24504,"hh":10484,"elderly65_r":0.1043,"single_hh_r":0.3409,"source_level":"emd","flood_years":[],"landslide_hist_n":0},"geometry":{"type":"Polygon","coordinates":[[[127.08915,37.14025],[127.08864,37.14459],[127.08445,37.14656],[127.08078,37.14418],[127.08128,37.13984],[127.08547,37.13787],[127.08915,37.14025]]]}},{"type":"Feature","properties":{"h3":"8830e02dbbfffff","emd_code":"4137052600","emd_name":"대원2동","area_km2":0.5078,"edge":false,"slope_mean":14.55,"elev_mean":68.5,"flood_hist_n":0,"flood_depth_max_m":null,"flood_risk_100y":null,"semi_basement_r":null,"elderly_alone_r":0.0532,"bldg_age30_r":null,"shelter_min_walk":8,"pop":24504,"hh":10484,"elderly65_r":0.1043,"single_hh_r":0.3409,"source_level":"emd","flood_years":[],"landslide_hist_n":0},"geometry":{"type":"Polygon","coordinates":[[[127.09701,37.14065],[127.0965,37.145],[127.09232,37.14697],[127.08864,37.14459],[127.08915,37.14025],[127.09333,37.13828],[127.09701,37.14065]]]}},{"type":"Feature","properties":{"h3":"8830e02dbdfffff","emd_code":"4137052600","emd_name":"대원2동","area_km2":0.5076,"edge":false,"slope_mean":4.52,"elev_mean":38.1,"flood_hist_n":0,"flood_depth_max_m":null,"flood_risk_100y":null,"semi_basement_r":null,"elderly_alone_r":0.0532,"bldg_age30_r":null,"shelter_min_walk":2,"pop":24504,"hh":10484,"elderly65_r":0.1043,"single_hh_r":0.3409,"source_level":"emd","flood_years":[],"landslide_hist_n":0},"geometry":{"type":"Polygon","coordinates":[[[127.08597,37.13353],[127.08547,37.13787],[127.08128,37.13984],[127.07761,37.13747],[127.07811,37.13312],[127.0823,37.13116],[127.08597,37.13353]]]}},{"type":"Feature","properties":{"h3":"8830e02dc1fffff","emd_code":"4137053000","emd_name":"남촌동","area_km2":0.5073,"edge":false,"slope_mean":6.3,"elev_mean":41.4,"flood_hist_n":0,"flood_depth_max_m":null,"flood_risk_100y":null,"semi_basement_r":null,"elderly_alone_r":0.0677,"bldg_age30_r":null,"shelter_min_walk":2,"pop":32001,"hh":18296,"elderly65_r":0.0982,"single_hh_r":0.6177,"source_level":"emd","flood_years":[],"landslide_hist_n":0},"geometry":{"type":"Polygon","coordinates":[[[127.05935,37.15836],[127.05884,37.1627],[127.05465,37.16467],[127.05098,37.1623],[127.05149,37.15795],[127.05567,37.15599],[127.05935,37.15836]]]}},{"type":"Feature","properties":{"h3":"8830e02dc3fffff","emd_code":"4137054300","emd_name":"신장1동","area_km2":0.5074,"edge":false,"slope_mean":6.07,"elev_mean":34.0,"flood_hist_n":0,"flood_depth_max_m":null,"flood_risk_100y":null,"semi_basement_r":null,"elderly_alone_r":0.0934,"bldg_age30_r":null,"shelter_min_walk":6,"pop":35328,"hh":16019,"elderly65_r":0.1584,"single_hh_r":0.4,"source_level":"emd","flood_years":[],"landslide_hist_n":0},"geometry":{"type":"Polygon","coordinates":[[[127.06721,37.15877],[127.0667,37.16311],[127.06251,37.16508],[127.05884,37.1627],[127.05935,37.15836],[127.06353,37.1564],[127.06721,37.15877]]]}},{"type":"Feature","properties":{"h3":"8830e02dc5fffff","emd_code":"4137053000","emd_name":"남촌동","area_km2":0.5073,"edge":false,"slope_mean":8.41,"elev_mean":45.8,"flood_hist_n":0,"flood_depth_max_m":null,"flood_risk_100y":null,"semi_basement_r":null,"elderly_alone_r":0.0677,"bldg_age30_r":null,"shelter_min_walk":11,"pop":32001,"hh":18296,"elderly65_r":0.0982,"single_hh_r":0.6177,"source_level":"emd","flood_years":[],"landslide_hist_n":0},"geometry":{"type":"Polygon","coordinates":[[[127.05618,37.15165],[127.05567,37.15599],[127.05149,37.15795],[127.04781,37.15558],[127.04832,37.15124],[127.0525,37.14927],[127.05618,37.15165]]]}},{"type":"Feature","properties":{"h3":"8830e02dc7fffff","emd_code":"4137053000","emd_name":"남촌동","area_km2":0.5074,"edge":false,"slope_mean":6.15,"elev_mean":30.2,"flood_hist_n":0,"flood_depth_max_m":null,"flood_risk_100y":null,"semi_basement_r":null,"elderly_alone_r":0.0677,"bldg_age30_r":null,"shelter_min_walk":11,"pop":32001,"hh":18296,"elderly65_r":0.0982,"single_hh_r":0.6177,"source_level":"emd","flood_years":[],"landslide_hist_n":0},"geometry":{"type":"Polygon","coordinates":[[[127.06404,37.15205],[127.06353,37.1564],[127.05935,37.15836],[127.05567,37.15599],[127.05618,37.15165],[127.06036,37.14968],[127.06404,37.15205]]]}},{"type":"Feature","properties":{"h3":"8830e02dc9fffff","emd_code":"4137053000","emd_name":"남촌동","area_km2":0.5073,"edge":false,"slope_mean":7.1,"elev_mean":45.1,"flood_hist_n":0,"flood_depth_max_m":null,"flood_risk_100y":null,"semi_basement_r":null,"elderly_alone_r":0.0677,"bldg_age30_r":null,"shelter_min_walk":10,"pop":32001,"hh":18296,"elderly65_r":0.0982,"single_hh_r":0.6177,"source_level":"emd","flood_years":[],"landslide_hist_n":0},"geometry":{"type":"Polygon","coordinates":[[[127.05465,37.16467],[127.05414,37.16901],[127.04996,37.17098],[127.04628,37.1686],[127.04679,37.16426],[127.05098,37.1623],[127.05465,37.16467]]]}},{"type":"Feature","properties":{"h3":"8830e02dcbfffff","emd_code":"4137054300","emd_name":"신장1동","area_km2":0.5074,"edge":false,"slope_mean":6.56,"elev_mean":40.5,"flood_hist_n":0,"flood_depth_max_m":null,"flood_risk_100y":null,"semi_basement_r":null,"elderly_alone_r":0.0934,"bldg_age30_r":null,"shelter_min_walk":10,"pop":35328,"hh":16019,"elderly65_r":0.1584,"single_hh_r":0.4,"source_level":"emd","flood_years":[],"landslide_hist_n":0},"geometry":{"type":"Polygon","coordinates":[[[127.06251,37.16508],[127.06201,37.16942],[127.05782,37.17139],[127.05414,37.16901],[127.05465,37.16467],[127.05884,37.1627],[127.06251,37.16508]]]}},{"type":"Feature","properties":{"h3":"8830e02dcdfffff","emd_code":"4137053000","emd_name":"남촌동","area_km2":0.5072,"edge":false,"slope_mean":7.27,"elev_mean":46.4,"flood_hist_n":0,"flood_depth_max_m":null,"flood_risk_100y":null,"semi_basement_r":null,"elderly_alone_r":0.0677,"bldg_age30_r":null,"shelter_min_walk":8,"pop":32001,"hh":18296,"elderly65_r":0.0982,"single_hh_r":0.6177,"source_level":"emd","flood_years":[],"landslide_hist_n":0},"geometry":{"type":"Polygon","coordinates":[[[127.05149,37.15795],[127.05098,37.1623],[127.04679,37.16426],[127.04312,37.16188],[127.04363,37.15754],[127.04781,37.15558],[127.05149,37.15795]]]}},{"type":"Feature","properties":{"h3":"8830e02dd1fffff","emd_code":"4137054600","emd_name":"신장2동","area_km2":0.5076,"edge":true,"slope_mean":12.64,"elev_mean":52.2,"flood_hist_n":0,"flood_depth_max_m":null,"flood_risk_100y":null,"semi_basement_r":null,"elderly_alone_r":0.1015,"bldg_age30_r":null,"shelter_min_walk":13,"pop":22546,"hh":9929,"elderly65_r":0.1517,"single_hh_r":0.371,"source_level":"emd","flood_years":[],"landslide_hist_n":0},"geometry":{"type":"Polygon","coordinates":[[[127.07824,37.1659],[127.07773,37.17024],[127.07355,37.17221],[127.06987,37.16983],[127.07038,37.16549],[127.07456,37.16352],[127.07824,37.1659]]]}},{"type":"Feature","properties":{"h3":"8830e02dd5fffff","emd_code":"4137054600","emd_name":"신장2동","area_km2":0.5076,"edge":false,"slope_mean":6.97,"elev_mean":29.6,"flood_hist_n":0,"flood_depth_max_m":null,"flood_risk_100y":null,"semi_basement_r":null,"elderly_alone_r":0.1015,"bldg_age30_r":null,"shelter_min_walk":3,"pop":22546,"hh":9929,"elderly65_r":0.1517,"single_hh_r":0.371,"source_level":"emd","flood_years":[],"landslide_hist_n":0},"geometry":{"type":"Polygon","coordinates":[[[127.07507,37.15918],[127.07456,37.16352],[127.07038,37.16549],[127.0667,37.16311],[127.06721,37.15877],[127.07139,37.1568],[127.07507,37.15918]]]}},{"type":"Feature","properties":{"h3":"8830e02dd7fffff","emd_code":"4137051000","emd_name":"중앙동","area_km2":0.5077,"edge":false,"slope_mean":4.46,"elev_mean":23.7,"flood_hist_n":0,"flood_depth_max_m":null,"flood_risk_100y":null,"semi_basement_r":null,"elderly_alone_r":0.1023,"bldg_age30_r":null,"shelter_min_walk":4,"pop":32775,"hh":14053,"elderly65_r":0.1604,"single_hh_r":0.3409,"source_level":"emd","flood_years":[],"landslide_hist_n":0},"geometry":{"type":"Polygon","coordinates":[[[127.08293,37.15959],[127.08243,37.16393],[127.07824,37.1659],[127.07456,37.16352],[127.07507,37.15918],[127.07926,37.15721],[127.08293,37.15959]]]}},{"type":"Feature","properties":{"h3":"8830e02dd9fffff","emd_code":"4137054600","emd_name":"신장2동","area_km2":0.5076,"edge":false,"slope_mean":10.81,"elev_mean":60.4,"flood_hist_n":0,"flood_depth_max_m":null,"flood_risk_100y":null,"semi_basement_r":null,"elderly_alone_r":0.1015,"bldg_age30_r":null,"shelter_min_walk":5,"pop":22546,"hh":9929,"elderly65_r":0.1517,"single_hh_r":0.371,"source_level":"emd","flood_years":[],"landslide_hist_n":0},"geometry":{"type":"Polygon","coordinates":[[[127.07355,37.17221],[127.07304,37.17655],[127.06885,37.17852],[127.06518,37.17614],[127.06568,37.1718],[127.06987,37.16983],[127.07355,37.17221]]]}},{"type":"Feature","properties":{"h3":"8830e02dddfffff","emd_code":"4137054600","emd_name":"신장2동","area_km2":0.5075,"edge":false,"slope_mean":5.53,"elev_mean":34.4,"flood_hist_n":0,"flood_depth_max_m":null,"flood_risk_100y":null,"semi_basement_r":null,"elderly_alone_r":0.1015,"bldg_age30_r":null,"shelter_min_walk":8,"pop":22546,"hh":9929,"elderly65_r":0.1517,"single_hh_r":0.371,"source_level":"emd","flood_years":[],"landslide_hist_n":0},"geometry":{"type":"Polygon","coordinates":[[[127.07038,37.16549],[127.06987,37.16983],[127.06568,37.1718],[127.06201,37.16942],[127.06251,37.16508],[127.0667,37.16311],[127.07038,37.16549]]]}},{"type":"Feature","properties":{"h3":"8830e02de1fffff","emd_code":"4137056000","emd_name":"초평동","area_km2":0.5072,"edge":false,"slope_mean":3.06,"elev_mean":19.8,"flood_hist_n":0,"flood_depth_max_m":null,"flood_risk_100y":null,"semi_basement_r":null,"elderly_alone_r":0.0705,"bldg_age30_r":null,"shelter_min_walk":5,"pop":30730,"hh":14274,"elderly65_r":0.1121,"single_hh_r":0.398,"source_level":"emd","flood_years":[],"landslide_hist_n":0},"geometry":{"type":"Polygon","coordinates":[[[127.0577,37.13862],[127.0572,37.14296],[127.05301,37.14493],[127.04934,37.14255],[127.04985,37.13821],[127.05403,37.13624],[127.0577,37.13862]]]}},{"type":"Feature","properties":{"h3":"8830e02de3fffff","emd_code":"4137056000","emd_name":"초평동","area_km2":0.5074,"edge":false,"slope_mean":3.78,"elev_mean":18.4,"flood_hist_n":0,"flood_depth_max_m":null,"flood_risk_100y":null,"semi_basement_r":null,"elderly_alone_r":0.0705,"bldg_age30_r":null,"shelter_min_walk":10,"pop":30730,"hh":14274,"elderly65_r":0.1121,"single_hh_r":0.398,"source_level":"emd","flood_years":[],"landslide_hist_n":0},"geometry":{"type":"Polygon","coordinates":[[[127.06556,37.13903],[127.06505,37.14337],[127.06087,37.14534],[127.0572,37.14296],[127.0577,37.13862],[127.06189,37.13665],[127.06556,37.13903]]]}},{"type":"Feature","properties":{"h3":"8830e02de5fffff","emd_code":"4137056000","emd_name":"초평동","area_km2":0.5072,"edge":false,"slope_mean":3.45,"elev_mean":18.0,"flood_hist_n":0,"flood_depth_max_m":null,"flood_risk_100y":null,"semi_basement_r":null,"elderly_alone_r":0.0705,"bldg_age30_r":null,"shelter_min_walk":13,"pop":30730,"hh":14274,"elderly65_r":0.1121,"single_hh_r":0.398,"source_level":"emd","flood_years":[],"landslide_hist_n":0},"geometry":{"type":"Polygon","coordinates":[[[127.05454,37.1319],[127.05403,37.13624],[127.04985,37.13821],[127.04617,37.13584],[127.04668,37.1315],[127.05086,37.12953],[127.05454,37.1319]]]}},{"type":"Feature","properties":{"h3":"8830e02de7fffff","emd_code":"4137053000","emd_name":"남촌동","area_km2":0.5073,"edge":false,"slope_mean":3.05,"elev_mean":15.9,"flood_hist_n":0,"flood_depth_max_m":null,"flood_risk_100y":null,"semi_basement_r":null,"elderly_alone_r":0.0677,"bldg_age30_r":null,"shelter_min_walk":13,"pop":32001,"hh":18296,"elderly65_r":0.0982,"single_hh_r":0.6177,"source_level":"emd","flood_years":[],"landslide_hist_n":0},"geometry":{"type":"Polygon","coordinates":[[[127.0624,37.13231],[127.06189,37.13665],[127.0577,37.13862],[127.05403,37.13624],[127.05454,37.1319],[127.05872,37.12994],[127.0624,37.13231]]]}},{"type":"Feature","properties":{"h3":"8830e02de9fffff","emd_code":"4137056000","emd_name":"초평동","area_km2":0.5072,"edge":false,"slope_mean":10.1,"elev_mean":49.2,"flood_hist_n":0,"flood_depth_max_m":null,"flood_risk_100y":null,"semi_basement_r":null,"elderly_alone_r":0.0705,"bldg_age30_r":null,"shelter_min_walk":1,"pop":30730,"hh":14274,"elderly65_r":0.1121,"single_hh_r":0.398,"source_level":"emd","flood_years":[],"landslide_hist_n":0},"geometry":{"type":"Polygon","coordinates":[[[127.05301,37.14493],[127.0525,37.14927],[127.04832,37.15124],[127.04465,37.14886],[127.04516,37.14452],[127.04934,37.14255],[127.05301,37.14493]]]}},{"type":"Feature","properties":{"h3":"8830e02debfffff","emd_code":"4137056000","emd_name":"초평동","area_km2":0.5073,"edge":false,"slope_mean":3.88,"elev_mean":21.8,"flood_hist_n":0,"flood_depth_max_m":null,"flood_risk_100y":null,"semi_basement_r":null,"elderly_alone_r":0.0705,"bldg_age30_r":null,"shelter_min_walk":4,"pop":30730,"hh":14274,"elderly65_r":0.1121,"single_hh_r":0.398,"source_level":"emd","flood_years":[],"landslide_hist_n":0},"geometry":{"type":"Polygon","coordinates":[[[127.06087,37.14534],[127.06036,37.14968],[127.05618,37.15165],[127.0525,37.14927],[127.05301,37.14493],[127.0572,37.14296],[127.06087,37.14534]]]}},{"type":"Feature","properties":{"h3":"8830e02dedfffff","emd_code":"4137056000","emd_name":"초평동","area_km2":0.5071,"edge":false,"slope_mean":5.72,"elev_mean":27.6,"flood_hist_n":0,"flood_depth_max_m":null,"flood_risk_100y":null,"semi_basement_r":null,"elderly_alone_r":0.0705,"bldg_age30_r":null,"shelter_min_walk":4,"pop":30730,"hh":14274,"elderly65_r":0.1121,"single_hh_r":0.398,"source_level":"emd","flood_years":[],"landslide_hist_n":0},"geometry":{"type":"Polygon","coordinates":[[[127.04985,37.13821],[127.04934,37.14255],[127.04516,37.14452],[127.04148,37.14214],[127.04199,37.1378],[127.04617,37.13584],[127.04985,37.13821]]]}},{"type":"Feature","properties":{"h3":"8830e02f13fffff","emd_code":"4137055000","emd_name":"세마동","area_km2":0.5068,"edge":true,"slope_mean":2.34,"elev_mean":16.5,"flood_hist_n":0,"flood_depth_max_m":null,"flood_risk_100y":null,"semi_basement_r":null,"elderly_alone_r":0.0726,"bldg_age30_r":null,"shelter_min_walk":16,"pop":31891,"hh":13814,"elderly65_r":0.1287,"single_hh_r":0.3597,"source_level":"emd","flood_years":[],"landslide_hist_n":0},"geometry":{"type":"Polygon","coordinates":[[[127.01546,37.19537],[127.01495,37.19972],[127.01077,37.20168],[127.00709,37.1993],[127.0076,37.19496],[127.01179,37.193],[127.01546,37.19537]]]}},{"type":"Feature","properties":{"h3":"8830e02f17fffff","emd_code":"4137055000","emd_name":"세마동","area_km2":0.5068,"edge":true,"slope_mean":3.97,"elev_mean":17.5,"flood_hist_n":0,"flood_depth_max_m":null,"flood_risk_100y":null,"semi_basement_r":null,"elderly_alone_r":0.0726,"bldg_age30_r":null,"shelter_min_walk":27,"pop":31891,"hh":13814,"elderly65_r":0.1287,"single_hh_r":0.3597,"source_level":"emd","flood_years":[],"landslide_hist_n":0},"geometry":{"type":"Polygon","coordinates":[[[127.0123,37.18866],[127.01179,37.193],[127.0076,37.19496],[127.00393,37.19258],[127.00444,37.18824],[127.00863,37.18628],[127.0123,37.18866]]]}},{"type":"Feature","properties":{"h3":"8830e02f31fffff","emd_code":"4137055000","emd_name":"세마동","area_km2":0.5066,"edge":false,"slope_mean":5.42,"elev_mean":20.4,"flood_hist_n":0,"flood_depth_max_m":null,"flood_risk_100y":null,"semi_basement_r":null,"elderly_alone_r":0.0726,"bldg_age30_r":null,"shelter_min_walk":37,"pop":31891,"hh":13814,"elderly65_r":0.1287,"single_hh_r":0.3597,"source_level":"emd","flood_years":[],"landslide_hist_n":0},"geometry":{"type":"Polygon","coordinates":[[[127.00598,37.17522],[127.00547,37.17956],[127.00128,37.18152],[126.99761,37.17915],[126.99813,37.17481],[127.00231,37.17285],[127.00598,37.17522]]]}},{"type":"Feature","properties":{"h3":"8830e02f33fffff","emd_code":"4137055000","emd_name":"세마동","area_km2":0.5067,"edge":false,"slope_mean":10.38,"elev_mean":47.3,"flood_hist_n":0,"flood_depth_max_m":null,"flood_risk_100y":null,"semi_basement_r":null,"elderly_alone_r":0.0726,"bldg_age30_r":null,"shelter_min_walk":28,"pop":31891,"hh":13814,"elderly65_r":0.1287,"single_hh_r":0.3597,"source_level":"emd","flood_years":[],"landslide_hist_n":0},"geometry":{"type":"Polygon","coordinates":[[[127.01383,37.17564],[127.01332,37.17998],[127.00914,37.18194],[127.00547,37.17956],[127.00598,37.17522],[127.01016,37.17326],[127.01383,37.17564]]]}},{"type":"Feature","properties":{"h3":"8830e02f35fffff","emd_code":"4137055000","emd_name":"세마동","area_km2":0.5066,"edge":true,"slope_mean":5.03,"elev_mean":18.6,"flood_hist_n":0,"flood_depth_max_m":null,"flood_risk_100y":null,"semi_basement_r":null,"elderly_alone_r":0.0726,"bldg_age30_r":null,"shelter_min_walk":29,"pop":31891,"hh":13814,"elderly65_r":0.1287,"single_hh_r":0.3597,"source_level":"emd","flood_years":[],"landslide_hist_n":0},"geometry":{"type":"Polygon","coordinates":[[[127.00282,37.16851],[127.00231,37.17285],[126.99813,37.17481],[126.99445,37.17243],[126.99497,37.16809],[126.99915,37.16613],[127.00282,37.16851]]]}},{"type":"Feature","properties":{"h3":"8830e02f37fffff","emd_code":"4137055000","emd_name":"세마동","area_km2":0.5067,"edge":false,"slope_mean":9.89,"elev_mean":45.5,"flood_hist_n":0,"flood_depth_max_m":null,"flood_risk_100y":null,"semi_basement_r":null,"elderly_alone_r":0.0726,"bldg_age30_r":null,"shelter_min_walk":28,"pop":31891,"hh":13814,"elderly65_r":0.1287,"single_hh_r":0.3597,"source_level":"emd","flood_years":[],"landslide_hist_n":0},"geometry":{"type":"Polygon","coordinates":[[[127.01067,37.16892],[127.01016,37.17326],[127.00598,37.17522],[127.00231,37.17285],[127.00282,37.16851],[127.007,37.16654],[127.01067,37.16892]]]}},{"type":"Feature","properties":{"h3":"8830e02f3bfffff","emd_code":"4137055000","emd_name":"세마동","area_km2":0.5067,"edge":false,"slope_mean":6.22,"elev_mean":21.0,"flood_hist_n":0,"flood_depth_max_m":null,"flood_risk_100y":null,"semi_basement_r":null,"elderly_alone_r":0.0726,"bldg_age30_r":null,"shelter_min_walk":38,"pop":31891,"hh":13814,"elderly65_r":0.1287,"single_hh_r":0.3597,"source_level":"emd","flood_years":[],"landslide_hist_n":0},"geometry":{"type":"Polygon","coordinates":[[[127.00914,37.18194],[127.00863,37.18628],[127.00444,37.18824],[127.00077,37.18586],[127.00128,37.18152],[127.00547,37.17956],[127.00914,37.18194]]]}},{"type":"Feature","properties":{"h3":"8830e02f3dfffff","emd_code":"4137055000","emd_name":"세마동","area_km2":0.5065,"edge":true,"slope_mean":2.64,"elev_mean":14.0,"flood_hist_n":0,"flood_depth_max_m":null,"flood_risk_100y":null,"semi_basement_r":null,"elderly_alone_r":0.0726,"bldg_age30_r":null,"shelter_min_walk":28,"pop":31891,"hh":13814,"elderly65_r":0.1287,"single_hh_r":0.3597,"source_level":"emd","flood_years":[],"landslide_hist_n":0},"geometry":{"type":"Polygon","coordinates":[[[126.99813,37.17481],[126.99761,37.17915],[126.99343,37.18111],[126.98976,37.17873],[126.99027,37.17439],[126.99445,37.17243],[126.99813,37.17481]]]}},{"type":"Feature","properties":{"h3":"8830e392d9fffff","emd_code":"4137056000","emd_name":"초평동","area_km2":0.5071,"edge":true,"slope_mean":4.95,"elev_mean":21.1,"flood_hist_n":0,"flood_depth_max_m":null,"flood_risk_100y":null,"semi_basement_r":null,"elderly_alone_r":0.0705,"bldg_age30_r":null,"shelter_min_walk":10,"pop":30730,"hh":14274,"elderly65_r":0.1121,"single_hh_r":0.398,"source_level":"emd","flood_years":[],"landslide_hist_n":0},"geometry":{"type":"Polygon","coordinates":[[[127.05137,37.12519],[127.05086,37.12953],[127.04668,37.1315],[127.04301,37.12912],[127.04352,37.12478],[127.0477,37.12281],[127.05137,37.12519]]]}},{"type":"Feature","properties":{"h3":"8830e392dbfffff","emd_code":"4137056000","emd_name":"초평동","area_km2":0.5072,"edge":true,"slope_mean":1.8,"elev_mean":13.9,"flood_hist_n":0,"flood_depth_max_m":null,"flood_risk_100y":null,"semi_basement_r":null,"elderly_alone_r":0.0705,"bldg_age30_r":null,"shelter_min_walk":17,"pop":30730,"hh":14274,"elderly65_r":0.1121,"single_hh_r":0.398,"source_level":"emd","flood_years":[],"landslide_hist_n":0},"geometry":{"type":"Polygon","coordinates":[[[127.05923,37.12559],[127.05872,37.12994],[127.05454,37.1319],[127.05086,37.12953],[127.05137,37.12519],[127.05556,37.12322],[127.05923,37.12559]]]}},{"type":"Feature","properties":{"h3":"8830e39669fffff","emd_code":"4137051000","emd_name":"중앙동","area_km2":0.508,"edge":true,"slope_mean":16.58,"elev_mean":87.9,"flood_hist_n":0,"flood_depth_max_m":null,"flood_risk_100y":null,"semi_basement_r":null,"elderly_alone_r":0.1023,"bldg_age30_r":null,"shelter_min_walk":15,"pop":32775,"hh":14053,"elderly65_r":0.1604,"single_hh_r":0.3409,"source_level":"emd","flood_years":[],"landslide_hist_n":0},"geometry":{"type":"Polygon","coordinates":[[[127.10805,37.14778],[127.10754,37.15212],[127.10336,37.15409],[127.09968,37.15172],[127.10018,37.14737],[127.10437,37.1454],[127.10805,37.14778]]]}},{"type":"Feature","properties":{"h3":"8830e3966dfffff","emd_code":"4137052600","emd_name":"대원2동","area_km2":0.5079,"edge":false,"slope_mean":17.1,"elev_mean":108.2,"flood_hist_n":0,"flood_depth_max_m":null,"flood_risk_100y":null,"semi_basement_r":null,"elderly_alone_r":0.0532,"bldg_age30_r":null,"shelter_min_walk":18,"pop":24504,"hh":10484,"elderly65_r":0.1043,"single_hh_r":0.3409,"source_level":"emd","flood_years":[],"landslide_hist_n":0},"geometry":{"type":"Polygon","coordinates":[[[127.10487,37.14106],[127.10437,37.1454],[127.10018,37.14737],[127.0965,37.145],[127.09701,37.14065],[127.10119,37.13868],[127.10487,37.14106]]]}}]}