{"type":"FeatureCollection","name":"grid_41410_h3r8","meta":{"sgg_code":"41410","h3_res":8,"n_cells":98,"dem":"Copernicus GLO-30 (bbox-mean)","crs":"EPSG:4326","jumin_basis":"2026-07","flood_src":"행안부 침수흔적도(전국, 재난안전데이터공유플랫폼)","landslide_src":"행안부 산사태 발생이력"},"features":[{"type":"Feature","properties":{"h3":"8830e02059fffff","emd_code":"4141063000","emd_name":"송부동","area_km2":0.5058,"edge":true,"slope_mean":7.19,"elev_mean":35.5,"flood_hist_n":0,"flood_depth_max_m":null,"flood_risk_100y":null,"semi_basement_r":null,"elderly_alone_r":0.091,"bldg_age30_r":null,"shelter_min_walk":14,"pop":20115,"hh":8245,"elderly65_r":0.1579,"single_hh_r":0.299,"source_level":"emd","flood_years":[],"landslide_hist_n":0},"geometry":{"type":"Polygon","coordinates":[[[126.91985,37.30159],[126.91933,37.30593],[126.91515,37.30788],[126.91148,37.3055],[126.912,37.30116],[126.91618,37.29921],[126.91985,37.30159]]]}},{"type":"Feature","properties":{"h3":"8830e0205bfffff","emd_code":"4141063000","emd_name":"송부동","area_km2":0.5059,"edge":true,"slope_mean":5.19,"elev_mean":31.7,"flood_hist_n":0,"flood_depth_max_m":null,"flood_risk_100y":null,"semi_basement_r":null,"elderly_alone_r":0.091,"bldg_age30_r":null,"shelter_min_walk":16,"pop":20115,"hh":8245,"elderly65_r":0.1579,"single_hh_r":0.299,"source_level":"emd","flood_years":[],"landslide_hist_n":0},"geometry":{"type":"Polygon","coordinates":[[[126.92771,37.30202],[126.92719,37.30636],[126.923,37.30831],[126.91933,37.30593],[126.91985,37.30159],[126.92404,37.29964],[126.92771,37.30202]]]}},{"type":"Feature","properties":{"h3":"8830e02201fffff","emd_code":"4141061000","emd_name":"대야동","area_km2":0.5054,"edge":false,"slope_mean":9.61,"elev_mean":52.4,"flood_hist_n":0,"flood_depth_max_m":null,"flood_risk_100y":null,"semi_basement_r":null,"elderly_alone_r":0.1143,"bldg_age30_r":null,"shelter_min_walk":19,"pop":8878,"hh":3772,"elderly65_r":0.2355,"single_hh_r":0.2993,"source_level":"emd","flood_years":[],"landslide_hist_n":0},"geometry":{"type":"Polygon","coordinates":[[[126.89003,37.3196],[126.88951,37.32394],[126.88532,37.32589],[126.88165,37.32351],[126.88217,37.31917],[126.88636,37.31722],[126.89003,37.3196]]]}},{"type":"Feature","properties":{"h3":"8830e02203fffff","emd_code":"4141061000","emd_name":"대야동","area_km2":0.5055,"edge":false,"slope_mean":13.06,"elev_mean":62.6,"flood_hist_n":0,"flood_depth_max_m":null,"flood_risk_100y":null,"semi_basement_r":null,"elderly_alone_r":0.1143,"bldg_age30_r":null,"shelter_min_walk":23,"pop":8878,"hh":3772,"elderly65_r":0.2355,"single_hh_r":0.2993,"source_level":"emd","flood_years":[],"landslide_hist_n":0},"geometry":{"type":"Polygon","coordinates":[[[126.89788,37.32003],[126.89736,37.32437],[126.89318,37.32632],[126.88951,37.32394],[126.89003,37.3196],[126.89421,37.31765],[126.89788,37.32003]]]}},{"type":"Feature","properties":{"h3":"8830e02207fffff","emd_code":"4141061000","emd_name":"대야동","area_km2":0.5055,"edge":true,"slope_mean":11.83,"elev_mean":47.1,"flood_hist_n":0,"flood_depth_max_m":null,"flood_risk_100y":null,"semi_basement_r":null,"elderly_alone_r":0.1143,"bldg_age30_r":null,"shelter_min_walk":20,"pop":8878,"hh":3772,"elderly65_r":0.2355,"single_hh_r":0.2993,"source_level":"emd","flood_years":[],"landslide_hist_n":0},"geometry":{"type":"Polygon","coordinates":[[[126.89473,37.31331],[126.89421,37.31765],[126.89003,37.3196],[126.88636,37.31722],[126.88688,37.31288],[126.89106,37.31093],[126.89473,37.31331]]]}},{"type":"Feature","properties":{"h3":"8830e02209fffff","emd_code":"4141061000","emd_name":"대야동","area_km2":0.5054,"edge":false,"slope_mean":16.34,"elev_mean":89.2,"flood_hist_n":0,"flood_depth_max_m":null,"flood_risk_100y":null,"semi_basement_r":null,"elderly_alone_r":0.1143,"bldg_age30_r":null,"shelter_min_walk":22,"pop":8878,"hh":3772,"elderly65_r":0.2355,"single_hh_r":0.2993,"source_level":"emd","flood_years":[],"landslide_hist_n":0},"geometry":{"type":"Polygon","coordinates":[[[126.88532,37.32589],[126.8848,37.33023],[126.88061,37.33218],[126.87695,37.32979],[126.87747,37.32546],[126.88165,37.32351],[126.88532,37.32589]]]}},{"type":"Feature","properties":{"h3":"8830e0220bfffff","emd_code":"4141061000","emd_name":"대야동","area_km2":0.5055,"edge":false,"slope_mean":14.78,"elev_mean":71.3,"flood_hist_n":0,"flood_depth_max_m":null,"flood_risk_100y":null,"semi_basement_r":null,"elderly_alone_r":0.1143,"bldg_age30_r":null,"shelter_min_walk":29,"pop":8878,"hh":3772,"elderly65_r":0.2355,"single_hh_r":0.2993,"source_level":"emd","flood_years":[],"landslide_hist_n":0},"geometry":{"type":"Polygon","coordinates":[[[126.89318,37.32632],[126.89266,37.33066],[126.88847,37.33261],[126.8848,37.33023],[126.88532,37.32589],[126.88951,37.32394],[126.89318,37.32632]]]}},{"type":"Feature","properties":{"h3":"8830e0220dfffff","emd_code":"4141061000","emd_name":"대야동","area_km2":0.5053,"edge":false,"slope_mean":15.38,"elev_mean":94.1,"flood_hist_n":0,"flood_depth_max_m":null,"flood_risk_100y":null,"semi_basement_r":null,"elderly_alone_r":0.1143,"bldg_age30_r":null,"shelter_min_walk":10,"pop":8878,"hh":3772,"elderly65_r":0.2355,"single_hh_r":0.2993,"source_level":"emd","flood_years":[],"landslide_hist_n":0},"geometry":{"type":"Polygon","coordinates":[[[126.88217,37.31917],[126.88165,37.32351],[126.87747,37.32546],[126.8738,37.32307],[126.87432,37.31874],[126.87851,37.31679],[126.88217,37.31917]]]}},{"type":"Feature","properties":{"h3":"8830e02211fffff","emd_code":"4141061000","emd_name":"대야동","area_km2":0.5057,"edge":false,"slope_mean":10.81,"elev_mean":69.7,"flood_hist_n":0,"flood_depth_max_m":null,"flood_risk_100y":null,"semi_basement_r":null,"elderly_alone_r":0.1143,"bldg_age30_r":null,"shelter_min_walk":15,"pop":8878,"hh":3772,"elderly65_r":0.2355,"single_hh_r":0.2993,"source_level":"emd","flood_years":[],"landslide_hist_n":0},"geometry":{"type":"Polygon","coordinates":[[[126.90889,37.32719],[126.90837,37.33152],[126.90418,37.33348],[126.90051,37.33109],[126.90103,37.32675],[126.90522,37.3248],[126.90889,37.32719]]]}},{"type":"Feature","properties":{"h3":"8830e02213fffff","emd_code":"4141061000","emd_name":"대야동","area_km2":0.5058,"edge":false,"slope_mean":10.48,"elev_mean":76.6,"flood_hist_n":0,"flood_depth_max_m":null,"flood_risk_100y":null,"semi_basement_r":null,"elderly_alone_r":0.1143,"bldg_age30_r":null,"shelter_min_walk":6,"pop":8878,"hh":3772,"elderly65_r":0.2355,"single_hh_r":0.2993,"source_level":"emd","flood_years":[],"landslide_hist_n":0},"geometry":{"type":"Polygon","coordinates":[[[126.91675,37.32762],[126.91623,37.33195],[126.91204,37.33391],[126.90837,37.33152],[126.90889,37.32719],[126.91308,37.32523],[126.91675,37.32762]]]}},{"type":"Feature","properties":{"h3":"8830e02215fffff","emd_code":"4141061000","emd_name":"대야동","area_km2":0.5056,"edge":false,"slope_mean":9.89,"elev_mean":52.2,"flood_hist_n":0,"flood_depth_max_m":null,"flood_risk_100y":null,"semi_basement_r":null,"elderly_alone_r":0.1143,"bldg_age30_r":null,"shelter_min_walk":19,"pop":8878,"hh":3772,"elderly65_r":0.2355,"single_hh_r":0.2993,"source_level":"emd","flood_years":[],"landslide_hist_n":0},"geometry":{"type":"Polygon","coordinates":[[[126.90574,37.32046],[126.90522,37.3248],[126.90103,37.32675],[126.89736,37.32437],[126.89788,37.32003],[126.90207,37.31808],[126.90574,37.32046]]]}},{"type":"Feature","properties":{"h3":"8830e02217fffff","emd_code":"4141061000","emd_name":"대야동","area_km2":0.5058,"edge":false,"slope_mean":8.03,"elev_mean":56.5,"flood_hist_n":0,"flood_depth_max_m":null,"flood_risk_100y":null,"semi_basement_r":null,"elderly_alone_r":0.1143,"bldg_age30_r":null,"shelter_min_walk":12,"pop":8878,"hh":3772,"elderly65_r":0.2355,"single_hh_r":0.2993,"source_level":"emd","flood_years":[],"landslide_hist_n":0},"geometry":{"type":"Polygon","coordinates":[[[126.91359,37.3209],[126.91308,37.32523],[126.90889,37.32719],[126.90522,37.3248],[126.90574,37.32046],[126.90992,37.31851],[126.91359,37.3209]]]}},{"type":"Feature","properties":{"h3":"8830e02219fffff","emd_code":"4141061000","emd_name":"대야동","area_km2":0.5057,"edge":false,"slope_mean":18.91,"elev_mean":138.5,"flood_hist_n":0,"flood_depth_max_m":null,"flood_risk_100y":null,"semi_basement_r":null,"elderly_alone_r":0.1143,"bldg_age30_r":null,"shelter_min_walk":22,"pop":8878,"hh":3772,"elderly65_r":0.2355,"single_hh_r":0.2993,"source_level":"emd","flood_years":[],"landslide_hist_n":0},"geometry":{"type":"Polygon","coordinates":[[[126.90418,37.33348],[126.90366,37.33781],[126.89948,37.33976],[126.89581,37.33738],[126.89632,37.33304],[126.90051,37.33109],[126.90418,37.33348]]]}},{"type":"Feature","properties":{"h3":"8830e0221bfffff","emd_code":"4141061000","emd_name":"대야동","area_km2":0.5058,"edge":false,"slope_mean":12.71,"elev_mean":95.1,"flood_hist_n":0,"flood_depth_max_m":null,"flood_risk_100y":null,"semi_basement_r":null,"elderly_alone_r":0.1143,"bldg_age30_r":null,"shelter_min_walk":12,"pop":8878,"hh":3772,"elderly65_r":0.2355,"single_hh_r":0.2993,"source_level":"emd","flood_years":[],"landslide_hist_n":0},"geometry":{"type":"Polygon","coordinates":[[[126.91204,37.33391],[126.91152,37.33824],[126.90733,37.3402],[126.90366,37.33781],[126.90418,37.33348],[126.90837,37.33152],[126.91204,37.33391]]]}},{"type":"Feature","properties":{"h3":"8830e0221dfffff","emd_code":"4141061000","emd_name":"대야동","area_km2":0.5056,"edge":false,"slope_mean":19.51,"elev_mean":114.3,"flood_hist_n":0,"flood_depth_max_m":null,"flood_risk_100y":null,"semi_basement_r":null,"elderly_alone_r":0.1143,"bldg_age30_r":null,"shelter_min_walk":26,"pop":8878,"hh":3772,"elderly65_r":0.2355,"single_hh_r":0.2993,"source_level":"emd","flood_years":[],"landslide_hist_n":0},"geometry":{"type":"Polygon","coordinates":[[[126.90103,37.32675],[126.90051,37.33109],[126.89632,37.33304],[126.89266,37.33066],[126.89318,37.32632],[126.89736,37.32437],[126.90103,37.32675]]]}},{"type":"Feature","properties":{"h3":"8830e02233fffff","emd_code":"4141063000","emd_name":"송부동","area_km2":0.5057,"edge":true,"slope_mean":7.97,"elev_mean":36.2,"flood_hist_n":0,"flood_depth_max_m":null,"flood_risk_100y":null,"semi_basement_r":null,"elderly_alone_r":0.091,"bldg_age30_r":null,"shelter_min_walk":8,"pop":20115,"hh":8245,"elderly65_r":0.1579,"single_hh_r":0.299,"source_level":"emd","flood_years":[],"landslide_hist_n":0},"geometry":{"type":"Polygon","coordinates":[[[126.91515,37.30788],[126.91463,37.31222],[126.91044,37.31417],[126.90677,37.31179],[126.90729,37.30745],[126.91148,37.3055],[126.91515,37.30788]]]}},{"type":"Feature","properties":{"h3":"8830e02239fffff","emd_code":"4141061000","emd_name":"대야동","area_km2":0.5056,"edge":true,"slope_mean":12.7,"elev_mean":55.6,"flood_hist_n":0,"flood_depth_max_m":null,"flood_risk_100y":null,"semi_basement_r":null,"elderly_alone_r":0.1143,"bldg_age30_r":null,"shelter_min_walk":11,"pop":8878,"hh":3772,"elderly65_r":0.2355,"single_hh_r":0.2993,"source_level":"emd","flood_years":[],"landslide_hist_n":0},"geometry":{"type":"Polygon","coordinates":[[[126.90259,37.31374],[126.90207,37.31808],[126.89788,37.32003],[126.89421,37.31765],[126.89473,37.31331],[126.89892,37.31136],[126.90259,37.31374]]]}},{"type":"Feature","properties":{"h3":"8830e02243fffff","emd_code":"4141061000","emd_name":"대야동","area_km2":0.5053,"edge":true,"slope_mean":18.74,"elev_mean":111.0,"flood_hist_n":0,"flood_depth_max_m":null,"flood_risk_100y":null,"semi_basement_r":null,"elderly_alone_r":0.1143,"bldg_age30_r":null,"shelter_min_walk":17,"pop":8878,"hh":3772,"elderly65_r":0.2355,"single_hh_r":0.2993,"source_level":"emd","flood_years":[],"landslide_hist_n":0},"geometry":{"type":"Polygon","coordinates":[[[126.88061,37.33218],[126.88009,37.33651],[126.87591,37.33846],[126.87224,37.33608],[126.87276,37.33174],[126.87695,37.32979],[126.88061,37.33218]]]}},{"type":"Feature","properties":{"h3":"8830e02247fffff","emd_code":"4141061000","emd_name":"대야동","area_km2":0.5053,"edge":false,"slope_mean":16.82,"elev_mean":104.6,"flood_hist_n":0,"flood_depth_max_m":null,"flood_risk_100y":null,"semi_basement_r":null,"elderly_alone_r":0.1143,"bldg_age30_r":null,"shelter_min_walk":14,"pop":8878,"hh":3772,"elderly65_r":0.2355,"single_hh_r":0.2993,"source_level":"emd","flood_years":[],"landslide_hist_n":0},"geometry":{"type":"Polygon","coordinates":[[[126.87747,37.32546],[126.87695,37.32979],[126.87276,37.33174],[126.8691,37.32936],[126.86962,37.32502],[126.8738,37.32307],[126.87747,37.32546]]]}},{"type":"Feature","properties":{"h3":"8830e02251fffff","emd_code":"4141061000","emd_name":"대야동","area_km2":0.5055,"edge":false,"slope_mean":23.69,"elev_mean":177.6,"flood_hist_n":0,"flood_depth_max_m":null,"flood_risk_100y":null,"semi_basement_r":null,"elderly_alone_r":0.1143,"bldg_age30_r":null,"shelter_min_walk":34,"pop":8878,"hh":3772,"elderly65_r":0.2355,"single_hh_r":0.2993,"source_level":"emd","flood_years":[],"landslide_hist_n":0},"geometry":{"type":"Polygon","coordinates":[[[126.89162,37.33933],[126.8911,37.34367],[126.88691,37.34562],[126.88324,37.34323],[126.88376,37.3389],[126.88795,37.33695],[126.89162,37.33933]]]}},{"type":"Feature","properties":{"h3":"8830e02253fffff","emd_code":"4141061000","emd_name":"대야동","area_km2":0.5056,"edge":false,"slope_mean":17.5,"elev_mean":108.2,"flood_hist_n":0,"flood_depth_max_m":null,"flood_risk_100y":null,"semi_basement_r":null,"elderly_alone_r":0.1143,"bldg_age30_r":null,"shelter_min_walk":31,"pop":8878,"hh":3772,"elderly65_r":0.2355,"single_hh_r":0.2993,"source_level":"emd","flood_years":[],"landslide_hist_n":0},"geometry":{"type":"Polygon","coordinates":[[[126.89948,37.33976],[126.89896,37.3441],[126.89477,37.34605],[126.8911,37.34367],[126.89162,37.33933],[126.89581,37.33738],[126.89948,37.33976]]]}},{"type":"Feature","properties":{"h3":"8830e02255fffff","emd_code":"4141061000","emd_name":"대야동","area_km2":0.5054,"edge":false,"slope_mean":21.42,"elev_mean":126.6,"flood_hist_n":0,"flood_depth_max_m":null,"flood_risk_100y":null,"semi_basement_r":null,"elderly_alone_r":0.1143,"bldg_age30_r":null,"shelter_min_walk":27,"pop":8878,"hh":3772,"elderly65_r":0.2355,"single_hh_r":0.2993,"source_level":"emd","flood_years":[],"landslide_hist_n":0},"geometry":{"type":"Polygon","coordinates":[[[126.88847,37.33261],[126.88795,37.33695],[126.88376,37.3389],[126.88009,37.33651],[126.88061,37.33218],[126.8848,37.33023],[126.88847,37.33261]]]}},{"type":"Feature","properties":{"h3":"8830e02257fffff","emd_code":"4141061000","emd_name":"대야동","area_km2":0.5055,"edge":false,"slope_mean":20.09,"elev_mean":111.4,"flood_hist_n":0,"flood_depth_max_m":null,"flood_risk_100y":null,"semi_basement_r":null,"elderly_alone_r":0.1143,"bldg_age30_r":null,"shelter_min_walk":32,"pop":8878,"hh":3772,"elderly65_r":0.2355,"single_hh_r":0.2993,"source_level":"emd","flood_years":[],"landslide_hist_n":0},"geometry":{"type":"Polygon","coordinates":[[[126.89632,37.33304],[126.89581,37.33738],[126.89162,37.33933],[126.88795,37.33695],[126.88847,37.33261],[126.89266,37.33066],[126.89632,37.33304]]]}},{"type":"Feature","properties":{"h3":"8830e0225bfffff","emd_code":"4141061000","emd_name":"대야동","area_km2":0.5056,"edge":false,"slope_mean":23.78,"elev_mean":197.4,"flood_hist_n":0,"flood_depth_max_m":null,"flood_risk_100y":null,"semi_basement_r":null,"elderly_alone_r":0.1143,"bldg_age30_r":null,"shelter_min_walk":25,"pop":8878,"hh":3772,"elderly65_r":0.2355,"single_hh_r":0.2993,"source_level":"emd","flood_years":[],"landslide_hist_n":0},"geometry":{"type":"Polygon","coordinates":[[[126.89477,37.34605],[126.89425,37.35039],[126.89006,37.35234],[126.88639,37.34996],[126.88691,37.34562],[126.8911,37.34367],[126.89477,37.34605]]]}},{"type":"Feature","properties":{"h3":"8830e0226bfffff","emd_code":"4141061000","emd_name":"대야동","area_km2":0.5052,"edge":true,"slope_mean":15.03,"elev_mean":81.2,"flood_hist_n":0,"flood_depth_max_m":null,"flood_risk_100y":null,"semi_basement_r":null,"elderly_alone_r":0.1143,"bldg_age30_r":null,"shelter_min_walk":9,"pop":8878,"hh":3772,"elderly65_r":0.2355,"single_hh_r":0.2993,"source_level":"emd","flood_years":[],"landslide_hist_n":0},"geometry":{"type":"Polygon","coordinates":[[[126.87432,37.31874],[126.8738,37.32307],[126.86962,37.32502],[126.86595,37.32264],[126.86647,37.3183],[126.87066,37.31635],[126.87432,37.31874]]]}},{"type":"Feature","properties":{"h3":"8830e02281fffff","emd_code":"4141063000","emd_name":"송부동","area_km2":0.5062,"edge":false,"slope_mean":4.16,"elev_mean":53.0,"flood_hist_n":0,"flood_depth_max_m":null,"flood_risk_100y":null,"semi_basement_r":null,"elderly_alone_r":0.091,"bldg_age30_r":null,"shelter_min_walk":5,"pop":20115,"hh":8245,"elderly65_r":0.1579,"single_hh_r":0.299,"source_level":"emd","flood_years":[],"landslide_hist_n":0},"geometry":{"type":"Polygon","coordinates":[[[126.94503,37.32261],[126.94452,37.32695],[126.94033,37.32891],[126.93666,37.32652],[126.93717,37.32218],[126.94136,37.32023],[126.94503,37.32261]]]}},{"type":"Feature","properties":{"h3":"8830e02283fffff","emd_code":"4141063000","emd_name":"송부동","area_km2":0.5063,"edge":true,"slope_mean":4.36,"elev_mean":52.0,"flood_hist_n":0,"flood_depth_max_m":null,"flood_risk_100y":null,"semi_basement_r":null,"elderly_alone_r":0.091,"bldg_age30_r":null,"shelter_min_walk":6,"pop":20115,"hh":8245,"elderly65_r":0.1579,"single_hh_r":0.299,"source_level":"emd","flood_years":[],"landslide_hist_n":0},"geometry":{"type":"Polygon","coordinates":[[[126.9529,37.32304],[126.95238,37.32738],[126.94819,37.32934],[126.94452,37.32695],[126.94503,37.32261],[126.94922,37.32066],[126.9529,37.32304]]]}},{"type":"Feature","properties":{"h3":"8830e02285fffff","emd_code":"4141063000","emd_name":"송부동","area_km2":0.5061,"edge":true,"slope_mean":6.86,"elev_mean":56.3,"flood_hist_n":0,"flood_depth_max_m":null,"flood_risk_100y":null,"semi_basement_r":null,"elderly_alone_r":0.091,"bldg_age30_r":null,"shelter_min_walk":11,"pop":20115,"hh":8245,"elderly65_r":0.1579,"single_hh_r":0.299,"source_level":"emd","flood_years":[],"landslide_hist_n":0},"geometry":{"type":"Polygon","coordinates":[[[126.94188,37.31589],[126.94136,37.32023],[126.93717,37.32218],[126.9335,37.3198],[126.93402,37.31546],[126.9382,37.31351],[126.94188,37.31589]]]}},{"type":"Feature","properties":{"h3":"8830e02287fffff","emd_code":"4141063000","emd_name":"송부동","area_km2":0.5062,"edge":true,"slope_mean":3.19,"elev_mean":46.5,"flood_hist_n":0,"flood_depth_max_m":null,"flood_risk_100y":null,"semi_basement_r":null,"elderly_alone_r":0.091,"bldg_age30_r":null,"shelter_min_walk":6,"pop":20115,"hh":8245,"elderly65_r":0.1579,"single_hh_r":0.299,"source_level":"emd","flood_years":[],"landslide_hist_n":0},"geometry":{"type":"Polygon","coordinates":[[[126.94974,37.31632],[126.94922,37.32066],[126.94503,37.32261],[126.94136,37.32023],[126.94188,37.31589],[126.94607,37.31394],[126.94974,37.31632]]]}},{"type":"Feature","properties":{"h3":"8830e02289fffff","emd_code":"4141063000","emd_name":"송부동","area_km2":0.5061,"edge":false,"slope_mean":7.13,"elev_mean":68.8,"flood_hist_n":0,"flood_depth_max_m":null,"flood_risk_100y":null,"semi_basement_r":null,"elderly_alone_r":0.091,"bldg_age30_r":null,"shelter_min_walk":10,"pop":20115,"hh":8245,"elderly65_r":0.1579,"single_hh_r":0.299,"source_level":"emd","flood_years":[],"landslide_hist_n":0},"geometry":{"type":"Polygon","coordinates":[[[126.94033,37.32891],[126.93981,37.33325],[126.93562,37.3352],[126.93195,37.33282],[126.93247,37.32848],[126.93666,37.32652],[126.94033,37.32891]]]}},{"type":"Feature","properties":{"h3":"8830e0228bfffff","emd_code":"4141063000","emd_name":"송부동","area_km2":0.5063,"edge":false,"slope_mean":5.07,"elev_mean":55.7,"flood_hist_n":0,"flood_depth_max_m":null,"flood_risk_100y":null,"semi_basement_r":null,"elderly_alone_r":0.091,"bldg_age30_r":null,"shelter_min_walk":13,"pop":20115,"hh":8245,"elderly65_r":0.1579,"single_hh_r":0.299,"source_level":"emd","flood_years":[],"landslide_hist_n":0},"geometry":{"type":"Polygon","coordinates":[[[126.94819,37.32934],[126.94768,37.33367],[126.94349,37.33563],[126.93981,37.33325],[126.94033,37.32891],[126.94452,37.32695],[126.94819,37.32934]]]}},{"type":"Feature","properties":{"h3":"8830e0228dfffff","emd_code":"4141063000","emd_name":"송부동","area_km2":0.5061,"edge":false,"slope_mean":8.36,"elev_mean":67.0,"flood_hist_n":0,"flood_depth_max_m":null,"flood_risk_100y":null,"semi_basement_r":null,"elderly_alone_r":0.091,"bldg_age30_r":null,"shelter_min_walk":3,"pop":20115,"hh":8245,"elderly65_r":0.1579,"single_hh_r":0.299,"source_level":"emd","flood_years":[],"landslide_hist_n":0},"geometry":{"type":"Polygon","coordinates":[[[126.93717,37.32218],[126.93666,37.32652],[126.93247,37.32848],[126.92879,37.32609],[126.92931,37.32175],[126.9335,37.3198],[126.93717,37.32218]]]}},{"type":"Feature","properties":{"h3":"8830e02299fffff","emd_code":"4141051000","emd_name":"군포1동","area_km2":0.5064,"edge":true,"slope_mean":6.17,"elev_mean":70.0,"flood_hist_n":0,"flood_depth_max_m":null,"flood_risk_100y":null,"semi_basement_r":null,"elderly_alone_r":0.1209,"bldg_age30_r":null,"shelter_min_walk":9,"pop":29966,"hh":14807,"elderly65_r":0.2132,"single_hh_r":0.4644,"source_level":"emd","flood_years":[],"landslide_hist_n":0},"geometry":{"type":"Polygon","coordinates":[[[126.95922,37.33649],[126.9587,37.34083],[126.95451,37.34278],[126.95083,37.3404],[126.95135,37.33606],[126.95554,37.3341],[126.95922,37.33649]]]}},{"type":"Feature","properties":{"h3":"8830e0229dfffff","emd_code":"4141051000","emd_name":"군포1동","area_km2":0.5064,"edge":true,"slope_mean":3.88,"elev_mean":58.9,"flood_hist_n":0,"flood_depth_max_m":null,"flood_risk_100y":null,"semi_basement_r":null,"elderly_alone_r":0.1209,"bldg_age30_r":null,"shelter_min_walk":14,"pop":29966,"hh":14807,"elderly65_r":0.2132,"single_hh_r":0.4644,"source_level":"emd","flood_years":[],"landslide_hist_n":0},"geometry":{"type":"Polygon","coordinates":[[[126.95606,37.32976],[126.95554,37.3341],[126.95135,37.33606],[126.94768,37.33367],[126.94819,37.32934],[126.95238,37.32738],[126.95606,37.32976]]]}},{"type":"Feature","properties":{"h3":"8830e022a9fffff","emd_code":"4141063000","emd_name":"송부동","area_km2":0.5061,"edge":true,"slope_mean":9.56,"elev_mean":71.1,"flood_hist_n":0,"flood_depth_max_m":null,"flood_risk_100y":null,"semi_basement_r":null,"elderly_alone_r":0.091,"bldg_age30_r":null,"shelter_min_walk":15,"pop":20115,"hh":8245,"elderly65_r":0.1579,"single_hh_r":0.299,"source_level":"emd","flood_years":[],"landslide_hist_n":0},"geometry":{"type":"Polygon","coordinates":[[[126.93872,37.30917],[126.9382,37.31351],[126.93402,37.31546],[126.93034,37.31308],[126.93086,37.30874],[126.93505,37.30679],[126.93872,37.30917]]]}},{"type":"Feature","properties":{"h3":"8830e022adfffff","emd_code":"4141063000","emd_name":"송부동","area_km2":0.506,"edge":true,"slope_mean":10.68,"elev_mean":62.4,"flood_hist_n":0,"flood_depth_max_m":null,"flood_risk_100y":null,"semi_basement_r":null,"elderly_alone_r":0.091,"bldg_age30_r":null,"shelter_min_walk":21,"pop":20115,"hh":8245,"elderly65_r":0.1579,"single_hh_r":0.299,"source_level":"emd","flood_years":[],"landslide_hist_n":0},"geometry":{"type":"Polygon","coordinates":[[[126.93557,37.30245],[126.93505,37.30679],[126.93086,37.30874],[126.92719,37.30636],[126.92771,37.30202],[126.93189,37.30006],[126.93557,37.30245]]]}},{"type":"Feature","properties":{"h3":"8830e022c1fffff","emd_code":"4141061000","emd_name":"대야동","area_km2":0.506,"edge":false,"slope_mean":11.99,"elev_mean":106.1,"flood_hist_n":0,"flood_depth_max_m":null,"flood_risk_100y":null,"semi_basement_r":null,"elderly_alone_r":0.1143,"bldg_age30_r":null,"shelter_min_walk":9,"pop":8878,"hh":3772,"elderly65_r":0.2355,"single_hh_r":0.2993,"source_level":"emd","flood_years":[],"landslide_hist_n":0},"geometry":{"type":"Polygon","coordinates":[[[126.92776,37.33477],[126.92724,37.33911],[126.92305,37.34106],[126.91938,37.33868],[126.9199,37.33434],[126.92409,37.33238],[126.92776,37.33477]]]}},{"type":"Feature","properties":{"h3":"8830e022c3fffff","emd_code":"4141052000","emd_name":"군포2동","area_km2":0.5061,"edge":false,"slope_mean":10.68,"elev_mean":93.5,"flood_hist_n":0,"flood_depth_max_m":null,"flood_risk_100y":null,"semi_basement_r":null,"elderly_alone_r":0.0972,"bldg_age30_r":null,"shelter_min_walk":1,"pop":40224,"hh":16086,"elderly65_r":0.1919,"single_hh_r":0.2664,"source_level":"emd","flood_years":[],"landslide_hist_n":0},"geometry":{"type":"Polygon","coordinates":[[[126.93562,37.3352],[126.93511,37.33954],[126.93092,37.34149],[126.92724,37.33911],[126.92776,37.33477],[126.93195,37.33282],[126.93562,37.3352]]]}},{"type":"Feature","properties":{"h3":"8830e022c5fffff","emd_code":"4141061000","emd_name":"대야동","area_km2":0.5059,"edge":false,"slope_mean":7.29,"elev_mean":69.6,"flood_hist_n":0,"flood_depth_max_m":null,"flood_risk_100y":null,"semi_basement_r":null,"elderly_alone_r":0.1143,"bldg_age30_r":null,"shelter_min_walk":5,"pop":8878,"hh":3772,"elderly65_r":0.2355,"single_hh_r":0.2993,"source_level":"emd","flood_years":[],"landslide_hist_n":0},"geometry":{"type":"Polygon","coordinates":[[[126.92461,37.32805],[126.92409,37.33238],[126.9199,37.33434],[126.91623,37.33195],[126.91675,37.32762],[126.92093,37.32566],[126.92461,37.32805]]]}},{"type":"Feature","properties":{"h3":"8830e022c7fffff","emd_code":"4141063000","emd_name":"송부동","area_km2":0.506,"edge":false,"slope_mean":8.44,"elev_mean":82.3,"flood_hist_n":0,"flood_depth_max_m":null,"flood_risk_100y":null,"semi_basement_r":null,"elderly_alone_r":0.091,"bldg_age30_r":null,"shelter_min_walk":7,"pop":20115,"hh":8245,"elderly65_r":0.1579,"single_hh_r":0.299,"source_level":"emd","flood_years":[],"landslide_hist_n":0},"geometry":{"type":"Polygon","coordinates":[[[126.93247,37.32848],[126.93195,37.33282],[126.92776,37.33477],[126.92409,37.33238],[126.92461,37.32805],[126.92879,37.32609],[126.93247,37.32848]]]}},{"type":"Feature","properties":{"h3":"8830e022c9fffff","emd_code":"4141059000","emd_name":"수리동","area_km2":0.5059,"edge":false,"slope_mean":15.66,"elev_mean":150.8,"flood_hist_n":0,"flood_depth_max_m":null,"flood_risk_100y":null,"semi_basement_r":null,"elderly_alone_r":0.1727,"bldg_age30_r":null,"shelter_min_walk":10,"pop":14753,"hh":6972,"elderly65_r":0.2485,"single_hh_r":0.4026,"source_level":"emd","flood_years":[],"landslide_hist_n":0},"geometry":{"type":"Polygon","coordinates":[[[126.92305,37.34106],[126.92254,37.3454],[126.91835,37.34735],[126.91468,37.34497],[126.91519,37.34063],[126.91938,37.33868],[126.92305,37.34106]]]}},{"type":"Feature","properties":{"h3":"8830e022cbfffff","emd_code":"4141058000","emd_name":"오금동","area_km2":0.5061,"edge":false,"slope_mean":15.16,"elev_mean":126.0,"flood_hist_n":0,"flood_depth_max_m":null,"flood_risk_100y":null,"semi_basement_r":null,"elderly_alone_r":0.1004,"bldg_age30_r":null,"shelter_min_walk":3,"pop":19432,"hh":8603,"elderly65_r":0.19,"single_hh_r":0.325,"source_level":"emd","flood_years":[],"landslide_hist_n":0},"geometry":{"type":"Polygon","coordinates":[[[126.93092,37.34149],[126.9304,37.34583],[126.92621,37.34778],[126.92254,37.3454],[126.92305,37.34106],[126.92724,37.33911],[126.93092,37.34149]]]}},{"type":"Feature","properties":{"h3":"8830e022cdfffff","emd_code":"4141061000","emd_name":"대야동","area_km2":0.5059,"edge":false,"slope_mean":14.24,"elev_mean":123.2,"flood_hist_n":0,"flood_depth_max_m":null,"flood_risk_100y":null,"semi_basement_r":null,"elderly_alone_r":0.1143,"bldg_age30_r":null,"shelter_min_walk":7,"pop":8878,"hh":3772,"elderly65_r":0.2355,"single_hh_r":0.2993,"source_level":"emd","flood_years":[],"landslide_hist_n":0},"geometry":{"type":"Polygon","coordinates":[[[126.9199,37.33434],[126.91938,37.33868],[126.91519,37.34063],[126.91152,37.33824],[126.91204,37.33391],[126.91623,37.33195],[126.9199,37.33434]]]}},{"type":"Feature","properties":{"h3":"8830e022d1fffff","emd_code":"4141052000","emd_name":"군포2동","area_km2":0.5063,"edge":false,"slope_mean":5.97,"elev_mean":65.1,"flood_hist_n":0,"flood_depth_max_m":null,"flood_risk_100y":null,"semi_basement_r":null,"elderly_alone_r":0.0972,"bldg_age30_r":null,"shelter_min_walk":2,"pop":40224,"hh":16086,"elderly65_r":0.1919,"single_hh_r":0.2664,"source_level":"emd","flood_years":[],"landslide_hist_n":0},"geometry":{"type":"Polygon","coordinates":[[[126.94664,37.34235],[126.94613,37.34669],[126.94194,37.34865],[126.93826,37.34626],[126.93878,37.34192],[126.94297,37.33997],[126.94664,37.34235]]]}},{"type":"Feature","properties":{"h3":"8830e022d3fffff","emd_code":"4141051000","emd_name":"군포1동","area_km2":0.5064,"edge":false,"slope_mean":5.78,"elev_mean":58.3,"flood_hist_n":0,"flood_depth_max_m":null,"flood_risk_100y":null,"semi_basement_r":null,"elderly_alone_r":0.1209,"bldg_age30_r":null,"shelter_min_walk":2,"pop":29966,"hh":14807,"elderly65_r":0.2132,"single_hh_r":0.4644,"source_level":"emd","flood_years":[],"landslide_hist_n":0},"geometry":{"type":"Polygon","coordinates":[[[126.95451,37.34278],[126.95399,37.34712],[126.9498,37.34908],[126.94613,37.34669],[126.94664,37.34235],[126.95083,37.3404],[126.95451,37.34278]]]}},{"type":"Feature","properties":{"h3":"8830e022d5fffff","emd_code":"4141052000","emd_name":"군포2동","area_km2":0.5062,"edge":false,"slope_mean":4.98,"elev_mean":64.8,"flood_hist_n":0,"flood_depth_max_m":null,"flood_risk_100y":null,"semi_basement_r":null,"elderly_alone_r":0.0972,"bldg_age30_r":null,"shelter_min_walk":9,"pop":40224,"hh":16086,"elderly65_r":0.1919,"single_hh_r":0.2664,"source_level":"emd","flood_years":[],"landslide_hist_n":0},"geometry":{"type":"Polygon","coordinates":[[[126.94349,37.33563],[126.94297,37.33997],[126.93878,37.34192],[126.93511,37.33954],[126.93562,37.3352],[126.93981,37.33325],[126.94349,37.33563]]]}},{"type":"Feature","properties":{"h3":"8830e022d7fffff","emd_code":"4141052000","emd_name":"군포2동","area_km2":0.5063,"edge":false,"slope_mean":5.81,"elev_mean":62.5,"flood_hist_n":0,"flood_depth_max_m":null,"flood_risk_100y":null,"semi_basement_r":null,"elderly_alone_r":0.0972,"bldg_age30_r":null,"shelter_min_walk":9,"pop":40224,"hh":16086,"elderly65_r":0.1919,"single_hh_r":0.2664,"source_level":"emd","flood_years":[],"landslide_hist_n":0},"geometry":{"type":"Polygon","coordinates":[[[126.95135,37.33606],[126.95083,37.3404],[126.94664,37.34235],[126.94297,37.33997],[126.94349,37.33563],[126.94768,37.33367],[126.95135,37.33606]]]}},{"type":"Feature","properties":{"h3":"8830e022d9fffff","emd_code":"4141052000","emd_name":"군포2동","area_km2":0.5062,"edge":false,"slope_mean":13.29,"elev_mean":105.6,"flood_hist_n":0,"flood_depth_max_m":null,"flood_risk_100y":null,"semi_basement_r":null,"elderly_alone_r":0.0972,"bldg_age30_r":null,"shelter_min_walk":3,"pop":40224,"hh":16086,"elderly65_r":0.1919,"single_hh_r":0.2664,"source_level":"emd","flood_years":[],"landslide_hist_n":0},"geometry":{"type":"Polygon","coordinates":[[[126.94194,37.34865],[126.94142,37.35298],[126.93723,37.35494],[126.93356,37.35255],[126.93407,37.34822],[126.93826,37.34626],[126.94194,37.34865]]]}},{"type":"Feature","properties":{"h3":"8830e022dbfffff","emd_code":"4141051000","emd_name":"군포1동","area_km2":0.5063,"edge":false,"slope_mean":5.1,"elev_mean":59.6,"flood_hist_n":0,"flood_depth_max_m":null,"flood_risk_100y":null,"semi_basement_r":null,"elderly_alone_r":0.1209,"bldg_age30_r":null,"shelter_min_walk":2,"pop":29966,"hh":14807,"elderly65_r":0.2132,"single_hh_r":0.4644,"source_level":"emd","flood_years":[],"landslide_hist_n":0},"geometry":{"type":"Polygon","coordinates":[[[126.9498,37.34908],[126.94929,37.35342],[126.94509,37.35537],[126.94142,37.35298],[126.94194,37.34865],[126.94613,37.34669],[126.9498,37.34908]]]}},{"type":"Feature","properties":{"h3":"8830e022ddfffff","emd_code":"4141052000","emd_name":"군포2동","area_km2":0.5062,"edge":false,"slope_mean":13.1,"elev_mean":111.6,"flood_hist_n":0,"flood_depth_max_m":null,"flood_risk_100y":null,"semi_basement_r":null,"elderly_alone_r":0.0972,"bldg_age30_r":null,"shelter_min_walk":3,"pop":40224,"hh":16086,"elderly65_r":0.1919,"single_hh_r":0.2664,"source_level":"emd","flood_years":[],"landslide_hist_n":0},"geometry":{"type":"Polygon","coordinates":[[[126.93878,37.34192],[126.93826,37.34626],[126.93407,37.34822],[126.9304,37.34583],[126.93092,37.34149],[126.93511,37.33954],[126.93878,37.34192]]]}},{"type":"Feature","properties":{"h3":"8830e022e1fffff","emd_code":"4141063000","emd_name":"송부동","area_km2":0.5059,"edge":false,"slope_mean":6.47,"elev_mean":46.7,"flood_hist_n":0,"flood_depth_max_m":null,"flood_risk_100y":null,"semi_basement_r":null,"elderly_alone_r":0.091,"bldg_age30_r":null,"shelter_min_walk":4,"pop":20115,"hh":8245,"elderly65_r":0.1579,"single_hh_r":0.299,"source_level":"emd","flood_years":[],"landslide_hist_n":0},"geometry":{"type":"Polygon","coordinates":[[[126.92616,37.31503],[126.92564,37.31937],[126.92145,37.32133],[126.91778,37.31894],[126.9183,37.3146],[126.92249,37.31265],[126.92616,37.31503]]]}},{"type":"Feature","properties":{"h3":"8830e022e3fffff","emd_code":"4141063000","emd_name":"송부동","area_km2":0.506,"edge":false,"slope_mean":11.91,"elev_mean":75.8,"flood_hist_n":0,"flood_depth_max_m":null,"flood_risk_100y":null,"semi_basement_r":null,"elderly_alone_r":0.091,"bldg_age30_r":null,"shelter_min_walk":7,"pop":20115,"hh":8245,"elderly65_r":0.1579,"single_hh_r":0.299,"source_level":"emd","flood_years":[],"landslide_hist_n":0},"geometry":{"type":"Polygon","coordinates":[[[126.93402,37.31546],[126.9335,37.3198],[126.92931,37.32175],[126.92564,37.31937],[126.92616,37.31503],[126.93034,37.31308],[126.93402,37.31546]]]}},{"type":"Feature","properties":{"h3":"8830e022e5fffff","emd_code":"4141063000","emd_name":"송부동","area_km2":0.5058,"edge":false,"slope_mean":4.95,"elev_mean":34.5,"flood_hist_n":0,"flood_depth_max_m":null,"flood_risk_100y":null,"semi_basement_r":null,"elderly_alone_r":0.091,"bldg_age30_r":null,"shelter_min_walk":12,"pop":20115,"hh":8245,"elderly65_r":0.1579,"single_hh_r":0.299,"source_level":"emd","flood_years":[],"landslide_hist_n":0},"geometry":{"type":"Polygon","coordinates":[[[126.923,37.30831],[126.92249,37.31265],[126.9183,37.3146],[126.91463,37.31222],[126.91515,37.30788],[126.91933,37.30593],[126.923,37.30831]]]}},{"type":"Feature","properties":{"h3":"8830e022e7fffff","emd_code":"4141063000","emd_name":"송부동","area_km2":0.506,"edge":false,"slope_mean":9.07,"elev_mean":54.4,"flood_hist_n":0,"flood_depth_max_m":null,"flood_risk_100y":null,"semi_basement_r":null,"elderly_alone_r":0.091,"bldg_age30_r":null,"shelter_min_walk":9,"pop":20115,"hh":8245,"elderly65_r":0.1579,"single_hh_r":0.299,"source_level":"emd","flood_years":[],"landslide_hist_n":0},"geometry":{"type":"Polygon","coordinates":[[[126.93086,37.30874],[126.93034,37.31308],[126.92616,37.31503],[126.92249,37.31265],[126.923,37.30831],[126.92719,37.30636],[126.93086,37.30874]]]}},{"type":"Feature","properties":{"h3":"8830e022e9fffff","emd_code":"4141063000","emd_name":"송부동","area_km2":0.5059,"edge":false,"slope_mean":5.91,"elev_mean":53.9,"flood_hist_n":0,"flood_depth_max_m":null,"flood_risk_100y":null,"semi_basement_r":null,"elderly_alone_r":0.091,"bldg_age30_r":null,"shelter_min_walk":4,"pop":20115,"hh":8245,"elderly65_r":0.1579,"single_hh_r":0.299,"source_level":"emd","flood_years":[],"landslide_hist_n":0},"geometry":{"type":"Polygon","coordinates":[[[126.92145,37.32133],[126.92093,37.32566],[126.91675,37.32762],[126.91308,37.32523],[126.91359,37.3209],[126.91778,37.31894],[126.92145,37.32133]]]}},{"type":"Feature","properties":{"h3":"8830e022ebfffff","emd_code":"4141063000","emd_name":"송부동","area_km2":0.506,"edge":false,"slope_mean":10.23,"elev_mean":73.5,"flood_hist_n":0,"flood_depth_max_m":null,"flood_risk_100y":null,"semi_basement_r":null,"elderly_alone_r":0.091,"bldg_age30_r":null,"shelter_min_walk":10,"pop":20115,"hh":8245,"elderly65_r":0.1579,"single_hh_r":0.299,"source_level":"emd","flood_years":[],"landslide_hist_n":0},"geometry":{"type":"Polygon","coordinates":[[[126.92931,37.32175],[126.92879,37.32609],[126.92461,37.32805],[126.92093,37.32566],[126.92145,37.32133],[126.92564,37.31937],[126.92931,37.32175]]]}},{"type":"Feature","properties":{"h3":"8830e022edfffff","emd_code":"4141061000","emd_name":"대야동","area_km2":0.5058,"edge":false,"slope_mean":5.8,"elev_mean":44.8,"flood_hist_n":0,"flood_depth_max_m":null,"flood_risk_100y":null,"semi_basement_r":null,"elderly_alone_r":0.1143,"bldg_age30_r":null,"shelter_min_walk":6,"pop":8878,"hh":3772,"elderly65_r":0.2355,"single_hh_r":0.2993,"source_level":"emd","flood_years":[],"landslide_hist_n":0},"geometry":{"type":"Polygon","coordinates":[[[126.9183,37.3146],[126.91778,37.31894],[126.91359,37.3209],[126.90992,37.31851],[126.91044,37.31417],[126.91463,37.31222],[126.9183,37.3146]]]}},{"type":"Feature","properties":{"h3":"8830e03501fffff","emd_code":"4141060000","emd_name":"궁내동","area_km2":0.5059,"edge":true,"slope_mean":27.66,"elev_mean":241.8,"flood_hist_n":0,"flood_depth_max_m":null,"flood_risk_100y":null,"semi_basement_r":null,"elderly_alone_r":0.0808,"bldg_age30_r":null,"shelter_min_walk":20,"pop":19206,"hh":6927,"elderly65_r":0.1669,"single_hh_r":0.1829,"source_level":"emd","flood_years":[],"landslide_hist_n":0},"geometry":{"type":"Polygon","coordinates":[[[126.91208,37.36666],[126.91157,37.37099],[126.90738,37.37294],[126.9037,37.37056],[126.90422,37.36622],[126.90841,37.36427],[126.91208,37.36666]]]}},{"type":"Feature","properties":{"h3":"8830e03503fffff","emd_code":"4141060000","emd_name":"궁내동","area_km2":0.506,"edge":false,"slope_mean":24.09,"elev_mean":283.4,"flood_hist_n":0,"flood_depth_max_m":null,"flood_risk_100y":null,"semi_basement_r":null,"elderly_alone_r":0.0808,"bldg_age30_r":null,"shelter_min_walk":12,"pop":19206,"hh":6927,"elderly65_r":0.1669,"single_hh_r":0.1829,"source_level":"emd","flood_years":[],"landslide_hist_n":0},"geometry":{"type":"Polygon","coordinates":[[[126.91995,37.36709],[126.91943,37.37143],[126.91524,37.37338],[126.91157,37.37099],[126.91208,37.36666],[126.91628,37.3647],[126.91995,37.36709]]]}},{"type":"Feature","properties":{"h3":"8830e03505fffff","emd_code":"4141060000","emd_name":"궁내동","area_km2":0.5058,"edge":true,"slope_mean":27.81,"elev_mean":301.7,"flood_hist_n":0,"flood_depth_max_m":null,"flood_risk_100y":null,"semi_basement_r":null,"elderly_alone_r":0.0808,"bldg_age30_r":null,"shelter_min_walk":17,"pop":19206,"hh":6927,"elderly65_r":0.1669,"single_hh_r":0.1829,"source_level":"emd","flood_years":[],"landslide_hist_n":0},"geometry":{"type":"Polygon","coordinates":[[[126.90893,37.35993],[126.90841,37.36427],[126.90422,37.36622],[126.90055,37.36384],[126.90107,37.3595],[126.90526,37.35755],[126.90893,37.35993]]]}},{"type":"Feature","properties":{"h3":"8830e03507fffff","emd_code":"4141060000","emd_name":"궁내동","area_km2":0.5059,"edge":false,"slope_mean":22.35,"elev_mean":235.7,"flood_hist_n":0,"flood_depth_max_m":null,"flood_risk_100y":null,"semi_basement_r":null,"elderly_alone_r":0.0808,"bldg_age30_r":null,"shelter_min_walk":9,"pop":19206,"hh":6927,"elderly65_r":0.1669,"single_hh_r":0.1829,"source_level":"emd","flood_years":[],"landslide_hist_n":0},"geometry":{"type":"Polygon","coordinates":[[[126.91679,37.36037],[126.91628,37.3647],[126.91208,37.36666],[126.90841,37.36427],[126.90893,37.35993],[126.91312,37.35798],[126.91679,37.36037]]]}},{"type":"Feature","properties":{"h3":"8830e0350bfffff","emd_code":"4141062000","emd_name":"광정동","area_km2":0.5059,"edge":true,"slope_mean":28.92,"elev_mean":287.8,"flood_hist_n":0,"flood_depth_max_m":null,"flood_risk_100y":null,"semi_basement_r":null,"elderly_alone_r":0.142,"bldg_age30_r":null,"shelter_min_walk":19,"pop":22782,"hh":10284,"elderly65_r":0.2087,"single_hh_r":0.3979,"source_level":"emd","flood_years":[],"landslide_hist_n":0},"geometry":{"type":"Polygon","coordinates":[[[126.91524,37.37338],[126.91472,37.37772],[126.91053,37.37967],[126.90686,37.37728],[126.90738,37.37294],[126.91157,37.37099],[126.91524,37.37338]]]}},{"type":"Feature","properties":{"h3":"8830e03511fffff","emd_code":"4141055000","emd_name":"산본2동","area_km2":0.5061,"edge":false,"slope_mean":18.06,"elev_mean":139.3,"flood_hist_n":0,"flood_depth_max_m":null,"flood_risk_100y":null,"semi_basement_r":null,"elderly_alone_r":0.0986,"bldg_age30_r":null,"shelter_min_walk":8,"pop":24545,"hh":9831,"elderly65_r":0.2135,"single_hh_r":0.2594,"source_level":"emd","flood_years":[],"landslide_hist_n":0},"geometry":{"type":"Polygon","coordinates":[[[126.93097,37.37425],[126.93045,37.37859],[126.92626,37.38054],[126.92259,37.37815],[126.9231,37.37381],[126.9273,37.37186],[126.93097,37.37425]]]}},{"type":"Feature","properties":{"h3":"8830e03513fffff","emd_code":"4141055000","emd_name":"산본2동","area_km2":0.5063,"edge":false,"slope_mean":12.77,"elev_mean":81.2,"flood_hist_n":0,"flood_depth_max_m":null,"flood_risk_100y":null,"semi_basement_r":null,"elderly_alone_r":0.0986,"bldg_age30_r":null,"shelter_min_walk":4,"pop":24545,"hh":9831,"elderly65_r":0.2135,"single_hh_r":0.2594,"source_level":"emd","flood_years":[],"landslide_hist_n":0},"geometry":{"type":"Polygon","coordinates":[[[126.93884,37.37468],[126.93832,37.37902],[126.93413,37.38097],[126.93045,37.37859],[126.93097,37.37425],[126.93516,37.37229],[126.93884,37.37468]]]}},{"type":"Feature","properties":{"h3":"8830e03515fffff","emd_code":"4141062000","emd_name":"광정동","area_km2":0.5061,"edge":false,"slope_mean":15.33,"elev_mean":135.1,"flood_hist_n":0,"flood_depth_max_m":null,"flood_risk_100y":null,"semi_basement_r":null,"elderly_alone_r":0.142,"bldg_age30_r":null,"shelter_min_walk":7,"pop":22782,"hh":10284,"elderly65_r":0.2087,"single_hh_r":0.3979,"source_level":"emd","flood_years":[],"landslide_hist_n":0},"geometry":{"type":"Polygon","coordinates":[[[126.92781,37.36752],[126.9273,37.37186],[126.9231,37.37381],[126.91943,37.37143],[126.91995,37.36709],[126.92414,37.36514],[126.92781,37.36752]]]}},{"type":"Feature","properties":{"h3":"8830e03517fffff","emd_code":"4141055000","emd_name":"산본2동","area_km2":0.5062,"edge":false,"slope_mean":7.17,"elev_mean":65.8,"flood_hist_n":0,"flood_depth_max_m":null,"flood_risk_100y":null,"semi_basement_r":null,"elderly_alone_r":0.0986,"bldg_age30_r":null,"shelter_min_walk":1,"pop":24545,"hh":9831,"elderly65_r":0.2135,"single_hh_r":0.2594,"source_level":"emd","flood_years":[],"landslide_hist_n":0},"geometry":{"type":"Polygon","coordinates":[[[126.93568,37.36796],[126.93516,37.37229],[126.93097,37.37425],[126.9273,37.37186],[126.92781,37.36752],[126.932,37.36557],[126.93568,37.36796]]]}},{"type":"Feature","properties":{"h3":"8830e0351dfffff","emd_code":"4141062000","emd_name":"광정동","area_km2":0.506,"edge":false,"slope_mean":27.1,"elev_mean":308.6,"flood_hist_n":0,"flood_depth_max_m":null,"flood_risk_100y":null,"semi_basement_r":null,"elderly_alone_r":0.142,"bldg_age30_r":null,"shelter_min_walk":15,"pop":22782,"hh":10284,"elderly65_r":0.2087,"single_hh_r":0.3979,"source_level":"emd","flood_years":[],"landslide_hist_n":0},"geometry":{"type":"Polygon","coordinates":[[[126.9231,37.37381],[126.92259,37.37815],[126.91839,37.3801],[126.91472,37.37772],[126.91524,37.37338],[126.91943,37.37143],[126.9231,37.37381]]]}},{"type":"Feature","properties":{"h3":"8830e03521fffff","emd_code":"4141061000","emd_name":"대야동","area_km2":0.5058,"edge":false,"slope_mean":20.16,"elev_mean":185.5,"flood_hist_n":0,"flood_depth_max_m":null,"flood_risk_100y":null,"semi_basement_r":null,"elderly_alone_r":0.1143,"bldg_age30_r":null,"shelter_min_walk":19,"pop":8878,"hh":3772,"elderly65_r":0.2355,"single_hh_r":0.2993,"source_level":"emd","flood_years":[],"landslide_hist_n":0},"geometry":{"type":"Polygon","coordinates":[[[126.91049,37.34692],[126.90997,37.35126],[126.90578,37.35321],[126.90211,37.35082],[126.90263,37.34649],[126.90682,37.34453],[126.91049,37.34692]]]}},{"type":"Feature","properties":{"h3":"8830e03523fffff","emd_code":"4141059000","emd_name":"수리동","area_km2":0.5059,"edge":false,"slope_mean":15.03,"elev_mean":156.7,"flood_hist_n":0,"flood_depth_max_m":null,"flood_risk_100y":null,"semi_basement_r":null,"elderly_alone_r":0.1727,"bldg_age30_r":null,"shelter_min_walk":12,"pop":14753,"hh":6972,"elderly65_r":0.2485,"single_hh_r":0.4026,"source_level":"emd","flood_years":[],"landslide_hist_n":0},"geometry":{"type":"Polygon","coordinates":[[[126.91835,37.34735],[126.91783,37.35169],[126.91364,37.35364],[126.90997,37.35126],[126.91049,37.34692],[126.91468,37.34497],[126.91835,37.34735]]]}},{"type":"Feature","properties":{"h3":"8830e03525fffff","emd_code":"4141061000","emd_name":"대야동","area_km2":0.5057,"edge":false,"slope_mean":18.02,"elev_mean":135.0,"flood_hist_n":0,"flood_depth_max_m":null,"flood_risk_100y":null,"semi_basement_r":null,"elderly_alone_r":0.1143,"bldg_age30_r":null,"shelter_min_walk":24,"pop":8878,"hh":3772,"elderly65_r":0.2355,"single_hh_r":0.2993,"source_level":"emd","flood_years":[],"landslide_hist_n":0},"geometry":{"type":"Polygon","coordinates":[[[126.90733,37.3402],[126.90682,37.34453],[126.90263,37.34649],[126.89896,37.3441],[126.89948,37.33976],[126.90366,37.33781],[126.90733,37.3402]]]}},{"type":"Feature","properties":{"h3":"8830e03527fffff","emd_code":"4141061000","emd_name":"대야동","area_km2":0.5058,"edge":false,"slope_mean":17.99,"elev_mean":169.2,"flood_hist_n":0,"flood_depth_max_m":null,"flood_risk_100y":null,"semi_basement_r":null,"elderly_alone_r":0.1143,"bldg_age30_r":null,"shelter_min_walk":19,"pop":8878,"hh":3772,"elderly65_r":0.2355,"single_hh_r":0.2993,"source_level":"emd","flood_years":[],"landslide_hist_n":0},"geometry":{"type":"Polygon","coordinates":[[[126.91519,37.34063],[126.91468,37.34497],[126.91049,37.34692],[126.90682,37.34453],[126.90733,37.3402],[126.91152,37.33824],[126.91519,37.34063]]]}},{"type":"Feature","properties":{"h3":"8830e03529fffff","emd_code":"4141061000","emd_name":"대야동","area_km2":0.5057,"edge":false,"slope_mean":29.01,"elev_mean":312.9,"flood_hist_n":0,"flood_depth_max_m":null,"flood_risk_100y":null,"semi_basement_r":null,"elderly_alone_r":0.1143,"bldg_age30_r":null,"shelter_min_walk":21,"pop":8878,"hh":3772,"elderly65_r":0.2355,"single_hh_r":0.2993,"source_level":"emd","flood_years":[],"landslide_hist_n":1},"geometry":{"type":"Polygon","coordinates":[[[126.90578,37.35321],[126.90526,37.35755],[126.90107,37.3595],[126.8974,37.35711],[126.89792,37.35278],[126.90211,37.35082],[126.90578,37.35321]]]}},{"type":"Feature","properties":{"h3":"8830e0352bfffff","emd_code":"4141059000","emd_name":"수리동","area_km2":0.5058,"edge":false,"slope_mean":21.32,"elev_mean":239.4,"flood_hist_n":0,"flood_depth_max_m":null,"flood_risk_100y":null,"semi_basement_r":null,"elderly_alone_r":0.1727,"bldg_age30_r":null,"shelter_min_walk":10,"pop":14753,"hh":6972,"elderly65_r":0.2485,"single_hh_r":0.4026,"source_level":"emd","flood_years":[],"landslide_hist_n":0},"geometry":{"type":"Polygon","coordinates":[[[126.91364,37.35364],[126.91312,37.35798],[126.90893,37.35993],[126.90526,37.35755],[126.90578,37.35321],[126.90997,37.35126],[126.91364,37.35364]]]}},{"type":"Feature","properties":{"h3":"8830e0352dfffff","emd_code":"4141061000","emd_name":"대야동","area_km2":0.5057,"edge":false,"slope_mean":22.89,"elev_mean":163.4,"flood_hist_n":0,"flood_depth_max_m":null,"flood_risk_100y":null,"semi_basement_r":null,"elderly_alone_r":0.1143,"bldg_age30_r":null,"shelter_min_walk":28,"pop":8878,"hh":3772,"elderly65_r":0.2355,"single_hh_r":0.2993,"source_level":"emd","flood_years":[],"landslide_hist_n":0},"geometry":{"type":"Polygon","coordinates":[[[126.90263,37.34649],[126.90211,37.35082],[126.89792,37.35278],[126.89425,37.35039],[126.89477,37.34605],[126.89896,37.3441],[126.90263,37.34649]]]}},{"type":"Feature","properties":{"h3":"8830e03531fffff","emd_code":"4141059000","emd_name":"수리동","area_km2":0.5061,"edge":false,"slope_mean":9.87,"elev_mean":79.1,"flood_hist_n":0,"flood_depth_max_m":null,"flood_risk_100y":null,"semi_basement_r":null,"elderly_alone_r":0.1727,"bldg_age30_r":null,"shelter_min_walk":3,"pop":14753,"hh":6972,"elderly65_r":0.2485,"single_hh_r":0.4026,"source_level":"emd","flood_years":[],"landslide_hist_n":0},"geometry":{"type":"Polygon","coordinates":[[[126.92936,37.35451],[126.92885,37.35885],[126.92466,37.3608],[126.92098,37.35841],[126.9215,37.35407],[126.92569,37.35212],[126.92936,37.35451]]]}},{"type":"Feature","properties":{"h3":"8830e03533fffff","emd_code":"4141057000","emd_name":"재궁동","area_km2":0.5062,"edge":false,"slope_mean":7.94,"elev_mean":70.6,"flood_hist_n":0,"flood_depth_max_m":null,"flood_risk_100y":null,"semi_basement_r":null,"elderly_alone_r":0.14,"bldg_age30_r":null,"shelter_min_walk":3,"pop":16784,"hh":8315,"elderly65_r":0.2445,"single_hh_r":0.429,"source_level":"emd","flood_years":[],"landslide_hist_n":0},"geometry":{"type":"Polygon","coordinates":[[[126.93723,37.35494],[126.93671,37.35928],[126.93252,37.36123],[126.92885,37.35885],[126.92936,37.35451],[126.93356,37.35255],[126.93723,37.35494]]]}},{"type":"Feature","properties":{"h3":"8830e03535fffff","emd_code":"4141059000","emd_name":"수리동","area_km2":0.506,"edge":false,"slope_mean":14.47,"elev_mean":111.2,"flood_hist_n":0,"flood_depth_max_m":null,"flood_risk_100y":null,"semi_basement_r":null,"elderly_alone_r":0.1727,"bldg_age30_r":null,"shelter_min_walk":5,"pop":14753,"hh":6972,"elderly65_r":0.2485,"single_hh_r":0.4026,"source_level":"emd","flood_years":[],"landslide_hist_n":0},"geometry":{"type":"Polygon","coordinates":[[[126.92621,37.34778],[126.92569,37.35212],[126.9215,37.35407],[126.91783,37.35169],[126.91835,37.34735],[126.92254,37.3454],[126.92621,37.34778]]]}},{"type":"Feature","properties":{"h3":"8830e03537fffff","emd_code":"4141058000","emd_name":"오금동","area_km2":0.5061,"edge":false,"slope_mean":12.7,"elev_mean":103.2,"flood_hist_n":0,"flood_depth_max_m":null,"flood_risk_100y":null,"semi_basement_r":null,"elderly_alone_r":0.1004,"bldg_age30_r":null,"shelter_min_walk":3,"pop":19432,"hh":8603,"elderly65_r":0.19,"single_hh_r":0.325,"source_level":"emd","flood_years":[],"landslide_hist_n":0},"geometry":{"type":"Polygon","coordinates":[[[126.93407,37.34822],[126.93356,37.35255],[126.92936,37.35451],[126.92569,37.35212],[126.92621,37.34778],[126.9304,37.34583],[126.93407,37.34822]]]}},{"type":"Feature","properties":{"h3":"8830e03539fffff","emd_code":"4141060000","emd_name":"궁내동","area_km2":0.506,"edge":false,"slope_mean":9.9,"elev_mean":99.7,"flood_hist_n":0,"flood_depth_max_m":null,"flood_risk_100y":null,"semi_basement_r":null,"elderly_alone_r":0.0808,"bldg_age30_r":null,"shelter_min_walk":2,"pop":19206,"hh":6927,"elderly65_r":0.1669,"single_hh_r":0.1829,"source_level":"emd","flood_years":[],"landslide_hist_n":0},"geometry":{"type":"Polygon","coordinates":[[[126.92466,37.3608],[126.92414,37.36514],[126.91995,37.36709],[126.91628,37.3647],[126.91679,37.36037],[126.92098,37.35841],[126.92466,37.3608]]]}},{"type":"Feature","properties":{"h3":"8830e0353bfffff","emd_code":"4141062000","emd_name":"광정동","area_km2":0.5061,"edge":false,"slope_mean":6.82,"elev_mean":64.4,"flood_hist_n":0,"flood_depth_max_m":null,"flood_risk_100y":null,"semi_basement_r":null,"elderly_alone_r":0.142,"bldg_age30_r":null,"shelter_min_walk":2,"pop":22782,"hh":10284,"elderly65_r":0.2087,"single_hh_r":0.3979,"source_level":"emd","flood_years":[],"landslide_hist_n":0},"geometry":{"type":"Polygon","coordinates":[[[126.93252,37.36123],[126.932,37.36557],[126.92781,37.36752],[126.92414,37.36514],[126.92466,37.3608],[126.92885,37.35885],[126.93252,37.36123]]]}},{"type":"Feature","properties":{"h3":"8830e0353dfffff","emd_code":"4141059000","emd_name":"수리동","area_km2":0.506,"edge":false,"slope_mean":12.35,"elev_mean":114.7,"flood_hist_n":0,"flood_depth_max_m":null,"flood_risk_100y":null,"semi_basement_r":null,"elderly_alone_r":0.1727,"bldg_age30_r":null,"shelter_min_walk":1,"pop":14753,"hh":6972,"elderly65_r":0.2485,"single_hh_r":0.4026,"source_level":"emd","flood_years":[],"landslide_hist_n":0},"geometry":{"type":"Polygon","coordinates":[[[126.9215,37.35407],[126.92098,37.35841],[126.91679,37.36037],[126.91312,37.35798],[126.91364,37.35364],[126.91783,37.35169],[126.9215,37.35407]]]}},{"type":"Feature","properties":{"h3":"8830e03563fffff","emd_code":"4141061000","emd_name":"대야동","area_km2":0.5057,"edge":true,"slope_mean":26.7,"elev_mean":305.2,"flood_hist_n":0,"flood_depth_max_m":null,"flood_risk_100y":null,"semi_basement_r":null,"elderly_alone_r":0.1143,"bldg_age30_r":null,"shelter_min_walk":21,"pop":8878,"hh":3772,"elderly65_r":0.2355,"single_hh_r":0.2993,"source_level":"emd","flood_years":[],"landslide_hist_n":0},"geometry":{"type":"Polygon","coordinates":[[[126.90107,37.3595],[126.90055,37.36384],[126.89636,37.36579],[126.89269,37.3634],[126.89321,37.35906],[126.8974,37.35711],[126.90107,37.3595]]]}},{"type":"Feature","properties":{"h3":"8830e03567fffff","emd_code":"4141061000","emd_name":"대야동","area_km2":0.5056,"edge":false,"slope_mean":27.39,"elev_mean":273.3,"flood_hist_n":0,"flood_depth_max_m":null,"flood_risk_100y":null,"semi_basement_r":null,"elderly_alone_r":0.1143,"bldg_age30_r":null,"shelter_min_walk":19,"pop":8878,"hh":3772,"elderly65_r":0.2355,"single_hh_r":0.2993,"source_level":"emd","flood_years":[],"landslide_hist_n":0},"geometry":{"type":"Polygon","coordinates":[[[126.89792,37.35278],[126.8974,37.35711],[126.89321,37.35906],[126.88954,37.35668],[126.89006,37.35234],[126.89425,37.35039],[126.89792,37.35278]]]}},{"type":"Feature","properties":{"h3":"8830e03585fffff","emd_code":"4141051000","emd_name":"군포1동","area_km2":0.5066,"edge":true,"slope_mean":5.84,"elev_mean":50.7,"flood_hist_n":0,"flood_depth_max_m":null,"flood_risk_100y":null,"semi_basement_r":null,"elderly_alone_r":0.1209,"bldg_age30_r":null,"shelter_min_walk":1,"pop":29966,"hh":14807,"elderly65_r":0.2132,"single_hh_r":0.4644,"source_level":"emd","flood_years":[],"landslide_hist_n":0},"geometry":{"type":"Polygon","coordinates":[[[126.96399,37.36296],[126.96348,37.3673],[126.95928,37.36925],[126.95561,37.36687],[126.95612,37.36253],[126.96031,37.36057],[126.96399,37.36296]]]}},{"type":"Feature","properties":{"h3":"8830e035a1fffff","emd_code":"4141051000","emd_name":"군포1동","area_km2":0.5066,"edge":true,"slope_mean":6.85,"elev_mean":59.8,"flood_hist_n":0,"flood_depth_max_m":null,"flood_risk_100y":null,"semi_basement_r":null,"elderly_alone_r":0.1209,"bldg_age30_r":null,"shelter_min_walk":13,"pop":29966,"hh":14807,"elderly65_r":0.2132,"single_hh_r":0.4644,"source_level":"emd","flood_years":[],"landslide_hist_n":0},"geometry":{"type":"Polygon","coordinates":[[[126.96554,37.34994],[126.96502,37.35428],[126.96083,37.35623],[126.95715,37.35385],[126.95767,37.34951],[126.96186,37.34755],[126.96554,37.34994]]]}},{"type":"Feature","properties":{"h3":"8830e035a5fffff","emd_code":"4141051000","emd_name":"군포1동","area_km2":0.5065,"edge":true,"slope_mean":11.81,"elev_mean":87.6,"flood_hist_n":0,"flood_depth_max_m":null,"flood_risk_100y":null,"semi_basement_r":null,"elderly_alone_r":0.1209,"bldg_age30_r":null,"shelter_min_walk":4,"pop":29966,"hh":14807,"elderly65_r":0.2132,"single_hh_r":0.4644,"source_level":"emd","flood_years":[],"landslide_hist_n":0},"geometry":{"type":"Polygon","coordinates":[[[126.96238,37.34321],[126.96186,37.34755],[126.95767,37.34951],[126.95399,37.34712],[126.95451,37.34278],[126.9587,37.34083],[126.96238,37.34321]]]}},{"type":"Feature","properties":{"h3":"8830e035a9fffff","emd_code":"4141051000","emd_name":"군포1동","area_km2":0.5065,"edge":false,"slope_mean":4.87,"elev_mean":45.9,"flood_hist_n":0,"flood_depth_max_m":null,"flood_risk_100y":null,"semi_basement_r":null,"elderly_alone_r":0.1209,"bldg_age30_r":null,"shelter_min_walk":10,"pop":29966,"hh":14807,"elderly65_r":0.2132,"single_hh_r":0.4644,"source_level":"emd","flood_years":[],"landslide_hist_n":0},"geometry":{"type":"Polygon","coordinates":[[[126.96083,37.35623],[126.96031,37.36057],[126.95612,37.36253],[126.95245,37.36014],[126.95296,37.3558],[126.95715,37.35385],[126.96083,37.35623]]]}},{"type":"Feature","properties":{"h3":"8830e035abfffff","emd_code":"4141051000","emd_name":"군포1동","area_km2":0.5066,"edge":true,"slope_mean":4.9,"elev_mean":52.8,"flood_hist_n":0,"flood_depth_max_m":null,"flood_risk_100y":null,"semi_basement_r":null,"elderly_alone_r":0.1209,"bldg_age30_r":null,"shelter_min_walk":4,"pop":29966,"hh":14807,"elderly65_r":0.2132,"single_hh_r":0.4644,"source_level":"emd","flood_years":[],"landslide_hist_n":0},"geometry":{"type":"Polygon","coordinates":[[[126.9687,37.35666],[126.96818,37.361],[126.96399,37.36296],[126.96031,37.36057],[126.96083,37.35623],[126.96502,37.35428],[126.9687,37.35666]]]}},{"type":"Feature","properties":{"h3":"8830e035adfffff","emd_code":"4141051000","emd_name":"군포1동","area_km2":0.5064,"edge":false,"slope_mean":4.91,"elev_mean":52.0,"flood_hist_n":0,"flood_depth_max_m":null,"flood_risk_100y":null,"semi_basement_r":null,"elderly_alone_r":0.1209,"bldg_age30_r":null,"shelter_min_walk":9,"pop":29966,"hh":14807,"elderly65_r":0.2132,"single_hh_r":0.4644,"source_level":"emd","flood_years":[],"landslide_hist_n":0},"geometry":{"type":"Polygon","coordinates":[[[126.95767,37.34951],[126.95715,37.35385],[126.95296,37.3558],[126.94929,37.35342],[126.9498,37.34908],[126.95399,37.34712],[126.95767,37.34951]]]}},{"type":"Feature","properties":{"h3":"8830e035c5fffff","emd_code":"4141054000","emd_name":"산본1동","area_km2":0.5064,"edge":false,"slope_mean":8.21,"elev_mean":42.9,"flood_hist_n":0,"flood_depth_max_m":null,"flood_risk_100y":null,"semi_basement_r":null,"elderly_alone_r":0.2001,"bldg_age30_r":null,"shelter_min_walk":4,"pop":14128,"hh":8297,"elderly65_r":0.2888,"single_hh_r":0.5726,"source_level":"emd","flood_years":[],"landslide_hist_n":0},"geometry":{"type":"Polygon","coordinates":[[[126.94671,37.37511],[126.94619,37.37945],[126.942,37.38141],[126.93832,37.37902],[126.93884,37.37468],[126.94303,37.37273],[126.94671,37.37511]]]}},{"type":"Feature","properties":{"h3":"8830e035c7fffff","emd_code":"4141056000","emd_name":"금정동","area_km2":0.5065,"edge":true,"slope_mean":9.42,"elev_mean":56.1,"flood_hist_n":0,"flood_depth_max_m":null,"flood_risk_100y":null,"semi_basement_r":null,"elderly_alone_r":0.1289,"bldg_age30_r":null,"shelter_min_walk":2,"pop":18440,"hh":9635,"elderly65_r":0.2128,"single_hh_r":0.4951,"source_level":"emd","flood_years":[],"landslide_hist_n":0},"geometry":{"type":"Polygon","coordinates":[[[126.95457,37.37554],[126.95406,37.37988],[126.94987,37.38184],[126.94619,37.37945],[126.94671,37.37511],[126.9509,37.37316],[126.95457,37.37554]]]}},{"type":"Feature","properties":{"h3":"8830e035e1fffff","emd_code":"4141056000","emd_name":"금정동","area_km2":0.5064,"edge":false,"slope_mean":4.32,"elev_mean":49.5,"flood_hist_n":0,"flood_depth_max_m":null,"flood_risk_100y":null,"semi_basement_r":null,"elderly_alone_r":0.1289,"bldg_age30_r":null,"shelter_min_walk":3,"pop":18440,"hh":9635,"elderly65_r":0.2128,"single_hh_r":0.4951,"source_level":"emd","flood_years":[],"landslide_hist_n":0},"geometry":{"type":"Polygon","coordinates":[[[126.94825,37.36209],[126.94774,37.36643],[126.94355,37.36839],[126.93987,37.366],[126.94039,37.36166],[126.94458,37.35971],[126.94825,37.36209]]]}},{"type":"Feature","properties":{"h3":"8830e035e3fffff","emd_code":"4141056000","emd_name":"금정동","area_km2":0.5065,"edge":false,"slope_mean":4.04,"elev_mean":41.2,"flood_hist_n":0,"flood_depth_max_m":null,"flood_risk_100y":null,"semi_basement_r":null,"elderly_alone_r":0.1289,"bldg_age30_r":null,"shelter_min_walk":6,"pop":18440,"hh":9635,"elderly65_r":0.2128,"single_hh_r":0.4951,"source_level":"emd","flood_years":[],"landslide_hist_n":0},"geometry":{"type":"Polygon","coordinates":[[[126.95612,37.36253],[126.95561,37.36687],[126.95141,37.36882],[126.94774,37.36643],[126.94825,37.36209],[126.95245,37.36014],[126.95612,37.36253]]]}},{"type":"Feature","properties":{"h3":"8830e035e5fffff","emd_code":"4141057000","emd_name":"재궁동","area_km2":0.5063,"edge":false,"slope_mean":10.1,"elev_mean":82.7,"flood_hist_n":0,"flood_depth_max_m":null,"flood_risk_100y":null,"semi_basement_r":null,"elderly_alone_r":0.14,"bldg_age30_r":null,"shelter_min_walk":5,"pop":16784,"hh":8315,"elderly65_r":0.2445,"single_hh_r":0.429,"source_level":"emd","flood_years":[],"landslide_hist_n":0},"geometry":{"type":"Polygon","coordinates":[[[126.94509,37.35537],[126.94458,37.35971],[126.94039,37.36166],[126.93671,37.35928],[126.93723,37.35494],[126.94142,37.35298],[126.94509,37.35537]]]}},{"type":"Feature","properties":{"h3":"8830e035e7fffff","emd_code":"4141051000","emd_name":"군포1동","area_km2":0.5064,"edge":false,"slope_mean":4.47,"elev_mean":50.0,"flood_hist_n":0,"flood_depth_max_m":null,"flood_risk_100y":null,"semi_basement_r":null,"elderly_alone_r":0.1209,"bldg_age30_r":null,"shelter_min_walk":2,"pop":29966,"hh":14807,"elderly65_r":0.2132,"single_hh_r":0.4644,"source_level":"emd","flood_years":[],"landslide_hist_n":0},"geometry":{"type":"Polygon","coordinates":[[[126.95296,37.3558],[126.95245,37.36014],[126.94825,37.36209],[126.94458,37.35971],[126.94509,37.35537],[126.94929,37.35342],[126.95296,37.3558]]]}},{"type":"Feature","properties":{"h3":"8830e035e9fffff","emd_code":"4141054000","emd_name":"산본1동","area_km2":0.5063,"edge":false,"slope_mean":4.71,"elev_mean":46.2,"flood_hist_n":0,"flood_depth_max_m":null,"flood_risk_100y":null,"semi_basement_r":null,"elderly_alone_r":0.2001,"bldg_age30_r":null,"shelter_min_walk":3,"pop":14128,"hh":8297,"elderly65_r":0.2888,"single_hh_r":0.5726,"source_level":"emd","flood_years":[],"landslide_hist_n":0},"geometry":{"type":"Polygon","coordinates":[[[126.94355,37.36839],[126.94303,37.37273],[126.93884,37.37468],[126.93516,37.37229],[126.93568,37.36796],[126.93987,37.366],[126.94355,37.36839]]]}},{"type":"Feature","properties":{"h3":"8830e035ebfffff","emd_code":"4141056000","emd_name":"금정동","area_km2":0.5064,"edge":true,"slope_mean":5.29,"elev_mean":39.6,"flood_hist_n":0,"flood_depth_max_m":null,"flood_risk_100y":null,"semi_basement_r":null,"elderly_alone_r":0.1289,"bldg_age30_r":null,"shelter_min_walk":3,"pop":18440,"hh":9635,"elderly65_r":0.2128,"single_hh_r":0.4951,"source_level":"emd","flood_years":[],"landslide_hist_n":0},"geometry":{"type":"Polygon","coordinates":[[[126.95141,37.36882],[126.9509,37.37316],[126.94671,37.37511],[126.94303,37.37273],[126.94355,37.36839],[126.94774,37.36643],[126.95141,37.36882]]]}},{"type":"Feature","properties":{"h3":"8830e035edfffff","emd_code":"4141057000","emd_name":"재궁동","area_km2":0.5062,"edge":false,"slope_mean":9.69,"elev_mean":66.4,"flood_hist_n":0,"flood_depth_max_m":null,"flood_risk_100y":null,"semi_basement_r":null,"elderly_alone_r":0.14,"bldg_age30_r":null,"shelter_min_walk":5,"pop":16784,"hh":8315,"elderly65_r":0.2445,"single_hh_r":0.429,"source_level":"emd","flood_years":[],"landslide_hist_n":0},"geometry":{"type":"Polygon","coordinates":[[[126.94039,37.36166],[126.93987,37.366],[126.93568,37.36796],[126.932,37.36557],[126.93252,37.36123],[126.93671,37.35928],[126.94039,37.36166]]]}}]}