{"type":"FeatureCollection","name":"grid_41430_h3r8","meta":{"sgg_code":"41430","h3_res":8,"n_cells":145,"dem":"Copernicus GLO-30 (bbox-mean)","crs":"EPSG:4326","jumin_basis":"2026-07","flood_src":"행안부 침수흔적도(전국, 재난안전데이터공유플랫폼)","landslide_src":"행안부 산사태 발생이력"},"features":[{"type":"Feature","properties":{"h3":"8830e020c9fffff","emd_code":"4143052000","emd_name":"부곡동","area_km2":0.5063,"edge":true,"slope_mean":3.32,"elev_mean":40.6,"flood_hist_n":0,"flood_depth_max_m":null,"flood_risk_100y":null,"semi_basement_r":null,"elderly_alone_r":0.1294,"bldg_age30_r":null,"shelter_min_walk":11,"pop":28515,"hh":12531,"elderly65_r":0.2159,"single_hh_r":0.3351,"source_level":"emd","flood_years":[],"landslide_hist_n":0},"geometry":{"type":"Polygon","coordinates":[[[126.95599,37.29701],[126.95547,37.30135],[126.95129,37.3033],[126.94761,37.30092],[126.94813,37.29658],[126.95232,37.29462],[126.95599,37.29701]]]}},{"type":"Feature","properties":{"h3":"8830e020cbfffff","emd_code":"4143052000","emd_name":"부곡동","area_km2":0.5064,"edge":true,"slope_mean":5.86,"elev_mean":53.4,"flood_hist_n":0,"flood_depth_max_m":null,"flood_risk_100y":null,"semi_basement_r":null,"elderly_alone_r":0.1294,"bldg_age30_r":null,"shelter_min_walk":5,"pop":28515,"hh":12531,"elderly65_r":0.2159,"single_hh_r":0.3351,"source_level":"emd","flood_years":[],"landslide_hist_n":0},"geometry":{"type":"Polygon","coordinates":[[[126.96385,37.29743],[126.96334,37.30177],[126.95915,37.30373],[126.95547,37.30135],[126.95599,37.29701],[126.96018,37.29505],[126.96385,37.29743]]]}},{"type":"Feature","properties":{"h3":"8830e02281fffff","emd_code":"4143052000","emd_name":"부곡동","area_km2":0.5062,"edge":true,"slope_mean":4.16,"elev_mean":53.0,"flood_hist_n":0,"flood_depth_max_m":null,"flood_risk_100y":null,"semi_basement_r":null,"elderly_alone_r":0.1294,"bldg_age30_r":null,"shelter_min_walk":5,"pop":28515,"hh":12531,"elderly65_r":0.2159,"single_hh_r":0.3351,"source_level":"emd","flood_years":[],"landslide_hist_n":0},"geometry":{"type":"Polygon","coordinates":[[[126.94503,37.32261],[126.94452,37.32695],[126.94033,37.32891],[126.93666,37.32652],[126.93717,37.32218],[126.94136,37.32023],[126.94503,37.32261]]]}},{"type":"Feature","properties":{"h3":"8830e02283fffff","emd_code":"4143052000","emd_name":"부곡동","area_km2":0.5063,"edge":false,"slope_mean":4.31,"elev_mean":52.1,"flood_hist_n":0,"flood_depth_max_m":null,"flood_risk_100y":null,"semi_basement_r":null,"elderly_alone_r":0.1294,"bldg_age30_r":null,"shelter_min_walk":6,"pop":28515,"hh":12531,"elderly65_r":0.2159,"single_hh_r":0.3351,"source_level":"emd","flood_years":[],"landslide_hist_n":0},"geometry":{"type":"Polygon","coordinates":[[[126.9529,37.32304],[126.95238,37.32738],[126.94819,37.32934],[126.94452,37.32695],[126.94503,37.32261],[126.94922,37.32066],[126.9529,37.32304]]]}},{"type":"Feature","properties":{"h3":"8830e02285fffff","emd_code":"4143052000","emd_name":"부곡동","area_km2":0.5061,"edge":false,"slope_mean":6.95,"elev_mean":56.3,"flood_hist_n":0,"flood_depth_max_m":null,"flood_risk_100y":null,"semi_basement_r":null,"elderly_alone_r":0.1294,"bldg_age30_r":null,"shelter_min_walk":11,"pop":28515,"hh":12531,"elderly65_r":0.2159,"single_hh_r":0.3351,"source_level":"emd","flood_years":[],"landslide_hist_n":0},"geometry":{"type":"Polygon","coordinates":[[[126.94188,37.31589],[126.94136,37.32023],[126.93717,37.32218],[126.9335,37.3198],[126.93402,37.31546],[126.9382,37.31351],[126.94188,37.31589]]]}},{"type":"Feature","properties":{"h3":"8830e02287fffff","emd_code":"4143052000","emd_name":"부곡동","area_km2":0.5062,"edge":false,"slope_mean":3.11,"elev_mean":46.3,"flood_hist_n":0,"flood_depth_max_m":null,"flood_risk_100y":null,"semi_basement_r":null,"elderly_alone_r":0.1294,"bldg_age30_r":null,"shelter_min_walk":6,"pop":28515,"hh":12531,"elderly65_r":0.2159,"single_hh_r":0.3351,"source_level":"emd","flood_years":[],"landslide_hist_n":0},"geometry":{"type":"Polygon","coordinates":[[[126.94974,37.31632],[126.94922,37.32066],[126.94503,37.32261],[126.94136,37.32023],[126.94188,37.31589],[126.94607,37.31394],[126.94974,37.31632]]]}},{"type":"Feature","properties":{"h3":"8830e0228bfffff","emd_code":"4143052000","emd_name":"부곡동","area_km2":0.5063,"edge":true,"slope_mean":5.07,"elev_mean":55.8,"flood_hist_n":0,"flood_depth_max_m":null,"flood_risk_100y":null,"semi_basement_r":null,"elderly_alone_r":0.1294,"bldg_age30_r":null,"shelter_min_walk":13,"pop":28515,"hh":12531,"elderly65_r":0.2159,"single_hh_r":0.3351,"source_level":"emd","flood_years":[],"landslide_hist_n":0},"geometry":{"type":"Polygon","coordinates":[[[126.94819,37.32934],[126.94768,37.33367],[126.94349,37.33563],[126.93981,37.33325],[126.94033,37.32891],[126.94452,37.32695],[126.94819,37.32934]]]}},{"type":"Feature","properties":{"h3":"8830e0228dfffff","emd_code":"4143052000","emd_name":"부곡동","area_km2":0.5061,"edge":true,"slope_mean":8.37,"elev_mean":67.0,"flood_hist_n":0,"flood_depth_max_m":null,"flood_risk_100y":null,"semi_basement_r":null,"elderly_alone_r":0.1294,"bldg_age30_r":null,"shelter_min_walk":3,"pop":28515,"hh":12531,"elderly65_r":0.2159,"single_hh_r":0.3351,"source_level":"emd","flood_years":[],"landslide_hist_n":0},"geometry":{"type":"Polygon","coordinates":[[[126.93717,37.32218],[126.93666,37.32652],[126.93247,37.32848],[126.92879,37.32609],[126.92931,37.32175],[126.9335,37.3198],[126.93717,37.32218]]]}},{"type":"Feature","properties":{"h3":"8830e02291fffff","emd_code":"4143052000","emd_name":"부곡동","area_km2":0.5065,"edge":false,"slope_mean":4.04,"elev_mean":64.6,"flood_hist_n":0,"flood_depth_max_m":null,"flood_risk_100y":null,"semi_basement_r":null,"elderly_alone_r":0.1294,"bldg_age30_r":null,"shelter_min_walk":15,"pop":28515,"hh":12531,"elderly65_r":0.2159,"single_hh_r":0.3351,"source_level":"emd","flood_years":[],"landslide_hist_n":0},"geometry":{"type":"Polygon","coordinates":[[[126.96392,37.33019],[126.96341,37.33453],[126.95922,37.33649],[126.95554,37.3341],[126.95606,37.32976],[126.96025,37.32781],[126.96392,37.33019]]]}},{"type":"Feature","properties":{"h3":"8830e02293fffff","emd_code":"4143052000","emd_name":"부곡동","area_km2":0.5066,"edge":false,"slope_mean":12.05,"elev_mean":103.4,"flood_hist_n":0,"flood_depth_max_m":null,"flood_risk_100y":null,"semi_basement_r":null,"elderly_alone_r":0.1294,"bldg_age30_r":null,"shelter_min_walk":19,"pop":28515,"hh":12531,"elderly65_r":0.2159,"single_hh_r":0.3351,"source_level":"emd","flood_years":[],"landslide_hist_n":0},"geometry":{"type":"Polygon","coordinates":[[[126.97179,37.33062],[126.97127,37.33496],[126.96708,37.33692],[126.96341,37.33453],[126.96392,37.33019],[126.96811,37.32824],[126.97179,37.33062]]]}},{"type":"Feature","properties":{"h3":"8830e02295fffff","emd_code":"4143052000","emd_name":"부곡동","area_km2":0.5064,"edge":false,"slope_mean":6.0,"elev_mean":62.5,"flood_hist_n":0,"flood_depth_max_m":null,"flood_risk_100y":null,"semi_basement_r":null,"elderly_alone_r":0.1294,"bldg_age30_r":null,"shelter_min_walk":3,"pop":28515,"hh":12531,"elderly65_r":0.2159,"single_hh_r":0.3351,"source_level":"emd","flood_years":[],"landslide_hist_n":0},"geometry":{"type":"Polygon","coordinates":[[[126.96076,37.32347],[126.96025,37.32781],[126.95606,37.32976],[126.95238,37.32738],[126.9529,37.32304],[126.95709,37.32109],[126.96076,37.32347]]]}},{"type":"Feature","properties":{"h3":"8830e02297fffff","emd_code":"4143052000","emd_name":"부곡동","area_km2":0.5065,"edge":false,"slope_mean":11.48,"elev_mean":102.6,"flood_hist_n":0,"flood_depth_max_m":null,"flood_risk_100y":null,"semi_basement_r":null,"elderly_alone_r":0.1294,"bldg_age30_r":null,"shelter_min_walk":11,"pop":28515,"hh":12531,"elderly65_r":0.2159,"single_hh_r":0.3351,"source_level":"emd","flood_years":[],"landslide_hist_n":0},"geometry":{"type":"Polygon","coordinates":[[[126.96863,37.3239],[126.96811,37.32824],[126.96392,37.33019],[126.96025,37.32781],[126.96076,37.32347],[126.96495,37.32151],[126.96863,37.3239]]]}},{"type":"Feature","properties":{"h3":"8830e02299fffff","emd_code":"4143052000","emd_name":"부곡동","area_km2":0.5064,"edge":false,"slope_mean":6.27,"elev_mean":70.2,"flood_hist_n":0,"flood_depth_max_m":null,"flood_risk_100y":null,"semi_basement_r":null,"elderly_alone_r":0.1294,"bldg_age30_r":null,"shelter_min_walk":9,"pop":28515,"hh":12531,"elderly65_r":0.2159,"single_hh_r":0.3351,"source_level":"emd","flood_years":[],"landslide_hist_n":0},"geometry":{"type":"Polygon","coordinates":[[[126.95922,37.33649],[126.9587,37.34083],[126.95451,37.34278],[126.95083,37.3404],[126.95135,37.33606],[126.95554,37.3341],[126.95922,37.33649]]]}},{"type":"Feature","properties":{"h3":"8830e0229bfffff","emd_code":"4143052000","emd_name":"부곡동","area_km2":0.5065,"edge":false,"slope_mean":12.04,"elev_mean":100.2,"flood_hist_n":0,"flood_depth_max_m":null,"flood_risk_100y":null,"semi_basement_r":null,"elderly_alone_r":0.1294,"bldg_age30_r":null,"shelter_min_walk":14,"pop":28515,"hh":12531,"elderly65_r":0.2159,"single_hh_r":0.3351,"source_level":"emd","flood_years":[],"landslide_hist_n":0},"geometry":{"type":"Polygon","coordinates":[[[126.96708,37.33692],[126.96657,37.34126],[126.96238,37.34321],[126.9587,37.34083],[126.95922,37.33649],[126.96341,37.33453],[126.96708,37.33692]]]}},{"type":"Feature","properties":{"h3":"8830e0229dfffff","emd_code":"4143052000","emd_name":"부곡동","area_km2":0.5064,"edge":false,"slope_mean":3.82,"elev_mean":58.8,"flood_hist_n":0,"flood_depth_max_m":null,"flood_risk_100y":null,"semi_basement_r":null,"elderly_alone_r":0.1294,"bldg_age30_r":null,"shelter_min_walk":14,"pop":28515,"hh":12531,"elderly65_r":0.2159,"single_hh_r":0.3351,"source_level":"emd","flood_years":[],"landslide_hist_n":0},"geometry":{"type":"Polygon","coordinates":[[[126.95606,37.32976],[126.95554,37.3341],[126.95135,37.33606],[126.94768,37.33367],[126.94819,37.32934],[126.95238,37.32738],[126.95606,37.32976]]]}},{"type":"Feature","properties":{"h3":"8830e022a1fffff","emd_code":"4143052000","emd_name":"부곡동","area_km2":0.5061,"edge":false,"slope_mean":7.14,"elev_mean":54.6,"flood_hist_n":0,"flood_depth_max_m":null,"flood_risk_100y":null,"semi_basement_r":null,"elderly_alone_r":0.1294,"bldg_age30_r":null,"shelter_min_walk":20,"pop":28515,"hh":12531,"elderly65_r":0.2159,"single_hh_r":0.3351,"source_level":"emd","flood_years":[],"landslide_hist_n":0},"geometry":{"type":"Polygon","coordinates":[[[126.94342,37.30288],[126.94291,37.30721],[126.93872,37.30917],[126.93505,37.30679],[126.93557,37.30245],[126.93975,37.30049],[126.94342,37.30288]]]}},{"type":"Feature","properties":{"h3":"8830e022a3fffff","emd_code":"4143052000","emd_name":"부곡동","area_km2":0.5062,"edge":false,"slope_mean":1.65,"elev_mean":41.4,"flood_hist_n":0,"flood_depth_max_m":null,"flood_risk_100y":null,"semi_basement_r":null,"elderly_alone_r":0.1294,"bldg_age30_r":null,"shelter_min_walk":21,"pop":28515,"hh":12531,"elderly65_r":0.2159,"single_hh_r":0.3351,"source_level":"emd","flood_years":[],"landslide_hist_n":0},"geometry":{"type":"Polygon","coordinates":[[[126.95129,37.3033],[126.95077,37.30764],[126.94658,37.3096],[126.94291,37.30721],[126.94342,37.30288],[126.94761,37.30092],[126.95129,37.3033]]]}},{"type":"Feature","properties":{"h3":"8830e022a7fffff","emd_code":"4143052000","emd_name":"부곡동","area_km2":0.5062,"edge":true,"slope_mean":3.43,"elev_mean":41.8,"flood_hist_n":0,"flood_depth_max_m":null,"flood_risk_100y":null,"semi_basement_r":null,"elderly_alone_r":0.1294,"bldg_age30_r":null,"shelter_min_walk":12,"pop":28515,"hh":12531,"elderly65_r":0.2159,"single_hh_r":0.3351,"source_level":"emd","flood_years":[],"landslide_hist_n":0},"geometry":{"type":"Polygon","coordinates":[[[126.94813,37.29658],[126.94761,37.30092],[126.94342,37.30288],[126.93975,37.30049],[126.94027,37.29615],[126.94446,37.2942],[126.94813,37.29658]]]}},{"type":"Feature","properties":{"h3":"8830e022a9fffff","emd_code":"4143052000","emd_name":"부곡동","area_km2":0.5061,"edge":false,"slope_mean":9.66,"elev_mean":71.3,"flood_hist_n":0,"flood_depth_max_m":null,"flood_risk_100y":null,"semi_basement_r":null,"elderly_alone_r":0.1294,"bldg_age30_r":null,"shelter_min_walk":15,"pop":28515,"hh":12531,"elderly65_r":0.2159,"single_hh_r":0.3351,"source_level":"emd","flood_years":[],"landslide_hist_n":0},"geometry":{"type":"Polygon","coordinates":[[[126.93872,37.30917],[126.9382,37.31351],[126.93402,37.31546],[126.93034,37.31308],[126.93086,37.30874],[126.93505,37.30679],[126.93872,37.30917]]]}},{"type":"Feature","properties":{"h3":"8830e022abfffff","emd_code":"4143052000","emd_name":"부곡동","area_km2":0.5062,"edge":false,"slope_mean":4.01,"elev_mean":47.6,"flood_hist_n":0,"flood_depth_max_m":null,"flood_risk_100y":null,"semi_basement_r":null,"elderly_alone_r":0.1294,"bldg_age30_r":null,"shelter_min_walk":15,"pop":28515,"hh":12531,"elderly65_r":0.2159,"single_hh_r":0.3351,"source_level":"emd","flood_years":[],"landslide_hist_n":0},"geometry":{"type":"Polygon","coordinates":[[[126.94658,37.3096],[126.94607,37.31394],[126.94188,37.31589],[126.9382,37.31351],[126.93872,37.30917],[126.94291,37.30721],[126.94658,37.3096]]]}},{"type":"Feature","properties":{"h3":"8830e022adfffff","emd_code":"4143052000","emd_name":"부곡동","area_km2":0.506,"edge":true,"slope_mean":10.71,"elev_mean":63.0,"flood_hist_n":0,"flood_depth_max_m":null,"flood_risk_100y":null,"semi_basement_r":null,"elderly_alone_r":0.1294,"bldg_age30_r":null,"shelter_min_walk":21,"pop":28515,"hh":12531,"elderly65_r":0.2159,"single_hh_r":0.3351,"source_level":"emd","flood_years":[],"landslide_hist_n":0},"geometry":{"type":"Polygon","coordinates":[[[126.93557,37.30245],[126.93505,37.30679],[126.93086,37.30874],[126.92719,37.30636],[126.92771,37.30202],[126.93189,37.30006],[126.93557,37.30245]]]}},{"type":"Feature","properties":{"h3":"8830e022b1fffff","emd_code":"4143052000","emd_name":"부곡동","area_km2":0.5064,"edge":false,"slope_mean":8.76,"elev_mean":66.7,"flood_hist_n":0,"flood_depth_max_m":null,"flood_risk_100y":null,"semi_basement_r":null,"elderly_alone_r":0.1294,"bldg_age30_r":null,"shelter_min_walk":8,"pop":28515,"hh":12531,"elderly65_r":0.2159,"single_hh_r":0.3351,"source_level":"emd","flood_years":[],"landslide_hist_n":0},"geometry":{"type":"Polygon","coordinates":[[[126.96231,37.31045],[126.96179,37.31479],[126.9576,37.31675],[126.95393,37.31436],[126.95444,37.31002],[126.95863,37.30807],[126.96231,37.31045]]]}},{"type":"Feature","properties":{"h3":"8830e022b3fffff","emd_code":"4143052000","emd_name":"부곡동","area_km2":0.5065,"edge":false,"slope_mean":11.98,"elev_mean":91.9,"flood_hist_n":0,"flood_depth_max_m":null,"flood_risk_100y":null,"semi_basement_r":null,"elderly_alone_r":0.1294,"bldg_age30_r":null,"shelter_min_walk":12,"pop":28515,"hh":12531,"elderly65_r":0.2159,"single_hh_r":0.3351,"source_level":"emd","flood_years":[],"landslide_hist_n":0},"geometry":{"type":"Polygon","coordinates":[[[126.97017,37.31088],[126.96966,37.31522],[126.96547,37.31717],[126.96179,37.31479],[126.96231,37.31045],[126.9665,37.30849],[126.97017,37.31088]]]}},{"type":"Feature","properties":{"h3":"8830e022b5fffff","emd_code":"4143052000","emd_name":"부곡동","area_km2":0.5063,"edge":false,"slope_mean":5.55,"elev_mean":52.2,"flood_hist_n":0,"flood_depth_max_m":null,"flood_risk_100y":null,"semi_basement_r":null,"elderly_alone_r":0.1294,"bldg_age30_r":null,"shelter_min_walk":15,"pop":28515,"hh":12531,"elderly65_r":0.2159,"single_hh_r":0.3351,"source_level":"emd","flood_years":[],"landslide_hist_n":0},"geometry":{"type":"Polygon","coordinates":[[[126.95915,37.30373],[126.95863,37.30807],[126.95444,37.31002],[126.95077,37.30764],[126.95129,37.3033],[126.95547,37.30135],[126.95915,37.30373]]]}},{"type":"Feature","properties":{"h3":"8830e022b7fffff","emd_code":"4143052000","emd_name":"부곡동","area_km2":0.5065,"edge":false,"slope_mean":7.5,"elev_mean":66.4,"flood_hist_n":0,"flood_depth_max_m":null,"flood_risk_100y":null,"semi_basement_r":null,"elderly_alone_r":0.1294,"bldg_age30_r":null,"shelter_min_walk":5,"pop":28515,"hh":12531,"elderly65_r":0.2159,"single_hh_r":0.3351,"source_level":"emd","flood_years":[],"landslide_hist_n":0},"geometry":{"type":"Polygon","coordinates":[[[126.96701,37.30415],[126.9665,37.30849],[126.96231,37.31045],[126.95863,37.30807],[126.95915,37.30373],[126.96334,37.30177],[126.96701,37.30415]]]}},{"type":"Feature","properties":{"h3":"8830e022b9fffff","emd_code":"4143052000","emd_name":"부곡동","area_km2":0.5064,"edge":false,"slope_mean":3.98,"elev_mean":54.1,"flood_hist_n":0,"flood_depth_max_m":null,"flood_risk_100y":null,"semi_basement_r":null,"elderly_alone_r":0.1294,"bldg_age30_r":null,"shelter_min_walk":2,"pop":28515,"hh":12531,"elderly65_r":0.2159,"single_hh_r":0.3351,"source_level":"emd","flood_years":[],"landslide_hist_n":0},"geometry":{"type":"Polygon","coordinates":[[[126.9576,37.31675],[126.95709,37.32109],[126.9529,37.32304],[126.94922,37.32066],[126.94974,37.31632],[126.95393,37.31436],[126.9576,37.31675]]]}},{"type":"Feature","properties":{"h3":"8830e022bbfffff","emd_code":"4143052000","emd_name":"부곡동","area_km2":0.5065,"edge":false,"slope_mean":9.6,"elev_mean":76.7,"flood_hist_n":0,"flood_depth_max_m":null,"flood_risk_100y":null,"semi_basement_r":null,"elderly_alone_r":0.1294,"bldg_age30_r":null,"shelter_min_walk":1,"pop":28515,"hh":12531,"elderly65_r":0.2159,"single_hh_r":0.3351,"source_level":"emd","flood_years":[],"landslide_hist_n":0},"geometry":{"type":"Polygon","coordinates":[[[126.96547,37.31717],[126.96495,37.32151],[126.96076,37.32347],[126.95709,37.32109],[126.9576,37.31675],[126.96179,37.31479],[126.96547,37.31717]]]}},{"type":"Feature","properties":{"h3":"8830e022bdfffff","emd_code":"4143052000","emd_name":"부곡동","area_km2":0.5063,"edge":false,"slope_mean":2.57,"elev_mean":45.4,"flood_hist_n":0,"flood_depth_max_m":null,"flood_risk_100y":null,"semi_basement_r":null,"elderly_alone_r":0.1294,"bldg_age30_r":null,"shelter_min_walk":10,"pop":28515,"hh":12531,"elderly65_r":0.2159,"single_hh_r":0.3351,"source_level":"emd","flood_years":[],"landslide_hist_n":0},"geometry":{"type":"Polygon","coordinates":[[[126.95444,37.31002],[126.95393,37.31436],[126.94974,37.31632],[126.94607,37.31394],[126.94658,37.3096],[126.95077,37.30764],[126.95444,37.31002]]]}},{"type":"Feature","properties":{"h3":"8830e022d3fffff","emd_code":"4143052000","emd_name":"부곡동","area_km2":0.5064,"edge":true,"slope_mean":5.73,"elev_mean":57.9,"flood_hist_n":0,"flood_depth_max_m":null,"flood_risk_100y":null,"semi_basement_r":null,"elderly_alone_r":0.1294,"bldg_age30_r":null,"shelter_min_walk":2,"pop":28515,"hh":12531,"elderly65_r":0.2159,"single_hh_r":0.3351,"source_level":"emd","flood_years":[],"landslide_hist_n":0},"geometry":{"type":"Polygon","coordinates":[[[126.95451,37.34278],[126.95399,37.34712],[126.9498,37.34908],[126.94613,37.34669],[126.94664,37.34235],[126.95083,37.3404],[126.95451,37.34278]]]}},{"type":"Feature","properties":{"h3":"8830e022d7fffff","emd_code":"4143052000","emd_name":"부곡동","area_km2":0.5063,"edge":true,"slope_mean":5.77,"elev_mean":62.4,"flood_hist_n":0,"flood_depth_max_m":null,"flood_risk_100y":null,"semi_basement_r":null,"elderly_alone_r":0.1294,"bldg_age30_r":null,"shelter_min_walk":9,"pop":28515,"hh":12531,"elderly65_r":0.2159,"single_hh_r":0.3351,"source_level":"emd","flood_years":[],"landslide_hist_n":0},"geometry":{"type":"Polygon","coordinates":[[[126.95135,37.33606],[126.95083,37.3404],[126.94664,37.34235],[126.94297,37.33997],[126.94349,37.33563],[126.94768,37.33367],[126.95135,37.33606]]]}},{"type":"Feature","properties":{"h3":"8830e022e3fffff","emd_code":"4143052000","emd_name":"부곡동","area_km2":0.506,"edge":true,"slope_mean":11.8,"elev_mean":75.5,"flood_hist_n":0,"flood_depth_max_m":null,"flood_risk_100y":null,"semi_basement_r":null,"elderly_alone_r":0.1294,"bldg_age30_r":null,"shelter_min_walk":7,"pop":28515,"hh":12531,"elderly65_r":0.2159,"single_hh_r":0.3351,"source_level":"emd","flood_years":[],"landslide_hist_n":0},"geometry":{"type":"Polygon","coordinates":[[[126.93402,37.31546],[126.9335,37.3198],[126.92931,37.32175],[126.92564,37.31937],[126.92616,37.31503],[126.93034,37.31308],[126.93402,37.31546]]]}},{"type":"Feature","properties":{"h3":"8830e022e7fffff","emd_code":"4143052000","emd_name":"부곡동","area_km2":0.506,"edge":true,"slope_mean":9.07,"elev_mean":54.4,"flood_hist_n":0,"flood_depth_max_m":null,"flood_risk_100y":null,"semi_basement_r":null,"elderly_alone_r":0.1294,"bldg_age30_r":null,"shelter_min_walk":9,"pop":28515,"hh":12531,"elderly65_r":0.2159,"single_hh_r":0.3351,"source_level":"emd","flood_years":[],"landslide_hist_n":0},"geometry":{"type":"Polygon","coordinates":[[[126.93086,37.30874],[126.93034,37.31308],[126.92616,37.31503],[126.92249,37.31265],[126.923,37.30831],[126.92719,37.30636],[126.93086,37.30874]]]}},{"type":"Feature","properties":{"h3":"8830e02601fffff","emd_code":"4143056000","emd_name":"청계동","area_km2":0.5074,"edge":false,"slope_mean":17.93,"elev_mean":183.2,"flood_hist_n":0,"flood_depth_max_m":null,"flood_risk_100y":null,"semi_basement_r":null,"elderly_alone_r":0.0957,"bldg_age30_r":null,"shelter_min_walk":4,"pop":37534,"hh":16093,"elderly65_r":0.2155,"single_hh_r":0.3158,"source_level":"emd","flood_years":[],"landslide_hist_n":0},"geometry":{"type":"Polygon","coordinates":[[[127.02229,37.37268],[127.02177,37.37703],[127.01758,37.37899],[127.01389,37.3766],[127.01441,37.37226],[127.0186,37.3703],[127.02229,37.37268]]]}},{"type":"Feature","properties":{"h3":"8830e02603fffff","emd_code":"4143056000","emd_name":"청계동","area_km2":0.5075,"edge":false,"slope_mean":17.95,"elev_mean":292.1,"flood_hist_n":0,"flood_depth_max_m":null,"flood_risk_100y":null,"semi_basement_r":null,"elderly_alone_r":0.0957,"bldg_age30_r":null,"shelter_min_walk":14,"pop":37534,"hh":16093,"elderly65_r":0.2155,"single_hh_r":0.3158,"source_level":"emd","flood_years":[],"landslide_hist_n":0},"geometry":{"type":"Polygon","coordinates":[[[127.03017,37.37311],[127.02965,37.37746],[127.02546,37.37941],[127.02177,37.37703],[127.02229,37.37268],[127.02648,37.37073],[127.03017,37.37311]]]}},{"type":"Feature","properties":{"h3":"8830e02605fffff","emd_code":"4143056000","emd_name":"청계동","area_km2":0.5074,"edge":false,"slope_mean":15.85,"elev_mean":178.4,"flood_hist_n":0,"flood_depth_max_m":null,"flood_risk_100y":null,"semi_basement_r":null,"elderly_alone_r":0.0957,"bldg_age30_r":null,"shelter_min_walk":8,"pop":37534,"hh":16093,"elderly65_r":0.2155,"single_hh_r":0.3158,"source_level":"emd","flood_years":[],"landslide_hist_n":0},"geometry":{"type":"Polygon","coordinates":[[[127.01911,37.36596],[127.0186,37.3703],[127.01441,37.37226],[127.01072,37.36987],[127.01124,37.36553],[127.01543,37.36357],[127.01911,37.36596]]]}},{"type":"Feature","properties":{"h3":"8830e02607fffff","emd_code":"4143056000","emd_name":"청계동","area_km2":0.5075,"edge":false,"slope_mean":20.87,"elev_mean":270.0,"flood_hist_n":0,"flood_depth_max_m":null,"flood_risk_100y":null,"semi_basement_r":null,"elderly_alone_r":0.0957,"bldg_age30_r":null,"shelter_min_walk":12,"pop":37534,"hh":16093,"elderly65_r":0.2155,"single_hh_r":0.3158,"source_level":"emd","flood_years":[],"landslide_hist_n":0},"geometry":{"type":"Polygon","coordinates":[[[127.02699,37.36638],[127.02648,37.37073],[127.02229,37.37268],[127.0186,37.3703],[127.01911,37.36596],[127.02331,37.364],[127.02699,37.36638]]]}},{"type":"Feature","properties":{"h3":"8830e02609fffff","emd_code":"4143056000","emd_name":"청계동","area_km2":0.5074,"edge":false,"slope_mean":15.5,"elev_mean":144.3,"flood_hist_n":0,"flood_depth_max_m":null,"flood_risk_100y":null,"semi_basement_r":null,"elderly_alone_r":0.0957,"bldg_age30_r":null,"shelter_min_walk":13,"pop":37534,"hh":16093,"elderly65_r":0.2155,"single_hh_r":0.3158,"source_level":"emd","flood_years":[],"landslide_hist_n":0},"geometry":{"type":"Polygon","coordinates":[[[127.01758,37.37899],[127.01706,37.38333],[127.01287,37.38528],[127.00918,37.3829],[127.0097,37.37856],[127.01389,37.3766],[127.01758,37.37899]]]}},{"type":"Feature","properties":{"h3":"8830e0260bfffff","emd_code":"4143056000","emd_name":"청계동","area_km2":0.5075,"edge":false,"slope_mean":18.64,"elev_mean":241.7,"flood_hist_n":0,"flood_depth_max_m":null,"flood_risk_100y":null,"semi_basement_r":null,"elderly_alone_r":0.0957,"bldg_age30_r":null,"shelter_min_walk":15,"pop":37534,"hh":16093,"elderly65_r":0.2155,"single_hh_r":0.3158,"source_level":"emd","flood_years":[],"landslide_hist_n":0},"geometry":{"type":"Polygon","coordinates":[[[127.02546,37.37941],[127.02495,37.38376],[127.02075,37.38571],[127.01706,37.38333],[127.01758,37.37899],[127.02177,37.37703],[127.02546,37.37941]]]}},{"type":"Feature","properties":{"h3":"8830e0260dfffff","emd_code":"4143056000","emd_name":"청계동","area_km2":0.5073,"edge":false,"slope_mean":9.75,"elev_mean":101.6,"flood_hist_n":0,"flood_depth_max_m":null,"flood_risk_100y":null,"semi_basement_r":null,"elderly_alone_r":0.0957,"bldg_age30_r":null,"shelter_min_walk":4,"pop":37534,"hh":16093,"elderly65_r":0.2155,"single_hh_r":0.3158,"source_level":"emd","flood_years":[],"landslide_hist_n":0},"geometry":{"type":"Polygon","coordinates":[[[127.01441,37.37226],[127.01389,37.3766],[127.0097,37.37856],[127.00601,37.37617],[127.00653,37.37183],[127.01072,37.36987],[127.01441,37.37226]]]}},{"type":"Feature","properties":{"h3":"8830e02611fffff","emd_code":"4143056000","emd_name":"청계동","area_km2":0.5077,"edge":true,"slope_mean":15.03,"elev_mean":285.0,"flood_hist_n":0,"flood_depth_max_m":null,"flood_risk_100y":null,"semi_basement_r":null,"elderly_alone_r":0.0957,"bldg_age30_r":null,"shelter_min_walk":32,"pop":37534,"hh":16093,"elderly65_r":0.2155,"single_hh_r":0.3158,"source_level":"emd","flood_years":[],"landslide_hist_n":0},"geometry":{"type":"Polygon","coordinates":[[[127.04122,37.38027],[127.04071,37.38461],[127.03651,37.38657],[127.03283,37.38418],[127.03334,37.37984],[127.03754,37.37788],[127.04122,37.38027]]]}},{"type":"Feature","properties":{"h3":"8830e02619fffff","emd_code":"4143056000","emd_name":"청계동","area_km2":0.5077,"edge":false,"slope_mean":19.51,"elev_mean":271.1,"flood_hist_n":0,"flood_depth_max_m":null,"flood_risk_100y":null,"semi_basement_r":null,"elderly_alone_r":0.0957,"bldg_age30_r":null,"shelter_min_walk":33,"pop":37534,"hh":16093,"elderly65_r":0.2155,"single_hh_r":0.3158,"source_level":"emd","flood_years":[],"landslide_hist_n":0},"geometry":{"type":"Polygon","coordinates":[[[127.03651,37.38657],[127.036,37.39091],[127.0318,37.39287],[127.02812,37.39048],[127.02863,37.38614],[127.03283,37.38418],[127.03651,37.38657]]]}},{"type":"Feature","properties":{"h3":"8830e0261bfffff","emd_code":"4143056000","emd_name":"청계동","area_km2":0.5078,"edge":true,"slope_mean":19.24,"elev_mean":274.3,"flood_hist_n":0,"flood_depth_max_m":null,"flood_risk_100y":null,"semi_basement_r":null,"elderly_alone_r":0.0957,"bldg_age30_r":null,"shelter_min_walk":37,"pop":37534,"hh":16093,"elderly65_r":0.2155,"single_hh_r":0.3158,"source_level":"emd","flood_years":[],"landslide_hist_n":0},"geometry":{"type":"Polygon","coordinates":[[[127.0444,37.387],[127.04389,37.39134],[127.03969,37.3933],[127.036,37.39091],[127.03651,37.38657],[127.04071,37.38461],[127.0444,37.387]]]}},{"type":"Feature","properties":{"h3":"8830e0261dfffff","emd_code":"4143056000","emd_name":"청계동","area_km2":0.5076,"edge":false,"slope_mean":17.26,"elev_mean":329.1,"flood_hist_n":0,"flood_depth_max_m":null,"flood_risk_100y":null,"semi_basement_r":null,"elderly_alone_r":0.0957,"bldg_age30_r":null,"shelter_min_walk":22,"pop":37534,"hh":16093,"elderly65_r":0.2155,"single_hh_r":0.3158,"source_level":"emd","flood_years":[],"landslide_hist_n":0},"geometry":{"type":"Polygon","coordinates":[[[127.03334,37.37984],[127.03283,37.38418],[127.02863,37.38614],[127.02495,37.38376],[127.02546,37.37941],[127.02965,37.37746],[127.03334,37.37984]]]}},{"type":"Feature","properties":{"h3":"8830e02621fffff","emd_code":"4143053000","emd_name":"오전동","area_km2":0.5073,"edge":false,"slope_mean":24.33,"elev_mean":442.7,"flood_hist_n":0,"flood_depth_max_m":null,"flood_risk_100y":null,"semi_basement_r":null,"elderly_alone_r":0.0931,"bldg_age30_r":null,"shelter_min_walk":27,"pop":32590,"hh":12498,"elderly65_r":0.2204,"single_hh_r":0.212,"source_level":"emd","flood_years":[],"landslide_hist_n":0},"geometry":{"type":"Polygon","coordinates":[[[127.02065,37.35293],[127.02014,37.35727],[127.01594,37.35923],[127.01226,37.35685],[127.01277,37.3525],[127.01697,37.35055],[127.02065,37.35293]]]}},{"type":"Feature","properties":{"h3":"8830e02625fffff","emd_code":"4143051000","emd_name":"고천동","area_km2":0.5073,"edge":false,"slope_mean":21.9,"elev_mean":351.8,"flood_hist_n":0,"flood_depth_max_m":null,"flood_risk_100y":null,"semi_basement_r":null,"elderly_alone_r":0.0763,"bldg_age30_r":null,"shelter_min_walk":34,"pop":17759,"hh":7552,"elderly65_r":0.1703,"single_hh_r":0.3128,"source_level":"emd","flood_years":[],"landslide_hist_n":0},"geometry":{"type":"Polygon","coordinates":[[[127.01748,37.3462],[127.01697,37.35055],[127.01277,37.3525],[127.00909,37.35012],[127.0096,37.34578],[127.0138,37.34382],[127.01748,37.3462]]]}},{"type":"Feature","properties":{"h3":"8830e02627fffff","emd_code":"4143051000","emd_name":"고천동","area_km2":0.5074,"edge":true,"slope_mean":22.97,"elev_mean":445.8,"flood_hist_n":0,"flood_depth_max_m":null,"flood_risk_100y":null,"semi_basement_r":null,"elderly_alone_r":0.0763,"bldg_age30_r":null,"shelter_min_walk":39,"pop":17759,"hh":7552,"elderly65_r":0.1703,"single_hh_r":0.3128,"source_level":"emd","flood_years":[],"landslide_hist_n":0},"geometry":{"type":"Polygon","coordinates":[[[127.02536,37.34663],[127.02484,37.35097],[127.02065,37.35293],[127.01697,37.35055],[127.01748,37.3462],[127.02167,37.34425],[127.02536,37.34663]]]}},{"type":"Feature","properties":{"h3":"8830e02629fffff","emd_code":"4143056000","emd_name":"청계동","area_km2":0.5073,"edge":false,"slope_mean":20.04,"elev_mean":267.5,"flood_hist_n":0,"flood_depth_max_m":null,"flood_risk_100y":null,"semi_basement_r":null,"elderly_alone_r":0.0957,"bldg_age30_r":null,"shelter_min_walk":15,"pop":37534,"hh":16093,"elderly65_r":0.2155,"single_hh_r":0.3158,"source_level":"emd","flood_years":[],"landslide_hist_n":0},"geometry":{"type":"Polygon","coordinates":[[[127.01594,37.35923],[127.01543,37.36357],[127.01124,37.36553],[127.00755,37.36315],[127.00807,37.3588],[127.01226,37.35685],[127.01594,37.35923]]]}},{"type":"Feature","properties":{"h3":"8830e0262bfffff","emd_code":"4143056000","emd_name":"청계동","area_km2":0.5074,"edge":false,"slope_mean":21.05,"elev_mean":331.2,"flood_hist_n":0,"flood_depth_max_m":null,"flood_risk_100y":null,"semi_basement_r":null,"elderly_alone_r":0.0957,"bldg_age30_r":null,"shelter_min_walk":19,"pop":37534,"hh":16093,"elderly65_r":0.2155,"single_hh_r":0.3158,"source_level":"emd","flood_years":[],"landslide_hist_n":0},"geometry":{"type":"Polygon","coordinates":[[[127.02382,37.35966],[127.02331,37.364],[127.01911,37.36596],[127.01543,37.36357],[127.01594,37.35923],[127.02014,37.35727],[127.02382,37.35966]]]}},{"type":"Feature","properties":{"h3":"8830e0262dfffff","emd_code":"4143053000","emd_name":"오전동","area_km2":0.5072,"edge":false,"slope_mean":21.96,"elev_mean":283.0,"flood_hist_n":0,"flood_depth_max_m":null,"flood_risk_100y":null,"semi_basement_r":null,"elderly_alone_r":0.0931,"bldg_age30_r":null,"shelter_min_walk":22,"pop":32590,"hh":12498,"elderly65_r":0.2204,"single_hh_r":0.212,"source_level":"emd","flood_years":[],"landslide_hist_n":0},"geometry":{"type":"Polygon","coordinates":[[[127.01277,37.3525],[127.01226,37.35685],[127.00807,37.3588],[127.00438,37.35642],[127.0049,37.35208],[127.00909,37.35012],[127.01277,37.3525]]]}},{"type":"Feature","properties":{"h3":"8830e02639fffff","emd_code":"4143056000","emd_name":"청계동","area_km2":0.5076,"edge":true,"slope_mean":19.28,"elev_mean":282.4,"flood_hist_n":0,"flood_depth_max_m":null,"flood_risk_100y":null,"semi_basement_r":null,"elderly_alone_r":0.0957,"bldg_age30_r":null,"shelter_min_walk":21,"pop":37534,"hh":16093,"elderly65_r":0.2155,"single_hh_r":0.3158,"source_level":"emd","flood_years":[],"landslide_hist_n":0},"geometry":{"type":"Polygon","coordinates":[[[127.03487,37.36681],[127.03436,37.37115],[127.03017,37.37311],[127.02648,37.37073],[127.02699,37.36638],[127.03119,37.36443],[127.03487,37.36681]]]}},{"type":"Feature","properties":{"h3":"8830e0263dfffff","emd_code":"4143056000","emd_name":"청계동","area_km2":0.5075,"edge":true,"slope_mean":18.25,"elev_mean":262.5,"flood_hist_n":0,"flood_depth_max_m":null,"flood_risk_100y":null,"semi_basement_r":null,"elderly_alone_r":0.0957,"bldg_age30_r":null,"shelter_min_walk":24,"pop":37534,"hh":16093,"elderly65_r":0.2155,"single_hh_r":0.3158,"source_level":"emd","flood_years":[],"landslide_hist_n":0},"geometry":{"type":"Polygon","coordinates":[[[127.0317,37.36008],[127.03119,37.36443],[127.02699,37.36638],[127.02331,37.364],[127.02382,37.35966],[127.02802,37.3577],[127.0317,37.36008]]]}},{"type":"Feature","properties":{"h3":"8830e02641fffff","emd_code":"4143056000","emd_name":"청계동","area_km2":0.5072,"edge":false,"slope_mean":9.06,"elev_mean":77.8,"flood_hist_n":0,"flood_depth_max_m":null,"flood_risk_100y":null,"semi_basement_r":null,"elderly_alone_r":0.0957,"bldg_age30_r":null,"shelter_min_walk":7,"pop":37534,"hh":16093,"elderly65_r":0.2155,"single_hh_r":0.3158,"source_level":"emd","flood_years":[],"landslide_hist_n":0},"geometry":{"type":"Polygon","coordinates":[[[127.00499,37.38486],[127.00448,37.3892],[127.00028,37.39115],[126.9966,37.38877],[126.99711,37.38443],[127.00131,37.38247],[127.00499,37.38486]]]}},{"type":"Feature","properties":{"h3":"8830e02643fffff","emd_code":"4143056000","emd_name":"청계동","area_km2":0.5073,"edge":false,"slope_mean":12.23,"elev_mean":107.6,"flood_hist_n":0,"flood_depth_max_m":null,"flood_risk_100y":null,"semi_basement_r":null,"elderly_alone_r":0.0957,"bldg_age30_r":null,"shelter_min_walk":13,"pop":37534,"hh":16093,"elderly65_r":0.2155,"single_hh_r":0.3158,"source_level":"emd","flood_years":[],"landslide_hist_n":0},"geometry":{"type":"Polygon","coordinates":[[[127.01287,37.38528],[127.01236,37.38963],[127.00816,37.39158],[127.00448,37.3892],[127.00499,37.38486],[127.00918,37.3829],[127.01287,37.38528]]]}},{"type":"Feature","properties":{"h3":"8830e02645fffff","emd_code":"4143056000","emd_name":"청계동","area_km2":0.5071,"edge":false,"slope_mean":11.78,"elev_mean":96.7,"flood_hist_n":0,"flood_depth_max_m":null,"flood_risk_100y":null,"semi_basement_r":null,"elderly_alone_r":0.0957,"bldg_age30_r":null,"shelter_min_walk":18,"pop":37534,"hh":16093,"elderly65_r":0.2155,"single_hh_r":0.3158,"source_level":"emd","flood_years":[],"landslide_hist_n":0},"geometry":{"type":"Polygon","coordinates":[[[127.00182,37.37813],[127.00131,37.38247],[126.99711,37.38443],[126.99343,37.38204],[126.99394,37.3777],[126.99814,37.37574],[127.00182,37.37813]]]}},{"type":"Feature","properties":{"h3":"8830e02647fffff","emd_code":"4143056000","emd_name":"청계동","area_km2":0.5073,"edge":false,"slope_mean":9.58,"elev_mean":87.4,"flood_hist_n":0,"flood_depth_max_m":null,"flood_risk_100y":null,"semi_basement_r":null,"elderly_alone_r":0.0957,"bldg_age30_r":null,"shelter_min_walk":15,"pop":37534,"hh":16093,"elderly65_r":0.2155,"single_hh_r":0.3158,"source_level":"emd","flood_years":[],"landslide_hist_n":0},"geometry":{"type":"Polygon","coordinates":[[[127.0097,37.37856],[127.00918,37.3829],[127.00499,37.38486],[127.00131,37.38247],[127.00182,37.37813],[127.00601,37.37617],[127.0097,37.37856]]]}},{"type":"Feature","properties":{"h3":"8830e02649fffff","emd_code":"4143056000","emd_name":"청계동","area_km2":0.5072,"edge":false,"slope_mean":6.95,"elev_mean":72.6,"flood_hist_n":0,"flood_depth_max_m":null,"flood_risk_100y":null,"semi_basement_r":null,"elderly_alone_r":0.0957,"bldg_age30_r":null,"shelter_min_walk":3,"pop":37534,"hh":16093,"elderly65_r":0.2155,"single_hh_r":0.3158,"source_level":"emd","flood_years":[],"landslide_hist_n":0},"geometry":{"type":"Polygon","coordinates":[[[127.00028,37.39115],[126.99977,37.3955],[126.99557,37.39745],[126.99189,37.39506],[126.9924,37.39072],[126.9966,37.38877],[127.00028,37.39115]]]}},{"type":"Feature","properties":{"h3":"8830e0264bfffff","emd_code":"4143056000","emd_name":"청계동","area_km2":0.5073,"edge":false,"slope_mean":11.0,"elev_mean":90.5,"flood_hist_n":0,"flood_depth_max_m":null,"flood_risk_100y":null,"semi_basement_r":null,"elderly_alone_r":0.0957,"bldg_age30_r":null,"shelter_min_walk":4,"pop":37534,"hh":16093,"elderly65_r":0.2155,"single_hh_r":0.3158,"source_level":"emd","flood_years":[],"landslide_hist_n":0},"geometry":{"type":"Polygon","coordinates":[[[127.00816,37.39158],[127.00765,37.39593],[127.00345,37.39788],[126.99977,37.3955],[127.00028,37.39115],[127.00448,37.3892],[127.00816,37.39158]]]}},{"type":"Feature","properties":{"h3":"8830e0264dfffff","emd_code":"4143056000","emd_name":"청계동","area_km2":0.5071,"edge":false,"slope_mean":9.65,"elev_mean":79.2,"flood_hist_n":0,"flood_depth_max_m":null,"flood_risk_100y":null,"semi_basement_r":null,"elderly_alone_r":0.0957,"bldg_age30_r":null,"shelter_min_walk":9,"pop":37534,"hh":16093,"elderly65_r":0.2155,"single_hh_r":0.3158,"source_level":"emd","flood_years":[],"landslide_hist_n":0},"geometry":{"type":"Polygon","coordinates":[[[126.99711,37.38443],[126.9966,37.38877],[126.9924,37.39072],[126.98872,37.38834],[126.98923,37.384],[126.99343,37.38204],[126.99711,37.38443]]]}},{"type":"Feature","properties":{"h3":"8830e02651fffff","emd_code":"4143056000","emd_name":"청계동","area_km2":0.5075,"edge":false,"slope_mean":13.9,"elev_mean":143.8,"flood_hist_n":0,"flood_depth_max_m":null,"flood_risk_100y":null,"semi_basement_r":null,"elderly_alone_r":0.0957,"bldg_age30_r":null,"shelter_min_walk":25,"pop":37534,"hh":16093,"elderly65_r":0.2155,"single_hh_r":0.3158,"source_level":"emd","flood_years":[],"landslide_hist_n":0},"geometry":{"type":"Polygon","coordinates":[[[127.02392,37.39244],[127.02341,37.39679],[127.01921,37.39874],[127.01553,37.39636],[127.01604,37.39201],[127.02024,37.39006],[127.02392,37.39244]]]}},{"type":"Feature","properties":{"h3":"8830e02653fffff","emd_code":"4143056000","emd_name":"청계동","area_km2":0.5076,"edge":false,"slope_mean":16.66,"elev_mean":183.9,"flood_hist_n":0,"flood_depth_max_m":null,"flood_risk_100y":null,"semi_basement_r":null,"elderly_alone_r":0.0957,"bldg_age30_r":null,"shelter_min_walk":36,"pop":37534,"hh":16093,"elderly65_r":0.2155,"single_hh_r":0.3158,"source_level":"emd","flood_years":[],"landslide_hist_n":0},"geometry":{"type":"Polygon","coordinates":[[[127.0318,37.39287],[127.03129,37.39721],[127.0271,37.39917],[127.02341,37.39679],[127.02392,37.39244],[127.02812,37.39048],[127.0318,37.39287]]]}},{"type":"Feature","properties":{"h3":"8830e02655fffff","emd_code":"4143056000","emd_name":"청계동","area_km2":0.5074,"edge":false,"slope_mean":14.15,"elev_mean":127.7,"flood_hist_n":0,"flood_depth_max_m":null,"flood_risk_100y":null,"semi_basement_r":null,"elderly_alone_r":0.0957,"bldg_age30_r":null,"shelter_min_walk":22,"pop":37534,"hh":16093,"elderly65_r":0.2155,"single_hh_r":0.3158,"source_level":"emd","flood_years":[],"landslide_hist_n":0},"geometry":{"type":"Polygon","coordinates":[[[127.02075,37.38571],[127.02024,37.39006],[127.01604,37.39201],[127.01236,37.38963],[127.01287,37.38528],[127.01706,37.38333],[127.02075,37.38571]]]}},{"type":"Feature","properties":{"h3":"8830e02657fffff","emd_code":"4143056000","emd_name":"청계동","area_km2":0.5075,"edge":false,"slope_mean":16.95,"elev_mean":184.7,"flood_hist_n":0,"flood_depth_max_m":null,"flood_risk_100y":null,"semi_basement_r":null,"elderly_alone_r":0.0957,"bldg_age30_r":null,"shelter_min_walk":27,"pop":37534,"hh":16093,"elderly65_r":0.2155,"single_hh_r":0.3158,"source_level":"emd","flood_years":[],"landslide_hist_n":0},"geometry":{"type":"Polygon","coordinates":[[[127.02863,37.38614],[127.02812,37.39048],[127.02392,37.39244],[127.02024,37.39006],[127.02075,37.38571],[127.02495,37.38376],[127.02863,37.38614]]]}},{"type":"Feature","properties":{"h3":"8830e02659fffff","emd_code":"4143056000","emd_name":"청계동","area_km2":0.5074,"edge":false,"slope_mean":18.16,"elev_mean":172.8,"flood_hist_n":0,"flood_depth_max_m":null,"flood_risk_100y":null,"semi_basement_r":null,"elderly_alone_r":0.0957,"bldg_age30_r":null,"shelter_min_walk":22,"pop":37534,"hh":16093,"elderly65_r":0.2155,"single_hh_r":0.3158,"source_level":"emd","flood_years":[],"landslide_hist_n":0},"geometry":{"type":"Polygon","coordinates":[[[127.01921,37.39874],[127.0187,37.40308],[127.0145,37.40504],[127.01082,37.40265],[127.01133,37.39831],[127.01553,37.39636],[127.01921,37.39874]]]}},{"type":"Feature","properties":{"h3":"8830e0265bfffff","emd_code":"4143056000","emd_name":"청계동","area_km2":0.5076,"edge":false,"slope_mean":19.26,"elev_mean":221.8,"flood_hist_n":0,"flood_depth_max_m":null,"flood_risk_100y":null,"semi_basement_r":null,"elderly_alone_r":0.0957,"bldg_age30_r":null,"shelter_min_walk":32,"pop":37534,"hh":16093,"elderly65_r":0.2155,"single_hh_r":0.3158,"source_level":"emd","flood_years":[],"landslide_hist_n":0},"geometry":{"type":"Polygon","coordinates":[[[127.0271,37.39917],[127.02658,37.40351],[127.02238,37.40547],[127.0187,37.40308],[127.01921,37.39874],[127.02341,37.39679],[127.0271,37.39917]]]}},{"type":"Feature","properties":{"h3":"8830e0265dfffff","emd_code":"4143056000","emd_name":"청계동","area_km2":0.5074,"edge":false,"slope_mean":12.57,"elev_mean":122.5,"flood_hist_n":0,"flood_depth_max_m":null,"flood_risk_100y":null,"semi_basement_r":null,"elderly_alone_r":0.0957,"bldg_age30_r":null,"shelter_min_walk":15,"pop":37534,"hh":16093,"elderly65_r":0.2155,"single_hh_r":0.3158,"source_level":"emd","flood_years":[],"landslide_hist_n":0},"geometry":{"type":"Polygon","coordinates":[[[127.01604,37.39201],[127.01553,37.39636],[127.01133,37.39831],[127.00765,37.39593],[127.00816,37.39158],[127.01236,37.38963],[127.01604,37.39201]]]}},{"type":"Feature","properties":{"h3":"8830e02661fffff","emd_code":"4143056000","emd_name":"청계동","area_km2":0.5071,"edge":false,"slope_mean":13.17,"elev_mean":137.5,"flood_hist_n":0,"flood_depth_max_m":null,"flood_risk_100y":null,"semi_basement_r":null,"elderly_alone_r":0.0957,"bldg_age30_r":null,"shelter_min_walk":6,"pop":37534,"hh":16093,"elderly65_r":0.2155,"single_hh_r":0.3158,"source_level":"emd","flood_years":[],"landslide_hist_n":0},"geometry":{"type":"Polygon","coordinates":[[[127.00336,37.3651],[127.00285,37.36944],[126.99865,37.3714],[126.99497,37.36902],[126.99548,37.36467],[126.99968,37.36272],[127.00336,37.3651]]]}},{"type":"Feature","properties":{"h3":"8830e02663fffff","emd_code":"4143056000","emd_name":"청계동","area_km2":0.5072,"edge":false,"slope_mean":8.16,"elev_mean":119.7,"flood_hist_n":0,"flood_depth_max_m":null,"flood_risk_100y":null,"semi_basement_r":null,"elderly_alone_r":0.0957,"bldg_age30_r":null,"shelter_min_walk":5,"pop":37534,"hh":16093,"elderly65_r":0.2155,"single_hh_r":0.3158,"source_level":"emd","flood_years":[],"landslide_hist_n":0},"geometry":{"type":"Polygon","coordinates":[[[127.01124,37.36553],[127.01072,37.36987],[127.00653,37.37183],[127.00285,37.36944],[127.00336,37.3651],[127.00755,37.36315],[127.01124,37.36553]]]}},{"type":"Feature","properties":{"h3":"8830e02665fffff","emd_code":"4143053000","emd_name":"오전동","area_km2":0.5071,"edge":false,"slope_mean":13.1,"elev_mean":144.4,"flood_hist_n":0,"flood_depth_max_m":null,"flood_risk_100y":null,"semi_basement_r":null,"elderly_alone_r":0.0931,"bldg_age30_r":null,"shelter_min_walk":15,"pop":32590,"hh":12498,"elderly65_r":0.2204,"single_hh_r":0.212,"source_level":"emd","flood_years":[],"landslide_hist_n":0},"geometry":{"type":"Polygon","coordinates":[[[127.00019,37.35838],[126.99968,37.36272],[126.99548,37.36467],[126.9918,37.36229],[126.99232,37.35795],[126.99651,37.35599],[127.00019,37.35838]]]}},{"type":"Feature","properties":{"h3":"8830e02667fffff","emd_code":"4143053000","emd_name":"오전동","area_km2":0.5072,"edge":false,"slope_mean":16.23,"elev_mean":183.7,"flood_hist_n":0,"flood_depth_max_m":null,"flood_risk_100y":null,"semi_basement_r":null,"elderly_alone_r":0.0931,"bldg_age30_r":null,"shelter_min_walk":11,"pop":32590,"hh":12498,"elderly65_r":0.2204,"single_hh_r":0.212,"source_level":"emd","flood_years":[],"landslide_hist_n":0},"geometry":{"type":"Polygon","coordinates":[[[127.00807,37.3588],[127.00755,37.36315],[127.00336,37.3651],[126.99968,37.36272],[127.00019,37.35838],[127.00438,37.35642],[127.00807,37.3588]]]}},{"type":"Feature","properties":{"h3":"8830e02669fffff","emd_code":"4143056000","emd_name":"청계동","area_km2":0.5071,"edge":false,"slope_mean":15.73,"elev_mean":126.9,"flood_hist_n":0,"flood_depth_max_m":null,"flood_risk_100y":null,"semi_basement_r":null,"elderly_alone_r":0.0957,"bldg_age30_r":null,"shelter_min_walk":14,"pop":37534,"hh":16093,"elderly65_r":0.2155,"single_hh_r":0.3158,"source_level":"emd","flood_years":[],"landslide_hist_n":0},"geometry":{"type":"Polygon","coordinates":[[[126.99865,37.3714],[126.99814,37.37574],[126.99394,37.3777],[126.99026,37.37531],[126.99077,37.37097],[126.99497,37.36902],[126.99865,37.3714]]]}},{"type":"Feature","properties":{"h3":"8830e0266bfffff","emd_code":"4143056000","emd_name":"청계동","area_km2":0.5072,"edge":false,"slope_mean":9.06,"elev_mean":91.1,"flood_hist_n":0,"flood_depth_max_m":null,"flood_risk_100y":null,"semi_basement_r":null,"elderly_alone_r":0.0957,"bldg_age30_r":null,"shelter_min_walk":6,"pop":37534,"hh":16093,"elderly65_r":0.2155,"single_hh_r":0.3158,"source_level":"emd","flood_years":[],"landslide_hist_n":0},"geometry":{"type":"Polygon","coordinates":[[[127.00653,37.37183],[127.00601,37.37617],[127.00182,37.37813],[126.99814,37.37574],[126.99865,37.3714],[127.00285,37.36944],[127.00653,37.37183]]]}},{"type":"Feature","properties":{"h3":"8830e0266dfffff","emd_code":"4143053000","emd_name":"오전동","area_km2":0.507,"edge":false,"slope_mean":16.22,"elev_mean":169.3,"flood_hist_n":0,"flood_depth_max_m":null,"flood_risk_100y":null,"semi_basement_r":null,"elderly_alone_r":0.0931,"bldg_age30_r":null,"shelter_min_walk":16,"pop":32590,"hh":12498,"elderly65_r":0.2204,"single_hh_r":0.212,"source_level":"emd","flood_years":[],"landslide_hist_n":0},"geometry":{"type":"Polygon","coordinates":[[[126.99548,37.36467],[126.99497,37.36902],[126.99077,37.37097],[126.98709,37.36859],[126.98761,37.36425],[126.9918,37.36229],[126.99548,37.36467]]]}},{"type":"Feature","properties":{"h3":"8830e02709fffff","emd_code":"4143051000","emd_name":"고천동","area_km2":0.5069,"edge":false,"slope_mean":15.86,"elev_mean":183.2,"flood_hist_n":0,"flood_depth_max_m":null,"flood_risk_100y":null,"semi_basement_r":null,"elderly_alone_r":0.0763,"bldg_age30_r":null,"shelter_min_walk":24,"pop":17759,"hh":7552,"elderly65_r":0.1703,"single_hh_r":0.3128,"source_level":"emd","flood_years":[],"landslide_hist_n":0},"geometry":{"type":"Polygon","coordinates":[[[126.9954,37.3319],[126.99488,37.33624],[126.99069,37.3382],[126.98701,37.33581],[126.98753,37.33147],[126.99172,37.32952],[126.9954,37.3319]]]}},{"type":"Feature","properties":{"h3":"8830e0270bfffff","emd_code":"4143051000","emd_name":"고천동","area_km2":0.507,"edge":true,"slope_mean":16.18,"elev_mean":215.5,"flood_hist_n":0,"flood_depth_max_m":null,"flood_risk_100y":null,"semi_basement_r":null,"elderly_alone_r":0.0763,"bldg_age30_r":null,"shelter_min_walk":32,"pop":17759,"hh":7552,"elderly65_r":0.1703,"single_hh_r":0.3128,"source_level":"emd","flood_years":[],"landslide_hist_n":0},"geometry":{"type":"Polygon","coordinates":[[[127.00327,37.33233],[127.00276,37.33667],[126.99856,37.33863],[126.99488,37.33624],[126.9954,37.3319],[126.99959,37.32994],[127.00327,37.33233]]]}},{"type":"Feature","properties":{"h3":"8830e0270dfffff","emd_code":"4143051000","emd_name":"고천동","area_km2":0.5069,"edge":true,"slope_mean":13.19,"elev_mean":140.8,"flood_hist_n":0,"flood_depth_max_m":null,"flood_risk_100y":null,"semi_basement_r":null,"elderly_alone_r":0.0763,"bldg_age30_r":null,"shelter_min_walk":20,"pop":17759,"hh":7552,"elderly65_r":0.1703,"single_hh_r":0.3128,"source_level":"emd","flood_years":[],"landslide_hist_n":0},"geometry":{"type":"Polygon","coordinates":[[[126.99223,37.32518],[126.99172,37.32952],[126.98753,37.33147],[126.98385,37.32909],[126.98436,37.32475],[126.98855,37.32279],[126.99223,37.32518]]]}},{"type":"Feature","properties":{"h3":"8830e02719fffff","emd_code":"4143051000","emd_name":"고천동","area_km2":0.5072,"edge":false,"slope_mean":19.63,"elev_mean":289.2,"flood_hist_n":0,"flood_depth_max_m":null,"flood_risk_100y":null,"semi_basement_r":null,"elderly_alone_r":0.0763,"bldg_age30_r":null,"shelter_min_walk":41,"pop":17759,"hh":7552,"elderly65_r":0.1703,"single_hh_r":0.3128,"source_level":"emd","flood_years":[],"landslide_hist_n":0},"geometry":{"type":"Polygon","coordinates":[[[127.01431,37.33948],[127.0138,37.34382],[127.0096,37.34578],[127.00592,37.34339],[127.00644,37.33905],[127.01063,37.33709],[127.01431,37.33948]]]}},{"type":"Feature","properties":{"h3":"8830e0271dfffff","emd_code":"4143051000","emd_name":"고천동","area_km2":0.5071,"edge":true,"slope_mean":18.54,"elev_mean":261.8,"flood_hist_n":0,"flood_depth_max_m":null,"flood_risk_100y":null,"semi_basement_r":null,"elderly_alone_r":0.0763,"bldg_age30_r":null,"shelter_min_walk":40,"pop":17759,"hh":7552,"elderly65_r":0.1703,"single_hh_r":0.3128,"source_level":"emd","flood_years":[],"landslide_hist_n":0},"geometry":{"type":"Polygon","coordinates":[[[127.01114,37.33275],[127.01063,37.33709],[127.00644,37.33905],[127.00276,37.33667],[127.00327,37.33233],[127.00746,37.33037],[127.01114,37.33275]]]}},{"type":"Feature","properties":{"h3":"8830e02741fffff","emd_code":"4143051000","emd_name":"고천동","area_km2":0.5068,"edge":false,"slope_mean":9.21,"elev_mean":81.0,"flood_hist_n":0,"flood_depth_max_m":null,"flood_risk_100y":null,"semi_basement_r":null,"elderly_alone_r":0.0763,"bldg_age30_r":null,"shelter_min_walk":7,"pop":17759,"hh":7552,"elderly65_r":0.1703,"single_hh_r":0.3128,"source_level":"emd","flood_years":[],"landslide_hist_n":0},"geometry":{"type":"Polygon","coordinates":[[[126.98282,37.33777],[126.98231,37.34211],[126.97811,37.34407],[126.97444,37.34168],[126.97495,37.33734],[126.97914,37.33539],[126.98282,37.33777]]]}},{"type":"Feature","properties":{"h3":"8830e02743fffff","emd_code":"4143051000","emd_name":"고천동","area_km2":0.5069,"edge":false,"slope_mean":10.77,"elev_mean":100.3,"flood_hist_n":0,"flood_depth_max_m":null,"flood_risk_100y":null,"semi_basement_r":null,"elderly_alone_r":0.0763,"bldg_age30_r":null,"shelter_min_walk":12,"pop":17759,"hh":7552,"elderly65_r":0.1703,"single_hh_r":0.3128,"source_level":"emd","flood_years":[],"landslide_hist_n":0},"geometry":{"type":"Polygon","coordinates":[[[126.99069,37.3382],[126.99018,37.34254],[126.98598,37.3445],[126.98231,37.34211],[126.98282,37.33777],[126.98701,37.33581],[126.99069,37.3382]]]}},{"type":"Feature","properties":{"h3":"8830e02745fffff","emd_code":"4143051000","emd_name":"고천동","area_km2":0.5067,"edge":false,"slope_mean":14.73,"elev_mean":125.8,"flood_hist_n":0,"flood_depth_max_m":null,"flood_risk_100y":null,"semi_basement_r":null,"elderly_alone_r":0.0763,"bldg_age30_r":null,"shelter_min_walk":16,"pop":17759,"hh":7552,"elderly65_r":0.1703,"single_hh_r":0.3128,"source_level":"emd","flood_years":[],"landslide_hist_n":0},"geometry":{"type":"Polygon","coordinates":[[[126.97966,37.33105],[126.97914,37.33539],[126.97495,37.33734],[126.97127,37.33496],[126.97179,37.33062],[126.97598,37.32866],[126.97966,37.33105]]]}},{"type":"Feature","properties":{"h3":"8830e02747fffff","emd_code":"4143051000","emd_name":"고천동","area_km2":0.5068,"edge":false,"slope_mean":11.93,"elev_mean":114.5,"flood_hist_n":0,"flood_depth_max_m":null,"flood_risk_100y":null,"semi_basement_r":null,"elderly_alone_r":0.0763,"bldg_age30_r":null,"shelter_min_walk":19,"pop":17759,"hh":7552,"elderly65_r":0.1703,"single_hh_r":0.3128,"source_level":"emd","flood_years":[],"landslide_hist_n":0},"geometry":{"type":"Polygon","coordinates":[[[126.98753,37.33147],[126.98701,37.33581],[126.98282,37.33777],[126.97914,37.33539],[126.97966,37.33105],[126.98385,37.32909],[126.98753,37.33147]]]}},{"type":"Feature","properties":{"h3":"8830e02749fffff","emd_code":"4143051000","emd_name":"고천동","area_km2":0.5067,"edge":false,"slope_mean":4.95,"elev_mean":61.1,"flood_hist_n":0,"flood_depth_max_m":null,"flood_risk_100y":null,"semi_basement_r":null,"elderly_alone_r":0.0763,"bldg_age30_r":null,"shelter_min_walk":4,"pop":17759,"hh":7552,"elderly65_r":0.1703,"single_hh_r":0.3128,"source_level":"emd","flood_years":[],"landslide_hist_n":0},"geometry":{"type":"Polygon","coordinates":[[[126.97811,37.34407],[126.9776,37.34841],[126.97341,37.35037],[126.96973,37.34798],[126.97024,37.34364],[126.97444,37.34168],[126.97811,37.34407]]]}},{"type":"Feature","properties":{"h3":"8830e0274bfffff","emd_code":"4143051000","emd_name":"고천동","area_km2":0.5068,"edge":false,"slope_mean":7.7,"elev_mean":78.3,"flood_hist_n":0,"flood_depth_max_m":null,"flood_risk_100y":null,"semi_basement_r":null,"elderly_alone_r":0.0763,"bldg_age30_r":null,"shelter_min_walk":2,"pop":17759,"hh":7552,"elderly65_r":0.1703,"single_hh_r":0.3128,"source_level":"emd","flood_years":[],"landslide_hist_n":0},"geometry":{"type":"Polygon","coordinates":[[[126.98598,37.3445],[126.98547,37.34884],[126.98128,37.35079],[126.9776,37.34841],[126.97811,37.34407],[126.98231,37.34211],[126.98598,37.3445]]]}},{"type":"Feature","properties":{"h3":"8830e0274dfffff","emd_code":"4143051000","emd_name":"고천동","area_km2":0.5067,"edge":false,"slope_mean":13.03,"elev_mean":92.4,"flood_hist_n":0,"flood_depth_max_m":null,"flood_risk_100y":null,"semi_basement_r":null,"elderly_alone_r":0.0763,"bldg_age30_r":null,"shelter_min_walk":8,"pop":17759,"hh":7552,"elderly65_r":0.1703,"single_hh_r":0.3128,"source_level":"emd","flood_years":[],"landslide_hist_n":0},"geometry":{"type":"Polygon","coordinates":[[[126.97495,37.33734],[126.97444,37.34168],[126.97024,37.34364],[126.96657,37.34126],[126.96708,37.33692],[126.97127,37.33496],[126.97495,37.33734]]]}},{"type":"Feature","properties":{"h3":"8830e02751fffff","emd_code":"4143051000","emd_name":"고천동","area_km2":0.5071,"edge":false,"slope_mean":11.82,"elev_mean":132.9,"flood_hist_n":0,"flood_depth_max_m":null,"flood_risk_100y":null,"semi_basement_r":null,"elderly_alone_r":0.0763,"bldg_age30_r":null,"shelter_min_walk":23,"pop":17759,"hh":7552,"elderly65_r":0.1703,"single_hh_r":0.3128,"source_level":"emd","flood_years":[],"landslide_hist_n":0},"geometry":{"type":"Polygon","coordinates":[[[127.00173,37.34535],[127.00122,37.34969],[126.99702,37.35165],[126.99334,37.34927],[126.99386,37.34492],[126.99805,37.34297],[127.00173,37.34535]]]}},{"type":"Feature","properties":{"h3":"8830e02753fffff","emd_code":"4143051000","emd_name":"고천동","area_km2":0.5072,"edge":false,"slope_mean":16.01,"elev_mean":201.3,"flood_hist_n":0,"flood_depth_max_m":null,"flood_risk_100y":null,"semi_basement_r":null,"elderly_alone_r":0.0763,"bldg_age30_r":null,"shelter_min_walk":33,"pop":17759,"hh":7552,"elderly65_r":0.1703,"single_hh_r":0.3128,"source_level":"emd","flood_years":[],"landslide_hist_n":0},"geometry":{"type":"Polygon","coordinates":[[[127.0096,37.34578],[127.00909,37.35012],[127.0049,37.35208],[127.00122,37.34969],[127.00173,37.34535],[127.00592,37.34339],[127.0096,37.34578]]]}},{"type":"Feature","properties":{"h3":"8830e02755fffff","emd_code":"4143051000","emd_name":"고천동","area_km2":0.507,"edge":false,"slope_mean":13.88,"elev_mean":156.8,"flood_hist_n":0,"flood_depth_max_m":null,"flood_risk_100y":null,"semi_basement_r":null,"elderly_alone_r":0.0763,"bldg_age30_r":null,"shelter_min_walk":21,"pop":17759,"hh":7552,"elderly65_r":0.1703,"single_hh_r":0.3128,"source_level":"emd","flood_years":[],"landslide_hist_n":0},"geometry":{"type":"Polygon","coordinates":[[[126.99856,37.33863],[126.99805,37.34297],[126.99386,37.34492],[126.99018,37.34254],[126.99069,37.3382],[126.99488,37.33624],[126.99856,37.33863]]]}},{"type":"Feature","properties":{"h3":"8830e02757fffff","emd_code":"4143051000","emd_name":"고천동","area_km2":0.5071,"edge":false,"slope_mean":17.34,"elev_mean":229.4,"flood_hist_n":0,"flood_depth_max_m":null,"flood_risk_100y":null,"semi_basement_r":null,"elderly_alone_r":0.0763,"bldg_age30_r":null,"shelter_min_walk":31,"pop":17759,"hh":7552,"elderly65_r":0.1703,"single_hh_r":0.3128,"source_level":"emd","flood_years":[],"landslide_hist_n":0},"geometry":{"type":"Polygon","coordinates":[[[127.00644,37.33905],[127.00592,37.34339],[127.00173,37.34535],[126.99805,37.34297],[126.99856,37.33863],[127.00276,37.33667],[127.00644,37.33905]]]}},{"type":"Feature","properties":{"h3":"8830e02759fffff","emd_code":"4143053000","emd_name":"오전동","area_km2":0.507,"edge":false,"slope_mean":12.49,"elev_mean":132.2,"flood_hist_n":0,"flood_depth_max_m":null,"flood_risk_100y":null,"semi_basement_r":null,"elderly_alone_r":0.0931,"bldg_age30_r":null,"shelter_min_walk":19,"pop":32590,"hh":12498,"elderly65_r":0.2204,"single_hh_r":0.212,"source_level":"emd","flood_years":[],"landslide_hist_n":0},"geometry":{"type":"Polygon","coordinates":[[[126.99702,37.35165],[126.99651,37.35599],[126.99232,37.35795],[126.98864,37.35556],[126.98915,37.35122],[126.99334,37.34927],[126.99702,37.35165]]]}},{"type":"Feature","properties":{"h3":"8830e0275bfffff","emd_code":"4143053000","emd_name":"오전동","area_km2":0.5071,"edge":false,"slope_mean":13.46,"elev_mean":167.2,"flood_hist_n":0,"flood_depth_max_m":null,"flood_risk_100y":null,"semi_basement_r":null,"elderly_alone_r":0.0931,"bldg_age30_r":null,"shelter_min_walk":22,"pop":32590,"hh":12498,"elderly65_r":0.2204,"single_hh_r":0.212,"source_level":"emd","flood_years":[],"landslide_hist_n":0},"geometry":{"type":"Polygon","coordinates":[[[127.0049,37.35208],[127.00438,37.35642],[127.00019,37.35838],[126.99651,37.35599],[126.99702,37.35165],[127.00122,37.34969],[127.0049,37.35208]]]}},{"type":"Feature","properties":{"h3":"8830e0275dfffff","emd_code":"4143051000","emd_name":"고천동","area_km2":0.5069,"edge":false,"slope_mean":11.03,"elev_mean":106.8,"flood_hist_n":0,"flood_depth_max_m":null,"flood_risk_100y":null,"semi_basement_r":null,"elderly_alone_r":0.0763,"bldg_age30_r":null,"shelter_min_walk":13,"pop":17759,"hh":7552,"elderly65_r":0.1703,"single_hh_r":0.3128,"source_level":"emd","flood_years":[],"landslide_hist_n":0},"geometry":{"type":"Polygon","coordinates":[[[126.99386,37.34492],[126.99334,37.34927],[126.98915,37.35122],[126.98547,37.34884],[126.98598,37.3445],[126.99018,37.34254],[126.99386,37.34492]]]}},{"type":"Feature","properties":{"h3":"8830e02769fffff","emd_code":"4143052000","emd_name":"부곡동","area_km2":0.5066,"edge":true,"slope_mean":14.68,"elev_mean":139.8,"flood_hist_n":0,"flood_depth_max_m":null,"flood_risk_100y":null,"semi_basement_r":null,"elderly_alone_r":0.1294,"bldg_age30_r":null,"shelter_min_walk":18,"pop":28515,"hh":12531,"elderly65_r":0.2159,"single_hh_r":0.3351,"source_level":"emd","flood_years":[],"landslide_hist_n":0},"geometry":{"type":"Polygon","coordinates":[[[126.97649,37.32432],[126.97598,37.32866],[126.97179,37.33062],[126.96811,37.32824],[126.96863,37.3239],[126.97282,37.32194],[126.97649,37.32432]]]}},{"type":"Feature","properties":{"h3":"8830e0276bfffff","emd_code":"4143051000","emd_name":"고천동","area_km2":0.5068,"edge":true,"slope_mean":12.94,"elev_mean":133.3,"flood_hist_n":0,"flood_depth_max_m":null,"flood_risk_100y":null,"semi_basement_r":null,"elderly_alone_r":0.0763,"bldg_age30_r":null,"shelter_min_walk":19,"pop":17759,"hh":7552,"elderly65_r":0.1703,"single_hh_r":0.3128,"source_level":"emd","flood_years":[],"landslide_hist_n":0},"geometry":{"type":"Polygon","coordinates":[[[126.98436,37.32475],[126.98385,37.32909],[126.97966,37.33105],[126.97598,37.32866],[126.97649,37.32432],[126.98068,37.32237],[126.98436,37.32475]]]}},{"type":"Feature","properties":{"h3":"8830e0276dfffff","emd_code":"4143052000","emd_name":"부곡동","area_km2":0.5066,"edge":true,"slope_mean":14.34,"elev_mean":118.2,"flood_hist_n":0,"flood_depth_max_m":null,"flood_risk_100y":null,"semi_basement_r":null,"elderly_alone_r":0.1294,"bldg_age30_r":null,"shelter_min_walk":9,"pop":28515,"hh":12531,"elderly65_r":0.2159,"single_hh_r":0.3351,"source_level":"emd","flood_years":[],"landslide_hist_n":0},"geometry":{"type":"Polygon","coordinates":[[[126.97333,37.3176],[126.97282,37.32194],[126.96863,37.3239],[126.96495,37.32151],[126.96547,37.31717],[126.96966,37.31522],[126.97333,37.3176]]]}},{"type":"Feature","properties":{"h3":"8830e034a1fffff","emd_code":"4143056000","emd_name":"청계동","area_km2":0.507,"edge":false,"slope_mean":7.4,"elev_mean":56.0,"flood_hist_n":0,"flood_depth_max_m":null,"flood_risk_100y":null,"semi_basement_r":null,"elderly_alone_r":0.0957,"bldg_age30_r":null,"shelter_min_walk":5,"pop":37534,"hh":16093,"elderly65_r":0.2155,"single_hh_r":0.3158,"source_level":"emd","flood_years":[],"landslide_hist_n":0},"geometry":{"type":"Polygon","coordinates":[[[126.98769,37.39702],[126.98718,37.40136],[126.98298,37.40332],[126.9793,37.40093],[126.97981,37.39659],[126.98401,37.39463],[126.98769,37.39702]]]}},{"type":"Feature","properties":{"h3":"8830e034a3fffff","emd_code":"4143056000","emd_name":"청계동","area_km2":0.5071,"edge":false,"slope_mean":9.14,"elev_mean":79.9,"flood_hist_n":0,"flood_depth_max_m":null,"flood_risk_100y":null,"semi_basement_r":null,"elderly_alone_r":0.0957,"bldg_age30_r":null,"shelter_min_walk":5,"pop":37534,"hh":16093,"elderly65_r":0.2155,"single_hh_r":0.3158,"source_level":"emd","flood_years":[],"landslide_hist_n":0},"geometry":{"type":"Polygon","coordinates":[[[126.99557,37.39745],[126.99505,37.40179],[126.99086,37.40375],[126.98718,37.40136],[126.98769,37.39702],[126.99189,37.39506],[126.99557,37.39745]]]}},{"type":"Feature","properties":{"h3":"8830e034a5fffff","emd_code":"4143055000","emd_name":"내손2동","area_km2":0.5069,"edge":false,"slope_mean":5.63,"elev_mean":49.4,"flood_hist_n":0,"flood_depth_max_m":null,"flood_risk_100y":null,"semi_basement_r":null,"elderly_alone_r":0.0624,"bldg_age30_r":null,"shelter_min_walk":1,"pop":29803,"hh":11640,"elderly65_r":0.1569,"single_hh_r":0.2194,"source_level":"emd","flood_years":[],"landslide_hist_n":0},"geometry":{"type":"Polygon","coordinates":[[[126.98452,37.39029],[126.98401,37.39463],[126.97981,37.39659],[126.97613,37.3942],[126.97665,37.38986],[126.98084,37.38791],[126.98452,37.39029]]]}},{"type":"Feature","properties":{"h3":"8830e034a7fffff","emd_code":"4143056000","emd_name":"청계동","area_km2":0.507,"edge":false,"slope_mean":4.87,"elev_mean":56.3,"flood_hist_n":0,"flood_depth_max_m":null,"flood_risk_100y":null,"semi_basement_r":null,"elderly_alone_r":0.0957,"bldg_age30_r":null,"shelter_min_walk":7,"pop":37534,"hh":16093,"elderly65_r":0.2155,"single_hh_r":0.3158,"source_level":"emd","flood_years":[],"landslide_hist_n":0},"geometry":{"type":"Polygon","coordinates":[[[126.9924,37.39072],[126.99189,37.39506],[126.98769,37.39702],[126.98401,37.39463],[126.98452,37.39029],[126.98872,37.38834],[126.9924,37.39072]]]}},{"type":"Feature","properties":{"h3":"8830e034abfffff","emd_code":"4143056000","emd_name":"청계동","area_km2":0.5071,"edge":false,"slope_mean":9.64,"elev_mean":66.7,"flood_hist_n":0,"flood_depth_max_m":null,"flood_risk_100y":null,"semi_basement_r":null,"elderly_alone_r":0.0957,"bldg_age30_r":null,"shelter_min_walk":4,"pop":37534,"hh":16093,"elderly65_r":0.2155,"single_hh_r":0.3158,"source_level":"emd","flood_years":[],"landslide_hist_n":0},"geometry":{"type":"Polygon","coordinates":[[[126.99086,37.40375],[126.99034,37.40809],[126.98615,37.41004],[126.98247,37.40766],[126.98298,37.40332],[126.98718,37.40136],[126.99086,37.40375]]]}},{"type":"Feature","properties":{"h3":"8830e034b1fffff","emd_code":"4143056000","emd_name":"청계동","area_km2":0.5073,"edge":false,"slope_mean":18.26,"elev_mean":172.6,"flood_hist_n":0,"flood_depth_max_m":null,"flood_risk_100y":null,"semi_basement_r":null,"elderly_alone_r":0.0957,"bldg_age30_r":null,"shelter_min_walk":20,"pop":37534,"hh":16093,"elderly65_r":0.2155,"single_hh_r":0.3158,"source_level":"emd","flood_years":[],"landslide_hist_n":0},"geometry":{"type":"Polygon","coordinates":[[[127.00662,37.40461],[127.00611,37.40895],[127.00191,37.41091],[126.99822,37.40852],[126.99874,37.40418],[127.00294,37.40222],[127.00662,37.40461]]]}},{"type":"Feature","properties":{"h3":"8830e034b3fffff","emd_code":"4143056000","emd_name":"청계동","area_km2":0.5074,"edge":false,"slope_mean":17.92,"elev_mean":180.5,"flood_hist_n":0,"flood_depth_max_m":null,"flood_risk_100y":null,"semi_basement_r":null,"elderly_alone_r":0.0957,"bldg_age30_r":null,"shelter_min_walk":25,"pop":37534,"hh":16093,"elderly65_r":0.2155,"single_hh_r":0.3158,"source_level":"emd","flood_years":[],"landslide_hist_n":0},"geometry":{"type":"Polygon","coordinates":[[[127.0145,37.40504],[127.01399,37.40938],[127.00979,37.41134],[127.00611,37.40895],[127.00662,37.40461],[127.01082,37.40265],[127.0145,37.40504]]]}},{"type":"Feature","properties":{"h3":"8830e034b5fffff","emd_code":"4143056000","emd_name":"청계동","area_km2":0.5072,"edge":false,"slope_mean":15.17,"elev_mean":126.1,"flood_hist_n":0,"flood_depth_max_m":null,"flood_risk_100y":null,"semi_basement_r":null,"elderly_alone_r":0.0957,"bldg_age30_r":null,"shelter_min_walk":10,"pop":37534,"hh":16093,"elderly65_r":0.2155,"single_hh_r":0.3158,"source_level":"emd","flood_years":[],"landslide_hist_n":0},"geometry":{"type":"Polygon","coordinates":[[[127.00345,37.39788],[127.00294,37.40222],[126.99874,37.40418],[126.99505,37.40179],[126.99557,37.39745],[126.99977,37.3955],[127.00345,37.39788]]]}},{"type":"Feature","properties":{"h3":"8830e034b7fffff","emd_code":"4143056000","emd_name":"청계동","area_km2":0.5073,"edge":false,"slope_mean":13.08,"elev_mean":119.4,"flood_hist_n":0,"flood_depth_max_m":null,"flood_risk_100y":null,"semi_basement_r":null,"elderly_alone_r":0.0957,"bldg_age30_r":null,"shelter_min_walk":14,"pop":37534,"hh":16093,"elderly65_r":0.2155,"single_hh_r":0.3158,"source_level":"emd","flood_years":[],"landslide_hist_n":0},"geometry":{"type":"Polygon","coordinates":[[[127.01133,37.39831],[127.01082,37.40265],[127.00662,37.40461],[127.00294,37.40222],[127.00345,37.39788],[127.00765,37.39593],[127.01133,37.39831]]]}},{"type":"Feature","properties":{"h3":"8830e034bbfffff","emd_code":"4143056000","emd_name":"청계동","area_km2":0.5073,"edge":true,"slope_mean":19.28,"elev_mean":198.0,"flood_hist_n":0,"flood_depth_max_m":null,"flood_risk_100y":null,"semi_basement_r":null,"elderly_alone_r":0.0957,"bldg_age30_r":null,"shelter_min_walk":15,"pop":37534,"hh":16093,"elderly65_r":0.2155,"single_hh_r":0.3158,"source_level":"emd","flood_years":[],"landslide_hist_n":0},"geometry":{"type":"Polygon","coordinates":[[[127.00979,37.41134],[127.00928,37.41568],[127.00508,37.41764],[127.00139,37.41525],[127.00191,37.41091],[127.00611,37.40895],[127.00979,37.41134]]]}},{"type":"Feature","properties":{"h3":"8830e034bdfffff","emd_code":"4143056000","emd_name":"청계동","area_km2":0.5072,"edge":true,"slope_mean":13.78,"elev_mean":112.4,"flood_hist_n":0,"flood_depth_max_m":null,"flood_risk_100y":null,"semi_basement_r":null,"elderly_alone_r":0.0957,"bldg_age30_r":null,"shelter_min_walk":11,"pop":37534,"hh":16093,"elderly65_r":0.2155,"single_hh_r":0.3158,"source_level":"emd","flood_years":[],"landslide_hist_n":0},"geometry":{"type":"Polygon","coordinates":[[[126.99874,37.40418],[126.99822,37.40852],[126.99403,37.41048],[126.99034,37.40809],[126.99086,37.40375],[126.99505,37.40179],[126.99874,37.40418]]]}},{"type":"Feature","properties":{"h3":"8830e03581fffff","emd_code":"4143053000","emd_name":"오전동","area_km2":0.5066,"edge":true,"slope_mean":5.96,"elev_mean":61.2,"flood_hist_n":0,"flood_depth_max_m":null,"flood_risk_100y":null,"semi_basement_r":null,"elderly_alone_r":0.0931,"bldg_age30_r":null,"shelter_min_walk":3,"pop":32590,"hh":12498,"elderly65_r":0.2204,"single_hh_r":0.212,"source_level":"emd","flood_years":[],"landslide_hist_n":0},"geometry":{"type":"Polygon","coordinates":[[[126.96715,37.36968],[126.96664,37.37402],[126.96245,37.37598],[126.95877,37.37359],[126.95928,37.36925],[126.96348,37.3673],[126.96715,37.36968]]]}},{"type":"Feature","properties":{"h3":"8830e03583fffff","emd_code":"4143054000","emd_name":"내손1동","area_km2":0.5067,"edge":false,"slope_mean":15.19,"elev_mean":123.9,"flood_hist_n":0,"flood_depth_max_m":null,"flood_risk_100y":null,"semi_basement_r":null,"elderly_alone_r":0.0998,"bldg_age30_r":null,"shelter_min_walk":8,"pop":19500,"hh":8323,"elderly65_r":0.2089,"single_hh_r":0.3232,"source_level":"emd","flood_years":[],"landslide_hist_n":0},"geometry":{"type":"Polygon","coordinates":[[[126.97503,37.37011],[126.97451,37.37445],[126.97032,37.37641],[126.96664,37.37402],[126.96715,37.36968],[126.97135,37.36773],[126.97503,37.37011]]]}},{"type":"Feature","properties":{"h3":"8830e03587fffff","emd_code":"4143053000","emd_name":"오전동","area_km2":0.5067,"edge":false,"slope_mean":12.09,"elev_mean":95.0,"flood_hist_n":0,"flood_depth_max_m":null,"flood_risk_100y":null,"semi_basement_r":null,"elderly_alone_r":0.0931,"bldg_age30_r":null,"shelter_min_walk":2,"pop":32590,"hh":12498,"elderly65_r":0.2204,"single_hh_r":0.212,"source_level":"emd","flood_years":[],"landslide_hist_n":0},"geometry":{"type":"Polygon","coordinates":[[[126.97186,37.36339],[126.97135,37.36773],[126.96715,37.36968],[126.96348,37.3673],[126.96399,37.36296],[126.96818,37.361],[126.97186,37.36339]]]}},{"type":"Feature","properties":{"h3":"8830e0358bfffff","emd_code":"4143054000","emd_name":"내손1동","area_km2":0.5067,"edge":true,"slope_mean":7.9,"elev_mean":64.0,"flood_hist_n":0,"flood_depth_max_m":null,"flood_risk_100y":null,"semi_basement_r":null,"elderly_alone_r":0.0998,"bldg_age30_r":null,"shelter_min_walk":2,"pop":19500,"hh":8323,"elderly65_r":0.2089,"single_hh_r":0.3232,"source_level":"emd","flood_years":[],"landslide_hist_n":0},"geometry":{"type":"Polygon","coordinates":[[[126.97032,37.37641],[126.9698,37.38075],[126.96561,37.3827],[126.96193,37.38032],[126.96245,37.37598],[126.96664,37.37402],[126.97032,37.37641]]]}},{"type":"Feature","properties":{"h3":"8830e03591fffff","emd_code":"4143054000","emd_name":"내손1동","area_km2":0.5069,"edge":false,"slope_mean":15.0,"elev_mean":123.6,"flood_hist_n":0,"flood_depth_max_m":null,"flood_risk_100y":null,"semi_basement_r":null,"elderly_alone_r":0.0998,"bldg_age30_r":null,"shelter_min_walk":8,"pop":19500,"hh":8323,"elderly65_r":0.2089,"single_hh_r":0.3232,"source_level":"emd","flood_years":[],"landslide_hist_n":0},"geometry":{"type":"Polygon","coordinates":[[[126.98607,37.37727],[126.98555,37.38161],[126.98136,37.38356],[126.97768,37.38118],[126.97819,37.37684],[126.98239,37.37488],[126.98607,37.37727]]]}},{"type":"Feature","properties":{"h3":"8830e03593fffff","emd_code":"4143056000","emd_name":"청계동","area_km2":0.507,"edge":false,"slope_mean":17.45,"elev_mean":150.5,"flood_hist_n":0,"flood_depth_max_m":null,"flood_risk_100y":null,"semi_basement_r":null,"elderly_alone_r":0.0957,"bldg_age30_r":null,"shelter_min_walk":17,"pop":37534,"hh":16093,"elderly65_r":0.2155,"single_hh_r":0.3158,"source_level":"emd","flood_years":[],"landslide_hist_n":0},"geometry":{"type":"Polygon","coordinates":[[[126.99394,37.3777],[126.99343,37.38204],[126.98923,37.384],[126.98555,37.38161],[126.98607,37.37727],[126.99026,37.37531],[126.99394,37.3777]]]}},{"type":"Feature","properties":{"h3":"8830e03595fffff","emd_code":"4143054000","emd_name":"내손1동","area_km2":0.5069,"edge":false,"slope_mean":24.9,"elev_mean":242.3,"flood_hist_n":0,"flood_depth_max_m":null,"flood_risk_100y":null,"semi_basement_r":null,"elderly_alone_r":0.0998,"bldg_age30_r":null,"shelter_min_walk":9,"pop":19500,"hh":8323,"elderly65_r":0.2089,"single_hh_r":0.3232,"source_level":"emd","flood_years":[],"landslide_hist_n":0},"geometry":{"type":"Polygon","coordinates":[[[126.9829,37.37054],[126.98239,37.37488],[126.97819,37.37684],[126.97451,37.37445],[126.97503,37.37011],[126.97922,37.36816],[126.9829,37.37054]]]}},{"type":"Feature","properties":{"h3":"8830e03597fffff","emd_code":"4143056000","emd_name":"청계동","area_km2":0.507,"edge":false,"slope_mean":18.68,"elev_mean":182.4,"flood_hist_n":0,"flood_depth_max_m":null,"flood_risk_100y":null,"semi_basement_r":null,"elderly_alone_r":0.0957,"bldg_age30_r":null,"shelter_min_walk":16,"pop":37534,"hh":16093,"elderly65_r":0.2155,"single_hh_r":0.3158,"source_level":"emd","flood_years":[],"landslide_hist_n":0},"geometry":{"type":"Polygon","coordinates":[[[126.99077,37.37097],[126.99026,37.37531],[126.98607,37.37727],[126.98239,37.37488],[126.9829,37.37054],[126.98709,37.36859],[126.99077,37.37097]]]}},{"type":"Feature","properties":{"h3":"8830e03599fffff","emd_code":"4143055000","emd_name":"내손2동","area_km2":0.5069,"edge":false,"slope_mean":7.39,"elev_mean":65.1,"flood_hist_n":0,"flood_depth_max_m":null,"flood_risk_100y":null,"semi_basement_r":null,"elderly_alone_r":0.0624,"bldg_age30_r":null,"shelter_min_walk":1,"pop":29803,"hh":11640,"elderly65_r":0.1569,"single_hh_r":0.2194,"source_level":"emd","flood_years":[],"landslide_hist_n":0},"geometry":{"type":"Polygon","coordinates":[[[126.98136,37.38356],[126.98084,37.38791],[126.97665,37.38986],[126.97297,37.38747],[126.97348,37.38313],[126.97768,37.38118],[126.98136,37.38356]]]}},{"type":"Feature","properties":{"h3":"8830e0359bfffff","emd_code":"4143055000","emd_name":"내손2동","area_km2":0.507,"edge":false,"slope_mean":9.84,"elev_mean":77.7,"flood_hist_n":0,"flood_depth_max_m":null,"flood_risk_100y":null,"semi_basement_r":null,"elderly_alone_r":0.0624,"bldg_age30_r":null,"shelter_min_walk":5,"pop":29803,"hh":11640,"elderly65_r":0.1569,"single_hh_r":0.2194,"source_level":"emd","flood_years":[],"landslide_hist_n":0},"geometry":{"type":"Polygon","coordinates":[[[126.98923,37.384],[126.98872,37.38834],[126.98452,37.39029],[126.98084,37.38791],[126.98136,37.38356],[126.98555,37.38161],[126.98923,37.384]]]}},{"type":"Feature","properties":{"h3":"8830e0359dfffff","emd_code":"4143054000","emd_name":"내손1동","area_km2":0.5068,"edge":false,"slope_mean":9.19,"elev_mean":82.9,"flood_hist_n":0,"flood_depth_max_m":null,"flood_risk_100y":null,"semi_basement_r":null,"elderly_alone_r":0.0998,"bldg_age30_r":null,"shelter_min_walk":2,"pop":19500,"hh":8323,"elderly65_r":0.2089,"single_hh_r":0.3232,"source_level":"emd","flood_years":[],"landslide_hist_n":0},"geometry":{"type":"Polygon","coordinates":[[[126.97819,37.37684],[126.97768,37.38118],[126.97348,37.38313],[126.9698,37.38075],[126.97032,37.37641],[126.97451,37.37445],[126.97819,37.37684]]]}},{"type":"Feature","properties":{"h3":"8830e035a1fffff","emd_code":"4143051000","emd_name":"고천동","area_km2":0.5066,"edge":false,"slope_mean":6.82,"elev_mean":59.4,"flood_hist_n":0,"flood_depth_max_m":null,"flood_risk_100y":null,"semi_basement_r":null,"elderly_alone_r":0.0763,"bldg_age30_r":null,"shelter_min_walk":13,"pop":17759,"hh":7552,"elderly65_r":0.1703,"single_hh_r":0.3128,"source_level":"emd","flood_years":[],"landslide_hist_n":0},"geometry":{"type":"Polygon","coordinates":[[[126.96554,37.34994],[126.96502,37.35428],[126.96083,37.35623],[126.95715,37.35385],[126.95767,37.34951],[126.96186,37.34755],[126.96554,37.34994]]]}},{"type":"Feature","properties":{"h3":"8830e035a3fffff","emd_code":"4143051000","emd_name":"고천동","area_km2":0.5067,"edge":false,"slope_mean":8.47,"elev_mean":64.3,"flood_hist_n":0,"flood_depth_max_m":null,"flood_risk_100y":null,"semi_basement_r":null,"elderly_alone_r":0.0763,"bldg_age30_r":null,"shelter_min_walk":4,"pop":17759,"hh":7552,"elderly65_r":0.1703,"single_hh_r":0.3128,"source_level":"emd","flood_years":[],"landslide_hist_n":0},"geometry":{"type":"Polygon","coordinates":[[[126.97341,37.35037],[126.97289,37.35471],[126.9687,37.35666],[126.96502,37.35428],[126.96554,37.34994],[126.96973,37.34798],[126.97341,37.35037]]]}},{"type":"Feature","properties":{"h3":"8830e035a5fffff","emd_code":"4143052000","emd_name":"부곡동","area_km2":0.5065,"edge":false,"slope_mean":11.81,"elev_mean":87.6,"flood_hist_n":0,"flood_depth_max_m":null,"flood_risk_100y":null,"semi_basement_r":null,"elderly_alone_r":0.1294,"bldg_age30_r":null,"shelter_min_walk":4,"pop":28515,"hh":12531,"elderly65_r":0.2159,"single_hh_r":0.3351,"source_level":"emd","flood_years":[],"landslide_hist_n":0},"geometry":{"type":"Polygon","coordinates":[[[126.96238,37.34321],[126.96186,37.34755],[126.95767,37.34951],[126.95399,37.34712],[126.95451,37.34278],[126.9587,37.34083],[126.96238,37.34321]]]}},{"type":"Feature","properties":{"h3":"8830e035a7fffff","emd_code":"4143051000","emd_name":"고천동","area_km2":0.5066,"edge":false,"slope_mean":14.99,"elev_mean":107.3,"flood_hist_n":0,"flood_depth_max_m":null,"flood_risk_100y":null,"semi_basement_r":null,"elderly_alone_r":0.0763,"bldg_age30_r":null,"shelter_min_walk":5,"pop":17759,"hh":7552,"elderly65_r":0.1703,"single_hh_r":0.3128,"source_level":"emd","flood_years":[],"landslide_hist_n":0},"geometry":{"type":"Polygon","coordinates":[[[126.97024,37.34364],[126.96973,37.34798],[126.96554,37.34994],[126.96186,37.34755],[126.96238,37.34321],[126.96657,37.34126],[126.97024,37.34364]]]}},{"type":"Feature","properties":{"h3":"8830e035a9fffff","emd_code":"4143053000","emd_name":"오전동","area_km2":0.5065,"edge":true,"slope_mean":4.87,"elev_mean":46.0,"flood_hist_n":0,"flood_depth_max_m":null,"flood_risk_100y":null,"semi_basement_r":null,"elderly_alone_r":0.0931,"bldg_age30_r":null,"shelter_min_walk":10,"pop":32590,"hh":12498,"elderly65_r":0.2204,"single_hh_r":0.212,"source_level":"emd","flood_years":[],"landslide_hist_n":0},"geometry":{"type":"Polygon","coordinates":[[[126.96083,37.35623],[126.96031,37.36057],[126.95612,37.36253],[126.95245,37.36014],[126.95296,37.3558],[126.95715,37.35385],[126.96083,37.35623]]]}},{"type":"Feature","properties":{"h3":"8830e035abfffff","emd_code":"4143053000","emd_name":"오전동","area_km2":0.5066,"edge":false,"slope_mean":5.01,"elev_mean":53.2,"flood_hist_n":0,"flood_depth_max_m":null,"flood_risk_100y":null,"semi_basement_r":null,"elderly_alone_r":0.0931,"bldg_age30_r":null,"shelter_min_walk":4,"pop":32590,"hh":12498,"elderly65_r":0.2204,"single_hh_r":0.212,"source_level":"emd","flood_years":[],"landslide_hist_n":0},"geometry":{"type":"Polygon","coordinates":[[[126.9687,37.35666],[126.96818,37.361],[126.96399,37.36296],[126.96031,37.36057],[126.96083,37.35623],[126.96502,37.35428],[126.9687,37.35666]]]}},{"type":"Feature","properties":{"h3":"8830e035b1fffff","emd_code":"4143053000","emd_name":"오전동","area_km2":0.5068,"edge":false,"slope_mean":16.53,"elev_mean":177.3,"flood_hist_n":0,"flood_depth_max_m":null,"flood_risk_100y":null,"semi_basement_r":null,"elderly_alone_r":0.0931,"bldg_age30_r":null,"shelter_min_walk":12,"pop":32590,"hh":12498,"elderly65_r":0.2204,"single_hh_r":0.212,"source_level":"emd","flood_years":[],"landslide_hist_n":0},"geometry":{"type":"Polygon","coordinates":[[[126.98444,37.35752],[126.98393,37.36186],[126.97973,37.36382],[126.97606,37.36143],[126.97657,37.35709],[126.98076,37.35513],[126.98444,37.35752]]]}},{"type":"Feature","properties":{"h3":"8830e035b3fffff","emd_code":"4143053000","emd_name":"오전동","area_km2":0.507,"edge":false,"slope_mean":13.92,"elev_mean":130.5,"flood_hist_n":0,"flood_depth_max_m":null,"flood_risk_100y":null,"semi_basement_r":null,"elderly_alone_r":0.0931,"bldg_age30_r":null,"shelter_min_walk":21,"pop":32590,"hh":12498,"elderly65_r":0.2204,"single_hh_r":0.212,"source_level":"emd","flood_years":[],"landslide_hist_n":0},"geometry":{"type":"Polygon","coordinates":[[[126.99232,37.35795],[126.9918,37.36229],[126.98761,37.36425],[126.98393,37.36186],[126.98444,37.35752],[126.98864,37.35556],[126.99232,37.35795]]]}},{"type":"Feature","properties":{"h3":"8830e035b5fffff","emd_code":"4143053000","emd_name":"오전동","area_km2":0.5068,"edge":false,"slope_mean":12.54,"elev_mean":104.8,"flood_hist_n":0,"flood_depth_max_m":null,"flood_risk_100y":null,"semi_basement_r":null,"elderly_alone_r":0.0931,"bldg_age30_r":null,"shelter_min_walk":2,"pop":32590,"hh":12498,"elderly65_r":0.2204,"single_hh_r":0.212,"source_level":"emd","flood_years":[],"landslide_hist_n":0},"geometry":{"type":"Polygon","coordinates":[[[126.98128,37.35079],[126.98076,37.35513],[126.97657,37.35709],[126.97289,37.35471],[126.97341,37.35037],[126.9776,37.34841],[126.98128,37.35079]]]}},{"type":"Feature","properties":{"h3":"8830e035b7fffff","emd_code":"4143053000","emd_name":"오전동","area_km2":0.5069,"edge":false,"slope_mean":13.4,"elev_mean":101.8,"flood_hist_n":0,"flood_depth_max_m":null,"flood_risk_100y":null,"semi_basement_r":null,"elderly_alone_r":0.0931,"bldg_age30_r":null,"shelter_min_walk":9,"pop":32590,"hh":12498,"elderly65_r":0.2204,"single_hh_r":0.212,"source_level":"emd","flood_years":[],"landslide_hist_n":0},"geometry":{"type":"Polygon","coordinates":[[[126.98915,37.35122],[126.98864,37.35556],[126.98444,37.35752],[126.98076,37.35513],[126.98128,37.35079],[126.98547,37.34884],[126.98915,37.35122]]]}},{"type":"Feature","properties":{"h3":"8830e035b9fffff","emd_code":"4143053000","emd_name":"오전동","area_km2":0.5068,"edge":false,"slope_mean":21.92,"elev_mean":215.8,"flood_hist_n":0,"flood_depth_max_m":null,"flood_risk_100y":null,"semi_basement_r":null,"elderly_alone_r":0.0931,"bldg_age30_r":null,"shelter_min_walk":11,"pop":32590,"hh":12498,"elderly65_r":0.2204,"single_hh_r":0.212,"source_level":"emd","flood_years":[],"landslide_hist_n":0},"geometry":{"type":"Polygon","coordinates":[[[126.97973,37.36382],[126.97922,37.36816],[126.97503,37.37011],[126.97135,37.36773],[126.97186,37.36339],[126.97606,37.36143],[126.97973,37.36382]]]}},{"type":"Feature","properties":{"h3":"8830e035bbfffff","emd_code":"4143053000","emd_name":"오전동","area_km2":0.5069,"edge":false,"slope_mean":19.32,"elev_mean":217.8,"flood_hist_n":0,"flood_depth_max_m":null,"flood_risk_100y":null,"semi_basement_r":null,"elderly_alone_r":0.0931,"bldg_age30_r":null,"shelter_min_walk":20,"pop":32590,"hh":12498,"elderly65_r":0.2204,"single_hh_r":0.212,"source_level":"emd","flood_years":[],"landslide_hist_n":0},"geometry":{"type":"Polygon","coordinates":[[[126.98761,37.36425],[126.98709,37.36859],[126.9829,37.37054],[126.97922,37.36816],[126.97973,37.36382],[126.98393,37.36186],[126.98761,37.36425]]]}},{"type":"Feature","properties":{"h3":"8830e035bdfffff","emd_code":"4143053000","emd_name":"오전동","area_km2":0.5067,"edge":false,"slope_mean":14.04,"elev_mean":101.5,"flood_hist_n":0,"flood_depth_max_m":null,"flood_risk_100y":null,"semi_basement_r":null,"elderly_alone_r":0.0931,"bldg_age30_r":null,"shelter_min_walk":2,"pop":32590,"hh":12498,"elderly65_r":0.2204,"single_hh_r":0.212,"source_level":"emd","flood_years":[],"landslide_hist_n":0},"geometry":{"type":"Polygon","coordinates":[[[126.97657,37.35709],[126.97606,37.36143],[126.97186,37.36339],[126.96818,37.361],[126.9687,37.35666],[126.97289,37.35471],[126.97657,37.35709]]]}},{"type":"Feature","properties":{"h3":"8830e035d3fffff","emd_code":"4143055000","emd_name":"내손2동","area_km2":0.5068,"edge":true,"slope_mean":5.18,"elev_mean":45.9,"flood_hist_n":0,"flood_depth_max_m":null,"flood_risk_100y":null,"semi_basement_r":null,"elderly_alone_r":0.0624,"bldg_age30_r":null,"shelter_min_walk":4,"pop":29803,"hh":11640,"elderly65_r":0.1569,"single_hh_r":0.2194,"source_level":"emd","flood_years":[],"landslide_hist_n":0},"geometry":{"type":"Polygon","coordinates":[[[126.97665,37.38986],[126.97613,37.3942],[126.97194,37.39616],[126.96826,37.39377],[126.96877,37.38943],[126.97297,37.38747],[126.97665,37.38986]]]}},{"type":"Feature","properties":{"h3":"8830e035d7fffff","emd_code":"4143054000","emd_name":"내손1동","area_km2":0.5068,"edge":true,"slope_mean":5.65,"elev_mean":54.1,"flood_hist_n":0,"flood_depth_max_m":null,"flood_risk_100y":null,"semi_basement_r":null,"elderly_alone_r":0.0998,"bldg_age30_r":null,"shelter_min_walk":1,"pop":19500,"hh":8323,"elderly65_r":0.2089,"single_hh_r":0.3232,"source_level":"emd","flood_years":[],"landslide_hist_n":0},"geometry":{"type":"Polygon","coordinates":[[[126.97348,37.38313],[126.97297,37.38747],[126.96877,37.38943],[126.96509,37.38704],[126.96561,37.3827],[126.9698,37.38075],[126.97348,37.38313]]]}},{"type":"Feature","properties":{"h3":"8830e1c905fffff","emd_code":"4143056000","emd_name":"청계동","area_km2":0.5078,"edge":true,"slope_mean":23.23,"elev_mean":345.4,"flood_hist_n":0,"flood_depth_max_m":null,"flood_risk_100y":null,"semi_basement_r":null,"elderly_alone_r":0.0957,"bldg_age30_r":null,"shelter_min_walk":39,"pop":37534,"hh":16093,"elderly65_r":0.2155,"single_hh_r":0.3158,"source_level":"emd","flood_years":[],"landslide_hist_n":0},"geometry":{"type":"Polygon","coordinates":[[[127.04133,37.41306],[127.04082,37.4174],[127.03662,37.41936],[127.03293,37.41697],[127.03344,37.41263],[127.03764,37.41067],[127.04133,37.41306]]]}},{"type":"Feature","properties":{"h3":"8830e1c907fffff","emd_code":"4143056000","emd_name":"청계동","area_km2":0.5079,"edge":true,"slope_mean":23.72,"elev_mean":458.2,"flood_hist_n":0,"flood_depth_max_m":null,"flood_risk_100y":null,"semi_basement_r":null,"elderly_alone_r":0.0957,"bldg_age30_r":null,"shelter_min_walk":48,"pop":37534,"hh":16093,"elderly65_r":0.2155,"single_hh_r":0.3158,"source_level":"emd","flood_years":[],"landslide_hist_n":0},"geometry":{"type":"Polygon","coordinates":[[[127.04922,37.41349],[127.04871,37.41783],[127.04451,37.41979],[127.04082,37.4174],[127.04133,37.41306],[127.04553,37.4111],[127.04922,37.41349]]]}},{"type":"Feature","properties":{"h3":"8830e1c921fffff","emd_code":"4143056000","emd_name":"청계동","area_km2":0.5078,"edge":false,"slope_mean":24.46,"elev_mean":358.6,"flood_hist_n":0,"flood_depth_max_m":null,"flood_risk_100y":null,"semi_basement_r":null,"elderly_alone_r":0.0957,"bldg_age30_r":null,"shelter_min_walk":43,"pop":37534,"hh":16093,"elderly65_r":0.2155,"single_hh_r":0.3158,"source_level":"emd","flood_years":[],"landslide_hist_n":0},"geometry":{"type":"Polygon","coordinates":[[[127.04287,37.40003],[127.04235,37.40437],[127.03816,37.40633],[127.03447,37.40394],[127.03498,37.3996],[127.03918,37.39764],[127.04287,37.40003]]]}},{"type":"Feature","properties":{"h3":"8830e1c923fffff","emd_code":"4143056000","emd_name":"청계동","area_km2":0.5079,"edge":true,"slope_mean":25.05,"elev_mean":376.5,"flood_hist_n":0,"flood_depth_max_m":null,"flood_risk_100y":null,"semi_basement_r":null,"elderly_alone_r":0.0957,"bldg_age30_r":null,"shelter_min_walk":34,"pop":37534,"hh":16093,"elderly65_r":0.2155,"single_hh_r":0.3158,"source_level":"emd","flood_years":[],"landslide_hist_n":0},"geometry":{"type":"Polygon","coordinates":[[[127.05075,37.40046],[127.05024,37.4048],[127.04604,37.40676],[127.04235,37.40437],[127.04287,37.40003],[127.04706,37.39807],[127.05075,37.40046]]]}},{"type":"Feature","properties":{"h3":"8830e1c925fffff","emd_code":"4143056000","emd_name":"청계동","area_km2":0.5077,"edge":false,"slope_mean":20.77,"elev_mean":240.0,"flood_hist_n":0,"flood_depth_max_m":null,"flood_risk_100y":null,"semi_basement_r":null,"elderly_alone_r":0.0957,"bldg_age30_r":null,"shelter_min_walk":44,"pop":37534,"hh":16093,"elderly65_r":0.2155,"single_hh_r":0.3158,"source_level":"emd","flood_years":[],"landslide_hist_n":0},"geometry":{"type":"Polygon","coordinates":[[[127.03969,37.3933],[127.03918,37.39764],[127.03498,37.3996],[127.03129,37.39721],[127.0318,37.39287],[127.036,37.39091],[127.03969,37.3933]]]}},{"type":"Feature","properties":{"h3":"8830e1c929fffff","emd_code":"4143056000","emd_name":"청계동","area_km2":0.5077,"edge":false,"slope_mean":21.28,"elev_mean":269.1,"flood_hist_n":0,"flood_depth_max_m":null,"flood_risk_100y":null,"semi_basement_r":null,"elderly_alone_r":0.0957,"bldg_age30_r":null,"shelter_min_walk":40,"pop":37534,"hh":16093,"elderly65_r":0.2155,"single_hh_r":0.3158,"source_level":"emd","flood_years":[],"landslide_hist_n":0},"geometry":{"type":"Polygon","coordinates":[[[127.03816,37.40633],[127.03764,37.41067],[127.03344,37.41263],[127.02976,37.41024],[127.03027,37.4059],[127.03447,37.40394],[127.03816,37.40633]]]}},{"type":"Feature","properties":{"h3":"8830e1c92bfffff","emd_code":"4143056000","emd_name":"청계동","area_km2":0.5078,"edge":false,"slope_mean":24.54,"elev_mean":389.0,"flood_hist_n":0,"flood_depth_max_m":null,"flood_risk_100y":null,"semi_basement_r":null,"elderly_alone_r":0.0957,"bldg_age30_r":null,"shelter_min_walk":46,"pop":37534,"hh":16093,"elderly65_r":0.2155,"single_hh_r":0.3158,"source_level":"emd","flood_years":[],"landslide_hist_n":0},"geometry":{"type":"Polygon","coordinates":[[[127.04604,37.40676],[127.04553,37.4111],[127.04133,37.41306],[127.03764,37.41067],[127.03816,37.40633],[127.04235,37.40437],[127.04604,37.40676]]]}},{"type":"Feature","properties":{"h3":"8830e1c92dfffff","emd_code":"4143056000","emd_name":"청계동","area_km2":0.5077,"edge":false,"slope_mean":20.13,"elev_mean":256.8,"flood_hist_n":0,"flood_depth_max_m":null,"flood_risk_100y":null,"semi_basement_r":null,"elderly_alone_r":0.0957,"bldg_age30_r":null,"shelter_min_walk":42,"pop":37534,"hh":16093,"elderly65_r":0.2155,"single_hh_r":0.3158,"source_level":"emd","flood_years":[],"landslide_hist_n":0},"geometry":{"type":"Polygon","coordinates":[[[127.03498,37.3996],[127.03447,37.40394],[127.03027,37.4059],[127.02658,37.40351],[127.0271,37.39917],[127.03129,37.39721],[127.03498,37.3996]]]}},{"type":"Feature","properties":{"h3":"8830e1c93dfffff","emd_code":"4143056000","emd_name":"청계동","area_km2":0.508,"edge":true,"slope_mean":25.48,"elev_mean":373.3,"flood_hist_n":0,"flood_depth_max_m":null,"flood_risk_100y":null,"semi_basement_r":null,"elderly_alone_r":0.0957,"bldg_age30_r":null,"shelter_min_walk":39,"pop":37534,"hh":16093,"elderly65_r":0.2155,"single_hh_r":0.3158,"source_level":"emd","flood_years":[],"landslide_hist_n":0},"geometry":{"type":"Polygon","coordinates":[[[127.05393,37.40719],[127.05342,37.41153],[127.04922,37.41349],[127.04553,37.4111],[127.04604,37.40676],[127.05024,37.4048],[127.05393,37.40719]]]}},{"type":"Feature","properties":{"h3":"8830e1c961fffff","emd_code":"4143056000","emd_name":"청계동","area_km2":0.5076,"edge":true,"slope_mean":20.24,"elev_mean":224.4,"flood_hist_n":0,"flood_depth_max_m":null,"flood_risk_100y":null,"semi_basement_r":null,"elderly_alone_r":0.0957,"bldg_age30_r":null,"shelter_min_walk":21,"pop":37534,"hh":16093,"elderly65_r":0.2155,"single_hh_r":0.3158,"source_level":"emd","flood_years":[],"landslide_hist_n":0},"geometry":{"type":"Polygon","coordinates":[[[127.02556,37.4122],[127.02505,37.41654],[127.02085,37.4185],[127.01716,37.41611],[127.01767,37.41177],[127.02187,37.40981],[127.02556,37.4122]]]}},{"type":"Feature","properties":{"h3":"8830e1c963fffff","emd_code":"4143056000","emd_name":"청계동","area_km2":0.5077,"edge":true,"slope_mean":19.41,"elev_mean":282.1,"flood_hist_n":0,"flood_depth_max_m":null,"flood_risk_100y":null,"semi_basement_r":null,"elderly_alone_r":0.0957,"bldg_age30_r":null,"shelter_min_walk":29,"pop":37534,"hh":16093,"elderly65_r":0.2155,"single_hh_r":0.3158,"source_level":"emd","flood_years":[],"landslide_hist_n":0},"geometry":{"type":"Polygon","coordinates":[[[127.03344,37.41263],[127.03293,37.41697],[127.02873,37.41893],[127.02505,37.41654],[127.02556,37.4122],[127.02976,37.41024],[127.03344,37.41263]]]}},{"type":"Feature","properties":{"h3":"8830e1c965fffff","emd_code":"4143056000","emd_name":"청계동","area_km2":0.5075,"edge":false,"slope_mean":19.14,"elev_mean":184.0,"flood_hist_n":0,"flood_depth_max_m":null,"flood_risk_100y":null,"semi_basement_r":null,"elderly_alone_r":0.0957,"bldg_age30_r":null,"shelter_min_walk":27,"pop":37534,"hh":16093,"elderly65_r":0.2155,"single_hh_r":0.3158,"source_level":"emd","flood_years":[],"landslide_hist_n":0},"geometry":{"type":"Polygon","coordinates":[[[127.02238,37.40547],[127.02187,37.40981],[127.01767,37.41177],[127.01399,37.40938],[127.0145,37.40504],[127.0187,37.40308],[127.02238,37.40547]]]}},{"type":"Feature","properties":{"h3":"8830e1c967fffff","emd_code":"4143056000","emd_name":"청계동","area_km2":0.5076,"edge":false,"slope_mean":20.52,"elev_mean":238.6,"flood_hist_n":0,"flood_depth_max_m":null,"flood_risk_100y":null,"semi_basement_r":null,"elderly_alone_r":0.0957,"bldg_age30_r":null,"shelter_min_walk":32,"pop":37534,"hh":16093,"elderly65_r":0.2155,"single_hh_r":0.3158,"source_level":"emd","flood_years":[],"landslide_hist_n":0},"geometry":{"type":"Polygon","coordinates":[[[127.03027,37.4059],[127.02976,37.41024],[127.02556,37.4122],[127.02187,37.40981],[127.02238,37.40547],[127.02658,37.40351],[127.03027,37.4059]]]}},{"type":"Feature","properties":{"h3":"8830e1c96dfffff","emd_code":"4143056000","emd_name":"청계동","area_km2":0.5075,"edge":true,"slope_mean":22.13,"elev_mean":257.2,"flood_hist_n":0,"flood_depth_max_m":null,"flood_risk_100y":null,"semi_basement_r":null,"elderly_alone_r":0.0957,"bldg_age30_r":null,"shelter_min_walk":15,"pop":37534,"hh":16093,"elderly65_r":0.2155,"single_hh_r":0.3158,"source_level":"emd","flood_years":[],"landslide_hist_n":0},"geometry":{"type":"Polygon","coordinates":[[[127.01767,37.41177],[127.01716,37.41611],[127.01296,37.41807],[127.00928,37.41568],[127.00979,37.41134],[127.01399,37.40938],[127.01767,37.41177]]]}}]}