{"type":"FeatureCollection","name":"grid_41465_h3r8","meta":{"sgg_code":"41465","h3_res":8,"n_cells":112,"dem":"Copernicus GLO-30 (bbox-mean)","crs":"EPSG:4326","jumin_basis":"2026-07","flood_src":"행안부 침수흔적도(전국, 재난안전데이터공유플랫폼)","landslide_src":"행안부 산사태 발생이력"},"features":[{"type":"Feature","properties":{"h3":"8830e02401fffff","emd_code":"4146553000","emd_name":"신봉동","area_km2":0.5078,"edge":false,"slope_mean":13.56,"elev_mean":196.1,"flood_hist_n":0,"flood_depth_max_m":null,"flood_risk_100y":null,"semi_basement_r":null,"elderly_alone_r":0.0667,"bldg_age30_r":null,"shelter_min_walk":8,"pop":40972,"hh":14804,"elderly65_r":0.1704,"single_hh_r":0.1886,"source_level":"emd","flood_years":[],"landslide_hist_n":0},"geometry":{"type":"Polygon","coordinates":[[[127.05523,37.32857],[127.05472,37.33291],[127.05053,37.33487],[127.04684,37.33249],[127.04735,37.32815],[127.05155,37.32618],[127.05523,37.32857]]]}},{"type":"Feature","properties":{"h3":"8830e02403fffff","emd_code":"4146553000","emd_name":"신봉동","area_km2":0.5079,"edge":false,"slope_mean":10.54,"elev_mean":151.5,"flood_hist_n":0,"flood_depth_max_m":null,"flood_risk_100y":null,"semi_basement_r":null,"elderly_alone_r":0.0667,"bldg_age30_r":null,"shelter_min_walk":6,"pop":40972,"hh":14804,"elderly65_r":0.1704,"single_hh_r":0.1886,"source_level":"emd","flood_years":[],"landslide_hist_n":0},"geometry":{"type":"Polygon","coordinates":[[[127.06311,37.32899],[127.0626,37.33333],[127.05841,37.33529],[127.05472,37.33291],[127.05523,37.32857],[127.05943,37.32661],[127.06311,37.32899]]]}},{"type":"Feature","properties":{"h3":"8830e02405fffff","emd_code":"4146559000","emd_name":"성복동","area_km2":0.5077,"edge":false,"slope_mean":16.96,"elev_mean":229.1,"flood_hist_n":0,"flood_depth_max_m":null,"flood_risk_100y":null,"semi_basement_r":null,"elderly_alone_r":0.0618,"bldg_age30_r":null,"shelter_min_walk":8,"pop":54462,"hh":18808,"elderly65_r":0.1924,"single_hh_r":0.1492,"source_level":"emd","flood_years":[],"landslide_hist_n":0},"geometry":{"type":"Polygon","coordinates":[[[127.05206,37.32184],[127.05155,37.32618],[127.04735,37.32815],[127.04367,37.32576],[127.04418,37.32142],[127.04837,37.31946],[127.05206,37.32184]]]}},{"type":"Feature","properties":{"h3":"8830e02407fffff","emd_code":"4146559000","emd_name":"성복동","area_km2":0.5078,"edge":false,"slope_mean":12.75,"elev_mean":173.2,"flood_hist_n":0,"flood_depth_max_m":null,"flood_risk_100y":null,"semi_basement_r":null,"elderly_alone_r":0.0618,"bldg_age30_r":null,"shelter_min_walk":3,"pop":54462,"hh":18808,"elderly65_r":0.1924,"single_hh_r":0.1492,"source_level":"emd","flood_years":[],"landslide_hist_n":0},"geometry":{"type":"Polygon","coordinates":[[[127.05994,37.32226],[127.05943,37.32661],[127.05523,37.32857],[127.05155,37.32618],[127.05206,37.32184],[127.05625,37.31988],[127.05994,37.32226]]]}},{"type":"Feature","properties":{"h3":"8830e02409fffff","emd_code":"4146553000","emd_name":"신봉동","area_km2":0.5077,"edge":false,"slope_mean":15.72,"elev_mean":237.3,"flood_hist_n":0,"flood_depth_max_m":null,"flood_risk_100y":null,"semi_basement_r":null,"elderly_alone_r":0.0667,"bldg_age30_r":null,"shelter_min_walk":12,"pop":40972,"hh":14804,"elderly65_r":0.1704,"single_hh_r":0.1886,"source_level":"emd","flood_years":[],"landslide_hist_n":0},"geometry":{"type":"Polygon","coordinates":[[[127.05053,37.33487],[127.05002,37.33922],[127.04582,37.34118],[127.04214,37.33879],[127.04265,37.33445],[127.04684,37.33249],[127.05053,37.33487]]]}},{"type":"Feature","properties":{"h3":"8830e0240bfffff","emd_code":"4146553000","emd_name":"신봉동","area_km2":0.5078,"edge":false,"slope_mean":12.7,"elev_mean":191.5,"flood_hist_n":0,"flood_depth_max_m":null,"flood_risk_100y":null,"semi_basement_r":null,"elderly_alone_r":0.0667,"bldg_age30_r":null,"shelter_min_walk":5,"pop":40972,"hh":14804,"elderly65_r":0.1704,"single_hh_r":0.1886,"source_level":"emd","flood_years":[],"landslide_hist_n":0},"geometry":{"type":"Polygon","coordinates":[[[127.05841,37.33529],[127.0579,37.33964],[127.0537,37.3416],[127.05002,37.33922],[127.05053,37.33487],[127.05472,37.33291],[127.05841,37.33529]]]}},{"type":"Feature","properties":{"h3":"8830e0240dfffff","emd_code":"4146553000","emd_name":"신봉동","area_km2":0.5076,"edge":false,"slope_mean":18.72,"elev_mean":269.8,"flood_hist_n":0,"flood_depth_max_m":null,"flood_risk_100y":null,"semi_basement_r":null,"elderly_alone_r":0.0667,"bldg_age30_r":null,"shelter_min_walk":17,"pop":40972,"hh":14804,"elderly65_r":0.1704,"single_hh_r":0.1886,"source_level":"emd","flood_years":[],"landslide_hist_n":0},"geometry":{"type":"Polygon","coordinates":[[[127.04735,37.32815],[127.04684,37.33249],[127.04265,37.33445],[127.03896,37.33207],[127.03947,37.32772],[127.04367,37.32576],[127.04735,37.32815]]]}},{"type":"Feature","properties":{"h3":"8830e02411fffff","emd_code":"4146556000","emd_name":"동천동","area_km2":0.508,"edge":false,"slope_mean":16.43,"elev_mean":181.5,"flood_hist_n":0,"flood_depth_max_m":null,"flood_risk_100y":null,"semi_basement_r":null,"elderly_alone_r":0.0598,"bldg_age30_r":null,"shelter_min_walk":10,"pop":50771,"hh":19792,"elderly65_r":0.1569,"single_hh_r":0.2528,"source_level":"emd","flood_years":[],"landslide_hist_n":0},"geometry":{"type":"Polygon","coordinates":[[[127.07417,37.33614],[127.07366,37.34048],[127.06947,37.34244],[127.06578,37.34006],[127.06629,37.33572],[127.07048,37.33376],[127.07417,37.33614]]]}},{"type":"Feature","properties":{"h3":"8830e02413fffff","emd_code":"4146556000","emd_name":"동천동","area_km2":0.5081,"edge":false,"slope_mean":16.99,"elev_mean":162.9,"flood_hist_n":0,"flood_depth_max_m":null,"flood_risk_100y":null,"semi_basement_r":null,"elderly_alone_r":0.0598,"bldg_age30_r":null,"shelter_min_walk":12,"pop":50771,"hh":19792,"elderly65_r":0.1569,"single_hh_r":0.2528,"source_level":"emd","flood_years":[],"landslide_hist_n":0},"geometry":{"type":"Polygon","coordinates":[[[127.08206,37.33656],[127.08155,37.3409],[127.07735,37.34287],[127.07366,37.34048],[127.07417,37.33614],[127.07837,37.33418],[127.08206,37.33656]]]}},{"type":"Feature","properties":{"h3":"8830e02415fffff","emd_code":"4146553000","emd_name":"신봉동","area_km2":0.508,"edge":false,"slope_mean":10.2,"elev_mean":135.8,"flood_hist_n":0,"flood_depth_max_m":null,"flood_risk_100y":null,"semi_basement_r":null,"elderly_alone_r":0.0667,"bldg_age30_r":null,"shelter_min_walk":1,"pop":40972,"hh":14804,"elderly65_r":0.1704,"single_hh_r":0.1886,"source_level":"emd","flood_years":[],"landslide_hist_n":0},"geometry":{"type":"Polygon","coordinates":[[[127.07099,37.32941],[127.07048,37.33376],[127.06629,37.33572],[127.0626,37.33333],[127.06311,37.32899],[127.06731,37.32703],[127.07099,37.32941]]]}},{"type":"Feature","properties":{"h3":"8830e02417fffff","emd_code":"4146553000","emd_name":"신봉동","area_km2":0.5081,"edge":false,"slope_mean":13.35,"elev_mean":167.9,"flood_hist_n":0,"flood_depth_max_m":null,"flood_risk_100y":null,"semi_basement_r":null,"elderly_alone_r":0.0667,"bldg_age30_r":null,"shelter_min_walk":6,"pop":40972,"hh":14804,"elderly65_r":0.1704,"single_hh_r":0.1886,"source_level":"emd","flood_years":[],"landslide_hist_n":0},"geometry":{"type":"Polygon","coordinates":[[[127.07888,37.32983],[127.07837,37.33418],[127.07417,37.33614],[127.07048,37.33376],[127.07099,37.32941],[127.07519,37.32745],[127.07888,37.32983]]]}},{"type":"Feature","properties":{"h3":"8830e02419fffff","emd_code":"4146556000","emd_name":"동천동","area_km2":0.508,"edge":false,"slope_mean":16.09,"elev_mean":184.5,"flood_hist_n":0,"flood_depth_max_m":null,"flood_risk_100y":null,"semi_basement_r":null,"elderly_alone_r":0.0598,"bldg_age30_r":null,"shelter_min_walk":19,"pop":50771,"hh":19792,"elderly65_r":0.1569,"single_hh_r":0.2528,"source_level":"emd","flood_years":[],"landslide_hist_n":0},"geometry":{"type":"Polygon","coordinates":[[[127.06947,37.34244],[127.06896,37.34679],[127.06476,37.34875],[127.06107,37.34637],[127.06158,37.34202],[127.06578,37.34006],[127.06947,37.34244]]]}},{"type":"Feature","properties":{"h3":"8830e0241bfffff","emd_code":"4146556000","emd_name":"동천동","area_km2":0.5081,"edge":false,"slope_mean":20.12,"elev_mean":202.1,"flood_hist_n":0,"flood_depth_max_m":null,"flood_risk_100y":null,"semi_basement_r":null,"elderly_alone_r":0.0598,"bldg_age30_r":null,"shelter_min_walk":22,"pop":50771,"hh":19792,"elderly65_r":0.1569,"single_hh_r":0.2528,"source_level":"emd","flood_years":[],"landslide_hist_n":0},"geometry":{"type":"Polygon","coordinates":[[[127.07735,37.34287],[127.07684,37.34721],[127.07264,37.34917],[127.06896,37.34679],[127.06947,37.34244],[127.07366,37.34048],[127.07735,37.34287]]]}},{"type":"Feature","properties":{"h3":"8830e0241dfffff","emd_code":"4146553000","emd_name":"신봉동","area_km2":0.5079,"edge":false,"slope_mean":14.48,"elev_mean":177.4,"flood_hist_n":0,"flood_depth_max_m":null,"flood_risk_100y":null,"semi_basement_r":null,"elderly_alone_r":0.0667,"bldg_age30_r":null,"shelter_min_walk":7,"pop":40972,"hh":14804,"elderly65_r":0.1704,"single_hh_r":0.1886,"source_level":"emd","flood_years":[],"landslide_hist_n":1},"geometry":{"type":"Polygon","coordinates":[[[127.06629,37.33572],[127.06578,37.34006],[127.06158,37.34202],[127.0579,37.33964],[127.05841,37.33529],[127.0626,37.33333],[127.06629,37.33572]]]}},{"type":"Feature","properties":{"h3":"8830e02423fffff","emd_code":"4146559000","emd_name":"성복동","area_km2":0.5078,"edge":true,"slope_mean":14.38,"elev_mean":158.9,"flood_hist_n":0,"flood_depth_max_m":null,"flood_risk_100y":null,"semi_basement_r":null,"elderly_alone_r":0.0618,"bldg_age30_r":null,"shelter_min_walk":14,"pop":54462,"hh":18808,"elderly65_r":0.1924,"single_hh_r":0.1492,"source_level":"emd","flood_years":[],"landslide_hist_n":0},"geometry":{"type":"Polygon","coordinates":[[[127.06146,37.30923],[127.06095,37.31358],[127.05676,37.31554],[127.05308,37.31315],[127.05359,37.30881],[127.05778,37.30685],[127.06146,37.30923]]]}},{"type":"Feature","properties":{"h3":"8830e02429fffff","emd_code":"4146559000","emd_name":"성복동","area_km2":0.5076,"edge":true,"slope_mean":16.14,"elev_mean":215.9,"flood_hist_n":0,"flood_depth_max_m":null,"flood_risk_100y":null,"semi_basement_r":null,"elderly_alone_r":0.0618,"bldg_age30_r":null,"shelter_min_walk":16,"pop":54462,"hh":18808,"elderly65_r":0.1924,"single_hh_r":0.1492,"source_level":"emd","flood_years":[],"landslide_hist_n":0},"geometry":{"type":"Polygon","coordinates":[[[127.04888,37.31512],[127.04837,37.31946],[127.04418,37.32142],[127.04049,37.31904],[127.04101,37.31469],[127.0452,37.31273],[127.04888,37.31512]]]}},{"type":"Feature","properties":{"h3":"8830e0242bfffff","emd_code":"4146559000","emd_name":"성복동","area_km2":0.5077,"edge":false,"slope_mean":15.17,"elev_mean":176.3,"flood_hist_n":0,"flood_depth_max_m":null,"flood_risk_100y":null,"semi_basement_r":null,"elderly_alone_r":0.0618,"bldg_age30_r":null,"shelter_min_walk":10,"pop":54462,"hh":18808,"elderly65_r":0.1924,"single_hh_r":0.1492,"source_level":"emd","flood_years":[],"landslide_hist_n":0},"geometry":{"type":"Polygon","coordinates":[[[127.05676,37.31554],[127.05625,37.31988],[127.05206,37.32184],[127.04837,37.31946],[127.04888,37.31512],[127.05308,37.31315],[127.05676,37.31554]]]}},{"type":"Feature","properties":{"h3":"8830e02431fffff","emd_code":"4146559000","emd_name":"성복동","area_km2":0.508,"edge":false,"slope_mean":9.67,"elev_mean":126.2,"flood_hist_n":0,"flood_depth_max_m":null,"flood_risk_100y":null,"semi_basement_r":null,"elderly_alone_r":0.0618,"bldg_age30_r":null,"shelter_min_walk":1,"pop":54462,"hh":18808,"elderly65_r":0.1924,"single_hh_r":0.1492,"source_level":"emd","flood_years":[],"landslide_hist_n":0},"geometry":{"type":"Polygon","coordinates":[[[127.07252,37.31638],[127.07201,37.32072],[127.06782,37.32268],[127.06413,37.3203],[127.06464,37.31596],[127.06883,37.314],[127.07252,37.31638]]]}},{"type":"Feature","properties":{"h3":"8830e02433fffff","emd_code":"4146559000","emd_name":"성복동","area_km2":0.5081,"edge":false,"slope_mean":11.05,"elev_mean":121.8,"flood_hist_n":0,"flood_depth_max_m":null,"flood_risk_100y":null,"semi_basement_r":null,"elderly_alone_r":0.0618,"bldg_age30_r":null,"shelter_min_walk":4,"pop":54462,"hh":18808,"elderly65_r":0.1924,"single_hh_r":0.1492,"source_level":"emd","flood_years":[],"landslide_hist_n":0},"geometry":{"type":"Polygon","coordinates":[[[127.0804,37.3168],[127.07989,37.32114],[127.0757,37.3231],[127.07201,37.32072],[127.07252,37.31638],[127.07672,37.31442],[127.0804,37.3168]]]}},{"type":"Feature","properties":{"h3":"8830e02435fffff","emd_code":"4146559000","emd_name":"성복동","area_km2":0.5079,"edge":false,"slope_mean":15.06,"elev_mean":173.3,"flood_hist_n":0,"flood_depth_max_m":null,"flood_risk_100y":null,"semi_basement_r":null,"elderly_alone_r":0.0618,"bldg_age30_r":null,"shelter_min_walk":8,"pop":54462,"hh":18808,"elderly65_r":0.1924,"single_hh_r":0.1492,"source_level":"emd","flood_years":[],"landslide_hist_n":0},"geometry":{"type":"Polygon","coordinates":[[[127.06934,37.30965],[127.06883,37.314],[127.06464,37.31596],[127.06095,37.31358],[127.06146,37.30923],[127.06566,37.30727],[127.06934,37.30965]]]}},{"type":"Feature","properties":{"h3":"8830e02437fffff","emd_code":"4146559000","emd_name":"성복동","area_km2":0.508,"edge":false,"slope_mean":10.61,"elev_mean":122.2,"flood_hist_n":0,"flood_depth_max_m":null,"flood_risk_100y":null,"semi_basement_r":null,"elderly_alone_r":0.0618,"bldg_age30_r":null,"shelter_min_walk":3,"pop":54462,"hh":18808,"elderly65_r":0.1924,"single_hh_r":0.1492,"source_level":"emd","flood_years":[],"landslide_hist_n":0},"geometry":{"type":"Polygon","coordinates":[[[127.07722,37.31007],[127.07672,37.31442],[127.07252,37.31638],[127.06883,37.314],[127.06934,37.30965],[127.07354,37.30769],[127.07722,37.31007]]]}},{"type":"Feature","properties":{"h3":"8830e02439fffff","emd_code":"4146553000","emd_name":"신봉동","area_km2":0.5079,"edge":false,"slope_mean":11.21,"elev_mean":143.0,"flood_hist_n":0,"flood_depth_max_m":null,"flood_risk_100y":null,"semi_basement_r":null,"elderly_alone_r":0.0667,"bldg_age30_r":null,"shelter_min_walk":5,"pop":40972,"hh":14804,"elderly65_r":0.1704,"single_hh_r":0.1886,"source_level":"emd","flood_years":[],"landslide_hist_n":0},"geometry":{"type":"Polygon","coordinates":[[[127.06782,37.32268],[127.06731,37.32703],[127.06311,37.32899],[127.05943,37.32661],[127.05994,37.32226],[127.06413,37.3203],[127.06782,37.32268]]]}},{"type":"Feature","properties":{"h3":"8830e0243bfffff","emd_code":"4146553000","emd_name":"신봉동","area_km2":0.508,"edge":false,"slope_mean":11.46,"elev_mean":129.4,"flood_hist_n":0,"flood_depth_max_m":null,"flood_risk_100y":null,"semi_basement_r":null,"elderly_alone_r":0.0667,"bldg_age30_r":null,"shelter_min_walk":2,"pop":40972,"hh":14804,"elderly65_r":0.1704,"single_hh_r":0.1886,"source_level":"emd","flood_years":[],"landslide_hist_n":0},"geometry":{"type":"Polygon","coordinates":[[[127.0757,37.3231],[127.07519,37.32745],[127.07099,37.32941],[127.06731,37.32703],[127.06782,37.32268],[127.07201,37.32072],[127.0757,37.3231]]]}},{"type":"Feature","properties":{"h3":"8830e0243dfffff","emd_code":"4146559000","emd_name":"성복동","area_km2":0.5078,"edge":false,"slope_mean":10.37,"elev_mean":140.6,"flood_hist_n":0,"flood_depth_max_m":null,"flood_risk_100y":null,"semi_basement_r":null,"elderly_alone_r":0.0618,"bldg_age30_r":null,"shelter_min_walk":2,"pop":54462,"hh":18808,"elderly65_r":0.1924,"single_hh_r":0.1492,"source_level":"emd","flood_years":[],"landslide_hist_n":0},"geometry":{"type":"Polygon","coordinates":[[[127.06464,37.31596],[127.06413,37.3203],[127.05994,37.32226],[127.05625,37.31988],[127.05676,37.31554],[127.06095,37.31358],[127.06464,37.31596]]]}},{"type":"Feature","properties":{"h3":"8830e02441fffff","emd_code":"4146553000","emd_name":"신봉동","area_km2":0.5075,"edge":false,"slope_mean":26.17,"elev_mean":458.4,"flood_hist_n":0,"flood_depth_max_m":null,"flood_risk_100y":null,"semi_basement_r":null,"elderly_alone_r":0.0667,"bldg_age30_r":null,"shelter_min_walk":31,"pop":40972,"hh":14804,"elderly65_r":0.1704,"single_hh_r":0.1886,"source_level":"emd","flood_years":[],"landslide_hist_n":0},"geometry":{"type":"Polygon","coordinates":[[[127.03794,37.34075],[127.03743,37.34509],[127.03323,37.34705],[127.02955,37.34467],[127.03006,37.34033],[127.03426,37.33837],[127.03794,37.34075]]]}},{"type":"Feature","properties":{"h3":"8830e02443fffff","emd_code":"4146556000","emd_name":"동천동","area_km2":0.5077,"edge":false,"slope_mean":22.84,"elev_mean":395.5,"flood_hist_n":0,"flood_depth_max_m":null,"flood_risk_100y":null,"semi_basement_r":null,"elderly_alone_r":0.0598,"bldg_age30_r":null,"shelter_min_walk":23,"pop":50771,"hh":19792,"elderly65_r":0.1569,"single_hh_r":0.2528,"source_level":"emd","flood_years":[],"landslide_hist_n":0},"geometry":{"type":"Polygon","coordinates":[[[127.04582,37.34118],[127.04531,37.34552],[127.04111,37.34748],[127.03743,37.34509],[127.03794,37.34075],[127.04214,37.33879],[127.04582,37.34118]]]}},{"type":"Feature","properties":{"h3":"8830e02445fffff","emd_code":"4146553000","emd_name":"신봉동","area_km2":0.5075,"edge":true,"slope_mean":22.87,"elev_mean":363.5,"flood_hist_n":0,"flood_depth_max_m":null,"flood_risk_100y":null,"semi_basement_r":null,"elderly_alone_r":0.0667,"bldg_age30_r":null,"shelter_min_walk":32,"pop":40972,"hh":14804,"elderly65_r":0.1704,"single_hh_r":0.1886,"source_level":"emd","flood_years":[],"landslide_hist_n":0},"geometry":{"type":"Polygon","coordinates":[[[127.03477,37.33403],[127.03426,37.33837],[127.03006,37.34033],[127.02638,37.33794],[127.02689,37.3336],[127.03109,37.33164],[127.03477,37.33403]]]}},{"type":"Feature","properties":{"h3":"8830e02447fffff","emd_code":"4146553000","emd_name":"신봉동","area_km2":0.5076,"edge":false,"slope_mean":20.12,"elev_mean":304.0,"flood_hist_n":0,"flood_depth_max_m":null,"flood_risk_100y":null,"semi_basement_r":null,"elderly_alone_r":0.0667,"bldg_age30_r":null,"shelter_min_walk":22,"pop":40972,"hh":14804,"elderly65_r":0.1704,"single_hh_r":0.1886,"source_level":"emd","flood_years":[],"landslide_hist_n":0},"geometry":{"type":"Polygon","coordinates":[[[127.04265,37.33445],[127.04214,37.33879],[127.03794,37.34075],[127.03426,37.33837],[127.03477,37.33403],[127.03896,37.33207],[127.04265,37.33445]]]}},{"type":"Feature","properties":{"h3":"8830e02449fffff","emd_code":"4146556000","emd_name":"동천동","area_km2":0.5075,"edge":false,"slope_mean":23.5,"elev_mean":424.7,"flood_hist_n":0,"flood_depth_max_m":null,"flood_risk_100y":null,"semi_basement_r":null,"elderly_alone_r":0.0598,"bldg_age30_r":null,"shelter_min_walk":42,"pop":50771,"hh":19792,"elderly65_r":0.1569,"single_hh_r":0.2528,"source_level":"emd","flood_years":[],"landslide_hist_n":0},"geometry":{"type":"Polygon","coordinates":[[[127.03323,37.34705],[127.03272,37.3514],[127.02853,37.35336],[127.02484,37.35097],[127.02536,37.34663],[127.02955,37.34467],[127.03323,37.34705]]]}},{"type":"Feature","properties":{"h3":"8830e0244bfffff","emd_code":"4146556000","emd_name":"동천동","area_km2":0.5076,"edge":false,"slope_mean":23.76,"elev_mean":368.6,"flood_hist_n":0,"flood_depth_max_m":null,"flood_risk_100y":null,"semi_basement_r":null,"elderly_alone_r":0.0598,"bldg_age30_r":null,"shelter_min_walk":34,"pop":50771,"hh":19792,"elderly65_r":0.1569,"single_hh_r":0.2528,"source_level":"emd","flood_years":[],"landslide_hist_n":0},"geometry":{"type":"Polygon","coordinates":[[[127.04111,37.34748],[127.0406,37.35182],[127.03641,37.35378],[127.03272,37.3514],[127.03323,37.34705],[127.03743,37.34509],[127.04111,37.34748]]]}},{"type":"Feature","properties":{"h3":"8830e02451fffff","emd_code":"4146556000","emd_name":"동천동","area_km2":0.5078,"edge":false,"slope_mean":17.39,"elev_mean":215.5,"flood_hist_n":0,"flood_depth_max_m":null,"flood_risk_100y":null,"semi_basement_r":null,"elderly_alone_r":0.0598,"bldg_age30_r":null,"shelter_min_walk":27,"pop":50771,"hh":19792,"elderly65_r":0.1569,"single_hh_r":0.2528,"source_level":"emd","flood_years":[],"landslide_hist_n":0},"geometry":{"type":"Polygon","coordinates":[[[127.05688,37.34833],[127.05637,37.35267],[127.05217,37.35463],[127.04848,37.35225],[127.04899,37.3479],[127.05319,37.34594],[127.05688,37.34833]]]}},{"type":"Feature","properties":{"h3":"8830e02453fffff","emd_code":"4146556000","emd_name":"동천동","area_km2":0.5079,"edge":false,"slope_mean":17.23,"elev_mean":211.1,"flood_hist_n":0,"flood_depth_max_m":null,"flood_risk_100y":null,"semi_basement_r":null,"elderly_alone_r":0.0598,"bldg_age30_r":null,"shelter_min_walk":27,"pop":50771,"hh":19792,"elderly65_r":0.1569,"single_hh_r":0.2528,"source_level":"emd","flood_years":[],"landslide_hist_n":0},"geometry":{"type":"Polygon","coordinates":[[[127.06476,37.34875],[127.06425,37.35309],[127.06005,37.35505],[127.05637,37.35267],[127.05688,37.34833],[127.06107,37.34637],[127.06476,37.34875]]]}},{"type":"Feature","properties":{"h3":"8830e02455fffff","emd_code":"4146556000","emd_name":"동천동","area_km2":0.5078,"edge":false,"slope_mean":17.64,"elev_mean":279.7,"flood_hist_n":0,"flood_depth_max_m":null,"flood_risk_100y":null,"semi_basement_r":null,"elderly_alone_r":0.0598,"bldg_age30_r":null,"shelter_min_walk":17,"pop":50771,"hh":19792,"elderly65_r":0.1569,"single_hh_r":0.2528,"source_level":"emd","flood_years":[],"landslide_hist_n":0},"geometry":{"type":"Polygon","coordinates":[[[127.0537,37.3416],[127.05319,37.34594],[127.04899,37.3479],[127.04531,37.34552],[127.04582,37.34118],[127.05002,37.33922],[127.0537,37.3416]]]}},{"type":"Feature","properties":{"h3":"8830e02457fffff","emd_code":"4146556000","emd_name":"동천동","area_km2":0.5079,"edge":false,"slope_mean":15.19,"elev_mean":202.5,"flood_hist_n":0,"flood_depth_max_m":null,"flood_risk_100y":null,"semi_basement_r":null,"elderly_alone_r":0.0598,"bldg_age30_r":null,"shelter_min_walk":16,"pop":50771,"hh":19792,"elderly65_r":0.1569,"single_hh_r":0.2528,"source_level":"emd","flood_years":[],"landslide_hist_n":0},"geometry":{"type":"Polygon","coordinates":[[[127.06158,37.34202],[127.06107,37.34637],[127.05688,37.34833],[127.05319,37.34594],[127.0537,37.3416],[127.0579,37.33964],[127.06158,37.34202]]]}},{"type":"Feature","properties":{"h3":"8830e02459fffff","emd_code":"4146556000","emd_name":"동천동","area_km2":0.5078,"edge":false,"slope_mean":13.73,"elev_mean":160.8,"flood_hist_n":0,"flood_depth_max_m":null,"flood_risk_100y":null,"semi_basement_r":null,"elderly_alone_r":0.0598,"bldg_age30_r":null,"shelter_min_walk":38,"pop":50771,"hh":19792,"elderly65_r":0.1569,"single_hh_r":0.2528,"source_level":"emd","flood_years":[],"landslide_hist_n":0},"geometry":{"type":"Polygon","coordinates":[[[127.05217,37.35463],[127.05166,37.35897],[127.04746,37.36093],[127.04378,37.35855],[127.04429,37.35421],[127.04848,37.35225],[127.05217,37.35463]]]}},{"type":"Feature","properties":{"h3":"8830e0245bfffff","emd_code":"4146556000","emd_name":"동천동","area_km2":0.5079,"edge":false,"slope_mean":15.64,"elev_mean":169.6,"flood_hist_n":0,"flood_depth_max_m":null,"flood_risk_100y":null,"semi_basement_r":null,"elderly_alone_r":0.0598,"bldg_age30_r":null,"shelter_min_walk":37,"pop":50771,"hh":19792,"elderly65_r":0.1569,"single_hh_r":0.2528,"source_level":"emd","flood_years":[],"landslide_hist_n":0},"geometry":{"type":"Polygon","coordinates":[[[127.06005,37.35505],[127.05954,37.3594],[127.05535,37.36136],[127.05166,37.35897],[127.05217,37.35463],[127.05637,37.35267],[127.06005,37.35505]]]}},{"type":"Feature","properties":{"h3":"8830e0245dfffff","emd_code":"4146556000","emd_name":"동천동","area_km2":0.5077,"edge":false,"slope_mean":18.44,"elev_mean":281.8,"flood_hist_n":0,"flood_depth_max_m":null,"flood_risk_100y":null,"semi_basement_r":null,"elderly_alone_r":0.0598,"bldg_age30_r":null,"shelter_min_walk":29,"pop":50771,"hh":19792,"elderly65_r":0.1569,"single_hh_r":0.2528,"source_level":"emd","flood_years":[],"landslide_hist_n":0},"geometry":{"type":"Polygon","coordinates":[[[127.04899,37.3479],[127.04848,37.35225],[127.04429,37.35421],[127.0406,37.35182],[127.04111,37.34748],[127.04531,37.34552],[127.04899,37.3479]]]}},{"type":"Feature","properties":{"h3":"8830e02463fffff","emd_code":"4146559000","emd_name":"성복동","area_km2":0.5076,"edge":false,"slope_mean":17.29,"elev_mean":292.3,"flood_hist_n":0,"flood_depth_max_m":null,"flood_risk_100y":null,"semi_basement_r":null,"elderly_alone_r":0.0618,"bldg_age30_r":null,"shelter_min_walk":18,"pop":54462,"hh":18808,"elderly65_r":0.1924,"single_hh_r":0.1492,"source_level":"emd","flood_years":[],"landslide_hist_n":1},"geometry":{"type":"Polygon","coordinates":[[[127.04418,37.32142],[127.04367,37.32576],[127.03947,37.32772],[127.03579,37.32534],[127.0363,37.321],[127.04049,37.31904],[127.04418,37.32142]]]}},{"type":"Feature","properties":{"h3":"8830e0246bfffff","emd_code":"4146553000","emd_name":"신봉동","area_km2":0.5075,"edge":true,"slope_mean":20.44,"elev_mean":323.8,"flood_hist_n":0,"flood_depth_max_m":null,"flood_risk_100y":null,"semi_basement_r":null,"elderly_alone_r":0.0667,"bldg_age30_r":null,"shelter_min_walk":27,"pop":40972,"hh":14804,"elderly65_r":0.1704,"single_hh_r":0.1886,"source_level":"emd","flood_years":[],"landslide_hist_n":0},"geometry":{"type":"Polygon","coordinates":[[[127.03947,37.32772],[127.03896,37.33207],[127.03477,37.33403],[127.03109,37.33164],[127.0316,37.3273],[127.03579,37.32534],[127.03947,37.32772]]]}},{"type":"Feature","properties":{"h3":"8830e02481fffff","emd_code":"4146555000","emd_name":"죽전2동","area_km2":0.5085,"edge":false,"slope_mean":4.15,"elev_mean":63.8,"flood_hist_n":0,"flood_depth_max_m":null,"flood_risk_100y":null,"semi_basement_r":null,"elderly_alone_r":0.0681,"bldg_age30_r":null,"shelter_min_walk":5,"pop":16990,"hh":7126,"elderly65_r":0.1738,"single_hh_r":0.2969,"source_level":"emd","flood_years":[],"landslide_hist_n":0},"geometry":{"type":"Polygon","coordinates":[[[127.11042,37.33151],[127.10991,37.33586],[127.10572,37.33782],[127.10203,37.33544],[127.10253,37.33109],[127.10673,37.32913],[127.11042,37.33151]]]}},{"type":"Feature","properties":{"h3":"8830e02483fffff","emd_code":"4146554000","emd_name":"죽전1동","area_km2":0.5086,"edge":false,"slope_mean":6.0,"elev_mean":61.6,"flood_hist_n":0,"flood_depth_max_m":null,"flood_risk_100y":null,"semi_basement_r":null,"elderly_alone_r":0.0741,"bldg_age30_r":null,"shelter_min_walk":5,"pop":28876,"hh":11138,"elderly65_r":0.1854,"single_hh_r":0.2398,"source_level":"emd","flood_years":[],"landslide_hist_n":0},"geometry":{"type":"Polygon","coordinates":[[[127.11831,37.33193],[127.1178,37.33628],[127.11361,37.33824],[127.10991,37.33586],[127.11042,37.33151],[127.11462,37.32955],[127.11831,37.33193]]]}},{"type":"Feature","properties":{"h3":"8830e02485fffff","emd_code":"4146555000","emd_name":"죽전2동","area_km2":0.5085,"edge":false,"slope_mean":3.89,"elev_mean":66.1,"flood_hist_n":0,"flood_depth_max_m":null,"flood_risk_100y":null,"semi_basement_r":null,"elderly_alone_r":0.0681,"bldg_age30_r":null,"shelter_min_walk":5,"pop":16990,"hh":7126,"elderly65_r":0.1738,"single_hh_r":0.2969,"source_level":"emd","flood_years":[],"landslide_hist_n":0},"geometry":{"type":"Polygon","coordinates":[[[127.10724,37.32478],[127.10673,37.32913],[127.10253,37.33109],[127.09884,37.32871],[127.09935,37.32436],[127.10355,37.3224],[127.10724,37.32478]]]}},{"type":"Feature","properties":{"h3":"8830e02487fffff","emd_code":"4146555000","emd_name":"죽전2동","area_km2":0.5086,"edge":false,"slope_mean":6.61,"elev_mean":63.8,"flood_hist_n":0,"flood_depth_max_m":null,"flood_risk_100y":null,"semi_basement_r":null,"elderly_alone_r":0.0681,"bldg_age30_r":null,"shelter_min_walk":3,"pop":16990,"hh":7126,"elderly65_r":0.1738,"single_hh_r":0.2969,"source_level":"emd","flood_years":[],"landslide_hist_n":0},"geometry":{"type":"Polygon","coordinates":[[[127.11513,37.3252],[127.11462,37.32955],[127.11042,37.33151],[127.10673,37.32913],[127.10724,37.32478],[127.11143,37.32282],[127.11513,37.3252]]]}},{"type":"Feature","properties":{"h3":"8830e02489fffff","emd_code":"4146556000","emd_name":"동천동","area_km2":0.5085,"edge":false,"slope_mean":3.92,"elev_mean":64.0,"flood_hist_n":0,"flood_depth_max_m":null,"flood_risk_100y":null,"semi_basement_r":null,"elderly_alone_r":0.0598,"bldg_age30_r":null,"shelter_min_walk":2,"pop":50771,"hh":19792,"elderly65_r":0.1569,"single_hh_r":0.2528,"source_level":"emd","flood_years":[],"landslide_hist_n":0},"geometry":{"type":"Polygon","coordinates":[[[127.10572,37.33782],[127.10521,37.34217],[127.10101,37.34413],[127.09732,37.34175],[127.09783,37.3374],[127.10203,37.33544],[127.10572,37.33782]]]}},{"type":"Feature","properties":{"h3":"8830e0248dfffff","emd_code":"4146551000","emd_name":"풍덕천1동","area_km2":0.5084,"edge":false,"slope_mean":4.55,"elev_mean":76.3,"flood_hist_n":0,"flood_depth_max_m":null,"flood_risk_100y":null,"semi_basement_r":null,"elderly_alone_r":0.0847,"bldg_age30_r":null,"shelter_min_walk":2,"pop":30242,"hh":13688,"elderly65_r":0.1728,"single_hh_r":0.3882,"source_level":"emd","flood_years":[],"landslide_hist_n":0},"geometry":{"type":"Polygon","coordinates":[[[127.10253,37.33109],[127.10203,37.33544],[127.09783,37.3374],[127.09414,37.33502],[127.09465,37.33067],[127.09884,37.32871],[127.10253,37.33109]]]}},{"type":"Feature","properties":{"h3":"8830e02491fffff","emd_code":"4146554000","emd_name":"죽전1동","area_km2":0.5088,"edge":true,"slope_mean":14.22,"elev_mean":112.6,"flood_hist_n":0,"flood_depth_max_m":null,"flood_risk_100y":null,"semi_basement_r":null,"elderly_alone_r":0.0741,"bldg_age30_r":null,"shelter_min_walk":5,"pop":28876,"hh":11138,"elderly65_r":0.1854,"single_hh_r":0.2398,"source_level":"emd","flood_years":[],"landslide_hist_n":0},"geometry":{"type":"Polygon","coordinates":[[[127.12939,37.33908],[127.12888,37.34342],[127.12468,37.34539],[127.12099,37.34301],[127.1215,37.33866],[127.1257,37.3367],[127.12939,37.33908]]]}},{"type":"Feature","properties":{"h3":"8830e02493fffff","emd_code":"4146554000","emd_name":"죽전1동","area_km2":0.5089,"edge":true,"slope_mean":19.79,"elev_mean":231.1,"flood_hist_n":0,"flood_depth_max_m":null,"flood_risk_100y":null,"semi_basement_r":null,"elderly_alone_r":0.0741,"bldg_age30_r":null,"shelter_min_walk":16,"pop":28876,"hh":11138,"elderly65_r":0.1854,"single_hh_r":0.2398,"source_level":"emd","flood_years":[],"landslide_hist_n":0},"geometry":{"type":"Polygon","coordinates":[[[127.13728,37.3395],[127.13678,37.34384],[127.13258,37.34581],[127.12888,37.34342],[127.12939,37.33908],[127.13359,37.33711],[127.13728,37.3395]]]}},{"type":"Feature","properties":{"h3":"8830e02495fffff","emd_code":"4146554000","emd_name":"죽전1동","area_km2":0.5088,"edge":false,"slope_mean":9.61,"elev_mean":90.3,"flood_hist_n":0,"flood_depth_max_m":null,"flood_risk_100y":null,"semi_basement_r":null,"elderly_alone_r":0.0741,"bldg_age30_r":null,"shelter_min_walk":3,"pop":28876,"hh":11138,"elderly65_r":0.1854,"single_hh_r":0.2398,"source_level":"emd","flood_years":[],"landslide_hist_n":0},"geometry":{"type":"Polygon","coordinates":[[[127.1262,37.33235],[127.1257,37.3367],[127.1215,37.33866],[127.1178,37.33628],[127.11831,37.33193],[127.12251,37.32997],[127.1262,37.33235]]]}},{"type":"Feature","properties":{"h3":"8830e02497fffff","emd_code":"4146554000","emd_name":"죽전1동","area_km2":0.5089,"edge":false,"slope_mean":12.19,"elev_mean":128.3,"flood_hist_n":0,"flood_depth_max_m":null,"flood_risk_100y":null,"semi_basement_r":null,"elderly_alone_r":0.0741,"bldg_age30_r":null,"shelter_min_walk":6,"pop":28876,"hh":11138,"elderly65_r":0.1854,"single_hh_r":0.2398,"source_level":"emd","flood_years":[],"landslide_hist_n":0},"geometry":{"type":"Polygon","coordinates":[[[127.13409,37.33277],[127.13359,37.33711],[127.12939,37.33908],[127.1257,37.3367],[127.1262,37.33235],[127.1304,37.33038],[127.13409,37.33277]]]}},{"type":"Feature","properties":{"h3":"8830e024a9fffff","emd_code":"4146552000","emd_name":"풍덕천2동","area_km2":0.5084,"edge":true,"slope_mean":6.11,"elev_mean":74.0,"flood_hist_n":0,"flood_depth_max_m":null,"flood_risk_100y":null,"semi_basement_r":null,"elderly_alone_r":0.0587,"bldg_age30_r":null,"shelter_min_walk":4,"pop":41194,"hh":15405,"elderly65_r":0.1065,"single_hh_r":0.2407,"source_level":"emd","flood_years":[],"landslide_hist_n":0},"geometry":{"type":"Polygon","coordinates":[[[127.10405,37.31805],[127.10355,37.3224],[127.09935,37.32436],[127.09566,37.32198],[127.09617,37.31764],[127.10037,37.31567],[127.10405,37.31805]]]}},{"type":"Feature","properties":{"h3":"8830e024abfffff","emd_code":"4146555000","emd_name":"죽전2동","area_km2":0.5085,"edge":true,"slope_mean":6.26,"elev_mean":69.4,"flood_hist_n":0,"flood_depth_max_m":null,"flood_risk_100y":null,"semi_basement_r":null,"elderly_alone_r":0.0681,"bldg_age30_r":null,"shelter_min_walk":4,"pop":16990,"hh":7126,"elderly65_r":0.1738,"single_hh_r":0.2969,"source_level":"emd","flood_years":[],"landslide_hist_n":0},"geometry":{"type":"Polygon","coordinates":[[[127.11194,37.31847],[127.11143,37.32282],[127.10724,37.32478],[127.10355,37.3224],[127.10405,37.31805],[127.10825,37.31609],[127.11194,37.31847]]]}},{"type":"Feature","properties":{"h3":"8830e024adfffff","emd_code":"4146552000","emd_name":"풍덕천2동","area_km2":0.5083,"edge":false,"slope_mean":9.91,"elev_mean":91.7,"flood_hist_n":0,"flood_depth_max_m":null,"flood_risk_100y":null,"semi_basement_r":null,"elderly_alone_r":0.0587,"bldg_age30_r":null,"shelter_min_walk":5,"pop":41194,"hh":15405,"elderly65_r":0.1065,"single_hh_r":0.2407,"source_level":"emd","flood_years":[],"landslide_hist_n":0},"geometry":{"type":"Polygon","coordinates":[[[127.10087,37.31133],[127.10037,37.31567],[127.09617,37.31764],[127.09248,37.31525],[127.09299,37.31091],[127.09718,37.30895],[127.10087,37.31133]]]}},{"type":"Feature","properties":{"h3":"8830e024b1fffff","emd_code":"4146555500","emd_name":"죽전3동","area_km2":0.5087,"edge":false,"slope_mean":9.75,"elev_mean":125.4,"flood_hist_n":0,"flood_depth_max_m":null,"flood_risk_100y":null,"semi_basement_r":null,"elderly_alone_r":0.0737,"bldg_age30_r":null,"shelter_min_walk":5,"pop":26379,"hh":11135,"elderly65_r":0.1623,"single_hh_r":0.3427,"source_level":"emd","flood_years":[],"landslide_hist_n":0},"geometry":{"type":"Polygon","coordinates":[[[127.12772,37.31931],[127.12721,37.32365],[127.12301,37.32562],[127.11932,37.32324],[127.11983,37.31889],[127.12403,37.31693],[127.12772,37.31931]]]}},{"type":"Feature","properties":{"h3":"8830e024b3fffff","emd_code":"4146555500","emd_name":"죽전3동","area_km2":0.5089,"edge":false,"slope_mean":16.17,"elev_mean":198.8,"flood_hist_n":0,"flood_depth_max_m":null,"flood_risk_100y":null,"semi_basement_r":null,"elderly_alone_r":0.0737,"bldg_age30_r":null,"shelter_min_walk":11,"pop":26379,"hh":11135,"elderly65_r":0.1623,"single_hh_r":0.3427,"source_level":"emd","flood_years":[],"landslide_hist_n":0},"geometry":{"type":"Polygon","coordinates":[[[127.13561,37.31972],[127.1351,37.32407],[127.13091,37.32604],[127.12721,37.32365],[127.12772,37.31931],[127.13192,37.31734],[127.13561,37.31972]]]}},{"type":"Feature","properties":{"h3":"8830e024b7fffff","emd_code":"4146555500","emd_name":"죽전3동","area_km2":0.5088,"edge":true,"slope_mean":13.68,"elev_mean":174.6,"flood_hist_n":0,"flood_depth_max_m":null,"flood_risk_100y":null,"semi_basement_r":null,"elderly_alone_r":0.0737,"bldg_age30_r":null,"shelter_min_walk":13,"pop":26379,"hh":11135,"elderly65_r":0.1623,"single_hh_r":0.3427,"source_level":"emd","flood_years":[],"landslide_hist_n":0},"geometry":{"type":"Polygon","coordinates":[[[127.13242,37.313],[127.13192,37.31734],[127.12772,37.31931],[127.12403,37.31693],[127.12453,37.31258],[127.12873,37.31061],[127.13242,37.313]]]}},{"type":"Feature","properties":{"h3":"8830e024b9fffff","emd_code":"4146555500","emd_name":"죽전3동","area_km2":0.5087,"edge":false,"slope_mean":8.0,"elev_mean":79.3,"flood_hist_n":0,"flood_depth_max_m":null,"flood_risk_100y":null,"semi_basement_r":null,"elderly_alone_r":0.0737,"bldg_age30_r":null,"shelter_min_walk":3,"pop":26379,"hh":11135,"elderly65_r":0.1623,"single_hh_r":0.3427,"source_level":"emd","flood_years":[],"landslide_hist_n":0},"geometry":{"type":"Polygon","coordinates":[[[127.12301,37.32562],[127.12251,37.32997],[127.11831,37.33193],[127.11462,37.32955],[127.11513,37.3252],[127.11932,37.32324],[127.12301,37.32562]]]}},{"type":"Feature","properties":{"h3":"8830e024bbfffff","emd_code":"4146555500","emd_name":"죽전3동","area_km2":0.5088,"edge":false,"slope_mean":10.72,"elev_mean":109.1,"flood_hist_n":0,"flood_depth_max_m":null,"flood_risk_100y":null,"semi_basement_r":null,"elderly_alone_r":0.0737,"bldg_age30_r":null,"shelter_min_walk":5,"pop":26379,"hh":11135,"elderly65_r":0.1623,"single_hh_r":0.3427,"source_level":"emd","flood_years":[],"landslide_hist_n":0},"geometry":{"type":"Polygon","coordinates":[[[127.13091,37.32604],[127.1304,37.33038],[127.1262,37.33235],[127.12251,37.32997],[127.12301,37.32562],[127.12721,37.32365],[127.13091,37.32604]]]}},{"type":"Feature","properties":{"h3":"8830e024bdfffff","emd_code":"4146555500","emd_name":"죽전3동","area_km2":0.5086,"edge":true,"slope_mean":8.12,"elev_mean":86.0,"flood_hist_n":0,"flood_depth_max_m":null,"flood_risk_100y":null,"semi_basement_r":null,"elderly_alone_r":0.0737,"bldg_age30_r":null,"shelter_min_walk":6,"pop":26379,"hh":11135,"elderly65_r":0.1623,"single_hh_r":0.3427,"source_level":"emd","flood_years":[],"landslide_hist_n":0},"geometry":{"type":"Polygon","coordinates":[[[127.11983,37.31889],[127.11932,37.32324],[127.11513,37.3252],[127.11143,37.32282],[127.11194,37.31847],[127.11614,37.31651],[127.11983,37.31889]]]}},{"type":"Feature","properties":{"h3":"8830e024c1fffff","emd_code":"4146556000","emd_name":"동천동","area_km2":0.5083,"edge":false,"slope_mean":9.88,"elev_mean":96.6,"flood_hist_n":0,"flood_depth_max_m":null,"flood_risk_100y":null,"semi_basement_r":null,"elderly_alone_r":0.0598,"bldg_age30_r":null,"shelter_min_walk":14,"pop":50771,"hh":19792,"elderly65_r":0.1569,"single_hh_r":0.2528,"source_level":"emd","flood_years":[],"landslide_hist_n":0},"geometry":{"type":"Polygon","coordinates":[[[127.09312,37.34371],[127.09262,37.34805],[127.08842,37.35002],[127.08473,37.34763],[127.08524,37.34329],[127.08943,37.34133],[127.09312,37.34371]]]}},{"type":"Feature","properties":{"h3":"8830e024c3fffff","emd_code":"4146556000","emd_name":"동천동","area_km2":0.5084,"edge":true,"slope_mean":9.29,"elev_mean":78.7,"flood_hist_n":0,"flood_depth_max_m":null,"flood_risk_100y":null,"semi_basement_r":null,"elderly_alone_r":0.0598,"bldg_age30_r":null,"shelter_min_walk":6,"pop":50771,"hh":19792,"elderly65_r":0.1569,"single_hh_r":0.2528,"source_level":"emd","flood_years":[],"landslide_hist_n":0},"geometry":{"type":"Polygon","coordinates":[[[127.10101,37.34413],[127.1005,37.34848],[127.09631,37.35044],[127.09262,37.34805],[127.09312,37.34371],[127.09732,37.34175],[127.10101,37.34413]]]}},{"type":"Feature","properties":{"h3":"8830e024c5fffff","emd_code":"4146556000","emd_name":"동천동","area_km2":0.5083,"edge":false,"slope_mean":15.98,"elev_mean":134.5,"flood_hist_n":0,"flood_depth_max_m":null,"flood_risk_100y":null,"semi_basement_r":null,"elderly_alone_r":0.0598,"bldg_age30_r":null,"shelter_min_walk":4,"pop":50771,"hh":19792,"elderly65_r":0.1569,"single_hh_r":0.2528,"source_level":"emd","flood_years":[],"landslide_hist_n":0},"geometry":{"type":"Polygon","coordinates":[[[127.08994,37.33698],[127.08943,37.34133],[127.08524,37.34329],[127.08155,37.3409],[127.08206,37.33656],[127.08625,37.3346],[127.08994,37.33698]]]}},{"type":"Feature","properties":{"h3":"8830e024c7fffff","emd_code":"4146556000","emd_name":"동천동","area_km2":0.5084,"edge":false,"slope_mean":6.83,"elev_mean":80.0,"flood_hist_n":0,"flood_depth_max_m":null,"flood_risk_100y":null,"semi_basement_r":null,"elderly_alone_r":0.0598,"bldg_age30_r":null,"shelter_min_walk":2,"pop":50771,"hh":19792,"elderly65_r":0.1569,"single_hh_r":0.2528,"source_level":"emd","flood_years":[],"landslide_hist_n":0},"geometry":{"type":"Polygon","coordinates":[[[127.09783,37.3374],[127.09732,37.34175],[127.09312,37.34371],[127.08943,37.34133],[127.08994,37.33698],[127.09414,37.33502],[127.09783,37.3374]]]}},{"type":"Feature","properties":{"h3":"8830e024c9fffff","emd_code":"4146556000","emd_name":"동천동","area_km2":0.5083,"edge":true,"slope_mean":10.63,"elev_mean":97.1,"flood_hist_n":0,"flood_depth_max_m":null,"flood_risk_100y":null,"semi_basement_r":null,"elderly_alone_r":0.0598,"bldg_age30_r":null,"shelter_min_walk":25,"pop":50771,"hh":19792,"elderly65_r":0.1569,"single_hh_r":0.2528,"source_level":"emd","flood_years":[],"landslide_hist_n":0},"geometry":{"type":"Polygon","coordinates":[[[127.08842,37.35002],[127.08791,37.35436],[127.08371,37.35632],[127.08002,37.35394],[127.08053,37.3496],[127.08473,37.34763],[127.08842,37.35002]]]}},{"type":"Feature","properties":{"h3":"8830e024cdfffff","emd_code":"4146556000","emd_name":"동천동","area_km2":0.5082,"edge":false,"slope_mean":17.98,"elev_mean":177.6,"flood_hist_n":0,"flood_depth_max_m":null,"flood_risk_100y":null,"semi_basement_r":null,"elderly_alone_r":0.0598,"bldg_age30_r":null,"shelter_min_walk":16,"pop":50771,"hh":19792,"elderly65_r":0.1569,"single_hh_r":0.2528,"source_level":"emd","flood_years":[],"landslide_hist_n":0},"geometry":{"type":"Polygon","coordinates":[[[127.08524,37.34329],[127.08473,37.34763],[127.08053,37.3496],[127.07684,37.34721],[127.07735,37.34287],[127.08155,37.3409],[127.08524,37.34329]]]}},{"type":"Feature","properties":{"h3":"8830e024e1fffff","emd_code":"4146551000","emd_name":"풍덕천1동","area_km2":0.5082,"edge":false,"slope_mean":11.22,"elev_mean":113.5,"flood_hist_n":0,"flood_depth_max_m":null,"flood_risk_100y":null,"semi_basement_r":null,"elderly_alone_r":0.0847,"bldg_age30_r":null,"shelter_min_walk":2,"pop":30242,"hh":13688,"elderly65_r":0.1728,"single_hh_r":0.3882,"source_level":"emd","flood_years":[],"landslide_hist_n":0},"geometry":{"type":"Polygon","coordinates":[[[127.09147,37.32394],[127.09096,37.32829],[127.08676,37.33025],[127.08307,37.32787],[127.08358,37.32352],[127.08778,37.32156],[127.09147,37.32394]]]}},{"type":"Feature","properties":{"h3":"8830e024e3fffff","emd_code":"4146551000","emd_name":"풍덕천1동","area_km2":0.5084,"edge":false,"slope_mean":5.94,"elev_mean":82.8,"flood_hist_n":0,"flood_depth_max_m":null,"flood_risk_100y":null,"semi_basement_r":null,"elderly_alone_r":0.0847,"bldg_age30_r":null,"shelter_min_walk":5,"pop":30242,"hh":13688,"elderly65_r":0.1728,"single_hh_r":0.3882,"source_level":"emd","flood_years":[],"landslide_hist_n":0},"geometry":{"type":"Polygon","coordinates":[[[127.09935,37.32436],[127.09884,37.32871],[127.09465,37.33067],[127.09096,37.32829],[127.09147,37.32394],[127.09566,37.32198],[127.09935,37.32436]]]}},{"type":"Feature","properties":{"h3":"8830e024e5fffff","emd_code":"4146552000","emd_name":"풍덕천2동","area_km2":0.5082,"edge":false,"slope_mean":9.17,"elev_mean":93.4,"flood_hist_n":0,"flood_depth_max_m":null,"flood_risk_100y":null,"semi_basement_r":null,"elderly_alone_r":0.0587,"bldg_age30_r":null,"shelter_min_walk":2,"pop":41194,"hh":15405,"elderly65_r":0.1065,"single_hh_r":0.2407,"source_level":"emd","flood_years":[],"landslide_hist_n":0},"geometry":{"type":"Polygon","coordinates":[[[127.08828,37.31722],[127.08778,37.32156],[127.08358,37.32352],[127.07989,37.32114],[127.0804,37.3168],[127.0846,37.31484],[127.08828,37.31722]]]}},{"type":"Feature","properties":{"h3":"8830e024e7fffff","emd_code":"4146552000","emd_name":"풍덕천2동","area_km2":0.5083,"edge":false,"slope_mean":6.86,"elev_mean":80.7,"flood_hist_n":0,"flood_depth_max_m":null,"flood_risk_100y":null,"semi_basement_r":null,"elderly_alone_r":0.0587,"bldg_age30_r":null,"shelter_min_walk":2,"pop":41194,"hh":15405,"elderly65_r":0.1065,"single_hh_r":0.2407,"source_level":"emd","flood_years":[],"landslide_hist_n":0},"geometry":{"type":"Polygon","coordinates":[[[127.09617,37.31764],[127.09566,37.32198],[127.09147,37.32394],[127.08778,37.32156],[127.08828,37.31722],[127.09248,37.31525],[127.09617,37.31764]]]}},{"type":"Feature","properties":{"h3":"8830e024e9fffff","emd_code":"4146552000","emd_name":"풍덕천2동","area_km2":0.5082,"edge":false,"slope_mean":16.27,"elev_mean":174.2,"flood_hist_n":0,"flood_depth_max_m":null,"flood_risk_100y":null,"semi_basement_r":null,"elderly_alone_r":0.0587,"bldg_age30_r":null,"shelter_min_walk":9,"pop":41194,"hh":15405,"elderly65_r":0.1065,"single_hh_r":0.2407,"source_level":"emd","flood_years":[],"landslide_hist_n":0},"geometry":{"type":"Polygon","coordinates":[[[127.08676,37.33025],[127.08625,37.3346],[127.08206,37.33656],[127.07837,37.33418],[127.07888,37.32983],[127.08307,37.32787],[127.08676,37.33025]]]}},{"type":"Feature","properties":{"h3":"8830e024ebfffff","emd_code":"4146556000","emd_name":"동천동","area_km2":0.5083,"edge":false,"slope_mean":10.36,"elev_mean":108.9,"flood_hist_n":0,"flood_depth_max_m":null,"flood_risk_100y":null,"semi_basement_r":null,"elderly_alone_r":0.0598,"bldg_age30_r":null,"shelter_min_walk":4,"pop":50771,"hh":19792,"elderly65_r":0.1569,"single_hh_r":0.2528,"source_level":"emd","flood_years":[],"landslide_hist_n":0},"geometry":{"type":"Polygon","coordinates":[[[127.09465,37.33067],[127.09414,37.33502],[127.08994,37.33698],[127.08625,37.3346],[127.08676,37.33025],[127.09096,37.32829],[127.09465,37.33067]]]}},{"type":"Feature","properties":{"h3":"8830e024edfffff","emd_code":"4146553000","emd_name":"신봉동","area_km2":0.5081,"edge":false,"slope_mean":11.96,"elev_mean":125.7,"flood_hist_n":0,"flood_depth_max_m":null,"flood_risk_100y":null,"semi_basement_r":null,"elderly_alone_r":0.0667,"bldg_age30_r":null,"shelter_min_walk":3,"pop":40972,"hh":14804,"elderly65_r":0.1704,"single_hh_r":0.1886,"source_level":"emd","flood_years":[],"landslide_hist_n":0},"geometry":{"type":"Polygon","coordinates":[[[127.08358,37.32352],[127.08307,37.32787],[127.07888,37.32983],[127.07519,37.32745],[127.0757,37.3231],[127.07989,37.32114],[127.08358,37.32352]]]}},{"type":"Feature","properties":{"h3":"8830e02589fffff","emd_code":"4146558500","emd_name":"상현3동","area_km2":0.508,"edge":true,"slope_mean":10.42,"elev_mean":73.9,"flood_hist_n":0,"flood_depth_max_m":null,"flood_risk_100y":null,"semi_basement_r":null,"elderly_alone_r":0.0606,"bldg_age30_r":null,"shelter_min_walk":5,"pop":27098,"hh":11088,"elderly65_r":0.141,"single_hh_r":0.3251,"source_level":"emd","flood_years":[],"landslide_hist_n":0},"geometry":{"type":"Polygon","coordinates":[[[127.08345,37.29073],[127.08294,37.29507],[127.07875,37.29704],[127.07506,37.29466],[127.07557,37.29031],[127.07977,37.28835],[127.08345,37.29073]]]}},{"type":"Feature","properties":{"h3":"8830e025c1fffff","emd_code":"4146558500","emd_name":"상현3동","area_km2":0.5079,"edge":false,"slope_mean":7.47,"elev_mean":81.9,"flood_hist_n":0,"flood_depth_max_m":null,"flood_risk_100y":null,"semi_basement_r":null,"elderly_alone_r":0.0606,"bldg_age30_r":null,"shelter_min_walk":2,"pop":27098,"hh":11088,"elderly65_r":0.141,"single_hh_r":0.3251,"source_level":"emd","flood_years":[],"landslide_hist_n":0},"geometry":{"type":"Polygon","coordinates":[[[127.07087,37.29662],[127.07036,37.30096],[127.06617,37.30293],[127.06248,37.30054],[127.06299,37.2962],[127.06719,37.29424],[127.07087,37.29662]]]}},{"type":"Feature","properties":{"h3":"8830e025c3fffff","emd_code":"4146558500","emd_name":"상현3동","area_km2":0.508,"edge":false,"slope_mean":7.52,"elev_mean":75.8,"flood_hist_n":0,"flood_depth_max_m":null,"flood_risk_100y":null,"semi_basement_r":null,"elderly_alone_r":0.0606,"bldg_age30_r":null,"shelter_min_walk":3,"pop":27098,"hh":11088,"elderly65_r":0.141,"single_hh_r":0.3251,"source_level":"emd","flood_years":[],"landslide_hist_n":0},"geometry":{"type":"Polygon","coordinates":[[[127.07875,37.29704],[127.07824,37.30138],[127.07405,37.30334],[127.07036,37.30096],[127.07087,37.29662],[127.07506,37.29466],[127.07875,37.29704]]]}},{"type":"Feature","properties":{"h3":"8830e025c5fffff","emd_code":"4146558500","emd_name":"상현3동","area_km2":0.5078,"edge":true,"slope_mean":7.46,"elev_mean":70.9,"flood_hist_n":0,"flood_depth_max_m":null,"flood_risk_100y":null,"semi_basement_r":null,"elderly_alone_r":0.0606,"bldg_age30_r":null,"shelter_min_walk":5,"pop":27098,"hh":11088,"elderly65_r":0.141,"single_hh_r":0.3251,"source_level":"emd","flood_years":[],"landslide_hist_n":0},"geometry":{"type":"Polygon","coordinates":[[[127.06769,37.28989],[127.06719,37.29424],[127.06299,37.2962],[127.05931,37.29382],[127.05982,37.28948],[127.06401,37.28751],[127.06769,37.28989]]]}},{"type":"Feature","properties":{"h3":"8830e025c7fffff","emd_code":"4146558500","emd_name":"상현3동","area_km2":0.5079,"edge":true,"slope_mean":5.23,"elev_mean":64.8,"flood_hist_n":0,"flood_depth_max_m":null,"flood_risk_100y":null,"semi_basement_r":null,"elderly_alone_r":0.0606,"bldg_age30_r":null,"shelter_min_walk":2,"pop":27098,"hh":11088,"elderly65_r":0.141,"single_hh_r":0.3251,"source_level":"emd","flood_years":[],"landslide_hist_n":0},"geometry":{"type":"Polygon","coordinates":[[[127.07557,37.29031],[127.07506,37.29466],[127.07087,37.29662],[127.06719,37.29424],[127.06769,37.28989],[127.07189,37.28793],[127.07557,37.29031]]]}},{"type":"Feature","properties":{"h3":"8830e025c9fffff","emd_code":"4146558500","emd_name":"상현3동","area_km2":0.5078,"edge":false,"slope_mean":14.99,"elev_mean":140.8,"flood_hist_n":0,"flood_depth_max_m":null,"flood_risk_100y":null,"semi_basement_r":null,"elderly_alone_r":0.0606,"bldg_age30_r":null,"shelter_min_walk":14,"pop":27098,"hh":11088,"elderly65_r":0.141,"single_hh_r":0.3251,"source_level":"emd","flood_years":[],"landslide_hist_n":0},"geometry":{"type":"Polygon","coordinates":[[[127.06617,37.30293],[127.06566,37.30727],[127.06146,37.30923],[127.05778,37.30685],[127.05829,37.30251],[127.06248,37.30054],[127.06617,37.30293]]]}},{"type":"Feature","properties":{"h3":"8830e025cbfffff","emd_code":"4146558500","emd_name":"상현3동","area_km2":0.5079,"edge":false,"slope_mean":14.35,"elev_mean":136.5,"flood_hist_n":0,"flood_depth_max_m":null,"flood_risk_100y":null,"semi_basement_r":null,"elderly_alone_r":0.0606,"bldg_age30_r":null,"shelter_min_walk":6,"pop":27098,"hh":11088,"elderly65_r":0.141,"single_hh_r":0.3251,"source_level":"emd","flood_years":[],"landslide_hist_n":0},"geometry":{"type":"Polygon","coordinates":[[[127.07405,37.30334],[127.07354,37.30769],[127.06934,37.30965],[127.06566,37.30727],[127.06617,37.30293],[127.07036,37.30096],[127.07405,37.30334]]]}},{"type":"Feature","properties":{"h3":"8830e025cdfffff","emd_code":"4146558500","emd_name":"상현3동","area_km2":0.5078,"edge":true,"slope_mean":11.78,"elev_mean":94.2,"flood_hist_n":0,"flood_depth_max_m":null,"flood_risk_100y":null,"semi_basement_r":null,"elderly_alone_r":0.0606,"bldg_age30_r":null,"shelter_min_walk":10,"pop":27098,"hh":11088,"elderly65_r":0.141,"single_hh_r":0.3251,"source_level":"emd","flood_years":[],"landslide_hist_n":0},"geometry":{"type":"Polygon","coordinates":[[[127.06299,37.2962],[127.06248,37.30054],[127.05829,37.30251],[127.05461,37.30012],[127.05512,37.29578],[127.05931,37.29382],[127.06299,37.2962]]]}},{"type":"Feature","properties":{"h3":"8830e025d1fffff","emd_code":"4146558000","emd_name":"상현2동","area_km2":0.5082,"edge":false,"slope_mean":7.22,"elev_mean":101.1,"flood_hist_n":0,"flood_depth_max_m":null,"flood_risk_100y":null,"semi_basement_r":null,"elderly_alone_r":0.0707,"bldg_age30_r":null,"shelter_min_walk":3,"pop":32375,"hh":11406,"elderly65_r":0.1726,"single_hh_r":0.1604,"source_level":"emd","flood_years":[],"landslide_hist_n":0},"geometry":{"type":"Polygon","coordinates":[[[127.08981,37.30418],[127.0893,37.30853],[127.08511,37.31049],[127.08142,37.30811],[127.08193,37.30376],[127.08612,37.3018],[127.08981,37.30418]]]}},{"type":"Feature","properties":{"h3":"8830e025d3fffff","emd_code":"4146558000","emd_name":"상현2동","area_km2":0.5083,"edge":true,"slope_mean":12.69,"elev_mean":115.0,"flood_hist_n":0,"flood_depth_max_m":null,"flood_risk_100y":null,"semi_basement_r":null,"elderly_alone_r":0.0707,"bldg_age30_r":null,"shelter_min_walk":8,"pop":32375,"hh":11406,"elderly65_r":0.1726,"single_hh_r":0.1604,"source_level":"emd","flood_years":[],"landslide_hist_n":0},"geometry":{"type":"Polygon","coordinates":[[[127.09769,37.3046],[127.09718,37.30895],[127.09299,37.31091],[127.0893,37.30853],[127.08981,37.30418],[127.094,37.30222],[127.09769,37.3046]]]}},{"type":"Feature","properties":{"h3":"8830e025d5fffff","emd_code":"4146558000","emd_name":"상현2동","area_km2":0.5081,"edge":false,"slope_mean":9.74,"elev_mean":90.4,"flood_hist_n":0,"flood_depth_max_m":null,"flood_risk_100y":null,"semi_basement_r":null,"elderly_alone_r":0.0707,"bldg_age30_r":null,"shelter_min_walk":6,"pop":32375,"hh":11406,"elderly65_r":0.1726,"single_hh_r":0.1604,"source_level":"emd","flood_years":[],"landslide_hist_n":0},"geometry":{"type":"Polygon","coordinates":[[[127.08663,37.29746],[127.08612,37.3018],[127.08193,37.30376],[127.07824,37.30138],[127.07875,37.29704],[127.08294,37.29507],[127.08663,37.29746]]]}},{"type":"Feature","properties":{"h3":"8830e025d7fffff","emd_code":"4146558000","emd_name":"상현2동","area_km2":0.5082,"edge":false,"slope_mean":10.34,"elev_mean":127.4,"flood_hist_n":0,"flood_depth_max_m":null,"flood_risk_100y":null,"semi_basement_r":null,"elderly_alone_r":0.0707,"bldg_age30_r":null,"shelter_min_walk":7,"pop":32375,"hh":11406,"elderly65_r":0.1726,"single_hh_r":0.1604,"source_level":"emd","flood_years":[],"landslide_hist_n":0},"geometry":{"type":"Polygon","coordinates":[[[127.09451,37.29787],[127.094,37.30222],[127.08981,37.30418],[127.08612,37.3018],[127.08663,37.29746],[127.09082,37.29549],[127.09451,37.29787]]]}},{"type":"Feature","properties":{"h3":"8830e025d9fffff","emd_code":"4146559000","emd_name":"성복동","area_km2":0.5081,"edge":false,"slope_mean":7.1,"elev_mean":96.7,"flood_hist_n":0,"flood_depth_max_m":null,"flood_risk_100y":null,"semi_basement_r":null,"elderly_alone_r":0.0618,"bldg_age30_r":null,"shelter_min_walk":4,"pop":54462,"hh":18808,"elderly65_r":0.1924,"single_hh_r":0.1492,"source_level":"emd","flood_years":[],"landslide_hist_n":0},"geometry":{"type":"Polygon","coordinates":[[[127.08511,37.31049],[127.0846,37.31484],[127.0804,37.3168],[127.07672,37.31442],[127.07722,37.31007],[127.08142,37.30811],[127.08511,37.31049]]]}},{"type":"Feature","properties":{"h3":"8830e025dbfffff","emd_code":"4146558000","emd_name":"상현2동","area_km2":0.5082,"edge":false,"slope_mean":7.03,"elev_mean":88.2,"flood_hist_n":0,"flood_depth_max_m":null,"flood_risk_100y":null,"semi_basement_r":null,"elderly_alone_r":0.0707,"bldg_age30_r":null,"shelter_min_walk":3,"pop":32375,"hh":11406,"elderly65_r":0.1726,"single_hh_r":0.1604,"source_level":"emd","flood_years":[],"landslide_hist_n":0},"geometry":{"type":"Polygon","coordinates":[[[127.09299,37.31091],[127.09248,37.31525],[127.08828,37.31722],[127.0846,37.31484],[127.08511,37.31049],[127.0893,37.30853],[127.09299,37.31091]]]}},{"type":"Feature","properties":{"h3":"8830e025ddfffff","emd_code":"4146557000","emd_name":"상현1동","area_km2":0.5081,"edge":false,"slope_mean":7.64,"elev_mean":95.4,"flood_hist_n":0,"flood_depth_max_m":null,"flood_risk_100y":null,"semi_basement_r":null,"elderly_alone_r":0.0578,"bldg_age30_r":null,"shelter_min_walk":4,"pop":19522,"hh":6517,"elderly65_r":0.1596,"single_hh_r":0.1283,"source_level":"emd","flood_years":[],"landslide_hist_n":0},"geometry":{"type":"Polygon","coordinates":[[[127.08193,37.30376],[127.08142,37.30811],[127.07722,37.31007],[127.07354,37.30769],[127.07405,37.30334],[127.07824,37.30138],[127.08193,37.30376]]]}},{"type":"Feature","properties":{"h3":"8830e02603fffff","emd_code":"4146556000","emd_name":"동천동","area_km2":0.5075,"edge":true,"slope_mean":18.12,"elev_mean":291.8,"flood_hist_n":0,"flood_depth_max_m":null,"flood_risk_100y":null,"semi_basement_r":null,"elderly_alone_r":0.0598,"bldg_age30_r":null,"shelter_min_walk":14,"pop":50771,"hh":19792,"elderly65_r":0.1569,"single_hh_r":0.2528,"source_level":"emd","flood_years":[],"landslide_hist_n":0},"geometry":{"type":"Polygon","coordinates":[[[127.03017,37.37311],[127.02965,37.37746],[127.02546,37.37941],[127.02177,37.37703],[127.02229,37.37268],[127.02648,37.37073],[127.03017,37.37311]]]}},{"type":"Feature","properties":{"h3":"8830e02607fffff","emd_code":"4146556000","emd_name":"동천동","area_km2":0.5075,"edge":true,"slope_mean":20.98,"elev_mean":271.3,"flood_hist_n":0,"flood_depth_max_m":null,"flood_risk_100y":null,"semi_basement_r":null,"elderly_alone_r":0.0598,"bldg_age30_r":null,"shelter_min_walk":12,"pop":50771,"hh":19792,"elderly65_r":0.1569,"single_hh_r":0.2528,"source_level":"emd","flood_years":[],"landslide_hist_n":0},"geometry":{"type":"Polygon","coordinates":[[[127.02699,37.36638],[127.02648,37.37073],[127.02229,37.37268],[127.0186,37.3703],[127.01911,37.36596],[127.02331,37.364],[127.02699,37.36638]]]}},{"type":"Feature","properties":{"h3":"8830e02621fffff","emd_code":"4146556000","emd_name":"동천동","area_km2":0.5073,"edge":true,"slope_mean":24.33,"elev_mean":442.7,"flood_hist_n":0,"flood_depth_max_m":null,"flood_risk_100y":null,"semi_basement_r":null,"elderly_alone_r":0.0598,"bldg_age30_r":null,"shelter_min_walk":27,"pop":50771,"hh":19792,"elderly65_r":0.1569,"single_hh_r":0.2528,"source_level":"emd","flood_years":[],"landslide_hist_n":0},"geometry":{"type":"Polygon","coordinates":[[[127.02065,37.35293],[127.02014,37.35727],[127.01594,37.35923],[127.01226,37.35685],[127.01277,37.3525],[127.01697,37.35055],[127.02065,37.35293]]]}},{"type":"Feature","properties":{"h3":"8830e02623fffff","emd_code":"4146556000","emd_name":"동천동","area_km2":0.5074,"edge":false,"slope_mean":21.03,"elev_mean":362.3,"flood_hist_n":0,"flood_depth_max_m":null,"flood_risk_100y":null,"semi_basement_r":null,"elderly_alone_r":0.0598,"bldg_age30_r":null,"shelter_min_walk":31,"pop":50771,"hh":19792,"elderly65_r":0.1569,"single_hh_r":0.2528,"source_level":"emd","flood_years":[],"landslide_hist_n":0},"geometry":{"type":"Polygon","coordinates":[[[127.02853,37.35336],[127.02802,37.3577],[127.02382,37.35966],[127.02014,37.35727],[127.02065,37.35293],[127.02484,37.35097],[127.02853,37.35336]]]}},{"type":"Feature","properties":{"h3":"8830e02627fffff","emd_code":"4146556000","emd_name":"동천동","area_km2":0.5074,"edge":true,"slope_mean":22.94,"elev_mean":441.6,"flood_hist_n":0,"flood_depth_max_m":null,"flood_risk_100y":null,"semi_basement_r":null,"elderly_alone_r":0.0598,"bldg_age30_r":null,"shelter_min_walk":39,"pop":50771,"hh":19792,"elderly65_r":0.1569,"single_hh_r":0.2528,"source_level":"emd","flood_years":[],"landslide_hist_n":0},"geometry":{"type":"Polygon","coordinates":[[[127.02536,37.34663],[127.02484,37.35097],[127.02065,37.35293],[127.01697,37.35055],[127.01748,37.3462],[127.02167,37.34425],[127.02536,37.34663]]]}},{"type":"Feature","properties":{"h3":"8830e0262bfffff","emd_code":"4146556000","emd_name":"동천동","area_km2":0.5074,"edge":true,"slope_mean":21.11,"elev_mean":334.0,"flood_hist_n":0,"flood_depth_max_m":null,"flood_risk_100y":null,"semi_basement_r":null,"elderly_alone_r":0.0598,"bldg_age30_r":null,"shelter_min_walk":19,"pop":50771,"hh":19792,"elderly65_r":0.1569,"single_hh_r":0.2528,"source_level":"emd","flood_years":[],"landslide_hist_n":0},"geometry":{"type":"Polygon","coordinates":[[[127.02382,37.35966],[127.02331,37.364],[127.01911,37.36596],[127.01543,37.36357],[127.01594,37.35923],[127.02014,37.35727],[127.02382,37.35966]]]}},{"type":"Feature","properties":{"h3":"8830e02631fffff","emd_code":"4146556000","emd_name":"동천동","area_km2":0.5076,"edge":false,"slope_mean":15.21,"elev_mean":214.5,"flood_hist_n":0,"flood_depth_max_m":null,"flood_risk_100y":null,"semi_basement_r":null,"elderly_alone_r":0.0598,"bldg_age30_r":null,"shelter_min_walk":31,"pop":50771,"hh":19792,"elderly65_r":0.1569,"single_hh_r":0.2528,"source_level":"emd","flood_years":[],"landslide_hist_n":0},"geometry":{"type":"Polygon","coordinates":[[[127.03958,37.36051],[127.03907,37.36485],[127.03487,37.36681],[127.03119,37.36443],[127.0317,37.36008],[127.0359,37.35812],[127.03958,37.36051]]]}},{"type":"Feature","properties":{"h3":"8830e02633fffff","emd_code":"4146556000","emd_name":"동천동","area_km2":0.5077,"edge":false,"slope_mean":15.67,"elev_mean":191.5,"flood_hist_n":0,"flood_depth_max_m":null,"flood_risk_100y":null,"semi_basement_r":null,"elderly_alone_r":0.0598,"bldg_age30_r":null,"shelter_min_walk":40,"pop":50771,"hh":19792,"elderly65_r":0.1569,"single_hh_r":0.2528,"source_level":"emd","flood_years":[],"landslide_hist_n":0},"geometry":{"type":"Polygon","coordinates":[[[127.04746,37.36093],[127.04695,37.36528],[127.04276,37.36724],[127.03907,37.36485],[127.03958,37.36051],[127.04378,37.35855],[127.04746,37.36093]]]}},{"type":"Feature","properties":{"h3":"8830e02635fffff","emd_code":"4146556000","emd_name":"동천동","area_km2":0.5076,"edge":false,"slope_mean":18.74,"elev_mean":278.6,"flood_hist_n":0,"flood_depth_max_m":null,"flood_risk_100y":null,"semi_basement_r":null,"elderly_alone_r":0.0598,"bldg_age30_r":null,"shelter_min_walk":36,"pop":50771,"hh":19792,"elderly65_r":0.1569,"single_hh_r":0.2528,"source_level":"emd","flood_years":[],"landslide_hist_n":0},"geometry":{"type":"Polygon","coordinates":[[[127.03641,37.35378],[127.0359,37.35812],[127.0317,37.36008],[127.02802,37.3577],[127.02853,37.35336],[127.03272,37.3514],[127.03641,37.35378]]]}},{"type":"Feature","properties":{"h3":"8830e02637fffff","emd_code":"4146556000","emd_name":"동천동","area_km2":0.5077,"edge":false,"slope_mean":14.14,"elev_mean":202.5,"flood_hist_n":0,"flood_depth_max_m":null,"flood_risk_100y":null,"semi_basement_r":null,"elderly_alone_r":0.0598,"bldg_age30_r":null,"shelter_min_walk":41,"pop":50771,"hh":19792,"elderly65_r":0.1569,"single_hh_r":0.2528,"source_level":"emd","flood_years":[],"landslide_hist_n":0},"geometry":{"type":"Polygon","coordinates":[[[127.04429,37.35421],[127.04378,37.35855],[127.03958,37.36051],[127.0359,37.35812],[127.03641,37.35378],[127.0406,37.35182],[127.04429,37.35421]]]}},{"type":"Feature","properties":{"h3":"8830e02639fffff","emd_code":"4146556000","emd_name":"동천동","area_km2":0.5076,"edge":false,"slope_mean":19.27,"elev_mean":282.4,"flood_hist_n":0,"flood_depth_max_m":null,"flood_risk_100y":null,"semi_basement_r":null,"elderly_alone_r":0.0598,"bldg_age30_r":null,"shelter_min_walk":21,"pop":50771,"hh":19792,"elderly65_r":0.1569,"single_hh_r":0.2528,"source_level":"emd","flood_years":[],"landslide_hist_n":0},"geometry":{"type":"Polygon","coordinates":[[[127.03487,37.36681],[127.03436,37.37115],[127.03017,37.37311],[127.02648,37.37073],[127.02699,37.36638],[127.03119,37.36443],[127.03487,37.36681]]]}},{"type":"Feature","properties":{"h3":"8830e0263bfffff","emd_code":"4146556000","emd_name":"동천동","area_km2":0.5077,"edge":false,"slope_mean":18.35,"elev_mean":226.8,"flood_hist_n":0,"flood_depth_max_m":null,"flood_risk_100y":null,"semi_basement_r":null,"elderly_alone_r":0.0598,"bldg_age30_r":null,"shelter_min_walk":31,"pop":50771,"hh":19792,"elderly65_r":0.1569,"single_hh_r":0.2528,"source_level":"emd","flood_years":[],"landslide_hist_n":0},"geometry":{"type":"Polygon","coordinates":[[[127.04276,37.36724],[127.04225,37.37158],[127.03805,37.37354],[127.03436,37.37115],[127.03487,37.36681],[127.03907,37.36485],[127.04276,37.36724]]]}},{"type":"Feature","properties":{"h3":"8830e0263dfffff","emd_code":"4146556000","emd_name":"동천동","area_km2":0.5075,"edge":false,"slope_mean":18.4,"elev_mean":264.0,"flood_hist_n":0,"flood_depth_max_m":null,"flood_risk_100y":null,"semi_basement_r":null,"elderly_alone_r":0.0598,"bldg_age30_r":null,"shelter_min_walk":24,"pop":50771,"hh":19792,"elderly65_r":0.1569,"single_hh_r":0.2528,"source_level":"emd","flood_years":[],"landslide_hist_n":0},"geometry":{"type":"Polygon","coordinates":[[[127.0317,37.36008],[127.03119,37.36443],[127.02699,37.36638],[127.02331,37.364],[127.02382,37.35966],[127.02802,37.3577],[127.0317,37.36008]]]}},{"type":"Feature","properties":{"h3":"8830e026a1fffff","emd_code":"4146556000","emd_name":"동천동","area_km2":0.5081,"edge":true,"slope_mean":10.8,"elev_mean":123.1,"flood_hist_n":0,"flood_depth_max_m":null,"flood_risk_100y":null,"semi_basement_r":null,"elderly_alone_r":0.0598,"bldg_age30_r":null,"shelter_min_walk":40,"pop":50771,"hh":19792,"elderly65_r":0.1569,"single_hh_r":0.2528,"source_level":"emd","flood_years":[],"landslide_hist_n":0},"geometry":{"type":"Polygon","coordinates":[[[127.07582,37.3559],[127.07531,37.36025],[127.07112,37.36221],[127.06743,37.35982],[127.06794,37.35548],[127.07214,37.35352],[127.07582,37.3559]]]}},{"type":"Feature","properties":{"h3":"8830e026a5fffff","emd_code":"4146556000","emd_name":"동천동","area_km2":0.5081,"edge":false,"slope_mean":14.84,"elev_mean":164.4,"flood_hist_n":0,"flood_depth_max_m":null,"flood_risk_100y":null,"semi_basement_r":null,"elderly_alone_r":0.0598,"bldg_age30_r":null,"shelter_min_walk":31,"pop":50771,"hh":19792,"elderly65_r":0.1569,"single_hh_r":0.2528,"source_level":"emd","flood_years":[],"landslide_hist_n":0},"geometry":{"type":"Polygon","coordinates":[[[127.07264,37.34917],[127.07214,37.35352],[127.06794,37.35548],[127.06425,37.35309],[127.06476,37.34875],[127.06896,37.34679],[127.07264,37.34917]]]}},{"type":"Feature","properties":{"h3":"8830e026a7fffff","emd_code":"4146556000","emd_name":"동천동","area_km2":0.5082,"edge":true,"slope_mean":10.57,"elev_mean":106.3,"flood_hist_n":0,"flood_depth_max_m":null,"flood_risk_100y":null,"semi_basement_r":null,"elderly_alone_r":0.0598,"bldg_age30_r":null,"shelter_min_walk":28,"pop":50771,"hh":19792,"elderly65_r":0.1569,"single_hh_r":0.2528,"source_level":"emd","flood_years":[],"landslide_hist_n":0},"geometry":{"type":"Polygon","coordinates":[[[127.08053,37.3496],[127.08002,37.35394],[127.07582,37.3559],[127.07214,37.35352],[127.07264,37.34917],[127.07684,37.34721],[127.08053,37.3496]]]}},{"type":"Feature","properties":{"h3":"8830e026adfffff","emd_code":"4146556000","emd_name":"동천동","area_km2":0.508,"edge":false,"slope_mean":13.2,"elev_mean":131.3,"flood_hist_n":0,"flood_depth_max_m":null,"flood_risk_100y":null,"semi_basement_r":null,"elderly_alone_r":0.0598,"bldg_age30_r":null,"shelter_min_walk":39,"pop":50771,"hh":19792,"elderly65_r":0.1569,"single_hh_r":0.2528,"source_level":"emd","flood_years":[],"landslide_hist_n":0},"geometry":{"type":"Polygon","coordinates":[[[127.06794,37.35548],[127.06743,37.35982],[127.06323,37.36178],[127.05954,37.3594],[127.06005,37.35505],[127.06425,37.35309],[127.06794,37.35548]]]}},{"type":"Feature","properties":{"h3":"8830e026e5fffff","emd_code":"4146556000","emd_name":"동천동","area_km2":0.5078,"edge":false,"slope_mean":15.42,"elev_mean":150.0,"flood_hist_n":0,"flood_depth_max_m":null,"flood_risk_100y":null,"semi_basement_r":null,"elderly_alone_r":0.0598,"bldg_age30_r":null,"shelter_min_walk":48,"pop":50771,"hh":19792,"elderly65_r":0.1569,"single_hh_r":0.2528,"source_level":"emd","flood_years":[],"landslide_hist_n":0},"geometry":{"type":"Polygon","coordinates":[[[127.05535,37.36136],[127.05484,37.3657],[127.05064,37.36766],[127.04695,37.36528],[127.04746,37.36093],[127.05166,37.35897],[127.05535,37.36136]]]}},{"type":"Feature","properties":{"h3":"8830e026e7fffff","emd_code":"4146556000","emd_name":"동천동","area_km2":0.508,"edge":true,"slope_mean":13.75,"elev_mean":145.2,"flood_hist_n":0,"flood_depth_max_m":null,"flood_risk_100y":null,"semi_basement_r":null,"elderly_alone_r":0.0598,"bldg_age30_r":null,"shelter_min_walk":46,"pop":50771,"hh":19792,"elderly65_r":0.1569,"single_hh_r":0.2528,"source_level":"emd","flood_years":[],"landslide_hist_n":0},"geometry":{"type":"Polygon","coordinates":[[[127.06323,37.36178],[127.06272,37.36613],[127.05852,37.36809],[127.05484,37.3657],[127.05535,37.36136],[127.05954,37.3594],[127.06323,37.36178]]]}},{"type":"Feature","properties":{"h3":"8830e026edfffff","emd_code":"4146556000","emd_name":"동천동","area_km2":0.5078,"edge":true,"slope_mean":14.57,"elev_mean":166.9,"flood_hist_n":0,"flood_depth_max_m":null,"flood_risk_100y":null,"semi_basement_r":null,"elderly_alone_r":0.0598,"bldg_age30_r":null,"shelter_min_walk":41,"pop":50771,"hh":19792,"elderly65_r":0.1569,"single_hh_r":0.2528,"source_level":"emd","flood_years":[],"landslide_hist_n":0},"geometry":{"type":"Polygon","coordinates":[[[127.05064,37.36766],[127.05013,37.37201],[127.04593,37.37397],[127.04225,37.37158],[127.04276,37.36724],[127.04695,37.36528],[127.05064,37.36766]]]}},{"type":"Feature","properties":{"h3":"8830e15145fffff","emd_code":"4146554000","emd_name":"죽전1동","area_km2":0.509,"edge":true,"slope_mean":15.88,"elev_mean":265.7,"flood_hist_n":0,"flood_depth_max_m":null,"flood_risk_100y":null,"semi_basement_r":null,"elderly_alone_r":0.0741,"bldg_age30_r":null,"shelter_min_walk":24,"pop":28876,"hh":11138,"elderly65_r":0.1854,"single_hh_r":0.2398,"source_level":"emd","flood_years":[],"landslide_hist_n":0},"geometry":{"type":"Polygon","coordinates":[[[127.14518,37.33991],[127.14467,37.34426],[127.14047,37.34623],[127.13678,37.34384],[127.13728,37.3395],[127.14148,37.33753],[127.14518,37.33991]]]}},{"type":"Feature","properties":{"h3":"8830e15161fffff","emd_code":"4146555500","emd_name":"죽전3동","area_km2":0.509,"edge":true,"slope_mean":17.52,"elev_mean":228.0,"flood_hist_n":0,"flood_depth_max_m":null,"flood_risk_100y":null,"semi_basement_r":null,"elderly_alone_r":0.0737,"bldg_age30_r":null,"shelter_min_walk":19,"pop":26379,"hh":11135,"elderly65_r":0.1623,"single_hh_r":0.3427,"source_level":"emd","flood_years":[],"landslide_hist_n":0},"geometry":{"type":"Polygon","coordinates":[[[127.14669,37.32687],[127.14619,37.33122],[127.14199,37.33318],[127.13829,37.3308],[127.1388,37.32645],[127.143,37.32449],[127.14669,37.32687]]]}},{"type":"Feature","properties":{"h3":"8830e15165fffff","emd_code":"4146555500","emd_name":"죽전3동","area_km2":0.509,"edge":true,"slope_mean":16.3,"elev_mean":278.5,"flood_hist_n":0,"flood_depth_max_m":null,"flood_risk_100y":null,"semi_basement_r":null,"elderly_alone_r":0.0737,"bldg_age30_r":null,"shelter_min_walk":21,"pop":26379,"hh":11135,"elderly65_r":0.1623,"single_hh_r":0.3427,"source_level":"emd","flood_years":[],"landslide_hist_n":0},"geometry":{"type":"Polygon","coordinates":[[[127.1435,37.32014],[127.143,37.32449],[127.1388,37.32645],[127.1351,37.32407],[127.13561,37.31972],[127.13981,37.31776],[127.1435,37.32014]]]}},{"type":"Feature","properties":{"h3":"8830e15169fffff","emd_code":"4146554000","emd_name":"죽전1동","area_km2":0.509,"edge":false,"slope_mean":18.28,"elev_mean":223.5,"flood_hist_n":0,"flood_depth_max_m":null,"flood_risk_100y":null,"semi_basement_r":null,"elderly_alone_r":0.0741,"bldg_age30_r":null,"shelter_min_walk":14,"pop":28876,"hh":11138,"elderly65_r":0.1854,"single_hh_r":0.2398,"source_level":"emd","flood_years":[],"landslide_hist_n":0},"geometry":{"type":"Polygon","coordinates":[[[127.14199,37.33318],[127.14148,37.33753],[127.13728,37.3395],[127.13359,37.33711],[127.13409,37.33277],[127.13829,37.3308],[127.14199,37.33318]]]}},{"type":"Feature","properties":{"h3":"8830e1516bfffff","emd_code":"4146554000","emd_name":"죽전1동","area_km2":0.5091,"edge":true,"slope_mean":17.13,"elev_mean":251.0,"flood_hist_n":0,"flood_depth_max_m":null,"flood_risk_100y":null,"semi_basement_r":null,"elderly_alone_r":0.0741,"bldg_age30_r":null,"shelter_min_walk":24,"pop":28876,"hh":11138,"elderly65_r":0.1854,"single_hh_r":0.2398,"source_level":"emd","flood_years":[],"landslide_hist_n":0},"geometry":{"type":"Polygon","coordinates":[[[127.14988,37.3336],[127.14938,37.33795],[127.14518,37.33991],[127.14148,37.33753],[127.14199,37.33318],[127.14619,37.33122],[127.14988,37.3336]]]}},{"type":"Feature","properties":{"h3":"8830e1516dfffff","emd_code":"4146554000","emd_name":"죽전1동","area_km2":0.5089,"edge":false,"slope_mean":15.13,"elev_mean":170.4,"flood_hist_n":0,"flood_depth_max_m":null,"flood_risk_100y":null,"semi_basement_r":null,"elderly_alone_r":0.0741,"bldg_age30_r":null,"shelter_min_walk":10,"pop":28876,"hh":11138,"elderly65_r":0.1854,"single_hh_r":0.2398,"source_level":"emd","flood_years":[],"landslide_hist_n":0},"geometry":{"type":"Polygon","coordinates":[[[127.1388,37.32645],[127.13829,37.3308],[127.13409,37.33277],[127.1304,37.33038],[127.13091,37.32604],[127.1351,37.32407],[127.1388,37.32645]]]}}]}