{"type":"FeatureCollection","name":"grid_41597_h3r8","meta":{"sgg_code":"41597","h3_res":8,"n_cells":140,"dem":"Copernicus GLO-30 (bbox-mean)","crs":"EPSG:4326","jumin_basis":"2026-07","flood_src":"행안부 침수흔적도(전국, 재난안전데이터공유플랫폼)","landslide_src":"행안부 산사태 발생이력"},"features":[{"type":"Feature","properties":{"h3":"8830e02c11fffff","emd_code":"4159753000","emd_name":"동탄3동","area_km2":0.5075,"edge":false,"slope_mean":5.33,"elev_mean":45.7,"flood_hist_n":0,"flood_depth_max_m":null,"flood_risk_100y":null,"semi_basement_r":null,"elderly_alone_r":0.0391,"bldg_age30_r":null,"shelter_min_walk":3,"pop":39910,"hh":17477,"elderly65_r":0.0861,"single_hh_r":0.3865,"source_level":"emd","flood_years":[],"landslide_hist_n":0},"geometry":{"type":"Polygon","coordinates":[[[127.06263,37.19785],[127.06213,37.2022],[127.05794,37.20416],[127.05426,37.20178],[127.05477,37.19744],[127.05896,37.19548],[127.06263,37.19785]]]}},{"type":"Feature","properties":{"h3":"8830e02c13fffff","emd_code":"4159751000","emd_name":"동탄1동","area_km2":0.5076,"edge":false,"slope_mean":6.59,"elev_mean":56.0,"flood_hist_n":0,"flood_depth_max_m":null,"flood_risk_100y":null,"semi_basement_r":null,"elderly_alone_r":0.0237,"bldg_age30_r":null,"shelter_min_walk":1,"pop":49986,"hh":20885,"elderly65_r":0.0695,"single_hh_r":0.3646,"source_level":"emd","flood_years":[],"landslide_hist_n":0},"geometry":{"type":"Polygon","coordinates":[[[127.0705,37.19827],[127.06999,37.20261],[127.0658,37.20457],[127.06213,37.2022],[127.06263,37.19785],[127.06682,37.19589],[127.0705,37.19827]]]}},{"type":"Feature","properties":{"h3":"8830e02c15fffff","emd_code":"4159753000","emd_name":"동탄3동","area_km2":0.5074,"edge":true,"slope_mean":4.57,"elev_mean":37.8,"flood_hist_n":0,"flood_depth_max_m":null,"flood_risk_100y":null,"semi_basement_r":null,"elderly_alone_r":0.0391,"bldg_age30_r":null,"shelter_min_walk":13,"pop":39910,"hh":17477,"elderly65_r":0.0861,"single_hh_r":0.3865,"source_level":"emd","flood_years":[],"landslide_hist_n":0},"geometry":{"type":"Polygon","coordinates":[[[127.05946,37.19113],[127.05896,37.19548],[127.05477,37.19744],[127.05109,37.19507],[127.0516,37.19072],[127.05579,37.18876],[127.05946,37.19113]]]}},{"type":"Feature","properties":{"h3":"8830e02c17fffff","emd_code":"4159752000","emd_name":"동탄2동","area_km2":0.5075,"edge":true,"slope_mean":5.24,"elev_mean":49.2,"flood_hist_n":0,"flood_depth_max_m":null,"flood_risk_100y":null,"semi_basement_r":null,"elderly_alone_r":0.0499,"bldg_age30_r":null,"shelter_min_walk":7,"pop":33696,"hh":11804,"elderly65_r":0.097,"single_hh_r":0.1898,"source_level":"emd","flood_years":[],"landslide_hist_n":0},"geometry":{"type":"Polygon","coordinates":[[[127.06733,37.19155],[127.06682,37.19589],[127.06263,37.19785],[127.05896,37.19548],[127.05946,37.19113],[127.06365,37.18917],[127.06733,37.19155]]]}},{"type":"Feature","properties":{"h3":"8830e02c19fffff","emd_code":"4159753000","emd_name":"동탄3동","area_km2":0.5074,"edge":false,"slope_mean":8.08,"elev_mean":55.1,"flood_hist_n":0,"flood_depth_max_m":null,"flood_risk_100y":null,"semi_basement_r":null,"elderly_alone_r":0.0391,"bldg_age30_r":null,"shelter_min_walk":3,"pop":39910,"hh":17477,"elderly65_r":0.0861,"single_hh_r":0.3865,"source_level":"emd","flood_years":[],"landslide_hist_n":0},"geometry":{"type":"Polygon","coordinates":[[[127.05794,37.20416],[127.05743,37.2085],[127.05324,37.21047],[127.04956,37.20809],[127.05007,37.20375],[127.05426,37.20178],[127.05794,37.20416]]]}},{"type":"Feature","properties":{"h3":"8830e02c1bfffff","emd_code":"4159751000","emd_name":"동탄1동","area_km2":0.5076,"edge":false,"slope_mean":6.11,"elev_mean":57.4,"flood_hist_n":0,"flood_depth_max_m":null,"flood_risk_100y":null,"semi_basement_r":null,"elderly_alone_r":0.0237,"bldg_age30_r":null,"shelter_min_walk":4,"pop":49986,"hh":20885,"elderly65_r":0.0695,"single_hh_r":0.3646,"source_level":"emd","flood_years":[],"landslide_hist_n":0},"geometry":{"type":"Polygon","coordinates":[[[127.0658,37.20457],[127.0653,37.20892],[127.06111,37.21088],[127.05743,37.2085],[127.05794,37.20416],[127.06213,37.2022],[127.0658,37.20457]]]}},{"type":"Feature","properties":{"h3":"8830e02c1dfffff","emd_code":"4159753000","emd_name":"동탄3동","area_km2":0.5074,"edge":true,"slope_mean":4.45,"elev_mean":36.7,"flood_hist_n":0,"flood_depth_max_m":null,"flood_risk_100y":null,"semi_basement_r":null,"elderly_alone_r":0.0391,"bldg_age30_r":null,"shelter_min_walk":1,"pop":39910,"hh":17477,"elderly65_r":0.0861,"single_hh_r":0.3865,"source_level":"emd","flood_years":[],"landslide_hist_n":0},"geometry":{"type":"Polygon","coordinates":[[[127.05477,37.19744],[127.05426,37.20178],[127.05007,37.20375],[127.0464,37.20137],[127.0469,37.19703],[127.05109,37.19507],[127.05477,37.19744]]]}},{"type":"Feature","properties":{"h3":"8830e02c53fffff","emd_code":"4159753000","emd_name":"동탄3동","area_km2":0.5074,"edge":true,"slope_mean":5.67,"elev_mean":42.8,"flood_hist_n":0,"flood_depth_max_m":null,"flood_risk_100y":null,"semi_basement_r":null,"elderly_alone_r":0.0391,"bldg_age30_r":null,"shelter_min_walk":3,"pop":39910,"hh":17477,"elderly65_r":0.0861,"single_hh_r":0.3865,"source_level":"emd","flood_years":[],"landslide_hist_n":0},"geometry":{"type":"Polygon","coordinates":[[[127.05324,37.21047],[127.05273,37.21481],[127.04854,37.21678],[127.04487,37.2144],[127.04538,37.21006],[127.04956,37.20809],[127.05324,37.21047]]]}},{"type":"Feature","properties":{"h3":"8830e02c57fffff","emd_code":"4159753000","emd_name":"동탄3동","area_km2":0.5073,"edge":true,"slope_mean":9.27,"elev_mean":51.0,"flood_hist_n":0,"flood_depth_max_m":null,"flood_risk_100y":null,"semi_basement_r":null,"elderly_alone_r":0.0391,"bldg_age30_r":null,"shelter_min_walk":5,"pop":39910,"hh":17477,"elderly65_r":0.0861,"single_hh_r":0.3865,"source_level":"emd","flood_years":[],"landslide_hist_n":0},"geometry":{"type":"Polygon","coordinates":[[[127.05007,37.20375],[127.04956,37.20809],[127.04538,37.21006],[127.0417,37.20768],[127.04221,37.20334],[127.0464,37.20137],[127.05007,37.20375]]]}},{"type":"Feature","properties":{"h3":"8830e02c81fffff","emd_code":"4159756000","emd_name":"동탄6동","area_km2":0.508,"edge":false,"slope_mean":4.13,"elev_mean":40.1,"flood_hist_n":0,"flood_depth_max_m":null,"flood_risk_100y":null,"semi_basement_r":null,"elderly_alone_r":0.0215,"bldg_age30_r":null,"shelter_min_walk":7,"pop":47057,"hh":20287,"elderly65_r":0.0602,"single_hh_r":0.3932,"source_level":"emd","flood_years":[],"landslide_hist_n":0},"geometry":{"type":"Polygon","coordinates":[[[127.0988,37.19319],[127.09829,37.19753],[127.09411,37.1995],[127.09042,37.19712],[127.09093,37.19278],[127.09512,37.19081],[127.0988,37.19319]]]}},{"type":"Feature","properties":{"h3":"8830e02c83fffff","emd_code":"4159754000","emd_name":"동탄4동","area_km2":0.5081,"edge":false,"slope_mean":5.37,"elev_mean":48.4,"flood_hist_n":0,"flood_depth_max_m":null,"flood_risk_100y":null,"semi_basement_r":null,"elderly_alone_r":0.0147,"bldg_age30_r":null,"shelter_min_walk":11,"pop":52625,"hh":16850,"elderly65_r":0.0489,"single_hh_r":0.0991,"source_level":"emd","flood_years":[],"landslide_hist_n":0},"geometry":{"type":"Polygon","coordinates":[[[127.10667,37.1936],[127.10617,37.19794],[127.10198,37.19991],[127.09829,37.19753],[127.0988,37.19319],[127.10299,37.19122],[127.10667,37.1936]]]}},{"type":"Feature","properties":{"h3":"8830e02c85fffff","emd_code":"4159756000","emd_name":"동탄6동","area_km2":0.5079,"edge":false,"slope_mean":2.31,"elev_mean":29.0,"flood_hist_n":0,"flood_depth_max_m":null,"flood_risk_100y":null,"semi_basement_r":null,"elderly_alone_r":0.0215,"bldg_age30_r":null,"shelter_min_walk":2,"pop":47057,"hh":20287,"elderly65_r":0.0602,"single_hh_r":0.3932,"source_level":"emd","flood_years":[],"landslide_hist_n":0},"geometry":{"type":"Polygon","coordinates":[[[127.09563,37.18647],[127.09512,37.19081],[127.09093,37.19278],[127.08725,37.1904],[127.08776,37.18606],[127.09194,37.18409],[127.09563,37.18647]]]}},{"type":"Feature","properties":{"h3":"8830e02c87fffff","emd_code":"4159756000","emd_name":"동탄6동","area_km2":0.508,"edge":false,"slope_mean":3.93,"elev_mean":38.2,"flood_hist_n":0,"flood_depth_max_m":null,"flood_risk_100y":null,"semi_basement_r":null,"elderly_alone_r":0.0215,"bldg_age30_r":null,"shelter_min_walk":12,"pop":47057,"hh":20287,"elderly65_r":0.0602,"single_hh_r":0.3932,"source_level":"emd","flood_years":[],"landslide_hist_n":0},"geometry":{"type":"Polygon","coordinates":[[[127.1035,37.18688],[127.10299,37.19122],[127.0988,37.19319],[127.09512,37.19081],[127.09563,37.18647],[127.09981,37.1845],[127.1035,37.18688]]]}},{"type":"Feature","properties":{"h3":"8830e02c89fffff","emd_code":"4159756000","emd_name":"동탄6동","area_km2":0.5079,"edge":false,"slope_mean":3.68,"elev_mean":38.2,"flood_hist_n":0,"flood_depth_max_m":null,"flood_risk_100y":null,"semi_basement_r":null,"elderly_alone_r":0.0215,"bldg_age30_r":null,"shelter_min_walk":1,"pop":47057,"hh":20287,"elderly65_r":0.0602,"single_hh_r":0.3932,"source_level":"emd","flood_years":[],"landslide_hist_n":0},"geometry":{"type":"Polygon","coordinates":[[[127.09411,37.1995],[127.0936,37.20384],[127.08941,37.20581],[127.08573,37.20343],[127.08624,37.19909],[127.09042,37.19712],[127.09411,37.1995]]]}},{"type":"Feature","properties":{"h3":"8830e02c8bfffff","emd_code":"4159756000","emd_name":"동탄6동","area_km2":0.508,"edge":false,"slope_mean":4.55,"elev_mean":48.4,"flood_hist_n":0,"flood_depth_max_m":null,"flood_risk_100y":null,"semi_basement_r":null,"elderly_alone_r":0.0215,"bldg_age30_r":null,"shelter_min_walk":8,"pop":47057,"hh":20287,"elderly65_r":0.0602,"single_hh_r":0.3932,"source_level":"emd","flood_years":[],"landslide_hist_n":0},"geometry":{"type":"Polygon","coordinates":[[[127.10198,37.19991],[127.10147,37.20425],[127.09728,37.20622],[127.0936,37.20384],[127.09411,37.1995],[127.09829,37.19753],[127.10198,37.19991]]]}},{"type":"Feature","properties":{"h3":"8830e02c8dfffff","emd_code":"4159756000","emd_name":"동탄6동","area_km2":0.5079,"edge":false,"slope_mean":3.01,"elev_mean":30.1,"flood_hist_n":0,"flood_depth_max_m":null,"flood_risk_100y":null,"semi_basement_r":null,"elderly_alone_r":0.0215,"bldg_age30_r":null,"shelter_min_walk":4,"pop":47057,"hh":20287,"elderly65_r":0.0602,"single_hh_r":0.3932,"source_level":"emd","flood_years":[],"landslide_hist_n":0},"geometry":{"type":"Polygon","coordinates":[[[127.09093,37.19278],[127.09042,37.19712],[127.08624,37.19909],[127.08256,37.19671],[127.08306,37.19237],[127.08725,37.1904],[127.09093,37.19278]]]}},{"type":"Feature","properties":{"h3":"8830e02c91fffff","emd_code":"4159754000","emd_name":"동탄4동","area_km2":0.5083,"edge":false,"slope_mean":4.38,"elev_mean":65.9,"flood_hist_n":0,"flood_depth_max_m":null,"flood_risk_100y":null,"semi_basement_r":null,"elderly_alone_r":0.0147,"bldg_age30_r":null,"shelter_min_walk":3,"pop":52625,"hh":16850,"elderly65_r":0.0489,"single_hh_r":0.0991,"source_level":"emd","flood_years":[],"landslide_hist_n":0},"geometry":{"type":"Polygon","coordinates":[[[127.11772,37.20073],[127.11722,37.20507],[127.11303,37.20704],[127.10934,37.20466],[127.10985,37.20032],[127.11404,37.19835],[127.11772,37.20073]]]}},{"type":"Feature","properties":{"h3":"8830e02c93fffff","emd_code":"4159755000","emd_name":"동탄5동","area_km2":0.5084,"edge":false,"slope_mean":10.07,"elev_mean":92.4,"flood_hist_n":0,"flood_depth_max_m":null,"flood_risk_100y":null,"semi_basement_r":null,"elderly_alone_r":0.0646,"bldg_age30_r":null,"shelter_min_walk":5,"pop":47904,"hh":21583,"elderly65_r":0.0891,"single_hh_r":0.4032,"source_level":"emd","flood_years":[],"landslide_hist_n":0},"geometry":{"type":"Polygon","coordinates":[[[127.1256,37.20114],[127.12509,37.20548],[127.1209,37.20745],[127.11722,37.20507],[127.11772,37.20073],[127.12191,37.19876],[127.1256,37.20114]]]}},{"type":"Feature","properties":{"h3":"8830e02c95fffff","emd_code":"4159754000","emd_name":"동탄4동","area_km2":0.5082,"edge":false,"slope_mean":7.63,"elev_mean":66.1,"flood_hist_n":0,"flood_depth_max_m":null,"flood_risk_100y":null,"semi_basement_r":null,"elderly_alone_r":0.0147,"bldg_age30_r":null,"shelter_min_walk":5,"pop":52625,"hh":16850,"elderly65_r":0.0489,"single_hh_r":0.0991,"source_level":"emd","flood_years":[],"landslide_hist_n":0},"geometry":{"type":"Polygon","coordinates":[[[127.11454,37.19401],[127.11404,37.19835],[127.10985,37.20032],[127.10617,37.19794],[127.10667,37.1936],[127.11086,37.19163],[127.11454,37.19401]]]}},{"type":"Feature","properties":{"h3":"8830e02c97fffff","emd_code":"4159754000","emd_name":"동탄4동","area_km2":0.5083,"edge":false,"slope_mean":9.65,"elev_mean":93.0,"flood_hist_n":0,"flood_depth_max_m":null,"flood_risk_100y":null,"semi_basement_r":null,"elderly_alone_r":0.0147,"bldg_age30_r":null,"shelter_min_walk":3,"pop":52625,"hh":16850,"elderly65_r":0.0489,"single_hh_r":0.0991,"source_level":"emd","flood_years":[],"landslide_hist_n":0},"geometry":{"type":"Polygon","coordinates":[[[127.12242,37.19441],[127.12191,37.19876],[127.11772,37.20073],[127.11404,37.19835],[127.11454,37.19401],[127.11873,37.19204],[127.12242,37.19441]]]}},{"type":"Feature","properties":{"h3":"8830e02c99fffff","emd_code":"4159755000","emd_name":"동탄5동","area_km2":0.5082,"edge":false,"slope_mean":6.95,"elev_mean":68.1,"flood_hist_n":0,"flood_depth_max_m":null,"flood_risk_100y":null,"semi_basement_r":null,"elderly_alone_r":0.0646,"bldg_age30_r":null,"shelter_min_walk":2,"pop":47904,"hh":21583,"elderly65_r":0.0891,"single_hh_r":0.4032,"source_level":"emd","flood_years":[],"landslide_hist_n":0},"geometry":{"type":"Polygon","coordinates":[[[127.11303,37.20704],[127.11252,37.21139],[127.10833,37.21335],[127.10465,37.21098],[127.10515,37.20663],[127.10934,37.20466],[127.11303,37.20704]]]}},{"type":"Feature","properties":{"h3":"8830e02c9bfffff","emd_code":"4159755000","emd_name":"동탄5동","area_km2":0.5083,"edge":false,"slope_mean":12.86,"elev_mean":102.4,"flood_hist_n":0,"flood_depth_max_m":null,"flood_risk_100y":null,"semi_basement_r":null,"elderly_alone_r":0.0646,"bldg_age30_r":null,"shelter_min_walk":10,"pop":47904,"hh":21583,"elderly65_r":0.0891,"single_hh_r":0.4032,"source_level":"emd","flood_years":[],"landslide_hist_n":0},"geometry":{"type":"Polygon","coordinates":[[[127.1209,37.20745],[127.1204,37.21179],[127.11621,37.21376],[127.11252,37.21139],[127.11303,37.20704],[127.11722,37.20507],[127.1209,37.20745]]]}},{"type":"Feature","properties":{"h3":"8830e02c9dfffff","emd_code":"4159754000","emd_name":"동탄4동","area_km2":0.5082,"edge":false,"slope_mean":3.99,"elev_mean":53.9,"flood_hist_n":0,"flood_depth_max_m":null,"flood_risk_100y":null,"semi_basement_r":null,"elderly_alone_r":0.0147,"bldg_age30_r":null,"shelter_min_walk":2,"pop":52625,"hh":16850,"elderly65_r":0.0489,"single_hh_r":0.0991,"source_level":"emd","flood_years":[],"landslide_hist_n":0},"geometry":{"type":"Polygon","coordinates":[[[127.10985,37.20032],[127.10934,37.20466],[127.10515,37.20663],[127.10147,37.20425],[127.10198,37.19991],[127.10617,37.19794],[127.10985,37.20032]]]}},{"type":"Feature","properties":{"h3":"8830e02ca1fffff","emd_code":"4159756000","emd_name":"동탄6동","area_km2":0.5079,"edge":false,"slope_mean":4.36,"elev_mean":30.3,"flood_hist_n":0,"flood_depth_max_m":null,"flood_risk_100y":null,"semi_basement_r":null,"elderly_alone_r":0.0215,"bldg_age30_r":null,"shelter_min_walk":19,"pop":47057,"hh":20287,"elderly65_r":0.0602,"single_hh_r":0.3932,"source_level":"emd","flood_years":[],"landslide_hist_n":0},"geometry":{"type":"Polygon","coordinates":[[[127.09715,37.17343],[127.09664,37.17778],[127.09245,37.17975],[127.08877,37.17737],[127.08928,37.17303],[127.09346,37.17106],[127.09715,37.17343]]]}},{"type":"Feature","properties":{"h3":"8830e02ca3fffff","emd_code":"4159757000","emd_name":"동탄7동","area_km2":0.508,"edge":false,"slope_mean":6.72,"elev_mean":47.6,"flood_hist_n":0,"flood_depth_max_m":null,"flood_risk_100y":null,"semi_basement_r":null,"elderly_alone_r":0.0361,"bldg_age30_r":null,"shelter_min_walk":11,"pop":57461,"hh":22664,"elderly65_r":0.0749,"single_hh_r":0.2893,"source_level":"emd","flood_years":[],"landslide_hist_n":0},"geometry":{"type":"Polygon","coordinates":[[[127.10501,37.17384],[127.10451,37.17819],[127.10032,37.18015],[127.09664,37.17778],[127.09715,37.17343],[127.10133,37.17147],[127.10501,37.17384]]]}},{"type":"Feature","properties":{"h3":"8830e02ca5fffff","emd_code":"4159756000","emd_name":"동탄6동","area_km2":0.5078,"edge":false,"slope_mean":4.13,"elev_mean":28.4,"flood_hist_n":0,"flood_depth_max_m":null,"flood_risk_100y":null,"semi_basement_r":null,"elderly_alone_r":0.0215,"bldg_age30_r":null,"shelter_min_walk":18,"pop":47057,"hh":20287,"elderly65_r":0.0602,"single_hh_r":0.3932,"source_level":"emd","flood_years":[],"landslide_hist_n":0},"geometry":{"type":"Polygon","coordinates":[[[127.09397,37.16672],[127.09346,37.17106],[127.08928,37.17303],[127.0856,37.17065],[127.08611,37.16631],[127.09029,37.16434],[127.09397,37.16672]]]}},{"type":"Feature","properties":{"h3":"8830e02ca7fffff","emd_code":"4159757000","emd_name":"동탄7동","area_km2":0.5079,"edge":false,"slope_mean":7.11,"elev_mean":42.1,"flood_hist_n":0,"flood_depth_max_m":null,"flood_risk_100y":null,"semi_basement_r":null,"elderly_alone_r":0.0361,"bldg_age30_r":null,"shelter_min_walk":12,"pop":57461,"hh":22664,"elderly65_r":0.0749,"single_hh_r":0.2893,"source_level":"emd","flood_years":[],"landslide_hist_n":0},"geometry":{"type":"Polygon","coordinates":[[[127.10184,37.16712],[127.10133,37.17147],[127.09715,37.17343],[127.09346,37.17106],[127.09397,37.16672],[127.09816,37.16475],[127.10184,37.16712]]]}},{"type":"Feature","properties":{"h3":"8830e02ca9fffff","emd_code":"4159756000","emd_name":"동탄6동","area_km2":0.5079,"edge":false,"slope_mean":2.27,"elev_mean":26.0,"flood_hist_n":0,"flood_depth_max_m":null,"flood_risk_100y":null,"semi_basement_r":null,"elderly_alone_r":0.0215,"bldg_age30_r":null,"shelter_min_walk":14,"pop":47057,"hh":20287,"elderly65_r":0.0602,"single_hh_r":0.3932,"source_level":"emd","flood_years":[],"landslide_hist_n":0},"geometry":{"type":"Polygon","coordinates":[[[127.09245,37.17975],[127.09194,37.18409],[127.08776,37.18606],[127.08408,37.18368],[127.08458,37.17934],[127.08877,37.17737],[127.09245,37.17975]]]}},{"type":"Feature","properties":{"h3":"8830e02cabfffff","emd_code":"4159756000","emd_name":"동탄6동","area_km2":0.508,"edge":false,"slope_mean":2.56,"elev_mean":30.3,"flood_hist_n":0,"flood_depth_max_m":null,"flood_risk_100y":null,"semi_basement_r":null,"elderly_alone_r":0.0215,"bldg_age30_r":null,"shelter_min_walk":14,"pop":47057,"hh":20287,"elderly65_r":0.0602,"single_hh_r":0.3932,"source_level":"emd","flood_years":[],"landslide_hist_n":0},"geometry":{"type":"Polygon","coordinates":[[[127.10032,37.18015],[127.09981,37.1845],[127.09563,37.18647],[127.09194,37.18409],[127.09245,37.17975],[127.09664,37.17778],[127.10032,37.18015]]]}},{"type":"Feature","properties":{"h3":"8830e02cadfffff","emd_code":"4159756000","emd_name":"동탄6동","area_km2":0.5078,"edge":false,"slope_mean":3.04,"elev_mean":24.3,"flood_hist_n":0,"flood_depth_max_m":null,"flood_risk_100y":null,"semi_basement_r":null,"elderly_alone_r":0.0215,"bldg_age30_r":null,"shelter_min_walk":24,"pop":47057,"hh":20287,"elderly65_r":0.0602,"single_hh_r":0.3932,"source_level":"emd","flood_years":[],"landslide_hist_n":0},"geometry":{"type":"Polygon","coordinates":[[[127.08928,37.17303],[127.08877,37.17737],[127.08458,37.17934],[127.0809,37.17696],[127.08141,37.17262],[127.0856,37.17065],[127.08928,37.17303]]]}},{"type":"Feature","properties":{"h3":"8830e02cb1fffff","emd_code":"4159756000","emd_name":"동탄6동","area_km2":0.5082,"edge":false,"slope_mean":8.3,"elev_mean":54.5,"flood_hist_n":0,"flood_depth_max_m":null,"flood_risk_100y":null,"semi_basement_r":null,"elderly_alone_r":0.0215,"bldg_age30_r":null,"shelter_min_walk":11,"pop":47057,"hh":20287,"elderly65_r":0.0602,"single_hh_r":0.3932,"source_level":"emd","flood_years":[],"landslide_hist_n":0},"geometry":{"type":"Polygon","coordinates":[[[127.11606,37.18097],[127.11556,37.18532],[127.11137,37.18728],[127.10768,37.18491],[127.10819,37.18056],[127.11238,37.17859],[127.11606,37.18097]]]}},{"type":"Feature","properties":{"h3":"8830e02cb3fffff","emd_code":"4159759000","emd_name":"동탄9동","area_km2":0.5083,"edge":false,"slope_mean":10.2,"elev_mean":62.6,"flood_hist_n":0,"flood_depth_max_m":null,"flood_risk_100y":null,"semi_basement_r":null,"elderly_alone_r":0.0275,"bldg_age30_r":null,"shelter_min_walk":6,"pop":60299,"hh":23110,"elderly65_r":0.0636,"single_hh_r":0.2531,"source_level":"emd","flood_years":[],"landslide_hist_n":0},"geometry":{"type":"Polygon","coordinates":[[[127.12393,37.18138],[127.12343,37.18572],[127.11924,37.18769],[127.11556,37.18532],[127.11606,37.18097],[127.12025,37.179],[127.12393,37.18138]]]}},{"type":"Feature","properties":{"h3":"8830e02cb5fffff","emd_code":"4159757000","emd_name":"동탄7동","area_km2":0.5081,"edge":false,"slope_mean":12.23,"elev_mean":75.3,"flood_hist_n":0,"flood_depth_max_m":null,"flood_risk_100y":null,"semi_basement_r":null,"elderly_alone_r":0.0361,"bldg_age30_r":null,"shelter_min_walk":10,"pop":57461,"hh":22664,"elderly65_r":0.0749,"single_hh_r":0.2893,"source_level":"emd","flood_years":[],"landslide_hist_n":0},"geometry":{"type":"Polygon","coordinates":[[[127.11288,37.17425],[127.11238,37.17859],[127.10819,37.18056],[127.10451,37.17819],[127.10501,37.17384],[127.1092,37.17187],[127.11288,37.17425]]]}},{"type":"Feature","properties":{"h3":"8830e02cb7fffff","emd_code":"4159757000","emd_name":"동탄7동","area_km2":0.5082,"edge":false,"slope_mean":10.31,"elev_mean":70.3,"flood_hist_n":0,"flood_depth_max_m":null,"flood_risk_100y":null,"semi_basement_r":null,"elderly_alone_r":0.0361,"bldg_age30_r":null,"shelter_min_walk":6,"pop":57461,"hh":22664,"elderly65_r":0.0749,"single_hh_r":0.2893,"source_level":"emd","flood_years":[],"landslide_hist_n":0},"geometry":{"type":"Polygon","coordinates":[[[127.12075,37.17466],[127.12025,37.179],[127.11606,37.18097],[127.11238,37.17859],[127.11288,37.17425],[127.11707,37.17228],[127.12075,37.17466]]]}},{"type":"Feature","properties":{"h3":"8830e02cb9fffff","emd_code":"4159754000","emd_name":"동탄4동","area_km2":0.5081,"edge":false,"slope_mean":8.13,"elev_mean":59.8,"flood_hist_n":0,"flood_depth_max_m":null,"flood_risk_100y":null,"semi_basement_r":null,"elderly_alone_r":0.0147,"bldg_age30_r":null,"shelter_min_walk":15,"pop":52625,"hh":16850,"elderly65_r":0.0489,"single_hh_r":0.0991,"source_level":"emd","flood_years":[],"landslide_hist_n":0},"geometry":{"type":"Polygon","coordinates":[[[127.11137,37.18728],[127.11086,37.19163],[127.10667,37.1936],[127.10299,37.19122],[127.1035,37.18688],[127.10768,37.18491],[127.11137,37.18728]]]}},{"type":"Feature","properties":{"h3":"8830e02cbbfffff","emd_code":"4159754000","emd_name":"동탄4동","area_km2":0.5083,"edge":false,"slope_mean":14.17,"elev_mean":98.3,"flood_hist_n":0,"flood_depth_max_m":null,"flood_risk_100y":null,"semi_basement_r":null,"elderly_alone_r":0.0147,"bldg_age30_r":null,"shelter_min_walk":9,"pop":52625,"hh":16850,"elderly65_r":0.0489,"single_hh_r":0.0991,"source_level":"emd","flood_years":[],"landslide_hist_n":0},"geometry":{"type":"Polygon","coordinates":[[[127.11924,37.18769],[127.11873,37.19204],[127.11454,37.19401],[127.11086,37.19163],[127.11137,37.18728],[127.11556,37.18532],[127.11924,37.18769]]]}},{"type":"Feature","properties":{"h3":"8830e02cbdfffff","emd_code":"4159756000","emd_name":"동탄6동","area_km2":0.5081,"edge":false,"slope_mean":6.16,"elev_mean":46.3,"flood_hist_n":0,"flood_depth_max_m":null,"flood_risk_100y":null,"semi_basement_r":null,"elderly_alone_r":0.0215,"bldg_age30_r":null,"shelter_min_walk":20,"pop":47057,"hh":20287,"elderly65_r":0.0602,"single_hh_r":0.3932,"source_level":"emd","flood_years":[],"landslide_hist_n":0},"geometry":{"type":"Polygon","coordinates":[[[127.10819,37.18056],[127.10768,37.18491],[127.1035,37.18688],[127.09981,37.1845],[127.10032,37.18015],[127.10451,37.17819],[127.10819,37.18056]]]}},{"type":"Feature","properties":{"h3":"8830e02cc1fffff","emd_code":"4159751000","emd_name":"동탄1동","area_km2":0.5078,"edge":false,"slope_mean":8.39,"elev_mean":52.7,"flood_hist_n":0,"flood_depth_max_m":null,"flood_risk_100y":null,"semi_basement_r":null,"elderly_alone_r":0.0237,"bldg_age30_r":null,"shelter_min_walk":4,"pop":49986,"hh":20885,"elderly65_r":0.0695,"single_hh_r":0.3646,"source_level":"emd","flood_years":[],"landslide_hist_n":0},"geometry":{"type":"Polygon","coordinates":[[[127.08154,37.2054],[127.08103,37.20974],[127.07684,37.21171],[127.07316,37.20933],[127.07367,37.20499],[127.07786,37.20302],[127.08154,37.2054]]]}},{"type":"Feature","properties":{"h3":"8830e02cc3fffff","emd_code":"4159751000","emd_name":"동탄1동","area_km2":0.5079,"edge":false,"slope_mean":3.51,"elev_mean":34.2,"flood_hist_n":0,"flood_depth_max_m":null,"flood_risk_100y":null,"semi_basement_r":null,"elderly_alone_r":0.0237,"bldg_age30_r":null,"shelter_min_walk":10,"pop":49986,"hh":20885,"elderly65_r":0.0695,"single_hh_r":0.3646,"source_level":"emd","flood_years":[],"landslide_hist_n":0},"geometry":{"type":"Polygon","coordinates":[[[127.08941,37.20581],[127.0889,37.21015],[127.08471,37.21212],[127.08103,37.20974],[127.08154,37.2054],[127.08573,37.20343],[127.08941,37.20581]]]}},{"type":"Feature","properties":{"h3":"8830e02cc5fffff","emd_code":"4159751000","emd_name":"동탄1동","area_km2":0.5077,"edge":false,"slope_mean":8.88,"elev_mean":57.9,"flood_hist_n":0,"flood_depth_max_m":null,"flood_risk_100y":null,"semi_basement_r":null,"elderly_alone_r":0.0237,"bldg_age30_r":null,"shelter_min_walk":5,"pop":49986,"hh":20885,"elderly65_r":0.0695,"single_hh_r":0.3646,"source_level":"emd","flood_years":[],"landslide_hist_n":0},"geometry":{"type":"Polygon","coordinates":[[[127.07837,37.19868],[127.07786,37.20302],[127.07367,37.20499],[127.06999,37.20261],[127.0705,37.19827],[127.07469,37.1963],[127.07837,37.19868]]]}},{"type":"Feature","properties":{"h3":"8830e02cc7fffff","emd_code":"4159751000","emd_name":"동탄1동","area_km2":0.5078,"edge":false,"slope_mean":10.59,"elev_mean":56.7,"flood_hist_n":0,"flood_depth_max_m":null,"flood_risk_100y":null,"semi_basement_r":null,"elderly_alone_r":0.0237,"bldg_age30_r":null,"shelter_min_walk":10,"pop":49986,"hh":20885,"elderly65_r":0.0695,"single_hh_r":0.3646,"source_level":"emd","flood_years":[],"landslide_hist_n":0},"geometry":{"type":"Polygon","coordinates":[[[127.08624,37.19909],[127.08573,37.20343],[127.08154,37.2054],[127.07786,37.20302],[127.07837,37.19868],[127.08256,37.19671],[127.08624,37.19909]]]}},{"type":"Feature","properties":{"h3":"8830e02cc9fffff","emd_code":"4159751000","emd_name":"동탄1동","area_km2":0.5077,"edge":false,"slope_mean":5.31,"elev_mean":61.2,"flood_hist_n":0,"flood_depth_max_m":null,"flood_risk_100y":null,"semi_basement_r":null,"elderly_alone_r":0.0237,"bldg_age30_r":null,"shelter_min_walk":8,"pop":49986,"hh":20885,"elderly65_r":0.0695,"single_hh_r":0.3646,"source_level":"emd","flood_years":[],"landslide_hist_n":0},"geometry":{"type":"Polygon","coordinates":[[[127.07684,37.21171],[127.07634,37.21605],[127.07215,37.21802],[127.06847,37.21564],[127.06898,37.2113],[127.07316,37.20933],[127.07684,37.21171]]]}},{"type":"Feature","properties":{"h3":"8830e02ccbfffff","emd_code":"4159751000","emd_name":"동탄1동","area_km2":0.5078,"edge":false,"slope_mean":8.79,"elev_mean":60.4,"flood_hist_n":0,"flood_depth_max_m":null,"flood_risk_100y":null,"semi_basement_r":null,"elderly_alone_r":0.0237,"bldg_age30_r":null,"shelter_min_walk":5,"pop":49986,"hh":20885,"elderly65_r":0.0695,"single_hh_r":0.3646,"source_level":"emd","flood_years":[],"landslide_hist_n":0},"geometry":{"type":"Polygon","coordinates":[[[127.08471,37.21212],[127.08421,37.21646],[127.08002,37.21843],[127.07634,37.21605],[127.07684,37.21171],[127.08103,37.20974],[127.08471,37.21212]]]}},{"type":"Feature","properties":{"h3":"8830e02ccdfffff","emd_code":"4159751000","emd_name":"동탄1동","area_km2":0.5077,"edge":false,"slope_mean":6.25,"elev_mean":55.5,"flood_hist_n":0,"flood_depth_max_m":null,"flood_risk_100y":null,"semi_basement_r":null,"elderly_alone_r":0.0237,"bldg_age30_r":null,"shelter_min_walk":2,"pop":49986,"hh":20885,"elderly65_r":0.0695,"single_hh_r":0.3646,"source_level":"emd","flood_years":[],"landslide_hist_n":0},"geometry":{"type":"Polygon","coordinates":[[[127.07367,37.20499],[127.07316,37.20933],[127.06898,37.2113],[127.0653,37.20892],[127.0658,37.20457],[127.06999,37.20261],[127.07367,37.20499]]]}},{"type":"Feature","properties":{"h3":"8830e02cd1fffff","emd_code":"4159755000","emd_name":"동탄5동","area_km2":0.5081,"edge":false,"slope_mean":6.29,"elev_mean":49.3,"flood_hist_n":0,"flood_depth_max_m":null,"flood_risk_100y":null,"semi_basement_r":null,"elderly_alone_r":0.0646,"bldg_age30_r":null,"shelter_min_walk":15,"pop":47904,"hh":21583,"elderly65_r":0.0891,"single_hh_r":0.4032,"source_level":"emd","flood_years":[],"landslide_hist_n":0},"geometry":{"type":"Polygon","coordinates":[[[127.10046,37.21294],[127.09995,37.21729],[127.09576,37.21925],[127.09208,37.21688],[127.09259,37.21253],[127.09677,37.21056],[127.10046,37.21294]]]}},{"type":"Feature","properties":{"h3":"8830e02cd3fffff","emd_code":"4159755000","emd_name":"동탄5동","area_km2":0.5082,"edge":false,"slope_mean":8.54,"elev_mean":69.3,"flood_hist_n":0,"flood_depth_max_m":null,"flood_risk_100y":null,"semi_basement_r":null,"elderly_alone_r":0.0646,"bldg_age30_r":null,"shelter_min_walk":10,"pop":47904,"hh":21583,"elderly65_r":0.0891,"single_hh_r":0.4032,"source_level":"emd","flood_years":[],"landslide_hist_n":0},"geometry":{"type":"Polygon","coordinates":[[[127.10833,37.21335],[127.10783,37.2177],[127.10364,37.21966],[127.09995,37.21729],[127.10046,37.21294],[127.10465,37.21098],[127.10833,37.21335]]]}},{"type":"Feature","properties":{"h3":"8830e02cd5fffff","emd_code":"4159755000","emd_name":"동탄5동","area_km2":0.508,"edge":false,"slope_mean":2.98,"elev_mean":38.3,"flood_hist_n":0,"flood_depth_max_m":null,"flood_risk_100y":null,"semi_basement_r":null,"elderly_alone_r":0.0646,"bldg_age30_r":null,"shelter_min_walk":12,"pop":47904,"hh":21583,"elderly65_r":0.0891,"single_hh_r":0.4032,"source_level":"emd","flood_years":[],"landslide_hist_n":0},"geometry":{"type":"Polygon","coordinates":[[[127.09728,37.20622],[127.09677,37.21056],[127.09259,37.21253],[127.0889,37.21015],[127.08941,37.20581],[127.0936,37.20384],[127.09728,37.20622]]]}},{"type":"Feature","properties":{"h3":"8830e02cd7fffff","emd_code":"4159755000","emd_name":"동탄5동","area_km2":0.5081,"edge":false,"slope_mean":4.69,"elev_mean":53.8,"flood_hist_n":0,"flood_depth_max_m":null,"flood_risk_100y":null,"semi_basement_r":null,"elderly_alone_r":0.0646,"bldg_age30_r":null,"shelter_min_walk":3,"pop":47904,"hh":21583,"elderly65_r":0.0891,"single_hh_r":0.4032,"source_level":"emd","flood_years":[],"landslide_hist_n":0},"geometry":{"type":"Polygon","coordinates":[[[127.10515,37.20663],[127.10465,37.21098],[127.10046,37.21294],[127.09677,37.21056],[127.09728,37.20622],[127.10147,37.20425],[127.10515,37.20663]]]}},{"type":"Feature","properties":{"h3":"8830e02cd9fffff","emd_code":"4159755000","emd_name":"동탄5동","area_km2":0.508,"edge":true,"slope_mean":5.65,"elev_mean":41.0,"flood_hist_n":0,"flood_depth_max_m":null,"flood_risk_100y":null,"semi_basement_r":null,"elderly_alone_r":0.0646,"bldg_age30_r":null,"shelter_min_walk":24,"pop":47904,"hh":21583,"elderly65_r":0.0891,"single_hh_r":0.4032,"source_level":"emd","flood_years":[],"landslide_hist_n":0},"geometry":{"type":"Polygon","coordinates":[[[127.09576,37.21925],[127.09525,37.2236],[127.09106,37.22556],[127.08738,37.22319],[127.08789,37.21884],[127.09208,37.21688],[127.09576,37.21925]]]}},{"type":"Feature","properties":{"h3":"8830e02cdbfffff","emd_code":"4159755000","emd_name":"동탄5동","area_km2":0.5081,"edge":true,"slope_mean":6.31,"elev_mean":52.5,"flood_hist_n":0,"flood_depth_max_m":null,"flood_risk_100y":null,"semi_basement_r":null,"elderly_alone_r":0.0646,"bldg_age30_r":null,"shelter_min_walk":21,"pop":47904,"hh":21583,"elderly65_r":0.0891,"single_hh_r":0.4032,"source_level":"emd","flood_years":[],"landslide_hist_n":0},"geometry":{"type":"Polygon","coordinates":[[[127.10364,37.21966],[127.10313,37.22401],[127.09894,37.22598],[127.09525,37.2236],[127.09576,37.21925],[127.09995,37.21729],[127.10364,37.21966]]]}},{"type":"Feature","properties":{"h3":"8830e02cddfffff","emd_code":"4159755000","emd_name":"동탄5동","area_km2":0.5079,"edge":false,"slope_mean":4.9,"elev_mean":37.2,"flood_hist_n":0,"flood_depth_max_m":null,"flood_risk_100y":null,"semi_basement_r":null,"elderly_alone_r":0.0646,"bldg_age30_r":null,"shelter_min_walk":14,"pop":47904,"hh":21583,"elderly65_r":0.0891,"single_hh_r":0.4032,"source_level":"emd","flood_years":[],"landslide_hist_n":0},"geometry":{"type":"Polygon","coordinates":[[[127.09259,37.21253],[127.09208,37.21688],[127.08789,37.21884],[127.08421,37.21646],[127.08471,37.21212],[127.0889,37.21015],[127.09259,37.21253]]]}},{"type":"Feature","properties":{"h3":"8830e02ce1fffff","emd_code":"4159752000","emd_name":"동탄2동","area_km2":0.5077,"edge":false,"slope_mean":5.69,"elev_mean":45.7,"flood_hist_n":0,"flood_depth_max_m":null,"flood_risk_100y":null,"semi_basement_r":null,"elderly_alone_r":0.0499,"bldg_age30_r":null,"shelter_min_walk":7,"pop":33696,"hh":11804,"elderly65_r":0.097,"single_hh_r":0.1898,"source_level":"emd","flood_years":[],"landslide_hist_n":0},"geometry":{"type":"Polygon","coordinates":[[[127.07989,37.18565],[127.07938,37.18999],[127.0752,37.19196],[127.07152,37.18958],[127.07202,37.18524],[127.07621,37.18327],[127.07989,37.18565]]]}},{"type":"Feature","properties":{"h3":"8830e02ce3fffff","emd_code":"4159752000","emd_name":"동탄2동","area_km2":0.5078,"edge":false,"slope_mean":3.31,"elev_mean":29.5,"flood_hist_n":0,"flood_depth_max_m":null,"flood_risk_100y":null,"semi_basement_r":null,"elderly_alone_r":0.0499,"bldg_age30_r":null,"shelter_min_walk":7,"pop":33696,"hh":11804,"elderly65_r":0.097,"single_hh_r":0.1898,"source_level":"emd","flood_years":[],"landslide_hist_n":0},"geometry":{"type":"Polygon","coordinates":[[[127.08776,37.18606],[127.08725,37.1904],[127.08306,37.19237],[127.07938,37.18999],[127.07989,37.18565],[127.08408,37.18368],[127.08776,37.18606]]]}},{"type":"Feature","properties":{"h3":"8830e02ce5fffff","emd_code":"4159756000","emd_name":"동탄6동","area_km2":0.5076,"edge":false,"slope_mean":14.15,"elev_mean":72.0,"flood_hist_n":0,"flood_depth_max_m":null,"flood_risk_100y":null,"semi_basement_r":null,"elderly_alone_r":0.0215,"bldg_age30_r":null,"shelter_min_walk":13,"pop":47057,"hh":20287,"elderly65_r":0.0602,"single_hh_r":0.3932,"source_level":"emd","flood_years":[],"landslide_hist_n":0},"geometry":{"type":"Polygon","coordinates":[[[127.07672,37.17893],[127.07621,37.18327],[127.07202,37.18524],[127.06835,37.18286],[127.06885,37.17852],[127.07304,37.17655],[127.07672,37.17893]]]}},{"type":"Feature","properties":{"h3":"8830e02ce7fffff","emd_code":"4159756000","emd_name":"동탄6동","area_km2":0.5077,"edge":false,"slope_mean":3.21,"elev_mean":27.6,"flood_hist_n":0,"flood_depth_max_m":null,"flood_risk_100y":null,"semi_basement_r":null,"elderly_alone_r":0.0215,"bldg_age30_r":null,"shelter_min_walk":16,"pop":47057,"hh":20287,"elderly65_r":0.0602,"single_hh_r":0.3932,"source_level":"emd","flood_years":[],"landslide_hist_n":0},"geometry":{"type":"Polygon","coordinates":[[[127.08458,37.17934],[127.08408,37.18368],[127.07989,37.18565],[127.07621,37.18327],[127.07672,37.17893],[127.0809,37.17696],[127.08458,37.17934]]]}},{"type":"Feature","properties":{"h3":"8830e02ce9fffff","emd_code":"4159752000","emd_name":"동탄2동","area_km2":0.5076,"edge":false,"slope_mean":5.82,"elev_mean":49.3,"flood_hist_n":0,"flood_depth_max_m":null,"flood_risk_100y":null,"semi_basement_r":null,"elderly_alone_r":0.0499,"bldg_age30_r":null,"shelter_min_walk":2,"pop":33696,"hh":11804,"elderly65_r":0.097,"single_hh_r":0.1898,"source_level":"emd","flood_years":[],"landslide_hist_n":0},"geometry":{"type":"Polygon","coordinates":[[[127.0752,37.19196],[127.07469,37.1963],[127.0705,37.19827],[127.06682,37.19589],[127.06733,37.19155],[127.07152,37.18958],[127.0752,37.19196]]]}},{"type":"Feature","properties":{"h3":"8830e02cebfffff","emd_code":"4159752000","emd_name":"동탄2동","area_km2":0.5078,"edge":false,"slope_mean":7.45,"elev_mean":45.1,"flood_hist_n":0,"flood_depth_max_m":null,"flood_risk_100y":null,"semi_basement_r":null,"elderly_alone_r":0.0499,"bldg_age30_r":null,"shelter_min_walk":2,"pop":33696,"hh":11804,"elderly65_r":0.097,"single_hh_r":0.1898,"source_level":"emd","flood_years":[],"landslide_hist_n":0},"geometry":{"type":"Polygon","coordinates":[[[127.08306,37.19237],[127.08256,37.19671],[127.07837,37.19868],[127.07469,37.1963],[127.0752,37.19196],[127.07938,37.18999],[127.08306,37.19237]]]}},{"type":"Feature","properties":{"h3":"8830e02cedfffff","emd_code":"4159752000","emd_name":"동탄2동","area_km2":0.5076,"edge":false,"slope_mean":9.55,"elev_mean":64.0,"flood_hist_n":0,"flood_depth_max_m":null,"flood_risk_100y":null,"semi_basement_r":null,"elderly_alone_r":0.0499,"bldg_age30_r":null,"shelter_min_walk":11,"pop":33696,"hh":11804,"elderly65_r":0.097,"single_hh_r":0.1898,"source_level":"emd","flood_years":[],"landslide_hist_n":0},"geometry":{"type":"Polygon","coordinates":[[[127.07202,37.18524],[127.07152,37.18958],[127.06733,37.19155],[127.06365,37.18917],[127.06416,37.18483],[127.06835,37.18286],[127.07202,37.18524]]]}},{"type":"Feature","properties":{"h3":"8830e02d93fffff","emd_code":"4159758000","emd_name":"동탄8동","area_km2":0.5079,"edge":false,"slope_mean":10.75,"elev_mean":58.2,"flood_hist_n":0,"flood_depth_max_m":null,"flood_risk_100y":null,"semi_basement_r":null,"elderly_alone_r":0.0252,"bldg_age30_r":null,"shelter_min_walk":14,"pop":40539,"hh":14829,"elderly65_r":0.0645,"single_hh_r":0.2152,"source_level":"emd","flood_years":[],"landslide_hist_n":0},"geometry":{"type":"Polygon","coordinates":[[[127.10336,37.15409],[127.10285,37.15843],[127.09866,37.1604],[127.09498,37.15803],[127.09549,37.15368],[127.09968,37.15172],[127.10336,37.15409]]]}},{"type":"Feature","properties":{"h3":"8830e02d97fffff","emd_code":"4159758000","emd_name":"동탄8동","area_km2":0.5079,"edge":true,"slope_mean":16.4,"elev_mean":89.0,"flood_hist_n":0,"flood_depth_max_m":null,"flood_risk_100y":null,"semi_basement_r":null,"elderly_alone_r":0.0252,"bldg_age30_r":null,"shelter_min_walk":16,"pop":40539,"hh":14829,"elderly65_r":0.0645,"single_hh_r":0.2152,"source_level":"emd","flood_years":[],"landslide_hist_n":0},"geometry":{"type":"Polygon","coordinates":[[[127.10018,37.14737],[127.09968,37.15172],[127.09549,37.15368],[127.09181,37.15131],[127.09232,37.14697],[127.0965,37.145],[127.10018,37.14737]]]}},{"type":"Feature","properties":{"h3":"8830e02d99fffff","emd_code":"4159756000","emd_name":"동탄6동","area_km2":0.5078,"edge":false,"slope_mean":3.37,"elev_mean":26.3,"flood_hist_n":0,"flood_depth_max_m":null,"flood_risk_100y":null,"semi_basement_r":null,"elderly_alone_r":0.0215,"bldg_age30_r":null,"shelter_min_walk":7,"pop":47057,"hh":20287,"elderly65_r":0.0602,"single_hh_r":0.3932,"source_level":"emd","flood_years":[],"landslide_hist_n":0},"geometry":{"type":"Polygon","coordinates":[[[127.0908,37.16],[127.09029,37.16434],[127.08611,37.16631],[127.08243,37.16393],[127.08293,37.15959],[127.08712,37.15762],[127.0908,37.16]]]}},{"type":"Feature","properties":{"h3":"8830e02d9bfffff","emd_code":"4159758000","emd_name":"동탄8동","area_km2":0.5079,"edge":false,"slope_mean":4.15,"elev_mean":35.7,"flood_hist_n":0,"flood_depth_max_m":null,"flood_risk_100y":null,"semi_basement_r":null,"elderly_alone_r":0.0252,"bldg_age30_r":null,"shelter_min_walk":18,"pop":40539,"hh":14829,"elderly65_r":0.0645,"single_hh_r":0.2152,"source_level":"emd","flood_years":[],"landslide_hist_n":0},"geometry":{"type":"Polygon","coordinates":[[[127.09866,37.1604],[127.09816,37.16475],[127.09397,37.16672],[127.09029,37.16434],[127.0908,37.16],[127.09498,37.15803],[127.09866,37.1604]]]}},{"type":"Feature","properties":{"h3":"8830e02dd1fffff","emd_code":"4159756000","emd_name":"동탄6동","area_km2":0.5076,"edge":false,"slope_mean":12.75,"elev_mean":51.8,"flood_hist_n":0,"flood_depth_max_m":null,"flood_risk_100y":null,"semi_basement_r":null,"elderly_alone_r":0.0215,"bldg_age30_r":null,"shelter_min_walk":13,"pop":47057,"hh":20287,"elderly65_r":0.0602,"single_hh_r":0.3932,"source_level":"emd","flood_years":[],"landslide_hist_n":0},"geometry":{"type":"Polygon","coordinates":[[[127.07824,37.1659],[127.07773,37.17024],[127.07355,37.17221],[127.06987,37.16983],[127.07038,37.16549],[127.07456,37.16352],[127.07824,37.1659]]]}},{"type":"Feature","properties":{"h3":"8830e02dd3fffff","emd_code":"4159756000","emd_name":"동탄6동","area_km2":0.5077,"edge":false,"slope_mean":2.63,"elev_mean":22.8,"flood_hist_n":0,"flood_depth_max_m":null,"flood_risk_100y":null,"semi_basement_r":null,"elderly_alone_r":0.0215,"bldg_age30_r":null,"shelter_min_walk":13,"pop":47057,"hh":20287,"elderly65_r":0.0602,"single_hh_r":0.3932,"source_level":"emd","flood_years":[],"landslide_hist_n":0},"geometry":{"type":"Polygon","coordinates":[[[127.08611,37.16631],[127.0856,37.17065],[127.08141,37.17262],[127.07773,37.17024],[127.07824,37.1659],[127.08243,37.16393],[127.08611,37.16631]]]}},{"type":"Feature","properties":{"h3":"8830e02dd7fffff","emd_code":"4159756000","emd_name":"동탄6동","area_km2":0.5077,"edge":true,"slope_mean":4.46,"elev_mean":23.7,"flood_hist_n":0,"flood_depth_max_m":null,"flood_risk_100y":null,"semi_basement_r":null,"elderly_alone_r":0.0215,"bldg_age30_r":null,"shelter_min_walk":4,"pop":47057,"hh":20287,"elderly65_r":0.0602,"single_hh_r":0.3932,"source_level":"emd","flood_years":[],"landslide_hist_n":0},"geometry":{"type":"Polygon","coordinates":[[[127.08293,37.15959],[127.08243,37.16393],[127.07824,37.1659],[127.07456,37.16352],[127.07507,37.15918],[127.07926,37.15721],[127.08293,37.15959]]]}},{"type":"Feature","properties":{"h3":"8830e02dd9fffff","emd_code":"4159756000","emd_name":"동탄6동","area_km2":0.5076,"edge":true,"slope_mean":10.71,"elev_mean":59.8,"flood_hist_n":0,"flood_depth_max_m":null,"flood_risk_100y":null,"semi_basement_r":null,"elderly_alone_r":0.0215,"bldg_age30_r":null,"shelter_min_walk":5,"pop":47057,"hh":20287,"elderly65_r":0.0602,"single_hh_r":0.3932,"source_level":"emd","flood_years":[],"landslide_hist_n":0},"geometry":{"type":"Polygon","coordinates":[[[127.07355,37.17221],[127.07304,37.17655],[127.06885,37.17852],[127.06518,37.17614],[127.06568,37.1718],[127.06987,37.16983],[127.07355,37.17221]]]}},{"type":"Feature","properties":{"h3":"8830e02ddbfffff","emd_code":"4159756000","emd_name":"동탄6동","area_km2":0.5077,"edge":false,"slope_mean":8.18,"elev_mean":41.4,"flood_hist_n":0,"flood_depth_max_m":null,"flood_risk_100y":null,"semi_basement_r":null,"elderly_alone_r":0.0215,"bldg_age30_r":null,"shelter_min_walk":15,"pop":47057,"hh":20287,"elderly65_r":0.0602,"single_hh_r":0.3932,"source_level":"emd","flood_years":[],"landslide_hist_n":0},"geometry":{"type":"Polygon","coordinates":[[[127.08141,37.17262],[127.0809,37.17696],[127.07672,37.17893],[127.07304,37.17655],[127.07355,37.17221],[127.07773,37.17024],[127.08141,37.17262]]]}},{"type":"Feature","properties":{"h3":"8830e02ea1fffff","emd_code":"4159753000","emd_name":"동탄3동","area_km2":0.5076,"edge":false,"slope_mean":6.56,"elev_mean":53.3,"flood_hist_n":0,"flood_depth_max_m":null,"flood_risk_100y":null,"semi_basement_r":null,"elderly_alone_r":0.0391,"bldg_age30_r":null,"shelter_min_walk":4,"pop":39910,"hh":17477,"elderly65_r":0.0861,"single_hh_r":0.3865,"source_level":"emd","flood_years":[],"landslide_hist_n":0},"geometry":{"type":"Polygon","coordinates":[[[127.06428,37.2176],[127.06377,37.22195],[127.05958,37.22391],[127.0559,37.22153],[127.05641,37.21719],[127.0606,37.21523],[127.06428,37.2176]]]}},{"type":"Feature","properties":{"h3":"8830e02ea3fffff","emd_code":"4159751000","emd_name":"동탄1동","area_km2":0.5077,"edge":true,"slope_mean":9.91,"elev_mean":73.6,"flood_hist_n":0,"flood_depth_max_m":null,"flood_risk_100y":null,"semi_basement_r":null,"elderly_alone_r":0.0237,"bldg_age30_r":null,"shelter_min_walk":12,"pop":49986,"hh":20885,"elderly65_r":0.0695,"single_hh_r":0.3646,"source_level":"emd","flood_years":[],"landslide_hist_n":0},"geometry":{"type":"Polygon","coordinates":[[[127.07215,37.21802],[127.07164,37.22236],[127.06745,37.22432],[127.06377,37.22195],[127.06428,37.2176],[127.06847,37.21564],[127.07215,37.21802]]]}},{"type":"Feature","properties":{"h3":"8830e02ea5fffff","emd_code":"4159753000","emd_name":"동탄3동","area_km2":0.5075,"edge":false,"slope_mean":4.75,"elev_mean":43.5,"flood_hist_n":0,"flood_depth_max_m":null,"flood_risk_100y":null,"semi_basement_r":null,"elderly_alone_r":0.0391,"bldg_age30_r":null,"shelter_min_walk":1,"pop":39910,"hh":17477,"elderly65_r":0.0861,"single_hh_r":0.3865,"source_level":"emd","flood_years":[],"landslide_hist_n":0},"geometry":{"type":"Polygon","coordinates":[[[127.06111,37.21088],[127.0606,37.21523],[127.05641,37.21719],[127.05273,37.21481],[127.05324,37.21047],[127.05743,37.2085],[127.06111,37.21088]]]}},{"type":"Feature","properties":{"h3":"8830e02ea7fffff","emd_code":"4159753000","emd_name":"동탄3동","area_km2":0.5076,"edge":true,"slope_mean":7.98,"elev_mean":67.0,"flood_hist_n":0,"flood_depth_max_m":null,"flood_risk_100y":null,"semi_basement_r":null,"elderly_alone_r":0.0391,"bldg_age30_r":null,"shelter_min_walk":7,"pop":39910,"hh":17477,"elderly65_r":0.0861,"single_hh_r":0.3865,"source_level":"emd","flood_years":[],"landslide_hist_n":0},"geometry":{"type":"Polygon","coordinates":[[[127.06898,37.2113],[127.06847,37.21564],[127.06428,37.2176],[127.0606,37.21523],[127.06111,37.21088],[127.0653,37.20892],[127.06898,37.2113]]]}},{"type":"Feature","properties":{"h3":"8830e02eadfffff","emd_code":"4159753000","emd_name":"동탄3동","area_km2":0.5075,"edge":true,"slope_mean":3.78,"elev_mean":38.0,"flood_hist_n":0,"flood_depth_max_m":null,"flood_risk_100y":null,"semi_basement_r":null,"elderly_alone_r":0.0391,"bldg_age30_r":null,"shelter_min_walk":1,"pop":39910,"hh":17477,"elderly65_r":0.0861,"single_hh_r":0.3865,"source_level":"emd","flood_years":[],"landslide_hist_n":0},"geometry":{"type":"Polygon","coordinates":[[[127.05641,37.21719],[127.0559,37.22153],[127.05171,37.2235],[127.04804,37.22112],[127.04854,37.21678],[127.05273,37.21481],[127.05641,37.21719]]]}},{"type":"Feature","properties":{"h3":"8830e02eb1fffff","emd_code":"4159751000","emd_name":"동탄1동","area_km2":0.5079,"edge":true,"slope_mean":8.55,"elev_mean":69.9,"flood_hist_n":0,"flood_depth_max_m":null,"flood_risk_100y":null,"semi_basement_r":null,"elderly_alone_r":0.0237,"bldg_age30_r":null,"shelter_min_walk":15,"pop":49986,"hh":20885,"elderly65_r":0.0695,"single_hh_r":0.3646,"source_level":"emd","flood_years":[],"landslide_hist_n":0},"geometry":{"type":"Polygon","coordinates":[[[127.08319,37.22515],[127.08268,37.2295],[127.07849,37.23146],[127.07481,37.22908],[127.07532,37.22474],[127.07951,37.22277],[127.08319,37.22515]]]}},{"type":"Feature","properties":{"h3":"8830e02eb5fffff","emd_code":"4159751000","emd_name":"동탄1동","area_km2":0.5078,"edge":false,"slope_mean":6.72,"elev_mean":64.7,"flood_hist_n":0,"flood_depth_max_m":null,"flood_risk_100y":null,"semi_basement_r":null,"elderly_alone_r":0.0237,"bldg_age30_r":null,"shelter_min_walk":16,"pop":49986,"hh":20885,"elderly65_r":0.0695,"single_hh_r":0.3646,"source_level":"emd","flood_years":[],"landslide_hist_n":0},"geometry":{"type":"Polygon","coordinates":[[[127.08002,37.21843],[127.07951,37.22277],[127.07532,37.22474],[127.07164,37.22236],[127.07215,37.21802],[127.07634,37.21605],[127.08002,37.21843]]]}},{"type":"Feature","properties":{"h3":"8830e02eb7fffff","emd_code":"4159751000","emd_name":"동탄1동","area_km2":0.5079,"edge":true,"slope_mean":7.77,"elev_mean":52.7,"flood_hist_n":0,"flood_depth_max_m":null,"flood_risk_100y":null,"semi_basement_r":null,"elderly_alone_r":0.0237,"bldg_age30_r":null,"shelter_min_walk":17,"pop":49986,"hh":20885,"elderly65_r":0.0695,"single_hh_r":0.3646,"source_level":"emd","flood_years":[],"landslide_hist_n":0},"geometry":{"type":"Polygon","coordinates":[[[127.08789,37.21884],[127.08738,37.22319],[127.08319,37.22515],[127.07951,37.22277],[127.08002,37.21843],[127.08421,37.21646],[127.08789,37.21884]]]}},{"type":"Feature","properties":{"h3":"8830e02ebdfffff","emd_code":"4159751000","emd_name":"동탄1동","area_km2":0.5077,"edge":true,"slope_mean":5.42,"elev_mean":51.7,"flood_hist_n":0,"flood_depth_max_m":null,"flood_risk_100y":null,"semi_basement_r":null,"elderly_alone_r":0.0237,"bldg_age30_r":null,"shelter_min_walk":13,"pop":49986,"hh":20885,"elderly65_r":0.0695,"single_hh_r":0.3646,"source_level":"emd","flood_years":[],"landslide_hist_n":0},"geometry":{"type":"Polygon","coordinates":[[[127.07532,37.22474],[127.07481,37.22908],[127.07062,37.23105],[127.06694,37.22867],[127.06745,37.22432],[127.07164,37.22236],[127.07532,37.22474]]]}},{"type":"Feature","properties":{"h3":"8830e15901fffff","emd_code":"4159755000","emd_name":"동탄5동","area_km2":0.5088,"edge":false,"slope_mean":19.92,"elev_mean":223.9,"flood_hist_n":0,"flood_depth_max_m":null,"flood_risk_100y":null,"semi_basement_r":null,"elderly_alone_r":0.0646,"bldg_age30_r":null,"shelter_min_walk":33,"pop":47904,"hh":21583,"elderly65_r":0.0891,"single_hh_r":0.4032,"source_level":"emd","flood_years":[],"landslide_hist_n":0},"geometry":{"type":"Polygon","coordinates":[[[127.15393,37.19604],[127.15342,37.20039],[127.14923,37.20236],[127.14554,37.19998],[127.14605,37.19564],[127.15024,37.19367],[127.15393,37.19604]]]}},{"type":"Feature","properties":{"h3":"8830e15903fffff","emd_code":"4159759000","emd_name":"동탄9동","area_km2":0.5089,"edge":true,"slope_mean":19.66,"elev_mean":248.0,"flood_hist_n":0,"flood_depth_max_m":null,"flood_risk_100y":null,"semi_basement_r":null,"elderly_alone_r":0.0275,"bldg_age30_r":null,"shelter_min_walk":43,"pop":60299,"hh":23110,"elderly65_r":0.0636,"single_hh_r":0.2531,"source_level":"emd","flood_years":[],"landslide_hist_n":0},"geometry":{"type":"Polygon","coordinates":[[[127.16181,37.19645],[127.1613,37.20079],[127.15711,37.20277],[127.15342,37.20039],[127.15393,37.19604],[127.15812,37.19407],[127.16181,37.19645]]]}},{"type":"Feature","properties":{"h3":"8830e15905fffff","emd_code":"4159759000","emd_name":"동탄9동","area_km2":0.5087,"edge":false,"slope_mean":12.17,"elev_mean":137.1,"flood_hist_n":0,"flood_depth_max_m":null,"flood_risk_100y":null,"semi_basement_r":null,"elderly_alone_r":0.0275,"bldg_age30_r":null,"shelter_min_walk":26,"pop":60299,"hh":23110,"elderly65_r":0.0636,"single_hh_r":0.2531,"source_level":"emd","flood_years":[],"landslide_hist_n":0},"geometry":{"type":"Polygon","coordinates":[[[127.15074,37.18932],[127.15024,37.19367],[127.14605,37.19564],[127.14236,37.19326],[127.14286,37.18891],[127.14705,37.18694],[127.15074,37.18932]]]}},{"type":"Feature","properties":{"h3":"8830e15907fffff","emd_code":"4159759000","emd_name":"동탄9동","area_km2":0.5088,"edge":false,"slope_mean":16.84,"elev_mean":197.8,"flood_hist_n":0,"flood_depth_max_m":null,"flood_risk_100y":null,"semi_basement_r":null,"elderly_alone_r":0.0275,"bldg_age30_r":null,"shelter_min_walk":37,"pop":60299,"hh":23110,"elderly65_r":0.0636,"single_hh_r":0.2531,"source_level":"emd","flood_years":[],"landslide_hist_n":0},"geometry":{"type":"Polygon","coordinates":[[[127.15862,37.18972],[127.15812,37.19407],[127.15393,37.19604],[127.15024,37.19367],[127.15074,37.18932],[127.15493,37.18735],[127.15862,37.18972]]]}},{"type":"Feature","properties":{"h3":"8830e15909fffff","emd_code":"4159755000","emd_name":"동탄5동","area_km2":0.5087,"edge":false,"slope_mean":17.92,"elev_mean":154.6,"flood_hist_n":0,"flood_depth_max_m":null,"flood_risk_100y":null,"semi_basement_r":null,"elderly_alone_r":0.0646,"bldg_age30_r":null,"shelter_min_walk":29,"pop":47904,"hh":21583,"elderly65_r":0.0891,"single_hh_r":0.4032,"source_level":"emd","flood_years":[],"landslide_hist_n":0},"geometry":{"type":"Polygon","coordinates":[[[127.14923,37.20236],[127.14873,37.2067],[127.14454,37.20867],[127.14085,37.2063],[127.14135,37.20195],[127.14554,37.19998],[127.14923,37.20236]]]}},{"type":"Feature","properties":{"h3":"8830e1590bfffff","emd_code":"4159755000","emd_name":"동탄5동","area_km2":0.5088,"edge":false,"slope_mean":22.29,"elev_mean":238.2,"flood_hist_n":0,"flood_depth_max_m":null,"flood_risk_100y":null,"semi_basement_r":null,"elderly_alone_r":0.0646,"bldg_age30_r":null,"shelter_min_walk":40,"pop":47904,"hh":21583,"elderly65_r":0.0891,"single_hh_r":0.4032,"source_level":"emd","flood_years":[],"landslide_hist_n":0},"geometry":{"type":"Polygon","coordinates":[[[127.15711,37.20277],[127.15661,37.20711],[127.15241,37.20908],[127.14873,37.2067],[127.14923,37.20236],[127.15342,37.20039],[127.15711,37.20277]]]}},{"type":"Feature","properties":{"h3":"8830e1590dfffff","emd_code":"4159755000","emd_name":"동탄5동","area_km2":0.5086,"edge":false,"slope_mean":15.36,"elev_mean":162.3,"flood_hist_n":0,"flood_depth_max_m":null,"flood_risk_100y":null,"semi_basement_r":null,"elderly_alone_r":0.0646,"bldg_age30_r":null,"shelter_min_walk":24,"pop":47904,"hh":21583,"elderly65_r":0.0891,"single_hh_r":0.4032,"source_level":"emd","flood_years":[],"landslide_hist_n":0},"geometry":{"type":"Polygon","coordinates":[[[127.14605,37.19564],[127.14554,37.19998],[127.14135,37.20195],[127.13767,37.19957],[127.13817,37.19523],[127.14236,37.19326],[127.14605,37.19564]]]}},{"type":"Feature","properties":{"h3":"8830e1591dfffff","emd_code":"4159755000","emd_name":"동탄5동","area_km2":0.5089,"edge":true,"slope_mean":19.5,"elev_mean":249.0,"flood_hist_n":0,"flood_depth_max_m":null,"flood_risk_100y":null,"semi_basement_r":null,"elderly_alone_r":0.0646,"bldg_age30_r":null,"shelter_min_walk":40,"pop":47904,"hh":21583,"elderly65_r":0.0891,"single_hh_r":0.4032,"source_level":"emd","flood_years":[],"landslide_hist_n":0},"geometry":{"type":"Polygon","coordinates":[[[127.16499,37.20317],[127.16449,37.20752],[127.1603,37.20949],[127.15661,37.20711],[127.15711,37.20277],[127.1613,37.20079],[127.16499,37.20317]]]}},{"type":"Feature","properties":{"h3":"8830e15921fffff","emd_code":"4159759000","emd_name":"동탄9동","area_km2":0.5087,"edge":false,"slope_mean":14.52,"elev_mean":113.7,"flood_hist_n":0,"flood_depth_max_m":null,"flood_risk_100y":null,"semi_basement_r":null,"elderly_alone_r":0.0275,"bldg_age30_r":null,"shelter_min_walk":33,"pop":60299,"hh":23110,"elderly65_r":0.0636,"single_hh_r":0.2531,"source_level":"emd","flood_years":[],"landslide_hist_n":0},"geometry":{"type":"Polygon","coordinates":[[[127.15225,37.17628],[127.15175,37.18063],[127.14756,37.1826],[127.14387,37.18022],[127.14438,37.17587],[127.14856,37.1739],[127.15225,37.17628]]]}},{"type":"Feature","properties":{"h3":"8830e15923fffff","emd_code":"4159759000","emd_name":"동탄9동","area_km2":0.5088,"edge":false,"slope_mean":20.25,"elev_mean":176.1,"flood_hist_n":0,"flood_depth_max_m":null,"flood_risk_100y":null,"semi_basement_r":null,"elderly_alone_r":0.0275,"bldg_age30_r":null,"shelter_min_walk":41,"pop":60299,"hh":23110,"elderly65_r":0.0636,"single_hh_r":0.2531,"source_level":"emd","flood_years":[],"landslide_hist_n":0},"geometry":{"type":"Polygon","coordinates":[[[127.16013,37.17668],[127.15963,37.18103],[127.15544,37.183],[127.15175,37.18063],[127.15225,37.17628],[127.15644,37.17431],[127.16013,37.17668]]]}},{"type":"Feature","properties":{"h3":"8830e15925fffff","emd_code":"4159759000","emd_name":"동탄9동","area_km2":0.5086,"edge":false,"slope_mean":16.31,"elev_mean":137.4,"flood_hist_n":0,"flood_depth_max_m":null,"flood_risk_100y":null,"semi_basement_r":null,"elderly_alone_r":0.0275,"bldg_age30_r":null,"shelter_min_walk":24,"pop":60299,"hh":23110,"elderly65_r":0.0636,"single_hh_r":0.2531,"source_level":"emd","flood_years":[],"landslide_hist_n":0},"geometry":{"type":"Polygon","coordinates":[[[127.14907,37.16956],[127.14856,37.1739],[127.14438,37.17587],[127.14069,37.1735],[127.14119,37.16915],[127.14538,37.16718],[127.14907,37.16956]]]}},{"type":"Feature","properties":{"h3":"8830e15927fffff","emd_code":"4159759000","emd_name":"동탄9동","area_km2":0.5087,"edge":true,"slope_mean":19.04,"elev_mean":177.0,"flood_hist_n":0,"flood_depth_max_m":null,"flood_risk_100y":null,"semi_basement_r":null,"elderly_alone_r":0.0275,"bldg_age30_r":null,"shelter_min_walk":34,"pop":60299,"hh":23110,"elderly65_r":0.0636,"single_hh_r":0.2531,"source_level":"emd","flood_years":[],"landslide_hist_n":0},"geometry":{"type":"Polygon","coordinates":[[[127.15694,37.16996],[127.15644,37.17431],[127.15225,37.17628],[127.14856,37.1739],[127.14907,37.16956],[127.15326,37.16759],[127.15694,37.16996]]]}},{"type":"Feature","properties":{"h3":"8830e15929fffff","emd_code":"4159759000","emd_name":"동탄9동","area_km2":0.5086,"edge":false,"slope_mean":11.82,"elev_mean":94.9,"flood_hist_n":0,"flood_depth_max_m":null,"flood_risk_100y":null,"semi_basement_r":null,"elderly_alone_r":0.0275,"bldg_age30_r":null,"shelter_min_walk":24,"pop":60299,"hh":23110,"elderly65_r":0.0636,"single_hh_r":0.2531,"source_level":"emd","flood_years":[],"landslide_hist_n":0},"geometry":{"type":"Polygon","coordinates":[[[127.14756,37.1826],[127.14705,37.18694],[127.14286,37.18891],[127.13918,37.18654],[127.13968,37.18219],[127.14387,37.18022],[127.14756,37.1826]]]}},{"type":"Feature","properties":{"h3":"8830e1592bfffff","emd_code":"4159759000","emd_name":"동탄9동","area_km2":0.5087,"edge":false,"slope_mean":14.62,"elev_mean":131.1,"flood_hist_n":0,"flood_depth_max_m":null,"flood_risk_100y":null,"semi_basement_r":null,"elderly_alone_r":0.0275,"bldg_age30_r":null,"shelter_min_walk":34,"pop":60299,"hh":23110,"elderly65_r":0.0636,"single_hh_r":0.2531,"source_level":"emd","flood_years":[],"landslide_hist_n":0},"geometry":{"type":"Polygon","coordinates":[[[127.15544,37.183],[127.15493,37.18735],[127.15074,37.18932],[127.14705,37.18694],[127.14756,37.1826],[127.15175,37.18063],[127.15544,37.183]]]}},{"type":"Feature","properties":{"h3":"8830e1592dfffff","emd_code":"4159759000","emd_name":"동탄9동","area_km2":0.5086,"edge":false,"slope_mean":10.66,"elev_mean":86.7,"flood_hist_n":0,"flood_depth_max_m":null,"flood_risk_100y":null,"semi_basement_r":null,"elderly_alone_r":0.0275,"bldg_age30_r":null,"shelter_min_walk":25,"pop":60299,"hh":23110,"elderly65_r":0.0636,"single_hh_r":0.2531,"source_level":"emd","flood_years":[],"landslide_hist_n":0},"geometry":{"type":"Polygon","coordinates":[[[127.14438,37.17587],[127.14387,37.18022],[127.13968,37.18219],[127.136,37.17981],[127.1365,37.17547],[127.14069,37.1735],[127.14438,37.17587]]]}},{"type":"Feature","properties":{"h3":"8830e15935fffff","emd_code":"4159759000","emd_name":"동탄9동","area_km2":0.5089,"edge":true,"slope_mean":20.3,"elev_mean":206.3,"flood_hist_n":0,"flood_depth_max_m":null,"flood_risk_100y":null,"semi_basement_r":null,"elderly_alone_r":0.0275,"bldg_age30_r":null,"shelter_min_walk":36,"pop":60299,"hh":23110,"elderly65_r":0.0636,"single_hh_r":0.2531,"source_level":"emd","flood_years":[],"landslide_hist_n":0},"geometry":{"type":"Polygon","coordinates":[[[127.16801,37.17709],[127.1675,37.18144],[127.16331,37.18341],[127.15963,37.18103],[127.16013,37.17668],[127.16432,37.17471],[127.16801,37.17709]]]}},{"type":"Feature","properties":{"h3":"8830e15939fffff","emd_code":"4159759000","emd_name":"동탄9동","area_km2":0.5089,"edge":true,"slope_mean":18.8,"elev_mean":220.5,"flood_hist_n":0,"flood_depth_max_m":null,"flood_risk_100y":null,"semi_basement_r":null,"elderly_alone_r":0.0275,"bldg_age30_r":null,"shelter_min_walk":47,"pop":60299,"hh":23110,"elderly65_r":0.0636,"single_hh_r":0.2531,"source_level":"emd","flood_years":[],"landslide_hist_n":0},"geometry":{"type":"Polygon","coordinates":[[[127.1665,37.19013],[127.166,37.19448],[127.16181,37.19645],[127.15812,37.19407],[127.15862,37.18972],[127.16281,37.18775],[127.1665,37.19013]]]}},{"type":"Feature","properties":{"h3":"8830e1593dfffff","emd_code":"4159759000","emd_name":"동탄9동","area_km2":0.5089,"edge":false,"slope_mean":17.6,"elev_mean":194.8,"flood_hist_n":0,"flood_depth_max_m":null,"flood_risk_100y":null,"semi_basement_r":null,"elderly_alone_r":0.0275,"bldg_age30_r":null,"shelter_min_walk":44,"pop":60299,"hh":23110,"elderly65_r":0.0636,"single_hh_r":0.2531,"source_level":"emd","flood_years":[],"landslide_hist_n":0},"geometry":{"type":"Polygon","coordinates":[[[127.16331,37.18341],[127.16281,37.18775],[127.15862,37.18972],[127.15493,37.18735],[127.15544,37.183],[127.15963,37.18103],[127.16331,37.18341]]]}},{"type":"Feature","properties":{"h3":"8830e15941fffff","emd_code":"4159755000","emd_name":"동탄5동","area_km2":0.5086,"edge":false,"slope_mean":20.21,"elev_mean":183.9,"flood_hist_n":0,"flood_depth_max_m":null,"flood_risk_100y":null,"semi_basement_r":null,"elderly_alone_r":0.0646,"bldg_age30_r":null,"shelter_min_walk":15,"pop":47904,"hh":21583,"elderly65_r":0.0891,"single_hh_r":0.4032,"source_level":"emd","flood_years":[],"landslide_hist_n":0},"geometry":{"type":"Polygon","coordinates":[[[127.13666,37.20827],[127.13615,37.21261],[127.13196,37.21458],[127.12827,37.2122],[127.12878,37.20786],[127.13297,37.20589],[127.13666,37.20827]]]}},{"type":"Feature","properties":{"h3":"8830e15943fffff","emd_code":"4159755000","emd_name":"동탄5동","area_km2":0.5087,"edge":false,"slope_mean":18.24,"elev_mean":169.4,"flood_hist_n":0,"flood_depth_max_m":null,"flood_risk_100y":null,"semi_basement_r":null,"elderly_alone_r":0.0646,"bldg_age30_r":null,"shelter_min_walk":24,"pop":47904,"hh":21583,"elderly65_r":0.0891,"single_hh_r":0.4032,"source_level":"emd","flood_years":[],"landslide_hist_n":0},"geometry":{"type":"Polygon","coordinates":[[[127.14454,37.20867],[127.14403,37.21302],[127.13984,37.21499],[127.13615,37.21261],[127.13666,37.20827],[127.14085,37.2063],[127.14454,37.20867]]]}},{"type":"Feature","properties":{"h3":"8830e15945fffff","emd_code":"4159755000","emd_name":"동탄5동","area_km2":0.5085,"edge":false,"slope_mean":14.1,"elev_mean":117.3,"flood_hist_n":0,"flood_depth_max_m":null,"flood_risk_100y":null,"semi_basement_r":null,"elderly_alone_r":0.0646,"bldg_age30_r":null,"shelter_min_walk":9,"pop":47904,"hh":21583,"elderly65_r":0.0891,"single_hh_r":0.4032,"source_level":"emd","flood_years":[],"landslide_hist_n":0},"geometry":{"type":"Polygon","coordinates":[[[127.13347,37.20154],[127.13297,37.20589],[127.12878,37.20786],[127.12509,37.20548],[127.1256,37.20114],[127.12979,37.19917],[127.13347,37.20154]]]}},{"type":"Feature","properties":{"h3":"8830e15947fffff","emd_code":"4159755000","emd_name":"동탄5동","area_km2":0.5086,"edge":false,"slope_mean":14.79,"elev_mean":131.1,"flood_hist_n":0,"flood_depth_max_m":null,"flood_risk_100y":null,"semi_basement_r":null,"elderly_alone_r":0.0646,"bldg_age30_r":null,"shelter_min_walk":19,"pop":47904,"hh":21583,"elderly65_r":0.0891,"single_hh_r":0.4032,"source_level":"emd","flood_years":[],"landslide_hist_n":0},"geometry":{"type":"Polygon","coordinates":[[[127.14135,37.20195],[127.14085,37.2063],[127.13666,37.20827],[127.13297,37.20589],[127.13347,37.20154],[127.13767,37.19957],[127.14135,37.20195]]]}},{"type":"Feature","properties":{"h3":"8830e15949fffff","emd_code":"4159755000","emd_name":"동탄5동","area_km2":0.5085,"edge":false,"slope_mean":17.13,"elev_mean":143.8,"flood_hist_n":0,"flood_depth_max_m":null,"flood_risk_100y":null,"semi_basement_r":null,"elderly_alone_r":0.0646,"bldg_age30_r":null,"shelter_min_walk":19,"pop":47904,"hh":21583,"elderly65_r":0.0891,"single_hh_r":0.4032,"source_level":"emd","flood_years":[],"landslide_hist_n":0},"geometry":{"type":"Polygon","coordinates":[[[127.13196,37.21458],[127.13146,37.21893],[127.12726,37.2209],[127.12358,37.21852],[127.12408,37.21417],[127.12827,37.2122],[127.13196,37.21458]]]}},{"type":"Feature","properties":{"h3":"8830e1594bfffff","emd_code":"4159755000","emd_name":"동탄5동","area_km2":0.5086,"edge":true,"slope_mean":13.04,"elev_mean":153.9,"flood_hist_n":0,"flood_depth_max_m":null,"flood_risk_100y":null,"semi_basement_r":null,"elderly_alone_r":0.0646,"bldg_age30_r":null,"shelter_min_walk":25,"pop":47904,"hh":21583,"elderly65_r":0.0891,"single_hh_r":0.4032,"source_level":"emd","flood_years":[],"landslide_hist_n":0},"geometry":{"type":"Polygon","coordinates":[[[127.13984,37.21499],[127.13933,37.21934],[127.13514,37.2213],[127.13146,37.21893],[127.13196,37.21458],[127.13615,37.21261],[127.13984,37.21499]]]}},{"type":"Feature","properties":{"h3":"8830e1594dfffff","emd_code":"4159755000","emd_name":"동탄5동","area_km2":0.5084,"edge":false,"slope_mean":16.41,"elev_mean":130.1,"flood_hist_n":0,"flood_depth_max_m":null,"flood_risk_100y":null,"semi_basement_r":null,"elderly_alone_r":0.0646,"bldg_age30_r":null,"shelter_min_walk":7,"pop":47904,"hh":21583,"elderly65_r":0.0891,"single_hh_r":0.4032,"source_level":"emd","flood_years":[],"landslide_hist_n":0},"geometry":{"type":"Polygon","coordinates":[[[127.12878,37.20786],[127.12827,37.2122],[127.12408,37.21417],[127.1204,37.21179],[127.1209,37.20745],[127.12509,37.20548],[127.12878,37.20786]]]}},{"type":"Feature","properties":{"h3":"8830e15951fffff","emd_code":"4159755000","emd_name":"동탄5동","area_km2":0.5088,"edge":false,"slope_mean":15.98,"elev_mean":252.2,"flood_hist_n":0,"flood_depth_max_m":null,"flood_risk_100y":null,"semi_basement_r":null,"elderly_alone_r":0.0646,"bldg_age30_r":null,"shelter_min_walk":31,"pop":47904,"hh":21583,"elderly65_r":0.0891,"single_hh_r":0.4032,"source_level":"emd","flood_years":[],"landslide_hist_n":0},"geometry":{"type":"Polygon","coordinates":[[[127.1556,37.21581],[127.1551,37.22015],[127.1509,37.22212],[127.14722,37.21974],[127.14772,37.2154],[127.15191,37.21343],[127.1556,37.21581]]]}},{"type":"Feature","properties":{"h3":"8830e15955fffff","emd_code":"4159755000","emd_name":"동탄5동","area_km2":0.5088,"edge":false,"slope_mean":21.76,"elev_mean":225.9,"flood_hist_n":0,"flood_depth_max_m":null,"flood_risk_100y":null,"semi_basement_r":null,"elderly_alone_r":0.0646,"bldg_age30_r":null,"shelter_min_walk":35,"pop":47904,"hh":21583,"elderly65_r":0.0891,"single_hh_r":0.4032,"source_level":"emd","flood_years":[],"landslide_hist_n":0},"geometry":{"type":"Polygon","coordinates":[[[127.15241,37.20908],[127.15191,37.21343],[127.14772,37.2154],[127.14403,37.21302],[127.14454,37.20867],[127.14873,37.2067],[127.15241,37.20908]]]}},{"type":"Feature","properties":{"h3":"8830e15957fffff","emd_code":"4159755000","emd_name":"동탄5동","area_km2":0.5089,"edge":true,"slope_mean":22.21,"elev_mean":276.5,"flood_hist_n":0,"flood_depth_max_m":null,"flood_risk_100y":null,"semi_basement_r":null,"elderly_alone_r":0.0646,"bldg_age30_r":null,"shelter_min_walk":33,"pop":47904,"hh":21583,"elderly65_r":0.0891,"single_hh_r":0.4032,"source_level":"emd","flood_years":[],"landslide_hist_n":0},"geometry":{"type":"Polygon","coordinates":[[[127.1603,37.20949],[127.15979,37.21384],[127.1556,37.21581],[127.15191,37.21343],[127.15241,37.20908],[127.15661,37.20711],[127.1603,37.20949]]]}},{"type":"Feature","properties":{"h3":"8830e1595dfffff","emd_code":"4159755000","emd_name":"동탄5동","area_km2":0.5087,"edge":false,"slope_mean":14.58,"elev_mean":178.5,"flood_hist_n":0,"flood_depth_max_m":null,"flood_risk_100y":null,"semi_basement_r":null,"elderly_alone_r":0.0646,"bldg_age30_r":null,"shelter_min_walk":33,"pop":47904,"hh":21583,"elderly65_r":0.0891,"single_hh_r":0.4032,"source_level":"emd","flood_years":[],"landslide_hist_n":0},"geometry":{"type":"Polygon","coordinates":[[[127.14772,37.2154],[127.14722,37.21974],[127.14302,37.22171],[127.13933,37.21934],[127.13984,37.21499],[127.14403,37.21302],[127.14772,37.2154]]]}},{"type":"Feature","properties":{"h3":"8830e15961fffff","emd_code":"4159759000","emd_name":"동탄9동","area_km2":0.5085,"edge":false,"slope_mean":14.07,"elev_mean":124.4,"flood_hist_n":0,"flood_depth_max_m":null,"flood_risk_100y":null,"semi_basement_r":null,"elderly_alone_r":0.0275,"bldg_age30_r":null,"shelter_min_walk":6,"pop":60299,"hh":23110,"elderly65_r":0.0636,"single_hh_r":0.2531,"source_level":"emd","flood_years":[],"landslide_hist_n":0},"geometry":{"type":"Polygon","coordinates":[[[127.13499,37.18851],[127.13448,37.19285],[127.13029,37.19482],[127.12661,37.19244],[127.12711,37.1881],[127.1313,37.18613],[127.13499,37.18851]]]}},{"type":"Feature","properties":{"h3":"8830e15963fffff","emd_code":"4159759000","emd_name":"동탄9동","area_km2":0.5086,"edge":false,"slope_mean":13.94,"elev_mean":137.9,"flood_hist_n":0,"flood_depth_max_m":null,"flood_risk_100y":null,"semi_basement_r":null,"elderly_alone_r":0.0275,"bldg_age30_r":null,"shelter_min_walk":16,"pop":60299,"hh":23110,"elderly65_r":0.0636,"single_hh_r":0.2531,"source_level":"emd","flood_years":[],"landslide_hist_n":0},"geometry":{"type":"Polygon","coordinates":[[[127.14286,37.18891],[127.14236,37.19326],[127.13817,37.19523],[127.13448,37.19285],[127.13499,37.18851],[127.13918,37.18654],[127.14286,37.18891]]]}},{"type":"Feature","properties":{"h3":"8830e15965fffff","emd_code":"4159759000","emd_name":"동탄9동","area_km2":0.5084,"edge":false,"slope_mean":9.48,"elev_mean":77.0,"flood_hist_n":0,"flood_depth_max_m":null,"flood_risk_100y":null,"semi_basement_r":null,"elderly_alone_r":0.0275,"bldg_age30_r":null,"shelter_min_walk":11,"pop":60299,"hh":23110,"elderly65_r":0.0636,"single_hh_r":0.2531,"source_level":"emd","flood_years":[],"landslide_hist_n":0},"geometry":{"type":"Polygon","coordinates":[[[127.13181,37.18178],[127.1313,37.18613],[127.12711,37.1881],[127.12343,37.18572],[127.12393,37.18138],[127.12812,37.17941],[127.13181,37.18178]]]}},{"type":"Feature","properties":{"h3":"8830e15967fffff","emd_code":"4159759000","emd_name":"동탄9동","area_km2":0.5085,"edge":false,"slope_mean":10.55,"elev_mean":94.7,"flood_hist_n":0,"flood_depth_max_m":null,"flood_risk_100y":null,"semi_basement_r":null,"elderly_alone_r":0.0275,"bldg_age30_r":null,"shelter_min_walk":16,"pop":60299,"hh":23110,"elderly65_r":0.0636,"single_hh_r":0.2531,"source_level":"emd","flood_years":[],"landslide_hist_n":0},"geometry":{"type":"Polygon","coordinates":[[[127.13968,37.18219],[127.13918,37.18654],[127.13499,37.18851],[127.1313,37.18613],[127.13181,37.18178],[127.136,37.17981],[127.13968,37.18219]]]}},{"type":"Feature","properties":{"h3":"8830e15969fffff","emd_code":"4159754000","emd_name":"동탄4동","area_km2":0.5084,"edge":false,"slope_mean":14.79,"elev_mean":130.7,"flood_hist_n":0,"flood_depth_max_m":null,"flood_risk_100y":null,"semi_basement_r":null,"elderly_alone_r":0.0147,"bldg_age30_r":null,"shelter_min_walk":8,"pop":52625,"hh":16850,"elderly65_r":0.0489,"single_hh_r":0.0991,"source_level":"emd","flood_years":[],"landslide_hist_n":0},"geometry":{"type":"Polygon","coordinates":[[[127.13029,37.19482],[127.12979,37.19917],[127.1256,37.20114],[127.12191,37.19876],[127.12242,37.19441],[127.12661,37.19244],[127.13029,37.19482]]]}},{"type":"Feature","properties":{"h3":"8830e1596bfffff","emd_code":"4159755000","emd_name":"동탄5동","area_km2":0.5085,"edge":false,"slope_mean":14.96,"elev_mean":163.2,"flood_hist_n":0,"flood_depth_max_m":null,"flood_risk_100y":null,"semi_basement_r":null,"elderly_alone_r":0.0646,"bldg_age30_r":null,"shelter_min_walk":15,"pop":47904,"hh":21583,"elderly65_r":0.0891,"single_hh_r":0.4032,"source_level":"emd","flood_years":[],"landslide_hist_n":0},"geometry":{"type":"Polygon","coordinates":[[[127.13817,37.19523],[127.13767,37.19957],[127.13347,37.20154],[127.12979,37.19917],[127.13029,37.19482],[127.13448,37.19285],[127.13817,37.19523]]]}},{"type":"Feature","properties":{"h3":"8830e1596dfffff","emd_code":"4159759000","emd_name":"동탄9동","area_km2":0.5084,"edge":false,"slope_mean":12.63,"elev_mean":89.7,"flood_hist_n":0,"flood_depth_max_m":null,"flood_risk_100y":null,"semi_basement_r":null,"elderly_alone_r":0.0275,"bldg_age30_r":null,"shelter_min_walk":5,"pop":60299,"hh":23110,"elderly65_r":0.0636,"single_hh_r":0.2531,"source_level":"emd","flood_years":[],"landslide_hist_n":0},"geometry":{"type":"Polygon","coordinates":[[[127.12711,37.1881],[127.12661,37.19244],[127.12242,37.19441],[127.11873,37.19204],[127.11924,37.18769],[127.12343,37.18572],[127.12711,37.1881]]]}},{"type":"Feature","properties":{"h3":"8830e15b21fffff","emd_code":"4159755000","emd_name":"동탄5동","area_km2":0.5083,"edge":true,"slope_mean":10.22,"elev_mean":93.1,"flood_hist_n":0,"flood_depth_max_m":null,"flood_risk_100y":null,"semi_basement_r":null,"elderly_alone_r":0.0646,"bldg_age30_r":null,"shelter_min_walk":11,"pop":47904,"hh":21583,"elderly65_r":0.0891,"single_hh_r":0.4032,"source_level":"emd","flood_years":[],"landslide_hist_n":0},"geometry":{"type":"Polygon","coordinates":[[[127.11939,37.22049],[127.11888,37.22483],[127.11469,37.2268],[127.111,37.22442],[127.11151,37.22008],[127.1157,37.21811],[127.11939,37.22049]]]}},{"type":"Feature","properties":{"h3":"8830e15b25fffff","emd_code":"4159755000","emd_name":"동탄5동","area_km2":0.5083,"edge":false,"slope_mean":12.13,"elev_mean":92.4,"flood_hist_n":0,"flood_depth_max_m":null,"flood_risk_100y":null,"semi_basement_r":null,"elderly_alone_r":0.0646,"bldg_age30_r":null,"shelter_min_walk":11,"pop":47904,"hh":21583,"elderly65_r":0.0891,"single_hh_r":0.4032,"source_level":"emd","flood_years":[],"landslide_hist_n":0},"geometry":{"type":"Polygon","coordinates":[[[127.11621,37.21376],[127.1157,37.21811],[127.11151,37.22008],[127.10783,37.2177],[127.10833,37.21335],[127.11252,37.21139],[127.11621,37.21376]]]}},{"type":"Feature","properties":{"h3":"8830e15b27fffff","emd_code":"4159755000","emd_name":"동탄5동","area_km2":0.5084,"edge":false,"slope_mean":14.27,"elev_mean":117.1,"flood_hist_n":0,"flood_depth_max_m":null,"flood_risk_100y":null,"semi_basement_r":null,"elderly_alone_r":0.0646,"bldg_age30_r":null,"shelter_min_walk":17,"pop":47904,"hh":21583,"elderly65_r":0.0891,"single_hh_r":0.4032,"source_level":"emd","flood_years":[],"landslide_hist_n":0},"geometry":{"type":"Polygon","coordinates":[[[127.12408,37.21417],[127.12358,37.21852],[127.11939,37.22049],[127.1157,37.21811],[127.11621,37.21376],[127.1204,37.21179],[127.12408,37.21417]]]}},{"type":"Feature","properties":{"h3":"8830e15b2dfffff","emd_code":"4159755000","emd_name":"동탄5동","area_km2":0.5082,"edge":true,"slope_mean":6.9,"elev_mean":67.1,"flood_hist_n":0,"flood_depth_max_m":null,"flood_risk_100y":null,"semi_basement_r":null,"elderly_alone_r":0.0646,"bldg_age30_r":null,"shelter_min_walk":14,"pop":47904,"hh":21583,"elderly65_r":0.0891,"single_hh_r":0.4032,"source_level":"emd","flood_years":[],"landslide_hist_n":0},"geometry":{"type":"Polygon","coordinates":[[[127.11151,37.22008],[127.111,37.22442],[127.10681,37.22639],[127.10313,37.22401],[127.10364,37.21966],[127.10783,37.2177],[127.11151,37.22008]]]}},{"type":"Feature","properties":{"h3":"8830e39601fffff","emd_code":"4159758000","emd_name":"동탄8동","area_km2":0.5083,"edge":false,"slope_mean":11.75,"elev_mean":89.9,"flood_hist_n":0,"flood_depth_max_m":null,"flood_risk_100y":null,"semi_basement_r":null,"elderly_alone_r":0.0252,"bldg_age30_r":null,"shelter_min_walk":20,"pop":40539,"hh":14829,"elderly65_r":0.0645,"single_hh_r":0.2152,"source_level":"emd","flood_years":[],"landslide_hist_n":0},"geometry":{"type":"Polygon","coordinates":[[[127.13165,37.14899],[127.13115,37.15334],[127.12696,37.15531],[127.12328,37.15293],[127.12378,37.14859],[127.12797,37.14662],[127.13165,37.14899]]]}},{"type":"Feature","properties":{"h3":"8830e39605fffff","emd_code":"4159758000","emd_name":"동탄8동","area_km2":0.5083,"edge":true,"slope_mean":14.84,"elev_mean":104.6,"flood_hist_n":0,"flood_depth_max_m":null,"flood_risk_100y":null,"semi_basement_r":null,"elderly_alone_r":0.0252,"bldg_age30_r":null,"shelter_min_walk":29,"pop":40539,"hh":14829,"elderly65_r":0.0645,"single_hh_r":0.2152,"source_level":"emd","flood_years":[],"landslide_hist_n":0},"geometry":{"type":"Polygon","coordinates":[[[127.12848,37.14227],[127.12797,37.14662],[127.12378,37.14859],[127.1201,37.14621],[127.12061,37.14187],[127.12479,37.1399],[127.12848,37.14227]]]}},{"type":"Feature","properties":{"h3":"8830e39609fffff","emd_code":"4159758000","emd_name":"동탄8동","area_km2":0.5083,"edge":false,"slope_mean":10.99,"elev_mean":78.6,"flood_hist_n":0,"flood_depth_max_m":null,"flood_risk_100y":null,"semi_basement_r":null,"elderly_alone_r":0.0252,"bldg_age30_r":null,"shelter_min_walk":8,"pop":40539,"hh":14829,"elderly65_r":0.0645,"single_hh_r":0.2152,"source_level":"emd","flood_years":[],"landslide_hist_n":0},"geometry":{"type":"Polygon","coordinates":[[[127.12696,37.15531],[127.12646,37.15965],[127.12227,37.16162],[127.11859,37.15925],[127.11909,37.1549],[127.12328,37.15293],[127.12696,37.15531]]]}},{"type":"Feature","properties":{"h3":"8830e3960bfffff","emd_code":"4159758000","emd_name":"동탄8동","area_km2":0.5084,"edge":true,"slope_mean":12.43,"elev_mean":118.1,"flood_hist_n":0,"flood_depth_max_m":null,"flood_risk_100y":null,"semi_basement_r":null,"elderly_alone_r":0.0252,"bldg_age30_r":null,"shelter_min_walk":16,"pop":40539,"hh":14829,"elderly65_r":0.0645,"single_hh_r":0.2152,"source_level":"emd","flood_years":[],"landslide_hist_n":0},"geometry":{"type":"Polygon","coordinates":[[[127.13483,37.15571],[127.13433,37.16006],[127.13014,37.16203],[127.12646,37.15965],[127.12696,37.15531],[127.13115,37.15334],[127.13483,37.15571]]]}},{"type":"Feature","properties":{"h3":"8830e3960dfffff","emd_code":"4159758000","emd_name":"동탄8동","area_km2":0.5082,"edge":false,"slope_mean":13.39,"elev_mean":78.6,"flood_hist_n":0,"flood_depth_max_m":null,"flood_risk_100y":null,"semi_basement_r":null,"elderly_alone_r":0.0252,"bldg_age30_r":null,"shelter_min_walk":18,"pop":40539,"hh":14829,"elderly65_r":0.0645,"single_hh_r":0.2152,"source_level":"emd","flood_years":[],"landslide_hist_n":0},"geometry":{"type":"Polygon","coordinates":[[[127.12378,37.14859],[127.12328,37.15293],[127.11909,37.1549],[127.11541,37.15253],[127.11592,37.14818],[127.1201,37.14621],[127.12378,37.14859]]]}},{"type":"Feature","properties":{"h3":"8830e39641fffff","emd_code":"4159758000","emd_name":"동탄8동","area_km2":0.5081,"edge":false,"slope_mean":8.85,"elev_mean":67.0,"flood_hist_n":0,"flood_depth_max_m":null,"flood_risk_100y":null,"semi_basement_r":null,"elderly_alone_r":0.0252,"bldg_age30_r":null,"shelter_min_walk":9,"pop":40539,"hh":14829,"elderly65_r":0.0645,"single_hh_r":0.2152,"source_level":"emd","flood_years":[],"landslide_hist_n":0},"geometry":{"type":"Polygon","coordinates":[[[127.1144,37.16122],[127.11389,37.16556],[127.10971,37.16753],[127.10603,37.16515],[127.10653,37.16081],[127.11072,37.15884],[127.1144,37.16122]]]}},{"type":"Feature","properties":{"h3":"8830e39643fffff","emd_code":"4159757000","emd_name":"동탄7동","area_km2":0.5082,"edge":false,"slope_mean":11.45,"elev_mean":84.8,"flood_hist_n":0,"flood_depth_max_m":null,"flood_risk_100y":null,"semi_basement_r":null,"elderly_alone_r":0.0361,"bldg_age30_r":null,"shelter_min_walk":4,"pop":57461,"hh":22664,"elderly65_r":0.0749,"single_hh_r":0.2893,"source_level":"emd","flood_years":[],"landslide_hist_n":0},"geometry":{"type":"Polygon","coordinates":[[[127.12227,37.16162],[127.12176,37.16597],[127.11758,37.16794],[127.11389,37.16556],[127.1144,37.16122],[127.11859,37.15925],[127.12227,37.16162]]]}},{"type":"Feature","properties":{"h3":"8830e39645fffff","emd_code":"4159758000","emd_name":"동탄8동","area_km2":0.508,"edge":false,"slope_mean":10.39,"elev_mean":57.3,"flood_hist_n":0,"flood_depth_max_m":null,"flood_risk_100y":null,"semi_basement_r":null,"elderly_alone_r":0.0252,"bldg_age30_r":null,"shelter_min_walk":4,"pop":40539,"hh":14829,"elderly65_r":0.0645,"single_hh_r":0.2152,"source_level":"emd","flood_years":[],"landslide_hist_n":0},"geometry":{"type":"Polygon","coordinates":[[[127.11122,37.1545],[127.11072,37.15884],[127.10653,37.16081],[127.10285,37.15843],[127.10336,37.15409],[127.10754,37.15212],[127.11122,37.1545]]]}},{"type":"Feature","properties":{"h3":"8830e39647fffff","emd_code":"4159758000","emd_name":"동탄8동","area_km2":0.5082,"edge":false,"slope_mean":8.88,"elev_mean":60.3,"flood_hist_n":0,"flood_depth_max_m":null,"flood_risk_100y":null,"semi_basement_r":null,"elderly_alone_r":0.0252,"bldg_age30_r":null,"shelter_min_walk":8,"pop":40539,"hh":14829,"elderly65_r":0.0645,"single_hh_r":0.2152,"source_level":"emd","flood_years":[],"landslide_hist_n":0},"geometry":{"type":"Polygon","coordinates":[[[127.11909,37.1549],[127.11859,37.15925],[127.1144,37.16122],[127.11072,37.15884],[127.11122,37.1545],[127.11541,37.15253],[127.11909,37.1549]]]}},{"type":"Feature","properties":{"h3":"8830e39649fffff","emd_code":"4159757000","emd_name":"동탄7동","area_km2":0.5081,"edge":false,"slope_mean":6.35,"elev_mean":49.2,"flood_hist_n":0,"flood_depth_max_m":null,"flood_risk_100y":null,"semi_basement_r":null,"elderly_alone_r":0.0361,"bldg_age30_r":null,"shelter_min_walk":2,"pop":57461,"hh":22664,"elderly65_r":0.0749,"single_hh_r":0.2893,"source_level":"emd","flood_years":[],"landslide_hist_n":0},"geometry":{"type":"Polygon","coordinates":[[[127.10971,37.16753],[127.1092,37.17187],[127.10501,37.17384],[127.10133,37.17147],[127.10184,37.16712],[127.10603,37.16515],[127.10971,37.16753]]]}},{"type":"Feature","properties":{"h3":"8830e3964bfffff","emd_code":"4159757000","emd_name":"동탄7동","area_km2":0.5082,"edge":false,"slope_mean":8.27,"elev_mean":63.2,"flood_hist_n":0,"flood_depth_max_m":null,"flood_risk_100y":null,"semi_basement_r":null,"elderly_alone_r":0.0361,"bldg_age30_r":null,"shelter_min_walk":9,"pop":57461,"hh":22664,"elderly65_r":0.0749,"single_hh_r":0.2893,"source_level":"emd","flood_years":[],"landslide_hist_n":0},"geometry":{"type":"Polygon","coordinates":[[[127.11758,37.16794],[127.11707,37.17228],[127.11288,37.17425],[127.1092,37.17187],[127.10971,37.16753],[127.11389,37.16556],[127.11758,37.16794]]]}},{"type":"Feature","properties":{"h3":"8830e3964dfffff","emd_code":"4159758000","emd_name":"동탄8동","area_km2":0.508,"edge":false,"slope_mean":7.7,"elev_mean":51.8,"flood_hist_n":0,"flood_depth_max_m":null,"flood_risk_100y":null,"semi_basement_r":null,"elderly_alone_r":0.0252,"bldg_age30_r":null,"shelter_min_walk":12,"pop":40539,"hh":14829,"elderly65_r":0.0645,"single_hh_r":0.2152,"source_level":"emd","flood_years":[],"landslide_hist_n":0},"geometry":{"type":"Polygon","coordinates":[[[127.10653,37.16081],[127.10603,37.16515],[127.10184,37.16712],[127.09816,37.16475],[127.09866,37.1604],[127.10285,37.15843],[127.10653,37.16081]]]}},{"type":"Feature","properties":{"h3":"8830e39651fffff","emd_code":"4159759000","emd_name":"동탄9동","area_km2":0.5084,"edge":false,"slope_mean":10.9,"elev_mean":97.4,"flood_hist_n":0,"flood_depth_max_m":null,"flood_risk_100y":null,"semi_basement_r":null,"elderly_alone_r":0.0275,"bldg_age30_r":null,"shelter_min_walk":7,"pop":60299,"hh":23110,"elderly65_r":0.0636,"single_hh_r":0.2531,"source_level":"emd","flood_years":[],"landslide_hist_n":0},"geometry":{"type":"Polygon","coordinates":[[[127.13332,37.16875],[127.13282,37.17309],[127.12863,37.17506],[127.12494,37.17269],[127.12545,37.16834],[127.12964,37.16637],[127.13332,37.16875]]]}},{"type":"Feature","properties":{"h3":"8830e39653fffff","emd_code":"4159759000","emd_name":"동탄9동","area_km2":0.5085,"edge":false,"slope_mean":13.12,"elev_mean":113.3,"flood_hist_n":0,"flood_depth_max_m":null,"flood_risk_100y":null,"semi_basement_r":null,"elderly_alone_r":0.0275,"bldg_age30_r":null,"shelter_min_walk":14,"pop":60299,"hh":23110,"elderly65_r":0.0636,"single_hh_r":0.2531,"source_level":"emd","flood_years":[],"landslide_hist_n":0},"geometry":{"type":"Polygon","coordinates":[[[127.14119,37.16915],[127.14069,37.1735],[127.1365,37.17547],[127.13282,37.17309],[127.13332,37.16875],[127.13751,37.16678],[127.14119,37.16915]]]}},{"type":"Feature","properties":{"h3":"8830e39655fffff","emd_code":"4159757000","emd_name":"동탄7동","area_km2":0.5083,"edge":false,"slope_mean":14.47,"elev_mean":108.1,"flood_hist_n":0,"flood_depth_max_m":null,"flood_risk_100y":null,"semi_basement_r":null,"elderly_alone_r":0.0361,"bldg_age30_r":null,"shelter_min_walk":5,"pop":57461,"hh":22664,"elderly65_r":0.0749,"single_hh_r":0.2893,"source_level":"emd","flood_years":[],"landslide_hist_n":0},"geometry":{"type":"Polygon","coordinates":[[[127.13014,37.16203],[127.12964,37.16637],[127.12545,37.16834],[127.12176,37.16597],[127.12227,37.16162],[127.12646,37.15965],[127.13014,37.16203]]]}},{"type":"Feature","properties":{"h3":"8830e39657fffff","emd_code":"4159757000","emd_name":"동탄7동","area_km2":0.5084,"edge":true,"slope_mean":13.16,"elev_mean":127.3,"flood_hist_n":0,"flood_depth_max_m":null,"flood_risk_100y":null,"semi_basement_r":null,"elderly_alone_r":0.0361,"bldg_age30_r":null,"shelter_min_walk":9,"pop":57461,"hh":22664,"elderly65_r":0.0749,"single_hh_r":0.2893,"source_level":"emd","flood_years":[],"landslide_hist_n":0},"geometry":{"type":"Polygon","coordinates":[[[127.13801,37.16243],[127.13751,37.16678],[127.13332,37.16875],[127.12964,37.16637],[127.13014,37.16203],[127.13433,37.16006],[127.13801,37.16243]]]}},{"type":"Feature","properties":{"h3":"8830e39659fffff","emd_code":"4159757000","emd_name":"동탄7동","area_km2":0.5083,"edge":false,"slope_mean":9.91,"elev_mean":71.2,"flood_hist_n":0,"flood_depth_max_m":null,"flood_risk_100y":null,"semi_basement_r":null,"elderly_alone_r":0.0361,"bldg_age30_r":null,"shelter_min_walk":8,"pop":57461,"hh":22664,"elderly65_r":0.0749,"single_hh_r":0.2893,"source_level":"emd","flood_years":[],"landslide_hist_n":0},"geometry":{"type":"Polygon","coordinates":[[[127.12863,37.17506],[127.12812,37.17941],[127.12393,37.18138],[127.12025,37.179],[127.12075,37.17466],[127.12494,37.17269],[127.12863,37.17506]]]}},{"type":"Feature","properties":{"h3":"8830e3965bfffff","emd_code":"4159759000","emd_name":"동탄9동","area_km2":0.5085,"edge":false,"slope_mean":9.73,"elev_mean":74.0,"flood_hist_n":0,"flood_depth_max_m":null,"flood_risk_100y":null,"semi_basement_r":null,"elderly_alone_r":0.0275,"bldg_age30_r":null,"shelter_min_walk":18,"pop":60299,"hh":23110,"elderly65_r":0.0636,"single_hh_r":0.2531,"source_level":"emd","flood_years":[],"landslide_hist_n":0},"geometry":{"type":"Polygon","coordinates":[[[127.1365,37.17547],[127.136,37.17981],[127.13181,37.18178],[127.12812,37.17941],[127.12863,37.17506],[127.13282,37.17309],[127.1365,37.17547]]]}},{"type":"Feature","properties":{"h3":"8830e3965dfffff","emd_code":"4159757000","emd_name":"동탄7동","area_km2":0.5083,"edge":false,"slope_mean":11.34,"elev_mean":82.1,"flood_hist_n":0,"flood_depth_max_m":null,"flood_risk_100y":null,"semi_basement_r":null,"elderly_alone_r":0.0361,"bldg_age30_r":null,"shelter_min_walk":10,"pop":57461,"hh":22664,"elderly65_r":0.0749,"single_hh_r":0.2893,"source_level":"emd","flood_years":[],"landslide_hist_n":0},"geometry":{"type":"Polygon","coordinates":[[[127.12545,37.16834],[127.12494,37.17269],[127.12075,37.17466],[127.11707,37.17228],[127.11758,37.16794],[127.12176,37.16597],[127.12545,37.16834]]]}},{"type":"Feature","properties":{"h3":"8830e39661fffff","emd_code":"4159758000","emd_name":"동탄8동","area_km2":0.508,"edge":false,"slope_mean":16.66,"elev_mean":102.6,"flood_hist_n":0,"flood_depth_max_m":null,"flood_risk_100y":null,"semi_basement_r":null,"elderly_alone_r":0.0252,"bldg_age30_r":null,"shelter_min_walk":24,"pop":40539,"hh":14829,"elderly65_r":0.0645,"single_hh_r":0.2152,"source_level":"emd","flood_years":[],"landslide_hist_n":0},"geometry":{"type":"Polygon","coordinates":[[[127.11274,37.14146],[127.11223,37.14581],[127.10805,37.14778],[127.10437,37.1454],[127.10487,37.14106],[127.10906,37.13909],[127.11274,37.14146]]]}},{"type":"Feature","properties":{"h3":"8830e39663fffff","emd_code":"4159758000","emd_name":"동탄8동","area_km2":0.5081,"edge":true,"slope_mean":16.02,"elev_mean":101.9,"flood_hist_n":0,"flood_depth_max_m":null,"flood_risk_100y":null,"semi_basement_r":null,"elderly_alone_r":0.0252,"bldg_age30_r":null,"shelter_min_walk":25,"pop":40539,"hh":14829,"elderly65_r":0.0645,"single_hh_r":0.2152,"source_level":"emd","flood_years":[],"landslide_hist_n":0},"geometry":{"type":"Polygon","coordinates":[[[127.12061,37.14187],[127.1201,37.14621],[127.11592,37.14818],[127.11223,37.14581],[127.11274,37.14146],[127.11693,37.13949],[127.12061,37.14187]]]}},{"type":"Feature","properties":{"h3":"8830e39669fffff","emd_code":"4159758000","emd_name":"동탄8동","area_km2":0.508,"edge":false,"slope_mean":16.72,"elev_mean":89.5,"flood_hist_n":0,"flood_depth_max_m":null,"flood_risk_100y":null,"semi_basement_r":null,"elderly_alone_r":0.0252,"bldg_age30_r":null,"shelter_min_walk":15,"pop":40539,"hh":14829,"elderly65_r":0.0645,"single_hh_r":0.2152,"source_level":"emd","flood_years":[],"landslide_hist_n":0},"geometry":{"type":"Polygon","coordinates":[[[127.10805,37.14778],[127.10754,37.15212],[127.10336,37.15409],[127.09968,37.15172],[127.10018,37.14737],[127.10437,37.1454],[127.10805,37.14778]]]}},{"type":"Feature","properties":{"h3":"8830e3966bfffff","emd_code":"4159758000","emd_name":"동탄8동","area_km2":0.5081,"edge":false,"slope_mean":14.51,"elev_mean":75.1,"flood_hist_n":0,"flood_depth_max_m":null,"flood_risk_100y":null,"semi_basement_r":null,"elderly_alone_r":0.0252,"bldg_age30_r":null,"shelter_min_walk":13,"pop":40539,"hh":14829,"elderly65_r":0.0645,"single_hh_r":0.2152,"source_level":"emd","flood_years":[],"landslide_hist_n":0},"geometry":{"type":"Polygon","coordinates":[[[127.11592,37.14818],[127.11541,37.15253],[127.11122,37.1545],[127.10754,37.15212],[127.10805,37.14778],[127.11223,37.14581],[127.11592,37.14818]]]}},{"type":"Feature","properties":{"h3":"8830e3966dfffff","emd_code":"4159758000","emd_name":"동탄8동","area_km2":0.5079,"edge":true,"slope_mean":17.13,"elev_mean":108.8,"flood_hist_n":0,"flood_depth_max_m":null,"flood_risk_100y":null,"semi_basement_r":null,"elderly_alone_r":0.0252,"bldg_age30_r":null,"shelter_min_walk":18,"pop":40539,"hh":14829,"elderly65_r":0.0645,"single_hh_r":0.2152,"source_level":"emd","flood_years":[],"landslide_hist_n":0},"geometry":{"type":"Polygon","coordinates":[[[127.10487,37.14106],[127.10437,37.1454],[127.10018,37.14737],[127.0965,37.145],[127.09701,37.14065],[127.10119,37.13868],[127.10487,37.14106]]]}}]}