{"type":"FeatureCollection","name":"grid_41595_h3r8","meta":{"sgg_code":"41595","h3_res":8,"n_cells":72,"dem":"Copernicus GLO-30 (bbox-mean)","crs":"EPSG:4326","jumin_basis":"2026-07","flood_src":"행안부 침수흔적도(전국, 재난안전데이터공유플랫폼)","landslide_src":"행안부 산사태 발생이력"},"features":[{"type":"Feature","properties":{"h3":"8830e02c03fffff","emd_code":"4159551000","emd_name":"진안동","area_km2":0.5073,"edge":true,"slope_mean":3.55,"elev_mean":32.1,"flood_hist_n":0,"flood_depth_max_m":null,"flood_risk_100y":null,"semi_basement_r":null,"elderly_alone_r":0.0603,"bldg_age30_r":null,"shelter_min_walk":11,"pop":50256,"hh":23808,"elderly65_r":0.1113,"single_hh_r":0.4544,"source_level":"emd","flood_years":[],"landslide_hist_n":0},"geometry":{"type":"Polygon","coordinates":[[[127.0516,37.19072],[127.05109,37.19507],[127.0469,37.19703],[127.04323,37.19465],[127.04374,37.19031],[127.04792,37.18835],[127.0516,37.19072]]]}},{"type":"Feature","properties":{"h3":"8830e02c09fffff","emd_code":"4159552000","emd_name":"병점1동","area_km2":0.5072,"edge":true,"slope_mean":3.97,"elev_mean":23.9,"flood_hist_n":1,"flood_depth_max_m":0.26,"flood_risk_100y":null,"semi_basement_r":null,"elderly_alone_r":0.0622,"bldg_age30_r":null,"shelter_min_walk":2,"pop":36317,"hh":16117,"elderly65_r":0.126,"single_hh_r":0.3847,"source_level":"emd","flood_years":[2020],"landslide_hist_n":0},"geometry":{"type":"Polygon","coordinates":[[[127.03904,37.19662],[127.03853,37.20096],[127.03435,37.20292],[127.03067,37.20054],[127.03118,37.1962],[127.03537,37.19424],[127.03904,37.19662]]]}},{"type":"Feature","properties":{"h3":"8830e02c0bfffff","emd_code":"4159552000","emd_name":"병점1동","area_km2":0.5073,"edge":false,"slope_mean":4.62,"elev_mean":29.7,"flood_hist_n":0,"flood_depth_max_m":null,"flood_risk_100y":null,"semi_basement_r":null,"elderly_alone_r":0.0622,"bldg_age30_r":null,"shelter_min_walk":2,"pop":36317,"hh":16117,"elderly65_r":0.126,"single_hh_r":0.3847,"source_level":"emd","flood_years":[],"landslide_hist_n":0},"geometry":{"type":"Polygon","coordinates":[[[127.0469,37.19703],[127.0464,37.20137],[127.04221,37.20334],[127.03853,37.20096],[127.03904,37.19662],[127.04323,37.19465],[127.0469,37.19703]]]}},{"type":"Feature","properties":{"h3":"8830e02c19fffff","emd_code":"4159551000","emd_name":"진안동","area_km2":0.5074,"edge":true,"slope_mean":8.1,"elev_mean":55.0,"flood_hist_n":0,"flood_depth_max_m":null,"flood_risk_100y":null,"semi_basement_r":null,"elderly_alone_r":0.0603,"bldg_age30_r":null,"shelter_min_walk":3,"pop":50256,"hh":23808,"elderly65_r":0.1113,"single_hh_r":0.4544,"source_level":"emd","flood_years":[],"landslide_hist_n":0},"geometry":{"type":"Polygon","coordinates":[[[127.05794,37.20416],[127.05743,37.2085],[127.05324,37.21047],[127.04956,37.20809],[127.05007,37.20375],[127.05426,37.20178],[127.05794,37.20416]]]}},{"type":"Feature","properties":{"h3":"8830e02c1dfffff","emd_code":"4159551000","emd_name":"진안동","area_km2":0.5074,"edge":false,"slope_mean":4.68,"elev_mean":37.6,"flood_hist_n":0,"flood_depth_max_m":null,"flood_risk_100y":null,"semi_basement_r":null,"elderly_alone_r":0.0603,"bldg_age30_r":null,"shelter_min_walk":1,"pop":50256,"hh":23808,"elderly65_r":0.1113,"single_hh_r":0.4544,"source_level":"emd","flood_years":[],"landslide_hist_n":0},"geometry":{"type":"Polygon","coordinates":[[[127.05477,37.19744],[127.05426,37.20178],[127.05007,37.20375],[127.0464,37.20137],[127.0469,37.19703],[127.05109,37.19507],[127.05477,37.19744]]]}},{"type":"Feature","properties":{"h3":"8830e02c41fffff","emd_code":"4159555000","emd_name":"화산동","area_km2":0.507,"edge":false,"slope_mean":4.32,"elev_mean":19.0,"flood_hist_n":0,"flood_depth_max_m":null,"flood_risk_100y":null,"semi_basement_r":null,"elderly_alone_r":0.0978,"bldg_age30_r":null,"shelter_min_walk":1,"pop":29209,"hh":13779,"elderly65_r":0.1761,"single_hh_r":0.4151,"source_level":"emd","flood_years":[],"landslide_hist_n":0},"geometry":{"type":"Polygon","coordinates":[[[127.02649,37.20251],[127.02597,37.20685],[127.02179,37.20881],[127.01811,37.20643],[127.01863,37.20209],[127.02281,37.20013],[127.02649,37.20251]]]}},{"type":"Feature","properties":{"h3":"8830e02c43fffff","emd_code":"4159552000","emd_name":"병점1동","area_km2":0.5071,"edge":false,"slope_mean":2.51,"elev_mean":19.0,"flood_hist_n":0,"flood_depth_max_m":null,"flood_risk_100y":null,"semi_basement_r":null,"elderly_alone_r":0.0622,"bldg_age30_r":null,"shelter_min_walk":11,"pop":36317,"hh":16117,"elderly65_r":0.126,"single_hh_r":0.3847,"source_level":"emd","flood_years":[],"landslide_hist_n":0},"geometry":{"type":"Polygon","coordinates":[[[127.03435,37.20292],[127.03384,37.20726],[127.02965,37.20923],[127.02597,37.20685],[127.02649,37.20251],[127.03067,37.20054],[127.03435,37.20292]]]}},{"type":"Feature","properties":{"h3":"8830e02c45fffff","emd_code":"4159555000","emd_name":"화산동","area_km2":0.5069,"edge":false,"slope_mean":5.02,"elev_mean":20.7,"flood_hist_n":0,"flood_depth_max_m":null,"flood_risk_100y":null,"semi_basement_r":null,"elderly_alone_r":0.0978,"bldg_age30_r":null,"shelter_min_walk":8,"pop":29209,"hh":13779,"elderly65_r":0.1761,"single_hh_r":0.4151,"source_level":"emd","flood_years":[],"landslide_hist_n":0},"geometry":{"type":"Polygon","coordinates":[[[127.02332,37.19579],[127.02281,37.20013],[127.01863,37.20209],[127.01495,37.19972],[127.01546,37.19537],[127.01965,37.19341],[127.02332,37.19579]]]}},{"type":"Feature","properties":{"h3":"8830e02c47fffff","emd_code":"4159555000","emd_name":"화산동","area_km2":0.507,"edge":true,"slope_mean":3.21,"elev_mean":21.9,"flood_hist_n":0,"flood_depth_max_m":null,"flood_risk_100y":null,"semi_basement_r":null,"elderly_alone_r":0.0978,"bldg_age30_r":null,"shelter_min_walk":5,"pop":29209,"hh":13779,"elderly65_r":0.1761,"single_hh_r":0.4151,"source_level":"emd","flood_years":[],"landslide_hist_n":0},"geometry":{"type":"Polygon","coordinates":[[[127.03118,37.1962],[127.03067,37.20054],[127.02649,37.20251],[127.02281,37.20013],[127.02332,37.19579],[127.02751,37.19383],[127.03118,37.1962]]]}},{"type":"Feature","properties":{"h3":"8830e02c49fffff","emd_code":"4159555000","emd_name":"화산동","area_km2":0.5069,"edge":false,"slope_mean":5.66,"elev_mean":27.4,"flood_hist_n":0,"flood_depth_max_m":null,"flood_risk_100y":null,"semi_basement_r":null,"elderly_alone_r":0.0978,"bldg_age30_r":null,"shelter_min_walk":11,"pop":29209,"hh":13779,"elderly65_r":0.1761,"single_hh_r":0.4151,"source_level":"emd","flood_years":[],"landslide_hist_n":0},"geometry":{"type":"Polygon","coordinates":[[[127.02179,37.20881],[127.02128,37.21315],[127.01709,37.21512],[127.01342,37.21274],[127.01393,37.2084],[127.01811,37.20643],[127.02179,37.20881]]]}},{"type":"Feature","properties":{"h3":"8830e02c4bfffff","emd_code":"4159555000","emd_name":"화산동","area_km2":0.5071,"edge":false,"slope_mean":2.77,"elev_mean":20.0,"flood_hist_n":0,"flood_depth_max_m":null,"flood_risk_100y":null,"semi_basement_r":null,"elderly_alone_r":0.0978,"bldg_age30_r":null,"shelter_min_walk":11,"pop":29209,"hh":13779,"elderly65_r":0.1761,"single_hh_r":0.4151,"source_level":"emd","flood_years":[],"landslide_hist_n":0},"geometry":{"type":"Polygon","coordinates":[[[127.02965,37.20923],[127.02914,37.21357],[127.02495,37.21553],[127.02128,37.21315],[127.02179,37.20881],[127.02597,37.20685],[127.02965,37.20923]]]}},{"type":"Feature","properties":{"h3":"8830e02c4dfffff","emd_code":"4159555000","emd_name":"화산동","area_km2":0.5069,"edge":false,"slope_mean":3.11,"elev_mean":21.9,"flood_hist_n":0,"flood_depth_max_m":null,"flood_risk_100y":null,"semi_basement_r":null,"elderly_alone_r":0.0978,"bldg_age30_r":null,"shelter_min_walk":8,"pop":29209,"hh":13779,"elderly65_r":0.1761,"single_hh_r":0.4151,"source_level":"emd","flood_years":[],"landslide_hist_n":0},"geometry":{"type":"Polygon","coordinates":[[[127.01863,37.20209],[127.01811,37.20643],[127.01393,37.2084],[127.01026,37.20602],[127.01077,37.20168],[127.01495,37.19972],[127.01863,37.20209]]]}},{"type":"Feature","properties":{"h3":"8830e02c51fffff","emd_code":"4159551000","emd_name":"진안동","area_km2":0.5073,"edge":false,"slope_mean":5.56,"elev_mean":39.8,"flood_hist_n":0,"flood_depth_max_m":null,"flood_risk_100y":null,"semi_basement_r":null,"elderly_alone_r":0.0603,"bldg_age30_r":null,"shelter_min_walk":3,"pop":50256,"hh":23808,"elderly65_r":0.1113,"single_hh_r":0.4544,"source_level":"emd","flood_years":[],"landslide_hist_n":0},"geometry":{"type":"Polygon","coordinates":[[[127.04538,37.21006],[127.04487,37.2144],[127.04068,37.21636],[127.037,37.21398],[127.03751,37.20964],[127.0417,37.20768],[127.04538,37.21006]]]}},{"type":"Feature","properties":{"h3":"8830e02c53fffff","emd_code":"4159553000","emd_name":"병점2동","area_km2":0.5074,"edge":false,"slope_mean":5.58,"elev_mean":42.4,"flood_hist_n":0,"flood_depth_max_m":null,"flood_risk_100y":null,"semi_basement_r":null,"elderly_alone_r":0.0874,"bldg_age30_r":null,"shelter_min_walk":3,"pop":21990,"hh":8784,"elderly65_r":0.1416,"single_hh_r":0.2872,"source_level":"emd","flood_years":[],"landslide_hist_n":0},"geometry":{"type":"Polygon","coordinates":[[[127.05324,37.21047],[127.05273,37.21481],[127.04854,37.21678],[127.04487,37.2144],[127.04538,37.21006],[127.04956,37.20809],[127.05324,37.21047]]]}},{"type":"Feature","properties":{"h3":"8830e02c55fffff","emd_code":"4159552000","emd_name":"병점1동","area_km2":0.5072,"edge":false,"slope_mean":5.2,"elev_mean":29.2,"flood_hist_n":0,"flood_depth_max_m":null,"flood_risk_100y":null,"semi_basement_r":null,"elderly_alone_r":0.0622,"bldg_age30_r":null,"shelter_min_walk":1,"pop":36317,"hh":16117,"elderly65_r":0.126,"single_hh_r":0.3847,"source_level":"emd","flood_years":[],"landslide_hist_n":0},"geometry":{"type":"Polygon","coordinates":[[[127.04221,37.20334],[127.0417,37.20768],[127.03751,37.20964],[127.03384,37.20726],[127.03435,37.20292],[127.03853,37.20096],[127.04221,37.20334]]]}},{"type":"Feature","properties":{"h3":"8830e02c57fffff","emd_code":"4159553000","emd_name":"병점2동","area_km2":0.5073,"edge":false,"slope_mean":9.27,"elev_mean":50.8,"flood_hist_n":0,"flood_depth_max_m":null,"flood_risk_100y":null,"semi_basement_r":null,"elderly_alone_r":0.0874,"bldg_age30_r":null,"shelter_min_walk":5,"pop":21990,"hh":8784,"elderly65_r":0.1416,"single_hh_r":0.2872,"source_level":"emd","flood_years":[],"landslide_hist_n":0},"geometry":{"type":"Polygon","coordinates":[[[127.05007,37.20375],[127.04956,37.20809],[127.04538,37.21006],[127.0417,37.20768],[127.04221,37.20334],[127.0464,37.20137],[127.05007,37.20375]]]}},{"type":"Feature","properties":{"h3":"8830e02c59fffff","emd_code":"4159551000","emd_name":"진안동","area_km2":0.5072,"edge":false,"slope_mean":3.38,"elev_mean":28.5,"flood_hist_n":0,"flood_depth_max_m":null,"flood_risk_100y":null,"semi_basement_r":null,"elderly_alone_r":0.0603,"bldg_age30_r":null,"shelter_min_walk":5,"pop":50256,"hh":23808,"elderly65_r":0.1113,"single_hh_r":0.4544,"source_level":"emd","flood_years":[],"landslide_hist_n":0},"geometry":{"type":"Polygon","coordinates":[[[127.04068,37.21636],[127.04017,37.2207],[127.03598,37.22267],[127.03231,37.22029],[127.03282,37.21595],[127.037,37.21398],[127.04068,37.21636]]]}},{"type":"Feature","properties":{"h3":"8830e02c5bfffff","emd_code":"4159551000","emd_name":"진안동","area_km2":0.5073,"edge":false,"slope_mean":4.5,"elev_mean":31.8,"flood_hist_n":0,"flood_depth_max_m":null,"flood_risk_100y":null,"semi_basement_r":null,"elderly_alone_r":0.0603,"bldg_age30_r":null,"shelter_min_walk":5,"pop":50256,"hh":23808,"elderly65_r":0.1113,"single_hh_r":0.4544,"source_level":"emd","flood_years":[],"landslide_hist_n":0},"geometry":{"type":"Polygon","coordinates":[[[127.04854,37.21678],[127.04804,37.22112],[127.04385,37.22308],[127.04017,37.2207],[127.04068,37.21636],[127.04487,37.2144],[127.04854,37.21678]]]}},{"type":"Feature","properties":{"h3":"8830e02c5dfffff","emd_code":"4159551000","emd_name":"진안동","area_km2":0.5072,"edge":false,"slope_mean":4.11,"elev_mean":28.2,"flood_hist_n":0,"flood_depth_max_m":null,"flood_risk_100y":null,"semi_basement_r":null,"elderly_alone_r":0.0603,"bldg_age30_r":null,"shelter_min_walk":4,"pop":50256,"hh":23808,"elderly65_r":0.1113,"single_hh_r":0.4544,"source_level":"emd","flood_years":[],"landslide_hist_n":0},"geometry":{"type":"Polygon","coordinates":[[[127.03751,37.20964],[127.037,37.21398],[127.03282,37.21595],[127.02914,37.21357],[127.02965,37.20923],[127.03384,37.20726],[127.03751,37.20964]]]}},{"type":"Feature","properties":{"h3":"8830e02c69fffff","emd_code":"4159555000","emd_name":"화산동","area_km2":0.5069,"edge":true,"slope_mean":8.01,"elev_mean":36.9,"flood_hist_n":0,"flood_depth_max_m":null,"flood_risk_100y":null,"semi_basement_r":null,"elderly_alone_r":0.0978,"bldg_age30_r":null,"shelter_min_walk":19,"pop":29209,"hh":13779,"elderly65_r":0.1761,"single_hh_r":0.4151,"source_level":"emd","flood_years":[],"landslide_hist_n":0},"geometry":{"type":"Polygon","coordinates":[[[127.02016,37.18907],[127.01965,37.19341],[127.01546,37.19537],[127.01179,37.193],[127.0123,37.18866],[127.01648,37.18669],[127.02016,37.18907]]]}},{"type":"Feature","properties":{"h3":"8830e02cc9fffff","emd_code":"4159554000","emd_name":"반월동","area_km2":0.5077,"edge":true,"slope_mean":5.21,"elev_mean":61.5,"flood_hist_n":0,"flood_depth_max_m":null,"flood_risk_100y":null,"semi_basement_r":null,"elderly_alone_r":0.0313,"bldg_age30_r":null,"shelter_min_walk":8,"pop":37273,"hh":13342,"elderly65_r":0.0934,"single_hh_r":0.1902,"source_level":"emd","flood_years":[],"landslide_hist_n":0},"geometry":{"type":"Polygon","coordinates":[[[127.07684,37.21171],[127.07634,37.21605],[127.07215,37.21802],[127.06847,37.21564],[127.06898,37.2113],[127.07316,37.20933],[127.07684,37.21171]]]}},{"type":"Feature","properties":{"h3":"8830e02e07fffff","emd_code":"4159555000","emd_name":"화산동","area_km2":0.5069,"edge":true,"slope_mean":1.72,"elev_mean":21.0,"flood_hist_n":0,"flood_depth_max_m":null,"flood_risk_100y":null,"semi_basement_r":null,"elderly_alone_r":0.0978,"bldg_age30_r":null,"shelter_min_walk":22,"pop":29209,"hh":13779,"elderly65_r":0.1761,"single_hh_r":0.4151,"source_level":"emd","flood_years":[],"landslide_hist_n":0},"geometry":{"type":"Polygon","coordinates":[[[127.01556,37.22814],[127.01505,37.23248],[127.01086,37.23444],[127.00719,37.23206],[127.0077,37.22772],[127.01188,37.22576],[127.01556,37.22814]]]}},{"type":"Feature","properties":{"h3":"8830e02e17fffff","emd_code":"4159551000","emd_name":"진안동","area_km2":0.5072,"edge":true,"slope_mean":3.62,"elev_mean":25.8,"flood_hist_n":0,"flood_depth_max_m":null,"flood_risk_100y":null,"semi_basement_r":null,"elderly_alone_r":0.0603,"bldg_age30_r":null,"shelter_min_walk":3,"pop":50256,"hh":23808,"elderly65_r":0.1113,"single_hh_r":0.4544,"source_level":"emd","flood_years":[],"landslide_hist_n":0},"geometry":{"type":"Polygon","coordinates":[[[127.03445,37.23569],[127.03394,37.24003],[127.02975,37.242],[127.02608,37.23962],[127.02659,37.23528],[127.03077,37.23331],[127.03445,37.23569]]]}},{"type":"Feature","properties":{"h3":"8830e02e21fffff","emd_code":"4159555000","emd_name":"화산동","area_km2":0.5068,"edge":false,"slope_mean":11.37,"elev_mean":75.5,"flood_hist_n":0,"flood_depth_max_m":null,"flood_risk_100y":null,"semi_basement_r":null,"elderly_alone_r":0.0978,"bldg_age30_r":null,"shelter_min_walk":13,"pop":29209,"hh":13779,"elderly65_r":0.1761,"single_hh_r":0.4151,"source_level":"emd","flood_years":[],"landslide_hist_n":0},"geometry":{"type":"Polygon","coordinates":[[[127.00923,37.2147],[127.00872,37.21904],[127.00453,37.221],[127.00086,37.21862],[127.00137,37.21428],[127.00556,37.21232],[127.00923,37.2147]]]}},{"type":"Feature","properties":{"h3":"8830e02e23fffff","emd_code":"4159555000","emd_name":"화산동","area_km2":0.5069,"edge":false,"slope_mean":7.4,"elev_mean":46.2,"flood_hist_n":0,"flood_depth_max_m":null,"flood_risk_100y":null,"semi_basement_r":null,"elderly_alone_r":0.0978,"bldg_age30_r":null,"shelter_min_walk":15,"pop":29209,"hh":13779,"elderly65_r":0.1761,"single_hh_r":0.4151,"source_level":"emd","flood_years":[],"landslide_hist_n":0},"geometry":{"type":"Polygon","coordinates":[[[127.01709,37.21512],[127.01658,37.21946],[127.01239,37.22142],[127.00872,37.21904],[127.00923,37.2147],[127.01342,37.21274],[127.01709,37.21512]]]}},{"type":"Feature","properties":{"h3":"8830e02e25fffff","emd_code":"4159555000","emd_name":"화산동","area_km2":0.5067,"edge":false,"slope_mean":5.16,"elev_mean":39.3,"flood_hist_n":0,"flood_depth_max_m":null,"flood_risk_100y":null,"semi_basement_r":null,"elderly_alone_r":0.0978,"bldg_age30_r":null,"shelter_min_walk":8,"pop":29209,"hh":13779,"elderly65_r":0.1761,"single_hh_r":0.4151,"source_level":"emd","flood_years":[],"landslide_hist_n":0},"geometry":{"type":"Polygon","coordinates":[[[127.00607,37.20798],[127.00556,37.21232],[127.00137,37.21428],[126.9977,37.2119],[126.99821,37.20756],[127.0024,37.2056],[127.00607,37.20798]]]}},{"type":"Feature","properties":{"h3":"8830e02e27fffff","emd_code":"4159555000","emd_name":"화산동","area_km2":0.5068,"edge":false,"slope_mean":6.2,"elev_mean":41.2,"flood_hist_n":0,"flood_depth_max_m":null,"flood_risk_100y":null,"semi_basement_r":null,"elderly_alone_r":0.0978,"bldg_age30_r":null,"shelter_min_walk":3,"pop":29209,"hh":13779,"elderly65_r":0.1761,"single_hh_r":0.4151,"source_level":"emd","flood_years":[],"landslide_hist_n":0},"geometry":{"type":"Polygon","coordinates":[[[127.01393,37.2084],[127.01342,37.21274],[127.00923,37.2147],[127.00556,37.21232],[127.00607,37.20798],[127.01026,37.20602],[127.01393,37.2084]]]}},{"type":"Feature","properties":{"h3":"8830e02e29fffff","emd_code":"4159555000","emd_name":"화산동","area_km2":0.5067,"edge":true,"slope_mean":7.34,"elev_mean":44.0,"flood_hist_n":0,"flood_depth_max_m":null,"flood_risk_100y":null,"semi_basement_r":null,"elderly_alone_r":0.0978,"bldg_age30_r":null,"shelter_min_walk":16,"pop":29209,"hh":13779,"elderly65_r":0.1761,"single_hh_r":0.4151,"source_level":"emd","flood_years":[],"landslide_hist_n":0},"geometry":{"type":"Polygon","coordinates":[[[127.00453,37.221],[127.00402,37.22534],[126.99984,37.2273],[126.99616,37.22492],[126.99668,37.22058],[127.00086,37.21862],[127.00453,37.221]]]}},{"type":"Feature","properties":{"h3":"8830e02e2bfffff","emd_code":"4159555000","emd_name":"화산동","area_km2":0.5069,"edge":false,"slope_mean":6.38,"elev_mean":39.8,"flood_hist_n":0,"flood_depth_max_m":null,"flood_risk_100y":null,"semi_basement_r":null,"elderly_alone_r":0.0978,"bldg_age30_r":null,"shelter_min_walk":24,"pop":29209,"hh":13779,"elderly65_r":0.1761,"single_hh_r":0.4151,"source_level":"emd","flood_years":[],"landslide_hist_n":0},"geometry":{"type":"Polygon","coordinates":[[[127.01239,37.22142],[127.01188,37.22576],[127.0077,37.22772],[127.00402,37.22534],[127.00453,37.221],[127.00872,37.21904],[127.01239,37.22142]]]}},{"type":"Feature","properties":{"h3":"8830e02e2dfffff","emd_code":"4159555000","emd_name":"화산동","area_km2":0.5067,"edge":false,"slope_mean":9.82,"elev_mean":61.4,"flood_hist_n":0,"flood_depth_max_m":null,"flood_risk_100y":null,"semi_basement_r":null,"elderly_alone_r":0.0978,"bldg_age30_r":null,"shelter_min_walk":13,"pop":29209,"hh":13779,"elderly65_r":0.1761,"single_hh_r":0.4151,"source_level":"emd","flood_years":[],"landslide_hist_n":0},"geometry":{"type":"Polygon","coordinates":[[[127.00137,37.21428],[127.00086,37.21862],[126.99668,37.22058],[126.993,37.2182],[126.99352,37.21387],[126.9977,37.2119],[127.00137,37.21428]]]}},{"type":"Feature","properties":{"h3":"8830e02e31fffff","emd_code":"4159555000","emd_name":"화산동","area_km2":0.5071,"edge":false,"slope_mean":2.74,"elev_mean":19.7,"flood_hist_n":0,"flood_depth_max_m":null,"flood_risk_100y":null,"semi_basement_r":null,"elderly_alone_r":0.0978,"bldg_age30_r":null,"shelter_min_walk":19,"pop":29209,"hh":13779,"elderly65_r":0.1761,"single_hh_r":0.4151,"source_level":"emd","flood_years":[],"landslide_hist_n":0},"geometry":{"type":"Polygon","coordinates":[[[127.02812,37.22225],[127.02761,37.22659],[127.02342,37.22855],[127.01975,37.22618],[127.02026,37.22183],[127.02444,37.21987],[127.02812,37.22225]]]}},{"type":"Feature","properties":{"h3":"8830e02e33fffff","emd_code":"4159551000","emd_name":"진안동","area_km2":0.5072,"edge":false,"slope_mean":1.22,"elev_mean":20.5,"flood_hist_n":0,"flood_depth_max_m":null,"flood_risk_100y":null,"semi_basement_r":null,"elderly_alone_r":0.0603,"bldg_age30_r":null,"shelter_min_walk":16,"pop":50256,"hh":23808,"elderly65_r":0.1113,"single_hh_r":0.4544,"source_level":"emd","flood_years":[],"landslide_hist_n":0},"geometry":{"type":"Polygon","coordinates":[[[127.03598,37.22267],[127.03547,37.22701],[127.03128,37.22897],[127.02761,37.22659],[127.02812,37.22225],[127.03231,37.22029],[127.03598,37.22267]]]}},{"type":"Feature","properties":{"h3":"8830e02e35fffff","emd_code":"4159555000","emd_name":"화산동","area_km2":0.507,"edge":false,"slope_mean":3.49,"elev_mean":21.3,"flood_hist_n":0,"flood_depth_max_m":null,"flood_risk_100y":null,"semi_basement_r":null,"elderly_alone_r":0.0978,"bldg_age30_r":null,"shelter_min_walk":20,"pop":29209,"hh":13779,"elderly65_r":0.1761,"single_hh_r":0.4151,"source_level":"emd","flood_years":[],"landslide_hist_n":0},"geometry":{"type":"Polygon","coordinates":[[[127.02495,37.21553],[127.02444,37.21987],[127.02026,37.22183],[127.01658,37.21946],[127.01709,37.21512],[127.02128,37.21315],[127.02495,37.21553]]]}},{"type":"Feature","properties":{"h3":"8830e02e37fffff","emd_code":"4159551000","emd_name":"진안동","area_km2":0.5071,"edge":false,"slope_mean":2.85,"elev_mean":21.3,"flood_hist_n":0,"flood_depth_max_m":null,"flood_risk_100y":null,"semi_basement_r":null,"elderly_alone_r":0.0603,"bldg_age30_r":null,"shelter_min_walk":10,"pop":50256,"hh":23808,"elderly65_r":0.1113,"single_hh_r":0.4544,"source_level":"emd","flood_years":[],"landslide_hist_n":0},"geometry":{"type":"Polygon","coordinates":[[[127.03282,37.21595],[127.03231,37.22029],[127.02812,37.22225],[127.02444,37.21987],[127.02495,37.21553],[127.02914,37.21357],[127.03282,37.21595]]]}},{"type":"Feature","properties":{"h3":"8830e02e39fffff","emd_code":"4159551000","emd_name":"진안동","area_km2":0.507,"edge":true,"slope_mean":2.07,"elev_mean":21.2,"flood_hist_n":0,"flood_depth_max_m":null,"flood_risk_100y":null,"semi_basement_r":null,"elderly_alone_r":0.0603,"bldg_age30_r":null,"shelter_min_walk":13,"pop":50256,"hh":23808,"elderly65_r":0.1113,"single_hh_r":0.4544,"source_level":"emd","flood_years":[],"landslide_hist_n":0},"geometry":{"type":"Polygon","coordinates":[[[127.02342,37.22855],[127.02291,37.2329],[127.01872,37.23486],[127.01505,37.23248],[127.01556,37.22814],[127.01975,37.22618],[127.02342,37.22855]]]}},{"type":"Feature","properties":{"h3":"8830e02e3bfffff","emd_code":"4159551000","emd_name":"진안동","area_km2":0.5071,"edge":false,"slope_mean":2.33,"elev_mean":22.5,"flood_hist_n":0,"flood_depth_max_m":null,"flood_risk_100y":null,"semi_basement_r":null,"elderly_alone_r":0.0603,"bldg_age30_r":null,"shelter_min_walk":8,"pop":50256,"hh":23808,"elderly65_r":0.1113,"single_hh_r":0.4544,"source_level":"emd","flood_years":[],"landslide_hist_n":0},"geometry":{"type":"Polygon","coordinates":[[[127.03128,37.22897],[127.03077,37.23331],[127.02659,37.23528],[127.02291,37.2329],[127.02342,37.22855],[127.02761,37.22659],[127.03128,37.22897]]]}},{"type":"Feature","properties":{"h3":"8830e02e3dfffff","emd_code":"4159555000","emd_name":"화산동","area_km2":0.507,"edge":false,"slope_mean":3.4,"elev_mean":25.2,"flood_hist_n":0,"flood_depth_max_m":null,"flood_risk_100y":null,"semi_basement_r":null,"elderly_alone_r":0.0978,"bldg_age30_r":null,"shelter_min_walk":24,"pop":29209,"hh":13779,"elderly65_r":0.1761,"single_hh_r":0.4151,"source_level":"emd","flood_years":[],"landslide_hist_n":0},"geometry":{"type":"Polygon","coordinates":[[[127.02026,37.22183],[127.01975,37.22618],[127.01556,37.22814],[127.01188,37.22576],[127.01239,37.22142],[127.01658,37.21946],[127.02026,37.22183]]]}},{"type":"Feature","properties":{"h3":"8830e02e81fffff","emd_code":"4159554000","emd_name":"반월동","area_km2":0.5076,"edge":true,"slope_mean":4.47,"elev_mean":41.1,"flood_hist_n":0,"flood_depth_max_m":null,"flood_risk_100y":null,"semi_basement_r":null,"elderly_alone_r":0.0313,"bldg_age30_r":null,"shelter_min_walk":2,"pop":37273,"hh":13342,"elderly65_r":0.0934,"single_hh_r":0.1902,"source_level":"emd","flood_years":[],"landslide_hist_n":0},"geometry":{"type":"Polygon","coordinates":[[[127.06593,37.23735],[127.06542,37.2417],[127.06123,37.24366],[127.05755,37.24128],[127.05805,37.23694],[127.06224,37.23498],[127.06593,37.23735]]]}},{"type":"Feature","properties":{"h3":"8830e02e83fffff","emd_code":"4159554000","emd_name":"반월동","area_km2":0.5078,"edge":true,"slope_mean":4.56,"elev_mean":44.7,"flood_hist_n":0,"flood_depth_max_m":null,"flood_risk_100y":null,"semi_basement_r":null,"elderly_alone_r":0.0313,"bldg_age30_r":null,"shelter_min_walk":3,"pop":37273,"hh":13342,"elderly65_r":0.0934,"single_hh_r":0.1902,"source_level":"emd","flood_years":[],"landslide_hist_n":0},"geometry":{"type":"Polygon","coordinates":[[[127.0738,37.23777],[127.07329,37.24211],[127.0691,37.24408],[127.06542,37.2417],[127.06593,37.23735],[127.07011,37.23539],[127.0738,37.23777]]]}},{"type":"Feature","properties":{"h3":"8830e02e85fffff","emd_code":"4159554000","emd_name":"반월동","area_km2":0.5076,"edge":false,"slope_mean":3.84,"elev_mean":35.6,"flood_hist_n":0,"flood_depth_max_m":null,"flood_risk_100y":null,"semi_basement_r":null,"elderly_alone_r":0.0313,"bldg_age30_r":null,"shelter_min_walk":1,"pop":37273,"hh":13342,"elderly65_r":0.0934,"single_hh_r":0.1902,"source_level":"emd","flood_years":[],"landslide_hist_n":0},"geometry":{"type":"Polygon","coordinates":[[[127.06275,37.23063],[127.06224,37.23498],[127.05805,37.23694],[127.05437,37.23456],[127.05488,37.23022],[127.05907,37.22825],[127.06275,37.23063]]]}},{"type":"Feature","properties":{"h3":"8830e02e87fffff","emd_code":"4159554000","emd_name":"반월동","area_km2":0.5077,"edge":false,"slope_mean":4.24,"elev_mean":42.8,"flood_hist_n":0,"flood_depth_max_m":null,"flood_risk_100y":null,"semi_basement_r":null,"elderly_alone_r":0.0313,"bldg_age30_r":null,"shelter_min_walk":2,"pop":37273,"hh":13342,"elderly65_r":0.0934,"single_hh_r":0.1902,"source_level":"emd","flood_years":[],"landslide_hist_n":0},"geometry":{"type":"Polygon","coordinates":[[[127.07062,37.23105],[127.07011,37.23539],[127.06593,37.23735],[127.06224,37.23498],[127.06275,37.23063],[127.06694,37.22867],[127.07062,37.23105]]]}},{"type":"Feature","properties":{"h3":"8830e02ea1fffff","emd_code":"4159554000","emd_name":"반월동","area_km2":0.5076,"edge":true,"slope_mean":6.47,"elev_mean":52.9,"flood_hist_n":0,"flood_depth_max_m":null,"flood_risk_100y":null,"semi_basement_r":null,"elderly_alone_r":0.0313,"bldg_age30_r":null,"shelter_min_walk":4,"pop":37273,"hh":13342,"elderly65_r":0.0934,"single_hh_r":0.1902,"source_level":"emd","flood_years":[],"landslide_hist_n":0},"geometry":{"type":"Polygon","coordinates":[[[127.06428,37.2176],[127.06377,37.22195],[127.05958,37.22391],[127.0559,37.22153],[127.05641,37.21719],[127.0606,37.21523],[127.06428,37.2176]]]}},{"type":"Feature","properties":{"h3":"8830e02ea3fffff","emd_code":"4159554000","emd_name":"반월동","area_km2":0.5077,"edge":false,"slope_mean":9.72,"elev_mean":72.7,"flood_hist_n":0,"flood_depth_max_m":null,"flood_risk_100y":null,"semi_basement_r":null,"elderly_alone_r":0.0313,"bldg_age30_r":null,"shelter_min_walk":12,"pop":37273,"hh":13342,"elderly65_r":0.0934,"single_hh_r":0.1902,"source_level":"emd","flood_years":[],"landslide_hist_n":0},"geometry":{"type":"Polygon","coordinates":[[[127.07215,37.21802],[127.07164,37.22236],[127.06745,37.22432],[127.06377,37.22195],[127.06428,37.2176],[127.06847,37.21564],[127.07215,37.21802]]]}},{"type":"Feature","properties":{"h3":"8830e02ea5fffff","emd_code":"4159551000","emd_name":"진안동","area_km2":0.5075,"edge":true,"slope_mean":4.72,"elev_mean":43.4,"flood_hist_n":0,"flood_depth_max_m":null,"flood_risk_100y":null,"semi_basement_r":null,"elderly_alone_r":0.0603,"bldg_age30_r":null,"shelter_min_walk":1,"pop":50256,"hh":23808,"elderly65_r":0.1113,"single_hh_r":0.4544,"source_level":"emd","flood_years":[],"landslide_hist_n":0},"geometry":{"type":"Polygon","coordinates":[[[127.06111,37.21088],[127.0606,37.21523],[127.05641,37.21719],[127.05273,37.21481],[127.05324,37.21047],[127.05743,37.2085],[127.06111,37.21088]]]}},{"type":"Feature","properties":{"h3":"8830e02ea7fffff","emd_code":"4159554000","emd_name":"반월동","area_km2":0.5076,"edge":false,"slope_mean":8.12,"elev_mean":67.4,"flood_hist_n":0,"flood_depth_max_m":null,"flood_risk_100y":null,"semi_basement_r":null,"elderly_alone_r":0.0313,"bldg_age30_r":null,"shelter_min_walk":7,"pop":37273,"hh":13342,"elderly65_r":0.0934,"single_hh_r":0.1902,"source_level":"emd","flood_years":[],"landslide_hist_n":0},"geometry":{"type":"Polygon","coordinates":[[[127.06898,37.2113],[127.06847,37.21564],[127.06428,37.2176],[127.0606,37.21523],[127.06111,37.21088],[127.0653,37.20892],[127.06898,37.2113]]]}},{"type":"Feature","properties":{"h3":"8830e02ea9fffff","emd_code":"4159554000","emd_name":"반월동","area_km2":0.5075,"edge":false,"slope_mean":3.25,"elev_mean":35.5,"flood_hist_n":0,"flood_depth_max_m":null,"flood_risk_100y":null,"semi_basement_r":null,"elderly_alone_r":0.0313,"bldg_age30_r":null,"shelter_min_walk":8,"pop":37273,"hh":13342,"elderly65_r":0.0934,"single_hh_r":0.1902,"source_level":"emd","flood_years":[],"landslide_hist_n":0},"geometry":{"type":"Polygon","coordinates":[[[127.05958,37.22391],[127.05907,37.22825],[127.05488,37.23022],[127.0512,37.22784],[127.05171,37.2235],[127.0559,37.22153],[127.05958,37.22391]]]}},{"type":"Feature","properties":{"h3":"8830e02eabfffff","emd_code":"4159554000","emd_name":"반월동","area_km2":0.5076,"edge":false,"slope_mean":4.35,"elev_mean":42.9,"flood_hist_n":0,"flood_depth_max_m":null,"flood_risk_100y":null,"semi_basement_r":null,"elderly_alone_r":0.0313,"bldg_age30_r":null,"shelter_min_walk":10,"pop":37273,"hh":13342,"elderly65_r":0.0934,"single_hh_r":0.1902,"source_level":"emd","flood_years":[],"landslide_hist_n":0},"geometry":{"type":"Polygon","coordinates":[[[127.06745,37.22432],[127.06694,37.22867],[127.06275,37.23063],[127.05907,37.22825],[127.05958,37.22391],[127.06377,37.22195],[127.06745,37.22432]]]}},{"type":"Feature","properties":{"h3":"8830e02eadfffff","emd_code":"4159551000","emd_name":"진안동","area_km2":0.5075,"edge":false,"slope_mean":3.81,"elev_mean":38.0,"flood_hist_n":0,"flood_depth_max_m":null,"flood_risk_100y":null,"semi_basement_r":null,"elderly_alone_r":0.0603,"bldg_age30_r":null,"shelter_min_walk":1,"pop":50256,"hh":23808,"elderly65_r":0.1113,"single_hh_r":0.4544,"source_level":"emd","flood_years":[],"landslide_hist_n":0},"geometry":{"type":"Polygon","coordinates":[[[127.05641,37.21719],[127.0559,37.22153],[127.05171,37.2235],[127.04804,37.22112],[127.04854,37.21678],[127.05273,37.21481],[127.05641,37.21719]]]}},{"type":"Feature","properties":{"h3":"8830e02eb1fffff","emd_code":"4159554000","emd_name":"반월동","area_km2":0.5079,"edge":true,"slope_mean":8.45,"elev_mean":69.6,"flood_hist_n":0,"flood_depth_max_m":null,"flood_risk_100y":null,"semi_basement_r":null,"elderly_alone_r":0.0313,"bldg_age30_r":null,"shelter_min_walk":15,"pop":37273,"hh":13342,"elderly65_r":0.0934,"single_hh_r":0.1902,"source_level":"emd","flood_years":[],"landslide_hist_n":0},"geometry":{"type":"Polygon","coordinates":[[[127.08319,37.22515],[127.08268,37.2295],[127.07849,37.23146],[127.07481,37.22908],[127.07532,37.22474],[127.07951,37.22277],[127.08319,37.22515]]]}},{"type":"Feature","properties":{"h3":"8830e02ebdfffff","emd_code":"4159554000","emd_name":"반월동","area_km2":0.5077,"edge":false,"slope_mean":5.31,"elev_mean":51.3,"flood_hist_n":0,"flood_depth_max_m":null,"flood_risk_100y":null,"semi_basement_r":null,"elderly_alone_r":0.0313,"bldg_age30_r":null,"shelter_min_walk":13,"pop":37273,"hh":13342,"elderly65_r":0.0934,"single_hh_r":0.1902,"source_level":"emd","flood_years":[],"landslide_hist_n":0},"geometry":{"type":"Polygon","coordinates":[[[127.07532,37.22474],[127.07481,37.22908],[127.07062,37.23105],[127.06694,37.22867],[127.06745,37.22432],[127.07164,37.22236],[127.07532,37.22474]]]}},{"type":"Feature","properties":{"h3":"8830e02ec5fffff","emd_code":"4159551000","emd_name":"진안동","area_km2":0.5074,"edge":false,"slope_mean":2.84,"elev_mean":26.4,"flood_hist_n":0,"flood_depth_max_m":null,"flood_risk_100y":null,"semi_basement_r":null,"elderly_alone_r":0.0603,"bldg_age30_r":null,"shelter_min_walk":6,"pop":50256,"hh":23808,"elderly65_r":0.1113,"single_hh_r":0.4544,"source_level":"emd","flood_years":[],"landslide_hist_n":0},"geometry":{"type":"Polygon","coordinates":[[[127.04549,37.24283],[127.04498,37.24717],[127.04079,37.24914],[127.03711,37.24676],[127.03762,37.24241],[127.04181,37.24045],[127.04549,37.24283]]]}},{"type":"Feature","properties":{"h3":"8830e02ee1fffff","emd_code":"4159551000","emd_name":"진안동","area_km2":0.5074,"edge":false,"slope_mean":2.3,"elev_mean":25.8,"flood_hist_n":0,"flood_depth_max_m":null,"flood_risk_100y":null,"semi_basement_r":null,"elderly_alone_r":0.0603,"bldg_age30_r":null,"shelter_min_walk":7,"pop":50256,"hh":23808,"elderly65_r":0.1113,"single_hh_r":0.4544,"source_level":"emd","flood_years":[],"landslide_hist_n":0},"geometry":{"type":"Polygon","coordinates":[[[127.04702,37.2298],[127.04651,37.23415],[127.04232,37.23611],[127.03864,37.23373],[127.03915,37.22939],[127.04334,37.22742],[127.04702,37.2298]]]}},{"type":"Feature","properties":{"h3":"8830e02ee3fffff","emd_code":"4159554000","emd_name":"반월동","area_km2":0.5075,"edge":false,"slope_mean":3.85,"elev_mean":30.9,"flood_hist_n":0,"flood_depth_max_m":null,"flood_risk_100y":null,"semi_basement_r":null,"elderly_alone_r":0.0313,"bldg_age30_r":null,"shelter_min_walk":9,"pop":37273,"hh":13342,"elderly65_r":0.0934,"single_hh_r":0.1902,"source_level":"emd","flood_years":[],"landslide_hist_n":0},"geometry":{"type":"Polygon","coordinates":[[[127.05488,37.23022],[127.05437,37.23456],[127.05019,37.23652],[127.04651,37.23415],[127.04702,37.2298],[127.0512,37.22784],[127.05488,37.23022]]]}},{"type":"Feature","properties":{"h3":"8830e02ee5fffff","emd_code":"4159551000","emd_name":"진안동","area_km2":0.5073,"edge":false,"slope_mean":1.87,"elev_mean":24.9,"flood_hist_n":0,"flood_depth_max_m":null,"flood_risk_100y":null,"semi_basement_r":null,"elderly_alone_r":0.0603,"bldg_age30_r":null,"shelter_min_walk":10,"pop":50256,"hh":23808,"elderly65_r":0.1113,"single_hh_r":0.4544,"source_level":"emd","flood_years":[],"landslide_hist_n":0},"geometry":{"type":"Polygon","coordinates":[[[127.04385,37.22308],[127.04334,37.22742],[127.03915,37.22939],[127.03547,37.22701],[127.03598,37.22267],[127.04017,37.2207],[127.04385,37.22308]]]}},{"type":"Feature","properties":{"h3":"8830e02ee7fffff","emd_code":"4159551000","emd_name":"진안동","area_km2":0.5074,"edge":false,"slope_mean":3.69,"elev_mean":33.0,"flood_hist_n":0,"flood_depth_max_m":null,"flood_risk_100y":null,"semi_basement_r":null,"elderly_alone_r":0.0603,"bldg_age30_r":null,"shelter_min_walk":5,"pop":50256,"hh":23808,"elderly65_r":0.1113,"single_hh_r":0.4544,"source_level":"emd","flood_years":[],"landslide_hist_n":0},"geometry":{"type":"Polygon","coordinates":[[[127.05171,37.2235],[127.0512,37.22784],[127.04702,37.2298],[127.04334,37.22742],[127.04385,37.22308],[127.04804,37.22112],[127.05171,37.2235]]]}},{"type":"Feature","properties":{"h3":"8830e02ee9fffff","emd_code":"4159551000","emd_name":"진안동","area_km2":0.5073,"edge":false,"slope_mean":2.28,"elev_mean":24.1,"flood_hist_n":0,"flood_depth_max_m":null,"flood_risk_100y":null,"semi_basement_r":null,"elderly_alone_r":0.0603,"bldg_age30_r":null,"shelter_min_walk":13,"pop":50256,"hh":23808,"elderly65_r":0.1113,"single_hh_r":0.4544,"source_level":"emd","flood_years":[],"landslide_hist_n":0},"geometry":{"type":"Polygon","coordinates":[[[127.04232,37.23611],[127.04181,37.24045],[127.03762,37.24241],[127.03394,37.24003],[127.03445,37.23569],[127.03864,37.23373],[127.04232,37.23611]]]}},{"type":"Feature","properties":{"h3":"8830e02eedfffff","emd_code":"4159551000","emd_name":"진안동","area_km2":0.5072,"edge":false,"slope_mean":2.04,"elev_mean":22.2,"flood_hist_n":0,"flood_depth_max_m":null,"flood_risk_100y":null,"semi_basement_r":null,"elderly_alone_r":0.0603,"bldg_age30_r":null,"shelter_min_walk":11,"pop":50256,"hh":23808,"elderly65_r":0.1113,"single_hh_r":0.4544,"source_level":"emd","flood_years":[],"landslide_hist_n":0},"geometry":{"type":"Polygon","coordinates":[[[127.03915,37.22939],[127.03864,37.23373],[127.03445,37.23569],[127.03077,37.23331],[127.03128,37.22897],[127.03547,37.22701],[127.03915,37.22939]]]}},{"type":"Feature","properties":{"h3":"8830e02f0bfffff","emd_code":"4159555000","emd_name":"화산동","area_km2":0.5065,"edge":false,"slope_mean":10.3,"elev_mean":62.9,"flood_hist_n":0,"flood_depth_max_m":null,"flood_risk_100y":null,"semi_basement_r":null,"elderly_alone_r":0.0978,"bldg_age30_r":null,"shelter_min_walk":33,"pop":29209,"hh":13779,"elderly65_r":0.1761,"single_hh_r":0.4151,"source_level":"emd","flood_years":[],"landslide_hist_n":0},"geometry":{"type":"Polygon","coordinates":[[[126.99189,37.19413],[126.99138,37.19847],[126.9872,37.20043],[126.98353,37.19805],[126.98404,37.19371],[126.98822,37.19175],[126.99189,37.19413]]]}},{"type":"Feature","properties":{"h3":"8830e02f11fffff","emd_code":"4159555000","emd_name":"화산동","area_km2":0.5067,"edge":false,"slope_mean":5.97,"elev_mean":28.0,"flood_hist_n":0,"flood_depth_max_m":null,"flood_risk_100y":null,"semi_basement_r":null,"elderly_alone_r":0.0978,"bldg_age30_r":null,"shelter_min_walk":19,"pop":29209,"hh":13779,"elderly65_r":0.1761,"single_hh_r":0.4151,"source_level":"emd","flood_years":[],"landslide_hist_n":0},"geometry":{"type":"Polygon","coordinates":[[[127.0076,37.19496],[127.00709,37.1993],[127.00291,37.20126],[126.99924,37.19888],[126.99975,37.19454],[127.00393,37.19258],[127.0076,37.19496]]]}},{"type":"Feature","properties":{"h3":"8830e02f13fffff","emd_code":"4159555000","emd_name":"화산동","area_km2":0.5068,"edge":false,"slope_mean":2.35,"elev_mean":16.5,"flood_hist_n":0,"flood_depth_max_m":null,"flood_risk_100y":null,"semi_basement_r":null,"elderly_alone_r":0.0978,"bldg_age30_r":null,"shelter_min_walk":16,"pop":29209,"hh":13779,"elderly65_r":0.1761,"single_hh_r":0.4151,"source_level":"emd","flood_years":[],"landslide_hist_n":0},"geometry":{"type":"Polygon","coordinates":[[[127.01546,37.19537],[127.01495,37.19972],[127.01077,37.20168],[127.00709,37.1993],[127.0076,37.19496],[127.01179,37.193],[127.01546,37.19537]]]}},{"type":"Feature","properties":{"h3":"8830e02f15fffff","emd_code":"4159555000","emd_name":"화산동","area_km2":0.5066,"edge":false,"slope_mean":9.61,"elev_mean":48.6,"flood_hist_n":0,"flood_depth_max_m":null,"flood_risk_100y":null,"semi_basement_r":null,"elderly_alone_r":0.0978,"bldg_age30_r":null,"shelter_min_walk":31,"pop":29209,"hh":13779,"elderly65_r":0.1761,"single_hh_r":0.4151,"source_level":"emd","flood_years":[],"landslide_hist_n":0},"geometry":{"type":"Polygon","coordinates":[[[127.00444,37.18824],[127.00393,37.19258],[126.99975,37.19454],[126.99608,37.19217],[126.99659,37.18783],[127.00077,37.18586],[127.00444,37.18824]]]}},{"type":"Feature","properties":{"h3":"8830e02f17fffff","emd_code":"4159555000","emd_name":"화산동","area_km2":0.5068,"edge":false,"slope_mean":4.02,"elev_mean":17.8,"flood_hist_n":0,"flood_depth_max_m":null,"flood_risk_100y":null,"semi_basement_r":null,"elderly_alone_r":0.0978,"bldg_age30_r":null,"shelter_min_walk":27,"pop":29209,"hh":13779,"elderly65_r":0.1761,"single_hh_r":0.4151,"source_level":"emd","flood_years":[],"landslide_hist_n":0},"geometry":{"type":"Polygon","coordinates":[[[127.0123,37.18866],[127.01179,37.193],[127.0076,37.19496],[127.00393,37.19258],[127.00444,37.18824],[127.00863,37.18628],[127.0123,37.18866]]]}},{"type":"Feature","properties":{"h3":"8830e02f19fffff","emd_code":"4159555000","emd_name":"화산동","area_km2":0.5067,"edge":false,"slope_mean":2.94,"elev_mean":25.7,"flood_hist_n":0,"flood_depth_max_m":null,"flood_risk_100y":null,"semi_basement_r":null,"elderly_alone_r":0.0978,"bldg_age30_r":null,"shelter_min_walk":15,"pop":29209,"hh":13779,"elderly65_r":0.1761,"single_hh_r":0.4151,"source_level":"emd","flood_years":[],"landslide_hist_n":0},"geometry":{"type":"Polygon","coordinates":[[[127.00291,37.20126],[127.0024,37.2056],[126.99821,37.20756],[126.99454,37.20519],[126.99505,37.20085],[126.99924,37.19888],[127.00291,37.20126]]]}},{"type":"Feature","properties":{"h3":"8830e02f1bfffff","emd_code":"4159555000","emd_name":"화산동","area_km2":0.5068,"edge":false,"slope_mean":3.79,"elev_mean":26.3,"flood_hist_n":0,"flood_depth_max_m":null,"flood_risk_100y":null,"semi_basement_r":null,"elderly_alone_r":0.0978,"bldg_age30_r":null,"shelter_min_walk":7,"pop":29209,"hh":13779,"elderly65_r":0.1761,"single_hh_r":0.4151,"source_level":"emd","flood_years":[],"landslide_hist_n":0},"geometry":{"type":"Polygon","coordinates":[[[127.01077,37.20168],[127.01026,37.20602],[127.00607,37.20798],[127.0024,37.2056],[127.00291,37.20126],[127.00709,37.1993],[127.01077,37.20168]]]}},{"type":"Feature","properties":{"h3":"8830e02f1dfffff","emd_code":"4159555000","emd_name":"화산동","area_km2":0.5066,"edge":false,"slope_mean":7.2,"elev_mean":45.5,"flood_hist_n":0,"flood_depth_max_m":null,"flood_risk_100y":null,"semi_basement_r":null,"elderly_alone_r":0.0978,"bldg_age30_r":null,"shelter_min_walk":26,"pop":29209,"hh":13779,"elderly65_r":0.1761,"single_hh_r":0.4151,"source_level":"emd","flood_years":[],"landslide_hist_n":0},"geometry":{"type":"Polygon","coordinates":[[[126.99975,37.19454],[126.99924,37.19888],[126.99505,37.20085],[126.99138,37.19847],[126.99189,37.19413],[126.99608,37.19217],[126.99975,37.19454]]]}},{"type":"Feature","properties":{"h3":"8830e02f51fffff","emd_code":"4159555000","emd_name":"화산동","area_km2":0.5065,"edge":false,"slope_mean":5.9,"elev_mean":43.4,"flood_hist_n":0,"flood_depth_max_m":null,"flood_risk_100y":null,"semi_basement_r":null,"elderly_alone_r":0.0978,"bldg_age30_r":null,"shelter_min_walk":16,"pop":29209,"hh":13779,"elderly65_r":0.1761,"single_hh_r":0.4151,"source_level":"emd","flood_years":[],"landslide_hist_n":0},"geometry":{"type":"Polygon","coordinates":[[[126.99036,37.20715],[126.98984,37.21149],[126.98566,37.21345],[126.98199,37.21107],[126.9825,37.20673],[126.98668,37.20477],[126.99036,37.20715]]]}},{"type":"Feature","properties":{"h3":"8830e02f53fffff","emd_code":"4159555000","emd_name":"화산동","area_km2":0.5066,"edge":false,"slope_mean":7.34,"elev_mean":45.8,"flood_hist_n":0,"flood_depth_max_m":null,"flood_risk_100y":null,"semi_basement_r":null,"elderly_alone_r":0.0978,"bldg_age30_r":null,"shelter_min_walk":18,"pop":29209,"hh":13779,"elderly65_r":0.1761,"single_hh_r":0.4151,"source_level":"emd","flood_years":[],"landslide_hist_n":0},"geometry":{"type":"Polygon","coordinates":[[[126.99821,37.20756],[126.9977,37.2119],[126.99352,37.21387],[126.98984,37.21149],[126.99036,37.20715],[126.99454,37.20519],[126.99821,37.20756]]]}},{"type":"Feature","properties":{"h3":"8830e02f55fffff","emd_code":"4159555000","emd_name":"화산동","area_km2":0.5064,"edge":true,"slope_mean":6.79,"elev_mean":49.0,"flood_hist_n":0,"flood_depth_max_m":null,"flood_risk_100y":null,"semi_basement_r":null,"elderly_alone_r":0.0978,"bldg_age30_r":null,"shelter_min_walk":21,"pop":29209,"hh":13779,"elderly65_r":0.1761,"single_hh_r":0.4151,"source_level":"emd","flood_years":[],"landslide_hist_n":0},"geometry":{"type":"Polygon","coordinates":[[[126.9872,37.20043],[126.98668,37.20477],[126.9825,37.20673],[126.97883,37.20435],[126.97934,37.20001],[126.98353,37.19805],[126.9872,37.20043]]]}},{"type":"Feature","properties":{"h3":"8830e02f57fffff","emd_code":"4159555000","emd_name":"화산동","area_km2":0.5065,"edge":false,"slope_mean":4.83,"elev_mean":33.6,"flood_hist_n":0,"flood_depth_max_m":null,"flood_risk_100y":null,"semi_basement_r":null,"elderly_alone_r":0.0978,"bldg_age30_r":null,"shelter_min_walk":25,"pop":29209,"hh":13779,"elderly65_r":0.1761,"single_hh_r":0.4151,"source_level":"emd","flood_years":[],"landslide_hist_n":0},"geometry":{"type":"Polygon","coordinates":[[[126.99505,37.20085],[126.99454,37.20519],[126.99036,37.20715],[126.98668,37.20477],[126.9872,37.20043],[126.99138,37.19847],[126.99505,37.20085]]]}},{"type":"Feature","properties":{"h3":"8830e02f59fffff","emd_code":"4159555000","emd_name":"화산동","area_km2":0.5065,"edge":true,"slope_mean":6.47,"elev_mean":44.0,"flood_hist_n":0,"flood_depth_max_m":null,"flood_risk_100y":null,"semi_basement_r":null,"elderly_alone_r":0.0978,"bldg_age30_r":null,"shelter_min_walk":4,"pop":29209,"hh":13779,"elderly65_r":0.1761,"single_hh_r":0.4151,"source_level":"emd","flood_years":[],"landslide_hist_n":0},"geometry":{"type":"Polygon","coordinates":[[[126.98566,37.21345],[126.98515,37.21779],[126.98096,37.21975],[126.97729,37.21737],[126.9778,37.21303],[126.98199,37.21107],[126.98566,37.21345]]]}},{"type":"Feature","properties":{"h3":"8830e02f5bfffff","emd_code":"4159555000","emd_name":"화산동","area_km2":0.5066,"edge":true,"slope_mean":8.96,"elev_mean":59.0,"flood_hist_n":0,"flood_depth_max_m":null,"flood_risk_100y":null,"semi_basement_r":null,"elderly_alone_r":0.0978,"bldg_age30_r":null,"shelter_min_walk":7,"pop":29209,"hh":13779,"elderly65_r":0.1761,"single_hh_r":0.4151,"source_level":"emd","flood_years":[],"landslide_hist_n":0},"geometry":{"type":"Polygon","coordinates":[[[126.99352,37.21387],[126.993,37.2182],[126.98882,37.22017],[126.98515,37.21779],[126.98566,37.21345],[126.98984,37.21149],[126.99352,37.21387]]]}},{"type":"Feature","properties":{"h3":"8830e02f5dfffff","emd_code":"4159555000","emd_name":"화산동","area_km2":0.5064,"edge":true,"slope_mean":8.62,"elev_mean":59.4,"flood_hist_n":0,"flood_depth_max_m":null,"flood_risk_100y":null,"semi_basement_r":null,"elderly_alone_r":0.0978,"bldg_age30_r":null,"shelter_min_walk":9,"pop":29209,"hh":13779,"elderly65_r":0.1761,"single_hh_r":0.4151,"source_level":"emd","flood_years":[],"landslide_hist_n":0},"geometry":{"type":"Polygon","coordinates":[[[126.9825,37.20673],[126.98199,37.21107],[126.9778,37.21303],[126.97413,37.21065],[126.97465,37.20631],[126.97883,37.20435],[126.9825,37.20673]]]}}]}