{"type":"FeatureCollection","name":"grid_44250_h3r8","meta":{"sgg_code":"44250","h3_res":8,"n_cells":153,"dem":"Copernicus GLO-30 (bbox-mean)","crs":"EPSG:4326","jumin_basis":"2026-07","flood_src":"행안부 침수흔적도(전국, 재난안전데이터공유플랫폼)","landslide_src":"행안부 산사태 발생이력"},"features":[{"type":"Feature","properties":{"h3":"8830c4b401fffff","emd_code":"4425031000","emd_name":"두마면","area_km2":0.5205,"edge":false,"slope_mean":11.84,"elev_mean":161.6,"flood_hist_n":0,"flood_depth_max_m":null,"flood_risk_100y":null,"semi_basement_r":null,"elderly_alone_r":0.0942,"bldg_age30_r":null,"shelter_min_walk":17,"pop":14023,"hh":5870,"elderly65_r":0.1493,"single_hh_r":0.2925,"source_level":"emd","flood_years":[],"landslide_hist_n":0},"geometry":{"type":"Polygon","coordinates":[[[127.2441,36.25634],[127.24327,36.25257],[127.24744,36.25055],[127.25245,36.2523],[127.25328,36.25606],[127.24911,36.25809],[127.2441,36.25634]]]}},{"type":"Feature","properties":{"h3":"8830c4b403fffff","emd_code":"4425031000","emd_name":"두마면","area_km2":0.5205,"edge":false,"slope_mean":14.47,"elev_mean":169.3,"flood_hist_n":0,"flood_depth_max_m":null,"flood_risk_100y":null,"semi_basement_r":null,"elderly_alone_r":0.0942,"bldg_age30_r":null,"shelter_min_walk":11,"pop":14023,"hh":5870,"elderly65_r":0.1493,"single_hh_r":0.2925,"source_level":"emd","flood_years":[],"landslide_hist_n":0},"geometry":{"type":"Polygon","coordinates":[[[127.25328,36.25606],[127.25245,36.2523],[127.25662,36.25027],[127.26163,36.25202],[127.26246,36.25579],[127.25829,36.25781],[127.25328,36.25606]]]}},{"type":"Feature","properties":{"h3":"8830c4b405fffff","emd_code":"4425031000","emd_name":"두마면","area_km2":0.5206,"edge":false,"slope_mean":16.05,"elev_mean":208.7,"flood_hist_n":0,"flood_depth_max_m":null,"flood_risk_100y":null,"semi_basement_r":null,"elderly_alone_r":0.0942,"bldg_age30_r":null,"shelter_min_walk":29,"pop":14023,"hh":5870,"elderly65_r":0.1493,"single_hh_r":0.2925,"source_level":"emd","flood_years":[],"landslide_hist_n":0},"geometry":{"type":"Polygon","coordinates":[[[127.23826,36.25082],[127.23743,36.24705],[127.2416,36.24503],[127.24661,36.24678],[127.24744,36.25055],[127.24327,36.25257],[127.23826,36.25082]]]}},{"type":"Feature","properties":{"h3":"8830c4b407fffff","emd_code":"4425031000","emd_name":"두마면","area_km2":0.5206,"edge":false,"slope_mean":12.82,"elev_mean":176.5,"flood_hist_n":0,"flood_depth_max_m":null,"flood_risk_100y":null,"semi_basement_r":null,"elderly_alone_r":0.0942,"bldg_age30_r":null,"shelter_min_walk":22,"pop":14023,"hh":5870,"elderly65_r":0.1493,"single_hh_r":0.2925,"source_level":"emd","flood_years":[],"landslide_hist_n":1},"geometry":{"type":"Polygon","coordinates":[[[127.24744,36.25055],[127.24661,36.24678],[127.25078,36.24476],[127.25579,36.2465],[127.25662,36.25027],[127.25245,36.2523],[127.24744,36.25055]]]}},{"type":"Feature","properties":{"h3":"8830c4b409fffff","emd_code":"4425031000","emd_name":"두마면","area_km2":0.5204,"edge":false,"slope_mean":16.59,"elev_mean":178.2,"flood_hist_n":0,"flood_depth_max_m":null,"flood_risk_100y":null,"semi_basement_r":null,"elderly_alone_r":0.0942,"bldg_age30_r":null,"shelter_min_walk":18,"pop":14023,"hh":5870,"elderly65_r":0.1493,"single_hh_r":0.2925,"source_level":"emd","flood_years":[],"landslide_hist_n":0},"geometry":{"type":"Polygon","coordinates":[[[127.24076,36.26213],[127.23993,36.25836],[127.2441,36.25634],[127.24911,36.25809],[127.24994,36.26185],[127.24577,36.26388],[127.24076,36.26213]]]}},{"type":"Feature","properties":{"h3":"8830c4b40bfffff","emd_code":"4425031000","emd_name":"두마면","area_km2":0.5204,"edge":false,"slope_mean":10.05,"elev_mean":136.1,"flood_hist_n":0,"flood_depth_max_m":null,"flood_risk_100y":null,"semi_basement_r":null,"elderly_alone_r":0.0942,"bldg_age30_r":null,"shelter_min_walk":6,"pop":14023,"hh":5870,"elderly65_r":0.1493,"single_hh_r":0.2925,"source_level":"emd","flood_years":[],"landslide_hist_n":0},"geometry":{"type":"Polygon","coordinates":[[[127.24994,36.26185],[127.24911,36.25809],[127.25328,36.25606],[127.25829,36.25781],[127.25912,36.26158],[127.25495,36.2636],[127.24994,36.26185]]]}},{"type":"Feature","properties":{"h3":"8830c4b40dfffff","emd_code":"4425031000","emd_name":"두마면","area_km2":0.5204,"edge":true,"slope_mean":15.35,"elev_mean":189.2,"flood_hist_n":0,"flood_depth_max_m":null,"flood_risk_100y":null,"semi_basement_r":null,"elderly_alone_r":0.0942,"bldg_age30_r":null,"shelter_min_walk":28,"pop":14023,"hh":5870,"elderly65_r":0.1493,"single_hh_r":0.2925,"source_level":"emd","flood_years":[],"landslide_hist_n":0},"geometry":{"type":"Polygon","coordinates":[[[127.23492,36.25661],[127.23409,36.25284],[127.23826,36.25082],[127.24327,36.25257],[127.2441,36.25634],[127.23993,36.25836],[127.23492,36.25661]]]}},{"type":"Feature","properties":{"h3":"8830c4b411fffff","emd_code":"4425031000","emd_name":"두마면","area_km2":0.5205,"edge":false,"slope_mean":13.6,"elev_mean":150.1,"flood_hist_n":0,"flood_depth_max_m":null,"flood_risk_100y":null,"semi_basement_r":null,"elderly_alone_r":0.0942,"bldg_age30_r":null,"shelter_min_walk":14,"pop":14023,"hh":5870,"elderly65_r":0.1493,"single_hh_r":0.2925,"source_level":"emd","flood_years":[],"landslide_hist_n":0},"geometry":{"type":"Polygon","coordinates":[[[127.2683,36.2613],[127.26747,36.25754],[127.27164,36.25551],[127.27665,36.25726],[127.27748,36.26103],[127.27331,36.26305],[127.2683,36.2613]]]}},{"type":"Feature","properties":{"h3":"8830c4b413fffff","emd_code":"4425031000","emd_name":"두마면","area_km2":0.5206,"edge":false,"slope_mean":10.08,"elev_mean":106.4,"flood_hist_n":0,"flood_depth_max_m":null,"flood_risk_100y":null,"semi_basement_r":null,"elderly_alone_r":0.0942,"bldg_age30_r":null,"shelter_min_walk":20,"pop":14023,"hh":5870,"elderly65_r":0.1493,"single_hh_r":0.2925,"source_level":"emd","flood_years":[],"landslide_hist_n":0},"geometry":{"type":"Polygon","coordinates":[[[127.27748,36.26103],[127.27665,36.25726],[127.28082,36.25524],[127.28583,36.25698],[127.28666,36.26075],[127.28249,36.26277],[127.27748,36.26103]]]}},{"type":"Feature","properties":{"h3":"8830c4b415fffff","emd_code":"4425031000","emd_name":"두마면","area_km2":0.5206,"edge":false,"slope_mean":12.53,"elev_mean":145.7,"flood_hist_n":0,"flood_depth_max_m":null,"flood_risk_100y":null,"semi_basement_r":null,"elderly_alone_r":0.0942,"bldg_age30_r":null,"shelter_min_walk":16,"pop":14023,"hh":5870,"elderly65_r":0.1493,"single_hh_r":0.2925,"source_level":"emd","flood_years":[],"landslide_hist_n":1},"geometry":{"type":"Polygon","coordinates":[[[127.26246,36.25579],[127.26163,36.25202],[127.2658,36.25],[127.27081,36.25174],[127.27164,36.25551],[127.26747,36.25754],[127.26246,36.25579]]]}},{"type":"Feature","properties":{"h3":"8830c4b417fffff","emd_code":"4425031000","emd_name":"두마면","area_km2":0.5206,"edge":false,"slope_mean":9.84,"elev_mean":112.6,"flood_hist_n":0,"flood_depth_max_m":null,"flood_risk_100y":null,"semi_basement_r":null,"elderly_alone_r":0.0942,"bldg_age30_r":null,"shelter_min_walk":24,"pop":14023,"hh":5870,"elderly65_r":0.1493,"single_hh_r":0.2925,"source_level":"emd","flood_years":[],"landslide_hist_n":0},"geometry":{"type":"Polygon","coordinates":[[[127.27164,36.25551],[127.27081,36.25174],[127.27498,36.24972],[127.27999,36.25147],[127.28082,36.25524],[127.27665,36.25726],[127.27164,36.25551]]]}},{"type":"Feature","properties":{"h3":"8830c4b419fffff","emd_code":"4425031000","emd_name":"두마면","area_km2":0.5204,"edge":false,"slope_mean":12.43,"elev_mean":147.5,"flood_hist_n":0,"flood_depth_max_m":null,"flood_risk_100y":null,"semi_basement_r":null,"elderly_alone_r":0.0942,"bldg_age30_r":null,"shelter_min_walk":4,"pop":14023,"hh":5870,"elderly65_r":0.1493,"single_hh_r":0.2925,"source_level":"emd","flood_years":[],"landslide_hist_n":0},"geometry":{"type":"Polygon","coordinates":[[[127.26496,36.26709],[127.26413,36.26333],[127.2683,36.2613],[127.27331,36.26305],[127.27414,36.26682],[127.26997,36.26884],[127.26496,36.26709]]]}},{"type":"Feature","properties":{"h3":"8830c4b41bfffff","emd_code":"4425031000","emd_name":"두마면","area_km2":0.5205,"edge":false,"slope_mean":8.54,"elev_mean":112.4,"flood_hist_n":0,"flood_depth_max_m":null,"flood_risk_100y":null,"semi_basement_r":null,"elderly_alone_r":0.0942,"bldg_age30_r":null,"shelter_min_walk":11,"pop":14023,"hh":5870,"elderly65_r":0.1493,"single_hh_r":0.2925,"source_level":"emd","flood_years":[],"landslide_hist_n":0},"geometry":{"type":"Polygon","coordinates":[[[127.27414,36.26682],[127.27331,36.26305],[127.27748,36.26103],[127.28249,36.26277],[127.28332,36.26654],[127.27915,36.26856],[127.27414,36.26682]]]}},{"type":"Feature","properties":{"h3":"8830c4b41dfffff","emd_code":"4425031000","emd_name":"두마면","area_km2":0.5205,"edge":false,"slope_mean":14.58,"elev_mean":165.6,"flood_hist_n":0,"flood_depth_max_m":null,"flood_risk_100y":null,"semi_basement_r":null,"elderly_alone_r":0.0942,"bldg_age30_r":null,"shelter_min_walk":7,"pop":14023,"hh":5870,"elderly65_r":0.1493,"single_hh_r":0.2925,"source_level":"emd","flood_years":[],"landslide_hist_n":0},"geometry":{"type":"Polygon","coordinates":[[[127.25912,36.26158],[127.25829,36.25781],[127.26246,36.25579],[127.26747,36.25754],[127.2683,36.2613],[127.26413,36.26333],[127.25912,36.26158]]]}},{"type":"Feature","properties":{"h3":"8830c4b421fffff","emd_code":"4425031000","emd_name":"두마면","area_km2":0.5207,"edge":false,"slope_mean":23.36,"elev_mean":279.0,"flood_hist_n":0,"flood_depth_max_m":null,"flood_risk_100y":null,"semi_basement_r":null,"elderly_alone_r":0.0942,"bldg_age30_r":null,"shelter_min_walk":46,"pop":14023,"hh":5870,"elderly65_r":0.1493,"single_hh_r":0.2925,"source_level":"emd","flood_years":[],"landslide_hist_n":1},"geometry":{"type":"Polygon","coordinates":[[[127.23576,36.23951],[127.23493,36.23574],[127.2391,36.23372],[127.24411,36.23547],[127.24494,36.23924],[127.24077,36.24126],[127.23576,36.23951]]]}},{"type":"Feature","properties":{"h3":"8830c4b423fffff","emd_code":"4425031000","emd_name":"두마면","area_km2":0.5208,"edge":false,"slope_mean":20.15,"elev_mean":239.9,"flood_hist_n":0,"flood_depth_max_m":null,"flood_risk_100y":null,"semi_basement_r":null,"elderly_alone_r":0.0942,"bldg_age30_r":null,"shelter_min_walk":41,"pop":14023,"hh":5870,"elderly65_r":0.1493,"single_hh_r":0.2925,"source_level":"emd","flood_years":[],"landslide_hist_n":0},"geometry":{"type":"Polygon","coordinates":[[[127.24494,36.23924],[127.24411,36.23547],[127.24828,36.23345],[127.25329,36.23519],[127.25412,36.23896],[127.24995,36.24099],[127.24494,36.23924]]]}},{"type":"Feature","properties":{"h3":"8830c4b427fffff","emd_code":"4425031000","emd_name":"두마면","area_km2":0.5208,"edge":true,"slope_mean":23.42,"elev_mean":307.5,"flood_hist_n":0,"flood_depth_max_m":null,"flood_risk_100y":null,"semi_basement_r":null,"elderly_alone_r":0.0942,"bldg_age30_r":null,"shelter_min_walk":52,"pop":14023,"hh":5870,"elderly65_r":0.1493,"single_hh_r":0.2925,"source_level":"emd","flood_years":[],"landslide_hist_n":0},"geometry":{"type":"Polygon","coordinates":[[[127.2391,36.23372],[127.23827,36.22995],[127.24244,36.22793],[127.24745,36.22968],[127.24828,36.23345],[127.24411,36.23547],[127.2391,36.23372]]]}},{"type":"Feature","properties":{"h3":"8830c4b429fffff","emd_code":"4425031000","emd_name":"두마면","area_km2":0.5206,"edge":true,"slope_mean":20.33,"elev_mean":224.3,"flood_hist_n":0,"flood_depth_max_m":null,"flood_risk_100y":null,"semi_basement_r":null,"elderly_alone_r":0.0942,"bldg_age30_r":null,"shelter_min_walk":41,"pop":14023,"hh":5870,"elderly65_r":0.1493,"single_hh_r":0.2925,"source_level":"emd","flood_years":[],"landslide_hist_n":0},"geometry":{"type":"Polygon","coordinates":[[[127.23243,36.24531],[127.23159,36.24154],[127.23576,36.23951],[127.24077,36.24126],[127.2416,36.24503],[127.23743,36.24705],[127.23243,36.24531]]]}},{"type":"Feature","properties":{"h3":"8830c4b42bfffff","emd_code":"4425031000","emd_name":"두마면","area_km2":0.5207,"edge":false,"slope_mean":17.87,"elev_mean":222.4,"flood_hist_n":0,"flood_depth_max_m":null,"flood_risk_100y":null,"semi_basement_r":null,"elderly_alone_r":0.0942,"bldg_age30_r":null,"shelter_min_walk":34,"pop":14023,"hh":5870,"elderly65_r":0.1493,"single_hh_r":0.2925,"source_level":"emd","flood_years":[],"landslide_hist_n":0},"geometry":{"type":"Polygon","coordinates":[[[127.2416,36.24503],[127.24077,36.24126],[127.24494,36.23924],[127.24995,36.24099],[127.25078,36.24476],[127.24661,36.24678],[127.2416,36.24503]]]}},{"type":"Feature","properties":{"h3":"8830c4b431fffff","emd_code":"4425031000","emd_name":"두마면","area_km2":0.5208,"edge":false,"slope_mean":19.77,"elev_mean":210.4,"flood_hist_n":0,"flood_depth_max_m":null,"flood_risk_100y":null,"semi_basement_r":null,"elderly_alone_r":0.0942,"bldg_age30_r":null,"shelter_min_walk":31,"pop":14023,"hh":5870,"elderly65_r":0.1493,"single_hh_r":0.2925,"source_level":"emd","flood_years":[],"landslide_hist_n":0},"geometry":{"type":"Polygon","coordinates":[[[127.25996,36.24448],[127.25913,36.24071],[127.2633,36.23869],[127.26831,36.24044],[127.26914,36.24421],[127.26497,36.24623],[127.25996,36.24448]]]}},{"type":"Feature","properties":{"h3":"8830c4b433fffff","emd_code":"4425031000","emd_name":"두마면","area_km2":0.5208,"edge":true,"slope_mean":16.42,"elev_mean":163.8,"flood_hist_n":0,"flood_depth_max_m":null,"flood_risk_100y":null,"semi_basement_r":null,"elderly_alone_r":0.0942,"bldg_age30_r":null,"shelter_min_walk":37,"pop":14023,"hh":5870,"elderly65_r":0.1493,"single_hh_r":0.2925,"source_level":"emd","flood_years":[],"landslide_hist_n":0},"geometry":{"type":"Polygon","coordinates":[[[127.26914,36.24421],[127.26831,36.24044],[127.27248,36.23841],[127.27749,36.24016],[127.27832,36.24393],[127.27415,36.24595],[127.26914,36.24421]]]}},{"type":"Feature","properties":{"h3":"8830c4b435fffff","emd_code":"4425031000","emd_name":"두마면","area_km2":0.5208,"edge":false,"slope_mean":21.36,"elev_mean":276.2,"flood_hist_n":0,"flood_depth_max_m":null,"flood_risk_100y":null,"semi_basement_r":null,"elderly_alone_r":0.0942,"bldg_age30_r":null,"shelter_min_walk":40,"pop":14023,"hh":5870,"elderly65_r":0.1493,"single_hh_r":0.2925,"source_level":"emd","flood_years":[],"landslide_hist_n":0},"geometry":{"type":"Polygon","coordinates":[[[127.25412,36.23896],[127.25329,36.23519],[127.25746,36.23317],[127.26247,36.23492],[127.2633,36.23869],[127.25913,36.24071],[127.25412,36.23896]]]}},{"type":"Feature","properties":{"h3":"8830c4b437fffff","emd_code":"4425031000","emd_name":"두마면","area_km2":0.5209,"edge":true,"slope_mean":16.95,"elev_mean":201.8,"flood_hist_n":0,"flood_depth_max_m":null,"flood_risk_100y":null,"semi_basement_r":null,"elderly_alone_r":0.0942,"bldg_age30_r":null,"shelter_min_walk":42,"pop":14023,"hh":5870,"elderly65_r":0.1493,"single_hh_r":0.2925,"source_level":"emd","flood_years":[],"landslide_hist_n":0},"geometry":{"type":"Polygon","coordinates":[[[127.2633,36.23869],[127.26247,36.23492],[127.26664,36.23289],[127.27165,36.23464],[127.27248,36.23841],[127.26831,36.24044],[127.2633,36.23869]]]}},{"type":"Feature","properties":{"h3":"8830c4b439fffff","emd_code":"4425031000","emd_name":"두마면","area_km2":0.5207,"edge":false,"slope_mean":15.14,"elev_mean":161.5,"flood_hist_n":0,"flood_depth_max_m":null,"flood_risk_100y":null,"semi_basement_r":null,"elderly_alone_r":0.0942,"bldg_age30_r":null,"shelter_min_walk":21,"pop":14023,"hh":5870,"elderly65_r":0.1493,"single_hh_r":0.2925,"source_level":"emd","flood_years":[],"landslide_hist_n":0},"geometry":{"type":"Polygon","coordinates":[[[127.25662,36.25027],[127.25579,36.2465],[127.25996,36.24448],[127.26497,36.24623],[127.2658,36.25],[127.26163,36.25202],[127.25662,36.25027]]]}},{"type":"Feature","properties":{"h3":"8830c4b43bfffff","emd_code":"4425031000","emd_name":"두마면","area_km2":0.5207,"edge":false,"slope_mean":14.67,"elev_mean":148.8,"flood_hist_n":0,"flood_depth_max_m":null,"flood_risk_100y":null,"semi_basement_r":null,"elderly_alone_r":0.0942,"bldg_age30_r":null,"shelter_min_walk":26,"pop":14023,"hh":5870,"elderly65_r":0.1493,"single_hh_r":0.2925,"source_level":"emd","flood_years":[],"landslide_hist_n":1},"geometry":{"type":"Polygon","coordinates":[[[127.2658,36.25],[127.26497,36.24623],[127.26914,36.24421],[127.27415,36.24595],[127.27498,36.24972],[127.27081,36.25174],[127.2658,36.25]]]}},{"type":"Feature","properties":{"h3":"8830c4b43dfffff","emd_code":"4425031000","emd_name":"두마면","area_km2":0.5207,"edge":false,"slope_mean":17.77,"elev_mean":186.1,"flood_hist_n":0,"flood_depth_max_m":null,"flood_risk_100y":null,"semi_basement_r":null,"elderly_alone_r":0.0942,"bldg_age30_r":null,"shelter_min_walk":30,"pop":14023,"hh":5870,"elderly65_r":0.1493,"single_hh_r":0.2925,"source_level":"emd","flood_years":[],"landslide_hist_n":2},"geometry":{"type":"Polygon","coordinates":[[[127.25078,36.24476],[127.24995,36.24099],[127.25412,36.23896],[127.25913,36.24071],[127.25996,36.24448],[127.25579,36.2465],[127.25078,36.24476]]]}},{"type":"Feature","properties":{"h3":"8830c4b441fffff","emd_code":"4425031500","emd_name":"엄사면","area_km2":0.5202,"edge":false,"slope_mean":13.18,"elev_mean":105.9,"flood_hist_n":0,"flood_depth_max_m":null,"flood_risk_100y":null,"semi_basement_r":null,"elderly_alone_r":0.1616,"bldg_age30_r":null,"shelter_min_walk":23,"pop":16551,"hh":7877,"elderly65_r":0.2365,"single_hh_r":0.4042,"source_level":"emd","flood_years":[],"landslide_hist_n":0},"geometry":{"type":"Polygon","coordinates":[[[127.22824,36.26819],[127.22741,36.26442],[127.23158,36.2624],[127.23659,36.26415],[127.23742,36.26792],[127.23325,36.26994],[127.22824,36.26819]]]}},{"type":"Feature","properties":{"h3":"8830c4b443fffff","emd_code":"4425031500","emd_name":"엄사면","area_km2":0.5203,"edge":false,"slope_mean":18.85,"elev_mean":183.6,"flood_hist_n":0,"flood_depth_max_m":null,"flood_risk_100y":null,"semi_basement_r":null,"elderly_alone_r":0.1616,"bldg_age30_r":null,"shelter_min_walk":13,"pop":16551,"hh":7877,"elderly65_r":0.2365,"single_hh_r":0.4042,"source_level":"emd","flood_years":[],"landslide_hist_n":1},"geometry":{"type":"Polygon","coordinates":[[[127.23742,36.26792],[127.23659,36.26415],[127.24076,36.26213],[127.24577,36.26388],[127.2466,36.26764],[127.24243,36.26966],[127.23742,36.26792]]]}},{"type":"Feature","properties":{"h3":"8830c4b445fffff","emd_code":"4425031500","emd_name":"엄사면","area_km2":0.5203,"edge":false,"slope_mean":10.11,"elev_mean":80.4,"flood_hist_n":0,"flood_depth_max_m":null,"flood_risk_100y":null,"semi_basement_r":null,"elderly_alone_r":0.1616,"bldg_age30_r":null,"shelter_min_walk":34,"pop":16551,"hh":7877,"elderly65_r":0.2365,"single_hh_r":0.4042,"source_level":"emd","flood_years":[],"landslide_hist_n":1},"geometry":{"type":"Polygon","coordinates":[[[127.22241,36.26267],[127.22157,36.25891],[127.22575,36.25689],[127.23075,36.25863],[127.23158,36.2624],[127.22741,36.26442],[127.22241,36.26267]]]}},{"type":"Feature","properties":{"h3":"8830c4b447fffff","emd_code":"4425031500","emd_name":"엄사면","area_km2":0.5203,"edge":false,"slope_mean":16.78,"elev_mean":143.3,"flood_hist_n":0,"flood_depth_max_m":null,"flood_risk_100y":null,"semi_basement_r":null,"elderly_alone_r":0.1616,"bldg_age30_r":null,"shelter_min_walk":25,"pop":16551,"hh":7877,"elderly65_r":0.2365,"single_hh_r":0.4042,"source_level":"emd","flood_years":[],"landslide_hist_n":0},"geometry":{"type":"Polygon","coordinates":[[[127.23158,36.2624],[127.23075,36.25863],[127.23492,36.25661],[127.23993,36.25836],[127.24076,36.26213],[127.23659,36.26415],[127.23158,36.2624]]]}},{"type":"Feature","properties":{"h3":"8830c4b449fffff","emd_code":"4425031500","emd_name":"엄사면","area_km2":0.5201,"edge":false,"slope_mean":10.28,"elev_mean":102.0,"flood_hist_n":0,"flood_depth_max_m":null,"flood_risk_100y":null,"semi_basement_r":null,"elderly_alone_r":0.1616,"bldg_age30_r":null,"shelter_min_walk":18,"pop":16551,"hh":7877,"elderly65_r":0.2365,"single_hh_r":0.4042,"source_level":"emd","flood_years":[],"landslide_hist_n":0},"geometry":{"type":"Polygon","coordinates":[[[127.2249,36.27398],[127.22407,36.27021],[127.22824,36.26819],[127.23325,36.26994],[127.23408,36.27371],[127.22991,36.27573],[127.2249,36.27398]]]}},{"type":"Feature","properties":{"h3":"8830c4b44bfffff","emd_code":"4425031500","emd_name":"엄사면","area_km2":0.5202,"edge":false,"slope_mean":14.19,"elev_mean":144.7,"flood_hist_n":0,"flood_depth_max_m":null,"flood_risk_100y":null,"semi_basement_r":null,"elderly_alone_r":0.1616,"bldg_age30_r":null,"shelter_min_walk":13,"pop":16551,"hh":7877,"elderly65_r":0.2365,"single_hh_r":0.4042,"source_level":"emd","flood_years":[],"landslide_hist_n":0},"geometry":{"type":"Polygon","coordinates":[[[127.23408,36.27371],[127.23325,36.26994],[127.23742,36.26792],[127.24243,36.26966],[127.24326,36.27343],[127.23909,36.27545],[127.23408,36.27371]]]}},{"type":"Feature","properties":{"h3":"8830c4b44dfffff","emd_code":"4425031500","emd_name":"엄사면","area_km2":0.5202,"edge":false,"slope_mean":11.5,"elev_mean":87.6,"flood_hist_n":0,"flood_depth_max_m":null,"flood_risk_100y":null,"semi_basement_r":null,"elderly_alone_r":0.1616,"bldg_age30_r":null,"shelter_min_walk":30,"pop":16551,"hh":7877,"elderly65_r":0.2365,"single_hh_r":0.4042,"source_level":"emd","flood_years":[],"landslide_hist_n":0},"geometry":{"type":"Polygon","coordinates":[[[127.21907,36.26846],[127.21823,36.2647],[127.22241,36.26267],[127.22741,36.26442],[127.22824,36.26819],[127.22407,36.27021],[127.21907,36.26846]]]}},{"type":"Feature","properties":{"h3":"8830c4b451fffff","emd_code":"4425051000","emd_name":"금암동","area_km2":0.5203,"edge":false,"slope_mean":9.81,"elev_mean":128.6,"flood_hist_n":0,"flood_depth_max_m":null,"flood_risk_100y":null,"semi_basement_r":null,"elderly_alone_r":0.094,"bldg_age30_r":null,"shelter_min_walk":4,"pop":7900,"hh":3479,"elderly65_r":0.2199,"single_hh_r":0.3242,"source_level":"emd","flood_years":[],"landslide_hist_n":0},"geometry":{"type":"Polygon","coordinates":[[[127.25244,36.27316],[127.25161,36.26939],[127.25578,36.26737],[127.26079,36.26912],[127.26162,36.27288],[127.25745,36.2749],[127.25244,36.27316]]]}},{"type":"Feature","properties":{"h3":"8830c4b453fffff","emd_code":"4425031000","emd_name":"두마면","area_km2":0.5203,"edge":false,"slope_mean":11.39,"elev_mean":123.6,"flood_hist_n":0,"flood_depth_max_m":null,"flood_risk_100y":null,"semi_basement_r":null,"elderly_alone_r":0.0942,"bldg_age30_r":null,"shelter_min_walk":4,"pop":14023,"hh":5870,"elderly65_r":0.1493,"single_hh_r":0.2925,"source_level":"emd","flood_years":[],"landslide_hist_n":0},"geometry":{"type":"Polygon","coordinates":[[[127.26162,36.27288],[127.26079,36.26912],[127.26496,36.26709],[127.26997,36.26884],[127.2708,36.27261],[127.26663,36.27463],[127.26162,36.27288]]]}},{"type":"Feature","properties":{"h3":"8830c4b455fffff","emd_code":"4425051000","emd_name":"금암동","area_km2":0.5203,"edge":false,"slope_mean":14.58,"elev_mean":166.6,"flood_hist_n":0,"flood_depth_max_m":null,"flood_risk_100y":null,"semi_basement_r":null,"elderly_alone_r":0.094,"bldg_age30_r":null,"shelter_min_walk":9,"pop":7900,"hh":3479,"elderly65_r":0.2199,"single_hh_r":0.3242,"source_level":"emd","flood_years":[],"landslide_hist_n":0},"geometry":{"type":"Polygon","coordinates":[[[127.2466,36.26764],[127.24577,36.26388],[127.24994,36.26185],[127.25495,36.2636],[127.25578,36.26737],[127.25161,36.26939],[127.2466,36.26764]]]}},{"type":"Feature","properties":{"h3":"8830c4b457fffff","emd_code":"4425031000","emd_name":"두마면","area_km2":0.5204,"edge":false,"slope_mean":10.89,"elev_mean":134.0,"flood_hist_n":0,"flood_depth_max_m":null,"flood_risk_100y":null,"semi_basement_r":null,"elderly_alone_r":0.0942,"bldg_age30_r":null,"shelter_min_walk":8,"pop":14023,"hh":5870,"elderly65_r":0.1493,"single_hh_r":0.2925,"source_level":"emd","flood_years":[],"landslide_hist_n":0},"geometry":{"type":"Polygon","coordinates":[[[127.25578,36.26737],[127.25495,36.2636],[127.25912,36.26158],[127.26413,36.26333],[127.26496,36.26709],[127.26079,36.26912],[127.25578,36.26737]]]}},{"type":"Feature","properties":{"h3":"8830c4b459fffff","emd_code":"4425051000","emd_name":"금암동","area_km2":0.5201,"edge":false,"slope_mean":5.85,"elev_mean":115.9,"flood_hist_n":0,"flood_depth_max_m":null,"flood_risk_100y":null,"semi_basement_r":null,"elderly_alone_r":0.094,"bldg_age30_r":null,"shelter_min_walk":11,"pop":7900,"hh":3479,"elderly65_r":0.2199,"single_hh_r":0.3242,"source_level":"emd","flood_years":[],"landslide_hist_n":0},"geometry":{"type":"Polygon","coordinates":[[[127.2491,36.27895],[127.24827,36.27518],[127.25244,36.27316],[127.25745,36.2749],[127.25828,36.27867],[127.25411,36.28069],[127.2491,36.27895]]]}},{"type":"Feature","properties":{"h3":"8830c4b45bfffff","emd_code":"4425031000","emd_name":"두마면","area_km2":0.5202,"edge":true,"slope_mean":7.22,"elev_mean":111.0,"flood_hist_n":0,"flood_depth_max_m":null,"flood_risk_100y":null,"semi_basement_r":null,"elderly_alone_r":0.0942,"bldg_age30_r":null,"shelter_min_walk":14,"pop":14023,"hh":5870,"elderly65_r":0.1493,"single_hh_r":0.2925,"source_level":"emd","flood_years":[],"landslide_hist_n":0},"geometry":{"type":"Polygon","coordinates":[[[127.25828,36.27867],[127.25745,36.2749],[127.26162,36.27288],[127.26663,36.27463],[127.26746,36.2784],[127.26329,36.28042],[127.25828,36.27867]]]}},{"type":"Feature","properties":{"h3":"8830c4b45dfffff","emd_code":"4425051000","emd_name":"금암동","area_km2":0.5202,"edge":false,"slope_mean":13.45,"elev_mean":159.7,"flood_hist_n":0,"flood_depth_max_m":null,"flood_risk_100y":null,"semi_basement_r":null,"elderly_alone_r":0.094,"bldg_age30_r":null,"shelter_min_walk":1,"pop":7900,"hh":3479,"elderly65_r":0.2199,"single_hh_r":0.3242,"source_level":"emd","flood_years":[],"landslide_hist_n":0},"geometry":{"type":"Polygon","coordinates":[[[127.24326,36.27343],[127.24243,36.26966],[127.2466,36.26764],[127.25161,36.26939],[127.25244,36.27316],[127.24827,36.27518],[127.24326,36.27343]]]}},{"type":"Feature","properties":{"h3":"8830c4b463fffff","emd_code":"4425031000","emd_name":"두마면","area_km2":0.5205,"edge":true,"slope_mean":20.72,"elev_mean":165.7,"flood_hist_n":0,"flood_depth_max_m":null,"flood_risk_100y":null,"semi_basement_r":null,"elderly_alone_r":0.0942,"bldg_age30_r":null,"shelter_min_walk":39,"pop":14023,"hh":5870,"elderly65_r":0.1493,"single_hh_r":0.2925,"source_level":"emd","flood_years":[],"landslide_hist_n":0},"geometry":{"type":"Polygon","coordinates":[[[127.22909,36.2511],[127.22825,36.24733],[127.23243,36.24531],[127.23743,36.24705],[127.23826,36.25082],[127.23409,36.25284],[127.22909,36.2511]]]}},{"type":"Feature","properties":{"h3":"8830c4b46bfffff","emd_code":"4425031500","emd_name":"엄사면","area_km2":0.5204,"edge":false,"slope_mean":15.41,"elev_mean":102.4,"flood_hist_n":0,"flood_depth_max_m":null,"flood_risk_100y":null,"semi_basement_r":null,"elderly_alone_r":0.1616,"bldg_age30_r":null,"shelter_min_walk":37,"pop":16551,"hh":7877,"elderly65_r":0.2365,"single_hh_r":0.4042,"source_level":"emd","flood_years":[],"landslide_hist_n":1},"geometry":{"type":"Polygon","coordinates":[[[127.22575,36.25689],[127.22491,36.25312],[127.22909,36.2511],[127.23409,36.25284],[127.23492,36.25661],[127.23075,36.25863],[127.22575,36.25689]]]}},{"type":"Feature","properties":{"h3":"8830c4b4cdfffff","emd_code":"4425031000","emd_name":"두마면","area_km2":0.5205,"edge":false,"slope_mean":11.44,"elev_mean":109.6,"flood_hist_n":0,"flood_depth_max_m":null,"flood_risk_100y":null,"semi_basement_r":null,"elderly_alone_r":0.0942,"bldg_age30_r":null,"shelter_min_walk":23,"pop":14023,"hh":5870,"elderly65_r":0.1493,"single_hh_r":0.2925,"source_level":"emd","flood_years":[],"landslide_hist_n":0},"geometry":{"type":"Polygon","coordinates":[[[127.28332,36.26654],[127.28249,36.26277],[127.28666,36.26075],[127.29167,36.2625],[127.2925,36.26626],[127.28833,36.26829],[127.28332,36.26654]]]}},{"type":"Feature","properties":{"h3":"8830c4b4e9fffff","emd_code":"4425031000","emd_name":"두마면","area_km2":0.5207,"edge":true,"slope_mean":16.45,"elev_mean":138.7,"flood_hist_n":0,"flood_depth_max_m":null,"flood_risk_100y":null,"semi_basement_r":null,"elderly_alone_r":0.0942,"bldg_age30_r":null,"shelter_min_walk":30,"pop":14023,"hh":5870,"elderly65_r":0.1493,"single_hh_r":0.2925,"source_level":"emd","flood_years":[],"landslide_hist_n":0},"geometry":{"type":"Polygon","coordinates":[[[127.28082,36.25524],[127.27999,36.25147],[127.28416,36.24944],[127.28917,36.25119],[127.29,36.25496],[127.28583,36.25698],[127.28082,36.25524]]]}},{"type":"Feature","properties":{"h3":"8830c4b4edfffff","emd_code":"4425031000","emd_name":"두마면","area_km2":0.5208,"edge":false,"slope_mean":19.23,"elev_mean":146.6,"flood_hist_n":0,"flood_depth_max_m":null,"flood_risk_100y":null,"semi_basement_r":null,"elderly_alone_r":0.0942,"bldg_age30_r":null,"shelter_min_walk":34,"pop":14023,"hh":5870,"elderly65_r":0.1493,"single_hh_r":0.2925,"source_level":"emd","flood_years":[],"landslide_hist_n":0},"geometry":{"type":"Polygon","coordinates":[[[127.27498,36.24972],[127.27415,36.24595],[127.27832,36.24393],[127.28333,36.24567],[127.28416,36.24944],[127.27999,36.25147],[127.27498,36.24972]]]}},{"type":"Feature","properties":{"h3":"8830c4b5c9fffff","emd_code":"4425031000","emd_name":"두마면","area_km2":0.5209,"edge":true,"slope_mean":21.98,"elev_mean":281.8,"flood_hist_n":0,"flood_depth_max_m":null,"flood_risk_100y":null,"semi_basement_r":null,"elderly_alone_r":0.0942,"bldg_age30_r":null,"shelter_min_walk":50,"pop":14023,"hh":5870,"elderly65_r":0.1493,"single_hh_r":0.2925,"source_level":"emd","flood_years":[],"landslide_hist_n":0},"geometry":{"type":"Polygon","coordinates":[[[127.24828,36.23345],[127.24745,36.22968],[127.25162,36.22765],[127.25663,36.2294],[127.25746,36.23317],[127.25329,36.23519],[127.24828,36.23345]]]}},{"type":"Feature","properties":{"h3":"8830c4b601fffff","emd_code":"4425031500","emd_name":"엄사면","area_km2":0.5197,"edge":false,"slope_mean":16.86,"elev_mean":242.6,"flood_hist_n":0,"flood_depth_max_m":null,"flood_risk_100y":null,"semi_basement_r":null,"elderly_alone_r":0.1616,"bldg_age30_r":null,"shelter_min_walk":21,"pop":16551,"hh":7877,"elderly65_r":0.2365,"single_hh_r":0.4042,"source_level":"emd","flood_years":[],"landslide_hist_n":0},"geometry":{"type":"Polygon","coordinates":[[[127.22072,36.29685],[127.21989,36.29308],[127.22406,36.29106],[127.22907,36.29281],[127.2299,36.29658],[127.22573,36.29859],[127.22072,36.29685]]]}},{"type":"Feature","properties":{"h3":"8830c4b603fffff","emd_code":"4425031500","emd_name":"엄사면","area_km2":0.5198,"edge":false,"slope_mean":15.67,"elev_mean":194.3,"flood_hist_n":0,"flood_depth_max_m":null,"flood_risk_100y":null,"semi_basement_r":null,"elderly_alone_r":0.1616,"bldg_age30_r":null,"shelter_min_walk":11,"pop":16551,"hh":7877,"elderly65_r":0.2365,"single_hh_r":0.4042,"source_level":"emd","flood_years":[],"landslide_hist_n":0},"geometry":{"type":"Polygon","coordinates":[[[127.2299,36.29658],[127.22907,36.29281],[127.23324,36.29079],[127.23825,36.29254],[127.23908,36.2963],[127.23491,36.29832],[127.2299,36.29658]]]}},{"type":"Feature","properties":{"h3":"8830c4b605fffff","emd_code":"4425031500","emd_name":"엄사면","area_km2":0.5198,"edge":false,"slope_mean":16.75,"elev_mean":188.5,"flood_hist_n":0,"flood_depth_max_m":null,"flood_risk_100y":null,"semi_basement_r":null,"elderly_alone_r":0.1616,"bldg_age30_r":null,"shelter_min_walk":21,"pop":16551,"hh":7877,"elderly65_r":0.2365,"single_hh_r":0.4042,"source_level":"emd","flood_years":[],"landslide_hist_n":0},"geometry":{"type":"Polygon","coordinates":[[[127.21489,36.29133],[127.21405,36.28757],[127.21823,36.28555],[127.22323,36.2873],[127.22406,36.29106],[127.21989,36.29308],[127.21489,36.29133]]]}},{"type":"Feature","properties":{"h3":"8830c4b607fffff","emd_code":"4425031500","emd_name":"엄사면","area_km2":0.5198,"edge":false,"slope_mean":14.54,"elev_mean":164.0,"flood_hist_n":0,"flood_depth_max_m":null,"flood_risk_100y":null,"semi_basement_r":null,"elderly_alone_r":0.1616,"bldg_age30_r":null,"shelter_min_walk":11,"pop":16551,"hh":7877,"elderly65_r":0.2365,"single_hh_r":0.4042,"source_level":"emd","flood_years":[],"landslide_hist_n":0},"geometry":{"type":"Polygon","coordinates":[[[127.22406,36.29106],[127.22323,36.2873],[127.2274,36.28528],[127.23241,36.28703],[127.23324,36.29079],[127.22907,36.29281],[127.22406,36.29106]]]}},{"type":"Feature","properties":{"h3":"8830c4b609fffff","emd_code":"4425033000","emd_name":"신도안면","area_km2":0.5196,"edge":false,"slope_mean":12.5,"elev_mean":198.3,"flood_hist_n":0,"flood_depth_max_m":null,"flood_risk_100y":null,"semi_basement_r":null,"elderly_alone_r":0.0,"bldg_age30_r":null,"shelter_min_walk":29,"pop":7509,"hh":2458,"elderly65_r":0.0162,"single_hh_r":0.1701,"source_level":"emd","flood_years":[],"landslide_hist_n":0},"geometry":{"type":"Polygon","coordinates":[[[127.21738,36.30263],[127.21655,36.29887],[127.22072,36.29685],[127.22573,36.29859],[127.22656,36.30236],[127.22239,36.30438],[127.21738,36.30263]]]}},{"type":"Feature","properties":{"h3":"8830c4b60bfffff","emd_code":"4425033000","emd_name":"신도안면","area_km2":0.5196,"edge":false,"slope_mean":12.97,"elev_mean":177.8,"flood_hist_n":0,"flood_depth_max_m":null,"flood_risk_100y":null,"semi_basement_r":null,"elderly_alone_r":0.0,"bldg_age30_r":null,"shelter_min_walk":17,"pop":7509,"hh":2458,"elderly65_r":0.0162,"single_hh_r":0.1701,"source_level":"emd","flood_years":[],"landslide_hist_n":0},"geometry":{"type":"Polygon","coordinates":[[[127.22656,36.30236],[127.22573,36.29859],[127.2299,36.29658],[127.23491,36.29832],[127.23574,36.30209],[127.23157,36.30411],[127.22656,36.30236]]]}},{"type":"Feature","properties":{"h3":"8830c4b60dfffff","emd_code":"4425031500","emd_name":"엄사면","area_km2":0.5197,"edge":false,"slope_mean":19.31,"elev_mean":255.8,"flood_hist_n":0,"flood_depth_max_m":null,"flood_risk_100y":null,"semi_basement_r":null,"elderly_alone_r":0.1616,"bldg_age30_r":null,"shelter_min_walk":30,"pop":16551,"hh":7877,"elderly65_r":0.2365,"single_hh_r":0.4042,"source_level":"emd","flood_years":[],"landslide_hist_n":0},"geometry":{"type":"Polygon","coordinates":[[[127.21155,36.29712],[127.21071,36.29335],[127.21489,36.29133],[127.21989,36.29308],[127.22072,36.29685],[127.21655,36.29887],[127.21155,36.29712]]]}},{"type":"Feature","properties":{"h3":"8830c4b611fffff","emd_code":"4425033000","emd_name":"신도안면","area_km2":0.5197,"edge":false,"slope_mean":9.42,"elev_mean":144.4,"flood_hist_n":0,"flood_depth_max_m":null,"flood_risk_100y":null,"semi_basement_r":null,"elderly_alone_r":0.0,"bldg_age30_r":null,"shelter_min_walk":11,"pop":7509,"hh":2458,"elderly65_r":0.0162,"single_hh_r":0.1701,"source_level":"emd","flood_years":[],"landslide_hist_n":0},"geometry":{"type":"Polygon","coordinates":[[[127.24492,36.30182],[127.24409,36.29805],[127.24826,36.29603],[127.25327,36.29778],[127.2541,36.30154],[127.24993,36.30356],[127.24492,36.30182]]]}},{"type":"Feature","properties":{"h3":"8830c4b613fffff","emd_code":"4425033000","emd_name":"신도안면","area_km2":0.5198,"edge":false,"slope_mean":17.21,"elev_mean":245.6,"flood_hist_n":0,"flood_depth_max_m":null,"flood_risk_100y":null,"semi_basement_r":null,"elderly_alone_r":0.0,"bldg_age30_r":null,"shelter_min_walk":22,"pop":7509,"hh":2458,"elderly65_r":0.0162,"single_hh_r":0.1701,"source_level":"emd","flood_years":[],"landslide_hist_n":0},"geometry":{"type":"Polygon","coordinates":[[[127.2541,36.30154],[127.25327,36.29778],[127.25744,36.29576],[127.26245,36.2975],[127.26328,36.30127],[127.25911,36.30329],[127.2541,36.30154]]]}},{"type":"Feature","properties":{"h3":"8830c4b615fffff","emd_code":"4425033000","emd_name":"신도안면","area_km2":0.5198,"edge":false,"slope_mean":8.79,"elev_mean":129.9,"flood_hist_n":0,"flood_depth_max_m":null,"flood_risk_100y":null,"semi_basement_r":null,"elderly_alone_r":0.0,"bldg_age30_r":null,"shelter_min_walk":3,"pop":7509,"hh":2458,"elderly65_r":0.0162,"single_hh_r":0.1701,"source_level":"emd","flood_years":[],"landslide_hist_n":0},"geometry":{"type":"Polygon","coordinates":[[[127.23908,36.2963],[127.23825,36.29254],[127.24242,36.29052],[127.24743,36.29227],[127.24826,36.29603],[127.24409,36.29805],[127.23908,36.2963]]]}},{"type":"Feature","properties":{"h3":"8830c4b617fffff","emd_code":"4425033000","emd_name":"신도안면","area_km2":0.5198,"edge":true,"slope_mean":12.55,"elev_mean":161.6,"flood_hist_n":0,"flood_depth_max_m":null,"flood_risk_100y":null,"semi_basement_r":null,"elderly_alone_r":0.0,"bldg_age30_r":null,"shelter_min_walk":14,"pop":7509,"hh":2458,"elderly65_r":0.0162,"single_hh_r":0.1701,"source_level":"emd","flood_years":[],"landslide_hist_n":0},"geometry":{"type":"Polygon","coordinates":[[[127.24826,36.29603],[127.24743,36.29227],[127.2516,36.29025],[127.25661,36.29199],[127.25744,36.29576],[127.25327,36.29778],[127.24826,36.29603]]]}},{"type":"Feature","properties":{"h3":"8830c4b619fffff","emd_code":"4425033000","emd_name":"신도안면","area_km2":0.5196,"edge":false,"slope_mean":10.45,"elev_mean":150.0,"flood_hist_n":0,"flood_depth_max_m":null,"flood_risk_100y":null,"semi_basement_r":null,"elderly_alone_r":0.0,"bldg_age30_r":null,"shelter_min_walk":17,"pop":7509,"hh":2458,"elderly65_r":0.0162,"single_hh_r":0.1701,"source_level":"emd","flood_years":[],"landslide_hist_n":0},"geometry":{"type":"Polygon","coordinates":[[[127.24158,36.3076],[127.24075,36.30383],[127.24492,36.30182],[127.24993,36.30356],[127.25076,36.30733],[127.24659,36.30935],[127.24158,36.3076]]]}},{"type":"Feature","properties":{"h3":"8830c4b61bfffff","emd_code":"4425033000","emd_name":"신도안면","area_km2":0.5197,"edge":false,"slope_mean":16.6,"elev_mean":217.8,"flood_hist_n":0,"flood_depth_max_m":null,"flood_risk_100y":null,"semi_basement_r":null,"elderly_alone_r":0.0,"bldg_age30_r":null,"shelter_min_walk":23,"pop":7509,"hh":2458,"elderly65_r":0.0162,"single_hh_r":0.1701,"source_level":"emd","flood_years":[],"landslide_hist_n":0},"geometry":{"type":"Polygon","coordinates":[[[127.25076,36.30733],[127.24993,36.30356],[127.2541,36.30154],[127.25911,36.30329],[127.25994,36.30705],[127.25577,36.30907],[127.25076,36.30733]]]}},{"type":"Feature","properties":{"h3":"8830c4b61dfffff","emd_code":"4425033000","emd_name":"신도안면","area_km2":0.5197,"edge":false,"slope_mean":6.85,"elev_mean":130.3,"flood_hist_n":0,"flood_depth_max_m":null,"flood_risk_100y":null,"semi_basement_r":null,"elderly_alone_r":0.0,"bldg_age30_r":null,"shelter_min_walk":8,"pop":7509,"hh":2458,"elderly65_r":0.0162,"single_hh_r":0.1701,"source_level":"emd","flood_years":[],"landslide_hist_n":0},"geometry":{"type":"Polygon","coordinates":[[[127.23574,36.30209],[127.23491,36.29832],[127.23908,36.2963],[127.24409,36.29805],[127.24492,36.30182],[127.24075,36.30383],[127.23574,36.30209]]]}},{"type":"Feature","properties":{"h3":"8830c4b621fffff","emd_code":"4425031500","emd_name":"엄사면","area_km2":0.5199,"edge":false,"slope_mean":12.59,"elev_mean":132.7,"flood_hist_n":0,"flood_depth_max_m":null,"flood_risk_100y":null,"semi_basement_r":null,"elderly_alone_r":0.1616,"bldg_age30_r":null,"shelter_min_walk":24,"pop":16551,"hh":7877,"elderly65_r":0.2365,"single_hh_r":0.4042,"source_level":"emd","flood_years":[],"landslide_hist_n":0},"geometry":{"type":"Polygon","coordinates":[[[127.21239,36.28004],[127.21156,36.27627],[127.21573,36.27425],[127.22073,36.276],[127.22157,36.27976],[127.21739,36.28178],[127.21239,36.28004]]]}},{"type":"Feature","properties":{"h3":"8830c4b623fffff","emd_code":"4425031500","emd_name":"엄사면","area_km2":0.52,"edge":false,"slope_mean":10.62,"elev_mean":109.5,"flood_hist_n":0,"flood_depth_max_m":null,"flood_risk_100y":null,"semi_basement_r":null,"elderly_alone_r":0.1616,"bldg_age30_r":null,"shelter_min_walk":14,"pop":16551,"hh":7877,"elderly65_r":0.2365,"single_hh_r":0.4042,"source_level":"emd","flood_years":[],"landslide_hist_n":0},"geometry":{"type":"Polygon","coordinates":[[[127.22157,36.27976],[127.22073,36.276],[127.2249,36.27398],[127.22991,36.27573],[127.23074,36.27949],[127.22657,36.28151],[127.22157,36.27976]]]}},{"type":"Feature","properties":{"h3":"8830c4b625fffff","emd_code":"4425031500","emd_name":"엄사면","area_km2":0.52,"edge":false,"slope_mean":12.12,"elev_mean":122.4,"flood_hist_n":0,"flood_depth_max_m":null,"flood_risk_100y":null,"semi_basement_r":null,"elderly_alone_r":0.1616,"bldg_age30_r":null,"shelter_min_walk":35,"pop":16551,"hh":7877,"elderly65_r":0.2365,"single_hh_r":0.4042,"source_level":"emd","flood_years":[],"landslide_hist_n":0},"geometry":{"type":"Polygon","coordinates":[[[127.20655,36.27452],[127.20572,36.27075],[127.20989,36.26873],[127.21489,36.27048],[127.21573,36.27425],[127.21156,36.27627],[127.20655,36.27452]]]}},{"type":"Feature","properties":{"h3":"8830c4b627fffff","emd_code":"4425031500","emd_name":"엄사면","area_km2":0.5201,"edge":false,"slope_mean":11.15,"elev_mean":104.6,"flood_hist_n":0,"flood_depth_max_m":null,"flood_risk_100y":null,"semi_basement_r":null,"elderly_alone_r":0.1616,"bldg_age30_r":null,"shelter_min_walk":26,"pop":16551,"hh":7877,"elderly65_r":0.2365,"single_hh_r":0.4042,"source_level":"emd","flood_years":[],"landslide_hist_n":0},"geometry":{"type":"Polygon","coordinates":[[[127.21573,36.27425],[127.21489,36.27048],[127.21907,36.26846],[127.22407,36.27021],[127.2249,36.27398],[127.22073,36.276],[127.21573,36.27425]]]}},{"type":"Feature","properties":{"h3":"8830c4b629fffff","emd_code":"4425031500","emd_name":"엄사면","area_km2":0.5198,"edge":false,"slope_mean":14.4,"elev_mean":163.5,"flood_hist_n":0,"flood_depth_max_m":null,"flood_risk_100y":null,"semi_basement_r":null,"elderly_alone_r":0.1616,"bldg_age30_r":null,"shelter_min_walk":26,"pop":16551,"hh":7877,"elderly65_r":0.2365,"single_hh_r":0.4042,"source_level":"emd","flood_years":[],"landslide_hist_n":0},"geometry":{"type":"Polygon","coordinates":[[[127.20905,36.28582],[127.20822,36.28205],[127.21239,36.28004],[127.21739,36.28178],[127.21823,36.28555],[127.21405,36.28757],[127.20905,36.28582]]]}},{"type":"Feature","properties":{"h3":"8830c4b62bfffff","emd_code":"4425031500","emd_name":"엄사면","area_km2":0.5199,"edge":false,"slope_mean":10.2,"elev_mean":113.8,"flood_hist_n":0,"flood_depth_max_m":null,"flood_risk_100y":null,"semi_basement_r":null,"elderly_alone_r":0.1616,"bldg_age30_r":null,"shelter_min_walk":14,"pop":16551,"hh":7877,"elderly65_r":0.2365,"single_hh_r":0.4042,"source_level":"emd","flood_years":[],"landslide_hist_n":0},"geometry":{"type":"Polygon","coordinates":[[[127.21823,36.28555],[127.21739,36.28178],[127.22157,36.27976],[127.22657,36.28151],[127.2274,36.28528],[127.22323,36.2873],[127.21823,36.28555]]]}},{"type":"Feature","properties":{"h3":"8830c4b62dfffff","emd_code":"4425031500","emd_name":"엄사면","area_km2":0.5199,"edge":false,"slope_mean":17.53,"elev_mean":193.2,"flood_hist_n":0,"flood_depth_max_m":null,"flood_risk_100y":null,"semi_basement_r":null,"elderly_alone_r":0.1616,"bldg_age30_r":null,"shelter_min_walk":35,"pop":16551,"hh":7877,"elderly65_r":0.2365,"single_hh_r":0.4042,"source_level":"emd","flood_years":[],"landslide_hist_n":0},"geometry":{"type":"Polygon","coordinates":[[[127.20321,36.28031],[127.20238,36.27654],[127.20655,36.27452],[127.21156,36.27627],[127.21239,36.28004],[127.20822,36.28205],[127.20321,36.28031]]]}},{"type":"Feature","properties":{"h3":"8830c4b631fffff","emd_code":"4425031500","emd_name":"엄사면","area_km2":0.52,"edge":false,"slope_mean":8.93,"elev_mean":141.3,"flood_hist_n":0,"flood_depth_max_m":null,"flood_risk_100y":null,"semi_basement_r":null,"elderly_alone_r":0.1616,"bldg_age30_r":null,"shelter_min_walk":4,"pop":16551,"hh":7877,"elderly65_r":0.2365,"single_hh_r":0.4042,"source_level":"emd","flood_years":[],"landslide_hist_n":0},"geometry":{"type":"Polygon","coordinates":[[[127.23658,36.28501],[127.23575,36.28124],[127.23992,36.27922],[127.24493,36.28097],[127.24576,36.28473],[127.24159,36.28675],[127.23658,36.28501]]]}},{"type":"Feature","properties":{"h3":"8830c4b633fffff","emd_code":"4425031500","emd_name":"엄사면","area_km2":0.52,"edge":false,"slope_mean":6.6,"elev_mean":117.8,"flood_hist_n":0,"flood_depth_max_m":null,"flood_risk_100y":null,"semi_basement_r":null,"elderly_alone_r":0.1616,"bldg_age30_r":null,"shelter_min_walk":14,"pop":16551,"hh":7877,"elderly65_r":0.2365,"single_hh_r":0.4042,"source_level":"emd","flood_years":[],"landslide_hist_n":0},"geometry":{"type":"Polygon","coordinates":[[[127.24576,36.28473],[127.24493,36.28097],[127.2491,36.27895],[127.25411,36.28069],[127.25494,36.28446],[127.25077,36.28648],[127.24576,36.28473]]]}},{"type":"Feature","properties":{"h3":"8830c4b635fffff","emd_code":"4425031500","emd_name":"엄사면","area_km2":0.52,"edge":false,"slope_mean":10.74,"elev_mean":134.2,"flood_hist_n":0,"flood_depth_max_m":null,"flood_risk_100y":null,"semi_basement_r":null,"elderly_alone_r":0.1616,"bldg_age30_r":null,"shelter_min_walk":6,"pop":16551,"hh":7877,"elderly65_r":0.2365,"single_hh_r":0.4042,"source_level":"emd","flood_years":[],"landslide_hist_n":2},"geometry":{"type":"Polygon","coordinates":[[[127.23074,36.27949],[127.22991,36.27573],[127.23408,36.27371],[127.23909,36.27545],[127.23992,36.27922],[127.23575,36.28124],[127.23074,36.27949]]]}},{"type":"Feature","properties":{"h3":"8830c4b637fffff","emd_code":"4425051000","emd_name":"금암동","area_km2":0.5201,"edge":false,"slope_mean":16.23,"elev_mean":176.3,"flood_hist_n":0,"flood_depth_max_m":null,"flood_risk_100y":null,"semi_basement_r":null,"elderly_alone_r":0.094,"bldg_age30_r":null,"shelter_min_walk":10,"pop":7900,"hh":3479,"elderly65_r":0.2199,"single_hh_r":0.3242,"source_level":"emd","flood_years":[],"landslide_hist_n":0},"geometry":{"type":"Polygon","coordinates":[[[127.23992,36.27922],[127.23909,36.27545],[127.24326,36.27343],[127.24827,36.27518],[127.2491,36.27895],[127.24493,36.28097],[127.23992,36.27922]]]}},{"type":"Feature","properties":{"h3":"8830c4b639fffff","emd_code":"4425031500","emd_name":"엄사면","area_km2":0.5199,"edge":false,"slope_mean":8.71,"elev_mean":148.0,"flood_hist_n":0,"flood_depth_max_m":null,"flood_risk_100y":null,"semi_basement_r":null,"elderly_alone_r":0.1616,"bldg_age30_r":null,"shelter_min_walk":5,"pop":16551,"hh":7877,"elderly65_r":0.2365,"single_hh_r":0.4042,"source_level":"emd","flood_years":[],"landslide_hist_n":0},"geometry":{"type":"Polygon","coordinates":[[[127.23324,36.29079],[127.23241,36.28703],[127.23658,36.28501],[127.24159,36.28675],[127.24242,36.29052],[127.23825,36.29254],[127.23324,36.29079]]]}},{"type":"Feature","properties":{"h3":"8830c4b63bfffff","emd_code":"4425031500","emd_name":"엄사면","area_km2":0.5199,"edge":false,"slope_mean":6.51,"elev_mean":121.3,"flood_hist_n":0,"flood_depth_max_m":null,"flood_risk_100y":null,"semi_basement_r":null,"elderly_alone_r":0.1616,"bldg_age30_r":null,"shelter_min_walk":5,"pop":16551,"hh":7877,"elderly65_r":0.2365,"single_hh_r":0.4042,"source_level":"emd","flood_years":[],"landslide_hist_n":0},"geometry":{"type":"Polygon","coordinates":[[[127.24242,36.29052],[127.24159,36.28675],[127.24576,36.28473],[127.25077,36.28648],[127.2516,36.29025],[127.24743,36.29227],[127.24242,36.29052]]]}},{"type":"Feature","properties":{"h3":"8830c4b63dfffff","emd_code":"4425031500","emd_name":"엄사면","area_km2":0.5199,"edge":false,"slope_mean":10.93,"elev_mean":134.4,"flood_hist_n":0,"flood_depth_max_m":null,"flood_risk_100y":null,"semi_basement_r":null,"elderly_alone_r":0.1616,"bldg_age30_r":null,"shelter_min_walk":2,"pop":16551,"hh":7877,"elderly65_r":0.2365,"single_hh_r":0.4042,"source_level":"emd","flood_years":[],"landslide_hist_n":0},"geometry":{"type":"Polygon","coordinates":[[[127.2274,36.28528],[127.22657,36.28151],[127.23074,36.27949],[127.23575,36.28124],[127.23658,36.28501],[127.23241,36.28703],[127.2274,36.28528]]]}},{"type":"Feature","properties":{"h3":"8830c4b641fffff","emd_code":"4425033000","emd_name":"신도안면","area_km2":0.5194,"edge":false,"slope_mean":22.73,"elev_mean":314.6,"flood_hist_n":0,"flood_depth_max_m":null,"flood_risk_100y":null,"semi_basement_r":null,"elderly_alone_r":0.0,"bldg_age30_r":null,"shelter_min_walk":48,"pop":7509,"hh":2458,"elderly65_r":0.0162,"single_hh_r":0.1701,"source_level":"emd","flood_years":[],"landslide_hist_n":0},"geometry":{"type":"Polygon","coordinates":[[[127.20487,36.30868],[127.20403,36.30492],[127.20821,36.3029],[127.21321,36.30465],[127.21404,36.30841],[127.20987,36.31043],[127.20487,36.30868]]]}},{"type":"Feature","properties":{"h3":"8830c4b643fffff","emd_code":"4425033000","emd_name":"신도안면","area_km2":0.5195,"edge":false,"slope_mean":10.9,"elev_mean":182.5,"flood_hist_n":0,"flood_depth_max_m":null,"flood_risk_100y":null,"semi_basement_r":null,"elderly_alone_r":0.0,"bldg_age30_r":null,"shelter_min_walk":37,"pop":7509,"hh":2458,"elderly65_r":0.0162,"single_hh_r":0.1701,"source_level":"emd","flood_years":[],"landslide_hist_n":0},"geometry":{"type":"Polygon","coordinates":[[[127.21404,36.30841],[127.21321,36.30465],[127.21738,36.30263],[127.22239,36.30438],[127.22322,36.30814],[127.21905,36.31016],[127.21404,36.30841]]]}},{"type":"Feature","properties":{"h3":"8830c4b645fffff","emd_code":"4425031500","emd_name":"엄사면","area_km2":0.5195,"edge":true,"slope_mean":27.92,"elev_mean":323.5,"flood_hist_n":0,"flood_depth_max_m":null,"flood_risk_100y":null,"semi_basement_r":null,"elderly_alone_r":0.1616,"bldg_age30_r":null,"shelter_min_walk":49,"pop":16551,"hh":7877,"elderly65_r":0.2365,"single_hh_r":0.4042,"source_level":"emd","flood_years":[],"landslide_hist_n":0},"geometry":{"type":"Polygon","coordinates":[[[127.19903,36.30317],[127.1982,36.29941],[127.20237,36.29739],[127.20737,36.29914],[127.20821,36.3029],[127.20403,36.30492],[127.19903,36.30317]]]}},{"type":"Feature","properties":{"h3":"8830c4b647fffff","emd_code":"4425033000","emd_name":"신도안면","area_km2":0.5195,"edge":false,"slope_mean":20.04,"elev_mean":291.0,"flood_hist_n":0,"flood_depth_max_m":null,"flood_risk_100y":null,"semi_basement_r":null,"elderly_alone_r":0.0,"bldg_age30_r":null,"shelter_min_walk":39,"pop":7509,"hh":2458,"elderly65_r":0.0162,"single_hh_r":0.1701,"source_level":"emd","flood_years":[],"landslide_hist_n":0},"geometry":{"type":"Polygon","coordinates":[[[127.20821,36.3029],[127.20737,36.29914],[127.21155,36.29712],[127.21655,36.29887],[127.21738,36.30263],[127.21321,36.30465],[127.20821,36.3029]]]}},{"type":"Feature","properties":{"h3":"8830c4b649fffff","emd_code":"4425033000","emd_name":"신도안면","area_km2":0.5193,"edge":false,"slope_mean":25.62,"elev_mean":337.4,"flood_hist_n":0,"flood_depth_max_m":null,"flood_risk_100y":null,"semi_basement_r":null,"elderly_alone_r":0.0,"bldg_age30_r":null,"shelter_min_walk":56,"pop":7509,"hh":2458,"elderly65_r":0.0162,"single_hh_r":0.1701,"source_level":"emd","flood_years":[],"landslide_hist_n":0},"geometry":{"type":"Polygon","coordinates":[[[127.20153,36.31446],[127.20069,36.3107],[127.20487,36.30868],[127.20987,36.31043],[127.2107,36.31419],[127.20653,36.31621],[127.20153,36.31446]]]}},{"type":"Feature","properties":{"h3":"8830c4b64bfffff","emd_code":"4425033000","emd_name":"신도안면","area_km2":0.5194,"edge":false,"slope_mean":16.64,"elev_mean":215.9,"flood_hist_n":0,"flood_depth_max_m":null,"flood_risk_100y":null,"semi_basement_r":null,"elderly_alone_r":0.0,"bldg_age30_r":null,"shelter_min_walk":46,"pop":7509,"hh":2458,"elderly65_r":0.0162,"single_hh_r":0.1701,"source_level":"emd","flood_years":[],"landslide_hist_n":0},"geometry":{"type":"Polygon","coordinates":[[[127.2107,36.31419],[127.20987,36.31043],[127.21404,36.30841],[127.21905,36.31016],[127.21988,36.31392],[127.21571,36.31594],[127.2107,36.31419]]]}},{"type":"Feature","properties":{"h3":"8830c4b64dfffff","emd_code":"4425033000","emd_name":"신도안면","area_km2":0.5194,"edge":true,"slope_mean":21.97,"elev_mean":231.5,"flood_hist_n":0,"flood_depth_max_m":null,"flood_risk_100y":null,"semi_basement_r":null,"elderly_alone_r":0.0,"bldg_age30_r":null,"shelter_min_walk":58,"pop":7509,"hh":2458,"elderly65_r":0.0162,"single_hh_r":0.1701,"source_level":"emd","flood_years":[],"landslide_hist_n":0},"geometry":{"type":"Polygon","coordinates":[[[127.19569,36.30895],[127.19486,36.30519],[127.19903,36.30317],[127.20403,36.30492],[127.20487,36.30868],[127.20069,36.3107],[127.19569,36.30895]]]}},{"type":"Feature","properties":{"h3":"8830c4b651fffff","emd_code":"4425033000","emd_name":"신도안면","area_km2":0.5195,"edge":false,"slope_mean":4.22,"elev_mean":137.5,"flood_hist_n":0,"flood_depth_max_m":null,"flood_risk_100y":null,"semi_basement_r":null,"elderly_alone_r":0.0,"bldg_age30_r":null,"shelter_min_walk":29,"pop":7509,"hh":2458,"elderly65_r":0.0162,"single_hh_r":0.1701,"source_level":"emd","flood_years":[],"landslide_hist_n":0},"geometry":{"type":"Polygon","coordinates":[[[127.22906,36.31365],[127.22823,36.30989],[127.2324,36.30787],[127.23741,36.30962],[127.23824,36.31338],[127.23407,36.3154],[127.22906,36.31365]]]}},{"type":"Feature","properties":{"h3":"8830c4b653fffff","emd_code":"4425033000","emd_name":"신도안면","area_km2":0.5195,"edge":false,"slope_mean":5.96,"elev_mean":139.7,"flood_hist_n":0,"flood_depth_max_m":null,"flood_risk_100y":null,"semi_basement_r":null,"elderly_alone_r":0.0,"bldg_age30_r":null,"shelter_min_walk":26,"pop":7509,"hh":2458,"elderly65_r":0.0162,"single_hh_r":0.1701,"source_level":"emd","flood_years":[],"landslide_hist_n":0},"geometry":{"type":"Polygon","coordinates":[[[127.23824,36.31338],[127.23741,36.30962],[127.24158,36.3076],[127.24659,36.30935],[127.24742,36.31311],[127.24325,36.31513],[127.23824,36.31338]]]}},{"type":"Feature","properties":{"h3":"8830c4b655fffff","emd_code":"4425033000","emd_name":"신도안면","area_km2":0.5195,"edge":false,"slope_mean":8.52,"elev_mean":156.1,"flood_hist_n":0,"flood_depth_max_m":null,"flood_risk_100y":null,"semi_basement_r":null,"elderly_alone_r":0.0,"bldg_age30_r":null,"shelter_min_walk":26,"pop":7509,"hh":2458,"elderly65_r":0.0162,"single_hh_r":0.1701,"source_level":"emd","flood_years":[],"landslide_hist_n":0},"geometry":{"type":"Polygon","coordinates":[[[127.22322,36.30814],[127.22239,36.30438],[127.22656,36.30236],[127.23157,36.30411],[127.2324,36.30787],[127.22823,36.30989],[127.22322,36.30814]]]}},{"type":"Feature","properties":{"h3":"8830c4b657fffff","emd_code":"4425033000","emd_name":"신도안면","area_km2":0.5196,"edge":false,"slope_mean":7.66,"elev_mean":136.8,"flood_hist_n":0,"flood_depth_max_m":null,"flood_risk_100y":null,"semi_basement_r":null,"elderly_alone_r":0.0,"bldg_age30_r":null,"shelter_min_walk":18,"pop":7509,"hh":2458,"elderly65_r":0.0162,"single_hh_r":0.1701,"source_level":"emd","flood_years":[],"landslide_hist_n":0},"geometry":{"type":"Polygon","coordinates":[[[127.2324,36.30787],[127.23157,36.30411],[127.23574,36.30209],[127.24075,36.30383],[127.24158,36.3076],[127.23741,36.30962],[127.2324,36.30787]]]}},{"type":"Feature","properties":{"h3":"8830c4b659fffff","emd_code":"4425033000","emd_name":"신도안면","area_km2":0.5194,"edge":false,"slope_mean":5.46,"elev_mean":153.2,"flood_hist_n":0,"flood_depth_max_m":null,"flood_risk_100y":null,"semi_basement_r":null,"elderly_alone_r":0.0,"bldg_age30_r":null,"shelter_min_walk":39,"pop":7509,"hh":2458,"elderly65_r":0.0162,"single_hh_r":0.1701,"source_level":"emd","flood_years":[],"landslide_hist_n":0},"geometry":{"type":"Polygon","coordinates":[[[127.22572,36.31943],[127.22489,36.31567],[127.22906,36.31365],[127.23407,36.3154],[127.2349,36.31916],[127.23073,36.32118],[127.22572,36.31943]]]}},{"type":"Feature","properties":{"h3":"8830c4b65bfffff","emd_code":"4425033000","emd_name":"신도안면","area_km2":0.5194,"edge":false,"slope_mean":5.29,"elev_mean":143.4,"flood_hist_n":0,"flood_depth_max_m":null,"flood_risk_100y":null,"semi_basement_r":null,"elderly_alone_r":0.0,"bldg_age30_r":null,"shelter_min_walk":36,"pop":7509,"hh":2458,"elderly65_r":0.0162,"single_hh_r":0.1701,"source_level":"emd","flood_years":[],"landslide_hist_n":0},"geometry":{"type":"Polygon","coordinates":[[[127.2349,36.31916],[127.23407,36.3154],[127.23824,36.31338],[127.24325,36.31513],[127.24408,36.31889],[127.23991,36.32091],[127.2349,36.31916]]]}},{"type":"Feature","properties":{"h3":"8830c4b65dfffff","emd_code":"4425033000","emd_name":"신도안면","area_km2":0.5194,"edge":false,"slope_mean":5.74,"elev_mean":150.8,"flood_hist_n":0,"flood_depth_max_m":null,"flood_risk_100y":null,"semi_basement_r":null,"elderly_alone_r":0.0,"bldg_age30_r":null,"shelter_min_walk":36,"pop":7509,"hh":2458,"elderly65_r":0.0162,"single_hh_r":0.1701,"source_level":"emd","flood_years":[],"landslide_hist_n":0},"geometry":{"type":"Polygon","coordinates":[[[127.21988,36.31392],[127.21905,36.31016],[127.22322,36.30814],[127.22823,36.30989],[127.22906,36.31365],[127.22489,36.31567],[127.21988,36.31392]]]}},{"type":"Feature","properties":{"h3":"8830c4b661fffff","emd_code":"4425031500","emd_name":"엄사면","area_km2":0.5197,"edge":true,"slope_mean":30.29,"elev_mean":376.9,"flood_hist_n":0,"flood_depth_max_m":null,"flood_risk_100y":null,"semi_basement_r":null,"elderly_alone_r":0.1616,"bldg_age30_r":null,"shelter_min_walk":44,"pop":16551,"hh":7877,"elderly65_r":0.2365,"single_hh_r":0.4042,"source_level":"emd","flood_years":[],"landslide_hist_n":0},"geometry":{"type":"Polygon","coordinates":[[[127.19653,36.29187],[127.1957,36.28811],[127.19987,36.28609],[127.20488,36.28784],[127.20571,36.2916],[127.20154,36.29362],[127.19653,36.29187]]]}},{"type":"Feature","properties":{"h3":"8830c4b663fffff","emd_code":"4425031500","emd_name":"엄사면","area_km2":0.5197,"edge":false,"slope_mean":20.79,"elev_mean":249.3,"flood_hist_n":0,"flood_depth_max_m":null,"flood_risk_100y":null,"semi_basement_r":null,"elderly_alone_r":0.1616,"bldg_age30_r":null,"shelter_min_walk":32,"pop":16551,"hh":7877,"elderly65_r":0.2365,"single_hh_r":0.4042,"source_level":"emd","flood_years":[],"landslide_hist_n":0},"geometry":{"type":"Polygon","coordinates":[[[127.20571,36.2916],[127.20488,36.28784],[127.20905,36.28582],[127.21405,36.28757],[127.21489,36.29133],[127.21071,36.29335],[127.20571,36.2916]]]}},{"type":"Feature","properties":{"h3":"8830c4b667fffff","emd_code":"4425031500","emd_name":"엄사면","area_km2":0.5198,"edge":false,"slope_mean":25.9,"elev_mean":335.2,"flood_hist_n":0,"flood_depth_max_m":null,"flood_risk_100y":null,"semi_basement_r":null,"elderly_alone_r":0.1616,"bldg_age30_r":null,"shelter_min_walk":38,"pop":16551,"hh":7877,"elderly65_r":0.2365,"single_hh_r":0.4042,"source_level":"emd","flood_years":[],"landslide_hist_n":0},"geometry":{"type":"Polygon","coordinates":[[[127.19987,36.28609],[127.19904,36.28232],[127.20321,36.28031],[127.20822,36.28205],[127.20905,36.28582],[127.20488,36.28784],[127.19987,36.28609]]]}},{"type":"Feature","properties":{"h3":"8830c4b66bfffff","emd_code":"4425031500","emd_name":"엄사면","area_km2":0.5196,"edge":false,"slope_mean":25.15,"elev_mean":356.3,"flood_hist_n":0,"flood_depth_max_m":null,"flood_risk_100y":null,"semi_basement_r":null,"elderly_alone_r":0.1616,"bldg_age30_r":null,"shelter_min_walk":40,"pop":16551,"hh":7877,"elderly65_r":0.2365,"single_hh_r":0.4042,"source_level":"emd","flood_years":[],"landslide_hist_n":0},"geometry":{"type":"Polygon","coordinates":[[[127.20237,36.29739],[127.20154,36.29362],[127.20571,36.2916],[127.21071,36.29335],[127.21155,36.29712],[127.20737,36.29914],[127.20237,36.29739]]]}},{"type":"Feature","properties":{"h3":"8830c4b6a5fffff","emd_code":"4425031000","emd_name":"두마면","area_km2":0.5203,"edge":true,"slope_mean":7.42,"elev_mean":110.3,"flood_hist_n":1,"flood_depth_max_m":0.844,"flood_risk_100y":null,"semi_basement_r":null,"elderly_alone_r":0.0942,"bldg_age30_r":null,"shelter_min_walk":8,"pop":14023,"hh":5870,"elderly65_r":0.1493,"single_hh_r":0.2925,"source_level":"emd","flood_years":[2020],"landslide_hist_n":0},"geometry":{"type":"Polygon","coordinates":[[[127.2708,36.27261],[127.26997,36.26884],[127.27414,36.26682],[127.27915,36.26856],[127.27998,36.27233],[127.27581,36.27435],[127.2708,36.27261]]]}},{"type":"Feature","properties":{"h3":"8830c4b6cdfffff","emd_code":"4425033000","emd_name":"신도안면","area_km2":0.5197,"edge":true,"slope_mean":15.01,"elev_mean":238.3,"flood_hist_n":0,"flood_depth_max_m":null,"flood_risk_100y":null,"semi_basement_r":null,"elderly_alone_r":0.0,"bldg_age30_r":null,"shelter_min_walk":33,"pop":7509,"hh":2458,"elderly65_r":0.0162,"single_hh_r":0.1701,"source_level":"emd","flood_years":[],"landslide_hist_n":0},"geometry":{"type":"Polygon","coordinates":[[[127.25994,36.30705],[127.25911,36.30329],[127.26328,36.30127],[127.26829,36.30301],[127.26912,36.30678],[127.26495,36.3088],[127.25994,36.30705]]]}},{"type":"Feature","properties":{"h3":"8830c4b6e9fffff","emd_code":"4425033000","emd_name":"신도안면","area_km2":0.5199,"edge":true,"slope_mean":16.28,"elev_mean":206.9,"flood_hist_n":0,"flood_depth_max_m":null,"flood_risk_100y":null,"semi_basement_r":null,"elderly_alone_r":0.0,"bldg_age30_r":null,"shelter_min_walk":26,"pop":7509,"hh":2458,"elderly65_r":0.0162,"single_hh_r":0.1701,"source_level":"emd","flood_years":[],"landslide_hist_n":0},"geometry":{"type":"Polygon","coordinates":[[[127.25744,36.29576],[127.25661,36.29199],[127.26078,36.28997],[127.26579,36.29172],[127.26662,36.29548],[127.26245,36.2975],[127.25744,36.29576]]]}},{"type":"Feature","properties":{"h3":"8830c4b711fffff","emd_code":"4425031500","emd_name":"엄사면","area_km2":0.5202,"edge":false,"slope_mean":15.82,"elev_mean":154.5,"flood_hist_n":0,"flood_depth_max_m":null,"flood_risk_100y":null,"semi_basement_r":null,"elderly_alone_r":0.1616,"bldg_age30_r":null,"shelter_min_walk":50,"pop":16551,"hh":7877,"elderly65_r":0.2365,"single_hh_r":0.4042,"source_level":"emd","flood_years":[],"landslide_hist_n":0},"geometry":{"type":"Polygon","coordinates":[[[127.20405,36.26322],[127.20322,36.25945],[127.20739,36.25743],[127.2124,36.25918],[127.21323,36.26295],[127.20906,36.26497],[127.20405,36.26322]]]}},{"type":"Feature","properties":{"h3":"8830c4b713fffff","emd_code":"4425031500","emd_name":"엄사면","area_km2":0.5202,"edge":false,"slope_mean":13.46,"elev_mean":107.3,"flood_hist_n":0,"flood_depth_max_m":null,"flood_risk_100y":null,"semi_basement_r":null,"elderly_alone_r":0.1616,"bldg_age30_r":null,"shelter_min_walk":42,"pop":16551,"hh":7877,"elderly65_r":0.2365,"single_hh_r":0.4042,"source_level":"emd","flood_years":[],"landslide_hist_n":0},"geometry":{"type":"Polygon","coordinates":[[[127.21323,36.26295],[127.2124,36.25918],[127.21657,36.25716],[127.22157,36.25891],[127.22241,36.26267],[127.21823,36.2647],[127.21323,36.26295]]]}},{"type":"Feature","properties":{"h3":"8830c4b715fffff","emd_code":"4425031500","emd_name":"엄사면","area_km2":0.5202,"edge":false,"slope_mean":21.9,"elev_mean":237.9,"flood_hist_n":0,"flood_depth_max_m":null,"flood_risk_100y":null,"semi_basement_r":null,"elderly_alone_r":0.1616,"bldg_age30_r":null,"shelter_min_walk":62,"pop":16551,"hh":7877,"elderly65_r":0.2365,"single_hh_r":0.4042,"source_level":"emd","flood_years":[],"landslide_hist_n":0},"geometry":{"type":"Polygon","coordinates":[[[127.19822,36.2577],[127.19738,36.25393],[127.20156,36.25191],[127.20656,36.25366],[127.20739,36.25743],[127.20322,36.25945],[127.19822,36.2577]]]}},{"type":"Feature","properties":{"h3":"8830c4b717fffff","emd_code":"4425031500","emd_name":"엄사면","area_km2":0.5203,"edge":true,"slope_mean":15.72,"elev_mean":144.6,"flood_hist_n":0,"flood_depth_max_m":null,"flood_risk_100y":null,"semi_basement_r":null,"elderly_alone_r":0.1616,"bldg_age30_r":null,"shelter_min_walk":54,"pop":16551,"hh":7877,"elderly65_r":0.2365,"single_hh_r":0.4042,"source_level":"emd","flood_years":[],"landslide_hist_n":0},"geometry":{"type":"Polygon","coordinates":[[[127.20739,36.25743],[127.20656,36.25366],[127.21073,36.25164],[127.21574,36.25339],[127.21657,36.25716],[127.2124,36.25918],[127.20739,36.25743]]]}},{"type":"Feature","properties":{"h3":"8830c4b719fffff","emd_code":"4425031500","emd_name":"엄사면","area_km2":0.5201,"edge":false,"slope_mean":17.28,"elev_mean":173.1,"flood_hist_n":0,"flood_depth_max_m":null,"flood_risk_100y":null,"semi_basement_r":null,"elderly_alone_r":0.1616,"bldg_age30_r":null,"shelter_min_walk":47,"pop":16551,"hh":7877,"elderly65_r":0.2365,"single_hh_r":0.4042,"source_level":"emd","flood_years":[],"landslide_hist_n":0},"geometry":{"type":"Polygon","coordinates":[[[127.20071,36.26901],[127.19988,36.26524],[127.20405,36.26322],[127.20906,36.26497],[127.20989,36.26873],[127.20572,36.27075],[127.20071,36.26901]]]}},{"type":"Feature","properties":{"h3":"8830c4b71bfffff","emd_code":"4425031500","emd_name":"엄사면","area_km2":0.5201,"edge":false,"slope_mean":10.01,"elev_mean":99.3,"flood_hist_n":0,"flood_depth_max_m":null,"flood_risk_100y":null,"semi_basement_r":null,"elderly_alone_r":0.1616,"bldg_age30_r":null,"shelter_min_walk":38,"pop":16551,"hh":7877,"elderly65_r":0.2365,"single_hh_r":0.4042,"source_level":"emd","flood_years":[],"landslide_hist_n":0},"geometry":{"type":"Polygon","coordinates":[[[127.20989,36.26873],[127.20906,36.26497],[127.21323,36.26295],[127.21823,36.2647],[127.21907,36.26846],[127.21489,36.27048],[127.20989,36.26873]]]}},{"type":"Feature","properties":{"h3":"8830c4b71dfffff","emd_code":"4425031500","emd_name":"엄사면","area_km2":0.5201,"edge":false,"slope_mean":23.78,"elev_mean":245.3,"flood_hist_n":0,"flood_depth_max_m":null,"flood_risk_100y":null,"semi_basement_r":null,"elderly_alone_r":0.1616,"bldg_age30_r":null,"shelter_min_walk":58,"pop":16551,"hh":7877,"elderly65_r":0.2365,"single_hh_r":0.4042,"source_level":"emd","flood_years":[],"landslide_hist_n":0},"geometry":{"type":"Polygon","coordinates":[[[127.19488,36.26349],[127.19404,36.25972],[127.19822,36.2577],[127.20322,36.25945],[127.20405,36.26322],[127.19988,36.26524],[127.19488,36.26349]]]}},{"type":"Feature","properties":{"h3":"8830c4b73bfffff","emd_code":"4425031500","emd_name":"엄사면","area_km2":0.5204,"edge":true,"slope_mean":17.65,"elev_mean":236.9,"flood_hist_n":0,"flood_depth_max_m":null,"flood_risk_100y":null,"semi_basement_r":null,"elderly_alone_r":0.1616,"bldg_age30_r":null,"shelter_min_walk":66,"pop":16551,"hh":7877,"elderly65_r":0.2365,"single_hh_r":0.4042,"source_level":"emd","flood_years":[],"landslide_hist_n":0},"geometry":{"type":"Polygon","coordinates":[[[127.20156,36.25191],[127.20072,36.24814],[127.2049,36.24612],[127.2099,36.24787],[127.21073,36.25164],[127.20656,36.25366],[127.20156,36.25191]]]}},{"type":"Feature","properties":{"h3":"8830c4b751fffff","emd_code":"4425031500","emd_name":"엄사면","area_km2":0.5199,"edge":true,"slope_mean":21.43,"elev_mean":206.5,"flood_hist_n":0,"flood_depth_max_m":null,"flood_risk_100y":null,"semi_basement_r":null,"elderly_alone_r":0.1616,"bldg_age30_r":null,"shelter_min_walk":57,"pop":16551,"hh":7877,"elderly65_r":0.2365,"single_hh_r":0.4042,"source_level":"emd","flood_years":[],"landslide_hist_n":0},"geometry":{"type":"Polygon","coordinates":[[[127.1882,36.27506],[127.18737,36.27129],[127.19154,36.26928],[127.19654,36.27102],[127.19737,36.27479],[127.1932,36.27681],[127.1882,36.27506]]]}},{"type":"Feature","properties":{"h3":"8830c4b753fffff","emd_code":"4425031500","emd_name":"엄사면","area_km2":0.52,"edge":false,"slope_mean":22.52,"elev_mean":242.4,"flood_hist_n":0,"flood_depth_max_m":null,"flood_risk_100y":null,"semi_basement_r":null,"elderly_alone_r":0.1616,"bldg_age30_r":null,"shelter_min_walk":46,"pop":16551,"hh":7877,"elderly65_r":0.2365,"single_hh_r":0.4042,"source_level":"emd","flood_years":[],"landslide_hist_n":0},"geometry":{"type":"Polygon","coordinates":[[[127.19737,36.27479],[127.19654,36.27102],[127.20071,36.26901],[127.20572,36.27075],[127.20655,36.27452],[127.20238,36.27654],[127.19737,36.27479]]]}},{"type":"Feature","properties":{"h3":"8830c4b757fffff","emd_code":"4425031500","emd_name":"엄사면","area_km2":0.52,"edge":true,"slope_mean":20.94,"elev_mean":201.7,"flood_hist_n":0,"flood_depth_max_m":null,"flood_risk_100y":null,"semi_basement_r":null,"elderly_alone_r":0.1616,"bldg_age30_r":null,"shelter_min_walk":57,"pop":16551,"hh":7877,"elderly65_r":0.2365,"single_hh_r":0.4042,"source_level":"emd","flood_years":[],"landslide_hist_n":0},"geometry":{"type":"Polygon","coordinates":[[[127.19154,36.26928],[127.19071,36.26551],[127.19488,36.26349],[127.19988,36.26524],[127.20071,36.26901],[127.19654,36.27102],[127.19154,36.26928]]]}},{"type":"Feature","properties":{"h3":"8830c4b75bfffff","emd_code":"4425031500","emd_name":"엄사면","area_km2":0.5198,"edge":false,"slope_mean":26.76,"elev_mean":325.5,"flood_hist_n":0,"flood_depth_max_m":null,"flood_risk_100y":null,"semi_basement_r":null,"elderly_alone_r":0.1616,"bldg_age30_r":null,"shelter_min_walk":47,"pop":16551,"hh":7877,"elderly65_r":0.2365,"single_hh_r":0.4042,"source_level":"emd","flood_years":[],"landslide_hist_n":0},"geometry":{"type":"Polygon","coordinates":[[[127.19403,36.28058],[127.1932,36.27681],[127.19737,36.27479],[127.20238,36.27654],[127.20321,36.28031],[127.19904,36.28232],[127.19403,36.28058]]]}},{"type":"Feature","properties":{"h3":"8830e34c81fffff","emd_code":"4425033000","emd_name":"신도안면","area_km2":0.5189,"edge":false,"slope_mean":24.88,"elev_mean":506.4,"flood_hist_n":0,"flood_depth_max_m":null,"flood_risk_100y":null,"semi_basement_r":null,"elderly_alone_r":0.0,"bldg_age30_r":null,"shelter_min_walk":85,"pop":7509,"hh":2458,"elderly65_r":0.0162,"single_hh_r":0.1701,"source_level":"emd","flood_years":[],"landslide_hist_n":0},"geometry":{"type":"Polygon","coordinates":[[[127.19734,36.33731],[127.19651,36.33355],[127.20068,36.33153],[127.20569,36.33328],[127.20652,36.33704],[127.20235,36.33906],[127.19734,36.33731]]]}},{"type":"Feature","properties":{"h3":"8830e34c83fffff","emd_code":"4425033000","emd_name":"신도안면","area_km2":0.519,"edge":false,"slope_mean":29.38,"elev_mean":543.1,"flood_hist_n":0,"flood_depth_max_m":null,"flood_risk_100y":null,"semi_basement_r":null,"elderly_alone_r":0.0,"bldg_age30_r":null,"shelter_min_walk":78,"pop":7509,"hh":2458,"elderly65_r":0.0162,"single_hh_r":0.1701,"source_level":"emd","flood_years":[],"landslide_hist_n":0},"geometry":{"type":"Polygon","coordinates":[[[127.20652,36.33704],[127.20569,36.33328],[127.20986,36.33126],[127.21487,36.33301],[127.2157,36.33677],[127.21153,36.33879],[127.20652,36.33704]]]}},{"type":"Feature","properties":{"h3":"8830e34c85fffff","emd_code":"4425033000","emd_name":"신도안면","area_km2":0.519,"edge":true,"slope_mean":23.24,"elev_mean":305.7,"flood_hist_n":0,"flood_depth_max_m":null,"flood_risk_100y":null,"semi_basement_r":null,"elderly_alone_r":0.0,"bldg_age30_r":null,"shelter_min_walk":84,"pop":7509,"hh":2458,"elderly65_r":0.0162,"single_hh_r":0.1701,"source_level":"emd","flood_years":[],"landslide_hist_n":0},"geometry":{"type":"Polygon","coordinates":[[[127.19151,36.3318],[127.19068,36.32804],[127.19485,36.32602],[127.19985,36.32777],[127.20068,36.33153],[127.19651,36.33355],[127.19151,36.3318]]]}},{"type":"Feature","properties":{"h3":"8830e34c87fffff","emd_code":"4425033000","emd_name":"신도안면","area_km2":0.519,"edge":false,"slope_mean":27.0,"elev_mean":432.8,"flood_hist_n":0,"flood_depth_max_m":null,"flood_risk_100y":null,"semi_basement_r":null,"elderly_alone_r":0.0,"bldg_age30_r":null,"shelter_min_walk":75,"pop":7509,"hh":2458,"elderly65_r":0.0162,"single_hh_r":0.1701,"source_level":"emd","flood_years":[],"landslide_hist_n":0},"geometry":{"type":"Polygon","coordinates":[[[127.20068,36.33153],[127.19985,36.32777],[127.20402,36.32575],[127.20903,36.3275],[127.20986,36.33126],[127.20569,36.33328],[127.20068,36.33153]]]}},{"type":"Feature","properties":{"h3":"8830e34c89fffff","emd_code":"4425033000","emd_name":"신도안면","area_km2":0.5188,"edge":true,"slope_mean":30.57,"elev_mean":483.3,"flood_hist_n":0,"flood_depth_max_m":null,"flood_risk_100y":null,"semi_basement_r":null,"elderly_alone_r":0.0,"bldg_age30_r":null,"shelter_min_walk":95,"pop":7509,"hh":2458,"elderly65_r":0.0162,"single_hh_r":0.1701,"source_level":"emd","flood_years":[],"landslide_hist_n":0},"geometry":{"type":"Polygon","coordinates":[[[127.194,36.34309],[127.19317,36.33932],[127.19734,36.33731],[127.20235,36.33906],[127.20318,36.34282],[127.19901,36.34483],[127.194,36.34309]]]}},{"type":"Feature","properties":{"h3":"8830e34c8bfffff","emd_code":"4425033000","emd_name":"신도안면","area_km2":0.5189,"edge":false,"slope_mean":30.38,"elev_mean":673.3,"flood_hist_n":0,"flood_depth_max_m":null,"flood_risk_100y":null,"semi_basement_r":null,"elderly_alone_r":0.0,"bldg_age30_r":null,"shelter_min_walk":88,"pop":7509,"hh":2458,"elderly65_r":0.0162,"single_hh_r":0.1701,"source_level":"emd","flood_years":[],"landslide_hist_n":0},"geometry":{"type":"Polygon","coordinates":[[[127.20318,36.34282],[127.20235,36.33906],[127.20652,36.33704],[127.21153,36.33879],[127.21236,36.34255],[127.20819,36.34457],[127.20318,36.34282]]]}},{"type":"Feature","properties":{"h3":"8830e34c8dfffff","emd_code":"4425033000","emd_name":"신도안면","area_km2":0.5189,"edge":true,"slope_mean":24.53,"elev_mean":287.8,"flood_hist_n":0,"flood_depth_max_m":null,"flood_risk_100y":null,"semi_basement_r":null,"elderly_alone_r":0.0,"bldg_age30_r":null,"shelter_min_walk":94,"pop":7509,"hh":2458,"elderly65_r":0.0162,"single_hh_r":0.1701,"source_level":"emd","flood_years":[],"landslide_hist_n":0},"geometry":{"type":"Polygon","coordinates":[[[127.18817,36.33758],[127.18734,36.33382],[127.19151,36.3318],[127.19651,36.33355],[127.19734,36.33731],[127.19317,36.33932],[127.18817,36.33758]]]}},{"type":"Feature","properties":{"h3":"8830e34c91fffff","emd_code":"4425033000","emd_name":"신도안면","area_km2":0.5189,"edge":false,"slope_mean":21.87,"elev_mean":352.4,"flood_hist_n":0,"flood_depth_max_m":null,"flood_risk_100y":null,"semi_basement_r":null,"elderly_alone_r":0.0,"bldg_age30_r":null,"shelter_min_walk":77,"pop":7509,"hh":2458,"elderly65_r":0.0162,"single_hh_r":0.1701,"source_level":"emd","flood_years":[],"landslide_hist_n":0},"geometry":{"type":"Polygon","coordinates":[[[127.22154,36.34228],[127.22071,36.33852],[127.22488,36.3365],[127.22988,36.33825],[127.23072,36.34201],[127.22654,36.34403],[127.22154,36.34228]]]}},{"type":"Feature","properties":{"h3":"8830e34c93fffff","emd_code":"4425033000","emd_name":"신도안면","area_km2":0.519,"edge":false,"slope_mean":23.31,"elev_mean":328.7,"flood_hist_n":0,"flood_depth_max_m":null,"flood_risk_100y":null,"semi_basement_r":null,"elderly_alone_r":0.0,"bldg_age30_r":null,"shelter_min_walk":74,"pop":7509,"hh":2458,"elderly65_r":0.0162,"single_hh_r":0.1701,"source_level":"emd","flood_years":[],"landslide_hist_n":0},"geometry":{"type":"Polygon","coordinates":[[[127.23072,36.34201],[127.22988,36.33825],[127.23406,36.33623],[127.23906,36.33798],[127.2399,36.34174],[127.23572,36.34376],[127.23072,36.34201]]]}},{"type":"Feature","properties":{"h3":"8830e34c95fffff","emd_code":"4425033000","emd_name":"신도안면","area_km2":0.519,"edge":false,"slope_mean":24.65,"elev_mean":373.4,"flood_hist_n":0,"flood_depth_max_m":null,"flood_risk_100y":null,"semi_basement_r":null,"elderly_alone_r":0.0,"bldg_age30_r":null,"shelter_min_walk":71,"pop":7509,"hh":2458,"elderly65_r":0.0162,"single_hh_r":0.1701,"source_level":"emd","flood_years":[],"landslide_hist_n":0},"geometry":{"type":"Polygon","coordinates":[[[127.2157,36.33677],[127.21487,36.33301],[127.21904,36.33099],[127.22405,36.33274],[127.22488,36.3365],[127.22071,36.33852],[127.2157,36.33677]]]}},{"type":"Feature","properties":{"h3":"8830e34c97fffff","emd_code":"4425033000","emd_name":"신도안면","area_km2":0.5191,"edge":false,"slope_mean":22.0,"elev_mean":284.6,"flood_hist_n":0,"flood_depth_max_m":null,"flood_risk_100y":null,"semi_basement_r":null,"elderly_alone_r":0.0,"bldg_age30_r":null,"shelter_min_walk":66,"pop":7509,"hh":2458,"elderly65_r":0.0162,"single_hh_r":0.1701,"source_level":"emd","flood_years":[],"landslide_hist_n":0},"geometry":{"type":"Polygon","coordinates":[[[127.22488,36.3365],[127.22405,36.33274],[127.22822,36.33072],[127.23323,36.33247],[127.23406,36.33623],[127.22988,36.33825],[127.22488,36.3365]]]}},{"type":"Feature","properties":{"h3":"8830e34c99fffff","emd_code":"4425033000","emd_name":"신도안면","area_km2":0.5188,"edge":false,"slope_mean":27.2,"elev_mean":436.9,"flood_hist_n":0,"flood_depth_max_m":null,"flood_risk_100y":null,"semi_basement_r":null,"elderly_alone_r":0.0,"bldg_age30_r":null,"shelter_min_walk":87,"pop":7509,"hh":2458,"elderly65_r":0.0162,"single_hh_r":0.1701,"source_level":"emd","flood_years":[],"landslide_hist_n":0},"geometry":{"type":"Polygon","coordinates":[[[127.2182,36.34806],[127.21737,36.3443],[127.22154,36.34228],[127.22654,36.34403],[127.22738,36.34779],[127.2232,36.3498],[127.2182,36.34806]]]}},{"type":"Feature","properties":{"h3":"8830e34c9bfffff","emd_code":"4425033000","emd_name":"신도안면","area_km2":0.5189,"edge":false,"slope_mean":27.36,"elev_mean":435.4,"flood_hist_n":0,"flood_depth_max_m":null,"flood_risk_100y":null,"semi_basement_r":null,"elderly_alone_r":0.0,"bldg_age30_r":null,"shelter_min_walk":84,"pop":7509,"hh":2458,"elderly65_r":0.0162,"single_hh_r":0.1701,"source_level":"emd","flood_years":[],"landslide_hist_n":0},"geometry":{"type":"Polygon","coordinates":[[[127.22738,36.34779],[127.22654,36.34403],[127.23072,36.34201],[127.23572,36.34376],[127.23656,36.34752],[127.23238,36.34953],[127.22738,36.34779]]]}},{"type":"Feature","properties":{"h3":"8830e34c9dfffff","emd_code":"4425033000","emd_name":"신도안면","area_km2":0.5189,"edge":false,"slope_mean":25.79,"elev_mean":499.5,"flood_hist_n":0,"flood_depth_max_m":null,"flood_risk_100y":null,"semi_basement_r":null,"elderly_alone_r":0.0,"bldg_age30_r":null,"shelter_min_walk":82,"pop":7509,"hh":2458,"elderly65_r":0.0162,"single_hh_r":0.1701,"source_level":"emd","flood_years":[],"landslide_hist_n":0},"geometry":{"type":"Polygon","coordinates":[[[127.21236,36.34255],[127.21153,36.33879],[127.2157,36.33677],[127.22071,36.33852],[127.22154,36.34228],[127.21737,36.3443],[127.21236,36.34255]]]}},{"type":"Feature","properties":{"h3":"8830e34ca3fffff","emd_code":"4425033000","emd_name":"신도안면","area_km2":0.5192,"edge":true,"slope_mean":26.28,"elev_mean":364.9,"flood_hist_n":0,"flood_depth_max_m":null,"flood_risk_100y":null,"semi_basement_r":null,"elderly_alone_r":0.0,"bldg_age30_r":null,"shelter_min_walk":65,"pop":7509,"hh":2458,"elderly65_r":0.0162,"single_hh_r":0.1701,"source_level":"emd","flood_years":[],"landslide_hist_n":0},"geometry":{"type":"Polygon","coordinates":[[[127.19819,36.32024],[127.19735,36.31648],[127.20153,36.31446],[127.20653,36.31621],[127.20736,36.31997],[127.20319,36.32199],[127.19819,36.32024]]]}},{"type":"Feature","properties":{"h3":"8830e34cabfffff","emd_code":"4425033000","emd_name":"신도안면","area_km2":0.5191,"edge":true,"slope_mean":24.64,"elev_mean":309.1,"flood_hist_n":0,"flood_depth_max_m":null,"flood_risk_100y":null,"semi_basement_r":null,"elderly_alone_r":0.0,"bldg_age30_r":null,"shelter_min_walk":74,"pop":7509,"hh":2458,"elderly65_r":0.0162,"single_hh_r":0.1701,"source_level":"emd","flood_years":[],"landslide_hist_n":0},"geometry":{"type":"Polygon","coordinates":[[[127.19485,36.32602],[127.19401,36.32226],[127.19819,36.32024],[127.20319,36.32199],[127.20402,36.32575],[127.19985,36.32777],[127.19485,36.32602]]]}},{"type":"Feature","properties":{"h3":"8830e34cb1fffff","emd_code":"4425033000","emd_name":"신도안면","area_km2":0.5192,"edge":false,"slope_mean":14.65,"elev_mean":219.7,"flood_hist_n":0,"flood_depth_max_m":null,"flood_risk_100y":null,"semi_basement_r":null,"elderly_alone_r":0.0,"bldg_age30_r":null,"shelter_min_walk":57,"pop":7509,"hh":2458,"elderly65_r":0.0162,"single_hh_r":0.1701,"source_level":"emd","flood_years":[],"landslide_hist_n":0},"geometry":{"type":"Polygon","coordinates":[[[127.2132,36.32548],[127.21237,36.32172],[127.21654,36.3197],[127.22155,36.32145],[127.22238,36.32521],[127.21821,36.32723],[127.2132,36.32548]]]}},{"type":"Feature","properties":{"h3":"8830e34cb3fffff","emd_code":"4425033000","emd_name":"신도안면","area_km2":0.5192,"edge":false,"slope_mean":14.87,"elev_mean":214.7,"flood_hist_n":0,"flood_depth_max_m":null,"flood_risk_100y":null,"semi_basement_r":null,"elderly_alone_r":0.0,"bldg_age30_r":null,"shelter_min_walk":50,"pop":7509,"hh":2458,"elderly65_r":0.0162,"single_hh_r":0.1701,"source_level":"emd","flood_years":[],"landslide_hist_n":0},"geometry":{"type":"Polygon","coordinates":[[[127.22238,36.32521],[127.22155,36.32145],[127.22572,36.31943],[127.23073,36.32118],[127.23156,36.32494],[127.22739,36.32696],[127.22238,36.32521]]]}},{"type":"Feature","properties":{"h3":"8830e34cb5fffff","emd_code":"4425033000","emd_name":"신도안면","area_km2":0.5193,"edge":false,"slope_mean":21.08,"elev_mean":261.4,"flood_hist_n":0,"flood_depth_max_m":null,"flood_risk_100y":null,"semi_basement_r":null,"elderly_alone_r":0.0,"bldg_age30_r":null,"shelter_min_walk":55,"pop":7509,"hh":2458,"elderly65_r":0.0162,"single_hh_r":0.1701,"source_level":"emd","flood_years":[],"landslide_hist_n":0},"geometry":{"type":"Polygon","coordinates":[[[127.20736,36.31997],[127.20653,36.31621],[127.2107,36.31419],[127.21571,36.31594],[127.21654,36.3197],[127.21237,36.32172],[127.20736,36.31997]]]}},{"type":"Feature","properties":{"h3":"8830e34cb7fffff","emd_code":"4425033000","emd_name":"신도안면","area_km2":0.5193,"edge":false,"slope_mean":10.56,"elev_mean":177.8,"flood_hist_n":0,"flood_depth_max_m":null,"flood_risk_100y":null,"semi_basement_r":null,"elderly_alone_r":0.0,"bldg_age30_r":null,"shelter_min_walk":46,"pop":7509,"hh":2458,"elderly65_r":0.0162,"single_hh_r":0.1701,"source_level":"emd","flood_years":[],"landslide_hist_n":0},"geometry":{"type":"Polygon","coordinates":[[[127.21654,36.3197],[127.21571,36.31594],[127.21988,36.31392],[127.22489,36.31567],[127.22572,36.31943],[127.22155,36.32145],[127.21654,36.3197]]]}},{"type":"Feature","properties":{"h3":"8830e34cb9fffff","emd_code":"4425033000","emd_name":"신도안면","area_km2":0.5191,"edge":false,"slope_mean":23.09,"elev_mean":362.3,"flood_hist_n":0,"flood_depth_max_m":null,"flood_risk_100y":null,"semi_basement_r":null,"elderly_alone_r":0.0,"bldg_age30_r":null,"shelter_min_walk":67,"pop":7509,"hh":2458,"elderly65_r":0.0162,"single_hh_r":0.1701,"source_level":"emd","flood_years":[],"landslide_hist_n":0},"geometry":{"type":"Polygon","coordinates":[[[127.20986,36.33126],[127.20903,36.3275],[127.2132,36.32548],[127.21821,36.32723],[127.21904,36.33099],[127.21487,36.33301],[127.20986,36.33126]]]}},{"type":"Feature","properties":{"h3":"8830e34cbbfffff","emd_code":"4425033000","emd_name":"신도안면","area_km2":0.5191,"edge":false,"slope_mean":23.2,"elev_mean":297.2,"flood_hist_n":0,"flood_depth_max_m":null,"flood_risk_100y":null,"semi_basement_r":null,"elderly_alone_r":0.0,"bldg_age30_r":null,"shelter_min_walk":61,"pop":7509,"hh":2458,"elderly65_r":0.0162,"single_hh_r":0.1701,"source_level":"emd","flood_years":[],"landslide_hist_n":0},"geometry":{"type":"Polygon","coordinates":[[[127.21904,36.33099],[127.21821,36.32723],[127.22238,36.32521],[127.22739,36.32696],[127.22822,36.33072],[127.22405,36.33274],[127.21904,36.33099]]]}},{"type":"Feature","properties":{"h3":"8830e34cbdfffff","emd_code":"4425033000","emd_name":"신도안면","area_km2":0.5191,"edge":false,"slope_mean":25.58,"elev_mean":315.8,"flood_hist_n":0,"flood_depth_max_m":null,"flood_risk_100y":null,"semi_basement_r":null,"elderly_alone_r":0.0,"bldg_age30_r":null,"shelter_min_walk":65,"pop":7509,"hh":2458,"elderly65_r":0.0162,"single_hh_r":0.1701,"source_level":"emd","flood_years":[],"landslide_hist_n":0},"geometry":{"type":"Polygon","coordinates":[[[127.20402,36.32575],[127.20319,36.32199],[127.20736,36.31997],[127.21237,36.32172],[127.2132,36.32548],[127.20903,36.3275],[127.20402,36.32575]]]}},{"type":"Feature","properties":{"h3":"8830e34cd3fffff","emd_code":"4425033000","emd_name":"신도안면","area_km2":0.5187,"edge":true,"slope_mean":27.0,"elev_mean":349.2,"flood_hist_n":0,"flood_depth_max_m":null,"flood_risk_100y":null,"semi_basement_r":null,"elderly_alone_r":0.0,"bldg_age30_r":null,"shelter_min_walk":87,"pop":7509,"hh":2458,"elderly65_r":0.0162,"single_hh_r":0.1701,"source_level":"emd","flood_years":[],"landslide_hist_n":0},"geometry":{"type":"Polygon","coordinates":[[[127.21486,36.35383],[127.21403,36.35007],[127.2182,36.34806],[127.2232,36.3498],[127.22404,36.35357],[127.21986,36.35558],[127.21486,36.35383]]]}},{"type":"Feature","properties":{"h3":"8830e34cd5fffff","emd_code":"4425033000","emd_name":"신도안면","area_km2":0.5187,"edge":true,"slope_mean":31.94,"elev_mean":668.4,"flood_hist_n":0,"flood_depth_max_m":null,"flood_risk_100y":null,"semi_basement_r":null,"elderly_alone_r":0.0,"bldg_age30_r":null,"shelter_min_walk":99,"pop":7509,"hh":2458,"elderly65_r":0.0162,"single_hh_r":0.1701,"source_level":"emd","flood_years":[],"landslide_hist_n":0},"geometry":{"type":"Polygon","coordinates":[[[127.19984,36.3486],[127.19901,36.34483],[127.20318,36.34282],[127.20819,36.34457],[127.20902,36.34833],[127.20485,36.35034],[127.19984,36.3486]]]}},{"type":"Feature","properties":{"h3":"8830e34cd7fffff","emd_code":"4425033000","emd_name":"신도안면","area_km2":0.5188,"edge":false,"slope_mean":29.35,"elev_mean":529.0,"flood_hist_n":0,"flood_depth_max_m":null,"flood_risk_100y":null,"semi_basement_r":null,"elderly_alone_r":0.0,"bldg_age30_r":null,"shelter_min_walk":92,"pop":7509,"hh":2458,"elderly65_r":0.0162,"single_hh_r":0.1701,"source_level":"emd","flood_years":[],"landslide_hist_n":0},"geometry":{"type":"Polygon","coordinates":[[[127.20902,36.34833],[127.20819,36.34457],[127.21236,36.34255],[127.21737,36.3443],[127.2182,36.34806],[127.21403,36.35007],[127.20902,36.34833]]]}},{"type":"Feature","properties":{"h3":"8830e37905fffff","emd_code":"4425033000","emd_name":"신도안면","area_km2":0.5193,"edge":true,"slope_mean":25.88,"elev_mean":421.6,"flood_hist_n":0,"flood_depth_max_m":null,"flood_risk_100y":null,"semi_basement_r":null,"elderly_alone_r":0.0,"bldg_age30_r":null,"shelter_min_walk":58,"pop":7509,"hh":2458,"elderly65_r":0.0162,"single_hh_r":0.1701,"source_level":"emd","flood_years":[],"landslide_hist_n":0},"geometry":{"type":"Polygon","coordinates":[[[127.25576,36.32991],[127.25492,36.32615],[127.2591,36.32413],[127.26411,36.32587],[127.26494,36.32964],[127.26077,36.33165],[127.25576,36.32991]]]}},{"type":"Feature","properties":{"h3":"8830e3790dfffff","emd_code":"4425033000","emd_name":"신도안면","area_km2":0.5192,"edge":true,"slope_mean":24.09,"elev_mean":373.4,"flood_hist_n":0,"flood_depth_max_m":null,"flood_risk_100y":null,"semi_basement_r":null,"elderly_alone_r":0.0,"bldg_age30_r":null,"shelter_min_walk":65,"pop":7509,"hh":2458,"elderly65_r":0.0162,"single_hh_r":0.1701,"source_level":"emd","flood_years":[],"landslide_hist_n":0},"geometry":{"type":"Polygon","coordinates":[[[127.25242,36.33569],[127.25158,36.33193],[127.25576,36.32991],[127.26077,36.33165],[127.2616,36.33542],[127.25742,36.33744],[127.25242,36.33569]]]}},{"type":"Feature","properties":{"h3":"8830e37921fffff","emd_code":"4425033000","emd_name":"신도안면","area_km2":0.5195,"edge":false,"slope_mean":19.8,"elev_mean":278.8,"flood_hist_n":0,"flood_depth_max_m":null,"flood_risk_100y":null,"semi_basement_r":null,"elderly_alone_r":0.0,"bldg_age30_r":null,"shelter_min_walk":40,"pop":7509,"hh":2458,"elderly65_r":0.0162,"single_hh_r":0.1701,"source_level":"emd","flood_years":[],"landslide_hist_n":0},"geometry":{"type":"Polygon","coordinates":[[[127.25326,36.31862],[127.25243,36.31486],[127.2566,36.31284],[127.26161,36.31458],[127.26244,36.31835],[127.25827,36.32036],[127.25326,36.31862]]]}},{"type":"Feature","properties":{"h3":"8830e37925fffff","emd_code":"4425033000","emd_name":"신도안면","area_km2":0.5196,"edge":false,"slope_mean":12.32,"elev_mean":183.4,"flood_hist_n":0,"flood_depth_max_m":null,"flood_risk_100y":null,"semi_basement_r":null,"elderly_alone_r":0.0,"bldg_age30_r":null,"shelter_min_walk":28,"pop":7509,"hh":2458,"elderly65_r":0.0162,"single_hh_r":0.1701,"source_level":"emd","flood_years":[],"landslide_hist_n":0},"geometry":{"type":"Polygon","coordinates":[[[127.24742,36.31311],[127.24659,36.30935],[127.25076,36.30733],[127.25577,36.30907],[127.2566,36.31284],[127.25243,36.31486],[127.24742,36.31311]]]}},{"type":"Feature","properties":{"h3":"8830e37927fffff","emd_code":"4425033000","emd_name":"신도안면","area_km2":0.5196,"edge":true,"slope_mean":15.0,"elev_mean":223.9,"flood_hist_n":0,"flood_depth_max_m":null,"flood_risk_100y":null,"semi_basement_r":null,"elderly_alone_r":0.0,"bldg_age30_r":null,"shelter_min_walk":35,"pop":7509,"hh":2458,"elderly65_r":0.0162,"single_hh_r":0.1701,"source_level":"emd","flood_years":[],"landslide_hist_n":0},"geometry":{"type":"Polygon","coordinates":[[[127.2566,36.31284],[127.25577,36.30907],[127.25994,36.30705],[127.26495,36.3088],[127.26578,36.31256],[127.26161,36.31458],[127.2566,36.31284]]]}},{"type":"Feature","properties":{"h3":"8830e37929fffff","emd_code":"4425033000","emd_name":"신도안면","area_km2":0.5194,"edge":false,"slope_mean":18.67,"elev_mean":272.3,"flood_hist_n":0,"flood_depth_max_m":null,"flood_risk_100y":null,"semi_basement_r":null,"elderly_alone_r":0.0,"bldg_age30_r":null,"shelter_min_walk":47,"pop":7509,"hh":2458,"elderly65_r":0.0162,"single_hh_r":0.1701,"source_level":"emd","flood_years":[],"landslide_hist_n":0},"geometry":{"type":"Polygon","coordinates":[[[127.24992,36.3244],[127.24909,36.32064],[127.25326,36.31862],[127.25827,36.32036],[127.2591,36.32413],[127.25492,36.32615],[127.24992,36.3244]]]}},{"type":"Feature","properties":{"h3":"8830e3792bfffff","emd_code":"4425033000","emd_name":"신도안면","area_km2":0.5194,"edge":true,"slope_mean":21.4,"elev_mean":358.3,"flood_hist_n":0,"flood_depth_max_m":null,"flood_risk_100y":null,"semi_basement_r":null,"elderly_alone_r":0.0,"bldg_age30_r":null,"shelter_min_walk":52,"pop":7509,"hh":2458,"elderly65_r":0.0162,"single_hh_r":0.1701,"source_level":"emd","flood_years":[],"landslide_hist_n":0},"geometry":{"type":"Polygon","coordinates":[[[127.2591,36.32413],[127.25827,36.32036],[127.26244,36.31835],[127.26745,36.32009],[127.26828,36.32386],[127.26411,36.32587],[127.2591,36.32413]]]}},{"type":"Feature","properties":{"h3":"8830e3792dfffff","emd_code":"4425033000","emd_name":"신도안면","area_km2":0.5194,"edge":false,"slope_mean":8.73,"elev_mean":168.7,"flood_hist_n":0,"flood_depth_max_m":null,"flood_risk_100y":null,"semi_basement_r":null,"elderly_alone_r":0.0,"bldg_age30_r":null,"shelter_min_walk":36,"pop":7509,"hh":2458,"elderly65_r":0.0162,"single_hh_r":0.1701,"source_level":"emd","flood_years":[],"landslide_hist_n":0},"geometry":{"type":"Polygon","coordinates":[[[127.24408,36.31889],[127.24325,36.31513],[127.24742,36.31311],[127.25243,36.31486],[127.25326,36.31862],[127.24909,36.32064],[127.24408,36.31889]]]}},{"type":"Feature","properties":{"h3":"8830e37945fffff","emd_code":"4425033000","emd_name":"신도안면","area_km2":0.519,"edge":true,"slope_mean":22.41,"elev_mean":379.6,"flood_hist_n":0,"flood_depth_max_m":null,"flood_risk_100y":null,"semi_basement_r":null,"elderly_alone_r":0.0,"bldg_age30_r":null,"shelter_min_walk":73,"pop":7509,"hh":2458,"elderly65_r":0.0162,"single_hh_r":0.1701,"source_level":"emd","flood_years":[],"landslide_hist_n":0},"geometry":{"type":"Polygon","coordinates":[[[127.2399,36.34174],[127.23906,36.33798],[127.24324,36.33596],[127.24824,36.33771],[127.24908,36.34147],[127.2449,36.34349],[127.2399,36.34174]]]}},{"type":"Feature","properties":{"h3":"8830e37947fffff","emd_code":"4425033000","emd_name":"신도안면","area_km2":0.5191,"edge":true,"slope_mean":19.96,"elev_mean":324.8,"flood_hist_n":0,"flood_depth_max_m":null,"flood_risk_100y":null,"semi_basement_r":null,"elderly_alone_r":0.0,"bldg_age30_r":null,"shelter_min_walk":74,"pop":7509,"hh":2458,"elderly65_r":0.0162,"single_hh_r":0.1701,"source_level":"emd","flood_years":[],"landslide_hist_n":0},"geometry":{"type":"Polygon","coordinates":[[[127.24908,36.34147],[127.24824,36.33771],[127.25242,36.33569],[127.25742,36.33744],[127.25826,36.3412],[127.25408,36.34321],[127.24908,36.34147]]]}},{"type":"Feature","properties":{"h3":"8830e3794dfffff","emd_code":"4425033000","emd_name":"신도안면","area_km2":0.5189,"edge":true,"slope_mean":30.05,"elev_mean":518.5,"flood_hist_n":0,"flood_depth_max_m":null,"flood_risk_100y":null,"semi_basement_r":null,"elderly_alone_r":0.0,"bldg_age30_r":null,"shelter_min_walk":82,"pop":7509,"hh":2458,"elderly65_r":0.0162,"single_hh_r":0.1701,"source_level":"emd","flood_years":[],"landslide_hist_n":0},"geometry":{"type":"Polygon","coordinates":[[[127.23656,36.34752],[127.23572,36.34376],[127.2399,36.34174],[127.2449,36.34349],[127.24574,36.34725],[127.24156,36.34926],[127.23656,36.34752]]]}},{"type":"Feature","properties":{"h3":"8830e37961fffff","emd_code":"4425033000","emd_name":"신도안면","area_km2":0.5192,"edge":false,"slope_mean":19.3,"elev_mean":247.8,"flood_hist_n":0,"flood_depth_max_m":null,"flood_risk_100y":null,"semi_basement_r":null,"elderly_alone_r":0.0,"bldg_age30_r":null,"shelter_min_walk":54,"pop":7509,"hh":2458,"elderly65_r":0.0162,"single_hh_r":0.1701,"source_level":"emd","flood_years":[],"landslide_hist_n":0},"geometry":{"type":"Polygon","coordinates":[[[127.2374,36.33045],[127.23657,36.32669],[127.24074,36.32467],[127.24574,36.32642],[127.24658,36.33018],[127.2424,36.3322],[127.2374,36.33045]]]}},{"type":"Feature","properties":{"h3":"8830e37963fffff","emd_code":"4425033000","emd_name":"신도안면","area_km2":0.5193,"edge":false,"slope_mean":22.19,"elev_mean":287.9,"flood_hist_n":0,"flood_depth_max_m":null,"flood_risk_100y":null,"semi_basement_r":null,"elderly_alone_r":0.0,"bldg_age30_r":null,"shelter_min_walk":55,"pop":7509,"hh":2458,"elderly65_r":0.0162,"single_hh_r":0.1701,"source_level":"emd","flood_years":[],"landslide_hist_n":0},"geometry":{"type":"Polygon","coordinates":[[[127.24658,36.33018],[127.24574,36.32642],[127.24992,36.3244],[127.25492,36.32615],[127.25576,36.32991],[127.25158,36.33193],[127.24658,36.33018]]]}},{"type":"Feature","properties":{"h3":"8830e37965fffff","emd_code":"4425033000","emd_name":"신도안면","area_km2":0.5193,"edge":false,"slope_mean":12.12,"elev_mean":184.7,"flood_hist_n":0,"flood_depth_max_m":null,"flood_risk_100y":null,"semi_basement_r":null,"elderly_alone_r":0.0,"bldg_age30_r":null,"shelter_min_walk":46,"pop":7509,"hh":2458,"elderly65_r":0.0162,"single_hh_r":0.1701,"source_level":"emd","flood_years":[],"landslide_hist_n":0},"geometry":{"type":"Polygon","coordinates":[[[127.23156,36.32494],[127.23073,36.32118],[127.2349,36.31916],[127.23991,36.32091],[127.24074,36.32467],[127.23657,36.32669],[127.23156,36.32494]]]}},{"type":"Feature","properties":{"h3":"8830e37967fffff","emd_code":"4425033000","emd_name":"신도안면","area_km2":0.5193,"edge":false,"slope_mean":11.37,"elev_mean":183.3,"flood_hist_n":0,"flood_depth_max_m":null,"flood_risk_100y":null,"semi_basement_r":null,"elderly_alone_r":0.0,"bldg_age30_r":null,"shelter_min_walk":44,"pop":7509,"hh":2458,"elderly65_r":0.0162,"single_hh_r":0.1701,"source_level":"emd","flood_years":[],"landslide_hist_n":0},"geometry":{"type":"Polygon","coordinates":[[[127.24074,36.32467],[127.23991,36.32091],[127.24408,36.31889],[127.24909,36.32064],[127.24992,36.3244],[127.24574,36.32642],[127.24074,36.32467]]]}},{"type":"Feature","properties":{"h3":"8830e37969fffff","emd_code":"4425033000","emd_name":"신도안면","area_km2":0.5191,"edge":false,"slope_mean":20.16,"elev_mean":277.5,"flood_hist_n":0,"flood_depth_max_m":null,"flood_risk_100y":null,"semi_basement_r":null,"elderly_alone_r":0.0,"bldg_age30_r":null,"shelter_min_walk":64,"pop":7509,"hh":2458,"elderly65_r":0.0162,"single_hh_r":0.1701,"source_level":"emd","flood_years":[],"landslide_hist_n":0},"geometry":{"type":"Polygon","coordinates":[[[127.23406,36.33623],[127.23323,36.33247],[127.2374,36.33045],[127.2424,36.3322],[127.24324,36.33596],[127.23906,36.33798],[127.23406,36.33623]]]}},{"type":"Feature","properties":{"h3":"8830e3796bfffff","emd_code":"4425033000","emd_name":"신도안면","area_km2":0.5192,"edge":false,"slope_mean":23.18,"elev_mean":321.6,"flood_hist_n":0,"flood_depth_max_m":null,"flood_risk_100y":null,"semi_basement_r":null,"elderly_alone_r":0.0,"bldg_age30_r":null,"shelter_min_walk":63,"pop":7509,"hh":2458,"elderly65_r":0.0162,"single_hh_r":0.1701,"source_level":"emd","flood_years":[],"landslide_hist_n":0},"geometry":{"type":"Polygon","coordinates":[[[127.24324,36.33596],[127.2424,36.3322],[127.24658,36.33018],[127.25158,36.33193],[127.25242,36.33569],[127.24824,36.33771],[127.24324,36.33596]]]}},{"type":"Feature","properties":{"h3":"8830e3796dfffff","emd_code":"4425033000","emd_name":"신도안면","area_km2":0.5192,"edge":false,"slope_mean":20.19,"elev_mean":223.4,"flood_hist_n":0,"flood_depth_max_m":null,"flood_risk_100y":null,"semi_basement_r":null,"elderly_alone_r":0.0,"bldg_age30_r":null,"shelter_min_walk":56,"pop":7509,"hh":2458,"elderly65_r":0.0162,"single_hh_r":0.1701,"source_level":"emd","flood_years":[],"landslide_hist_n":0},"geometry":{"type":"Polygon","coordinates":[[[127.22822,36.33072],[127.22739,36.32696],[127.23156,36.32494],[127.23657,36.32669],[127.2374,36.33045],[127.23323,36.33247],[127.22822,36.33072]]]}},{"type":"Feature","properties":{"h3":"8830e37b25fffff","emd_code":"4425033000","emd_name":"신도안면","area_km2":0.5188,"edge":true,"slope_mean":28.52,"elev_mean":359.4,"flood_hist_n":0,"flood_depth_max_m":null,"flood_risk_100y":null,"semi_basement_r":null,"elderly_alone_r":0.0,"bldg_age30_r":null,"shelter_min_walk":82,"pop":7509,"hh":2458,"elderly65_r":0.0162,"single_hh_r":0.1701,"source_level":"emd","flood_years":[],"landslide_hist_n":0},"geometry":{"type":"Polygon","coordinates":[[[127.22404,36.35357],[127.2232,36.3498],[127.22738,36.34779],[127.23238,36.34953],[127.23322,36.3533],[127.22904,36.35531],[127.22404,36.35357]]]}},{"type":"Feature","properties":{"h3":"8830e37b27fffff","emd_code":"4425033000","emd_name":"신도안면","area_km2":0.5188,"edge":true,"slope_mean":30.39,"elev_mean":418.8,"flood_hist_n":0,"flood_depth_max_m":null,"flood_risk_100y":null,"semi_basement_r":null,"elderly_alone_r":0.0,"bldg_age30_r":null,"shelter_min_walk":78,"pop":7509,"hh":2458,"elderly65_r":0.0162,"single_hh_r":0.1701,"source_level":"emd","flood_years":[],"landslide_hist_n":0},"geometry":{"type":"Polygon","coordinates":[[[127.23322,36.3533],[127.23238,36.34953],[127.23656,36.34752],[127.24156,36.34926],[127.2424,36.35303],[127.23822,36.35504],[127.23322,36.3533]]]}}]}