{"type":"FeatureCollection","features":[{"type":"Feature","geometry":{"type":"Point","coordinates":[127.46079,36.32342]},"properties":{"name":"정다운약국","addr":"대전광역시 동구 동부로73번길 20-7, 용운동 근생시설 신축공사 1층 (용운동)","sgg":"30110","cap":null,"type":null,"src":"safekorea","asof":"2026-08-22","tel":"042-273-7272"}},{"type":"Feature","geometry":{"type":"Point","coordinates":[127.42654,36.35107]},"properties":{"name":"한남약국","addr":"대전광역시 동구 한남로 13-1 (홍도동)","sgg":"30110","cap":null,"type":null,"src":"safekorea","asof":"2026-08-22","tel":"042-626-8275"}},{"type":"Feature","geometry":{"type":"Point","coordinates":[127.45536,36.30619]},"properties":{"name":"맑은샘약국","addr":"대전광역시 동구 은어송로 55, 그린타워 1층 102호 (가오동)","sgg":"30110","cap":null,"type":null,"src":"safekorea","asof":"2026-08-22","tel":"042-286-2777"}},{"type":"Feature","geometry":{"type":"Point","coordinates":[127.44302,36.32028]},"properties":{"name":"예손약국","addr":"대전광역시 동구 계족로 63, 동대전농협 1층 (인동)","sgg":"30110","cap":null,"type":null,"src":"safekorea","asof":"2026-08-22","tel":"070-7636-9889"}},{"type":"Feature","geometry":{"type":"Point","coordinates":[127.4301,36.34705]},"properties":{"name":"다온약국","addr":"대전광역시 동구 홍도로 7, 1층 (홍도동)","sgg":"30110","cap":null,"type":null,"src":"safekorea","asof":"2026-08-22","tel":"042-627-5678"}},{"type":"Feature","geometry":{"type":"Point","coordinates":[127.43805,36.34993]},"properties":{"name":"마음약국","addr":"대전광역시 동구 동서대로1695번길 4(용전동)","sgg":"30110","cap":null,"type":null,"src":"safekorea","asof":"2026-08-22","tel":"042-626-1387"}},{"type":"Feature","geometry":{"type":"Point","coordinates":[127.41789,36.32298]},"properties":{"name":"햇살약국","addr":"대전광역시 중구 대흥로 42 (대흥동)","sgg":"30140","cap":null,"type":null,"src":"safekorea","asof":"2026-08-22","tel":"042-226-9395"}},{"type":"Feature","geometry":{"type":"Point","coordinates":[127.40418,36.3093]},"properties":{"name":"문화푸른약국","addr":"대전광역시 중구 천근로 40 (문화동)","sgg":"30140","cap":null,"type":null,"src":"safekorea","asof":"2026-08-22","tel":"042-586-0052"}},{"type":"Feature","geometry":{"type":"Point","coordinates":[127.38642,36.30431]},"properties":{"name":"산성믿음약국","addr":"대전광역시 중구 대둔산로 392, 1층 (산성동)","sgg":"30140","cap":null,"type":null,"src":"safekorea","asof":"2026-08-22","tel":"042-587-4433"}},{"type":"Feature","geometry":{"type":"Point","coordinates":[127.39431,36.31736]},"properties":{"name":"행복한약국","addr":"대전광역시 중구 계백로 1566 (유천동)","sgg":"30140","cap":null,"type":null,"src":"safekorea","asof":"2026-08-22","tel":"042-585-0153"}},{"type":"Feature","geometry":{"type":"Point","coordinates":[127.38525,36.30437]},"properties":{"name":"중앙약국","addr":"대전광역시 중구 보문산로 44 (산성동)","sgg":"30140","cap":null,"type":null,"src":"safekorea","asof":"2026-08-22","tel":"042-585-3103"}},{"type":"Feature","geometry":{"type":"Point","coordinates":[127.42842,36.32983]},"properties":{"name":"대우당약국","addr":"대전광역시 중구 중앙로 173","sgg":"30140","cap":null,"type":null,"src":"safekorea","asof":"2026-08-22","tel":"042-255-8001"}},{"type":"Feature","geometry":{"type":"Point","coordinates":[127.42391,36.32314]},"properties":{"name":"수약국","addr":"대전광역시 중구 대흥로 105, (대흥동)","sgg":"30140","cap":null,"type":null,"src":"safekorea","asof":"2026-08-22","tel":"042-252-7722"}},{"type":"Feature","geometry":{"type":"Point","coordinates":[127.43745,36.31395]},"properties":{"name":"대성약국","addr":"대전광역시 중구 보문로 31 (문창동)","sgg":"30140","cap":null,"type":null,"src":"safekorea","asof":"2026-08-22","tel":"042-272-3442"}},{"type":"Feature","geometry":{"type":"Point","coordinates":[127.41536,36.31833]},"properties":{"name":"아산약국","addr":"대전광역시 중구 계룡로920번길 46 (대사동)","sgg":"30140","cap":null,"type":null,"src":"safekorea","asof":"2026-08-22","tel":"042-226-7577"}},{"type":"Feature","geometry":{"type":"Point","coordinates":[127.44588,36.30739]},"properties":{"name":"한아름약국","addr":"대전광역시 중구 대종로 187(석교동)","sgg":"30140","cap":null,"type":null,"src":"safekorea","asof":"2026-08-22","tel":"042-273-0055"}},{"type":"Feature","geometry":{"type":"Point","coordinates":[127.41536,36.31833]},"properties":{"name":"충대아산약국","addr":"대전광역시 중구 계룡로920번길 46 (대사동)","sgg":"30140","cap":null,"type":null,"src":"safekorea","asof":"2026-08-22","tel":"042-257-2574"}},{"type":"Feature","geometry":{"type":"Point","coordinates":[127.41966,36.32416]},"properties":{"name":"늘봄약국","addr":"대전광역시 중구 선화서로 1, 1층 (대흥동)","sgg":"30140","cap":null,"type":null,"src":"safekorea","asof":"2026-08-22","tel":"042-222-0662"}},{"type":"Feature","geometry":{"type":"Point","coordinates":[127.42496,36.32795]},"properties":{"name":"자연닮기약국","addr":"대전광역시 중구 중앙로 지하 145, 지하상가 (은행동)","sgg":"30140","cap":null,"type":null,"src":"safekorea","asof":"2026-08-22","tel":"042-242-5114"}},{"type":"Feature","geometry":{"type":"Point","coordinates":[127.39375,36.32411]},"properties":{"name":"삼부한솔약국","addr":"대전광역시 중구 태평로 83, 108호 (태평동, 삼부스포렉스)","sgg":"30140","cap":null,"type":null,"src":"safekorea","asof":"2026-08-22","tel":"042-532-6784"}},{"type":"Feature","geometry":{"type":"Point","coordinates":[127.39178,36.31717]},"properties":{"name":"유천큰사랑약국","addr":"대전광역시 중구 계백로 1543, 1층 (유천동)","sgg":"30140","cap":null,"type":null,"src":"safekorea","asof":"2026-08-22","tel":"042-527-3650"}},{"type":"Feature","geometry":{"type":"Point","coordinates":[127.42228,36.32423]},"properties":{"name":"대전당약국","addr":"대전광역시 중구 보문로 241-1, (대흥동)","sgg":"30140","cap":null,"type":null,"src":"safekorea","asof":"2026-08-22","tel":"042-256-5885"}},{"type":"Feature","geometry":{"type":"Point","coordinates":[127.41694,36.33035]},"properties":{"name":"튼튼약국","addr":"대전광역시 중구 선화서로 76, 102호 (선화동)","sgg":"30140","cap":null,"type":null,"src":"safekorea","asof":"2026-08-22","tel":"042-223-0224"}},{"type":"Feature","geometry":{"type":"Point","coordinates":[127.41736,36.33593]},"properties":{"name":"선화참사랑약국","addr":"대전광역시 중구 대종로 608 (선화동)","sgg":"30140","cap":null,"type":null,"src":"safekorea","asof":"2026-08-22","tel":"042-525-9383"}},{"type":"Feature","geometry":{"type":"Point","coordinates":[127.40507,36.31983]},"properties":{"name":"미소약국","addr":"대전광역시 중구 서문로 133 (문화동)","sgg":"30140","cap":null,"type":null,"src":"safekorea","asof":"2026-08-22","tel":"042-587-7346"}},{"type":"Feature","geometry":{"type":"Point","coordinates":[127.3988,36.31847]},"properties":{"name":"대전가장큰약국","addr":"대전광역시 중구 계백로 1608, 1층 (유천동)","sgg":"30140","cap":null,"type":null,"src":"safekorea","asof":"2026-08-22","tel":"042-587-5999"}},{"type":"Feature","geometry":{"type":"Point","coordinates":[127.40655,36.32773]},"properties":{"name":"오룡대형약국","addr":"대전광역시 중구 계룡로 809, 1층 (용두동, 동성빌딩)","sgg":"30140","cap":null,"type":null,"src":"safekorea","asof":"2026-08-22","tel":"042-222-0666"}},{"type":"Feature","geometry":{"type":"Point","coordinates":[127.40904,36.32189]},"properties":{"name":"센트럴약국","addr":"대전광역시 중구 계백로 1709, 1층 102호 (오류동)","sgg":"30140","cap":null,"type":null,"src":"safekorea","asof":"2026-08-22","tel":"042-536-8639"}},{"type":"Feature","geometry":{"type":"Point","coordinates":[127.41536,36.31817]},"properties":{"name":"정문약국","addr":"대전광역시 중구 문화로 279 (대사동)","sgg":"30140","cap":null,"type":null,"src":"safekorea","asof":"2026-08-22","tel":"042-221-7300"}},{"type":"Feature","geometry":{"type":"Point","coordinates":[127.4213,36.32295]},"properties":{"name":"성모사랑약국","addr":"대전광역시 중구 테미로 51-22 (대흥동)","sgg":"30140","cap":null,"type":null,"src":"safekorea","asof":"2026-08-22","tel":"042-252-5122"}},{"type":"Feature","geometry":{"type":"Point","coordinates":[127.39773,36.31877]},"properties":{"name":"연약국","addr":"대전광역시 중구 계백로 1599, 1층 (유천동)","sgg":"30140","cap":null,"type":null,"src":"safekorea","asof":"2026-08-22","tel":"042-526-6981"}},{"type":"Feature","geometry":{"type":"Point","coordinates":[127.40961,36.33783]},"properties":{"name":"삼층민약국","addr":"대전광역시 중구 목중로 50, 중촌동제일프라자 404호 (중촌동)","sgg":"30140","cap":null,"type":null,"src":"safekorea","asof":"2026-08-22","tel":"070-7576-0567"}},{"type":"Feature","geometry":{"type":"Point","coordinates":[127.42118,36.32271]},"properties":{"name":"조은약국","addr":"대전광역시 중구 대흥로66번길 27, 1층 (대흥동)","sgg":"30140","cap":null,"type":null,"src":"safekorea","asof":"2026-08-22","tel":"042-257-2257"}},{"type":"Feature","geometry":{"type":"Point","coordinates":[127.41617,36.31994]},"properties":{"name":"서대전약국","addr":"대전광역시 중구 계룡로 931, 1층 102호 (대사동, 솔리안시티)","sgg":"30140","cap":null,"type":null,"src":"safekorea","asof":"2026-08-22","tel":"042-721-2638"}},{"type":"Feature","geometry":{"type":"Point","coordinates":[127.41808,36.31732]},"properties":{"name":"바로약국","addr":"대전광역시 중구 보문산로 402 (대사동)","sgg":"30140","cap":null,"type":null,"src":"safekorea","asof":"2026-08-22","tel":"042-254-1275"}},{"type":"Feature","geometry":{"type":"Point","coordinates":[127.41536,36.31817]},"properties":{"name":"대전약국","addr":"대전광역시 중구 문화로 279 (대사동)","sgg":"30140","cap":null,"type":null,"src":"safekorea","asof":"2026-08-22","tel":"042-242-9494"}},{"type":"Feature","geometry":{"type":"Point","coordinates":[127.41014,36.31701]},"properties":{"name":"나나약국","addr":"대전광역시 중구 서문로 96, 108호 (문화동, 센트럴파크2단지상가)","sgg":"30140","cap":null,"type":null,"src":"safekorea","asof":"2026-08-22","tel":"042-255-1500"}},{"type":"Feature","geometry":{"type":"Point","coordinates":[127.41806,36.317]},"properties":{"name":"충대후문약국","addr":"대전광역시 중구 보문산로 398, 1층 (대사동)","sgg":"30140","cap":null,"type":null,"src":"safekorea","asof":"2026-08-22","tel":"042-222-0398"}},{"type":"Feature","geometry":{"type":"Point","coordinates":[127.42602,36.32906]},"properties":{"name":"한솔 약국","addr":"대전광역시 중구 중앙로 149 (은행동)","sgg":"30140","cap":null,"type":null,"src":"safekorea","asof":"2026-08-22","tel":"042-255-2522"}},{"type":"Feature","geometry":{"type":"Point","coordinates":[127.42881,36.32946]},"properties":{"name":"코지약국","addr":"대전광역시 중구 대전천서로 457, 2층 (은행동)","sgg":"30140","cap":null,"type":null,"src":"safekorea","asof":"2026-08-22","tel":"042-364-4570"}},{"type":"Feature","geometry":{"type":"Point","coordinates":[127.39375,36.32411]},"properties":{"name":"태평햇살약국","addr":"대전광역시 중구 태평로 83, 삼부스포렉스 1층 (태평동)","sgg":"30140","cap":null,"type":null,"src":"safekorea","asof":"2026-08-22","tel":"042-525-9574"}},{"type":"Feature","geometry":{"type":"Point","coordinates":[127.39333,36.30964]},"properties":{"name":"이화약국","addr":"대전광역시 중구 당디로 52, 1층 (산성동)","sgg":"30140","cap":null,"type":null,"src":"safekorea","asof":"2026-08-22","tel":"042-581-4777"}},{"type":"Feature","geometry":{"type":"Point","coordinates":[127.41645,36.31965]},"properties":{"name":"희망찬약국","addr":"대전광역시 중구 계룡로 935, 1층 103호 (대사동)","sgg":"30140","cap":null,"type":null,"src":"safekorea","asof":"2026-08-22","tel":"042-721-5947"}},{"type":"Feature","geometry":{"type":"Point","coordinates":[127.43536,36.31257]},"properties":{"name":"봄약국","addr":"대전광역시 중구 대종로 299 (부사동)","sgg":"30140","cap":null,"type":null,"src":"safekorea","asof":"2026-08-22","tel":"042-255-1122"}},{"type":"Feature","geometry":{"type":"Point","coordinates":[127.41458,36.3181]},"properties":{"name":"충남온누리약국","addr":"대전광역시 중구 문화로 273 (대사동)","sgg":"30140","cap":null,"type":null,"src":"safekorea","asof":"2026-08-22","tel":"042-221-0383"}},{"type":"Feature","geometry":{"type":"Point","coordinates":[127.4056,36.32769]},"properties":{"name":"오로라약국","addr":"대전광역시 중구 계룡로 804 (오류동)","sgg":"30140","cap":null,"type":null,"src":"safekorea","asof":"2026-08-22","tel":"042-536-2343"}},{"type":"Feature","geometry":{"type":"Point","coordinates":[127.41802,36.31722]},"properties":{"name":"맘모스약국","addr":"대전광역시 중구 보문산로 400 (대사동)","sgg":"30140","cap":null,"type":null,"src":"safekorea","asof":"2026-08-22","tel":"042-335-2638"}},{"type":"Feature","geometry":{"type":"Point","coordinates":[127.41228,36.33929]},"properties":{"name":"한샘약국","addr":"대전광역시 중구 대종로 665 (중촌동)","sgg":"30140","cap":null,"type":null,"src":"safekorea","asof":"2026-08-22","tel":"042-223-1709"}},{"type":"Feature","geometry":{"type":"Point","coordinates":[127.39788,36.31822]},"properties":{"name":"정성약국","addr":"대전광역시 중구 계백로 1600, 1층 (유천동)","sgg":"30140","cap":null,"type":null,"src":"safekorea","asof":"2026-08-22","tel":"042-826-0800"}},{"type":"Feature","geometry":{"type":"Point","coordinates":[127.41663,36.31856]},"properties":{"name":"화창한약국","addr":"대전광역시 중구 계룡로 942, 1,2층 (대사동)","sgg":"30140","cap":null,"type":null,"src":"safekorea","asof":"2026-08-22","tel":"042-242-8575"}},{"type":"Feature","geometry":{"type":"Point","coordinates":[127.42396,36.32928]},"properties":{"name":"현약국","addr":"대전광역시 중구 중앙로137번길 27 (선화동)","sgg":"30140","cap":null,"type":null,"src":"safekorea","asof":"2026-08-22","tel":"042-345-2345"}},{"type":"Feature","geometry":{"type":"Point","coordinates":[127.41802,36.31722]},"properties":{"name":"맘모스약국","addr":"대전광역시 중구 보문산로 400 (대사동)","sgg":"30140","cap":null,"type":null,"src":"safekorea","asof":"2026-08-22","tel":"0507-1320-2638"}},{"type":"Feature","geometry":{"type":"Point","coordinates":[127.39476,36.30751]},"properties":{"name":"행복약국","addr":"대전광역시 중구 산성로 55, 1층 (산성동)","sgg":"30140","cap":null,"type":null,"src":"safekorea","asof":"2026-08-22","tel":"042-584-5738"}},{"type":"Feature","geometry":{"type":"Point","coordinates":[127.39755,36.31876]},"properties":{"name":"유천한마음약국","addr":"대전광역시 중구 계백로 1597 (유천동)","sgg":"30140","cap":null,"type":null,"src":"safekorea","asof":"2026-08-22","tel":"042-525-8700"}},{"type":"Feature","geometry":{"type":"Point","coordinates":[127.41049,36.33649]},"properties":{"name":"용약국","addr":"대전광역시 중구 목중로 31","sgg":"30140","cap":null,"type":null,"src":"safekorea","asof":"2026-08-22","tel":"042-226-6852"}},{"type":"Feature","geometry":{"type":"Point","coordinates":[127.40342,36.32534]},"properties":{"name":"동방한약국","addr":"대전광역시 중구 오류로 55-1, 1층 (오류동)","sgg":"30140","cap":null,"type":null,"src":"safekorea","asof":"2026-08-22","tel":"042-525-0203"}},{"type":"Feature","geometry":{"type":"Point","coordinates":[127.42003,36.32913]},"properties":{"name":"명약국","addr":"대전광역시 중구 보문로 301, 대한결핵협회 102호 (선화동)","sgg":"30140","cap":null,"type":null,"src":"safekorea","asof":"2026-08-22","tel":"042-222-3747"}},{"type":"Feature","geometry":{"type":"Point","coordinates":[127.41217,36.3356]},"properties":{"name":"남일약국","addr":"대전광역시 중구 목중로 14 (중촌동)","sgg":"30140","cap":null,"type":null,"src":"safekorea","asof":"2026-08-22","tel":"042-256-4265"}},{"type":"Feature","geometry":{"type":"Point","coordinates":[127.39805,36.30712]},"properties":{"name":"명지약국","addr":"대전광역시 중구 당디로6번길 70, (문화동)","sgg":"30140","cap":null,"type":null,"src":"safekorea","asof":"2026-08-22","tel":"042-583-6864"}},{"type":"Feature","geometry":{"type":"Point","coordinates":[127.41503,36.31813]},"properties":{"name":"건강백세대학약국","addr":"대전광역시 중구 문화로 277, 1층 (대사동)","sgg":"30140","cap":null,"type":null,"src":"safekorea","asof":"2026-08-22","tel":"042-252-9111"}},{"type":"Feature","geometry":{"type":"Point","coordinates":[127.41014,36.33643]},"properties":{"name":"대선약국","addr":"대전광역시 중구 목중로 31-3, 1층 (목동)","sgg":"30140","cap":null,"type":null,"src":"safekorea","asof":"2026-08-22","tel":"042-256-5243"}},{"type":"Feature","geometry":{"type":"Point","coordinates":[127.39484,36.3263]},"properties":{"name":"심온누리약국","addr":"대전광역시 중구 태평로 107 (태평동)","sgg":"30140","cap":null,"type":null,"src":"safekorea","asof":"2026-08-22","tel":"042-527-6966"}},{"type":"Feature","geometry":{"type":"Point","coordinates":[127.41163,36.33207]},"properties":{"name":"한사랑대흥약국","addr":"대전광역시 중구 동서대로 1388, 117호 (목동,금호한사랑아파트 상가동)","sgg":"30140","cap":null,"type":null,"src":"safekorea","asof":"2026-08-22","tel":"042-223-0568"}},{"type":"Feature","geometry":{"type":"Point","coordinates":[127.40875,36.34037]},"properties":{"name":"평화약국","addr":"대전광역시 중구 목중로54번길 50, (중촌동)","sgg":"30140","cap":null,"type":null,"src":"safekorea","asof":"2026-08-22","tel":"042-223-2288"}},{"type":"Feature","geometry":{"type":"Point","coordinates":[127.40904,36.32189]},"properties":{"name":"그린약국","addr":"대전광역시 중구 계백로 1709, 누리보듬아파트 112호 (오류동)","sgg":"30140","cap":null,"type":null,"src":"safekorea","asof":"2026-08-22","tel":"042-522-5614"}},{"type":"Feature","geometry":{"type":"Point","coordinates":[127.38593,36.3044]},"properties":{"name":"산성넘버원약국","addr":"대전광역시 중구 보문산로 50, 금정빌딩 1층 (산성동)","sgg":"30140","cap":null,"type":null,"src":"safekorea","asof":"2026-08-22","tel":"042-587-0077"}},{"type":"Feature","geometry":{"type":"Point","coordinates":[127.41424,36.31808]},"properties":{"name":"대학약국","addr":"대전광역시 중구 문화로 267, 1층 (문화동)","sgg":"30140","cap":null,"type":null,"src":"safekorea","asof":"2026-08-22","tel":"042-222-3119"}},{"type":"Feature","geometry":{"type":"Point","coordinates":[127.39716,36.31802]},"properties":{"name":"경남약국","addr":"대전광역시 중구 계백로 1592 (유천동)","sgg":"30140","cap":null,"type":null,"src":"safekorea","asof":"2026-08-22","tel":"042-586-7737"}},{"type":"Feature","geometry":{"type":"Point","coordinates":[127.41455,36.32198]},"properties":{"name":"이화당약국","addr":"대전광역시 중구 중앙로16번길 17 (문화동)","sgg":"30140","cap":null,"type":null,"src":"safekorea","asof":"2026-08-22","tel":"042-222-0256"}},{"type":"Feature","geometry":{"type":"Point","coordinates":[127.40713,36.33404]},"properties":{"name":"목양약국","addr":"대전광역시 중구 목동로 37, 107호 (목동, 목양마을아파트상가)","sgg":"30140","cap":null,"type":null,"src":"safekorea","asof":"2026-08-22","tel":"042-223-1487"}},{"type":"Feature","geometry":{"type":"Point","coordinates":[127.40761,36.32139]},"properties":{"name":"민약국","addr":"대전광역시 중구 계백로 1693","sgg":"30140","cap":null,"type":null,"src":"safekorea","asof":"2026-08-22","tel":"042-525-3375"}},{"type":"Feature","geometry":{"type":"Point","coordinates":[127.39134,36.31802]},"properties":{"name":"버드내약국","addr":"대전광역시 중구 태평로 15, 106,107호 (태평동, 버드내마을아파트)","sgg":"30140","cap":null,"type":null,"src":"safekorea","asof":"2026-08-22","tel":"042-537-5556"}},{"type":"Feature","geometry":{"type":"Point","coordinates":[127.4427,36.30899]},"properties":{"name":"계수약국","addr":"대전광역시 중구 대종로 221, (석교동)","sgg":"30140","cap":null,"type":null,"src":"safekorea","asof":"2026-08-22","tel":"042-283-4141"}},{"type":"Feature","geometry":{"type":"Point","coordinates":[127.40344,36.30929]},"properties":{"name":"대신약국","addr":"대전광역시 중구 천근로 32","sgg":"30140","cap":null,"type":null,"src":"safekorea","asof":"2026-08-22","tel":"042-584-3584"}},{"type":"Feature","geometry":{"type":"Point","coordinates":[127.42378,36.32811]},"properties":{"name":"대우약국","addr":"대전광역시 중구 중앙로 125-1, (선화동)","sgg":"30140","cap":null,"type":null,"src":"safekorea","asof":"2026-08-22","tel":"042-256-1058"}},{"type":"Feature","geometry":{"type":"Point","coordinates":[127.42091,36.32317]},"properties":{"name":"대전성심약국","addr":"대전광역시 중구 대흥로66번길 17(대흥동)","sgg":"30140","cap":null,"type":null,"src":"safekorea","asof":"2026-08-22","tel":"042-242-1839"}},{"type":"Feature","geometry":{"type":"Point","coordinates":[127.41034,36.33645]},"properties":{"name":"새길약국","addr":"대전광역시 중구 목중로 31-1 (목동)","sgg":"30140","cap":null,"type":null,"src":"safekorea","asof":"2026-08-22","tel":"042-221-3370"}},{"type":"Feature","geometry":{"type":"Point","coordinates":[127.42062,36.32361]},"properties":{"name":"새생명약국","addr":"대전광역시 중구 대흥로 72, (대흥동)","sgg":"30140","cap":null,"type":null,"src":"safekorea","asof":"2026-08-22","tel":"042-254-7854"}},{"type":"Feature","geometry":{"type":"Point","coordinates":[127.39726,36.31815]},"properties":{"name":"선진약국","addr":"대전광역시 중구 계백로 1596 (유천동)","sgg":"30140","cap":null,"type":null,"src":"safekorea","asof":"2026-08-22","tel":"042-585-5515"}},{"type":"Feature","geometry":{"type":"Point","coordinates":[127.42099,36.32301]},"properties":{"name":"천사약국","addr":"대전광역시 중구 대흥로66번길 19","sgg":"30140","cap":null,"type":null,"src":"safekorea","asof":"2026-08-22","tel":"042-252-4080"}},{"type":"Feature","geometry":{"type":"Point","coordinates":[127.41503,36.33358]},"properties":{"name":"큰사랑약국","addr":"대전광역시 중구 선화서로 116, (선화동)","sgg":"30140","cap":null,"type":null,"src":"safekorea","asof":"2026-08-22","tel":"042-254-7574"}},{"type":"Feature","geometry":{"type":"Point","coordinates":[127.39978,36.31927]},"properties":{"name":"태경약국","addr":"대전광역시 중구 계백로 1619, 벽산프라자 102호 (유천동)","sgg":"30140","cap":null,"type":null,"src":"safekorea","asof":"2026-08-22","tel":"042-531-6795"}},{"type":"Feature","geometry":{"type":"Point","coordinates":[127.41102,36.33608]},"properties":{"name":"태양당약국","addr":"대전광역시 중구 목중로 25","sgg":"30140","cap":null,"type":null,"src":"safekorea","asof":"2026-08-22","tel":"042-222-2343"}},{"type":"Feature","geometry":{"type":"Point","coordinates":[127.39527,36.32552]},"properties":{"name":"태평성대약국","addr":"대전광역시 중구 동서대로 1218 (태평동)","sgg":"30140","cap":null,"type":null,"src":"safekorea","asof":"2026-08-22","tel":"042-531-7089"}},{"type":"Feature","geometry":{"type":"Point","coordinates":[127.39856,36.32894]},"properties":{"name":"푸른뫼약국","addr":"대전광역시 중구 수침로 107-1 (태평동)","sgg":"30140","cap":null,"type":null,"src":"safekorea","asof":"2026-08-22","tel":"042-535-0339"}},{"type":"Feature","geometry":{"type":"Point","coordinates":[127.40961,36.33783]},"properties":{"name":"프라자 약국","addr":"대전광역시 중구 목중로 50 (중촌동)","sgg":"30140","cap":null,"type":null,"src":"safekorea","asof":"2026-08-22","tel":"042-242-1002"}},{"type":"Feature","geometry":{"type":"Point","coordinates":[127.4434,36.30921]},"properties":{"name":"혜민약국","addr":"대전광역시 중구 대종로 218","sgg":"30140","cap":null,"type":null,"src":"safekorea","asof":"2026-08-22","tel":"042-285-4008"}},{"type":"Feature","geometry":{"type":"Point","coordinates":[127.42472,36.32801]},"properties":{"name":"보문당약국","addr":"대전광역시 중구 중앙로 134-1 (대흥동)","sgg":"30140","cap":null,"type":null,"src":"safekorea","asof":"2026-08-22","tel":"042-254-0809"}},{"type":"Feature","geometry":{"type":"Point","coordinates":[127.39551,36.32495]},"properties":{"name":"덕일약국","addr":"대전광역시 중구 유천로142번길 6 (태평동)","sgg":"30140","cap":null,"type":null,"src":"safekorea","asof":"2026-08-22","tel":"042-525-8460"}},{"type":"Feature","geometry":{"type":"Point","coordinates":[127.42401,36.32818]},"properties":{"name":"대한 약국","addr":"대전광역시 중구 중앙로 129 (선화동)","sgg":"30140","cap":null,"type":null,"src":"safekorea","asof":"2026-08-22","tel":"042-252-6250"}},{"type":"Feature","geometry":{"type":"Point","coordinates":[127.40979,36.32427]},"properties":{"name":"새봄약국","addr":"대전광역시 중구 계룡로 858, 1층 (오류동)","sgg":"30140","cap":null,"type":null,"src":"safekorea","asof":"2026-08-22","tel":"042-536-6675"}},{"type":"Feature","geometry":{"type":"Point","coordinates":[127.4056,36.32769]},"properties":{"name":"글로리약국","addr":"대전광역시 중구 계룡로 804","sgg":"30140","cap":null,"type":null,"src":"safekorea","asof":"2026-08-22","tel":"042-536-2343"}},{"type":"Feature","geometry":{"type":"Point","coordinates":[127.389,36.30562]},"properties":{"name":"산성약국","addr":"대전광역시 중구 보문산로 79 (산성동)","sgg":"30140","cap":null,"type":null,"src":"safekorea","asof":"2026-08-22","tel":"042-585-0243"}},{"type":"Feature","geometry":{"type":"Point","coordinates":[127.43698,36.31371]},"properties":{"name":"우리들약국","addr":"대전광역시 중구 보문로 35","sgg":"30140","cap":null,"type":null,"src":"safekorea","asof":"2026-08-22","tel":"042-286-6789"}},{"type":"Feature","geometry":{"type":"Point","coordinates":[127.4211,36.3228]},"properties":{"name":"종오당약국","addr":"대전광역시 중구 대흥로66번길 25","sgg":"30140","cap":null,"type":null,"src":"safekorea","asof":"2026-08-22","tel":"042-254-4374"}},{"type":"Feature","geometry":{"type":"Point","coordinates":[127.40069,36.31898]},"properties":{"name":"하나약국","addr":"대전광역시 중구 계백로 1626-1, (유천동)","sgg":"30140","cap":null,"type":null,"src":"safekorea","asof":"2026-08-22","tel":"042-586-3669"}},{"type":"Feature","geometry":{"type":"Point","coordinates":[127.41024,36.32048]},"properties":{"name":"글꽃약국","addr":"대전광역시 중구 계백로1716번길 26, 미성프라자 204호 (문화동)","sgg":"30140","cap":null,"type":null,"src":"safekorea","asof":"2026-08-22","tel":"042-223-0216"}},{"type":"Feature","geometry":{"type":"Point","coordinates":[127.41103,36.32233]},"properties":{"name":"유명약국","addr":"대전광역시 중구 계백로 1727 (오류동)","sgg":"30140","cap":null,"type":null,"src":"safekorea","asof":"2026-08-22","tel":"042-524-5586"}},{"type":"Feature","geometry":{"type":"Point","coordinates":[127.39868,36.32314]},"properties":{"name":"참사랑약국","addr":"대전광역시 중구 평촌로 111, 108호 (태평동, 태평아파트)","sgg":"30140","cap":null,"type":null,"src":"safekorea","asof":"2026-08-22","tel":"042-535-8801"}},{"type":"Feature","geometry":{"type":"Point","coordinates":[127.40955,36.3219]},"properties":{"name":"한밭제일약국","addr":"대전광역시 중구 계백로 1711-1, 1층 (오류동)","sgg":"30140","cap":null,"type":null,"src":"safekorea","asof":"2026-08-22","tel":"042-533-8575"}},{"type":"Feature","geometry":{"type":"Point","coordinates":[127.41164,36.3256]},"properties":{"name":"행복온누리약국","addr":"대전광역시 중구 선화로 20","sgg":"30140","cap":null,"type":null,"src":"safekorea","asof":"2026-08-22","tel":"042-223-9141"}},{"type":"Feature","geometry":{"type":"Point","coordinates":[127.42354,36.32934]},"properties":{"name":"원정약국","addr":"대전광역시 중구 중앙로129번길 30 (선화동)","sgg":"30140","cap":null,"type":null,"src":"safekorea","asof":"2026-08-22","tel":"042-253-9920"}},{"type":"Feature","geometry":{"type":"Point","coordinates":[127.41465,36.33383]},"properties":{"name":"참편한약국","addr":"대전광역시 중구 선화서로 120-2","sgg":"30140","cap":null,"type":null,"src":"safekorea","asof":"2026-08-22","tel":"042-222-0579"}},{"type":"Feature","geometry":{"type":"Point","coordinates":[127.40445,36.31417]},"properties":{"name":"온누리현대약국","addr":"대전광역시 중구 문화로 172, (문화동)","sgg":"30140","cap":null,"type":null,"src":"safekorea","asof":"2026-08-22","tel":"042-582-5921"}},{"type":"Feature","geometry":{"type":"Point","coordinates":[127.38585,36.30178]},"properties":{"name":"성인약국","addr":"대전광역시 중구 대둔산로 363, (산성동)","sgg":"30140","cap":null,"type":null,"src":"safekorea","asof":"2026-08-22","tel":"042-581-0708"}},{"type":"Feature","geometry":{"type":"Point","coordinates":[127.39316,36.32057]},"properties":{"name":"유천프라자약국","addr":"대전광역시 중구 계백로1565번길 68 (유천동)","sgg":"30140","cap":null,"type":null,"src":"safekorea","asof":"2026-08-22","tel":"042-534-0486"}},{"type":"Feature","geometry":{"type":"Point","coordinates":[127.41087,36.31209]},"properties":{"name":"인제당약국","addr":"대전광역시 중구 과례로39번길 16, (문화동)","sgg":"30140","cap":null,"type":null,"src":"safekorea","asof":"2026-08-22","tel":"042-522-1551"}},{"type":"Feature","geometry":{"type":"Point","coordinates":[127.40974,36.32115]},"properties":{"name":"제생약국","addr":"대전광역시 중구 계백로 1712, (문화동,문화주공3차아파트상가)","sgg":"30140","cap":null,"type":null,"src":"safekorea","asof":"2026-08-22","tel":"042-585-8153"}},{"type":"Feature","geometry":{"type":"Point","coordinates":[127.43489,36.31363]},"properties":{"name":"준약국","addr":"대전광역시 중구 대종로 310, (부사동)","sgg":"30140","cap":null,"type":null,"src":"safekorea","asof":"2026-08-22","tel":"042-253-3882"}},{"type":"Feature","geometry":{"type":"Point","coordinates":[127.39917,36.31912]},"properties":{"name":"온누리약국","addr":"대전광역시 중구 계백로 1613, 대원빌딩 2층 2호 (유천동)","sgg":"30140","cap":null,"type":null,"src":"safekorea","asof":"2026-08-22","tel":"042-522-0625"}},{"type":"Feature","geometry":{"type":"Point","coordinates":[127.42591,36.31795]},"properties":{"name":"새동인당약국","addr":"대전광역시 중구 보문로 166 , 1층 (대사동)","sgg":"30140","cap":null,"type":null,"src":"safekorea","asof":"2026-08-22","tel":"042-256-9633"}},{"type":"Feature","geometry":{"type":"Point","coordinates":[127.42157,36.32467]},"properties":{"name":"수정약국","addr":"대전광역시 중구 중교로 15, 1층 (대흥동)","sgg":"30140","cap":null,"type":null,"src":"safekorea","asof":"2026-08-22","tel":"0422522543"}},{"type":"Feature","geometry":{"type":"Point","coordinates":[127.40056,36.32541]},"properties":{"name":"이경약국","addr":"대전광역시 중구 계룡로816번길 113 (태평동)","sgg":"30140","cap":null,"type":null,"src":"safekorea","asof":"2026-08-22","tel":"042-523-0185"}},{"type":"Feature","geometry":{"type":"Point","coordinates":[127.40623,36.32094]},"properties":{"name":"이레약국","addr":"대전광역시 중구 계백로 1681 (오류동)","sgg":"30140","cap":null,"type":null,"src":"safekorea","asof":"2026-08-22","tel":"042-538-8276"}},{"type":"Feature","geometry":{"type":"Point","coordinates":[127.38601,36.30492]},"properties":{"name":"호수약국","addr":"대전광역시 중구 대둔산로 397, (산성동)","sgg":"30140","cap":null,"type":null,"src":"safekorea","asof":"2026-08-22","tel":"042-581-0030"}},{"type":"Feature","geometry":{"type":"Point","coordinates":[127.38716,36.30507]},"properties":{"name":"건강드림약국","addr":"대전광역시 중구 보문산로 61","sgg":"30140","cap":null,"type":null,"src":"safekorea","asof":"2026-08-22","tel":"042-586-2500"}},{"type":"Feature","geometry":{"type":"Point","coordinates":[127.39752,36.32482]},"properties":{"name":"태평보령약국","addr":"대전광역시 중구 유천로132번길 37, 글로리아빌딩 (태평동)","sgg":"30140","cap":null,"type":null,"src":"safekorea","asof":"2026-08-22","tel":"042-521-3399"}},{"type":"Feature","geometry":{"type":"Point","coordinates":[127.44746,36.3064]},"properties":{"name":"스마일약국","addr":"대전광역시 중구 대종로 169, 1층 (석교동)","sgg":"30140","cap":null,"type":null,"src":"safekorea","asof":"2026-08-22","tel":"042-253-6865"}},{"type":"Feature","geometry":{"type":"Point","coordinates":[127.41355,36.32241]},"properties":{"name":"편한약국","addr":"대전광역시 중구 중앙로 10","sgg":"30140","cap":null,"type":null,"src":"safekorea","asof":"2026-08-22","tel":"042-222-1023"}},{"type":"Feature","geometry":{"type":"Point","coordinates":[127.42622,36.31757]},"properties":{"name":"건강한약국","addr":"대전광역시 중구 보문로 160-1, 1층 (대사동)","sgg":"30140","cap":null,"type":null,"src":"safekorea","asof":"2026-08-22","tel":"042-221-0333"}},{"type":"Feature","geometry":{"type":"Point","coordinates":[127.40651,36.32098]},"properties":{"name":"임문택약국","addr":"대전광역시 중구 계백로 1683 (오류동)","sgg":"30140","cap":null,"type":null,"src":"safekorea","asof":"2026-08-22","tel":"042-523-0078"}},{"type":"Feature","geometry":{"type":"Point","coordinates":[127.41712,36.319]},"properties":{"name":"화목한 약국","addr":"대전광역시 중구 계룡로 945-1","sgg":"30140","cap":null,"type":null,"src":"safekorea","asof":"2026-08-22","tel":"042-222-9889"}},{"type":"Feature","geometry":{"type":"Point","coordinates":[127.39554,36.32562]},"properties":{"name":"바다약국","addr":"대전광역시 중구 동서대로 1220 (태평동)","sgg":"30140","cap":null,"type":null,"src":"safekorea","asof":"2026-08-22","tel":"042-535-6933"}},{"type":"Feature","geometry":{"type":"Point","coordinates":[127.4342,36.31341]},"properties":{"name":"조창희약국","addr":"대전광역시 중구 보문로 62 (부사동)","sgg":"30140","cap":null,"type":null,"src":"safekorea","asof":"2026-08-22","tel":"042-255-3168"}},{"type":"Feature","geometry":{"type":"Point","coordinates":[127.43432,36.31275]},"properties":{"name":"명신 한약국","addr":"대전광역시 중구 사득로 6 (부사동)","sgg":"30140","cap":null,"type":null,"src":"safekorea","asof":"2026-08-22","tel":"042-226-6663"}},{"type":"Feature","geometry":{"type":"Point","coordinates":[127.3972,36.32592]},"properties":{"name":"세웅약국","addr":"대전광역시 중구 평촌로105번길 73","sgg":"30140","cap":null,"type":null,"src":"safekorea","asof":"2026-08-22","tel":"042-531-5656"}},{"type":"Feature","geometry":{"type":"Point","coordinates":[127.39201,36.31065]},"properties":{"name":"참솔약국","addr":"대전광역시 중구 문화로 54 (산성동)","sgg":"30140","cap":null,"type":null,"src":"safekorea","asof":"2026-08-22","tel":"042-587-5466"}},{"type":"Feature","geometry":{"type":"Point","coordinates":[127.40962,36.32519]},"properties":{"name":"코웰약국","addr":"대전광역시 중구 계룡로 849, 1층 (용두동)","sgg":"30140","cap":null,"type":null,"src":"safekorea","asof":"2026-08-22","tel":"042-253-1118"}},{"type":"Feature","geometry":{"type":"Point","coordinates":[127.40984,36.32208]},"properties":{"name":"더조은온누리약국","addr":"대전광역시 중구 계백로 1715, 105호 (오류동)","sgg":"30140","cap":null,"type":null,"src":"safekorea","asof":"2026-08-22","tel":"042-524-1230"}},{"type":"Feature","geometry":{"type":"Point","coordinates":[127.41106,36.32323]},"properties":{"name":"일등약국","addr":"대전광역시 중구 계룡로 876, 102호 (오류동)","sgg":"30140","cap":null,"type":null,"src":"safekorea","asof":"2026-08-22","tel":"042-525-7121"}},{"type":"Feature","geometry":{"type":"Point","coordinates":[127.33976,36.29931]},"properties":{"name":"동화약국","addr":"대전광역시 서구 관저로 157, 하이존 207(일부)호 (관저동)","sgg":"30170","cap":null,"type":null,"src":"safekorea","asof":"2026-08-22","tel":"042-545-1508"}},{"type":"Feature","geometry":{"type":"Point","coordinates":[127.38616,36.34822]},"properties":{"name":"누리샤크존약국","addr":"대전광역시 서구 둔산중로 19, 샤크존 2층 212호 (탄방동)","sgg":"30170","cap":null,"type":null,"src":"safekorea","asof":"2026-08-22","tel":"042-488-0509"}},{"type":"Feature","geometry":{"type":"Point","coordinates":[127.36567,36.36019]},"properties":{"name":"남화약국","addr":"대전광역시 서구 청사로 5 (월평동, 하나로아파트)","sgg":"30170","cap":null,"type":null,"src":"safekorea","asof":"2026-08-22","tel":"042-477-0252"}},{"type":"Feature","geometry":{"type":"Point","coordinates":[127.37732,36.31149]},"properties":{"name":"서정약국","addr":"대전광역시 서구 계백로 1400, 1층 (도마동)","sgg":"30170","cap":null,"type":null,"src":"safekorea","asof":"2026-08-22","tel":"042-533-2938"}},{"type":"Feature","geometry":{"type":"Point","coordinates":[127.36832,36.35375]},"properties":{"name":"갈마약국","addr":"대전광역시 서구 계룡로 353, 1층 (갈마동)","sgg":"30170","cap":null,"type":null,"src":"safekorea","asof":"2026-08-22","tel":"042-486-9204"}},{"type":"Feature","geometry":{"type":"Point","coordinates":[127.34101,36.30001]},"properties":{"name":"대전온누리약국","addr":"대전광역시 서구 관저동로 88 (관저동)","sgg":"30170","cap":null,"type":null,"src":"safekorea","asof":"2026-08-22","tel":"042-543-4119"}},{"type":"Feature","geometry":{"type":"Point","coordinates":[127.37908,36.31237]},"properties":{"name":"한밭약국","addr":"대전광역시 서구 계백로 1418, 1층 (도마동)","sgg":"30170","cap":null,"type":null,"src":"safekorea","asof":"2026-08-22","tel":"042-585-6878"}},{"type":"Feature","geometry":{"type":"Point","coordinates":[127.38235,36.33641]},"properties":{"name":"허룡약국","addr":"대전광역시 서구 도솔로 313, (괴정동)","sgg":"30170","cap":null,"type":null,"src":"safekorea","asof":"2026-08-22","tel":"042-525-5050"}},{"type":"Feature","geometry":{"type":"Point","coordinates":[127.39162,36.34098]},"properties":{"name":"참건강약국","addr":"대전광역시 서구 도산로393번길 62, 101호 (탄방동, 필하우스)","sgg":"30170","cap":null,"type":null,"src":"safekorea","asof":"2026-08-22","tel":"042-535-5256"}},{"type":"Feature","geometry":{"type":"Point","coordinates":[127.38292,36.34632]},"properties":{"name":"탄방한마음약국","addr":"대전광역시 서구 문정로 30, (탄방동)","sgg":"30170","cap":null,"type":null,"src":"safekorea","asof":"2026-08-22","tel":"042-489-5952"}},{"type":"Feature","geometry":{"type":"Point","coordinates":[127.38257,36.34871]},"properties":{"name":"은하수약국","addr":"대전광역시 서구 둔산남로 46","sgg":"30170","cap":null,"type":null,"src":"safekorea","asof":"2026-08-22","tel":"042-483-0058"}},{"type":"Feature","geometry":{"type":"Point","coordinates":[127.34102,36.29876]},"properties":{"name":"나라약국","addr":"대전광역시 서구 관저로 172, (관저동)","sgg":"30170","cap":null,"type":null,"src":"safekorea","asof":"2026-08-22","tel":"042-541-5276"}},{"type":"Feature","geometry":{"type":"Point","coordinates":[127.37149,36.33434]},"properties":{"name":"내동우리약국","addr":"대전광역시 서구 동서대로 981, 1층 (내동)","sgg":"30170","cap":null,"type":null,"src":"safekorea","asof":"2026-08-22","tel":"042-534-3176"}},{"type":"Feature","geometry":{"type":"Point","coordinates":[127.37044,36.32266]},"properties":{"name":"대영온누리약국","addr":"대전광역시 서구 배재로 160, (도마동)","sgg":"30170","cap":null,"type":null,"src":"safekorea","asof":"2026-08-22","tel":"042-522-8096"}},{"type":"Feature","geometry":{"type":"Point","coordinates":[127.37729,36.36202]},"properties":{"name":"라라약국","addr":"대전광역시 서구 월평북로 82 (월평동)","sgg":"30170","cap":null,"type":null,"src":"safekorea","asof":"2026-08-22","tel":"042-486-5454"}},{"type":"Feature","geometry":{"type":"Point","coordinates":[127.38241,36.35156]},"properties":{"name":"더희망약국","addr":"대전광역시 서구 둔산로 77","sgg":"30170","cap":null,"type":null,"src":"safekorea","asof":"2026-08-22","tel":"042-488-4050"}},{"type":"Feature","geometry":{"type":"Point","coordinates":[127.38031,36.31268]},"properties":{"name":"도마프라자약국","addr":"대전광역시 서구 도산로 45, 1층 (도마동)","sgg":"30170","cap":null,"type":null,"src":"safekorea","asof":"2026-08-22","tel":"042-582-3344"}},{"type":"Feature","geometry":{"type":"Point","coordinates":[127.37794,36.34831]},"properties":{"name":"미래조이약국","addr":"대전광역시 서구 대덕대로176번길 15, 미래여성병원 1층 (둔산동)","sgg":"30170","cap":null,"type":null,"src":"safekorea","asof":"2026-08-22","tel":"042-485-5485"}},{"type":"Feature","geometry":{"type":"Point","coordinates":[127.37698,36.34968]},"properties":{"name":"비엔씨약국","addr":"대전광역시 서구 대덕대로 183 (둔산동)","sgg":"30170","cap":null,"type":null,"src":"safekorea","asof":"2026-08-22","tel":"042-471-0755"}},{"type":"Feature","geometry":{"type":"Point","coordinates":[127.38788,36.32802]},"properties":{"name":"가장태평양약국","addr":"대전광역시 서구 동서대로 1147, 온누리크리닉 (가장동)","sgg":"30170","cap":null,"type":null,"src":"safekorea","asof":"2026-08-22","tel":"042-526-2000"}},{"type":"Feature","geometry":{"type":"Point","coordinates":[127.3779,36.35124]},"properties":{"name":"갤러리비타민약국","addr":"대전광역시 서구 대덕대로 203","sgg":"30170","cap":null,"type":null,"src":"safekorea","asof":"2026-08-22","tel":"042-486-0505"}},{"type":"Feature","geometry":{"type":"Point","coordinates":[127.39098,36.33627]},"properties":{"name":"누리태평양약국","addr":"대전광역시 서구 도산로 354, (용문동)","sgg":"30170","cap":null,"type":null,"src":"safekorea","asof":"2026-08-22","tel":"042-534-4627"}},{"type":"Feature","geometry":{"type":"Point","coordinates":[127.36823,36.34553]},"properties":{"name":"사랑약국","addr":"대전광역시 서구 신갈마로 133, 1층 (갈마동)","sgg":"30170","cap":null,"type":null,"src":"safekorea","asof":"2026-08-22","tel":"042-537-5546"}},{"type":"Feature","geometry":{"type":"Point","coordinates":[127.36418,36.35791]},"properties":{"name":"삼일약국","addr":"대전광역시 서구 월평중로 36, 1층 (월평동)","sgg":"30170","cap":null,"type":null,"src":"safekorea","asof":"2026-08-22","tel":"042-485-9831"}},{"type":"Feature","geometry":{"type":"Point","coordinates":[127.39432,36.36178]},"properties":{"name":"상록약국","addr":"대전광역시 서구 청사로 281, 120호 (둔산동, 샘머리아파트2단지)","sgg":"30170","cap":null,"type":null,"src":"safekorea","asof":"2026-08-22","tel":"042-472-5858"}},{"type":"Feature","geometry":{"type":"Point","coordinates":[127.37951,36.31341]},"properties":{"name":"서부실로암약국","addr":"대전광역시 서구 도산로 51 1층","sgg":"30170","cap":null,"type":null,"src":"safekorea","asof":"2026-08-22","tel":"042-537-4064"}},{"type":"Feature","geometry":{"type":"Point","coordinates":[127.38865,36.35099]},"properties":{"name":"새봄약국","addr":"대전광역시 서구 둔산로 134, 3층 (둔산동)","sgg":"30170","cap":null,"type":null,"src":"safekorea","asof":"2026-08-22","tel":"042-484-5333"}},{"type":"Feature","geometry":{"type":"Point","coordinates":[127.38908,36.35947]},"properties":{"name":"일영약국","addr":"대전광역시 서구 청사로 228, 307호 (둔산동,청사오피스텔)","sgg":"30170","cap":null,"type":null,"src":"safekorea","asof":"2026-08-22","tel":"042-484-2146"}},{"type":"Feature","geometry":{"type":"Point","coordinates":[127.37532,36.31161]},"properties":{"name":"해성약국","addr":"대전광역시 서구 제비네4길 129, (도마동)","sgg":"30170","cap":null,"type":null,"src":"safekorea","asof":"2026-08-22","tel":"042-535-5231"}},{"type":"Feature","geometry":{"type":"Point","coordinates":[127.37596,36.34841]},"properties":{"name":"둔산드림팜약국","addr":"대전광역시 서구 대덕대로167번길 5 (갈마동)","sgg":"30170","cap":null,"type":null,"src":"safekorea","asof":"2026-08-22","tel":"042-536-5567"}},{"type":"Feature","geometry":{"type":"Point","coordinates":[127.38983,36.35059]},"properties":{"name":"둔산성모약국","addr":"대전광역시 서구 문예로 43, 지하1층 (둔산동)","sgg":"30170","cap":null,"type":null,"src":"safekorea","asof":"2026-08-22","tel":"042-476-0332"}},{"type":"Feature","geometry":{"type":"Point","coordinates":[127.38225,36.3541]},"properties":{"name":"둔산을지약국","addr":"대전광역시 서구 대덕대로242번길 48, 1층 (둔산동)","sgg":"30170","cap":null,"type":null,"src":"safekorea","asof":"2026-08-22","tel":"042-489-2751"}},{"type":"Feature","geometry":{"type":"Point","coordinates":[127.39281,36.33904]},"properties":{"name":"승보약국","addr":"대전광역시 서구 계룡로 633, 1층 (탄방동)","sgg":"30170","cap":null,"type":null,"src":"safekorea","asof":"2026-08-22","tel":"042-523-7485"}},{"type":"Feature","geometry":{"type":"Point","coordinates":[127.37913,36.32605]},"properties":{"name":"시정약국","addr":"대전광역시 서구 도산로 197, (변동)","sgg":"30170","cap":null,"type":null,"src":"safekorea","asof":"2026-08-22","tel":"042-525-3300"}},{"type":"Feature","geometry":{"type":"Point","coordinates":[127.37631,36.35333]},"properties":{"name":"향촌약국","addr":"대전광역시 서구 둔산로 15, 109호 (둔산동, 향촌아파트상가)","sgg":"30170","cap":null,"type":null,"src":"safekorea","asof":"2026-08-22","tel":"042-485-8874"}},{"type":"Feature","geometry":{"type":"Point","coordinates":[127.36877,36.34422]},"properties":{"name":"인과원약국","addr":"대전광역시 서구 신갈마로 120","sgg":"30170","cap":null,"type":null,"src":"safekorea","asof":"2026-08-22","tel":"042-527-0072"}},{"type":"Feature","geometry":{"type":"Point","coordinates":[127.38225,36.3541]},"properties":{"name":"을지우리약국","addr":"대전광역시 서구 대덕대로242번길 48, 1층 (둔산동)","sgg":"30170","cap":null,"type":null,"src":"safekorea","asof":"2026-08-22","tel":"042-488-3882"}},{"type":"Feature","geometry":{"type":"Point","coordinates":[127.38263,36.3541]},"properties":{"name":"을지참조은약국","addr":"대전광역시 서구 둔산서로 81 1층","sgg":"30170","cap":null,"type":null,"src":"safekorea","asof":"2026-08-22","tel":"042-489-2552"}},{"type":"Feature","geometry":{"type":"Point","coordinates":[127.33007,36.29747]},"properties":{"name":"구봉온누리약국","addr":"대전광역시 서구 관저로 84","sgg":"30170","cap":null,"type":null,"src":"safekorea","asof":"2026-08-22","tel":"042-542-7755"}},{"type":"Feature","geometry":{"type":"Point","coordinates":[127.3746,36.33211]},"properties":{"name":"구인당약국","addr":"대전광역시 서구 동서대로 1016, 1층 (내동)","sgg":"30170","cap":null,"type":null,"src":"safekorea","asof":"2026-08-22","tel":"042-522-7321"}},{"type":"Feature","geometry":{"type":"Point","coordinates":[127.38558,36.33199]},"properties":{"name":"가장약국","addr":"대전광역시 서구 도산로 286, 가장크리닉 1층 (가장동)","sgg":"30170","cap":null,"type":null,"src":"safekorea","asof":"2026-08-22","tel":"042-538-5566"}},{"type":"Feature","geometry":{"type":"Point","coordinates":[127.32039,36.37239]},"properties":{"name":"호호약국","addr":"대전광역시 유성구 은구비남로 41, 지상1층 (지족동)","sgg":"30200","cap":null,"type":null,"src":"safekorea","asof":"2026-08-22","tel":"042-000-0000"}},{"type":"Feature","geometry":{"type":"Point","coordinates":[127.34131,36.34599]},"properties":{"name":"튼튼약국","addr":"대전광역시 유성구 도안대로 512-17, 104호 (봉명동)","sgg":"30200","cap":null,"type":null,"src":"safekorea","asof":"2026-08-22","tel":"042-822-8853"}},{"type":"Feature","geometry":{"type":"Point","coordinates":[127.38957,36.42428]},"properties":{"name":"따뜻한약국","addr":"대전광역시 유성구 관평2로 26, 아카데미프라자 1층 104호 (관평동)","sgg":"30200","cap":null,"type":null,"src":"safekorea","asof":"2026-08-22","tel":"042-933-5968"}},{"type":"Feature","geometry":{"type":"Point","coordinates":[127.30975,36.38806]},"properties":{"name":"유성종합약국","addr":"대전광역시 유성구 지족로 299, 지상1층 (지족동)","sgg":"30200","cap":null,"type":null,"src":"safekorea","asof":"2026-08-22","tel":"042-222-3435"}},{"type":"Feature","geometry":{"type":"Point","coordinates":[127.34054,36.33255]},"properties":{"name":"니즈웰약국","addr":"대전광역시 유성구 원신흥남로28번길 88, 1층 108호 (원신흥동)","sgg":"30200","cap":null,"type":null,"src":"safekorea","asof":"2026-08-22","tel":"042-823-6863"}},{"type":"Feature","geometry":{"type":"Point","coordinates":[127.33849,36.33258]},"properties":{"name":"새솔약국","addr":"대전광역시 유성구 동서대로 679, 위더스타워 1층 104호 (원신흥동)","sgg":"30200","cap":null,"type":null,"src":"safekorea","asof":"2026-08-22","tel":"042-823-9040"}},{"type":"Feature","geometry":{"type":"Point","coordinates":[127.37896,36.38492]},"properties":{"name":"메디치약국","addr":"대전광역시 유성구 대덕대로 582, 옥토빌딩 104호 (도룡동)","sgg":"30200","cap":null,"type":null,"src":"safekorea","asof":"2026-08-22","tel":"042-862-0070"}},{"type":"Feature","geometry":{"type":"Point","coordinates":[127.33583,36.35515]},"properties":{"name":"국민약국","addr":"대전광역시 유성구 계룡로 44 (봉명동)","sgg":"30200","cap":null,"type":null,"src":"safekorea","asof":"2026-08-22","tel":"042-822-7018"}},{"type":"Feature","geometry":{"type":"Point","coordinates":[127.38993,36.42659]},"properties":{"name":"바른약국","addr":"대전광역시 유성구 테크노중앙로 40, 남일프라자 1층 107호 (관평동)","sgg":"30200","cap":null,"type":null,"src":"safekorea","asof":"2026-08-22","tel":"042-933-0821"}},{"type":"Feature","geometry":{"type":"Point","coordinates":[127.38217,36.37519]},"properties":{"name":"정약국","addr":"대전광역시 유성구 엑스포로 1, 신세계엑스포점 타워동 지상5층 (도룡동)","sgg":"30200","cap":null,"type":null,"src":"safekorea","asof":"2026-08-22","tel":"042-607-8408"}},{"type":"Feature","geometry":{"type":"Point","coordinates":[127.39102,36.42694]},"properties":{"name":"행복약국","addr":"대전광역시 유성구 테크노중앙로 47, 1층 112호 (관평동)","sgg":"30200","cap":null,"type":null,"src":"safekorea","asof":"2026-08-22","tel":"042-671-0097"}},{"type":"Feature","geometry":{"type":"Point","coordinates":[127.35216,36.35913]},"properties":{"name":"비타민태평양약국","addr":"대전광역시 유성구 한밭대로492번길 16-18 (봉명동,1층)","sgg":"30200","cap":null,"type":null,"src":"safekorea","asof":"2026-08-22","tel":"042-826-2276"}},{"type":"Feature","geometry":{"type":"Point","coordinates":[127.34296,36.35266]},"properties":{"name":"웰빙약국","addr":"대전광역시 유성구 계룡로 114, 대전유성BYC빌딩 105,106호 (봉명동)","sgg":"30200","cap":null,"type":null,"src":"safekorea","asof":"2026-08-22","tel":"042-822-8276"}},{"type":"Feature","geometry":{"type":"Point","coordinates":[127.33905,36.36997]},"properties":{"name":"늘사랑약국","addr":"대전광역시 유성구 죽동로297번길 68, CNU프라자  1층 101호 (죽동)","sgg":"30200","cap":null,"type":null,"src":"safekorea","asof":"2026-08-22","tel":"042-825-6750"}},{"type":"Feature","geometry":{"type":"Point","coordinates":[127.39709,36.39943]},"properties":{"name":"샛별약국","addr":"대전광역시 유성구 전민로 71, 상가동 1층 104호 (전민동, 삼성푸른아파트)","sgg":"30200","cap":null,"type":null,"src":"safekorea","asof":"2026-08-22","tel":"042-861-1050"}},{"type":"Feature","geometry":{"type":"Point","coordinates":[127.30875,36.38706]},"properties":{"name":"푸른솔약국","addr":"대전광역시 유성구 지족동로 150, 1층 104호 (지족동)","sgg":"30200","cap":null,"type":null,"src":"safekorea","asof":"2026-08-22","tel":"042-823-7335"}},{"type":"Feature","geometry":{"type":"Point","coordinates":[127.34239,36.35374]},"properties":{"name":"실로암약국","addr":"대전광역시 유성구 계룡로 105, 1층 101호 (봉명동)","sgg":"30200","cap":null,"type":null,"src":"safekorea","asof":"2026-08-22","tel":"042-826-9634"}},{"type":"Feature","geometry":{"type":"Point","coordinates":[127.33906,36.37257]},"properties":{"name":"편안한약국","addr":"대전광역시 유성구 죽동로279번길 101, 104호 (죽동, 죽동프라자)","sgg":"30200","cap":null,"type":null,"src":"safekorea","asof":"2026-08-22","tel":"042-826-8885"}},{"type":"Feature","geometry":{"type":"Point","coordinates":[127.3161,36.387]},"properties":{"name":"박진희약국","addr":"대전광역시 유성구 지족로 355, 월드프라자 1층 104호 (지족동)","sgg":"30200","cap":null,"type":null,"src":"safekorea","asof":"2026-08-22","tel":"042-721-2355"}},{"type":"Feature","geometry":{"type":"Point","coordinates":[127.33163,36.35625]},"properties":{"name":"더나은약국","addr":"대전광역시 유성구 계룡로 6, 더원빌딩 1층 (구암동)","sgg":"30200","cap":null,"type":null,"src":"safekorea","asof":"2026-08-22","tel":"042-824-2268"}},{"type":"Feature","geometry":{"type":"Point","coordinates":[127.39311,36.41672]},"properties":{"name":"호반약국","addr":"대전광역시 유성구 배울1로 122, 호반써밋프라자 Ⅰ 지상1층 103호 (용산동)","sgg":"30200","cap":null,"type":null,"src":"safekorea","asof":"2026-08-22","tel":"042-933-8386"}},{"type":"Feature","geometry":{"type":"Point","coordinates":[127.39401,36.41642]},"properties":{"name":"태평양약국","addr":"대전광역시 유성구 배울1로 132, 용산써밋프라자 Ⅰ 지상1층 101,102호 (용산동)","sgg":"30200","cap":null,"type":null,"src":"safekorea","asof":"2026-08-22","tel":"042-931-8857"}},{"type":"Feature","geometry":{"type":"Point","coordinates":[127.34946,36.33968]},"properties":{"name":"코미약국","addr":"대전광역시 유성구 원신흥로 122-3, 레이크빌딩 Ⅱ 101호 (원신흥동)","sgg":"30200","cap":null,"type":null,"src":"safekorea","asof":"2026-08-22","tel":"070-8676-6377"}},{"type":"Feature","geometry":{"type":"Point","coordinates":[127.3319,36.35091]},"properties":{"name":"유성한우리약국","addr":"대전광역시 유성구 유성대로646번길 61, (구암동)","sgg":"30200","cap":null,"type":null,"src":"safekorea","asof":"2026-08-22","tel":"042-824-4928"}},{"type":"Feature","geometry":{"type":"Point","coordinates":[127.30812,36.38724]},"properties":{"name":"다온약국","addr":"대전광역시 유성구 지족로 282, 101호 (지족동, 코오롱타워2)","sgg":"30200","cap":null,"type":null,"src":"safekorea","asof":"2026-08-22","tel":"042-823-7572"}},{"type":"Feature","geometry":{"type":"Point","coordinates":[127.33843,36.37011]},"properties":{"name":"소망약국","addr":"대전광역시 유성구 죽동로297번길 76 (죽동)","sgg":"30200","cap":null,"type":null,"src":"safekorea","asof":"2026-08-22","tel":"042-825-5603"}},{"type":"Feature","geometry":{"type":"Point","coordinates":[127.33879,36.33257]},"properties":{"name":"메디본약국","addr":"대전광역시 유성구 동서대로 681, 웰라이프 빌딩 지상1층 일부호 (원신흥동)","sgg":"30200","cap":null,"type":null,"src":"safekorea","asof":"2026-08-22","tel":"042-822-7001"}},{"type":"Feature","geometry":{"type":"Point","coordinates":[127.30656,36.34235]},"properties":{"name":"으뜸약국","addr":"대전광역시 유성구 학하로 104, 102호 (학하동)","sgg":"30200","cap":null,"type":null,"src":"safekorea","asof":"2026-08-22","tel":"042-335-0715"}},{"type":"Feature","geometry":{"type":"Point","coordinates":[127.39278,36.4168]},"properties":{"name":"레몬약국","addr":"대전광역시 유성구 배울1로 120, 지상1층 108호 (용산동)","sgg":"30200","cap":null,"type":null,"src":"safekorea","asof":"2026-08-22","tel":"042-381-7676"}},{"type":"Feature","geometry":{"type":"Point","coordinates":[127.34116,36.35411]},"properties":{"name":"조이약국","addr":"대전광역시 유성구 대학로 1, 지상3층 (봉명동)","sgg":"30200","cap":null,"type":null,"src":"safekorea","asof":"2026-08-22","tel":"042-825-5255"}},{"type":"Feature","geometry":{"type":"Point","coordinates":[127.34086,36.34564]},"properties":{"name":"혜화온누리약국","addr":"대전광역시 유성구  도안대로  512-12, 101호 (봉명동)","sgg":"30200","cap":null,"type":null,"src":"safekorea","asof":"2026-08-22","tel":"042-823-3777"}},{"type":"Feature","geometry":{"type":"Point","coordinates":[127.3399,36.35448]},"properties":{"name":"유명약국","addr":"대전광역시 유성구 계룡로 81 (봉명동)","sgg":"30200","cap":null,"type":null,"src":"safekorea","asof":"2026-08-22","tel":"042-719-7509"}},{"type":"Feature","geometry":{"type":"Point","coordinates":[127.31137,36.39159]},"properties":{"name":"휴베이스반석봄약국","addr":"대전광역시 유성구 반석로 28, 103호 (반석동)","sgg":"30200","cap":null,"type":null,"src":"safekorea","asof":"2026-08-22","tel":"042-826-2133"}},{"type":"Feature","geometry":{"type":"Point","coordinates":[127.387,36.42589]},"properties":{"name":"슬기로운한약국","addr":"대전광역시 유성구 관평1로 15, 더리치타운 지상1층 111호 (관평동)","sgg":"30200","cap":null,"type":null,"src":"safekorea","asof":"2026-08-22","tel":"042-933-0484"}},{"type":"Feature","geometry":{"type":"Point","coordinates":[127.29967,36.2807]},"properties":{"name":"알뜰한약국","addr":"대전광역시 유성구 계백로555번길 14, 지상1층 (방동)","sgg":"30200","cap":null,"type":null,"src":"safekorea","asof":"2026-08-22","tel":"042-222-7775"}},{"type":"Feature","geometry":{"type":"Point","coordinates":[127.39064,36.42628]},"properties":{"name":"관평드림약국","addr":"대전광역시 유성구 테크노중앙로 50, 1층 B102호 (관평동)","sgg":"30200","cap":null,"type":null,"src":"safekorea","asof":"2026-08-22","tel":"042-931-0045"}},{"type":"Feature","geometry":{"type":"Point","coordinates":[127.3485,36.35304]},"properties":{"name":"유성건강약국","addr":"대전광역시 유성구 계룡로155번길 26-12, 1층 (봉명동)","sgg":"30200","cap":null,"type":null,"src":"safekorea","asof":"2026-08-22","tel":"042-822-7627"}},{"type":"Feature","geometry":{"type":"Point","coordinates":[127.34306,36.35924]},"properties":{"name":"베스트힐링약국","addr":"대전광역시 유성구 대학로 61, 1층 (봉명동)","sgg":"30200","cap":null,"type":null,"src":"safekorea","asof":"2026-08-22","tel":"042-824-9333"}},{"type":"Feature","geometry":{"type":"Point","coordinates":[127.31841,36.37445]},"properties":{"name":"보명약국","addr":"대전광역시 유성구 노은로 166","sgg":"30200","cap":null,"type":null,"src":"safekorea","asof":"2026-08-22","tel":"042-823-8838"}},{"type":"Feature","geometry":{"type":"Point","coordinates":[127.34078,36.35315]},"properties":{"name":"시티팜약국","addr":"대전광역시 유성구 도안대로 591 (봉명동)","sgg":"30200","cap":null,"type":null,"src":"safekorea","asof":"2026-08-22","tel":"042-825-0294"}},{"type":"Feature","geometry":{"type":"Point","coordinates":[127.31754,36.38722]},"properties":{"name":"맑은약국","addr":"대전광역시 유성구 지족로 373, 101호 (지족동)","sgg":"30200","cap":null,"type":null,"src":"safekorea","asof":"2026-08-22","tel":"042-825-5330"}},{"type":"Feature","geometry":{"type":"Point","coordinates":[127.33657,36.35768]},"properties":{"name":"서울온누리약국","addr":"대전광역시 유성구 장대로 30 (장대동)","sgg":"30200","cap":null,"type":null,"src":"safekorea","asof":"2026-08-22","tel":"042-822-2187"}},{"type":"Feature","geometry":{"type":"Point","coordinates":[127.32675,36.30095]},"properties":{"name":"조은약국","addr":"대전광역시 유성구 계백로 927, 1층 2101, 2102호 (원내동)","sgg":"30200","cap":null,"type":null,"src":"safekorea","asof":"2026-08-22","tel":"042-542-5882"}},{"type":"Feature","geometry":{"type":"Point","coordinates":[127.33876,36.37002]},"properties":{"name":"동산약국","addr":"대전광역시 유성구 죽동로297번길 72, 103호 (죽동, KJ빌딩)","sgg":"30200","cap":null,"type":null,"src":"safekorea","asof":"2026-08-22","tel":"042-861-5811"}},{"type":"Feature","geometry":{"type":"Point","coordinates":[127.34025,36.35162]},"properties":{"name":"햇살약국","addr":"대전광역시 유성구 도안대로 575, 1층 102호 (봉명동)","sgg":"30200","cap":null,"type":null,"src":"safekorea","asof":"2026-08-22","tel":"042-825-8763"}},{"type":"Feature","geometry":{"type":"Point","coordinates":[127.38647,36.43591]},"properties":{"name":"김약국","addr":"대전광역시 유성구 봉산로 27, 송강프라자 2층 209(일부)호 (송강동)","sgg":"30200","cap":null,"type":null,"src":"safekorea","asof":"2026-08-22","tel":"042-933-7983"}},{"type":"Feature","geometry":{"type":"Point","coordinates":[127.33631,36.35077]},"properties":{"name":"청아한약국","addr":"대전광역시 유성구 유성대로654번길 133, 지상1층 (구암동)","sgg":"30200","cap":null,"type":null,"src":"safekorea","asof":"2026-08-22","tel":"050-71301-5578"}},{"type":"Feature","geometry":{"type":"Point","coordinates":[127.38961,36.42633]},"properties":{"name":"관평무지개약국","addr":"대전광역시 유성구 테크노4로 98-4 (관평동)","sgg":"30200","cap":null,"type":null,"src":"safekorea","asof":"2026-08-22","tel":"042-933-3525"}},{"type":"Feature","geometry":{"type":"Point","coordinates":[127.34688,36.35179]},"properties":{"name":"유성미래약국","addr":"대전광역시 유성구 계룡로 150, 1층 (봉명동)","sgg":"30200","cap":null,"type":null,"src":"safekorea","asof":"2026-08-22","tel":"042-822-8221"}},{"type":"Feature","geometry":{"type":"Point","coordinates":[127.30168,36.34599]},"properties":{"name":"늘봄약국","addr":"대전광역시 유성구 학하중앙로59번길 5-3, 101호 (덕명동, 호연빌딩)","sgg":"30200","cap":null,"type":null,"src":"safekorea","asof":"2026-08-22","tel":"042-825-9665"}},{"type":"Feature","geometry":{"type":"Point","coordinates":[127.34125,36.35523]},"properties":{"name":"솔로몬약국","addr":"대전광역시 유성구 온천로 34, 유성빌딩 102호 (봉명동)","sgg":"30200","cap":null,"type":null,"src":"safekorea","asof":"2026-08-22","tel":"042-822-4317"}},{"type":"Feature","geometry":{"type":"Point","coordinates":[127.30321,36.34171]},"properties":{"name":"기린약국","addr":"대전광역시 유성구 학하서로20번길 7, 1층 (계산동)","sgg":"30200","cap":null,"type":null,"src":"safekorea","asof":"2026-08-22","tel":"042-826-8765"}},{"type":"Feature","geometry":{"type":"Point","coordinates":[127.31233,36.39179]},"properties":{"name":"반석약국","addr":"대전광역시 유성구 반석로 20, 플러스존 1층 102호 (반석동)","sgg":"30200","cap":null,"type":null,"src":"safekorea","asof":"2026-08-22","tel":"042-825-3978"}},{"type":"Feature","geometry":{"type":"Point","coordinates":[127.387,36.42589]},"properties":{"name":"밝은약국","addr":"대전광역시 유성구 관평1로 15, 더리치타운 1층 122호 (관평동)","sgg":"30200","cap":null,"type":null,"src":"safekorea","asof":"2026-08-22","tel":"042-933-2356"}},{"type":"Feature","geometry":{"type":"Point","coordinates":[127.40459,36.39828]},"properties":{"name":"메디팜태평양약국","addr":"대전광역시 유성구 엑스포로 469 (전민동)","sgg":"30200","cap":null,"type":null,"src":"safekorea","asof":"2026-08-22","tel":"042-863-4118"}},{"type":"Feature","geometry":{"type":"Point","coordinates":[127.39228,36.37622]},"properties":{"name":"도룡365약국","addr":"대전광역시 유성구 엑스포로123번길 27-22, 제1층 제6호 (도룡동)","sgg":"30200","cap":null,"type":null,"src":"safekorea","asof":"2026-08-22","tel":"042-867-3879"}},{"type":"Feature","geometry":{"type":"Point","coordinates":[127.33844,36.33294]},"properties":{"name":"엠비엘약국","addr":"대전광역시 유성구 원신흥남로12번길 8-10, MBL빌딩 1층 101호 (원신흥동)","sgg":"30200","cap":null,"type":null,"src":"safekorea","asof":"2026-08-22","tel":"042-825-3275"}},{"type":"Feature","geometry":{"type":"Point","coordinates":[127.4057,36.39998]},"properties":{"name":"엑스포약국","addr":"대전광역시 유성구 엑스포로 488 엑스포코아 116호 (전민동)","sgg":"30200","cap":null,"type":null,"src":"safekorea","asof":"2026-08-22","tel":"042-862-8230"}},{"type":"Feature","geometry":{"type":"Point","coordinates":[127.34455,36.35224]},"properties":{"name":"맘e편한약국","addr":"대전광역시 유성구 계룡로132번길 10, 118호 (봉명동, 도안쎈트럴프라자)","sgg":"30200","cap":null,"type":null,"src":"safekorea","asof":"2026-08-22","tel":"042-826-0294"}},{"type":"Feature","geometry":{"type":"Point","coordinates":[127.34419,36.35251]},"properties":{"name":"참다솜약국","addr":"대전광역시 유성구 계룡로 126, 1층 (봉명동)","sgg":"30200","cap":null,"type":null,"src":"safekorea","asof":"2026-08-22","tel":"042-825-3891"}},{"type":"Feature","geometry":{"type":"Point","coordinates":[127.31912,36.37356]},"properties":{"name":"스타약국","addr":"대전광역시 유성구 은구비남로33번길 29, 홍송빌딩 1층 101호 (지족동)","sgg":"30200","cap":null,"type":null,"src":"safekorea","asof":"2026-08-22","tel":"042-348-2200"}},{"type":"Feature","geometry":{"type":"Point","coordinates":[127.33927,36.34566]},"properties":{"name":"생명사랑약국","addr":"대전광역시 유성구 도안대로 511-13, 1층 111호 (상대동)","sgg":"30200","cap":null,"type":null,"src":"safekorea","asof":"2026-08-22","tel":"042-823-8276"}},{"type":"Feature","geometry":{"type":"Point","coordinates":[127.30393,36.378]},"properties":{"name":"노은우리약국","addr":"대전광역시 유성구 지족로148번길 27, 103호 (지족동, 스타빌딩)","sgg":"30200","cap":null,"type":null,"src":"safekorea","asof":"2026-08-22","tel":"042-824-7581"}},{"type":"Feature","geometry":{"type":"Point","coordinates":[127.30367,36.34228]},"properties":{"name":"다솜약국","addr":"대전광역시 유성구 학하서로20번길 21, 1층 (계산동)","sgg":"30200","cap":null,"type":null,"src":"safekorea","asof":"2026-08-22","tel":"042-826-8701"}},{"type":"Feature","geometry":{"type":"Point","coordinates":[127.3224,36.37482]},"properties":{"name":"아름다운약국","addr":"대전광역시 유성구 노은동로 161, 1층 102호 (지족동)","sgg":"30200","cap":null,"type":null,"src":"safekorea","asof":"2026-08-22","tel":"042-822-1191"}},{"type":"Feature","geometry":{"type":"Point","coordinates":[127.34439,36.35805]},"properties":{"name":"봉명심야약국","addr":"대전광역시 유성구 온천북로13번길 21, 지상1층 109호 (봉명동)","sgg":"30200","cap":null,"type":null,"src":"safekorea","asof":"2026-08-22","tel":"042-822-8469"}},{"type":"Feature","geometry":{"type":"Point","coordinates":[127.3297,36.33727]},"properties":{"name":"도안365약국","addr":"대전광역시 유성구 상대복용로29번길 52, 상가동 지하1층 1-55호 (상대동, 대전아이파크시티 1단지)","sgg":"30200","cap":null,"type":null,"src":"safekorea","asof":"2026-08-22","tel":"050-713-7194"}},{"type":"Feature","geometry":{"type":"Point","coordinates":[127.33651,36.35493]},"properties":{"name":"유성태평양약국","addr":"대전광역시 유성구 계룡로 50, (봉명동)","sgg":"30200","cap":null,"type":null,"src":"safekorea","asof":"2026-08-22","tel":"042-823-8561"}},{"type":"Feature","geometry":{"type":"Point","coordinates":[127.34145,36.35492]},"properties":{"name":"더조은약국","addr":"대전광역시 유성구 대학로 11, 1층 (봉명동)","sgg":"30200","cap":null,"type":null,"src":"safekorea","asof":"2026-08-22","tel":"042-823-8401"}},{"type":"Feature","geometry":{"type":"Point","coordinates":[127.30806,36.38774]},"properties":{"name":"이나약국","addr":"대전광역시 유성구 지족로 283, 104호 (지족동)","sgg":"30200","cap":null,"type":null,"src":"safekorea","asof":"2026-08-22","tel":"042-823-7576"}},{"type":"Feature","geometry":{"type":"Point","coordinates":[127.35022,36.38714]},"properties":{"name":"하연약국","addr":"대전광역시 유성구 신성로72번길 66, 1층 (신성동)","sgg":"30200","cap":null,"type":null,"src":"safekorea","asof":"2026-08-22","tel":"042-862-0625"}},{"type":"Feature","geometry":{"type":"Point","coordinates":[127.34339,36.35755]},"properties":{"name":"유성365약국","addr":"대전광역시 유성구 대학로 44, 1층 111,112호 (봉명동)","sgg":"30200","cap":null,"type":null,"src":"safekorea","asof":"2026-08-22","tel":"042-822-5548"}},{"type":"Feature","geometry":{"type":"Point","coordinates":[127.33306,36.33641]},"properties":{"name":"상대온누리약국","addr":"대전광역시 유성구 상대복용로29번길 9-18, 아이클리닉 104호 (상대동)","sgg":"30200","cap":null,"type":null,"src":"safekorea","asof":"2026-08-22","tel":"042-826-2132"}},{"type":"Feature","geometry":{"type":"Point","coordinates":[127.3185,36.37254]},"properties":{"name":"다사랑약국","addr":"대전광역시 유성구 노은로 144, 노은타운 111호 (지족동)","sgg":"30200","cap":null,"type":null,"src":"safekorea","asof":"2026-08-22","tel":"042-476-0038"}},{"type":"Feature","geometry":{"type":"Point","coordinates":[127.33715,36.33032]},"properties":{"name":"도안새봄약국","addr":"대전광역시 유성구 도안북로 79, 지상1층 (용계동)","sgg":"30200","cap":null,"type":null,"src":"safekorea","asof":"2026-08-22","tel":"042-719-2177"}},{"type":"Feature","geometry":{"type":"Point","coordinates":[127.39371,36.41652]},"properties":{"name":"이화바로약국","addr":"대전광역시 유성구 배울1로 128, 용산써밋프라자 Ⅱ 지상1층 103호 (용산동)","sgg":"30200","cap":null,"type":null,"src":"safekorea","asof":"2026-08-22","tel":"042-935-6936"}},{"type":"Feature","geometry":{"type":"Point","coordinates":[127.3789,36.3852]},"properties":{"name":"원약국","addr":"대전광역시 유성구 대덕대로 586","sgg":"30200","cap":null,"type":null,"src":"safekorea","asof":"2026-08-22","tel":"042-867-6950"}},{"type":"Feature","geometry":{"type":"Point","coordinates":[127.35701,36.36298]},"properties":{"name":"지혜당약국","addr":"대전광역시 유성구 어은로 52 1층 (어은동)","sgg":"30200","cap":null,"type":null,"src":"safekorea","asof":"2026-08-22","tel":"042-222-5574"}},{"type":"Feature","geometry":{"type":"Point","coordinates":[127.3533,36.36198]},"properties":{"name":"새아침약국","addr":"대전광역시 유성구 농대로 16, (어은동)","sgg":"30200","cap":null,"type":null,"src":"safekorea","asof":"2026-08-22","tel":"042-867-8276"}},{"type":"Feature","geometry":{"type":"Point","coordinates":[127.35365,36.36352]},"properties":{"name":"초록온누리약국","addr":"대전광역시 유성구 어은로 57, 111호 (어은동, 한빛아파트)","sgg":"30200","cap":null,"type":null,"src":"safekorea","asof":"2026-08-22","tel":"042-861-2310"}},{"type":"Feature","geometry":{"type":"Point","coordinates":[127.4057,36.39998]},"properties":{"name":"코아우리약국","addr":"대전광역시 유성구 엑스포로 488, 4층 (전민동,엑스포코아)","sgg":"30200","cap":null,"type":null,"src":"safekorea","asof":"2026-08-22","tel":"042-862-9732"}},{"type":"Feature","geometry":{"type":"Point","coordinates":[127.3871,36.43584]},"properties":{"name":"송강태평양약국","addr":"대전광역시 유성구 구즉로 84, 1층 (봉산동)","sgg":"30200","cap":null,"type":null,"src":"safekorea","asof":"2026-08-22","tel":"042-935-3007"}},{"type":"Feature","geometry":{"type":"Point","coordinates":[127.35365,36.36352]},"properties":{"name":"한빛약국","addr":"대전광역시 유성구 어은로 57","sgg":"30200","cap":null,"type":null,"src":"safekorea","asof":"2026-08-22","tel":"042-862-0110"}},{"type":"Feature","geometry":{"type":"Point","coordinates":[127.31137,36.39159]},"properties":{"name":"다사랑온누리약국","addr":"대전광역시 유성구 반석로 28, 103호 (반석동)","sgg":"30200","cap":null,"type":null,"src":"safekorea","asof":"2026-08-22","tel":"042-826-2133"}},{"type":"Feature","geometry":{"type":"Point","coordinates":[127.38824,36.42296]},"properties":{"name":"하나로약국","addr":"대전광역시 유성구 테크노4로 133","sgg":"30200","cap":null,"type":null,"src":"safekorea","asof":"2026-08-22","tel":"042-935-3467"}},{"type":"Feature","geometry":{"type":"Point","coordinates":[127.33758,36.41402]},"properties":{"name":"두리약국","addr":"대전광역시 유성구 자운로97번길 410, 1층 (신봉동)","sgg":"30200","cap":null,"type":null,"src":"safekorea","asof":"2026-08-22","tel":"042-861-1945"}},{"type":"Feature","geometry":{"type":"Point","coordinates":[127.31983,36.37239]},"properties":{"name":"메디팜조은약국","addr":"대전광역시 유성구 은구비남로 37 (지족동)","sgg":"30200","cap":null,"type":null,"src":"safekorea","asof":"2026-08-22","tel":"042-477-5588"}},{"type":"Feature","geometry":{"type":"Point","coordinates":[127.322,36.3]},"properties":{"name":"나은약국","addr":"대전광역시 유성구 원내로 57, 1층 (원내동)","sgg":"30200","cap":null,"type":null,"src":"safekorea","asof":"2026-08-22","tel":"042-541-1856"}},{"type":"Feature","geometry":{"type":"Point","coordinates":[127.33618,36.36081]},"properties":{"name":"행복한약국","addr":"대전광역시 유성구 유성대로 770, (장대동)","sgg":"30200","cap":null,"type":null,"src":"safekorea","asof":"2026-08-22","tel":"042-825-7588"}},{"type":"Feature","geometry":{"type":"Point","coordinates":[127.3878,36.42225]},"properties":{"name":"신세계약국","addr":"대전광역시 유성구 테크노4로 141, 1층 101호(관평동)","sgg":"30200","cap":null,"type":null,"src":"safekorea","asof":"2026-08-22","tel":"042-933-4664"}},{"type":"Feature","geometry":{"type":"Point","coordinates":[127.3314,36.35041]},"properties":{"name":"제일약국","addr":"대전광역시 유성구 월드컵대로275번길 39","sgg":"30200","cap":null,"type":null,"src":"safekorea","asof":"2026-08-22","tel":"042-825-5555"}},{"type":"Feature","geometry":{"type":"Point","coordinates":[127.40109,36.39946]},"properties":{"name":"성실약국","addr":"대전광역시 유성구 유성대로 1728 (전민동)","sgg":"30200","cap":null,"type":null,"src":"safekorea","asof":"2026-08-22","tel":"042-863-4407"}},{"type":"Feature","geometry":{"type":"Point","coordinates":[127.34915,36.36288]},"properties":{"name":"우리들의약국","addr":"대전광역시 유성구 궁동로18번길 31, (궁동)","sgg":"30200","cap":null,"type":null,"src":"safekorea","asof":"2026-08-22","tel":"042-822-0427"}},{"type":"Feature","geometry":{"type":"Point","coordinates":[127.38477,36.43324]},"properties":{"name":"건강한약국","addr":"대전광역시 유성구 구즉로 46, 1층 (송강동)","sgg":"30200","cap":null,"type":null,"src":"safekorea","asof":"2026-08-22","tel":"042-936-7533"}},{"type":"Feature","geometry":{"type":"Point","coordinates":[127.33525,36.35562]},"properties":{"name":"열린약국","addr":"대전광역시 유성구 계룡로 37-1 (봉명동)","sgg":"30200","cap":null,"type":null,"src":"safekorea","asof":"2026-08-22","tel":"042-824-4285"}},{"type":"Feature","geometry":{"type":"Point","coordinates":[127.35065,36.35536]},"properties":{"name":"유성한사랑약국","addr":"대전광역시 유성구 온천동로 43 (봉명동)","sgg":"30200","cap":null,"type":null,"src":"safekorea","asof":"2026-08-22","tel":"042-824-7979"}},{"type":"Feature","geometry":{"type":"Point","coordinates":[127.31938,36.29899]},"properties":{"name":"다정약국","addr":"대전광역시 유성구 진잠로74번길 51 (원내동)","sgg":"30200","cap":null,"type":null,"src":"safekorea","asof":"2026-08-22","tel":"042-543-3536"}},{"type":"Feature","geometry":{"type":"Point","coordinates":[127.33627,36.36096]},"properties":{"name":"대형약국","addr":"대전광역시 유성구 유성대로 772 (장대동)","sgg":"30200","cap":null,"type":null,"src":"safekorea","asof":"2026-08-22","tel":"042-822-2732"}},{"type":"Feature","geometry":{"type":"Point","coordinates":[127.32024,36.3001]},"properties":{"name":"백제약국","addr":"대전광역시 유성구 원내로39번길 6 (원내동)","sgg":"30200","cap":null,"type":null,"src":"safekorea","asof":"2026-08-22","tel":"042-543-5554"}},{"type":"Feature","geometry":{"type":"Point","coordinates":[127.38579,36.43402]},"properties":{"name":"송강보령약국","addr":"대전광역시 유성구 구즉로58번길 12","sgg":"30200","cap":null,"type":null,"src":"safekorea","asof":"2026-08-22","tel":"042-935-7065"}},{"type":"Feature","geometry":{"type":"Point","coordinates":[127.35001,36.3866]},"properties":{"name":"신성태평양약국","addr":"대전광역시 유성구 신성남로 45, 103호 (신성동)","sgg":"30200","cap":null,"type":null,"src":"safekorea","asof":"2026-08-22","tel":"042-861-8614"}},{"type":"Feature","geometry":{"type":"Point","coordinates":[127.31215,36.39131]},"properties":{"name":"네거리약국","addr":"대전광역시 유성구 반석로 23, 1층 104호 (반석동, 제일프라자)","sgg":"30200","cap":null,"type":null,"src":"safekorea","asof":"2026-08-22","tel":"042-931-6375"}},{"type":"Feature","geometry":{"type":"Point","coordinates":[127.38613,36.43515]},"properties":{"name":"장수약국","addr":"대전광역시 유성구 구즉로 72 (송강동)","sgg":"30200","cap":null,"type":null,"src":"safekorea","asof":"2026-08-22","tel":"042-934-7702"}},{"type":"Feature","geometry":{"type":"Point","coordinates":[127.38315,36.43678]},"properties":{"name":"송강파맥스약국","addr":"대전광역시 유성구 송강로42번길 61, 상가1동 지상1층 108호 (송강동, 청솔아파트)","sgg":"30200","cap":null,"type":null,"src":"safekorea","asof":"2026-08-22","tel":"042-934-1174"}},{"type":"Feature","geometry":{"type":"Point","coordinates":[127.38481,36.43335]},"properties":{"name":"즐거운온누리약국","addr":"대전광역시 유성구 구즉로 48 (송강동)","sgg":"30200","cap":null,"type":null,"src":"safekorea","asof":"2026-08-22","tel":"042-935-2230"}},{"type":"Feature","geometry":{"type":"Point","coordinates":[127.31991,36.29861]},"properties":{"name":"메디칼약국","addr":"대전광역시 유성구 진잠로42번길 111  (원내동)","sgg":"30200","cap":null,"type":null,"src":"safekorea","asof":"2026-08-22","tel":"042-543-2080"}},{"type":"Feature","geometry":{"type":"Point","coordinates":[127.38732,36.43559]},"properties":{"name":"성모약국","addr":"대전광역시 유성구 봉산로 22","sgg":"30200","cap":null,"type":null,"src":"safekorea","asof":"2026-08-22","tel":"042-934-7202"}},{"type":"Feature","geometry":{"type":"Point","coordinates":[127.40554,36.39335]},"properties":{"name":"순수약국","addr":"대전광역시 유성구 문지로299번길 86-4, 지상1층 (문지동)","sgg":"30200","cap":null,"type":null,"src":"safekorea","asof":"2026-08-22","tel":"042-721-0005"}},{"type":"Feature","geometry":{"type":"Point","coordinates":[127.31843,36.37481]},"properties":{"name":"코끼리901약국","addr":"대전광역시 유성구 노은로 170, 스타시티 1층 101, 102, 103, 104, 111, 112호 (지족동)","sgg":"30200","cap":null,"type":null,"src":"safekorea","asof":"2026-08-22","tel":"042-826-8533"}},{"type":"Feature","geometry":{"type":"Point","coordinates":[127.31978,36.29936]},"properties":{"name":"원내성심약국","addr":"대전광역시 유성구 진잠로78번길 69, (원내동)","sgg":"30200","cap":null,"type":null,"src":"safekorea","asof":"2026-08-22","tel":"042-543-5133"}},{"type":"Feature","geometry":{"type":"Point","coordinates":[127.4057,36.39998]},"properties":{"name":"새봄약국","addr":"대전광역시 유성구 엑스포로 488 5층 525호","sgg":"30200","cap":null,"type":null,"src":"safekorea","asof":"2026-08-22","tel":"042-863-2293"}},{"type":"Feature","geometry":{"type":"Point","coordinates":[127.32153,36.38435]},"properties":{"name":"스마일약국","addr":"대전광역시 유성구 북유성대로 206, 1층 (하기동)","sgg":"30200","cap":null,"type":null,"src":"safekorea","asof":"2026-08-22","tel":"042-826-6808"}},{"type":"Feature","geometry":{"type":"Point","coordinates":[127.3932,36.42527]},"properties":{"name":"더현대약국","addr":"대전광역시 유성구 테크노중앙로 74, 102호 (관평동)","sgg":"30200","cap":null,"type":null,"src":"safekorea","asof":"2026-08-22","tel":"042-365-1275"}},{"type":"Feature","geometry":{"type":"Point","coordinates":[127.3201,36.37238]},"properties":{"name":"노은참사랑약국","addr":"대전광역시 유성구 은구비남로 39 (지족동)","sgg":"30200","cap":null,"type":null,"src":"safekorea","asof":"2026-08-22","tel":"042-477-1080"}},{"type":"Feature","geometry":{"type":"Point","coordinates":[127.31266,36.39184]},"properties":{"name":"반석드림팜약국","addr":"대전광역시 유성구 반석로 16, 반석크리닉빌딩 (반석동)","sgg":"30200","cap":null,"type":null,"src":"safekorea","asof":"2026-08-22","tel":"042-826-0012"}},{"type":"Feature","geometry":{"type":"Point","coordinates":[127.3502,36.38666]},"properties":{"name":"신성종로약국","addr":"대전광역시 유성구 신성남로 49 (신성동)","sgg":"30200","cap":null,"type":null,"src":"safekorea","asof":"2026-08-22","tel":"042-862-3485"}},{"type":"Feature","geometry":{"type":"Point","coordinates":[127.40442,36.39936]},"properties":{"name":"엑스포동우당약국","addr":"대전광역시 유성구 유성대로 1758, (전민동)","sgg":"30200","cap":null,"type":null,"src":"safekorea","asof":"2026-08-22","tel":"042-862-2833"}},{"type":"Feature","geometry":{"type":"Point","coordinates":[127.3185,36.37559]},"properties":{"name":"열매약국","addr":"대전광역시 유성구 노은로 178, (지족동)","sgg":"30200","cap":null,"type":null,"src":"safekorea","asof":"2026-08-22","tel":"042-477-7272"}},{"type":"Feature","geometry":{"type":"Point","coordinates":[127.38526,36.43293]},"properties":{"name":"한솔약국","addr":"대전광역시 유성구 송강로 24 (송강동)","sgg":"30200","cap":null,"type":null,"src":"safekorea","asof":"2026-08-22","tel":"042-933-5465"}},{"type":"Feature","geometry":{"type":"Point","coordinates":[127.40456,36.39904]},"properties":{"name":"혜민온누리약국","addr":"대전광역시 유성구 엑스포로 477-1","sgg":"30200","cap":null,"type":null,"src":"safekorea","asof":"2026-08-22","tel":"042-863-0675"}},{"type":"Feature","geometry":{"type":"Point","coordinates":[127.33887,36.35005]},"properties":{"name":"미소약국","addr":"대전광역시 유성구 유성대로654번길 182 (봉명동)","sgg":"30200","cap":null,"type":null,"src":"safekorea","asof":"2026-08-22","tel":"042-825-3243"}},{"type":"Feature","geometry":{"type":"Point","coordinates":[127.38451,36.43083]},"properties":{"name":"한마을약국","addr":"대전광역시 유성구 구즉로 16","sgg":"30200","cap":null,"type":null,"src":"safekorea","asof":"2026-08-22","tel":"042-935-0054"}},{"type":"Feature","geometry":{"type":"Point","coordinates":[127.35698,36.36828]},"properties":{"name":"카이스트약국","addr":"대전광역시 유성구 대학로 291","sgg":"30200","cap":null,"type":null,"src":"safekorea","asof":"2026-08-22","tel":"042-350-0567"}},{"type":"Feature","geometry":{"type":"Point","coordinates":[127.33939,36.34598]},"properties":{"name":"도안약국","addr":"대전광역시 유성구 도안대로 511-12 (상대동)","sgg":"30200","cap":null,"type":null,"src":"safekorea","asof":"2026-08-22","tel":"042-822-4286"}},{"type":"Feature","geometry":{"type":"Point","coordinates":[127.38975,36.42528]},"properties":{"name":"명인약국","addr":"대전광역시 유성구 테크노4로 105, 104호 (관평동)","sgg":"30200","cap":null,"type":null,"src":"safekorea","asof":"2026-08-22","tel":"042-585-5699"}},{"type":"Feature","geometry":{"type":"Point","coordinates":[127.31788,36.38666]},"properties":{"name":"엘림약국","addr":"대전광역시 유성구 지족로 374, 109,110호 (지족동)","sgg":"30200","cap":null,"type":null,"src":"safekorea","asof":"2026-08-22","tel":"042-825-7304"}},{"type":"Feature","geometry":{"type":"Point","coordinates":[127.31899,36.37561]},"properties":{"name":"월드약국","addr":"대전광역시 유성구 은구비로 36, 102-A호 (지족동)","sgg":"30200","cap":null,"type":null,"src":"safekorea","asof":"2026-08-22","tel":"042-477-7968"}},{"type":"Feature","geometry":{"type":"Point","coordinates":[127.34059,36.35347]},"properties":{"name":"유성하나약국","addr":"대전광역시 유성구 계룡로 92","sgg":"30200","cap":null,"type":null,"src":"safekorea","asof":"2026-08-22","tel":"042-826-7285"}},{"type":"Feature","geometry":{"type":"Point","coordinates":[127.3392,36.33257]},"properties":{"name":"서울플러스약국","addr":"대전광역시 유성구 동서대로 685","sgg":"30200","cap":null,"type":null,"src":"safekorea","asof":"2026-08-22","tel":"042-823-8202"}},{"type":"Feature","geometry":{"type":"Point","coordinates":[127.31725,36.36603]},"properties":{"name":"행복한한약국","addr":"대전광역시 유성구 노은로 71, 1층 102, 103호 (노은동, 노은스타돔아파트)","sgg":"30200","cap":null,"type":null,"src":"safekorea","asof":"2026-08-22","tel":"042-825-0822"}},{"type":"Feature","geometry":{"type":"Point","coordinates":[127.29814,36.34873]},"properties":{"name":"한솔 한약국","addr":"대전광역시 유성구 학하중앙로 13, 2층 201호 (덕명동, 누리빌)","sgg":"30200","cap":null,"type":null,"src":"safekorea","asof":"2026-08-22","tel":"042-822-9693"}},{"type":"Feature","geometry":{"type":"Point","coordinates":[127.38647,36.43591]},"properties":{"name":"송강솔약국","addr":"대전광역시 유성구 봉산로 27","sgg":"30200","cap":null,"type":null,"src":"safekorea","asof":"2026-08-22","tel":"042-936-7983"}}]}