{"type":"FeatureCollection","features":[{"type":"Feature","geometry":{"type":"Point","coordinates":[129.34482,35.56841]},"properties":{"name":"시원약국","addr":"울산광역시 중구 번영로 574, 동천빌딩 1층 (남외동)","sgg":"31110","cap":null,"type":null,"src":"safekorea","asof":"2026-08-22","tel":"052-298-8881"}},{"type":"Feature","geometry":{"type":"Point","coordinates":[129.34376,35.56804]},"properties":{"name":"오거리약국","addr":"울산광역시 중구 번영로 564, 1층 (남외동)","sgg":"31110","cap":null,"type":null,"src":"safekorea","asof":"2026-08-22","tel":"052-286-4245"}},{"type":"Feature","geometry":{"type":"Point","coordinates":[129.34649,35.56895]},"properties":{"name":"희망약국","addr":"울산광역시 중구 번영로 590, 103, 104호 (남외동)","sgg":"31110","cap":null,"type":null,"src":"safekorea","asof":"2026-08-22","tel":"052-294-0906"}},{"type":"Feature","geometry":{"type":"Point","coordinates":[129.30196,35.55193]},"properties":{"name":"주차장약국","addr":"울산광역시 중구 태화강국가정원길 255 (태화동)","sgg":"31110","cap":null,"type":null,"src":"safekorea","asof":"2026-08-22","tel":"052-244-1330"}},{"type":"Feature","geometry":{"type":"Point","coordinates":[129.32192,35.55348]},"properties":{"name":"라온약국","addr":"울산광역시 중구 시계탑거리 39, 1층 (옥교동)","sgg":"31110","cap":null,"type":null,"src":"safekorea","asof":"2026-08-22","tel":"052-211-7775"}},{"type":"Feature","geometry":{"type":"Point","coordinates":[129.33666,35.56505]},"properties":{"name":"푸른약국","addr":"울산광역시 중구 번영로 487  (약사동)","sgg":"31110","cap":null,"type":null,"src":"safekorea","asof":"2026-08-22","tel":"052-291-8001"}},{"type":"Feature","geometry":{"type":"Point","coordinates":[129.30082,35.55262]},"properties":{"name":"박약국","addr":"울산광역시 중구 태화로 233, 1층 (태화동)","sgg":"31110","cap":null,"type":null,"src":"safekorea","asof":"2026-08-22","tel":"052-243-5221"}},{"type":"Feature","geometry":{"type":"Point","coordinates":[129.35032,35.56822]},"properties":{"name":"기쁜우리약국","addr":"울산광역시 중구 남외2길 50 트레져프라자 101호 (남외동)","sgg":"31110","cap":null,"type":null,"src":"safekorea","asof":"2026-08-22","tel":"052-294-7588"}},{"type":"Feature","geometry":{"type":"Point","coordinates":[129.3434,35.55944]},"properties":{"name":"학성약국","addr":"울산광역시 중구 염포로 17  (반구동)","sgg":"31110","cap":null,"type":null,"src":"safekorea","asof":"2026-08-22","tel":"052-286-4333"}},{"type":"Feature","geometry":{"type":"Point","coordinates":[129.32736,35.55616]},"properties":{"name":"편한약국","addr":"울산광역시 중구 학성로 150, 1층 (학산동)","sgg":"31110","cap":null,"type":null,"src":"safekorea","asof":"2026-08-22","tel":"052-244-2500"}},{"type":"Feature","geometry":{"type":"Point","coordinates":[129.32681,35.55822]},"properties":{"name":"스카이약국","addr":"울산광역시 중구 번영로 371, 1층 102호 (학산동)","sgg":"31110","cap":null,"type":null,"src":"safekorea","asof":"2026-08-22","tel":"052-291-2660"}},{"type":"Feature","geometry":{"type":"Point","coordinates":[129.30868,35.55393]},"properties":{"name":"미소열린약국","addr":"울산광역시 중구 명륜로 17, 1층 (태화동)","sgg":"31110","cap":null,"type":null,"src":"safekorea","asof":"2026-08-22","tel":"052-248-8275"}},{"type":"Feature","geometry":{"type":"Point","coordinates":[129.30815,35.57513]},"properties":{"name":"햇빛약국","addr":"울산광역시 중구 함월6길 66, 104호 (성안동)","sgg":"31110","cap":null,"type":null,"src":"safekorea","asof":"2026-08-22","tel":"052-246-6355"}},{"type":"Feature","geometry":{"type":"Point","coordinates":[129.29454,35.55242]},"properties":{"name":"새유명약국","addr":"울산광역시 중구 태화로 172, 1층 (태화동)","sgg":"31110","cap":null,"type":null,"src":"safekorea","asof":"2026-08-22","tel":"052-246-2228"}},{"type":"Feature","geometry":{"type":"Point","coordinates":[129.33987,35.58155]},"properties":{"name":"바오밥약국","addr":"울산광역시 중구 종가17길 52, 혁신프라자 108호 (서동)","sgg":"31110","cap":null,"type":null,"src":"safekorea","asof":"2026-08-22","tel":"052-295-1120"}},{"type":"Feature","geometry":{"type":"Point","coordinates":[129.32323,35.55574]},"properties":{"name":"일신약국","addr":"울산광역시 중구 학성로 111-1, 1층 (옥교동)","sgg":"31110","cap":null,"type":null,"src":"safekorea","asof":"2026-08-22","tel":"052-243-8324"}},{"type":"Feature","geometry":{"type":"Point","coordinates":[129.26744,35.56294]},"properties":{"name":"다운약국","addr":"울산광역시 중구 다운로 110-1  (다운동)","sgg":"31110","cap":null,"type":null,"src":"safekorea","asof":"2026-08-22","tel":"052-223-9457"}},{"type":"Feature","geometry":{"type":"Point","coordinates":[129.30998,35.55632]},"properties":{"name":"서일약국","addr":"울산광역시 중구 장춘로 1, 1층 (우정동)","sgg":"31110","cap":null,"type":null,"src":"safekorea","asof":"2026-08-22","tel":"052-244-3690"}},{"type":"Feature","geometry":{"type":"Point","coordinates":[129.30953,35.55533]},"properties":{"name":"대원약국","addr":"울산광역시 중구 명륜로 34, 1층 (우정동)","sgg":"31110","cap":null,"type":null,"src":"safekorea","asof":"2026-08-22","tel":"052-245-8803"}},{"type":"Feature","geometry":{"type":"Point","coordinates":[129.30678,35.55665]},"properties":{"name":"태화약국","addr":"울산광역시 중구 유곡로 26, (우정동)","sgg":"31110","cap":null,"type":null,"src":"safekorea","asof":"2026-08-22","tel":"052-245-7504"}},{"type":"Feature","geometry":{"type":"Point","coordinates":[129.32369,35.55553]},"properties":{"name":"규당약국","addr":"울산광역시 중구 학성로 116, 1층 (옥교동)","sgg":"31110","cap":null,"type":null,"src":"safekorea","asof":"2026-08-22","tel":"052-243-1253"}},{"type":"Feature","geometry":{"type":"Point","coordinates":[129.33068,35.55789]},"properties":{"name":"중앙약국","addr":"울산광역시 중구 학성4길 72, (학성동)","sgg":"31110","cap":null,"type":null,"src":"safekorea","asof":"2026-08-22","tel":"052-296-9418"}},{"type":"Feature","geometry":{"type":"Point","coordinates":[129.31822,35.57732]},"properties":{"name":"맘편한약국","addr":"울산광역시 중구 성안로 194 (성안동)","sgg":"31110","cap":null,"type":null,"src":"safekorea","asof":"2026-08-22","tel":"052-244-6766"}},{"type":"Feature","geometry":{"type":"Point","coordinates":[129.34632,35.55448]},"properties":{"name":"정약국","addr":"울산광역시 중구 내황13길 2  (반구동)","sgg":"31110","cap":null,"type":null,"src":"safekorea","asof":"2026-08-22","tel":"052-291-1103"}},{"type":"Feature","geometry":{"type":"Point","coordinates":[129.34295,35.55853]},"properties":{"name":"백옥약국","addr":"울산광역시 중구 염포로 8, 1층 103호 (반구동)","sgg":"31110","cap":null,"type":null,"src":"safekorea","asof":"2026-08-22","tel":"052-292-0224"}},{"type":"Feature","geometry":{"type":"Point","coordinates":[129.32692,35.55732]},"properties":{"name":"정문약국","addr":"울산광역시 중구 번영로 366, 1층 (학산동)","sgg":"31110","cap":null,"type":null,"src":"safekorea","asof":"2026-08-22","tel":"052-246-4545"}},{"type":"Feature","geometry":{"type":"Point","coordinates":[129.35094,35.5667]},"properties":{"name":"허브약국","addr":"울산광역시 중구 남외2길 36, 1층 (남외동, 맘스빌딩)","sgg":"31110","cap":null,"type":null,"src":"safekorea","asof":"2026-08-22","tel":"052-294-7576"}},{"type":"Feature","geometry":{"type":"Point","coordinates":[129.3107,35.56297]},"properties":{"name":"호호약국","addr":"울산광역시 중구 종가6길 32, 201,202호 (우정동)","sgg":"31110","cap":null,"type":null,"src":"safekorea","asof":"2026-08-22","tel":"052-246-4242"}},{"type":"Feature","geometry":{"type":"Point","coordinates":[129.31802,35.55558]},"properties":{"name":"황제약국","addr":"울산광역시 중구 중앙길 85-1, (성남동)","sgg":"31110","cap":null,"type":null,"src":"safekorea","asof":"2026-08-22","tel":"052-252-8437"}},{"type":"Feature","geometry":{"type":"Point","coordinates":[129.3407,35.55816]},"properties":{"name":"봄봄약국","addr":"울산광역시 중구  화합로  361, 1층 (반구동)","sgg":"31110","cap":null,"type":null,"src":"safekorea","asof":"2026-08-22","tel":"052-282-8858"}},{"type":"Feature","geometry":{"type":"Point","coordinates":[129.30066,35.55184]},"properties":{"name":"태일약국","addr":"울산광역시 중구 태화강국가정원길 231-12, 1층 (태화동)","sgg":"31110","cap":null,"type":null,"src":"safekorea","asof":"2026-08-22","tel":"052-243-8433"}},{"type":"Feature","geometry":{"type":"Point","coordinates":[129.30518,35.56097]},"properties":{"name":"아로리약국","addr":"울산광역시 중구 평동3길 1, 122동 202호 (유곡동, 푸르지오)","sgg":"31110","cap":null,"type":null,"src":"safekorea","asof":"2026-08-22","tel":"052-211-5211"}},{"type":"Feature","geometry":{"type":"Point","coordinates":[129.34536,35.56854]},"properties":{"name":"보성약국","addr":"울산광역시 중구 번영로 580, 1층 103호 (남외동, 스카이엠빌딩)","sgg":"31110","cap":null,"type":null,"src":"safekorea","asof":"2026-08-22","tel":"052-286-3340"}},{"type":"Feature","geometry":{"type":"Point","coordinates":[129.32937,35.55691]},"properties":{"name":"도담약국","addr":"울산광역시 중구 학성로 169, 1층 1호 (학성동)","sgg":"31110","cap":null,"type":null,"src":"safekorea","asof":"2026-08-22","tel":"052-294-4749"}},{"type":"Feature","geometry":{"type":"Point","coordinates":[129.32435,35.55598]},"properties":{"name":"옥교온누리약국","addr":"울산광역시 중구 학성로 123  (옥교동)","sgg":"31110","cap":null,"type":null,"src":"safekorea","asof":"2026-08-22","tel":"052-246-3888"}},{"type":"Feature","geometry":{"type":"Point","coordinates":[129.33793,35.56171]},"properties":{"name":"미래건강약국","addr":"울산광역시 중구 화합로 409 (반구동)","sgg":"31110","cap":null,"type":null,"src":"safekorea","asof":"2026-08-22","tel":"052-297-3373"}},{"type":"Feature","geometry":{"type":"Point","coordinates":[129.32188,35.55439]},"properties":{"name":"플러스약국","addr":"울산광역시 중구 시계탑거리 19 (옥교동)","sgg":"31110","cap":null,"type":null,"src":"safekorea","asof":"2026-08-22","tel":"052-211-5580"}},{"type":"Feature","geometry":{"type":"Point","coordinates":[129.29557,35.56033]},"properties":{"name":"곰약국","addr":"울산광역시 중구 종가4길 9 원유곡상가 107호 (유곡동)","sgg":"31110","cap":null,"type":null,"src":"safekorea","asof":"2026-08-22","tel":"052-212-9472"}},{"type":"Feature","geometry":{"type":"Point","coordinates":[129.32604,35.5636]},"properties":{"name":"온누리동광약국","addr":"울산광역시 중구 손골4길 6, 1층 (복산동)","sgg":"31110","cap":null,"type":null,"src":"safekorea","asof":"2026-08-22","tel":"052-296-6786"}},{"type":"Feature","geometry":{"type":"Point","coordinates":[129.35032,35.56822]},"properties":{"name":"효성약국","addr":"울산광역시 중구 남외2길 50, 105호 (남외동, 트레져프라자)","sgg":"31110","cap":null,"type":null,"src":"safekorea","asof":"2026-08-22","tel":"281-7715"}},{"type":"Feature","geometry":{"type":"Point","coordinates":[129.34437,35.55847]},"properties":{"name":"정대약국","addr":"울산광역시 중구 반구정4길 64, 1층 (반구동)","sgg":"31110","cap":null,"type":null,"src":"safekorea","asof":"2026-08-22","tel":"052-292-2909"}},{"type":"Feature","geometry":{"type":"Point","coordinates":[129.32424,35.55563]},"properties":{"name":"동신약국","addr":"울산광역시 중구 학성로 122, 1층 (옥교동)","sgg":"31110","cap":null,"type":null,"src":"safekorea","asof":"2026-08-22","tel":"052-211-2235"}},{"type":"Feature","geometry":{"type":"Point","coordinates":[129.32418,35.55603]},"properties":{"name":"송약국","addr":"울산광역시 중구 학성로 121, (옥교동)","sgg":"31110","cap":null,"type":null,"src":"safekorea","asof":"2026-08-22","tel":"052-248-3301"}},{"type":"Feature","geometry":{"type":"Point","coordinates":[129.32764,35.55483]},"properties":{"name":"영원약국","addr":"울산광역시 중구 옥교6길 7, (학산동)","sgg":"31110","cap":null,"type":null,"src":"safekorea","asof":"2026-08-22","tel":"052-297-5366"}},{"type":"Feature","geometry":{"type":"Point","coordinates":[129.27523,35.55568]},"properties":{"name":"솔약국","addr":"울산광역시 중구 북부순환도로 111, 1층 (다운동)","sgg":"31110","cap":null,"type":null,"src":"safekorea","asof":"2026-08-22","tel":"052-249-5025"}},{"type":"Feature","geometry":{"type":"Point","coordinates":[129.34416,35.56913]},"properties":{"name":"신병영약국","addr":"울산광역시 중구 번영로 571, (남외동)","sgg":"31110","cap":null,"type":null,"src":"safekorea","asof":"2026-08-22","tel":"052-296-2665"}},{"type":"Feature","geometry":{"type":"Point","coordinates":[129.33657,35.56406]},"properties":{"name":"행복한약국","addr":"울산광역시 중구 번영로 484, 1층 102호 (반구동)","sgg":"31110","cap":null,"type":null,"src":"safekorea","asof":"2026-08-22","tel":"070-8864-6263"}},{"type":"Feature","geometry":{"type":"Point","coordinates":[129.32091,35.55701]},"properties":{"name":"조은약국","addr":"울산광역시 중구 장춘로 114, 1층 (성남동)","sgg":"31110","cap":null,"type":null,"src":"safekorea","asof":"2026-08-22","tel":"052-246-5552"}},{"type":"Feature","geometry":{"type":"Point","coordinates":[129.3119,35.55825]},"properties":{"name":"토마스약국","addr":"울산광역시 중구 명륜로 75, (우정동)","sgg":"31110","cap":null,"type":null,"src":"safekorea","asof":"2026-08-22","tel":"052-248-3556"}},{"type":"Feature","geometry":{"type":"Point","coordinates":[129.32387,35.55556]},"properties":{"name":"옥교호호약국","addr":"울산광역시 중구 학성로 118, 1층 (옥교동)","sgg":"31110","cap":null,"type":null,"src":"safekorea","asof":"2026-08-22","tel":"052-243-8126"}},{"type":"Feature","geometry":{"type":"Point","coordinates":[129.26678,35.56303]},"properties":{"name":"동화약국","addr":"울산광역시 중구 다운로 115, (다운동)","sgg":"31110","cap":null,"type":null,"src":"safekorea","asof":"2026-08-22","tel":"052-249-0266"}},{"type":"Feature","geometry":{"type":"Point","coordinates":[129.27218,35.55868]},"properties":{"name":"부부약국","addr":"울산광역시 중구 다운로 46, (다운동)","sgg":"31110","cap":null,"type":null,"src":"safekorea","asof":"2026-08-22","tel":"052-249-1527"}},{"type":"Feature","geometry":{"type":"Point","coordinates":[129.34191,35.55807]},"properties":{"name":"금성약국","addr":"울산광역시 중구 화합로 360, 1층 (반구동)","sgg":"31110","cap":null,"type":null,"src":"safekorea","asof":"2026-08-22","tel":"052-297-3100"}},{"type":"Feature","geometry":{"type":"Point","coordinates":[129.33238,35.56728]},"properties":{"name":"자연약국","addr":"울산광역시 중구 도화골길 5, (복산동)","sgg":"31110","cap":null,"type":null,"src":"safekorea","asof":"2026-08-22","tel":"052-292-3440"}},{"type":"Feature","geometry":{"type":"Point","coordinates":[129.30066,35.55257]},"properties":{"name":"뉴새운약국","addr":"울산광역시 중구 태화로 231  (태화동)","sgg":"31110","cap":null,"type":null,"src":"safekorea","asof":"2026-08-22","tel":"052-244-3157"}},{"type":"Feature","geometry":{"type":"Point","coordinates":[129.32194,35.55549]},"properties":{"name":"세명약국","addr":"울산광역시 중구 학성로 99, 101호 (옥교동)","sgg":"31110","cap":null,"type":null,"src":"safekorea","asof":"2026-08-22","tel":"052-211-3949"}},{"type":"Feature","geometry":{"type":"Point","coordinates":[129.30766,35.55415]},"properties":{"name":"함지약국","addr":"울산광역시 중구 화진길 26  (태화동)","sgg":"31110","cap":null,"type":null,"src":"safekorea","asof":"2026-08-22","tel":"052-244-5556"}},{"type":"Feature","geometry":{"type":"Point","coordinates":[129.30845,35.55823]},"properties":{"name":"그린약국","addr":"울산광역시 중구 유곡로 10  (우정동, 선경2차아파트)","sgg":"31110","cap":null,"type":null,"src":"safekorea","asof":"2026-08-22","tel":"052-244-3064"}},{"type":"Feature","geometry":{"type":"Point","coordinates":[129.32695,35.55898]},"properties":{"name":"한마음약국","addr":"울산광역시 중구 장춘로 171, (학산동)","sgg":"31110","cap":null,"type":null,"src":"safekorea","asof":"2026-08-22","tel":"052-243-2267"}},{"type":"Feature","geometry":{"type":"Point","coordinates":[129.33058,35.55674]},"properties":{"name":"울산세명약국","addr":"울산광역시 중구 학성로 180, 101-102호 (학성동)","sgg":"31110","cap":null,"type":null,"src":"safekorea","asof":"2026-08-22","tel":"052-297-8275"}},{"type":"Feature","geometry":{"type":"Point","coordinates":[129.32444,35.556]},"properties":{"name":"세정약국","addr":"울산광역시 중구 학성로 123-1, 1층 (옥교동)","sgg":"31110","cap":null,"type":null,"src":"safekorea","asof":"2026-08-22","tel":"052-244-1221"}},{"type":"Feature","geometry":{"type":"Point","coordinates":[129.34068,35.55794]},"properties":{"name":"새시온약국","addr":"울산광역시 중구 화합로 357 (반구동)","sgg":"31110","cap":null,"type":null,"src":"safekorea","asof":"2026-08-22","tel":"052-292-7568"}},{"type":"Feature","geometry":{"type":"Point","coordinates":[129.34502,35.56848]},"properties":{"name":"무지개약국","addr":"울산광역시 중구 번영로 576  (남외동)","sgg":"31110","cap":null,"type":null,"src":"safekorea","asof":"2026-08-22","tel":"052-298-8087"}},{"type":"Feature","geometry":{"type":"Point","coordinates":[129.33485,35.56438]},"properties":{"name":"한사랑약국","addr":"울산광역시 중구 번영로 475  (복산동)","sgg":"31110","cap":null,"type":null,"src":"safekorea","asof":"2026-08-22","tel":"052-296-9991"}},{"type":"Feature","geometry":{"type":"Point","coordinates":[129.30829,35.55629]},"properties":{"name":"다정약국","addr":"울산광역시 중구 유곡로 11, 1층 (태화동)","sgg":"31110","cap":null,"type":null,"src":"safekorea","asof":"2026-08-22","tel":"052-244-2525"}},{"type":"Feature","geometry":{"type":"Point","coordinates":[129.34561,35.56865]},"properties":{"name":"비타민약국","addr":"울산광역시 중구 번영로 582  (남외동)","sgg":"31110","cap":null,"type":null,"src":"safekorea","asof":"2026-08-22","tel":"052-292-2688"}},{"type":"Feature","geometry":{"type":"Point","coordinates":[129.32107,35.55508]},"properties":{"name":"시계탑약국","addr":"울산광역시 중구 학성로 92 (성남동)","sgg":"31110","cap":null,"type":null,"src":"safekorea","asof":"2026-08-22","tel":"052-246-2500"}},{"type":"Feature","geometry":{"type":"Point","coordinates":[129.32192,35.52699]},"properties":{"name":"타임약국","addr":"울산광역시 남구 수암로 138, 타임스퀘어 1층 122호 (야음동)","sgg":"31140","cap":null,"type":null,"src":"safekorea","asof":"2026-08-22","tel":"052-256-0416"}},{"type":"Feature","geometry":{"type":"Point","coordinates":[129.30695,35.53283]},"properties":{"name":"태성약국","addr":"울산광역시 남구 봉월로 3  (신정동)","sgg":"31140","cap":null,"type":null,"src":"safekorea","asof":"2026-08-22","tel":"052-265-1540"}},{"type":"Feature","geometry":{"type":"Point","coordinates":[129.31591,35.53398]},"properties":{"name":"성도약국","addr":"울산광역시 남구 삼산로 74, (달동)","sgg":"31140","cap":null,"type":null,"src":"safekorea","asof":"2026-08-22","tel":"052-275-1122"}},{"type":"Feature","geometry":{"type":"Point","coordinates":[129.31022,35.54412]},"properties":{"name":"유진약국","addr":"울산광역시 남구 중앙로 263, 1층 (신정동)","sgg":"31140","cap":null,"type":null,"src":"safekorea","asof":"2026-08-22","tel":"052-258-1245"}},{"type":"Feature","geometry":{"type":"Point","coordinates":[129.33775,35.51609]},"properties":{"name":"한양약국","addr":"울산광역시 남구 산업로339번길 24, 한양상가 108호 (선암동)","sgg":"31140","cap":null,"type":null,"src":"safekorea","asof":"2026-08-22","tel":"052-275-4172"}},{"type":"Feature","geometry":{"type":"Point","coordinates":[129.3304,35.53832]},"properties":{"name":"밝은약국","addr":"울산광역시 남구 삼산로 213, 1층 (달동)","sgg":"31140","cap":null,"type":null,"src":"safekorea","asof":"2026-08-22","tel":"052-260-8350"}},{"type":"Feature","geometry":{"type":"Point","coordinates":[129.31293,35.54701]},"properties":{"name":"아리솔약국","addr":"울산광역시 남구 팔등로67번길 17  (신정동)","sgg":"31140","cap":null,"type":null,"src":"safekorea","asof":"2026-08-22","tel":"052-275-1636"}},{"type":"Feature","geometry":{"type":"Point","coordinates":[129.31385,35.53418]},"properties":{"name":"정온누리약국","addr":"울산광역시 남구 삼산로 57, 1층 (신정동)","sgg":"31140","cap":null,"type":null,"src":"safekorea","asof":"2026-08-22","tel":"052-710-5202"}},{"type":"Feature","geometry":{"type":"Point","coordinates":[129.33575,35.54123]},"properties":{"name":"지니약국","addr":"울산광역시 남구 삼산중로 86, 1층 (삼산동)","sgg":"31140","cap":null,"type":null,"src":"safekorea","asof":"2026-08-22","tel":"070-7576-3365"}},{"type":"Feature","geometry":{"type":"Point","coordinates":[129.34095,35.54182]},"properties":{"name":"새한빛약국","addr":"울산광역시 남구 화합로194번길 12-1  (삼산동)","sgg":"31140","cap":null,"type":null,"src":"safekorea","asof":"2026-08-22","tel":"052-272-1688"}},{"type":"Feature","geometry":{"type":"Point","coordinates":[129.34063,35.53409]},"properties":{"name":"마음편한약국","addr":"울산광역시 남구 화합로 105  (달동)","sgg":"31140","cap":null,"type":null,"src":"safekorea","asof":"2026-08-22","tel":"052-261-8296"}},{"type":"Feature","geometry":{"type":"Point","coordinates":[129.30792,35.54746]},"properties":{"name":"명인약국","addr":"울산광역시 남구 봉월로 170, 1층 (신정동)","sgg":"31140","cap":null,"type":null,"src":"safekorea","asof":"2026-08-22","tel":"052-272-3776"}},{"type":"Feature","geometry":{"type":"Point","coordinates":[129.32027,35.52799]},"properties":{"name":"수성약국","addr":"울산광역시 남구 수암로 120, (신정동)","sgg":"31140","cap":null,"type":null,"src":"safekorea","asof":"2026-08-22","tel":"052-275-3936"}},{"type":"Feature","geometry":{"type":"Point","coordinates":[129.31063,35.53335]},"properties":{"name":"신정열린약국","addr":"울산광역시 남구 삼산로 25-1  (신정동)","sgg":"31140","cap":null,"type":null,"src":"safekorea","asof":"2026-08-22","tel":"052-258-0708"}},{"type":"Feature","geometry":{"type":"Point","coordinates":[129.30321,35.53846]},"properties":{"name":"평화약국","addr":"울산광역시 남구 거마로118번길 17  (신정동)","sgg":"31140","cap":null,"type":null,"src":"safekorea","asof":"2026-08-22","tel":"052-275-0970"}},{"type":"Feature","geometry":{"type":"Point","coordinates":[129.33601,35.54148]},"properties":{"name":"삼산온누리약국","addr":"울산광역시 남구 삼산중로84번길 5-13 (삼산동)","sgg":"31140","cap":null,"type":null,"src":"safekorea","asof":"2026-08-22","tel":"050-71365-3276"}},{"type":"Feature","geometry":{"type":"Point","coordinates":[129.29765,35.53355]},"properties":{"name":"다정온누리약국","addr":"울산광역시 남구 문수로 406, 농협중앙회울주군지부 1층 (신정동)","sgg":"31140","cap":null,"type":null,"src":"safekorea","asof":"2026-08-22","tel":"052-265-1142"}},{"type":"Feature","geometry":{"type":"Point","coordinates":[129.30974,35.53318]},"properties":{"name":"이화온누리약국","addr":"울산광역시 남구 삼산로 17, 1층 (신정동)","sgg":"31140","cap":null,"type":null,"src":"safekorea","asof":"2026-08-22","tel":"052-265-2588"}},{"type":"Feature","geometry":{"type":"Point","coordinates":[129.26618,35.55246]},"properties":{"name":"기린약국","addr":"울산광역시 남구 북부순환도로 25, 1층 (무거동)","sgg":"31140","cap":null,"type":null,"src":"safekorea","asof":"2026-08-22","tel":"052-277-8272"}},{"type":"Feature","geometry":{"type":"Point","coordinates":[129.33688,35.53888]},"properties":{"name":"삼산약국","addr":"울산광역시 남구 삼산로 272 (삼산동)","sgg":"31140","cap":null,"type":null,"src":"safekorea","asof":"2026-08-22","tel":"052-256-2427"}},{"type":"Feature","geometry":{"type":"Point","coordinates":[129.26489,35.55459]},"properties":{"name":"애플온누리약국","addr":"울산광역시 남구 울밀로 2906 (무거동, 한솔애플타워)","sgg":"31140","cap":null,"type":null,"src":"safekorea","asof":"2026-08-22","tel":"052-222-7582"}},{"type":"Feature","geometry":{"type":"Point","coordinates":[129.30542,35.53234]},"properties":{"name":"중앙현대약국","addr":"울산광역시 남구 문수로 476, 1층 (신정동)","sgg":"31140","cap":null,"type":null,"src":"safekorea","asof":"2026-08-22","tel":"052-261-2814"}},{"type":"Feature","geometry":{"type":"Point","coordinates":[129.29035,35.53476]},"properties":{"name":"안녕약국","addr":"울산광역시 남구 문수로 338, 유원빌딩 1층 (옥동)","sgg":"31140","cap":null,"type":null,"src":"safekorea","asof":"2026-08-22","tel":"052-258-7755"}},{"type":"Feature","geometry":{"type":"Point","coordinates":[129.26125,35.54679]},"properties":{"name":"무거튼튼약국","addr":"울산광역시 남구 대학로131번길 4, 울산대 유파티오 131 지하 1층 B106호 (무거동)","sgg":"31140","cap":null,"type":null,"src":"safekorea","asof":"2026-08-22","tel":"052-225-1329"}},{"type":"Feature","geometry":{"type":"Point","coordinates":[129.33678,35.5395]},"properties":{"name":"삼산맑은약국","addr":"울산광역시 남구 삼산로 273, 1층 (삼산동, 삼산타원)","sgg":"31140","cap":null,"type":null,"src":"safekorea","asof":"2026-08-22","tel":"052-224-6100"}},{"type":"Feature","geometry":{"type":"Point","coordinates":[129.30667,35.54853]},"properties":{"name":"한길약국","addr":"울산광역시 남구 남산로354번길 23 (신정동)","sgg":"31140","cap":null,"type":null,"src":"safekorea","asof":"2026-08-22","tel":"052-276-6121"}},{"type":"Feature","geometry":{"type":"Point","coordinates":[129.31077,35.53513]},"properties":{"name":"상쾌한약국","addr":"울산광역시 남구 삼산로35번길 19-1, 1층 (신정동)","sgg":"31140","cap":null,"type":null,"src":"safekorea","asof":"2026-08-22","tel":"052-227-6225"}},{"type":"Feature","geometry":{"type":"Point","coordinates":[129.30488,35.53824]},"properties":{"name":"온누리양지약국","addr":"울산광역시 남구 거마로134번길 17  (신정동)","sgg":"31140","cap":null,"type":null,"src":"safekorea","asof":"2026-08-22","tel":"052-275-4536"}},{"type":"Feature","geometry":{"type":"Point","coordinates":[129.33713,35.53894]},"properties":{"name":"월드약국","addr":"울산광역시 남구 삼산로 274, 1층 (삼산동)","sgg":"31140","cap":null,"type":null,"src":"safekorea","asof":"2026-08-22","tel":"052-257-7754"}},{"type":"Feature","geometry":{"type":"Point","coordinates":[129.33622,35.54044]},"properties":{"name":"현대프라자약국","addr":"울산광역시 남구 삼산중로74번길 7  (삼산동)","sgg":"31140","cap":null,"type":null,"src":"safekorea","asof":"2026-08-22","tel":"052-261-1141"}},{"type":"Feature","geometry":{"type":"Point","coordinates":[129.3239,35.53074]},"properties":{"name":"홈타운약국","addr":"울산광역시 남구 대암로 69, 1층 124~5호 (야음동, 신정현대프라자)","sgg":"31140","cap":null,"type":null,"src":"safekorea","asof":"2026-08-22","tel":"052-227-7760"}},{"type":"Feature","geometry":{"type":"Point","coordinates":[129.32202,35.53498]},"properties":{"name":"금약국","addr":"울산광역시 남구 신정로 35, (달동)","sgg":"31140","cap":null,"type":null,"src":"safekorea","asof":"2026-08-22","tel":"052-258-7003"}},{"type":"Feature","geometry":{"type":"Point","coordinates":[129.26283,35.54796]},"properties":{"name":"신복온누리약국","addr":"울산광역시 남구 대학로 152, 1층 (무거동)","sgg":"31140","cap":null,"type":null,"src":"safekorea","asof":"2026-08-22","tel":"052-246-1220"}},{"type":"Feature","geometry":{"type":"Point","coordinates":[129.335,35.53852]},"properties":{"name":"나라약국","addr":"울산광역시 남구 삼산로 254  (달동)","sgg":"31140","cap":null,"type":null,"src":"safekorea","asof":"2026-08-22","tel":"052-275-3829"}},{"type":"Feature","geometry":{"type":"Point","coordinates":[129.262,35.54658]},"properties":{"name":"대학약국","addr":"울산광역시 남구 대학로 136, 1층 1호 (무거동)","sgg":"31140","cap":null,"type":null,"src":"safekorea","asof":"2026-08-22","tel":"052-247-0247"}},{"type":"Feature","geometry":{"type":"Point","coordinates":[129.33764,35.53969]},"properties":{"name":"스타약국","addr":"울산광역시 남구 삼산로 281, 1층 (삼산동)","sgg":"31140","cap":null,"type":null,"src":"safekorea","asof":"2026-08-22","tel":"052-275-2331"}},{"type":"Feature","geometry":{"type":"Point","coordinates":[129.26514,35.55145]},"properties":{"name":"보령약국","addr":"울산광역시 남구 북부순환도로 13  (무거동)","sgg":"31140","cap":null,"type":null,"src":"safekorea","asof":"2026-08-22","tel":"052-247-3388"}},{"type":"Feature","geometry":{"type":"Point","coordinates":[129.31935,35.52898]},"properties":{"name":"홍은약국","addr":"울산광역시 남구 수암로 105, 1층 (신정동)","sgg":"31140","cap":null,"type":null,"src":"safekorea","asof":"2026-08-22","tel":"052-265-6969"}},{"type":"Feature","geometry":{"type":"Point","coordinates":[129.26329,35.55521]},"properties":{"name":"두레약국","addr":"울산광역시 남구 굴화3길 5-3  (무거동)","sgg":"31140","cap":null,"type":null,"src":"safekorea","asof":"2026-08-22","tel":"052-223-6163"}},{"type":"Feature","geometry":{"type":"Point","coordinates":[129.2948,35.53469]},"properties":{"name":"나정약국","addr":"울산광역시 남구 문수로 377, 대공원센트럴하임더시티 1층 106호 (옥동)","sgg":"31140","cap":null,"type":null,"src":"safekorea","asof":"2026-08-22","tel":"052-269-3999"}},{"type":"Feature","geometry":{"type":"Point","coordinates":[129.26049,35.54306]},"properties":{"name":"울대정문약국","addr":"울산광역시 남구 대학로94번길 6, 1층 전면우측호 (무거동)","sgg":"31140","cap":null,"type":null,"src":"safekorea","asof":"2026-08-22","tel":"052-222-8418"}},{"type":"Feature","geometry":{"type":"Point","coordinates":[129.31816,35.52951]},"properties":{"name":"미소랑약국","addr":"울산광역시 남구 수암로 93-1, 1층 (신정동)","sgg":"31140","cap":null,"type":null,"src":"safekorea","asof":"2026-08-22","tel":"052-243-2202"}},{"type":"Feature","geometry":{"type":"Point","coordinates":[129.32197,35.54626]},"properties":{"name":"주차장약국","addr":"울산광역시 남구 번영로245번길 12, 1~2층 (신정동)","sgg":"31140","cap":null,"type":null,"src":"safekorea","asof":"2026-08-22","tel":"052-260-2316"}},{"type":"Feature","geometry":{"type":"Point","coordinates":[129.32266,35.53653]},"properties":{"name":"우리온누리약국","addr":"울산광역시 남구 삼산로 141, 1층 (달동)","sgg":"31140","cap":null,"type":null,"src":"safekorea","asof":"2026-08-22","tel":"052-945-1919"}},{"type":"Feature","geometry":{"type":"Point","coordinates":[129.30891,35.53233]},"properties":{"name":"조은약국","addr":"울산광역시 남구 삼산로 8 (신정동)","sgg":"31140","cap":null,"type":null,"src":"safekorea","asof":"2026-08-22","tel":"052-258-6821"}},{"type":"Feature","geometry":{"type":"Point","coordinates":[129.32147,35.52744]},"properties":{"name":"다윈약국","addr":"울산광역시 남구 수암로 132  (야음동)","sgg":"31140","cap":null,"type":null,"src":"safekorea","asof":"2026-08-22","tel":"052-275-8575"}},{"type":"Feature","geometry":{"type":"Point","coordinates":[129.30993,35.54629]},"properties":{"name":"영생약국","addr":"울산광역시 남구 중앙로 286-1 (신정동)","sgg":"31140","cap":null,"type":null,"src":"safekorea","asof":"2026-08-22","tel":"052-272-1326"}},{"type":"Feature","geometry":{"type":"Point","coordinates":[129.33093,35.53777]},"properties":{"name":"명동약국","addr":"울산광역시 남구 삼산로 216, 1층 (달동)","sgg":"31140","cap":null,"type":null,"src":"safekorea","asof":"2026-08-22","tel":"052-261-9537"}},{"type":"Feature","geometry":{"type":"Point","coordinates":[129.32596,35.53735]},"properties":{"name":"맑은하늘약국","addr":"울산광역시 남구 삼산로 171 (달동)","sgg":"31140","cap":null,"type":null,"src":"safekorea","asof":"2026-08-22","tel":"052-268-5224"}},{"type":"Feature","geometry":{"type":"Point","coordinates":[129.29058,35.53555]},"properties":{"name":"고려약국","addr":"울산광역시 남구 문수로335번길 6  (옥동)","sgg":"31140","cap":null,"type":null,"src":"safekorea","asof":"2026-08-22","tel":"052-267-1044"}},{"type":"Feature","geometry":{"type":"Point","coordinates":[129.26186,35.54111]},"properties":{"name":"옥산약국","addr":"울산광역시 남구 옥현로58번길 4  (무거동)","sgg":"31140","cap":null,"type":null,"src":"safekorea","asof":"2026-08-22","tel":"052-222-0180"}},{"type":"Feature","geometry":{"type":"Point","coordinates":[129.26157,35.54597]},"properties":{"name":"메디팜행복약국","addr":"울산광역시 남구 대학로 128 하늘빌딩1층 (무거동)","sgg":"31140","cap":null,"type":null,"src":"safekorea","asof":"2026-08-22","tel":"052-249-6966"}},{"type":"Feature","geometry":{"type":"Point","coordinates":[129.2685,35.55287]},"properties":{"name":"e조은약국","addr":"울산광역시 남구 북부순환도로 45, 1층 (무거동)","sgg":"31140","cap":null,"type":null,"src":"safekorea","asof":"2026-08-22","tel":"052-277-9881"}},{"type":"Feature","geometry":{"type":"Point","coordinates":[129.32234,35.5358]},"properties":{"name":"피엔비약국","addr":"울산광역시 남구 삼산로 136  (달동)","sgg":"31140","cap":null,"type":null,"src":"safekorea","asof":"2026-08-22","tel":"052-248-7973"}},{"type":"Feature","geometry":{"type":"Point","coordinates":[129.31042,35.5327]},"properties":{"name":"신약국","addr":"울산광역시 남구 삼산로 24, (신정동)","sgg":"31140","cap":null,"type":null,"src":"safekorea","asof":"2026-08-22","tel":"052-272-8333"}},{"type":"Feature","geometry":{"type":"Point","coordinates":[129.3453,35.54397]},"properties":{"name":"주약국","addr":"울산광역시 남구 돋질로 369, 1층 102호 (삼산동)","sgg":"31140","cap":null,"type":null,"src":"safekorea","asof":"2026-08-22","tel":"052-267-7588"}},{"type":"Feature","geometry":{"type":"Point","coordinates":[129.33613,35.51732]},"properties":{"name":"남광약국","addr":"울산광역시 남구 산업로339번길 38-12, (선암동)","sgg":"31140","cap":null,"type":null,"src":"safekorea","asof":"2026-08-22","tel":"052-267-0231"}},{"type":"Feature","geometry":{"type":"Point","coordinates":[129.32169,35.52724]},"properties":{"name":"참조은약국","addr":"울산광역시 남구 수암로 134, 1층 (야음동)","sgg":"31140","cap":null,"type":null,"src":"safekorea","asof":"2026-08-22","tel":"052-223-4600"}},{"type":"Feature","geometry":{"type":"Point","coordinates":[129.32019,35.52807]},"properties":{"name":"시장약국","addr":"울산광역시 남구 수암로 118  (신정동)","sgg":"31140","cap":null,"type":null,"src":"safekorea","asof":"2026-08-22","tel":"052-227-2243"}},{"type":"Feature","geometry":{"type":"Point","coordinates":[129.32223,35.53639]},"properties":{"name":"올리브약국","addr":"울산광역시 남구 삼산로 137  (달동)","sgg":"31140","cap":null,"type":null,"src":"safekorea","asof":"2026-08-22","tel":"052-257-5700"}},{"type":"Feature","geometry":{"type":"Point","coordinates":[129.31975,35.53461]},"properties":{"name":"울산우리안약국","addr":"울산광역시 남구 신정로37번길 21  (달동)","sgg":"31140","cap":null,"type":null,"src":"safekorea","asof":"2026-08-22","tel":"052-266-1502"}},{"type":"Feature","geometry":{"type":"Point","coordinates":[129.348,35.54546]},"properties":{"name":"산들약국","addr":"울산광역시 남구 남중로 123, 1층 (삼산동)","sgg":"31140","cap":null,"type":null,"src":"safekorea","asof":"2026-08-22","tel":"052-267-5338"}},{"type":"Feature","geometry":{"type":"Point","coordinates":[129.3235,35.54618]},"properties":{"name":"동인약국","addr":"울산광역시 남구 신정로148번길 47 (신정동)","sgg":"31140","cap":null,"type":null,"src":"safekorea","asof":"2026-08-22","tel":"052-256-3664"}},{"type":"Feature","geometry":{"type":"Point","coordinates":[129.31083,35.54253]},"properties":{"name":"신유명약국","addr":"울산광역시 남구 중앙로 243-1  (신정동)","sgg":"31140","cap":null,"type":null,"src":"safekorea","asof":"2026-08-22","tel":"052-260-8861"}},{"type":"Feature","geometry":{"type":"Point","coordinates":[129.32369,35.54604]},"properties":{"name":"중앙약국","addr":"울산광역시 남구 신정로148번길 50  (신정동)","sgg":"31140","cap":null,"type":null,"src":"safekorea","asof":"2026-08-22","tel":"052-266-9965"}},{"type":"Feature","geometry":{"type":"Point","coordinates":[129.31018,35.54597]},"properties":{"name":"효성약국","addr":"울산광역시 남구 중앙로 282, 1층 (신정동)","sgg":"31140","cap":null,"type":null,"src":"safekorea","asof":"2026-08-22","tel":"052-261-9965"}},{"type":"Feature","geometry":{"type":"Point","coordinates":[129.3246,35.54808]},"properties":{"name":"울산세이브존약국","addr":"울산광역시 남구 번영로250번길 9  (삼산동)","sgg":"31140","cap":null,"type":null,"src":"safekorea","asof":"2026-08-22","tel":"052-266-9500"}},{"type":"Feature","geometry":{"type":"Point","coordinates":[129.30653,35.54853]},"properties":{"name":"우리들약국","addr":"울산광역시 남구 남산로354번길 21  (신정동)","sgg":"31140","cap":null,"type":null,"src":"safekorea","asof":"2026-08-22","tel":"052-269-1004"}},{"type":"Feature","geometry":{"type":"Point","coordinates":[129.34067,35.54185]},"properties":{"name":"울산약국","addr":"울산광역시 남구 화합로194번길 12, 1층 (삼산동)","sgg":"31140","cap":null,"type":null,"src":"safekorea","asof":"2026-08-22","tel":"052-268-6966"}},{"type":"Feature","geometry":{"type":"Point","coordinates":[129.33628,35.53879]},"properties":{"name":"강남약국","addr":"울산광역시 남구 삼산로 266 (삼산동)","sgg":"31140","cap":null,"type":null,"src":"safekorea","asof":"2026-08-22","tel":"052-271-3101"}},{"type":"Feature","geometry":{"type":"Point","coordinates":[129.32875,35.53477]},"properties":{"name":"한솔약국","addr":"울산광역시 남구 번영로107번길 1 (달동)","sgg":"31140","cap":null,"type":null,"src":"safekorea","asof":"2026-08-22","tel":"052-267-2631"}},{"type":"Feature","geometry":{"type":"Point","coordinates":[129.33266,35.53885]},"properties":{"name":"해바라기약국","addr":"울산광역시 남구 삼산로 231, 울산 센트럴 자이 1층 106호 (달동)","sgg":"31140","cap":null,"type":null,"src":"safekorea","asof":"2026-08-22","tel":"052-257-1267"}},{"type":"Feature","geometry":{"type":"Point","coordinates":[129.34839,35.53802]},"properties":{"name":"울산21세기약국","addr":"울산광역시 남구 남중로 48, 울산점 EMART (삼산동)","sgg":"31140","cap":null,"type":null,"src":"safekorea","asof":"2026-08-22","tel":"052-266-6166"}},{"type":"Feature","geometry":{"type":"Point","coordinates":[129.33564,35.53868]},"properties":{"name":"웰빙약국","addr":"울산광역시 남구 삼산로 260 (삼산동)","sgg":"31140","cap":null,"type":null,"src":"safekorea","asof":"2026-08-22","tel":"052-274-4850"}},{"type":"Feature","geometry":{"type":"Point","coordinates":[129.2543,35.53971]},"properties":{"name":"한창약국","addr":"울산광역시 남구 대학로33번길 17, (무거동)","sgg":"31140","cap":null,"type":null,"src":"safekorea","asof":"2026-08-22","tel":"052-247-6498"}},{"type":"Feature","geometry":{"type":"Point","coordinates":[129.3239,35.53074]},"properties":{"name":"현대온누리약국","addr":"울산광역시 남구 대암로 69, 3층 312,313호 (야음동)","sgg":"31140","cap":null,"type":null,"src":"safekorea","asof":"2026-08-22","tel":"052-269-4978"}},{"type":"Feature","geometry":{"type":"Point","coordinates":[129.31997,35.52874]},"properties":{"name":"프라임약국","addr":"울산광역시 남구 수암로 113, (신정동)","sgg":"31140","cap":null,"type":null,"src":"safekorea","asof":"2026-08-22","tel":"052-269-1758"}},{"type":"Feature","geometry":{"type":"Point","coordinates":[129.25512,35.54825]},"properties":{"name":"무거현대약국","addr":"울산광역시 남구 신복로71번길 13  (무거동, 무거현대아파트)","sgg":"31140","cap":null,"type":null,"src":"safekorea","asof":"2026-08-22","tel":"052-247-5428"}},{"type":"Feature","geometry":{"type":"Point","coordinates":[129.25828,35.55208]},"properties":{"name":"두산약국","addr":"울산광역시 남구 장검1길 21-62, (무거동)","sgg":"31140","cap":null,"type":null,"src":"safekorea","asof":"2026-08-22","tel":"052-249-0673"}},{"type":"Feature","geometry":{"type":"Point","coordinates":[129.25468,35.55176]},"properties":{"name":"한사랑약국","addr":"울산광역시 남구 신복로72번길 26, 101호 (무거동)","sgg":"31140","cap":null,"type":null,"src":"safekorea","asof":"2026-08-22","tel":"052-247-6533"}},{"type":"Feature","geometry":{"type":"Point","coordinates":[129.33629,35.53994]},"properties":{"name":"메디팜백화점약국","addr":"울산광역시 남구 삼산로267번길 8, (삼산동)","sgg":"31140","cap":null,"type":null,"src":"safekorea","asof":"2026-08-22","tel":"052-274-2929"}},{"type":"Feature","geometry":{"type":"Point","coordinates":[129.33083,35.52472]},"properties":{"name":"영진약국","addr":"울산광역시 남구 수암로 230  (야음동)","sgg":"31140","cap":null,"type":null,"src":"safekorea","asof":"2026-08-22","tel":"052-271-1292"}},{"type":"Feature","geometry":{"type":"Point","coordinates":[129.26896,35.55224]},"properties":{"name":"온누리큰사랑약국","addr":"울산광역시 남구 북부순환도로 48, (무거동)","sgg":"31140","cap":null,"type":null,"src":"safekorea","asof":"2026-08-22","tel":"052-277-8803"}},{"type":"Feature","geometry":{"type":"Point","coordinates":[129.30523,35.53243]},"properties":{"name":"갑진약국","addr":"울산광역시 남구 문수로 474, 1~2층 (신정동)","sgg":"31140","cap":null,"type":null,"src":"safekorea","asof":"2026-08-22","tel":"052-267-6826"}},{"type":"Feature","geometry":{"type":"Point","coordinates":[129.29604,35.53385]},"properties":{"name":"대왕약국","addr":"울산광역시 남구 문수로 390 (옥동)","sgg":"31140","cap":null,"type":null,"src":"safekorea","asof":"2026-08-22","tel":"052-227-3955"}},{"type":"Feature","geometry":{"type":"Point","coordinates":[129.31095,35.54371]},"properties":{"name":"울산선진약국","addr":"울산광역시 남구 중앙로 258, (신정동)","sgg":"31140","cap":null,"type":null,"src":"safekorea","asof":"2026-08-22","tel":"052-272-8555"}},{"type":"Feature","geometry":{"type":"Point","coordinates":[129.31994,35.53518]},"properties":{"name":"편안한약국","addr":"울산광역시 남구 삼산로 112 (달동)","sgg":"31140","cap":null,"type":null,"src":"safekorea","asof":"2026-08-22","tel":"052-269-2265"}},{"type":"Feature","geometry":{"type":"Point","coordinates":[129.34118,35.54206]},"properties":{"name":"보라약국","addr":"울산광역시 남구 화합로194번길 15 (삼산동)","sgg":"31140","cap":null,"type":null,"src":"safekorea","asof":"2026-08-22","tel":"052-261-6385"}},{"type":"Feature","geometry":{"type":"Point","coordinates":[129.26175,35.54734]},"properties":{"name":"문성온누리약국","addr":"울산광역시 남구 대학로 141 (무거동)","sgg":"31140","cap":null,"type":null,"src":"safekorea","asof":"2026-08-22","tel":"052-249-0372"}},{"type":"Feature","geometry":{"type":"Point","coordinates":[129.32843,35.53542]},"properties":{"name":"해맑은약국","addr":"울산광역시 남구 번영로 113  (달동)","sgg":"31140","cap":null,"type":null,"src":"safekorea","asof":"2026-08-22","tel":"052-257-4403"}},{"type":"Feature","geometry":{"type":"Point","coordinates":[129.29432,35.53415]},"properties":{"name":"새부산약국","addr":"울산광역시 남구 문수로 376, (옥동)","sgg":"31140","cap":null,"type":null,"src":"safekorea","asof":"2026-08-22","tel":"052-256-8466"}},{"type":"Feature","geometry":{"type":"Point","coordinates":[129.31552,35.51705]},"properties":{"name":"선암약국","addr":"울산광역시 남구 두왕로190번길 46, 1층 (선암동)","sgg":"31140","cap":null,"type":null,"src":"safekorea","asof":"2026-08-22","tel":"052-267-6615"}},{"type":"Feature","geometry":{"type":"Point","coordinates":[129.33653,35.53946]},"properties":{"name":"울산탑약국","addr":"울산광역시 남구 삼산로 269, 1층 (삼산동)","sgg":"31140","cap":null,"type":null,"src":"safekorea","asof":"2026-08-22","tel":"052-261-0048"}},{"type":"Feature","geometry":{"type":"Point","coordinates":[129.30949,35.54151]},"properties":{"name":"선우약국","addr":"울산광역시 남구 월평로 35, (신정동)","sgg":"31140","cap":null,"type":null,"src":"safekorea","asof":"2026-08-22","tel":"052-269-8075"}},{"type":"Feature","geometry":{"type":"Point","coordinates":[129.33587,35.52129]},"properties":{"name":"대현약국","addr":"울산광역시 남구 수암로 288-1, (야음동)","sgg":"31140","cap":null,"type":null,"src":"safekorea","asof":"2026-08-22","tel":"052-272-7813"}},{"type":"Feature","geometry":{"type":"Point","coordinates":[129.32323,35.5474]},"properties":{"name":"새울산약국","addr":"울산광역시 남구 월평로171번길 26, 1층 125호 (신정동, 신정 지웰)","sgg":"31140","cap":null,"type":null,"src":"safekorea","asof":"2026-08-22","tel":"052-266-5397"}},{"type":"Feature","geometry":{"type":"Point","coordinates":[129.33546,35.54481]},"properties":{"name":"21세기건강약국","addr":"울산광역시 남구 삼산중로 125  (삼산동)","sgg":"31140","cap":null,"type":null,"src":"safekorea","asof":"2026-08-22","tel":"052-258-6028"}},{"type":"Feature","geometry":{"type":"Point","coordinates":[129.26631,35.55206]},"properties":{"name":"건강한약국","addr":"울산광역시 남구 북부순환도로 23  (무거동)","sgg":"31140","cap":null,"type":null,"src":"safekorea","asof":"2026-08-22","tel":"052-223-8415"}},{"type":"Feature","geometry":{"type":"Point","coordinates":[129.33511,35.5399]},"properties":{"name":"거봉약국","addr":"울산광역시 남구 삼산중로 71, 1층 (달동)","sgg":"31140","cap":null,"type":null,"src":"safekorea","asof":"2026-08-22","tel":"052-272-1112"}},{"type":"Feature","geometry":{"type":"Point","coordinates":[129.30947,35.53247]},"properties":{"name":"고운약국","addr":"울산광역시 남구 삼산로 14  (신정동)","sgg":"31140","cap":null,"type":null,"src":"safekorea","asof":"2026-08-22","tel":"052-271-7855"}},{"type":"Feature","geometry":{"type":"Point","coordinates":[129.26568,35.55121]},"properties":{"name":"굿모닝약국","addr":"울산광역시 남구 북부순환도로 14 (무거동)","sgg":"31140","cap":null,"type":null,"src":"safekorea","asof":"2026-08-22","tel":"052-249-9095"}},{"type":"Feature","geometry":{"type":"Point","coordinates":[129.3195,35.52892]},"properties":{"name":"울산중앙약국","addr":"울산광역시 남구 수암로 107, (신정동)","sgg":"31140","cap":null,"type":null,"src":"safekorea","asof":"2026-08-22","tel":"052-266-9250"}},{"type":"Feature","geometry":{"type":"Point","coordinates":[129.3381,35.53976]},"properties":{"name":"롯데약국","addr":"울산광역시 남구 삼산로 285, (삼산동)","sgg":"31140","cap":null,"type":null,"src":"safekorea","asof":"2026-08-22","tel":"052-275-0098"}},{"type":"Feature","geometry":{"type":"Point","coordinates":[129.32722,35.54126]},"properties":{"name":"하나로약국","addr":"울산광역시 남구 번영로180번길 2 (달동)","sgg":"31140","cap":null,"type":null,"src":"safekorea","asof":"2026-08-22","tel":"052-260-9162"}},{"type":"Feature","geometry":{"type":"Point","coordinates":[129.33007,35.53367]},"properties":{"name":"해성약국","addr":"울산광역시 남구 번영로 90-1 (달동)","sgg":"31140","cap":null,"type":null,"src":"safekorea","asof":"2026-08-22","tel":"052-261-8981"}},{"type":"Feature","geometry":{"type":"Point","coordinates":[129.3105,35.542]},"properties":{"name":"동보약국","addr":"울산광역시 남구 중앙로241번길 1 (신정동)","sgg":"31140","cap":null,"type":null,"src":"safekorea","asof":"2026-08-22","tel":"052-272-4845"}},{"type":"Feature","geometry":{"type":"Point","coordinates":[129.31268,35.53109]},"properties":{"name":"다나약국","addr":"울산광역시 남구 수암로 42, 1층 101호 (신정동)","sgg":"31140","cap":null,"type":null,"src":"safekorea","asof":"2026-08-22","tel":"052-273-3999"}},{"type":"Feature","geometry":{"type":"Point","coordinates":[129.31343,35.53606]},"properties":{"name":"메디팜성원약국","addr":"울산광역시 남구 중앙로 167, (신정동)","sgg":"31140","cap":null,"type":null,"src":"safekorea","asof":"2026-08-22","tel":"052-275-6445"}},{"type":"Feature","geometry":{"type":"Point","coordinates":[129.33002,35.53824]},"properties":{"name":"조아약국","addr":"울산광역시 남구 삼산로 209 (달동)","sgg":"31140","cap":null,"type":null,"src":"safekorea","asof":"2026-08-22","tel":"052-258-8728"}},{"type":"Feature","geometry":{"type":"Point","coordinates":[129.32852,35.5351]},"properties":{"name":"경희약국","addr":"울산광역시 남구 번영로 109, 106호 (달동)","sgg":"31140","cap":null,"type":null,"src":"safekorea","asof":"2026-08-22","tel":"052-260-2672"}},{"type":"Feature","geometry":{"type":"Point","coordinates":[129.29416,35.5347]},"properties":{"name":"서약국","addr":"울산광역시 남구 문수로 371, (옥동)","sgg":"31140","cap":null,"type":null,"src":"safekorea","asof":"2026-08-22","tel":"052-266-2221"}},{"type":"Feature","geometry":{"type":"Point","coordinates":[129.33225,35.52362]},"properties":{"name":"대가약국","addr":"울산광역시 남구 수암로 246, (야음동)","sgg":"31140","cap":null,"type":null,"src":"safekorea","asof":"2026-08-22","tel":"052-272-0720"}},{"type":"Feature","geometry":{"type":"Point","coordinates":[129.32129,35.52741]},"properties":{"name":"그린약국","addr":"울산광역시 남구 수암로 130 (야음동)","sgg":"31140","cap":null,"type":null,"src":"safekorea","asof":"2026-08-22","tel":"052-260-5224"}},{"type":"Feature","geometry":{"type":"Point","coordinates":[129.32184,35.53537]},"properties":{"name":"미래팜연세약국","addr":"울산광역시 남구 신정로 39, (달동)","sgg":"31140","cap":null,"type":null,"src":"safekorea","asof":"2026-08-22","tel":"052-258-0063"}},{"type":"Feature","geometry":{"type":"Point","coordinates":[129.31096,35.54228]},"properties":{"name":"건강드림신정약국","addr":"울산광역시 남구 중앙로 241 (신정동)","sgg":"31140","cap":null,"type":null,"src":"safekorea","asof":"2026-08-22","tel":"052-257-7973"}},{"type":"Feature","geometry":{"type":"Point","coordinates":[129.34373,35.54047]},"properties":{"name":"보람약국","addr":"울산광역시 남구 정동로 73, (삼산동)","sgg":"31140","cap":null,"type":null,"src":"safekorea","asof":"2026-08-22","tel":"052-260-3457"}},{"type":"Feature","geometry":{"type":"Point","coordinates":[129.32029,35.52892]},"properties":{"name":"모범약국","addr":"울산광역시 남구 수암로115번길 5  (신정동)","sgg":"31140","cap":null,"type":null,"src":"safekorea","asof":"2026-08-22","tel":"052-272-8359"}},{"type":"Feature","geometry":{"type":"Point","coordinates":[129.33508,35.53916]},"properties":{"name":"부강약국","addr":"울산광역시 남구 삼산로 257, (달동,금양빌딩)","sgg":"31140","cap":null,"type":null,"src":"safekorea","asof":"2026-08-22","tel":"052-257-7795"}},{"type":"Feature","geometry":{"type":"Point","coordinates":[129.33519,35.54447]},"properties":{"name":"삼산하나약국","addr":"울산광역시 남구 돋질로 277-1 (삼산동)","sgg":"31140","cap":null,"type":null,"src":"safekorea","asof":"2026-08-22","tel":"052-227-7987"}},{"type":"Feature","geometry":{"type":"Point","coordinates":[129.33514,35.53972]},"properties":{"name":"삼산현대약국","addr":"울산광역시 남구 삼산중로 69 (달동)","sgg":"31140","cap":null,"type":null,"src":"safekorea","asof":"2026-08-22","tel":"052-268-5666"}},{"type":"Feature","geometry":{"type":"Point","coordinates":[129.32008,35.52862]},"properties":{"name":"신부강약국","addr":"울산광역시 남구 수암로 115  (신정동)","sgg":"31140","cap":null,"type":null,"src":"safekorea","asof":"2026-08-22","tel":"052-272-0751"}},{"type":"Feature","geometry":{"type":"Point","coordinates":[129.31904,35.5228]},"properties":{"name":"행운약국","addr":"울산광역시 남구 중앙로 14, 1층 (야음동)","sgg":"31140","cap":null,"type":null,"src":"safekorea","asof":"2026-08-22","tel":"052-260-8575"}},{"type":"Feature","geometry":{"type":"Point","coordinates":[129.32916,35.53809]},"properties":{"name":"메디칼약국","addr":"울산광역시 남구 삼산로 201  (달동)","sgg":"31140","cap":null,"type":null,"src":"safekorea","asof":"2026-08-22","tel":"052-265-5672"}},{"type":"Feature","geometry":{"type":"Point","coordinates":[129.3109,35.54239]},"properties":{"name":"미래팜한사랑약국","addr":"울산광역시 남구 중앙로 243, (신정동)","sgg":"31140","cap":null,"type":null,"src":"safekorea","asof":"2026-08-22","tel":"052-260-6600"}},{"type":"Feature","geometry":{"type":"Point","coordinates":[129.2688,35.55273]},"properties":{"name":"삼호약국","addr":"울산광역시 남구 북부순환도로 47, (무거동)","sgg":"31140","cap":null,"type":null,"src":"safekorea","asof":"2026-08-22","tel":"052-223-1181"}},{"type":"Feature","geometry":{"type":"Point","coordinates":[129.27322,35.54958]},"properties":{"name":"새천년약국","addr":"울산광역시 남구 어은로 4, (무거동)","sgg":"31140","cap":null,"type":null,"src":"safekorea","asof":"2026-08-22","tel":"052-247-7381"}},{"type":"Feature","geometry":{"type":"Point","coordinates":[129.26212,35.54676]},"properties":{"name":"오렌지약국","addr":"울산광역시 남구 대학로 138  (무거동)","sgg":"31140","cap":null,"type":null,"src":"safekorea","asof":"2026-08-22","tel":"052-277-7900"}},{"type":"Feature","geometry":{"type":"Point","coordinates":[129.31128,35.54276]},"properties":{"name":"소망약국","addr":"울산광역시 남구 중앙로 246, (신정동)","sgg":"31140","cap":null,"type":null,"src":"safekorea","asof":"2026-08-22","tel":"052-275-5552"}},{"type":"Feature","geometry":{"type":"Point","coordinates":[129.3276,35.53948]},"properties":{"name":"봄온누리약국","addr":"울산광역시 남구 번영로 160, 1층 (달동)","sgg":"31140","cap":null,"type":null,"src":"safekorea","asof":"2026-08-22","tel":"052-267-8840"}},{"type":"Feature","geometry":{"type":"Point","coordinates":[129.31299,35.53339]},"properties":{"name":"서광약국","addr":"울산광역시 남구 삼산로 48(신정동)","sgg":"31140","cap":null,"type":null,"src":"safekorea","asof":"2026-08-22","tel":"052-244-4535"}},{"type":"Feature","geometry":{"type":"Point","coordinates":[129.3379,35.53972]},"properties":{"name":"삼산보령약국","addr":"울산광역시 남구 삼산로 283, 소망빌딩 1층 (삼산동)","sgg":"31140","cap":null,"type":null,"src":"safekorea","asof":"2026-08-22","tel":"052-256-1240"}},{"type":"Feature","geometry":{"type":"Point","coordinates":[129.43035,35.51181]},"properties":{"name":"스타온누리약국","addr":"울산광역시 동구 방어진순환도로 785(전하동)","sgg":"31170","cap":null,"type":null,"src":"safekorea","asof":"2026-08-22","tel":"052-233-6925"}},{"type":"Feature","geometry":{"type":"Point","coordinates":[129.42591,35.50896]},"properties":{"name":"남산약국","addr":"울산광역시 동구 진성4길 57(전하동)","sgg":"31170","cap":null,"type":null,"src":"safekorea","asof":"2026-08-22","tel":"052-251-4421"}},{"type":"Feature","geometry":{"type":"Point","coordinates":[129.4208,35.49862]},"properties":{"name":"은성약국","addr":"울산광역시 동구 양지5길 72, 1층 (화정동)","sgg":"31170","cap":null,"type":null,"src":"safekorea","asof":"2026-08-22","tel":"052-251-2016"}},{"type":"Feature","geometry":{"type":"Point","coordinates":[129.42998,35.5178]},"properties":{"name":"건강백세약국","addr":"울산광역시 동구 방어진순환도로 863(전하동, 스위첸 웰츠타워 1차)","sgg":"31170","cap":null,"type":null,"src":"safekorea","asof":"2026-08-22","tel":"052-201-1110"}},{"type":"Feature","geometry":{"type":"Point","coordinates":[129.43092,35.51785]},"properties":{"name":"친절한약국","addr":"울산광역시 동구 바드래1길 7(전하동)","sgg":"31170","cap":null,"type":null,"src":"safekorea","asof":"2026-08-22","tel":"052-201-3470"}},{"type":"Feature","geometry":{"type":"Point","coordinates":[129.42466,35.49775]},"properties":{"name":"한사랑약국","addr":"울산광역시 동구 대학길 130, 1층 (화정동)","sgg":"31170","cap":null,"type":null,"src":"safekorea","asof":"2026-08-22","tel":"052-234-7701"}},{"type":"Feature","geometry":{"type":"Point","coordinates":[129.43082,35.52239]},"properties":{"name":"대학약국","addr":"울산광역시 동구 명덕로 15, 센텀원상가 101호 (서부동)","sgg":"31170","cap":null,"type":null,"src":"safekorea","asof":"2026-08-22","tel":"052-201-0070"}},{"type":"Feature","geometry":{"type":"Point","coordinates":[129.4302,35.51055]},"properties":{"name":"튼튼약국","addr":"울산광역시 동구 방어진순환도로 771(전하동)","sgg":"31170","cap":null,"type":null,"src":"safekorea","asof":"2026-08-22","tel":"052-201-6777"}},{"type":"Feature","geometry":{"type":"Point","coordinates":[129.42986,35.50842]},"properties":{"name":"월드약국","addr":"울산광역시 동구 방어진순환도로 747(전하동)","sgg":"31170","cap":null,"type":null,"src":"safekorea","asof":"2026-08-22","tel":"052-232-3900"}},{"type":"Feature","geometry":{"type":"Point","coordinates":[129.42747,35.49897]},"properties":{"name":"팜플러스약국","addr":"울산광역시 동구 방어진순환도로 637, 홈플러스 (일산동)","sgg":"31170","cap":null,"type":null,"src":"safekorea","asof":"2026-08-22","tel":"052-234-6664"}},{"type":"Feature","geometry":{"type":"Point","coordinates":[129.42798,35.54239]},"properties":{"name":"신현대온누리약국","addr":"울산광역시 동구 동해안로 43 (동부동)","sgg":"31170","cap":null,"type":null,"src":"safekorea","asof":"2026-08-22","tel":"052-251-1181"}},{"type":"Feature","geometry":{"type":"Point","coordinates":[129.42594,35.48665]},"properties":{"name":"해맑은약국","addr":"울산광역시 동구 동진로 6(방어동)","sgg":"31170","cap":null,"type":null,"src":"safekorea","asof":"2026-08-22","tel":"052-236-1454"}},{"type":"Feature","geometry":{"type":"Point","coordinates":[129.42417,35.53997]},"properties":{"name":"힐링약국","addr":"울산광역시 동구 방어진순환도로 1138, 소망메디컬 (서부동)","sgg":"31170","cap":null,"type":null,"src":"safekorea","asof":"2026-08-22","tel":"052-234-8989"}},{"type":"Feature","geometry":{"type":"Point","coordinates":[129.4262,35.5109]},"properties":{"name":"비타민약국","addr":"울산광역시 동구 진성14길 118(전하동)","sgg":"31170","cap":null,"type":null,"src":"safekorea","asof":"2026-08-22","tel":"070-8829-8245"}},{"type":"Feature","geometry":{"type":"Point","coordinates":[129.42808,35.4994]},"properties":{"name":"참좋은온누리약국","addr":"울산광역시 동구 방어진순환도로 645, 1층 (일산동)","sgg":"31170","cap":null,"type":null,"src":"safekorea","asof":"2026-08-22","tel":"052-234-6605"}},{"type":"Feature","geometry":{"type":"Point","coordinates":[129.42747,35.54242]},"properties":{"name":"남목공룡약국","addr":"울산광역시 동구 남목17길 4, 103호 (동부동)","sgg":"31170","cap":null,"type":null,"src":"safekorea","asof":"2026-08-22","tel":"052-252-6119"}},{"type":"Feature","geometry":{"type":"Point","coordinates":[129.42854,35.51713]},"properties":{"name":"편리한주차약국","addr":"울산광역시 동구 바드래1길 45, 현대중공업임원숙소 101호 (전하동)","sgg":"31170","cap":null,"type":null,"src":"safekorea","asof":"2026-08-22","tel":"052-234-7890"}},{"type":"Feature","geometry":{"type":"Point","coordinates":[129.42884,35.49978]},"properties":{"name":"365열린약국","addr":"울산광역시 동구 방어진순환도로 652, C동 116~117호 (일산동, 테라스파크)","sgg":"31170","cap":null,"type":null,"src":"safekorea","asof":"2026-08-22","tel":"052-209-0333"}},{"type":"Feature","geometry":{"type":"Point","coordinates":[129.42599,35.50928]},"properties":{"name":"태화약국","addr":"울산광역시 동구 진성14길 90 (전하동)","sgg":"31170","cap":null,"type":null,"src":"safekorea","asof":"2026-08-22","tel":"052-937-8275"}},{"type":"Feature","geometry":{"type":"Point","coordinates":[129.4169,35.48289]},"properties":{"name":"순정약국","addr":"울산광역시 동구 문재6길 4, 1층 (방어동)","sgg":"31170","cap":null,"type":null,"src":"safekorea","asof":"2026-08-22","tel":"052-235-3375"}},{"type":"Feature","geometry":{"type":"Point","coordinates":[129.43132,35.52164]},"properties":{"name":"현대백화점약국","addr":"울산광역시 동구 방어진순환도로 899 (서부동)","sgg":"31170","cap":null,"type":null,"src":"safekorea","asof":"2026-08-22","tel":"052-251-7194"}},{"type":"Feature","geometry":{"type":"Point","coordinates":[129.41961,35.49872]},"properties":{"name":"건강한약국","addr":"울산광역시 동구 대학길 33(화정동)","sgg":"31170","cap":null,"type":null,"src":"safekorea","asof":"2026-08-22","tel":"052-235-4298"}},{"type":"Feature","geometry":{"type":"Point","coordinates":[129.42993,35.50822]},"properties":{"name":"보람약국","addr":"울산광역시 동구 방어진순환도로 745(전하동)","sgg":"31170","cap":null,"type":null,"src":"safekorea","asof":"2026-08-22","tel":"052-236-0835"}},{"type":"Feature","geometry":{"type":"Point","coordinates":[129.4305,35.5132]},"properties":{"name":"녹십자약국","addr":"울산광역시 동구 녹수길 9  (전하동)","sgg":"31170","cap":null,"type":null,"src":"safekorea","asof":"2026-08-22","tel":"052-232-3158"}},{"type":"Feature","geometry":{"type":"Point","coordinates":[129.42966,35.50652]},"properties":{"name":"현약국","addr":"울산광역시 동구 방어진순환도로 725 (전하동)","sgg":"31170","cap":null,"type":null,"src":"safekorea","asof":"2026-08-22","tel":"052-252-4874"}},{"type":"Feature","geometry":{"type":"Point","coordinates":[129.42554,35.53923]},"properties":{"name":"행운약국","addr":"울산광역시 동구 방어진순환도로 1125 (서부동)","sgg":"31170","cap":null,"type":null,"src":"safekorea","asof":"2026-08-22","tel":"052-252-3375"}},{"type":"Feature","geometry":{"type":"Point","coordinates":[129.43063,35.51277]},"properties":{"name":"새봄약국","addr":"울산광역시 동구 방어진순환도로 795, 1층 (전하동)","sgg":"31170","cap":null,"type":null,"src":"safekorea","asof":"2026-08-22","tel":"052-233-1413"}},{"type":"Feature","geometry":{"type":"Point","coordinates":[129.42824,35.49999]},"properties":{"name":"사랑의약국","addr":"울산광역시 동구 방어진순환도로 651(일산동)","sgg":"31170","cap":null,"type":null,"src":"safekorea","asof":"2026-08-22","tel":"052-236-1214"}},{"type":"Feature","geometry":{"type":"Point","coordinates":[129.42711,35.51778]},"properties":{"name":"한마음온누리약국","addr":"울산광역시 동구 봉수로 370(전하동, 전하동현대홈타운)","sgg":"31170","cap":null,"type":null,"src":"safekorea","asof":"2026-08-22","tel":"052-234-7582"}},{"type":"Feature","geometry":{"type":"Point","coordinates":[129.42192,35.49881]},"properties":{"name":"명인약국","addr":"울산광역시 동구 대학길 75(화정동)","sgg":"31170","cap":null,"type":null,"src":"safekorea","asof":"2026-08-22","tel":"052-903-7913"}},{"type":"Feature","geometry":{"type":"Point","coordinates":[129.42631,35.51147]},"properties":{"name":"만세대약국","addr":"울산광역시 동구 진성14길 128(전하동)","sgg":"31170","cap":null,"type":null,"src":"safekorea","asof":"2026-08-22","tel":"052-234-5353"}},{"type":"Feature","geometry":{"type":"Point","coordinates":[129.42739,35.50649]},"properties":{"name":"태화당약국","addr":"울산광역시 동구 진성11길 42, (전하동)","sgg":"31170","cap":null,"type":null,"src":"safekorea","asof":"2026-08-22","tel":"052-232-0023"}},{"type":"Feature","geometry":{"type":"Point","coordinates":[129.42118,35.49892]},"properties":{"name":"엄마손약국","addr":"울산광역시 동구 대학길 59(화정동)","sgg":"31170","cap":null,"type":null,"src":"safekorea","asof":"2026-08-22","tel":"052-234-5593"}},{"type":"Feature","geometry":{"type":"Point","coordinates":[129.43261,35.52391]},"properties":{"name":"보은약국","addr":"울산광역시 동구 방어진순환도로 927-1, (서부동)","sgg":"31170","cap":null,"type":null,"src":"safekorea","asof":"2026-08-22","tel":"052-232-6631"}},{"type":"Feature","geometry":{"type":"Point","coordinates":[129.43266,35.5235]},"properties":{"name":"동산약국","addr":"울산광역시 동구 방어진순환도로 923  (서부동)","sgg":"31170","cap":null,"type":null,"src":"safekorea","asof":"2026-08-22","tel":"052-251-0432"}},{"type":"Feature","geometry":{"type":"Point","coordinates":[129.42043,35.49104]},"properties":{"name":"태평양약국","addr":"울산광역시 동구 월봉6길 39, 화정상가 (화정동)","sgg":"31170","cap":null,"type":null,"src":"safekorea","asof":"2026-08-22","tel":"052-252-2324"}},{"type":"Feature","geometry":{"type":"Point","coordinates":[129.43052,35.51236]},"properties":{"name":"우리약국","addr":"울산광역시 동구 전하로 2  (전하동)","sgg":"31170","cap":null,"type":null,"src":"safekorea","asof":"2026-08-22","tel":"052-234-1256"}},{"type":"Feature","geometry":{"type":"Point","coordinates":[129.43153,35.51796]},"properties":{"name":"새현대약국","addr":"울산광역시 동구 방어진순환도로 859 (전하동)","sgg":"31170","cap":null,"type":null,"src":"safekorea","asof":"2026-08-22","tel":"052-233-2212"}},{"type":"Feature","geometry":{"type":"Point","coordinates":[129.42021,35.48716]},"properties":{"name":"메디칼약국","addr":"울산광역시 동구 방어진순환도로 482  (방어동)","sgg":"31170","cap":null,"type":null,"src":"safekorea","asof":"2026-08-22","tel":"052-201-7820"}},{"type":"Feature","geometry":{"type":"Point","coordinates":[129.4328,35.52479]},"properties":{"name":"청춘약국","addr":"울산광역시 동구 방어진순환도로 937, 1층 (서부동)","sgg":"31170","cap":null,"type":null,"src":"safekorea","asof":"2026-08-22","tel":"052-251-3788"}},{"type":"Feature","geometry":{"type":"Point","coordinates":[129.43124,35.51789]},"properties":{"name":"동울산대학약국","addr":"울산광역시 동구 바드래1길 3 (전하동)","sgg":"31170","cap":null,"type":null,"src":"safekorea","asof":"2026-08-22","tel":"052-236-8789"}},{"type":"Feature","geometry":{"type":"Point","coordinates":[129.42856,35.54235]},"properties":{"name":"청솔약국","addr":"울산광역시 동구 동해안로 49, (동부동)","sgg":"31170","cap":null,"type":null,"src":"safekorea","asof":"2026-08-22","tel":"052-252-8778"}},{"type":"Feature","geometry":{"type":"Point","coordinates":[129.42609,35.48656]},"properties":{"name":"새모범약국","addr":"울산광역시 동구 내진1길 2 (방어동)","sgg":"31170","cap":null,"type":null,"src":"safekorea","asof":"2026-08-22","tel":"052-232-6642"}},{"type":"Feature","geometry":{"type":"Point","coordinates":[129.42648,35.49349]},"properties":{"name":"행복약국","addr":"울산광역시 동구 방어진순환도로 577  (화정동)","sgg":"31170","cap":null,"type":null,"src":"safekorea","asof":"2026-08-22","tel":"052-209-1005"}},{"type":"Feature","geometry":{"type":"Point","coordinates":[129.43053,35.51206]},"properties":{"name":"부민약국","addr":"울산광역시 동구 방어진순환도로 787(전하동)","sgg":"31170","cap":null,"type":null,"src":"safekorea","asof":"2026-08-22","tel":"052-251-0614"}},{"type":"Feature","geometry":{"type":"Point","coordinates":[129.4225,35.4854]},"properties":{"name":"제일약국","addr":"울산광역시 동구 꽃바위로 311, 1층(방어동)","sgg":"31170","cap":null,"type":null,"src":"safekorea","asof":"2026-08-22","tel":"052-232-8972"}},{"type":"Feature","geometry":{"type":"Point","coordinates":[129.42185,35.49832]},"properties":{"name":"신세계온누리약국","addr":"울산광역시 동구 대학길 76 (화정동)","sgg":"31170","cap":null,"type":null,"src":"safekorea","asof":"2026-08-22","tel":"052-235-1775"}},{"type":"Feature","geometry":{"type":"Point","coordinates":[129.43057,35.51252]},"properties":{"name":"선명약국","addr":"울산광역시 동구 방어진순환도로 793, (전하동)","sgg":"31170","cap":null,"type":null,"src":"safekorea","asof":"2026-08-22","tel":"052-251-5888"}},{"type":"Feature","geometry":{"type":"Point","coordinates":[129.42009,35.49848]},"properties":{"name":"현대약국","addr":"울산광역시 동구 대학길 40, (화정동)","sgg":"31170","cap":null,"type":null,"src":"safekorea","asof":"2026-08-22","tel":"052-235-8893"}},{"type":"Feature","geometry":{"type":"Point","coordinates":[129.42909,35.5171]},"properties":{"name":"새정문약국","addr":"울산광역시 동구 바드래1길 35, 필하모니 (전하동)","sgg":"31170","cap":null,"type":null,"src":"safekorea","asof":"2026-08-22","tel":"052-236-3759"}},{"type":"Feature","geometry":{"type":"Point","coordinates":[129.43023,35.54251]},"properties":{"name":"신대흥약국","addr":"울산광역시 동구 안산로 50(동부동, 현대패밀리동부아파트)","sgg":"31170","cap":null,"type":null,"src":"safekorea","asof":"2026-08-22","tel":"052-251-0552"}},{"type":"Feature","geometry":{"type":"Point","coordinates":[129.42513,35.53931]},"properties":{"name":"광성약국","addr":"울산광역시 동구 방어진순환도로 1131 (서부동)","sgg":"31170","cap":null,"type":null,"src":"safekorea","asof":"2026-08-22","tel":"052-252-3488"}},{"type":"Feature","geometry":{"type":"Point","coordinates":[129.42718,35.54203]},"properties":{"name":"선린약국","addr":"울산광역시 동구 미포5길 29 (동부동)","sgg":"31170","cap":null,"type":null,"src":"safekorea","asof":"2026-08-22","tel":"052-252-3889"}},{"type":"Feature","geometry":{"type":"Point","coordinates":[129.42197,35.53972]},"properties":{"name":"새미래약국","addr":"울산광역시 동구 방어진순환도로 1160, 새미래약국 (서부동)","sgg":"31170","cap":null,"type":null,"src":"safekorea","asof":"2026-08-22","tel":"052-236-1356"}},{"type":"Feature","geometry":{"type":"Point","coordinates":[129.42018,35.49521]},"properties":{"name":"경남약국","addr":"울산광역시 동구 월봉로 14, (화정동)","sgg":"31170","cap":null,"type":null,"src":"safekorea","asof":"2026-08-22","tel":"052-233-9930"}},{"type":"Feature","geometry":{"type":"Point","coordinates":[129.42605,35.5098]},"properties":{"name":"우리집약국","addr":"울산광역시 동구 진성14길 96  (전하동)","sgg":"31170","cap":null,"type":null,"src":"safekorea","asof":"2026-08-22","tel":"052-201-6888"}},{"type":"Feature","geometry":{"type":"Point","coordinates":[129.42451,35.53935]},"properties":{"name":"별빛약국","addr":"울산광역시 동구 방어진순환도로 1137 (서부동)","sgg":"31170","cap":null,"type":null,"src":"safekorea","asof":"2026-08-22","tel":"052-996-9000"}},{"type":"Feature","geometry":{"type":"Point","coordinates":[129.42998,35.5178]},"properties":{"name":"일등약국","addr":"울산광역시 동구 방어진순환도로 863, 상가동 401,402호 (전하동, 스위첸 웰츠타워 1차)","sgg":"31170","cap":null,"type":null,"src":"safekorea","asof":"2026-08-22","tel":"052-232-2991"}},{"type":"Feature","geometry":{"type":"Point","coordinates":[129.42998,35.5178]},"properties":{"name":"1번약국","addr":"울산광역시 동구 방어진순환도로 863, 상가동 403,404호 (전하동, 스위첸 웰츠타워 1차)","sgg":"31170","cap":null,"type":null,"src":"safekorea","asof":"2026-08-22","tel":"052-233-0202"}},{"type":"Feature","geometry":{"type":"Point","coordinates":[129.43898,35.63587]},"properties":{"name":"미소약국","addr":"울산광역시 북구 산하중앙2로 290  (산하동)","sgg":"31200","cap":null,"type":null,"src":"safekorea","asof":"2026-08-22","tel":"052-244-7582"}},{"type":"Feature","geometry":{"type":"Point","coordinates":[129.35547,35.64263]},"properties":{"name":"드림약국","addr":"울산광역시 북구 매곡로 115, 105,106호 (매곡동)","sgg":"31200","cap":null,"type":null,"src":"safekorea","asof":"2026-08-22","tel":"052-282-3393"}},{"type":"Feature","geometry":{"type":"Point","coordinates":[129.38515,35.54344]},"properties":{"name":"조명약국","addr":"울산광역시 북구 염포로 539 (양정동)","sgg":"31200","cap":null,"type":null,"src":"safekorea","asof":"2026-08-22","tel":"052-287-0094"}},{"type":"Feature","geometry":{"type":"Point","coordinates":[129.35512,35.55377]},"properties":{"name":"우리약국","addr":"울산광역시 북구 명촌로 80, 105호 (명촌동, 평창리비에르3차상가)","sgg":"31200","cap":null,"type":null,"src":"safekorea","asof":"2026-08-22","tel":"052-287-0049"}},{"type":"Feature","geometry":{"type":"Point","coordinates":[129.35855,35.58335]},"properties":{"name":"신세계약국","addr":"울산광역시 북구 산업로 1011-10 (연암동)","sgg":"31200","cap":null,"type":null,"src":"safekorea","asof":"2026-08-22","tel":"052-289-3470"}},{"type":"Feature","geometry":{"type":"Point","coordinates":[129.35749,35.64252]},"properties":{"name":"마음약국","addr":"울산광역시 북구 괴정1길 114, 1층 (매곡동)","sgg":"31200","cap":null,"type":null,"src":"safekorea","asof":"2026-08-22","tel":"052-933-0810"}},{"type":"Feature","geometry":{"type":"Point","coordinates":[129.35571,35.57716]},"properties":{"name":"울산제일큰약국","addr":"울산광역시 북구 진장유통1로 74 (진장동)","sgg":"31200","cap":null,"type":null,"src":"safekorea","asof":"2026-08-22","tel":"052-288-9177"}},{"type":"Feature","geometry":{"type":"Point","coordinates":[129.35902,35.576]},"properties":{"name":"메가플러스약국","addr":"울산광역시 북구 진장유통로 64, 롯데마트 진장점 1층 (진장동)","sgg":"31200","cap":null,"type":null,"src":"safekorea","asof":"2026-08-22","tel":"052-000-0001"}},{"type":"Feature","geometry":{"type":"Point","coordinates":[129.35068,35.62829]},"properties":{"name":"세연약국","addr":"울산광역시 북구 호계로 281 (호계동)","sgg":"31200","cap":null,"type":null,"src":"safekorea","asof":"2026-08-22","tel":"052-295-4245"}},{"type":"Feature","geometry":{"type":"Point","coordinates":[129.3641,35.63689]},"properties":{"name":"에일린약국","addr":"울산광역시 북구 호계매곡1로 31, b11호 (매곡동, 드림인시티 에일린의뜰 1차)","sgg":"31200","cap":null,"type":null,"src":"safekorea","asof":"2026-08-22","tel":"052-282-0185"}},{"type":"Feature","geometry":{"type":"Point","coordinates":[129.34892,35.63478]},"properties":{"name":"우리동네약국","addr":"울산광역시 북구 매곡로 7, 농소농업협동조합 1층 (신천동)","sgg":"31200","cap":null,"type":null,"src":"safekorea","asof":"2026-08-22","tel":"052-287-1939"}},{"type":"Feature","geometry":{"type":"Point","coordinates":[129.35159,35.62768]},"properties":{"name":"열린문약국","addr":"울산광역시 북구 동대1길 17-1 (호계동)","sgg":"31200","cap":null,"type":null,"src":"safekorea","asof":"2026-08-22","tel":"052-298-2022"}},{"type":"Feature","geometry":{"type":"Point","coordinates":[129.36683,35.59693]},"properties":{"name":"송정약국","addr":"울산광역시 북구 화산6길 8, S 타워 102,103호 (화봉동)","sgg":"31200","cap":null,"type":null,"src":"safekorea","asof":"2026-08-22","tel":"052-700-4189"}},{"type":"Feature","geometry":{"type":"Point","coordinates":[129.35157,35.65358]},"properties":{"name":"연두약국","addr":"울산광역시 북구 중산동로 27, 101호 (중산동)","sgg":"31200","cap":null,"type":null,"src":"safekorea","asof":"2026-08-22","tel":"052-285-2567"}},{"type":"Feature","geometry":{"type":"Point","coordinates":[129.36533,35.60147]},"properties":{"name":"센트럴온누리약국","addr":"울산광역시 북구 박상진12로 11, 지오타워 109호, 110호 (송정동)","sgg":"31200","cap":null,"type":null,"src":"safekorea","asof":"2026-08-22","tel":"052-282-2323"}},{"type":"Feature","geometry":{"type":"Point","coordinates":[129.34386,35.63024]},"properties":{"name":"희망온누리약국","addr":"울산광역시 북구 아진로 31, 현동메디칼 101호 (상안동)","sgg":"31200","cap":null,"type":null,"src":"safekorea","asof":"2026-08-22","tel":"052-282-6550"}},{"type":"Feature","geometry":{"type":"Point","coordinates":[129.3566,35.55397]},"properties":{"name":"지원약국","addr":"울산광역시 북구 명촌로 75, 미남빌딩 1층 (명촌동)","sgg":"31200","cap":null,"type":null,"src":"safekorea","asof":"2026-08-22","tel":"052-283-1871"}},{"type":"Feature","geometry":{"type":"Point","coordinates":[129.3621,35.63949]},"properties":{"name":"빛나온누리약국","addr":"울산광역시 북구 매곡산업로 175, 서희파크 104호 (매곡동)","sgg":"31200","cap":null,"type":null,"src":"safekorea","asof":"2026-08-22","tel":"052-297-8310"}},{"type":"Feature","geometry":{"type":"Point","coordinates":[129.32789,35.63867]},"properties":{"name":"대성약국","addr":"울산광역시 북구 천곡길 161  (천곡동)","sgg":"31200","cap":null,"type":null,"src":"safekorea","asof":"2026-08-22","tel":"052-285-2885"}},{"type":"Feature","geometry":{"type":"Point","coordinates":[129.38465,35.5453]},"properties":{"name":"태양약국","addr":"울산광역시 북구 염포로 517 (양정동)","sgg":"31200","cap":null,"type":null,"src":"safekorea","asof":"2026-08-22","tel":"052-288-8807"}},{"type":"Feature","geometry":{"type":"Point","coordinates":[129.35064,35.62847]},"properties":{"name":"밝은약국","addr":"울산광역시 북구 호계로 283, (호계동)","sgg":"31200","cap":null,"type":null,"src":"safekorea","asof":"2026-08-22","tel":"052-295-1832"}},{"type":"Feature","geometry":{"type":"Point","coordinates":[129.34829,35.63273]},"properties":{"name":"신천온누리약국","addr":"울산광역시 북구 호계로 337-10, 2동 1층 (신천동)","sgg":"31200","cap":null,"type":null,"src":"safekorea","asof":"2026-08-22","tel":"052-700-7975"}},{"type":"Feature","geometry":{"type":"Point","coordinates":[129.35875,35.57911]},"properties":{"name":"느티나무약국","addr":"울산광역시 북구 진장유통로 90 (진장동)","sgg":"31200","cap":null,"type":null,"src":"safekorea","asof":"2026-08-22","tel":"052-287-7320"}},{"type":"Feature","geometry":{"type":"Point","coordinates":[129.43963,35.62423]},"properties":{"name":"파마시아마리약국","addr":"울산광역시 북구 산하중앙2로 150, 106호 (산하동)","sgg":"31200","cap":null,"type":null,"src":"safekorea","asof":"2026-08-22","tel":"052-295-1110"}},{"type":"Feature","geometry":{"type":"Point","coordinates":[129.35127,35.6292]},"properties":{"name":"한마음약국","addr":"울산광역시 북구 호계로 292  (호계동)","sgg":"31200","cap":null,"type":null,"src":"safekorea","asof":"2026-08-22","tel":"052-282-0872"}},{"type":"Feature","geometry":{"type":"Point","coordinates":[129.36468,35.60137]},"properties":{"name":"에디슨약국","addr":"울산광역시 북구 박상진13로 3, 1층 (송정동)","sgg":"31200","cap":null,"type":null,"src":"safekorea","asof":"2026-08-22","tel":"052-282-8078"}},{"type":"Feature","geometry":{"type":"Point","coordinates":[129.35881,35.58253]},"properties":{"name":"중앙약국","addr":"울산광역시 북구 산업로 1005, 101호, 102호 (연암동)","sgg":"31200","cap":null,"type":null,"src":"safekorea","asof":"2026-08-22","tel":"070-5014-5782"}},{"type":"Feature","geometry":{"type":"Point","coordinates":[129.35699,35.6423]},"properties":{"name":"수정약국","addr":"울산광역시 북구 괴정1길 110, 1층 (매곡동)","sgg":"31200","cap":null,"type":null,"src":"safekorea","asof":"2026-08-22","tel":"052-285-2344"}},{"type":"Feature","geometry":{"type":"Point","coordinates":[129.35514,35.55329]},"properties":{"name":"한나약국","addr":"울산광역시 북구 명촌로 85, 103호 (명촌동, 평창리비에르아파트2차상가)","sgg":"31200","cap":null,"type":null,"src":"safekorea","asof":"2026-08-22","tel":"052-288-1085"}},{"type":"Feature","geometry":{"type":"Point","coordinates":[129.39134,35.54132]},"properties":{"name":"현대문화약국","addr":"울산광역시 북구 염포로 599  (양정동, 현대사원임대아파트, 현대자동차사택)","sgg":"31200","cap":null,"type":null,"src":"safekorea","asof":"2026-08-22","tel":"052-287-2840"}},{"type":"Feature","geometry":{"type":"Point","coordinates":[129.33232,35.63422]},"properties":{"name":"건우약국","addr":"울산광역시 북구 가재길 87, 1층 (천곡동)","sgg":"31200","cap":null,"type":null,"src":"safekorea","asof":"2026-08-22","tel":"052-293-2324"}},{"type":"Feature","geometry":{"type":"Point","coordinates":[129.35126,35.6447]},"properties":{"name":"햇살약국","addr":"울산광역시 북구 매곡1로 46, 2층 202호(매곡동,대우프라자)","sgg":"31200","cap":null,"type":null,"src":"safekorea","asof":"2026-08-22","tel":"052-293-7282"}},{"type":"Feature","geometry":{"type":"Point","coordinates":[129.35058,35.63251]},"properties":{"name":"호계약국","addr":"울산광역시 북구 호계로 328  (신천동)","sgg":"31200","cap":null,"type":null,"src":"safekorea","asof":"2026-08-22","tel":"070-7715-0399"}},{"type":"Feature","geometry":{"type":"Point","coordinates":[129.35098,35.63185]},"properties":{"name":"농소금강산약국","addr":"울산광역시 북구 호계로 322, 농소금강산약국 (신천동)","sgg":"31200","cap":null,"type":null,"src":"safekorea","asof":"2026-08-22","tel":"052-286-5507"}},{"type":"Feature","geometry":{"type":"Point","coordinates":[129.33782,35.63095]},"properties":{"name":"한가족약국","addr":"울산광역시 북구 아진로 102 (천곡동)","sgg":"31200","cap":null,"type":null,"src":"safekorea","asof":"2026-08-22","tel":"052-298-8111"}},{"type":"Feature","geometry":{"type":"Point","coordinates":[129.34442,35.6288]},"properties":{"name":"정약국","addr":"울산광역시 북구 신답로 35  (상안동)","sgg":"31200","cap":null,"type":null,"src":"safekorea","asof":"2026-08-22","tel":"052-282-4242"}},{"type":"Feature","geometry":{"type":"Point","coordinates":[129.39139,35.53254]},"properties":{"name":"유정약국","addr":"울산광역시 북구 염포로 673 (염포동)","sgg":"31200","cap":null,"type":null,"src":"safekorea","asof":"2026-08-22","tel":"052-287-7587"}},{"type":"Feature","geometry":{"type":"Point","coordinates":[129.33279,35.633]},"properties":{"name":"엄약국","addr":"울산광역시 북구 천곡남로 37 (천곡동)","sgg":"31200","cap":null,"type":null,"src":"safekorea","asof":"2026-08-22","tel":"052-298-2095"}},{"type":"Feature","geometry":{"type":"Point","coordinates":[129.35008,35.63315]},"properties":{"name":"플러스약국","addr":"울산광역시 북구 호계로 332-1, 현대하이플러스 104호 (신천동)","sgg":"31200","cap":null,"type":null,"src":"safekorea","asof":"2026-08-22","tel":"052-286-6780"}},{"type":"Feature","geometry":{"type":"Point","coordinates":[129.36732,35.58859]},"properties":{"name":"무룡메디칼약국","addr":"울산광역시 북구 화봉로 75, (화봉동)","sgg":"31200","cap":null,"type":null,"src":"safekorea","asof":"2026-08-22","tel":"052-289-5344"}},{"type":"Feature","geometry":{"type":"Point","coordinates":[129.35137,35.63129]},"properties":{"name":"농소약국","addr":"울산광역시 북구 제내1길 2, 1층 104호 (신천동, 필그린쇼핑센터)","sgg":"31200","cap":null,"type":null,"src":"safekorea","asof":"2026-08-22","tel":"052-286-0043"}},{"type":"Feature","geometry":{"type":"Point","coordinates":[129.35139,35.62972]},"properties":{"name":"봉봉약국","addr":"울산광역시 북구 호계로 298, 1층 (호계동)","sgg":"31200","cap":null,"type":null,"src":"safekorea","asof":"2026-08-22","tel":"052-293-9366"}},{"type":"Feature","geometry":{"type":"Point","coordinates":[129.38917,35.53579]},"properties":{"name":"대영약국","addr":"울산광역시 북구 염포로 631  (염포동)","sgg":"31200","cap":null,"type":null,"src":"safekorea","asof":"2026-08-22","tel":"052-289-4272"}},{"type":"Feature","geometry":{"type":"Point","coordinates":[129.36404,35.60258]},"properties":{"name":"송정백세약국","addr":"울산광역시 북구 박상진13로 20, 115,116호 (송정동)","sgg":"31200","cap":null,"type":null,"src":"safekorea","asof":"2026-08-22","tel":"052-282-2233"}},{"type":"Feature","geometry":{"type":"Point","coordinates":[129.34298,35.62915]},"properties":{"name":"정성약국","addr":"울산광역시 북구 신답로 48 (상안동)","sgg":"31200","cap":null,"type":null,"src":"safekorea","asof":"2026-08-22","tel":"052-297-9334"}},{"type":"Feature","geometry":{"type":"Point","coordinates":[129.30262,35.48723]},"properties":{"name":"둘리온누리약국","addr":"울산광역시 울주군 청량읍 삼정로 808, 유민클리닉 1층 101호","sgg":"31710","cap":null,"type":null,"src":"safekorea","asof":"2026-08-22","tel":"052-716-6950"}},{"type":"Feature","geometry":{"type":"Point","coordinates":[129.24098,35.57482]},"properties":{"name":"GM약국","addr":"울산광역시 울주군 범서읍 구영로 86, 2층 202,203호 (GM프라자)","sgg":"31710","cap":null,"type":null,"src":"safekorea","asof":"2026-08-22","tel":"052-211-2285"}},{"type":"Feature","geometry":{"type":"Point","coordinates":[129.23942,35.57055]},"properties":{"name":"현대약국","addr":"울산광역시 울주군 범서읍 점촌4길 37","sgg":"31710","cap":null,"type":null,"src":"safekorea","asof":"2026-08-22","tel":"052-248-9570"}},{"type":"Feature","geometry":{"type":"Point","coordinates":[129.12392,35.56495]},"properties":{"name":"제일약국","addr":"울산광역시 울주군 언양읍 헌양길 59","sgg":"31710","cap":null,"type":null,"src":"safekorea","asof":"2026-08-22","tel":"052-254-2346"}},{"type":"Feature","geometry":{"type":"Point","coordinates":[129.28278,35.40994]},"properties":{"name":"튼튼온누리약국","addr":"울산광역시 울주군 온양읍 온양로 102","sgg":"31710","cap":null,"type":null,"src":"safekorea","asof":"2026-08-22","tel":"052-238-0380"}},{"type":"Feature","geometry":{"type":"Point","coordinates":[129.12275,35.57762]},"properties":{"name":"새싹약국","addr":"울산광역시 울주군 언양읍 능골길 39","sgg":"31710","cap":null,"type":null,"src":"safekorea","asof":"2026-08-22","tel":"052-264-8402"}},{"type":"Feature","geometry":{"type":"Point","coordinates":[129.12674,35.56291]},"properties":{"name":"세화약국","addr":"울산광역시 울주군 언양읍 반구대로 815, 1층 (언양읍)","sgg":"31710","cap":null,"type":null,"src":"safekorea","asof":"2026-08-22","tel":"052-254-0321"}},{"type":"Feature","geometry":{"type":"Point","coordinates":[129.12168,35.55962]},"properties":{"name":"강남약국","addr":"울산광역시 울주군 삼남면 중평로 54 (삼남면)","sgg":"31710","cap":null,"type":null,"src":"safekorea","asof":"2026-08-22","tel":"052-264-0222"}},{"type":"Feature","geometry":{"type":"Point","coordinates":[129.25158,35.55224]},"properties":{"name":"키다리약국","addr":"울산광역시 울주군 범서읍 장검길 79","sgg":"31710","cap":null,"type":null,"src":"safekorea","asof":"2026-08-22","tel":"052-223-4512"}},{"type":"Feature","geometry":{"type":"Point","coordinates":[129.31189,35.43455]},"properties":{"name":"밝은누리약국","addr":"울산광역시 울주군 온산읍 덕신1길 5, 1층","sgg":"31710","cap":null,"type":null,"src":"safekorea","asof":"2026-08-22","tel":"052-238-0910"}},{"type":"Feature","geometry":{"type":"Point","coordinates":[129.22695,35.5629]},"properties":{"name":"메디팜울산약국","addr":"울산광역시 울주군 범서읍 천상중앙길 86 (범서읍)","sgg":"31710","cap":null,"type":null,"src":"safekorea","asof":"2026-08-22","tel":"052-242-0220"}},{"type":"Feature","geometry":{"type":"Point","coordinates":[129.09083,35.59012]},"properties":{"name":"가지산약국","addr":"울산광역시 울주군 상북면 상북로 280","sgg":"31710","cap":null,"type":null,"src":"safekorea","asof":"2026-08-22","tel":"052-263-9977"}},{"type":"Feature","geometry":{"type":"Point","coordinates":[129.30475,35.49117]},"properties":{"name":"덕하약국","addr":"울산광역시 울주군 청량읍 덕하로 228","sgg":"31710","cap":null,"type":null,"src":"safekorea","asof":"2026-08-22","tel":"052-268-7595"}},{"type":"Feature","geometry":{"type":"Point","coordinates":[129.11699,35.56705]},"properties":{"name":"우리들약국","addr":"울산광역시 울주군 언양읍 헌양길 175, 103호","sgg":"31710","cap":null,"type":null,"src":"safekorea","asof":"2026-08-22","tel":"052-254-4518"}},{"type":"Feature","geometry":{"type":"Point","coordinates":[129.28341,35.41029]},"properties":{"name":"주약국","addr":"울산광역시 울주군 온양읍 온양로 105","sgg":"31710","cap":null,"type":null,"src":"safekorea","asof":"2026-08-22","tel":"052-239-8568"}},{"type":"Feature","geometry":{"type":"Point","coordinates":[129.22988,35.56173]},"properties":{"name":"으뜸약국","addr":"울산광역시 울주군 범서읍 천상길 17","sgg":"31710","cap":null,"type":null,"src":"safekorea","asof":"2026-08-22","tel":"052-248-7590"}},{"type":"Feature","geometry":{"type":"Point","coordinates":[129.11813,35.56693]},"properties":{"name":"언양온누리약국","addr":"울산광역시 울주군 언양읍 헌양길 156 (언양읍)","sgg":"31710","cap":null,"type":null,"src":"safekorea","asof":"2026-08-22","tel":"052-264-6205"}},{"type":"Feature","geometry":{"type":"Point","coordinates":[129.25689,35.55771]},"properties":{"name":"열린약국","addr":"울산광역시 울주군 범서읍 울밀로 2822 (범서읍)","sgg":"31710","cap":null,"type":null,"src":"safekorea","asof":"2026-08-22","tel":"052-222-1510"}},{"type":"Feature","geometry":{"type":"Point","coordinates":[129.26208,35.55617]},"properties":{"name":"바른약국","addr":"울산광역시 울주군 범서읍 굴화2길 2 (범서읍)","sgg":"31710","cap":null,"type":null,"src":"safekorea","asof":"2026-08-22","tel":"052-225-0679"}},{"type":"Feature","geometry":{"type":"Point","coordinates":[129.30991,35.43385]},"properties":{"name":"건강드림약국","addr":"울산광역시 울주군 온산읍 덕신로 259, 1층","sgg":"31710","cap":null,"type":null,"src":"safekorea","asof":"2026-08-22","tel":"052-237-5481"}},{"type":"Feature","geometry":{"type":"Point","coordinates":[129.30889,35.43376]},"properties":{"name":"새온산약국","addr":"울산광역시 울주군 온산읍 덕신로 251","sgg":"31710","cap":null,"type":null,"src":"safekorea","asof":"2026-08-22","tel":"052-922-5757"}},{"type":"Feature","geometry":{"type":"Point","coordinates":[129.22529,35.56253]},"properties":{"name":"주노온누리약국","addr":"울산광역시 울주군 범서읍 천상중앙길 102, 1층 102호","sgg":"31710","cap":null,"type":null,"src":"safekorea","asof":"2026-08-22","tel":"052-211-2260"}},{"type":"Feature","geometry":{"type":"Point","coordinates":[129.1142,35.55808]},"properties":{"name":"나누리약국","addr":"울산광역시 울주군 삼남면 서향교1길 67-6 (삼남면)","sgg":"31710","cap":null,"type":null,"src":"safekorea","asof":"2026-08-22","tel":"052-264-0006"}},{"type":"Feature","geometry":{"type":"Point","coordinates":[129.28005,35.41236]},"properties":{"name":"태선약국","addr":"울산광역시 울주군 온양읍 대운길 15","sgg":"31710","cap":null,"type":null,"src":"safekorea","asof":"2026-08-22","tel":"052-707-8272"}},{"type":"Feature","geometry":{"type":"Point","coordinates":[129.24302,35.57008]},"properties":{"name":"대림약국","addr":"울산광역시 울주군 범서읍 구영로 142, 1층","sgg":"31710","cap":null,"type":null,"src":"safekorea","asof":"2026-08-22","tel":"052-242-7575"}},{"type":"Feature","geometry":{"type":"Point","coordinates":[129.29311,35.40966]},"properties":{"name":"온양밝은약국","addr":"울산광역시 울주군 온양읍 보곡2길 30-38, 1층 102호","sgg":"31710","cap":null,"type":null,"src":"safekorea","asof":"2026-08-22","tel":"052-238-8852"}},{"type":"Feature","geometry":{"type":"Point","coordinates":[129.31193,35.43424]},"properties":{"name":"온정약국","addr":"울산광역시 울주군 온산읍 덕신로 279, 수산업협동조합(온산점) 1층","sgg":"31710","cap":null,"type":null,"src":"safekorea","asof":"2026-08-22","tel":"052-237-1237"}},{"type":"Feature","geometry":{"type":"Point","coordinates":[129.12516,35.56475]},"properties":{"name":"호호약국","addr":"울산광역시 울주군 언양읍 헌양길 37, 1층","sgg":"31710","cap":null,"type":null,"src":"safekorea","asof":"2026-08-22","tel":"052-716-2366"}},{"type":"Feature","geometry":{"type":"Point","coordinates":[129.12133,35.56006]},"properties":{"name":"새우리약국","addr":"울산광역시 울주군 삼남면 중평로 57","sgg":"31710","cap":null,"type":null,"src":"safekorea","asof":"2026-08-22","tel":"052-263-6868"}},{"type":"Feature","geometry":{"type":"Point","coordinates":[129.28257,35.40914]},"properties":{"name":"미소약국","addr":"울산광역시 울주군 온양읍 연안2길 13","sgg":"31710","cap":null,"type":null,"src":"safekorea","asof":"2026-08-22","tel":"052-237-7535"}},{"type":"Feature","geometry":{"type":"Point","coordinates":[129.32366,35.34875]},"properties":{"name":"서생봄약국","addr":"울산광역시 울주군 서생면 해맞이로 875, 1층","sgg":"31710","cap":null,"type":null,"src":"safekorea","asof":"2026-08-22","tel":"052-239-2370"}},{"type":"Feature","geometry":{"type":"Point","coordinates":[129.12669,35.56437]},"properties":{"name":"나은약국","addr":"울산광역시 울주군 언양읍 헌양길 16, 1층","sgg":"31710","cap":null,"type":null,"src":"safekorea","asof":"2026-08-22","tel":"052-263-0047"}},{"type":"Feature","geometry":{"type":"Point","coordinates":[129.30493,35.43427]},"properties":{"name":"재연약국","addr":"울산광역시 울주군 온산읍 덕신로 217, 105호","sgg":"31710","cap":null,"type":null,"src":"safekorea","asof":"2026-08-22","tel":"052-237-1012"}},{"type":"Feature","geometry":{"type":"Point","coordinates":[129.28253,35.41038]},"properties":{"name":"새마을약국","addr":"울산광역시 울주군 온양읍 대안3길 58, 1층 2호","sgg":"31710","cap":null,"type":null,"src":"safekorea","asof":"2026-08-22","tel":"052-239-3843"}},{"type":"Feature","geometry":{"type":"Point","coordinates":[129.12273,35.5651]},"properties":{"name":"김약국","addr":"울산광역시 울주군 언양읍 헌양길 78","sgg":"31710","cap":null,"type":null,"src":"safekorea","asof":"2026-08-22","tel":"052-262-1156"}},{"type":"Feature","geometry":{"type":"Point","coordinates":[129.12753,35.56335]},"properties":{"name":"언양메디칼약국","addr":"울산광역시 울주군 언양읍 반구대로 822","sgg":"31710","cap":null,"type":null,"src":"safekorea","asof":"2026-08-22","tel":"052-264-9337"}},{"type":"Feature","geometry":{"type":"Point","coordinates":[129.28012,35.41107]},"properties":{"name":"다리걸중앙약국","addr":"울산광역시 울주군 온양읍 온양로 73-2 (온양읍)","sgg":"31710","cap":null,"type":null,"src":"safekorea","asof":"2026-08-22","tel":"052-238-7778"}},{"type":"Feature","geometry":{"type":"Point","coordinates":[129.30512,35.49172]},"properties":{"name":"동아약국","addr":"울산광역시 울주군 청량면 덕하로 234","sgg":"31710","cap":null,"type":null,"src":"safekorea","asof":"2026-08-22","tel":"052-268-4647"}},{"type":"Feature","geometry":{"type":"Point","coordinates":[129.3078,35.44044]},"properties":{"name":"오렌지약국","addr":"울산광역시 울주군 온산읍 영남6길 20 (온산읍)","sgg":"31710","cap":null,"type":null,"src":"safekorea","asof":"2026-08-22","tel":"052-237-2332"}},{"type":"Feature","geometry":{"type":"Point","coordinates":[129.12043,35.55926]},"properties":{"name":"서울산조은약국","addr":"울산광역시 울주군 삼남면 남상평2길 6-4","sgg":"31710","cap":null,"type":null,"src":"safekorea","asof":"2026-08-22","tel":"052-262-8001"}},{"type":"Feature","geometry":{"type":"Point","coordinates":[129.12253,35.56425]},"properties":{"name":"백약국","addr":"울산광역시 울주군 언양읍 남문길 12 (언양읍)","sgg":"31710","cap":null,"type":null,"src":"safekorea","asof":"2026-08-22","tel":"052-254-0130"}},{"type":"Feature","geometry":{"type":"Point","coordinates":[129.12502,35.5652]},"properties":{"name":"임약국","addr":"울산광역시 울주군 언양읍 헌양길 46","sgg":"31710","cap":null,"type":null,"src":"safekorea","asof":"2026-08-22","tel":"052-262-0073"}},{"type":"Feature","geometry":{"type":"Point","coordinates":[129.31029,35.43353]},"properties":{"name":"덕신약국","addr":"울산광역시 울주군 온산읍 덕신로 264, 1층","sgg":"31710","cap":null,"type":null,"src":"safekorea","asof":"2026-08-22","tel":"052-238-3761"}},{"type":"Feature","geometry":{"type":"Point","coordinates":[129.1263,35.56428]},"properties":{"name":"동신약국","addr":"울산광역시 울주군 언양읍 헌양길 19 (언양읍)","sgg":"31710","cap":null,"type":null,"src":"safekorea","asof":"2026-08-22","tel":"0522621431"}},{"type":"Feature","geometry":{"type":"Point","coordinates":[129.28233,35.40852]},"properties":{"name":"우리약국","addr":"울산광역시 울주군 온양읍 연안2길 19,","sgg":"31710","cap":null,"type":null,"src":"safekorea","asof":"2026-08-22","tel":"052-239-8275"}},{"type":"Feature","geometry":{"type":"Point","coordinates":[129.34209,35.38446]},"properties":{"name":"진하우리약국","addr":"울산광역시 울주군 서생면 깨목1길 29","sgg":"31710","cap":null,"type":null,"src":"safekorea","asof":"2026-08-22","tel":"052-238-8677"}},{"type":"Feature","geometry":{"type":"Point","coordinates":[129.22776,35.56306]},"properties":{"name":"천상약국","addr":"울산광역시 울주군 범서읍 천상중앙길 80","sgg":"31710","cap":null,"type":null,"src":"safekorea","asof":"2026-08-22","tel":"052-211-8418"}},{"type":"Feature","geometry":{"type":"Point","coordinates":[129.31006,35.43348]},"properties":{"name":"큰사랑약국","addr":"울산광역시 울주군 온산읍 덕신로 262","sgg":"31710","cap":null,"type":null,"src":"safekorea","asof":"2026-08-22","tel":"052-237-5578"}},{"type":"Feature","geometry":{"type":"Point","coordinates":[129.11711,35.56524]},"properties":{"name":"하나약국","addr":"울산광역시 울주군 언양읍 읍성로 7","sgg":"31710","cap":null,"type":null,"src":"safekorea","asof":"2026-08-22","tel":"052-254-5332"}},{"type":"Feature","geometry":{"type":"Point","coordinates":[129.12504,35.56539]},"properties":{"name":"효성약국","addr":"울산광역시 울주군 언양읍 동문길 65 (언양읍)","sgg":"31710","cap":null,"type":null,"src":"safekorea","asof":"2026-08-22","tel":"052-263-0890"}},{"type":"Feature","geometry":{"type":"Point","coordinates":[129.20884,35.46485]},"properties":{"name":"사상오체사성명인당약국","addr":"울산광역시 울주군 웅촌면 곡천동문길 16-1, 1층","sgg":"31710","cap":null,"type":null,"src":"safekorea","asof":"2026-08-22","tel":"052-224-8897"}},{"type":"Feature","geometry":{"type":"Point","coordinates":[129.12216,35.56439]},"properties":{"name":"진주약국","addr":"울산광역시 울주군 언양읍 남문길 13","sgg":"31710","cap":null,"type":null,"src":"safekorea","asof":"2026-08-22","tel":"052-254-3917"}},{"type":"Feature","geometry":{"type":"Point","coordinates":[129.2392,35.49354]},"properties":{"name":"쌍용늘푸른약국","addr":"울산광역시 울주군 청량읍 삼정로 92, 24동 104호","sgg":"31710","cap":null,"type":null,"src":"safekorea","asof":"2026-08-22","tel":"052-222-3344"}},{"type":"Feature","geometry":{"type":"Point","coordinates":[129.31049,35.43225]},"properties":{"name":"덕신중앙약국","addr":"울산광역시 울주군 온산읍 덕남로 27","sgg":"31710","cap":null,"type":null,"src":"safekorea","asof":"2026-08-22","tel":"052-238-8017"}},{"type":"Feature","geometry":{"type":"Point","coordinates":[129.1274,35.56306]},"properties":{"name":"한결약국","addr":"울산광역시 울주군 언양읍 반구대로 818","sgg":"31710","cap":null,"type":null,"src":"safekorea","asof":"2026-08-22","tel":"052-254-7798"}},{"type":"Feature","geometry":{"type":"Point","coordinates":[129.31046,35.43356]},"properties":{"name":"천지인약국","addr":"울산광역시 울주군 온산읍 덕신로 266","sgg":"31710","cap":null,"type":null,"src":"safekorea","asof":"2026-08-22","tel":"052-237-7230"}}]}