{"type":"FeatureCollection","features":[{"type":"Feature","geometry":{"type":"Point","coordinates":[127.36718,36.5291]},"properties":{"name":"부광약국","addr":"세종특별자치시 부강면 부강4길 5-1","sgg":"36110","cap":null,"type":null,"src":"safekorea","asof":"2026-08-22","tel":"044-905-3010"}},{"type":"Feature","geometry":{"type":"Point","coordinates":[127.25248,36.48459]},"properties":{"name":"효약국","addr":"세종특별자치시 새롬중앙로 34, 크리스마스빌딩 103호 (새롬동)","sgg":"36110","cap":null,"type":null,"src":"safekorea","asof":"2026-08-22","tel":"0448630728"}},{"type":"Feature","geometry":{"type":"Point","coordinates":[127.25099,36.48664]},"properties":{"name":"영광약국","addr":"세종특별자치시 새롬중앙로 64, 세종영광프라자 1층 (새롬동)","sgg":"36110","cap":null,"type":null,"src":"safekorea","asof":"2026-08-22","tel":"044-866-8811"}},{"type":"Feature","geometry":{"type":"Point","coordinates":[127.29842,36.60097]},"properties":{"name":"다나약국","addr":"세종특별자치시  조치원읍 새내로 102","sgg":"36110","cap":null,"type":null,"src":"safekorea","asof":"2026-08-22","tel":"044-866-2700"}},{"type":"Feature","geometry":{"type":"Point","coordinates":[127.30176,36.60151]},"properties":{"name":"허약국","addr":"세종특별자치시  조치원읍 조치원로 42-2","sgg":"36110","cap":null,"type":null,"src":"safekorea","asof":"2026-08-22","tel":"044-865-7900"}},{"type":"Feature","geometry":{"type":"Point","coordinates":[127.30012,36.60168]},"properties":{"name":"바다약국","addr":"세종특별자치시 조치원읍 조치원로 31","sgg":"36110","cap":null,"type":null,"src":"safekorea","asof":"2026-08-22","tel":"044-866-2070"}},{"type":"Feature","geometry":{"type":"Point","coordinates":[127.20429,36.67925]},"properties":{"name":"삼성약국","addr":"세종특별자치시 전의면 운주산로 1193","sgg":"36110","cap":null,"type":null,"src":"safekorea","asof":"2026-08-22","tel":"044-863-2043"}},{"type":"Feature","geometry":{"type":"Point","coordinates":[127.28121,36.46886]},"properties":{"name":"강약국","addr":"세종특별자치시 금남면 용포로 116, 103호","sgg":"36110","cap":null,"type":null,"src":"safekorea","asof":"2026-08-22","tel":"044-866-0920"}},{"type":"Feature","geometry":{"type":"Point","coordinates":[127.29889,36.59945]},"properties":{"name":"성지약국","addr":"세종특별자치시 조치원읍 새내8길 7, 102호","sgg":"36110","cap":null,"type":null,"src":"safekorea","asof":"2026-08-22","tel":"044-868-0167"}},{"type":"Feature","geometry":{"type":"Point","coordinates":[127.29705,36.6008]},"properties":{"name":"역전약국","addr":"세종특별자치시 조치원읍 으뜸길 208","sgg":"36110","cap":null,"type":null,"src":"safekorea","asof":"2026-08-22","tel":"044-865-2169"}},{"type":"Feature","geometry":{"type":"Point","coordinates":[127.28282,36.56312]},"properties":{"name":"건강약국","addr":"세종특별자치시 연서면 당산로 353","sgg":"36110","cap":null,"type":null,"src":"safekorea","asof":"2026-08-22","tel":"044-867-0862"}},{"type":"Feature","geometry":{"type":"Point","coordinates":[127.29815,36.60287]},"properties":{"name":"우리들약국","addr":"세종특별자치시 조치원읍 새내로 122, 메가박스 126~127호","sgg":"36110","cap":null,"type":null,"src":"safekorea","asof":"2026-08-22","tel":"044-868-8503"}},{"type":"Feature","geometry":{"type":"Point","coordinates":[127.29859,36.60057]},"properties":{"name":"조치원약국","addr":"세종특별자치시 조치원읍 새내로 98","sgg":"36110","cap":null,"type":null,"src":"safekorea","asof":"2026-08-22","tel":"044-865-3873"}},{"type":"Feature","geometry":{"type":"Point","coordinates":[127.25295,36.50481]},"properties":{"name":"차와약국","addr":"세종특별자치시 달빛로 80, 3동 1층 304호 (종촌동, 가재마을 12단지)","sgg":"36110","cap":null,"type":null,"src":"safekorea","asof":"2026-08-22","tel":"044-863-3813"}},{"type":"Feature","geometry":{"type":"Point","coordinates":[127.31173,36.49805]},"properties":{"name":"반곡수약국","addr":"세종특별자치시 한누리대로 1828, 시드니블루 103호 (반곡동)","sgg":"36110","cap":null,"type":null,"src":"safekorea","asof":"2026-08-22","tel":"044-866-0511"}},{"type":"Feature","geometry":{"type":"Point","coordinates":[127.31212,36.49809]},"properties":{"name":"반곡중앙약국","addr":"세종특별자치시 한누리대로 1824, 1층 111호 (반곡동)","sgg":"36110","cap":null,"type":null,"src":"safekorea","asof":"2026-08-22","tel":"044-865-7783"}},{"type":"Feature","geometry":{"type":"Point","coordinates":[127.29881,36.59825]},"properties":{"name":"샬롬약국","addr":"세종특별자치시 조치원읍 새내로 72","sgg":"36110","cap":null,"type":null,"src":"safekorea","asof":"2026-08-22","tel":"044-864-3478"}},{"type":"Feature","geometry":{"type":"Point","coordinates":[127.25122,36.48692]},"properties":{"name":"새롬정약국","addr":"세종특별자치시 새롬중앙로 62-15, 해피라움W 402호 (새롬동)","sgg":"36110","cap":null,"type":null,"src":"safekorea","asof":"2026-08-22","tel":"044-715-5502"}},{"type":"Feature","geometry":{"type":"Point","coordinates":[127.23439,36.50504]},"properties":{"name":"참고운약국","addr":"세종특별자치시 마음로 70, 1층 104호 (고운동, 에셀프라자)","sgg":"36110","cap":null,"type":null,"src":"safekorea","asof":"2026-08-22","tel":"044-998-2463"}},{"type":"Feature","geometry":{"type":"Point","coordinates":[127.26225,36.47962]},"properties":{"name":"NK드림약국","addr":"세종특별자치시 한누리대로 161, 세종시 NK리움힐 상가 1층 115호 (나성동)","sgg":"36110","cap":null,"type":null,"src":"safekorea","asof":"2026-08-22","tel":"044-867-4408"}},{"type":"Feature","geometry":{"type":"Point","coordinates":[127.2718,36.52613]},"properties":{"name":"해밀리약국","addr":"세종특별자치시 갈매로 740, 해밀리프라자 A101호 (해밀동)","sgg":"36110","cap":null,"type":null,"src":"safekorea","asof":"2026-08-22","tel":"044-862-0784"}},{"type":"Feature","geometry":{"type":"Point","coordinates":[127.24855,36.49499]},"properties":{"name":"한사랑약국","addr":"세종특별자치시 다정중앙로 51, 더다정빌딩 103-104호 (다정동)","sgg":"36110","cap":null,"type":null,"src":"safekorea","asof":"2026-08-22","tel":"044-865-7003"}},{"type":"Feature","geometry":{"type":"Point","coordinates":[127.28121,36.46841]},"properties":{"name":"대평약국","addr":"세종특별자치시 금남면 용포로 113 (금남면)","sgg":"36110","cap":null,"type":null,"src":"safekorea","asof":"2026-08-22","tel":"044-866-2026"}},{"type":"Feature","geometry":{"type":"Point","coordinates":[127.29778,36.60199]},"properties":{"name":"믿음약국","addr":"세종특별자치시 조치원읍 새내로 113-1 (조치원읍)","sgg":"36110","cap":null,"type":null,"src":"safekorea","asof":"2026-08-22","tel":"044-862-8088"}},{"type":"Feature","geometry":{"type":"Point","coordinates":[127.25654,36.51584]},"properties":{"name":"충대십자약국","addr":"세종특별자치시 다솜1로 200, 408동 103호,104호 (도담동, 도램마을 4단지)","sgg":"36110","cap":null,"type":null,"src":"safekorea","asof":"2026-08-22","tel":"044-555-0263"}},{"type":"Feature","geometry":{"type":"Point","coordinates":[127.2901,36.47741]},"properties":{"name":"서울약국","addr":"세종특별자치시 남세종로 450, 보람빌딩 104호 (보람동)","sgg":"36110","cap":null,"type":null,"src":"safekorea","asof":"2026-08-22","tel":"044-863-8871"}},{"type":"Feature","geometry":{"type":"Point","coordinates":[127.26024,36.48907]},"properties":{"name":"인생약국","addr":"세종특별자치시 나성북로 30, 퍼스트원 542호 (나성동)","sgg":"36110","cap":null,"type":null,"src":"safekorea","asof":"2026-08-22","tel":"0448643713"}},{"type":"Feature","geometry":{"type":"Point","coordinates":[127.25583,36.49393]},"properties":{"name":"더오케이약국","addr":"세종특별자치시 한누리대로 331, 1층 129호 (나성동, SR파크센텀)","sgg":"36110","cap":null,"type":null,"src":"safekorea","asof":"2026-08-22","tel":"044-863-0600"}},{"type":"Feature","geometry":{"type":"Point","coordinates":[127.24374,36.50393]},"properties":{"name":"경희당약국","addr":"세종특별자치시 도움3로 159, 상가동 103호 (종촌동, 가재마을3단지)","sgg":"36110","cap":null,"type":null,"src":"safekorea","asof":"2026-08-22","tel":"044-863-3214"}},{"type":"Feature","geometry":{"type":"Point","coordinates":[127.23398,36.50585]},"properties":{"name":"늘푸른약국","addr":"세종특별자치시 고운서길 19, 세종 스마트큐브Ⅰ 110호 (고운동)","sgg":"36110","cap":null,"type":null,"src":"safekorea","asof":"2026-08-22","tel":"044-866-7289"}},{"type":"Feature","geometry":{"type":"Point","coordinates":[127.25022,36.48688]},"properties":{"name":"365열린약국","addr":"세종특별자치시 새롬중앙로 67, 오렌지빌딩 105호 (새롬동)","sgg":"36110","cap":null,"type":null,"src":"safekorea","asof":"2026-08-22","tel":"0445553658"}},{"type":"Feature","geometry":{"type":"Point","coordinates":[127.26181,36.48023]},"properties":{"name":"한아름약국","addr":"세종특별자치시 한누리대로 169, 세종행복타워 116호 (나성동)","sgg":"36110","cap":null,"type":null,"src":"safekorea","asof":"2026-08-22","tel":"044-867-5399"}},{"type":"Feature","geometry":{"type":"Point","coordinates":[127.25676,36.51813]},"properties":{"name":"가까운세종충대약국","addr":"세종특별자치시 다솜1로 220, 101,102,201호 (도담동, 도램마을 5단지)","sgg":"36110","cap":null,"type":null,"src":"safekorea","asof":"2026-08-22","tel":"044-863-8201"}},{"type":"Feature","geometry":{"type":"Point","coordinates":[127.1568,36.71864]},"properties":{"name":"소정약국","addr":"세종특별자치시 소정면 소정구길 164, 101호","sgg":"36110","cap":null,"type":null,"src":"safekorea","asof":"2026-08-22","tel":"0448659962"}},{"type":"Feature","geometry":{"type":"Point","coordinates":[127.23141,36.51712]},"properties":{"name":"사랑채한약국","addr":"세종특별자치시 마음로 224, 2층 (고운동)","sgg":"36110","cap":null,"type":null,"src":"safekorea","asof":"2026-08-22","tel":"044-864-9275"}},{"type":"Feature","geometry":{"type":"Point","coordinates":[127.25845,36.51593]},"properties":{"name":"대학로약국","addr":"세종특별자치시 한누리대로 589, 해피라움7 105호 (도담동)","sgg":"36110","cap":null,"type":null,"src":"safekorea","asof":"2026-08-22","tel":"044-862-4543"}},{"type":"Feature","geometry":{"type":"Point","coordinates":[127.26202,36.47994]},"properties":{"name":"메디팜세종약국","addr":"세종특별자치시 한누리대로 165, 104호 (나성동, 세종메디피아)","sgg":"36110","cap":null,"type":null,"src":"safekorea","asof":"2026-08-22","tel":"044-862-6229"}},{"type":"Feature","geometry":{"type":"Point","coordinates":[127.24947,36.51191]},"properties":{"name":"새빛약국","addr":"세종특별자치시 보듬3로 92 (아름동) 402호, 해피라움 2상가","sgg":"36110","cap":null,"type":null,"src":"safekorea","asof":"2026-08-22","tel":"044-868-5402"}},{"type":"Feature","geometry":{"type":"Point","coordinates":[127.24362,36.51162]},"properties":{"name":"아람약국","addr":"세종특별자치시 보듬3로 143, 대영프라자 102호 (아름동)","sgg":"36110","cap":null,"type":null,"src":"safekorea","asof":"2026-08-22","tel":"044-862-5265"}},{"type":"Feature","geometry":{"type":"Point","coordinates":[127.2897,36.47725]},"properties":{"name":"보람약국","addr":"세종특별자치시 남세종로 454, 강남제일타워 1층 102호 (보람동)","sgg":"36110","cap":null,"type":null,"src":"safekorea","asof":"2026-08-22","tel":"070-7799-6423"}},{"type":"Feature","geometry":{"type":"Point","coordinates":[127.29804,36.6004]},"properties":{"name":"조치원햇살약국","addr":"세종특별자치시 조치원읍 새내로 97","sgg":"36110","cap":null,"type":null,"src":"safekorea","asof":"2026-08-22","tel":"044-867-8787"}},{"type":"Feature","geometry":{"type":"Point","coordinates":[127.28975,36.47857]},"properties":{"name":"병아리약국","addr":"세종특별자치시 한누리대로 2129, 스타힐타워2 105호 (보람동)","sgg":"36110","cap":null,"type":null,"src":"safekorea","asof":"2026-08-22","tel":"044-863-8273"}},{"type":"Feature","geometry":{"type":"Point","coordinates":[127.29963,36.48501]},"properties":{"name":"미소약국","addr":"세종특별자치시 한누리대로 2016, 1층 105호 (소담동, 타임빌딩)","sgg":"36110","cap":null,"type":null,"src":"safekorea","asof":"2026-08-22","tel":"044-862-9575"}},{"type":"Feature","geometry":{"type":"Point","coordinates":[127.25767,36.48607]},"properties":{"name":"세종사랑약국","addr":"세종특별자치시 한누리대로 245, 에스알파크원 119호 (나성동)","sgg":"36110","cap":null,"type":null,"src":"safekorea","asof":"2026-08-22","tel":"044-862-0280"}},{"type":"Feature","geometry":{"type":"Point","coordinates":[127.25723,36.49543]},"properties":{"name":"뱅크약국","addr":"세종특별자치시 한누리대로 350, 뱅크빌딩 1층 109호 (어진동)","sgg":"36110","cap":null,"type":null,"src":"safekorea","asof":"2026-08-22","tel":"070-7758-3124"}},{"type":"Feature","geometry":{"type":"Point","coordinates":[127.30353,36.4916]},"properties":{"name":"더건강한약국","addr":"세종특별자치시 한누리대로 1934, 메인타워 105~106호 (반곡동)","sgg":"36110","cap":null,"type":null,"src":"safekorea","asof":"2026-08-22","tel":"044-415-1870"}},{"type":"Feature","geometry":{"type":"Point","coordinates":[127.26112,36.50806]},"properties":{"name":"이화약국","addr":"세종특별자치시 한누리대로 499, 청암빌딩 2층 203(일부)호 (어진동)","sgg":"36110","cap":null,"type":null,"src":"safekorea","asof":"2026-08-22","tel":"044-866-6115"}},{"type":"Feature","geometry":{"type":"Point","coordinates":[127.29914,36.48446]},"properties":{"name":"세종햇살약국","addr":"세종특별자치시 한누리대로 2022, 아이콤스타타워 1층 103호 (소담동)","sgg":"36110","cap":null,"type":null,"src":"safekorea","asof":"2026-08-22","tel":"044-865-9993"}},{"type":"Feature","geometry":{"type":"Point","coordinates":[127.2485,36.49562]},"properties":{"name":"가온약국","addr":"세종특별자치시 다정중앙로 57, 다정센타프라자 (다정동)","sgg":"36110","cap":null,"type":null,"src":"safekorea","asof":"2026-08-22","tel":"044-862-8229"}},{"type":"Feature","geometry":{"type":"Point","coordinates":[127.24891,36.51137]},"properties":{"name":"맑음약국","addr":"세종특별자치시 보듬3로 95, 해피라움3 107호 (아름동)","sgg":"36110","cap":null,"type":null,"src":"safekorea","asof":"2026-08-22","tel":"044-272-8898"}},{"type":"Feature","geometry":{"type":"Point","coordinates":[127.24762,36.50268]},"properties":{"name":"도토약국","addr":"세종특별자치시 도움1로 108, 419호 (종촌동, 몰리브)","sgg":"36110","cap":null,"type":null,"src":"safekorea","asof":"2026-08-22","tel":"044-868-4709"}},{"type":"Feature","geometry":{"type":"Point","coordinates":[127.30188,36.48547]},"properties":{"name":"온샘약국","addr":"세종특별자치시 소담로 87, 1층 110호 (소담동)","sgg":"36110","cap":null,"type":null,"src":"safekorea","asof":"2026-08-22","tel":"050-71322-7029"}},{"type":"Feature","geometry":{"type":"Point","coordinates":[127.29784,36.60384]},"properties":{"name":"신흥약국","addr":"세종특별자치시 조치원읍 새내16길 4","sgg":"36110","cap":null,"type":null,"src":"safekorea","asof":"2026-08-22","tel":"044-865-1122"}},{"type":"Feature","geometry":{"type":"Point","coordinates":[127.23459,36.51933]},"properties":{"name":"고운우리약국","addr":"세종특별자치시 마음로 264, 고운프라자 107호 (고운동)","sgg":"36110","cap":null,"type":null,"src":"safekorea","asof":"2026-08-22","tel":"044-417-6141"}},{"type":"Feature","geometry":{"type":"Point","coordinates":[127.30993,36.49788]},"properties":{"name":"세종바름약국","addr":"세종특별자치시 한누리대로 1844, 116호 (반곡동)","sgg":"36110","cap":null,"type":null,"src":"safekorea","asof":"2026-08-22","tel":"0448673258"}},{"type":"Feature","geometry":{"type":"Point","coordinates":[127.26251,36.48984]},"properties":{"name":"넘버원약국","addr":"세종특별자치시 국세청로 45, A동 120호 (나성동, 나릿재마을 3단지)","sgg":"36110","cap":null,"type":null,"src":"safekorea","asof":"2026-08-22","tel":"0448650330"}},{"type":"Feature","geometry":{"type":"Point","coordinates":[127.25638,36.4888]},"properties":{"name":"세종다온약국","addr":"세종특별자치시 한누리대로 275, 형성프라자 112호 (나성동)","sgg":"36110","cap":null,"type":null,"src":"safekorea","asof":"2026-08-22","tel":"044-866-0600"}},{"type":"Feature","geometry":{"type":"Point","coordinates":[127.28925,36.61437]},"properties":{"name":"백일약국","addr":"세종특별자치시 조치원읍 섭골길 38","sgg":"36110","cap":null,"type":null,"src":"safekorea","asof":"2026-08-22","tel":"044-905-0845"}},{"type":"Feature","geometry":{"type":"Point","coordinates":[127.26502,36.52909]},"properties":{"name":"허브약국","addr":"세종특별자치시 해밀3로 51, 스카이허브 101,102호 (해밀동)","sgg":"36110","cap":null,"type":null,"src":"safekorea","asof":"2026-08-22","tel":"0448679685"}},{"type":"Feature","geometry":{"type":"Point","coordinates":[127.25674,36.48782]},"properties":{"name":"아름다운약국","addr":"세종특별자치시 한누리대로 265, 명동프라자 113호 (나성동)","sgg":"36110","cap":null,"type":null,"src":"safekorea","asof":"2026-08-22","tel":"044-864-7131"}},{"type":"Feature","geometry":{"type":"Point","coordinates":[127.31109,36.49798]},"properties":{"name":"다정365약국","addr":"세종특별자치시 한누리대로 1834, 109호 (반곡동)","sgg":"36110","cap":null,"type":null,"src":"safekorea","asof":"2026-08-22","tel":"044-868-6423"}},{"type":"Feature","geometry":{"type":"Point","coordinates":[127.23617,36.5203]},"properties":{"name":"정담 한약국","addr":"세종특별자치시 마음안1로 137, 가락마을18단지 근린생활시설 (고운동)","sgg":"36110","cap":null,"type":null,"src":"safekorea","asof":"2026-08-22","tel":"044-866-1669"}},{"type":"Feature","geometry":{"type":"Point","coordinates":[127.24996,36.50293]},"properties":{"name":"둥지약국","addr":"세종특별자치시  달빛로 45 , 103호 (종촌동, 리버사이드빌딩)","sgg":"36110","cap":null,"type":null,"src":"safekorea","asof":"2026-08-22","tel":"044-862-1246"}},{"type":"Feature","geometry":{"type":"Point","coordinates":[127.25838,36.48972]},"properties":{"name":"세종현약국","addr":"세종특별자치시 나성북로 15, MVG 114호 (나성동)","sgg":"36110","cap":null,"type":null,"src":"safekorea","asof":"2026-08-22","tel":"0448665991"}},{"type":"Feature","geometry":{"type":"Point","coordinates":[127.36694,36.53017]},"properties":{"name":"민약국","addr":"세종특별자치시 부강면 부강2길 12","sgg":"36110","cap":null,"type":null,"src":"safekorea","asof":"2026-08-22","tel":"044-275-4114"}},{"type":"Feature","geometry":{"type":"Point","coordinates":[127.26024,36.48907]},"properties":{"name":"행복약국","addr":"세종특별자치시 나성북로 30, 퍼스트원 636, 637호 (나성동)","sgg":"36110","cap":null,"type":null,"src":"safekorea","asof":"2026-08-22","tel":"044-868-2439"}},{"type":"Feature","geometry":{"type":"Point","coordinates":[127.23372,36.50554]},"properties":{"name":"153약국","addr":"세종특별자치시 마음로 78, 세종 스마트큐브Ⅱ 2층 205호 (고운동)","sgg":"36110","cap":null,"type":null,"src":"safekorea","asof":"2026-08-22","tel":"044-864-1531"}},{"type":"Feature","geometry":{"type":"Point","coordinates":[127.24953,36.50473]},"properties":{"name":"가재약국","addr":"세종특별자치시  도움3로 105-5 , 105호 (종촌동, 종촌중앙프라자)","sgg":"36110","cap":null,"type":null,"src":"safekorea","asof":"2026-08-22","tel":"044-867-3002"}},{"type":"Feature","geometry":{"type":"Point","coordinates":[127.27591,36.47127]},"properties":{"name":"한누리약국","addr":"세종특별자치시 한누리대로 2281, SM메디컬센터 121,122호 (대평동)","sgg":"36110","cap":null,"type":null,"src":"safekorea","asof":"2026-08-22","tel":"044-868-4536"}},{"type":"Feature","geometry":{"type":"Point","coordinates":[127.2607,36.51311]},"properties":{"name":"도담약국","addr":"세종특별자치시 보듬4로 9, 305호 (도담동, 도램마을11단지)","sgg":"36110","cap":null,"type":null,"src":"safekorea","asof":"2026-08-22","tel":"044-865-7770"}},{"type":"Feature","geometry":{"type":"Point","coordinates":[127.25878,36.51342]},"properties":{"name":"라온약국","addr":"세종특별자치시 보듬3로 8-12 101-1호  (도담동)","sgg":"36110","cap":null,"type":null,"src":"safekorea","asof":"2026-08-22","tel":"044-863-7714"}},{"type":"Feature","geometry":{"type":"Point","coordinates":[127.25153,36.47574]},"properties":{"name":"세종선약국","addr":"세종특별자치시 누리로 27, A상가동 1층 111호 (한솔동, 첫마을6단지)","sgg":"36110","cap":null,"type":null,"src":"safekorea","asof":"2026-08-22","tel":"044-905-1118"}},{"type":"Feature","geometry":{"type":"Point","coordinates":[127.24318,36.51166]},"properties":{"name":"해오름약국","addr":"세종특별자치시 아름서1길 13-12, 세종 제이디빌딩 105호 (아름동)","sgg":"36110","cap":null,"type":null,"src":"safekorea","asof":"2026-08-22","tel":"044-999-4761"}},{"type":"Feature","geometry":{"type":"Point","coordinates":[127.27799,36.47261]},"properties":{"name":"우리두리약국","addr":"세종특별자치시 한누리대로 2257, 판타지타워 104호 (대평동)","sgg":"36110","cap":null,"type":null,"src":"safekorea","asof":"2026-08-22","tel":"044-864-1422"}},{"type":"Feature","geometry":{"type":"Point","coordinates":[127.30219,36.4896]},"properties":{"name":"예쁜약국","addr":"세종특별자치시 한누리대로 1958, 법조타운A 1층 112호 (소담동)","sgg":"36110","cap":null,"type":null,"src":"safekorea","asof":"2026-08-22","tel":"0449031472"}},{"type":"Feature","geometry":{"type":"Point","coordinates":[127.243,36.51225]},"properties":{"name":"아이맘약국","addr":"세종특별자치시 보듬3로 150, 아름 행복타워 101호 (아름동)","sgg":"36110","cap":null,"type":null,"src":"safekorea","asof":"2026-08-22","tel":"044-863-9242"}},{"type":"Feature","geometry":{"type":"Point","coordinates":[127.29758,36.60101]},"properties":{"name":"성모약국","addr":"세종특별자치시 조치원읍 조치원2길 5","sgg":"36110","cap":null,"type":null,"src":"safekorea","asof":"2026-08-22","tel":"044-862-2900"}},{"type":"Feature","geometry":{"type":"Point","coordinates":[127.25991,36.4829]},"properties":{"name":"첫마을약국","addr":"세종특별자치시 한누리대로 205, SR파크 도시형생활주택 1층 113호 (나성동)","sgg":"36110","cap":null,"type":null,"src":"safekorea","asof":"2026-08-22","tel":"0507-1415-4678"}},{"type":"Feature","geometry":{"type":"Point","coordinates":[127.23534,36.51958]},"properties":{"name":"고운길약국","addr":"세종특별자치시 마음로 272-4, 고운메디프라자 109,110호 (고운동)","sgg":"36110","cap":null,"type":null,"src":"safekorea","asof":"2026-08-22","tel":"070-7716-7577"}},{"type":"Feature","geometry":{"type":"Point","coordinates":[127.29985,36.48531]},"properties":{"name":"늘봄약국","addr":"세종특별자치시 한누리대로 2012, 코끼리타워 1층 116호 (소담동)","sgg":"36110","cap":null,"type":null,"src":"safekorea","asof":"2026-08-22","tel":"044-863-1629"}},{"type":"Feature","geometry":{"type":"Point","coordinates":[127.25838,36.51672]},"properties":{"name":"셀린약국","addr":"세종특별자치시 보듬5로 6, 주2동 1~2층 (도담동)","sgg":"36110","cap":null,"type":null,"src":"safekorea","asof":"2026-08-22","tel":"044-417-6005"}},{"type":"Feature","geometry":{"type":"Point","coordinates":[127.25122,36.48692]},"properties":{"name":"새롬가온약국","addr":"세종특별자치시 새롬중앙로 62-15, 해피라움W 3층 302호 (새롬동)","sgg":"36110","cap":null,"type":null,"src":"safekorea","asof":"2026-08-22","tel":"044-863-8712"}},{"type":"Feature","geometry":{"type":"Point","coordinates":[127.28949,36.59166]},"properties":{"name":"세종맑은약국","addr":"세종특별자치시 조치원읍 도원1로 16, 상가동 210호 (푸르지오1차)","sgg":"36110","cap":null,"type":null,"src":"safekorea","asof":"2026-08-22","tel":"044-865-9905"}},{"type":"Feature","geometry":{"type":"Point","coordinates":[127.24925,36.49517]},"properties":{"name":"세종코코약국","addr":"세종특별자치시 다정중앙로 52, 페스티발2 1층 107호 (다정동)","sgg":"36110","cap":null,"type":null,"src":"safekorea","asof":"2026-08-22","tel":"044-862-9155"}},{"type":"Feature","geometry":{"type":"Point","coordinates":[127.25848,36.51528]},"properties":{"name":"세종행복약국","addr":"세종특별자치시 한누리대로 583 도담센트럴프라자 1층  (도담동)","sgg":"36110","cap":null,"type":null,"src":"safekorea","asof":"2026-08-22","tel":"044-863-9985"}},{"type":"Feature","geometry":{"type":"Point","coordinates":[127.26243,36.5083]},"properties":{"name":"비타민약국","addr":"세종특별자치시 절재로 194, 104호 (어진동, 세종드림)","sgg":"36110","cap":null,"type":null,"src":"safekorea","asof":"2026-08-22","tel":"044-865-8838"}},{"type":"Feature","geometry":{"type":"Point","coordinates":[127.29915,36.60118]},"properties":{"name":"굿모닝약국","addr":"세종특별자치시 조치원읍 조치원로 22, 1층","sgg":"36110","cap":null,"type":null,"src":"safekorea","asof":"2026-08-22","tel":"044-866-1383"}},{"type":"Feature","geometry":{"type":"Point","coordinates":[127.25894,36.51285]},"properties":{"name":"우리약국","addr":"세종특별자치시 보듬3로 6, 204-1호 (도담동, 라온프라이빗시티2상가)","sgg":"36110","cap":null,"type":null,"src":"safekorea","asof":"2026-08-22","tel":"044-868-5851"}},{"type":"Feature","geometry":{"type":"Point","coordinates":[127.25123,36.48453]},"properties":{"name":"새뜸365약국","addr":"세종특별자치시 새롬중앙로 41, 무지개타워 110호 (새롬동)","sgg":"36110","cap":null,"type":null,"src":"safekorea","asof":"2026-08-22","tel":"044-867-0365"}},{"type":"Feature","geometry":{"type":"Point","coordinates":[127.20438,36.68026]},"properties":{"name":"현대약국","addr":"세종특별자치시 전의면 읍내길 11","sgg":"36110","cap":null,"type":null,"src":"safekorea","asof":"2026-08-22","tel":"044-863-2069"}},{"type":"Feature","geometry":{"type":"Point","coordinates":[127.24223,36.51229]},"properties":{"name":"탄탄온누리약국","addr":"세종특별자치시 보듬3로 158, 아름메디컬센터 1층 109호 (아름동)","sgg":"36110","cap":null,"type":null,"src":"safekorea","asof":"2026-08-22","tel":"044-868-1368"}},{"type":"Feature","geometry":{"type":"Point","coordinates":[127.25894,36.51285]},"properties":{"name":"도램약국","addr":"세종특별자치시 보듬3로 6","sgg":"36110","cap":null,"type":null,"src":"safekorea","asof":"2026-08-22","tel":"044-868-1939"}},{"type":"Feature","geometry":{"type":"Point","coordinates":[127.25033,36.48576]},"properties":{"name":"엘약국","addr":"세종특별자치시 새롬중앙로 55, 103호 (새롬동, 행운빌딩)","sgg":"36110","cap":null,"type":null,"src":"safekorea","asof":"2026-08-22","tel":"044-864-7573"}},{"type":"Feature","geometry":{"type":"Point","coordinates":[127.29419,36.59533]},"properties":{"name":"참좋은약국","addr":"세종특별자치시 조치원읍 대첩로 17","sgg":"36110","cap":null,"type":null,"src":"safekorea","asof":"2026-08-22","tel":"044-868-8687"}},{"type":"Feature","geometry":{"type":"Point","coordinates":[127.29845,36.59835]},"properties":{"name":"대수약국","addr":"세종특별자치시  조치원읍 새내5길 2","sgg":"36110","cap":null,"type":null,"src":"safekorea","asof":"2026-08-22","tel":"044-865-6562"}},{"type":"Feature","geometry":{"type":"Point","coordinates":[127.29888,36.5979]},"properties":{"name":"하나약국","addr":"세종특별자치시 조치원읍 새내로 68","sgg":"36110","cap":null,"type":null,"src":"safekorea","asof":"2026-08-22","tel":"044-866-8569"}},{"type":"Feature","geometry":{"type":"Point","coordinates":[127.28701,36.5927]},"properties":{"name":"하나로약국","addr":"세종특별자치시 조치원읍 도원2로 39","sgg":"36110","cap":null,"type":null,"src":"safekorea","asof":"2026-08-22","tel":"044-863-2231"}},{"type":"Feature","geometry":{"type":"Point","coordinates":[127.2981,36.60018]},"properties":{"name":"감초당 온누리 약국","addr":"세종특별자치시 조치원읍 새내9길 3","sgg":"36110","cap":null,"type":null,"src":"safekorea","asof":"2026-08-22","tel":"044-865-3629"}},{"type":"Feature","geometry":{"type":"Point","coordinates":[127.36827,36.52903]},"properties":{"name":"은사약국","addr":"세종특별자치시 부강면 시장길 26","sgg":"36110","cap":null,"type":null,"src":"safekorea","asof":"2026-08-22","tel":"044-275-9122"}},{"type":"Feature","geometry":{"type":"Point","coordinates":[127.29956,36.60131]},"properties":{"name":"김약국","addr":"세종특별자치시 조치원읍 조치원로 26","sgg":"36110","cap":null,"type":null,"src":"safekorea","asof":"2026-08-22","tel":"044-865-5331"}},{"type":"Feature","geometry":{"type":"Point","coordinates":[127.26229,36.50739]},"properties":{"name":"청암약국","addr":"세종특별자치시 한누리대로 492, 청암빌딩 (어진동)","sgg":"36110","cap":null,"type":null,"src":"safekorea","asof":"2026-08-22","tel":"044-863-8278"}},{"type":"Feature","geometry":{"type":"Point","coordinates":[127.29909,36.59741]},"properties":{"name":"새건강약국","addr":"세종특별자치시  조치원읍 새내4길 3","sgg":"36110","cap":null,"type":null,"src":"safekorea","asof":"2026-08-22","tel":"044-862-2169"}},{"type":"Feature","geometry":{"type":"Point","coordinates":[127.25253,36.47986]},"properties":{"name":"한솔약국","addr":"세종특별자치시 누리로 106, 송원프라자 107호 (한솔동)","sgg":"36110","cap":null,"type":null,"src":"safekorea","asof":"2026-08-22","tel":"0448683699"}},{"type":"Feature","geometry":{"type":"Point","coordinates":[127.27786,36.5452]},"properties":{"name":"남면약국","addr":"세종특별자치시 연기면 당산로 132-1","sgg":"36110","cap":null,"type":null,"src":"safekorea","asof":"2026-08-22","tel":"044-863-7720"}},{"type":"Feature","geometry":{"type":"Point","coordinates":[127.20554,36.49745]},"properties":{"name":"장기약국","addr":"세종특별자치시  장군면 장척로 405-2","sgg":"36110","cap":null,"type":null,"src":"safekorea","asof":"2026-08-22","tel":"044-857-1700"}},{"type":"Feature","geometry":{"type":"Point","coordinates":[127.24229,36.49656]},"properties":{"name":"올약국","addr":"세종특별자치시 다정북로 109, 상가동 1층 109호 (다정동, 가온마을3단지)","sgg":"36110","cap":null,"type":null,"src":"safekorea","asof":"2026-08-22","tel":"044-864-0170"}},{"type":"Feature","geometry":{"type":"Point","coordinates":[127.2592,36.4805]},"properties":{"name":"건강한약국","addr":"세종특별자치시 노을3로 29, 102호 (한솔동, 세종프라자)","sgg":"36110","cap":null,"type":null,"src":"safekorea","asof":"2026-08-22","tel":"044-867-4678"}},{"type":"Feature","geometry":{"type":"Point","coordinates":[127.29846,36.60042]},"properties":{"name":"십자약국","addr":"세종특별자치시  조치원읍 새내로 96","sgg":"36110","cap":null,"type":null,"src":"safekorea","asof":"2026-08-22","tel":"044-868-7705"}},{"type":"Feature","geometry":{"type":"Point","coordinates":[127.25487,36.49145]},"properties":{"name":"세종권약국","addr":"세종특별자치시 가온로 8, 104호 (다정동)","sgg":"36110","cap":null,"type":null,"src":"safekorea","asof":"2026-08-22","tel":"044-868-5850"}},{"type":"Feature","geometry":{"type":"Point","coordinates":[127.23527,36.51849]},"properties":{"name":"두루약국","addr":"세종특별자치시 마음로 272-17, 105호 (고운동)","sgg":"36110","cap":null,"type":null,"src":"safekorea","asof":"2026-08-22","tel":"044-864-2688"}},{"type":"Feature","geometry":{"type":"Point","coordinates":[127.25648,36.48852]},"properties":{"name":"더세종약국","addr":"세종특별자치시 한누리대로 273 (나성동)","sgg":"36110","cap":null,"type":null,"src":"safekorea","asof":"2026-08-22","tel":"044-865-0205"}},{"type":"Feature","geometry":{"type":"Point","coordinates":[127.26776,36.53084]},"properties":{"name":"경희 정원한약국","addr":"세종특별자치시 해밀3로 85, S001동 1층 124호 (해밀동, 해밀마을 행복주택)","sgg":"36110","cap":null,"type":null,"src":"safekorea","asof":"2026-08-22","tel":"044-903-1175"}},{"type":"Feature","geometry":{"type":"Point","coordinates":[127.25676,36.51813]},"properties":{"name":"가감 충대정문약국","addr":"세종특별자치시 다솜1로 220, 509동 103~104호 (도담동, 도램마을 5단지)","sgg":"36110","cap":null,"type":null,"src":"safekorea","asof":"2026-08-22","tel":"044-868-2266"}},{"type":"Feature","geometry":{"type":"Point","coordinates":[127.26223,36.5078]},"properties":{"name":"드림약국","addr":"세종특별자치시 한누리대로 496, 101, 102호 (어진동, 세종리슈빌S)","sgg":"36110","cap":null,"type":null,"src":"safekorea","asof":"2026-08-22","tel":"044-866-2242"}},{"type":"Feature","geometry":{"type":"Point","coordinates":[127.25575,36.51694]},"properties":{"name":"세종충대약국","addr":"세종특별자치시  도담서4길 3, 1층 (도담동)","sgg":"36110","cap":null,"type":null,"src":"safekorea","asof":"2026-08-22","tel":"044-864-1533"}},{"type":"Feature","geometry":{"type":"Point","coordinates":[127.2586,36.5143]},"properties":{"name":"참빛약국","addr":"세종특별자치시 보듬3로 8-20, 세종한신휴시티 120,121호 (도담동)","sgg":"36110","cap":null,"type":null,"src":"safekorea","asof":"2026-08-22","tel":"044-866-5590"}},{"type":"Feature","geometry":{"type":"Point","coordinates":[127.2897,36.47725]},"properties":{"name":"메디팜큰사랑약국","addr":"세종특별자치시 남세종로 454  (보람동)","sgg":"36110","cap":null,"type":null,"src":"safekorea","asof":"2026-08-22","tel":"044-864-7748"}},{"type":"Feature","geometry":{"type":"Point","coordinates":[127.36734,36.52881]},"properties":{"name":"아름약국","addr":"세종특별자치시  부강면 부촌길 27","sgg":"36110","cap":null,"type":null,"src":"safekorea","asof":"2026-08-22","tel":"044-275-0527"}},{"type":"Feature","geometry":{"type":"Point","coordinates":[127.25722,36.4868]},"properties":{"name":"하늘약국","addr":"세종특별자치시 한누리대로 253, 에스빌딩 112호 (나성동)","sgg":"36110","cap":null,"type":null,"src":"safekorea","asof":"2026-08-22","tel":"044-868-5482"}},{"type":"Feature","geometry":{"type":"Point","coordinates":[127.24975,36.50424]},"properties":{"name":"맑은수약국","addr":"세종특별자치시 달빛로 59, 1층 (종촌동, 호만빌딩)","sgg":"36110","cap":null,"type":null,"src":"safekorea","asof":"2026-08-22","tel":"044-865-7776"}},{"type":"Feature","geometry":{"type":"Point","coordinates":[127.24862,36.51195]},"properties":{"name":"해피라움약국","addr":"세종특별자치시  보듬3로 100 , 1동 117호 (아름동, 해피라움1)","sgg":"36110","cap":null,"type":null,"src":"safekorea","asof":"2026-08-22","tel":"044-868-3770"}},{"type":"Feature","geometry":{"type":"Point","coordinates":[127.26247,36.47932]},"properties":{"name":"사랑온누리약국","addr":"세종특별자치시 한누리대로 157, 106호 (나성동, 금강프라자)","sgg":"36110","cap":null,"type":null,"src":"safekorea","asof":"2026-08-22","tel":"044-862-7533"}},{"type":"Feature","geometry":{"type":"Point","coordinates":[127.28783,36.4778]},"properties":{"name":"쓰담약국","addr":"세종특별자치시 한누리대로 2149, 엔젤타워 (보람동)","sgg":"36110","cap":null,"type":null,"src":"safekorea","asof":"2026-08-22","tel":"044-864-9069"}},{"type":"Feature","geometry":{"type":"Point","coordinates":[127.23587,36.50031]},"properties":{"name":"이약국","addr":"세종특별자치시 만남로3길 7, 1층 (일부)호 (고운동)","sgg":"36110","cap":null,"type":null,"src":"safekorea","asof":"2026-08-22","tel":"044-5562-1648"}},{"type":"Feature","geometry":{"type":"Point","coordinates":[127.24964,36.50451]},"properties":{"name":"나눔약국","addr":"세종특별자치시 도움3로 105-7, 메디케어빌딩 109호 (종촌동)","sgg":"36110","cap":null,"type":null,"src":"safekorea","asof":"2026-08-22","tel":"044-867-2367"}},{"type":"Feature","geometry":{"type":"Point","coordinates":[127.3127,36.49813]},"properties":{"name":"스타약국","addr":"세종특별자치시 한누리대로 1820, 왕관빌딩 107호 (반곡동)","sgg":"36110","cap":null,"type":null,"src":"safekorea","asof":"2026-08-22","tel":"044-866-6470"}},{"type":"Feature","geometry":{"type":"Point","coordinates":[127.261,36.48788]},"properties":{"name":"기린약국","addr":"세종특별자치시 나성로 96, 더센트럴 426호 (나성동)","sgg":"36110","cap":null,"type":null,"src":"safekorea","asof":"2026-08-22","tel":"044-868-7756"}},{"type":"Feature","geometry":{"type":"Point","coordinates":[127.2772,36.4721]},"properties":{"name":"하트약국","addr":"세종특별자치시 한누리대로 2265, 세종메디컬센터 1동 110호 (대평동)","sgg":"36110","cap":null,"type":null,"src":"safekorea","asof":"2026-08-22","tel":"044-555-9225"}},{"type":"Feature","geometry":{"type":"Point","coordinates":[127.25257,36.51996]},"properties":{"name":"충대대형약국","addr":"세종특별자치시  달빛1로 309, 1층 (아름동)","sgg":"36110","cap":null,"type":null,"src":"safekorea","asof":"2026-08-22","tel":"044-867-0937"}},{"type":"Feature","geometry":{"type":"Point","coordinates":[127.24957,36.51135]},"properties":{"name":"아름미듬약국","addr":"세종특별자치시 보듬3로 91, 309호 (아름동, 해피라움4동)","sgg":"36110","cap":null,"type":null,"src":"safekorea","asof":"2026-08-22","tel":"070-8880-6829"}},{"type":"Feature","geometry":{"type":"Point","coordinates":[127.24891,36.51137]},"properties":{"name":"아름수약국","addr":"세종특별자치시 보듬3로 95, 408호 (아름동, 해피라움3)","sgg":"36110","cap":null,"type":null,"src":"safekorea","asof":"2026-08-22","tel":"044-868-3380"}},{"type":"Feature","geometry":{"type":"Point","coordinates":[127.2994,36.48474]},"properties":{"name":"소담약국","addr":"세종특별자치시 한누리대로 2018, 사이언스타운 111호 (소담동)","sgg":"36110","cap":null,"type":null,"src":"safekorea","asof":"2026-08-22","tel":"044-865-7554"}},{"type":"Feature","geometry":{"type":"Point","coordinates":[127.29864,36.59971]},"properties":{"name":"신세종약국","addr":"세종특별자치시 조치원읍 새내로 88-1","sgg":"36110","cap":null,"type":null,"src":"safekorea","asof":"2026-08-22","tel":"044-863-1783"}},{"type":"Feature","geometry":{"type":"Point","coordinates":[127.25744,36.48643]},"properties":{"name":"스마일온누리약국","addr":"세종특별자치시 한누리대로 249, 에스제이타워 105호 (나성동)","sgg":"36110","cap":null,"type":null,"src":"safekorea","asof":"2026-08-22","tel":"044-867-1778"}},{"type":"Feature","geometry":{"type":"Point","coordinates":[127.30343,36.60203]},"properties":{"name":"해오름온누리약국","addr":"세종특별자치시 조치원읍 조치원10길 9, 2동 1호 (조치원읍)","sgg":"36110","cap":null,"type":null,"src":"safekorea","asof":"2026-08-22","tel":"044-868-2375"}},{"type":"Feature","geometry":{"type":"Point","coordinates":[127.24811,36.50281]},"properties":{"name":"메가약국","addr":"세종특별자치시 도움1로 106, 4층 415호 (종촌동, 메가시티)","sgg":"36110","cap":null,"type":null,"src":"safekorea","asof":"2026-08-22","tel":"044-864-5648"}},{"type":"Feature","geometry":{"type":"Point","coordinates":[127.32566,36.49197]},"properties":{"name":"새나루약국","addr":"세종특별자치시 남세종로 73, 111호 (집현동)","sgg":"36110","cap":null,"type":null,"src":"safekorea","asof":"2026-08-22","tel":"050-713-3746"}}]}