{"type":"FeatureCollection","features":[{"type":"Feature","geometry":{"type":"Point","coordinates":[126.48183,33.48244]},"properties":{"name":"스마트약국","addr":"제주특별자치도 제주시 연북로 1, 롯데마트 1층 (노형동)","sgg":"50110","cap":null,"type":null,"src":"safekorea","asof":"2026-08-22","tel":"064-712-6706"}},{"type":"Feature","geometry":{"type":"Point","coordinates":[126.52844,33.50083]},"properties":{"name":"365건강온누리약국","addr":"제주특별자치도 제주시 서광로 301, 1층 (이도일동)","sgg":"50110","cap":null,"type":null,"src":"safekorea","asof":"2026-08-22","tel":"064-755-3157"}},{"type":"Feature","geometry":{"type":"Point","coordinates":[126.47932,33.48681]},"properties":{"name":"건강드림약국","addr":"제주특별자치도 제주시 도령로 1, 1층 (노형동)","sgg":"50110","cap":null,"type":null,"src":"safekorea","asof":"2026-08-22","tel":"064-744-0369"}},{"type":"Feature","geometry":{"type":"Point","coordinates":[126.58113,33.51708]},"properties":{"name":"별약국","addr":"제주특별자치도 제주시 건주로 27, 1층 102호 (도련일동)","sgg":"50110","cap":null,"type":null,"src":"safekorea","asof":"2026-08-22","tel":"064-723-0085"}},{"type":"Feature","geometry":{"type":"Point","coordinates":[126.52455,33.51124]},"properties":{"name":"현대약국","addr":"제주특별자치도 제주시 중앙로 77","sgg":"50110","cap":null,"type":null,"src":"safekorea","asof":"2026-08-22","tel":"064-722-0392"}},{"type":"Feature","geometry":{"type":"Point","coordinates":[126.53938,33.48825]},"properties":{"name":"더한빛약국","addr":"제주특별자치도 제주시 중앙로 380, 1층 (이도이동)","sgg":"50110","cap":null,"type":null,"src":"safekorea","asof":"2026-08-22","tel":"064-901-0230"}},{"type":"Feature","geometry":{"type":"Point","coordinates":[126.43062,33.48661]},"properties":{"name":"외도약국","addr":"제주특별자치도 제주시 우정로 70, 1층 (외도일동)","sgg":"50110","cap":null,"type":null,"src":"safekorea","asof":"2026-08-22","tel":"064-712-1953"}},{"type":"Feature","geometry":{"type":"Point","coordinates":[126.47278,33.48614]},"properties":{"name":"두리약국","addr":"제주특별자치도 제주시 수덕로 41, 1층 (노형동)","sgg":"50110","cap":null,"type":null,"src":"safekorea","asof":"2026-08-22","tel":"064-744-9952"}},{"type":"Feature","geometry":{"type":"Point","coordinates":[126.43068,33.48936]},"properties":{"name":"부원약국","addr":"제주특별자치도 제주시 우정로8길 2, 1층 (외도일동)","sgg":"50110","cap":null,"type":null,"src":"safekorea","asof":"2026-08-22","tel":"064-900-4338"}},{"type":"Feature","geometry":{"type":"Point","coordinates":[126.85563,33.52332]},"properties":{"name":"구좌약국","addr":"제주특별자치도 제주시 구좌읍 구좌로 40, 1층 (구좌읍)","sgg":"50110","cap":null,"type":null,"src":"safekorea","asof":"2026-08-22","tel":"064-782-8875"}},{"type":"Feature","geometry":{"type":"Point","coordinates":[126.47222,33.48029]},"properties":{"name":"정존약국","addr":"제주특별자치도 제주시 고사마루길 2, 1층 (노형동)","sgg":"50110","cap":null,"type":null,"src":"safekorea","asof":"2026-08-22","tel":"064-742-2378"}},{"type":"Feature","geometry":{"type":"Point","coordinates":[126.47864,33.47651]},"properties":{"name":"더건강한약국","addr":"제주특별자치도 제주시 한라대학로 77-1, 1층 (노형동)","sgg":"50110","cap":null,"type":null,"src":"safekorea","asof":"2026-08-22","tel":"064-746-2255"}},{"type":"Feature","geometry":{"type":"Point","coordinates":[126.47547,33.48064]},"properties":{"name":"슬로우약국","addr":"제주특별자치도 제주시 노형1길 19, 102호 (노형동)","sgg":"50110","cap":null,"type":null,"src":"safekorea","asof":"2026-08-22","tel":"050-71494-0601"}},{"type":"Feature","geometry":{"type":"Point","coordinates":[126.17983,33.30165]},"properties":{"name":"차귀도약국","addr":"제주특별자치도 제주시 한경면 고산로 8,","sgg":"50110","cap":null,"type":null,"src":"safekorea","asof":"2026-08-22","tel":"064-773-2022"}},{"type":"Feature","geometry":{"type":"Point","coordinates":[126.58695,33.52154]},"properties":{"name":"삼양온누리약국","addr":"제주특별자치도 제주시 일주동로 393, 1층 (삼양이동)","sgg":"50110","cap":null,"type":null,"src":"safekorea","asof":"2026-08-22","tel":"070-8900-4480"}},{"type":"Feature","geometry":{"type":"Point","coordinates":[126.47734,33.48432]},"properties":{"name":"신행복약국","addr":"제주특별자치도 제주시 노형8길 2 (노형동, 지하1층)","sgg":"50110","cap":null,"type":null,"src":"safekorea","asof":"2026-08-22","tel":"064-712-6577"}},{"type":"Feature","geometry":{"type":"Point","coordinates":[126.57986,33.5175]},"properties":{"name":"푸른약국","addr":"제주특별자치도 제주시 화삼북로 63, 삼화빌딩 1층 102호 (삼양이동)","sgg":"50110","cap":null,"type":null,"src":"safekorea","asof":"2026-08-22","tel":"064-722-0599"}},{"type":"Feature","geometry":{"type":"Point","coordinates":[126.4766,33.48379]},"properties":{"name":"열린365약국","addr":"제주특별자치도 제주시 노형로 380, 1층 (노형동)","sgg":"50110","cap":null,"type":null,"src":"safekorea","asof":"2026-08-22","tel":"064-744-0365"}},{"type":"Feature","geometry":{"type":"Point","coordinates":[126.57197,33.51972]},"properties":{"name":"비타민약국","addr":"제주특별자치도 제주시 일주동로 250, 1층 (화북일동)","sgg":"50110","cap":null,"type":null,"src":"safekorea","asof":"2026-08-22","tel":"064-702-4824"}},{"type":"Feature","geometry":{"type":"Point","coordinates":[126.41141,33.48419]},"properties":{"name":"나눔약국","addr":"제주특별자치도 제주시 애월읍 하광로 12, 노트르담 1층 101호","sgg":"50110","cap":null,"type":null,"src":"safekorea","asof":"2026-08-22","tel":"064-745-2245"}},{"type":"Feature","geometry":{"type":"Point","coordinates":[126.54939,33.47462]},"properties":{"name":"힘찬약국","addr":"제주특별자치도 제주시 인다10길 35, 1층 (아라일동)","sgg":"50110","cap":null,"type":null,"src":"safekorea","asof":"2026-08-22","tel":"064-721-6607"}},{"type":"Feature","geometry":{"type":"Point","coordinates":[126.5152,33.50031]},"properties":{"name":"보은약국","addr":"제주특별자치도 제주시  서광로  175 (용담일동)","sgg":"50110","cap":null,"type":null,"src":"safekorea","asof":"2026-08-22","tel":"064-757-5763"}},{"type":"Feature","geometry":{"type":"Point","coordinates":[126.52542,33.49978]},"properties":{"name":"단단약국","addr":"제주특별자치도 제주시 서광로 272, 1층 (도남동)","sgg":"50110","cap":null,"type":null,"src":"safekorea","asof":"2026-08-22","tel":"064-755-7117"}},{"type":"Feature","geometry":{"type":"Point","coordinates":[126.47857,33.48638]},"properties":{"name":"삼성약국","addr":"제주특별자치도 제주시 월랑로 1 (노형동,1층)","sgg":"50110","cap":null,"type":null,"src":"safekorea","asof":"2026-08-22","tel":"064-745-3025"}},{"type":"Feature","geometry":{"type":"Point","coordinates":[126.54519,33.47474]},"properties":{"name":"봄약국","addr":"제주특별자치도 제주시 중앙로 546, 1층 (아라일동)","sgg":"50110","cap":null,"type":null,"src":"safekorea","asof":"2026-08-22","tel":"064-722-1303"}},{"type":"Feature","geometry":{"type":"Point","coordinates":[126.47993,33.48678]},"properties":{"name":"유성약국","addr":"제주특별자치도 제주시 도령로 5","sgg":"50110","cap":null,"type":null,"src":"safekorea","asof":"2026-08-22","tel":"064-744-5477"}},{"type":"Feature","geometry":{"type":"Point","coordinates":[126.26458,33.41446]},"properties":{"name":"녹십자약국","addr":"제주특별자치도 제주시 한림읍 한림중앙로 4","sgg":"50110","cap":null,"type":null,"src":"safekorea","asof":"2026-08-22","tel":"064-796-9001"}},{"type":"Feature","geometry":{"type":"Point","coordinates":[126.54356,33.5015]},"properties":{"name":"메디칼약국","addr":"제주특별자치도 제주시 고마로 149 (일도이동, 회광빌딩)","sgg":"50110","cap":null,"type":null,"src":"safekorea","asof":"2026-08-22","tel":"064-726-2200"}},{"type":"Feature","geometry":{"type":"Point","coordinates":[126.49006,33.48261]},"properties":{"name":"동인한약국","addr":"제주특별자치도 제주시 신광로 105","sgg":"50110","cap":null,"type":null,"src":"safekorea","asof":"2026-08-22","tel":"064-711-8811"}},{"type":"Feature","geometry":{"type":"Point","coordinates":[126.52863,33.50038]},"properties":{"name":"백세약국","addr":"제주특별자치도 제주시 서광로 300-1","sgg":"50110","cap":null,"type":null,"src":"safekorea","asof":"2026-08-22","tel":"064-702-0103"}},{"type":"Feature","geometry":{"type":"Point","coordinates":[126.52517,33.51295]},"properties":{"name":"인수당건재약국","addr":"제주특별자치도 제주시 관덕로 54-2","sgg":"50110","cap":null,"type":null,"src":"safekorea","asof":"2026-08-22","tel":"064-722-2262"}},{"type":"Feature","geometry":{"type":"Point","coordinates":[126.49214,33.48676]},"properties":{"name":"부부온누리약국","addr":"제주특별자치도 제주시 신대로16길 41 (연동)","sgg":"50110","cap":null,"type":null,"src":"safekorea","asof":"2026-08-22","tel":"064-742-5252"}},{"type":"Feature","geometry":{"type":"Point","coordinates":[126.48014,33.48363]},"properties":{"name":"새봄약국","addr":"제주특별자치도 제주시 1100로 3333, B호 (노형동)","sgg":"50110","cap":null,"type":null,"src":"safekorea","asof":"2026-08-22","tel":"064-712-0086"}},{"type":"Feature","geometry":{"type":"Point","coordinates":[126.51105,33.5097]},"properties":{"name":"상아약국","addr":"제주특별자치도 제주시 흥운길 6 (용담이동)","sgg":"50110","cap":null,"type":null,"src":"safekorea","asof":"2026-08-22","tel":"064-711-3770"}},{"type":"Feature","geometry":{"type":"Point","coordinates":[126.48637,33.48126]},"properties":{"name":"대정약국","addr":"제주특별자치도 제주시 과원북4길 35","sgg":"50110","cap":null,"type":null,"src":"safekorea","asof":"2026-08-22","tel":"064-743-3734"}},{"type":"Feature","geometry":{"type":"Point","coordinates":[126.52555,33.51173]},"properties":{"name":"동보약국","addr":"제주특별자치도 제주시 오현길 78 (이도일동)","sgg":"50110","cap":null,"type":null,"src":"safekorea","asof":"2026-08-22","tel":"064-757-5833"}},{"type":"Feature","geometry":{"type":"Point","coordinates":[126.2653,33.41553]},"properties":{"name":"동서약국","addr":"제주특별자치도 제주시 한림읍 한림로 682","sgg":"50110","cap":null,"type":null,"src":"safekorea","asof":"2026-08-22","tel":"064-796-2176"}},{"type":"Feature","geometry":{"type":"Point","coordinates":[126.59422,33.49407]},"properties":{"name":"동현약국","addr":"제주특별자치도 제주시 삼봉로 327, A동 102호 (봉개동, 봉개 미소담)","sgg":"50110","cap":null,"type":null,"src":"safekorea","asof":"2026-08-22","tel":"064-723-0490"}},{"type":"Feature","geometry":{"type":"Point","coordinates":[126.54535,33.47423]},"properties":{"name":"킴스약국","addr":"제주특별자치도 제주시 중앙로 552, 1층 (아라일동)","sgg":"50110","cap":null,"type":null,"src":"safekorea","asof":"2026-08-22","tel":"064-723-3507"}},{"type":"Feature","geometry":{"type":"Point","coordinates":[126.53663,33.51362]},"properties":{"name":"조은약국","addr":"제주특별자치도 제주시 동문로20길 1 (일도이동)","sgg":"50110","cap":null,"type":null,"src":"safekorea","asof":"2026-08-22","tel":"064-721-7271"}},{"type":"Feature","geometry":{"type":"Point","coordinates":[126.4812,33.48301]},"properties":{"name":"마트존약국","addr":"제주특별자치도 제주시 1100로 3324, 1층 (노형동)","sgg":"50110","cap":null,"type":null,"src":"safekorea","asof":"2026-08-22","tel":"064-746-6141"}},{"type":"Feature","geometry":{"type":"Point","coordinates":[126.5245,33.49966]},"properties":{"name":"새힘약국","addr":"제주특별자치도 제주시 서광로 262, 1층 (삼도일동)","sgg":"50110","cap":null,"type":null,"src":"safekorea","asof":"2026-08-22","tel":"064-755-4031"}},{"type":"Feature","geometry":{"type":"Point","coordinates":[126.43172,33.48609]},"properties":{"name":"착한약국","addr":"제주특별자치도 제주시 우정로15길 5 1층","sgg":"50110","cap":null,"type":null,"src":"safekorea","asof":"2026-08-22","tel":"064-744-6314"}},{"type":"Feature","geometry":{"type":"Point","coordinates":[126.53772,33.49008]},"properties":{"name":"베스트약국","addr":"제주특별자치도 제주시 중앙로 354 (이도이동)","sgg":"50110","cap":null,"type":null,"src":"safekorea","asof":"2026-08-22","tel":"064-752-7525"}},{"type":"Feature","geometry":{"type":"Point","coordinates":[126.54531,33.47367]},"properties":{"name":"햇님온누리약국","addr":"제주특별자치도 제주시 중앙로 560, 1층 (아라일동)","sgg":"50110","cap":null,"type":null,"src":"safekorea","asof":"2026-08-22","tel":"064-726-1923"}},{"type":"Feature","geometry":{"type":"Point","coordinates":[126.52516,33.49238]},"properties":{"name":"해모로약국","addr":"제주특별자치도 제주시 연삼로 305, 101호 (도남동)","sgg":"50110","cap":null,"type":null,"src":"safekorea","asof":"2026-08-22","tel":"064-901-7378"}},{"type":"Feature","geometry":{"type":"Point","coordinates":[126.54445,33.47727]},"properties":{"name":"민성약국","addr":"제주특별자치도 제주시 중앙로 515, 1층 (아라이동)","sgg":"50110","cap":null,"type":null,"src":"safekorea","asof":"2026-08-22","tel":"064-722-1010"}},{"type":"Feature","geometry":{"type":"Point","coordinates":[126.41456,33.48641]},"properties":{"name":"곰온누리약국","addr":"제주특별자치도 제주시 애월읍 하귀9길 2, 1층 106호","sgg":"50110","cap":null,"type":null,"src":"safekorea","asof":"2026-08-22","tel":"064-747-6174"}},{"type":"Feature","geometry":{"type":"Point","coordinates":[126.43112,33.48665]},"properties":{"name":"밝은약국","addr":"제주특별자치도 제주시 우정로 69, 1층 (외도일동)","sgg":"50110","cap":null,"type":null,"src":"safekorea","asof":"2026-08-22","tel":"064-743-2577"}},{"type":"Feature","geometry":{"type":"Point","coordinates":[126.2651,33.41059]},"properties":{"name":"은솔약국","addr":"제주특별자치도 제주시 한림읍 한림중앙로 46","sgg":"50110","cap":null,"type":null,"src":"safekorea","asof":"2026-08-22","tel":"064-796-7474"}},{"type":"Feature","geometry":{"type":"Point","coordinates":[126.48866,33.48959]},"properties":{"name":"오름아래약국","addr":"제주특별자치도 제주시 삼무로 18, 제주연동 하우스디어반 105호 (연동)","sgg":"50110","cap":null,"type":null,"src":"safekorea","asof":"2026-08-22","tel":"064-805-2093"}},{"type":"Feature","geometry":{"type":"Point","coordinates":[126.52621,33.49998]},"properties":{"name":"힐링약국","addr":"제주특별자치도 제주시 서광로 278, 1층 101호 (이도이동, 줌타워)","sgg":"50110","cap":null,"type":null,"src":"safekorea","asof":"2026-08-22","tel":"064-702-2332"}},{"type":"Feature","geometry":{"type":"Point","coordinates":[126.3206,33.46485]},"properties":{"name":"애월약국","addr":"제주특별자치도 제주시 애월읍 애월로11길 6-2","sgg":"50110","cap":null,"type":null,"src":"safekorea","asof":"2026-08-22","tel":"064-799-0341"}},{"type":"Feature","geometry":{"type":"Point","coordinates":[126.54503,33.4726]},"properties":{"name":"도담약국","addr":"제주특별자치도 제주시 아란9길 6, 1층 (아라일동)","sgg":"50110","cap":null,"type":null,"src":"safekorea","asof":"2026-08-22","tel":"070-4100-6333"}},{"type":"Feature","geometry":{"type":"Point","coordinates":[126.48036,33.48319]},"properties":{"name":"구름약국","addr":"제주특별자치도 제주시 1100로 3323-1, 1층 (노형동)","sgg":"50110","cap":null,"type":null,"src":"safekorea","asof":"2026-08-22","tel":"064-123-4567"}},{"type":"Feature","geometry":{"type":"Point","coordinates":[126.56976,33.51941]},"properties":{"name":"365매일약국","addr":"제주특별자치도 제주시 일주동로 227 (화북일동)","sgg":"50110","cap":null,"type":null,"src":"safekorea","asof":"2026-08-22","tel":"064-702-3172"}},{"type":"Feature","geometry":{"type":"Point","coordinates":[126.49155,33.48965]},"properties":{"name":"한라프라자약국","addr":"제주특별자치도 제주시 삼무로 46, 1층 (연동)","sgg":"50110","cap":null,"type":null,"src":"safekorea","asof":"2026-08-22","tel":"064-743-2098"}},{"type":"Feature","geometry":{"type":"Point","coordinates":[126.43065,33.48422]},"properties":{"name":"큰곰약국","addr":"제주특별자치도 제주시 우평로 338, 1층 (외도일동)","sgg":"50110","cap":null,"type":null,"src":"safekorea","asof":"2026-08-22","tel":"064-746-1133"}},{"type":"Feature","geometry":{"type":"Point","coordinates":[126.5248,33.51266]},"properties":{"name":"새중앙약국","addr":"제주특별자치도 제주시 중앙로 61, 1층 (이도일동)","sgg":"50110","cap":null,"type":null,"src":"safekorea","asof":"2026-08-22","tel":"064-725-0655"}},{"type":"Feature","geometry":{"type":"Point","coordinates":[126.41496,33.48673]},"properties":{"name":"동백약국","addr":"제주특별자치도 제주시 애월읍 하귀9길 1, 1층 103호","sgg":"50110","cap":null,"type":null,"src":"safekorea","asof":"2026-08-22","tel":"064-904-1102"}},{"type":"Feature","geometry":{"type":"Point","coordinates":[126.47829,33.48582]},"properties":{"name":"노형타워약국","addr":"제주특별자치도 제주시 노형로 407","sgg":"50110","cap":null,"type":null,"src":"safekorea","asof":"2026-08-22","tel":"064-747-0828"}},{"type":"Feature","geometry":{"type":"Point","coordinates":[126.4801,33.48666]},"properties":{"name":"노형한마음약국","addr":"제주특별자치도 제주시 도령로 7","sgg":"50110","cap":null,"type":null,"src":"safekorea","asof":"2026-08-22","tel":"064-747-7288"}},{"type":"Feature","geometry":{"type":"Point","coordinates":[126.51472,33.50025]},"properties":{"name":"온누리대우약국","addr":"제주특별자치도 제주시 서광로 171 (용담일동)","sgg":"50110","cap":null,"type":null,"src":"safekorea","asof":"2026-08-22","tel":"064-753-3390"}},{"type":"Feature","geometry":{"type":"Point","coordinates":[126.26405,33.41436]},"properties":{"name":"중앙약국","addr":"제주특별자치도 제주시 한림읍 한림로 664","sgg":"50110","cap":null,"type":null,"src":"safekorea","asof":"2026-08-22","tel":"064-796-2051"}},{"type":"Feature","geometry":{"type":"Point","coordinates":[126.53217,33.51472]},"properties":{"name":"동의당온누리약국","addr":"제주특별자치도 제주시 만덕로 21 (건입동)","sgg":"50110","cap":null,"type":null,"src":"safekorea","asof":"2026-08-22","tel":"064-758-2685"}},{"type":"Feature","geometry":{"type":"Point","coordinates":[126.75021,33.55455]},"properties":{"name":"김녕약국","addr":"제주특별자치도 제주시 구좌읍 김녕로 114","sgg":"50110","cap":null,"type":null,"src":"safekorea","asof":"2026-08-22","tel":"064-783-8623"}},{"type":"Feature","geometry":{"type":"Point","coordinates":[126.52885,33.50033]},"properties":{"name":"정다운약국","addr":"제주특별자치도 제주시 서광로 302 (이도이동)","sgg":"50110","cap":null,"type":null,"src":"safekorea","asof":"2026-08-22","tel":"064-722-7222"}},{"type":"Feature","geometry":{"type":"Point","coordinates":[126.52117,33.51797]},"properties":{"name":"마트약국","addr":"제주특별자치도 제주시 탑동로 38 (삼도이동)","sgg":"50110","cap":null,"type":null,"src":"safekorea","asof":"2026-08-22","tel":"064-722-7044"}},{"type":"Feature","geometry":{"type":"Point","coordinates":[126.58028,33.51706]},"properties":{"name":"시원한약국","addr":"제주특별자치도 제주시 화삼북로 68, 삼화지구 신형빌딩 1층 102호 (도련일동)","sgg":"50110","cap":null,"type":null,"src":"safekorea","asof":"2026-08-22","tel":"064-753-8085"}},{"type":"Feature","geometry":{"type":"Point","coordinates":[126.57526,33.51478]},"properties":{"name":"무지개약국","addr":"제주특별자치도 제주시 화삼로1길 14 1층","sgg":"50110","cap":null,"type":null,"src":"safekorea","asof":"2026-08-22","tel":"064-723-0888"}},{"type":"Feature","geometry":{"type":"Point","coordinates":[126.47668,33.48883]},"properties":{"name":"미소약국","addr":"제주특별자치도 제주시 월랑로8길 1, 아란야플라자 (노형동)","sgg":"50110","cap":null,"type":null,"src":"safekorea","asof":"2026-08-22","tel":"064-712-2928"}},{"type":"Feature","geometry":{"type":"Point","coordinates":[126.52571,33.51293]},"properties":{"name":"유진약국","addr":"제주특별자치도 제주시 관덕로 60, (일도일동)","sgg":"50110","cap":null,"type":null,"src":"safekorea","asof":"2026-08-22","tel":"064-753-7116"}},{"type":"Feature","geometry":{"type":"Point","coordinates":[126.5247,33.50687]},"properties":{"name":"남문약국","addr":"제주특별자치도 제주시 중앙로 132","sgg":"50110","cap":null,"type":null,"src":"safekorea","asof":"2026-08-22","tel":"064-751-9967"}},{"type":"Feature","geometry":{"type":"Point","coordinates":[126.49051,33.48513]},"properties":{"name":"뉴제주약국","addr":"제주특별자치도 제주시 연동8길 8  (연동)","sgg":"50110","cap":null,"type":null,"src":"safekorea","asof":"2026-08-22","tel":"064-752-5244"}},{"type":"Feature","geometry":{"type":"Point","coordinates":[126.54347,33.50166]},"properties":{"name":"강약국","addr":"제주특별자치도 제주시 고마로 147, (일도이동)","sgg":"50110","cap":null,"type":null,"src":"safekorea","asof":"2026-08-22","tel":"064-726-6366"}},{"type":"Feature","geometry":{"type":"Point","coordinates":[126.52246,33.51755]},"properties":{"name":"탑동보룡약국","addr":"제주특별자치도 제주시 탑동로 24 (삼도이동, 형화빌딩)","sgg":"50110","cap":null,"type":null,"src":"safekorea","asof":"2026-08-22","tel":"064-726-4949"}},{"type":"Feature","geometry":{"type":"Point","coordinates":[126.63717,33.53599]},"properties":{"name":"조천약국","addr":"제주특별자치도 제주시 조천읍 신북로 226","sgg":"50110","cap":null,"type":null,"src":"safekorea","asof":"2026-08-22","tel":"064-783-8989"}},{"type":"Feature","geometry":{"type":"Point","coordinates":[126.53527,33.49264]},"properties":{"name":"주원약국","addr":"제주특별자치도 제주시 중앙로 318 (이도이동)","sgg":"50110","cap":null,"type":null,"src":"safekorea","asof":"2026-08-22","tel":"064-752-2321"}},{"type":"Feature","geometry":{"type":"Point","coordinates":[126.54358,33.47775]},"properties":{"name":"포도약국","addr":"제주특별자치도 제주시 아연로 603, 1층 (아라일동)","sgg":"50110","cap":null,"type":null,"src":"safekorea","asof":"2026-08-22","tel":"070-8780-4125"}},{"type":"Feature","geometry":{"type":"Point","coordinates":[126.56481,33.51903]},"properties":{"name":"한솔온누리약국","addr":"제주특별자치도 제주시 일주동로 181 (화북일동)","sgg":"50110","cap":null,"type":null,"src":"safekorea","asof":"2026-08-22","tel":"064-725-0270"}},{"type":"Feature","geometry":{"type":"Point","coordinates":[126.58097,33.51677]},"properties":{"name":"삼화영제약국","addr":"제주특별자치도 제주시 건주로 31, 한라신협 삼화지점 1층 (도련일동)","sgg":"50110","cap":null,"type":null,"src":"safekorea","asof":"2026-08-22","tel":"064-726-3090"}},{"type":"Feature","geometry":{"type":"Point","coordinates":[126.49082,33.4815]},"properties":{"name":"수약국","addr":"제주특별자치도 제주시 연북로 90, 1층 (연동)","sgg":"50110","cap":null,"type":null,"src":"safekorea","asof":"2026-08-22","tel":"064-759-0587"}},{"type":"Feature","geometry":{"type":"Point","coordinates":[126.48484,33.49091]},"properties":{"name":"신제주대웅약국","addr":"제주특별자치도 제주시 성신로 13-8 (연동)","sgg":"50110","cap":null,"type":null,"src":"safekorea","asof":"2026-08-22","tel":"064-747-8811"}},{"type":"Feature","geometry":{"type":"Point","coordinates":[126.48484,33.49091]},"properties":{"name":"제주약국","addr":"제주특별자치도 제주시 성신로 13-8 (연동,이화아파트상가 102호, 103호)","sgg":"50110","cap":null,"type":null,"src":"safekorea","asof":"2026-08-22","tel":"064-713-8575"}},{"type":"Feature","geometry":{"type":"Point","coordinates":[126.53041,33.5131]},"properties":{"name":"보림약국","addr":"제주특별자치도 제주시 동문로 35","sgg":"50110","cap":null,"type":null,"src":"safekorea","asof":"2026-08-22","tel":"064-722-3788"}},{"type":"Feature","geometry":{"type":"Point","coordinates":[126.40098,33.48034]},"properties":{"name":"하귀약국","addr":"제주특별자치도 제주시 애월읍 하귀로 35","sgg":"50110","cap":null,"type":null,"src":"safekorea","asof":"2026-08-22","tel":"064-713-2927"}},{"type":"Feature","geometry":{"type":"Point","coordinates":[126.47419,33.49023]},"properties":{"name":"행복나눔약국","addr":"제주특별자치도 제주시 월랑로 59","sgg":"50110","cap":null,"type":null,"src":"safekorea","asof":"2026-08-22","tel":"064-747-7227"}},{"type":"Feature","geometry":{"type":"Point","coordinates":[126.54626,33.49699]},"properties":{"name":"영주약국","addr":"제주특별자치도 제주시  연신로  46 (이도이동)","sgg":"50110","cap":null,"type":null,"src":"safekorea","asof":"2026-08-22","tel":"064-722-5593"}},{"type":"Feature","geometry":{"type":"Point","coordinates":[126.66636,33.5415]},"properties":{"name":"신한당약국","addr":"제주특별자치도 제주시 조천읍 신북로 530","sgg":"50110","cap":null,"type":null,"src":"safekorea","asof":"2026-08-22","tel":"064-783-8087"}},{"type":"Feature","geometry":{"type":"Point","coordinates":[126.31996,33.46437]},"properties":{"name":"아라약국","addr":"제주특별자치도 제주시 애월읍 애월로 120,","sgg":"50110","cap":null,"type":null,"src":"safekorea","asof":"2026-08-22","tel":"064-799-4460"}},{"type":"Feature","geometry":{"type":"Point","coordinates":[126.48179,33.4794]},"properties":{"name":"은우약국","addr":"제주특별자치도 제주시 광평동로 9, 1층 (노형동)","sgg":"50110","cap":null,"type":null,"src":"safekorea","asof":"2026-08-22","tel":"064-748-7542"}},{"type":"Feature","geometry":{"type":"Point","coordinates":[126.53135,33.51152]},"properties":{"name":"신산약국","addr":"제주특별자치도 제주시 성지로 76-1, 1층 (일도이동)","sgg":"50110","cap":null,"type":null,"src":"safekorea","asof":"2026-08-22","tel":"064-722-7290"}},{"type":"Feature","geometry":{"type":"Point","coordinates":[126.52428,33.51052]},"properties":{"name":"동우약국","addr":"제주특별자치도 제주시 중앙로15길 2, 1층 (이도일동)","sgg":"50110","cap":null,"type":null,"src":"safekorea","asof":"2026-08-22","tel":"064-757-7680"}},{"type":"Feature","geometry":{"type":"Point","coordinates":[126.54258,33.49219]},"properties":{"name":"오케이약국","addr":"제주특별자치도 제주시 승천로 74, 오케이약국 (아라이동)","sgg":"50110","cap":null,"type":null,"src":"safekorea","asof":"2026-08-22","tel":"064-723-6690"}},{"type":"Feature","geometry":{"type":"Point","coordinates":[126.53847,33.48921]},"properties":{"name":"더블유스토어이도약국","addr":"제주특별자치도 제주시 중앙로 366 (이도이동)","sgg":"50110","cap":null,"type":null,"src":"safekorea","asof":"2026-08-22","tel":"070-8900-3399"}},{"type":"Feature","geometry":{"type":"Point","coordinates":[126.54028,33.50698]},"properties":{"name":"웃는약국","addr":"제주특별자치도 제주시 동광로 124, 기봉빌딩 1층 (일도이동)","sgg":"50110","cap":null,"type":null,"src":"safekorea","asof":"2026-08-22","tel":"064-758-1232"}},{"type":"Feature","geometry":{"type":"Point","coordinates":[126.4763,33.48358]},"properties":{"name":"청담약국","addr":"제주특별자치도 제주시 노형로 378, 1층 101호 (노형동)","sgg":"50110","cap":null,"type":null,"src":"safekorea","asof":"2026-08-22","tel":"064-747-2091"}},{"type":"Feature","geometry":{"type":"Point","coordinates":[126.59482,33.49014]},"properties":{"name":"번영약국","addr":"제주특별자치도 제주시 번영로 500, 1층 (봉개동)","sgg":"50110","cap":null,"type":null,"src":"safekorea","asof":"2026-08-22","tel":"064-900-4395"}},{"type":"Feature","geometry":{"type":"Point","coordinates":[126.54004,33.48925]},"properties":{"name":"남광약국","addr":"제주특별자치도 제주시 남광로2길 43 (이도이동)","sgg":"50110","cap":null,"type":null,"src":"safekorea","asof":"2026-08-22","tel":"064-757-6015"}},{"type":"Feature","geometry":{"type":"Point","coordinates":[126.48521,33.49098]},"properties":{"name":"한라산약국","addr":"제주특별자치도 제주시 성신로 13-4 (연동)","sgg":"50110","cap":null,"type":null,"src":"safekorea","asof":"2026-08-22","tel":"064-749-6660"}},{"type":"Feature","geometry":{"type":"Point","coordinates":[126.26487,33.41457]},"properties":{"name":"세창약국","addr":"제주특별자치도 제주시 한림읍 한림중앙로 1","sgg":"50110","cap":null,"type":null,"src":"safekorea","asof":"2026-08-22","tel":"064-796-2567"}},{"type":"Feature","geometry":{"type":"Point","coordinates":[126.56685,33.51901]},"properties":{"name":"화북약국","addr":"제주특별자치도 제주시 일주동로 199, 2층 (화북일동)","sgg":"50110","cap":null,"type":null,"src":"safekorea","asof":"2026-08-22","tel":"064-756-1428"}},{"type":"Feature","geometry":{"type":"Point","coordinates":[126.54222,33.50413]},"properties":{"name":"우성약국","addr":"제주특별자치도 제주시 천수로 53","sgg":"50110","cap":null,"type":null,"src":"safekorea","asof":"2026-08-22","tel":"064-722-6019"}},{"type":"Feature","geometry":{"type":"Point","coordinates":[126.17977,33.30241]},"properties":{"name":"장수약국","addr":"제주특별자치도 제주시 한경면 고산로 16","sgg":"50110","cap":null,"type":null,"src":"safekorea","asof":"2026-08-22","tel":"064-772-5834"}},{"type":"Feature","geometry":{"type":"Point","coordinates":[126.30755,33.44856]},"properties":{"name":"대동약국","addr":"제주특별자치도 제주시 애월읍 곽지5길 1, 1층","sgg":"50110","cap":null,"type":null,"src":"safekorea","asof":"2026-08-22","tel":"064-799-8808"}},{"type":"Feature","geometry":{"type":"Point","coordinates":[126.4777,33.48409]},"properties":{"name":"조이약국","addr":"제주특별자치도 제주시 노형9길 1, 101호 (노형동)","sgg":"50110","cap":null,"type":null,"src":"safekorea","asof":"2026-08-22","tel":"0647443623"}},{"type":"Feature","geometry":{"type":"Point","coordinates":[126.53402,33.51325]},"properties":{"name":"참사랑약국","addr":"제주특별자치도 제주시 동문로 70 (일도이동, 화인퍼스트빌 9차)","sgg":"50110","cap":null,"type":null,"src":"safekorea","asof":"2026-08-22","tel":"064-752-8875"}},{"type":"Feature","geometry":{"type":"Point","coordinates":[126.29676,33.9639]},"properties":{"name":"추자약국","addr":"제주특별자치도 제주시 추자면 추자로 22 추자약국","sgg":"50110","cap":null,"type":null,"src":"safekorea","asof":"2026-08-22","tel":"064-742-9958"}},{"type":"Feature","geometry":{"type":"Point","coordinates":[126.52782,33.49544]},"properties":{"name":"온솔약국","addr":"제주특별자치도 제주시 신성로 78, 1층 (도남동)","sgg":"50110","cap":null,"type":null,"src":"safekorea","asof":"2026-08-22","tel":"064-727-1210"}},{"type":"Feature","geometry":{"type":"Point","coordinates":[126.52608,33.51327]},"properties":{"name":"조일약국","addr":"제주특별자치도 제주시 관덕로 63 (일도일동)","sgg":"50110","cap":null,"type":null,"src":"safekorea","asof":"2026-08-22","tel":"064-758-2270"}},{"type":"Feature","geometry":{"type":"Point","coordinates":[126.48436,33.48168]},"properties":{"name":"진약국","addr":"제주특별자치도 제주시 연북로 28, 1층 (노형동)","sgg":"50110","cap":null,"type":null,"src":"safekorea","asof":"2026-08-22","tel":"064-712-3365"}},{"type":"Feature","geometry":{"type":"Point","coordinates":[126.52494,33.50023]},"properties":{"name":"성종약국","addr":"제주특별자치도 제주시 서광로 267 (삼도일동)","sgg":"50110","cap":null,"type":null,"src":"safekorea","asof":"2026-08-22","tel":"064-721-0224"}},{"type":"Feature","geometry":{"type":"Point","coordinates":[126.53774,33.50481]},"properties":{"name":"세브란스약국","addr":"제주특별자치도 제주시 동광로 90 (이도이동)","sgg":"50110","cap":null,"type":null,"src":"safekorea","asof":"2026-08-22","tel":"064-722-5711"}},{"type":"Feature","geometry":{"type":"Point","coordinates":[126.47833,33.48664]},"properties":{"name":"세원약국","addr":"제주특별자치도 제주시 월랑로 5, 1층 (노형동)","sgg":"50110","cap":null,"type":null,"src":"safekorea","asof":"2026-08-22","tel":"064-742-9090"}},{"type":"Feature","geometry":{"type":"Point","coordinates":[126.54701,33.46877]},"properties":{"name":"건강일등약국","addr":"제주특별자치도 제주시 중앙로 616, 1층 (아라일동)","sgg":"50110","cap":null,"type":null,"src":"safekorea","asof":"2026-08-22","tel":"064-727-8321"}},{"type":"Feature","geometry":{"type":"Point","coordinates":[126.48633,33.48974]},"properties":{"name":"신한온누리약국","addr":"제주특별자치도 제주시 도령로 74 (연동)","sgg":"50110","cap":null,"type":null,"src":"safekorea","asof":"2026-08-22","tel":"064-744-1783"}},{"type":"Feature","geometry":{"type":"Point","coordinates":[126.405,33.48175]},"properties":{"name":"송약국","addr":"제주특별자치도 제주시 애월읍 하귀로 77,","sgg":"50110","cap":null,"type":null,"src":"safekorea","asof":"2026-08-22","tel":"064-712-8538"}},{"type":"Feature","geometry":{"type":"Point","coordinates":[126.51494,33.50024]},"properties":{"name":"수성약국","addr":"제주특별자치도 제주시 서광로 173","sgg":"50110","cap":null,"type":null,"src":"safekorea","asof":"2026-08-22","tel":"064-751-2526"}},{"type":"Feature","geometry":{"type":"Point","coordinates":[126.57096,33.51983]},"properties":{"name":"동화약국","addr":"제주특별자치도 제주시 일주동로 241","sgg":"50110","cap":null,"type":null,"src":"safekorea","asof":"2026-08-22","tel":"064-723-6462"}},{"type":"Feature","geometry":{"type":"Point","coordinates":[126.43112,33.48797]},"properties":{"name":"가정온누리약국","addr":"제주특별자치도 제주시 우정로 55, 1층 (외도일동)","sgg":"50110","cap":null,"type":null,"src":"safekorea","asof":"2026-08-22","tel":"064-711-5275"}},{"type":"Feature","geometry":{"type":"Point","coordinates":[126.53924,33.50612]},"properties":{"name":"온누리인화약국","addr":"제주특별자치도 제주시 동광로 110, (일도이동)","sgg":"50110","cap":null,"type":null,"src":"safekorea","asof":"2026-08-22","tel":"064-724-7272"}},{"type":"Feature","geometry":{"type":"Point","coordinates":[126.61921,33.53286]},"properties":{"name":"봄날온누리약국","addr":"제주특별자치도 제주시 조천읍 신북로 46, 1층","sgg":"50110","cap":null,"type":null,"src":"safekorea","asof":"2026-08-22","tel":"064-784-5040"}},{"type":"Feature","geometry":{"type":"Point","coordinates":[126.52519,33.49975]},"properties":{"name":"만년약국","addr":"제주특별자치도 제주시 서광로 268  (도남동)","sgg":"50110","cap":null,"type":null,"src":"safekorea","asof":"2026-08-22","tel":"064-726-8806"}},{"type":"Feature","geometry":{"type":"Point","coordinates":[126.49004,33.48114]},"properties":{"name":"광주약국","addr":"제주특별자치도 제주시 국기로 7  (연동)","sgg":"50110","cap":null,"type":null,"src":"safekorea","asof":"2026-08-22","tel":"064-712-7116"}},{"type":"Feature","geometry":{"type":"Point","coordinates":[126.26282,33.41368]},"properties":{"name":"현재약국","addr":"제주특별자치도 제주시 한림읍 한림로 650","sgg":"50110","cap":null,"type":null,"src":"safekorea","asof":"2026-08-22","tel":"064-796-9333"}},{"type":"Feature","geometry":{"type":"Point","coordinates":[126.63603,33.53577]},"properties":{"name":"한사랑약국","addr":"제주특별자치도 제주시 조천읍 신북로 217","sgg":"50110","cap":null,"type":null,"src":"safekorea","asof":"2026-08-22","tel":"064-784-3336"}},{"type":"Feature","geometry":{"type":"Point","coordinates":[126.52843,33.502]},"properties":{"name":"웅진약국","addr":"제주특별자치도 제주시 중앙로 195","sgg":"50110","cap":null,"type":null,"src":"safekorea","asof":"2026-08-22","tel":"064-723-7677"}},{"type":"Feature","geometry":{"type":"Point","coordinates":[126.1828,33.34985]},"properties":{"name":"신창약국","addr":"제주특별자치도 제주시 한경면 두신로 75","sgg":"50110","cap":null,"type":null,"src":"safekorea","asof":"2026-08-22","tel":"064-772-3799"}},{"type":"Feature","geometry":{"type":"Point","coordinates":[126.85587,33.52327]},"properties":{"name":"메디팜감초당약국","addr":"제주특별자치도 제주시 구좌읍 구좌로 42","sgg":"50110","cap":null,"type":null,"src":"safekorea","asof":"2026-08-22","tel":"064-783-2360"}},{"type":"Feature","geometry":{"type":"Point","coordinates":[126.47561,33.48895]},"properties":{"name":"월랑약국","addr":"제주특별자치도 제주시 월랑로 39, 동마빌딩 (노형동)","sgg":"50110","cap":null,"type":null,"src":"safekorea","asof":"2026-08-22","tel":"064-742-9770"}},{"type":"Feature","geometry":{"type":"Point","coordinates":[126.5375,33.50458]},"properties":{"name":"365온누리약국","addr":"제주특별자치도 제주시 동광로 86, 1층 101호 (이도이동)","sgg":"50110","cap":null,"type":null,"src":"safekorea","asof":"2026-08-22","tel":"064-721-3365"}},{"type":"Feature","geometry":{"type":"Point","coordinates":[126.4317,33.48939]},"properties":{"name":"바다약국","addr":"제주특별자치도 제주시 절물1길 39, 1층 (외도일동)","sgg":"50110","cap":null,"type":null,"src":"safekorea","asof":"2026-08-22","tel":"064-805-1144"}},{"type":"Feature","geometry":{"type":"Point","coordinates":[126.4796,33.48483]},"properties":{"name":"천지약국","addr":"제주특별자치도 제주시 1100로 3347, 1층 (노형동)","sgg":"50110","cap":null,"type":null,"src":"safekorea","asof":"2026-08-22","tel":"064-746-1770"}},{"type":"Feature","geometry":{"type":"Point","coordinates":[126.51713,33.50058]},"properties":{"name":"한일온누리약국","addr":"제주특별자치도 제주시 평전1길 20, 1층 (삼도일동)","sgg":"50110","cap":null,"type":null,"src":"safekorea","asof":"2026-08-22","tel":"064-725-2651"}},{"type":"Feature","geometry":{"type":"Point","coordinates":[126.53402,33.51325]},"properties":{"name":"시온온누리약국","addr":"제주특별자치도 제주시 동문로 70 (일도이동, 화인퍼스트빌 9차)","sgg":"50110","cap":null,"type":null,"src":"safekorea","asof":"2026-08-22","tel":"064-752-8875"}},{"type":"Feature","geometry":{"type":"Point","coordinates":[126.4889,33.4856]},"properties":{"name":"아주약국","addr":"제주특별자치도 제주시 노연로 80, 메종글래드 제주 지하중1층 (연동)","sgg":"50110","cap":null,"type":null,"src":"safekorea","asof":"2026-08-22","tel":"064-744-2688"}},{"type":"Feature","geometry":{"type":"Point","coordinates":[126.49081,33.48513]},"properties":{"name":"신세계약국","addr":"제주특별자치도 제주시 연동8길 7 (연동,1층)","sgg":"50110","cap":null,"type":null,"src":"safekorea","asof":"2026-08-22","tel":"064-746-3983"}},{"type":"Feature","geometry":{"type":"Point","coordinates":[126.53511,33.48471]},"properties":{"name":"소담약국","addr":"제주특별자치도 제주시 연북로 517, 1층 (아라일동)","sgg":"50110","cap":null,"type":null,"src":"safekorea","asof":"2026-08-22","tel":"064-805-7771"}},{"type":"Feature","geometry":{"type":"Point","coordinates":[126.26536,33.4099]},"properties":{"name":"한림부부약국","addr":"제주특별자치도 제주시 한림읍 한림상로 116, 1층 103호","sgg":"50110","cap":null,"type":null,"src":"safekorea","asof":"2026-08-22","tel":"064-796-4590"}},{"type":"Feature","geometry":{"type":"Point","coordinates":[126.48495,33.48166]},"properties":{"name":"신진팜약국","addr":"제주특별자치도 제주시 연북로 34, 1층 (노형동)","sgg":"50110","cap":null,"type":null,"src":"safekorea","asof":"2026-08-22","tel":"064-746-5452"}},{"type":"Feature","geometry":{"type":"Point","coordinates":[126.48039,33.483]},"properties":{"name":"스카이약국","addr":"제주특별자치도 제주시 1100로 3323, 1층 (노형동)","sgg":"50110","cap":null,"type":null,"src":"safekorea","asof":"2026-08-22","tel":"064-742-6141"}},{"type":"Feature","geometry":{"type":"Point","coordinates":[126.48594,33.49011]},"properties":{"name":"제주토마토약국","addr":"제주특별자치도 제주시 도령로 73, 1층 101호 (연동, 연동 펠리체)","sgg":"50110","cap":null,"type":null,"src":"safekorea","asof":"2026-08-22","tel":"064-712-4003"}},{"type":"Feature","geometry":{"type":"Point","coordinates":[126.54745,33.50239]},"properties":{"name":"최약국","addr":"제주특별자치도 제주시 연삼로 548, 1층 (일도이동)","sgg":"50110","cap":null,"type":null,"src":"safekorea","asof":"2026-08-22","tel":"064-755-3566"}},{"type":"Feature","geometry":{"type":"Point","coordinates":[126.53729,33.49152]},"properties":{"name":"행복약국","addr":"제주특별자치도 제주시 중앙로 337, 104호 (이도이동, 다우빌딩)","sgg":"50110","cap":null,"type":null,"src":"safekorea","asof":"2026-08-22","tel":"064-727-1300"}},{"type":"Feature","geometry":{"type":"Point","coordinates":[126.5108,33.50927]},"properties":{"name":"유명약국","addr":"제주특별자치도 제주시 용문로 163","sgg":"50110","cap":null,"type":null,"src":"safekorea","asof":"2026-08-22","tel":"064-711-4587"}},{"type":"Feature","geometry":{"type":"Point","coordinates":[126.48073,33.484]},"properties":{"name":"생생약국","addr":"제주특별자치도 제주시 원노형남1길 1 (노형동)","sgg":"50110","cap":null,"type":null,"src":"safekorea","asof":"2026-08-22","tel":"064-711-1788"}},{"type":"Feature","geometry":{"type":"Point","coordinates":[126.47779,33.48444]},"properties":{"name":"햇살약국","addr":"제주특별자치도 제주시 노형8길 3, 1층 (노형동)","sgg":"50110","cap":null,"type":null,"src":"safekorea","asof":"2026-08-22","tel":"064-745-0555"}},{"type":"Feature","geometry":{"type":"Point","coordinates":[126.47125,33.49174]},"properties":{"name":"제주예스약국","addr":"제주특별자치도 제주시 억삼길 35-57, 가동 1층 3호 (이호이동)","sgg":"50110","cap":null,"type":null,"src":"safekorea","asof":"2026-08-22","tel":"064-744-5551"}},{"type":"Feature","geometry":{"type":"Point","coordinates":[126.52004,33.49846]},"properties":{"name":"건강한약국","addr":"제주특별자치도 제주시 서사로 155 (삼도일동)","sgg":"50110","cap":null,"type":null,"src":"safekorea","asof":"2026-08-22","tel":"064-722-2004"}},{"type":"Feature","geometry":{"type":"Point","coordinates":[126.52005,33.50014]},"properties":{"name":"서사라튼튼약국","addr":"제주특별자치도 제주시 서사로 137 (삼도일동)","sgg":"50110","cap":null,"type":null,"src":"safekorea","asof":"2026-08-22","tel":"064-752-7365"}},{"type":"Feature","geometry":{"type":"Point","coordinates":[126.54317,33.49224]},"properties":{"name":"더나은약국","addr":"제주특별자치도 제주시 승천로 75, 1층 (아라이동)","sgg":"50110","cap":null,"type":null,"src":"safekorea","asof":"2026-08-22","tel":"064-756-1231"}},{"type":"Feature","geometry":{"type":"Point","coordinates":[126.26668,33.40873]},"properties":{"name":"달래약국","addr":"제주특별자치도 제주시 한림읍 한림중앙로 71, 1층","sgg":"50110","cap":null,"type":null,"src":"safekorea","asof":"2026-08-22","tel":"064-796-6595"}},{"type":"Feature","geometry":{"type":"Point","coordinates":[126.53014,33.49884]},"properties":{"name":"청사약국","addr":"제주특별자치도 제주시 중앙로 234, 1층 (이도이동)","sgg":"50110","cap":null,"type":null,"src":"safekorea","asof":"2026-08-22","tel":"070-7757-7271"}},{"type":"Feature","geometry":{"type":"Point","coordinates":[126.4815,33.476]},"properties":{"name":"숲약국","addr":"제주특별자치도 제주시 1100로 3213-27, 지하2층 202호 (노형동, 천마에코피아2차)","sgg":"50110","cap":null,"type":null,"src":"safekorea","asof":"2026-08-22","tel":"064-747-8119"}},{"type":"Feature","geometry":{"type":"Point","coordinates":[126.47125,33.49174]},"properties":{"name":"지아약국","addr":"제주특별자치도 제주시 억삼길 35-57, 가동 1층 4호 (이호이동)","sgg":"50110","cap":null,"type":null,"src":"safekorea","asof":"2026-08-22","tel":"064-742-2175"}},{"type":"Feature","geometry":{"type":"Point","coordinates":[126.48533,33.46981]},"properties":{"name":"숲속온누리약국","addr":"제주특별자치도 제주시 1100로 3178, 비동 1층 (노형동)","sgg":"50110","cap":null,"type":null,"src":"safekorea","asof":"2026-08-22","tel":"064-712-1379"}},{"type":"Feature","geometry":{"type":"Point","coordinates":[126.47875,33.49092]},"properties":{"name":"열린약국","addr":"제주특별자치도 제주시 월랑로10길 34","sgg":"50110","cap":null,"type":null,"src":"safekorea","asof":"2026-08-22","tel":"064-748-1551"}},{"type":"Feature","geometry":{"type":"Point","coordinates":[126.53422,33.52004]},"properties":{"name":"터미널약국","addr":"제주특별자치도 제주시 임항로 111, 제주항연안여객터미널 1층 (건입동)","sgg":"50110","cap":null,"type":null,"src":"safekorea","asof":"2026-08-22","tel":"070-8836-0202"}},{"type":"Feature","geometry":{"type":"Point","coordinates":[126.66442,33.54211]},"properties":{"name":"영재약국","addr":"제주특별자치도 제주시 조천읍 신북로 510-1","sgg":"50110","cap":null,"type":null,"src":"safekorea","asof":"2026-08-22","tel":"064-783-1959"}},{"type":"Feature","geometry":{"type":"Point","coordinates":[126.58408,33.52088]},"properties":{"name":"삼양약국","addr":"제주특별자치도 제주시 일주동로 366, 1층 (삼양이동)","sgg":"50110","cap":null,"type":null,"src":"safekorea","asof":"2026-08-22","tel":"064-758-1734"}},{"type":"Feature","geometry":{"type":"Point","coordinates":[126.51664,33.50022]},"properties":{"name":"하나로약국","addr":"제주특별자치도 제주시 서광로 189","sgg":"50110","cap":null,"type":null,"src":"safekorea","asof":"2026-08-22","tel":"064-726-0282"}},{"type":"Feature","geometry":{"type":"Point","coordinates":[126.47827,33.48623]},"properties":{"name":"정약국","addr":"제주특별자치도 제주시 수덕1길 3 (노형동)","sgg":"50110","cap":null,"type":null,"src":"safekorea","asof":"2026-08-22","tel":"064-713-0033"}},{"type":"Feature","geometry":{"type":"Point","coordinates":[126.49607,33.48587]},"properties":{"name":"새한온누리약국","addr":"제주특별자치도 제주시 신대로 128 (연동,신대로128)","sgg":"50110","cap":null,"type":null,"src":"safekorea","asof":"2026-08-22","tel":"064-742-1348"}},{"type":"Feature","geometry":{"type":"Point","coordinates":[126.53943,33.48917]},"properties":{"name":"제주튼튼한약국","addr":"제주특별자치도 제주시 중앙로 371, 1층 (이도이동)","sgg":"50110","cap":null,"type":null,"src":"safekorea","asof":"2026-08-22","tel":"064-752-2526"}},{"type":"Feature","geometry":{"type":"Point","coordinates":[126.47847,33.48647]},"properties":{"name":"노형온누리약국","addr":"제주특별자치도 제주시 월랑로 3, (노형동)","sgg":"50110","cap":null,"type":null,"src":"safekorea","asof":"2026-08-22","tel":"064-744-4880"}},{"type":"Feature","geometry":{"type":"Point","coordinates":[126.43111,33.48714]},"properties":{"name":"드림약국","addr":"제주특별자치도 제주시 우정로 63 (외도일동)","sgg":"50110","cap":null,"type":null,"src":"safekorea","asof":"2026-08-22","tel":"064-742-0938"}},{"type":"Feature","geometry":{"type":"Point","coordinates":[126.53547,33.49568]},"properties":{"name":"늘좋은약국","addr":"제주특별자치도 제주시 연삼로 414, 1층 (이도이동)","sgg":"50110","cap":null,"type":null,"src":"safekorea","asof":"2026-08-22","tel":"064-751-2277"}},{"type":"Feature","geometry":{"type":"Point","coordinates":[126.53296,33.49475]},"properties":{"name":"사랑약국","addr":"제주특별자치도 제주시 중앙로 286 (이도이동)","sgg":"50110","cap":null,"type":null,"src":"safekorea","asof":"2026-08-22","tel":"064-721-0043"}},{"type":"Feature","geometry":{"type":"Point","coordinates":[126.5397,33.5095]},"properties":{"name":"보람약국","addr":"제주특별자치도 제주시 고마로 53 (일도이동)","sgg":"50110","cap":null,"type":null,"src":"safekorea","asof":"2026-08-22","tel":"064-723-8518"}},{"type":"Feature","geometry":{"type":"Point","coordinates":[126.52139,33.51295]},"properties":{"name":"관덕정약국","addr":"제주특별자치도 제주시 관덕로 18 (삼도이동)","sgg":"50110","cap":null,"type":null,"src":"safekorea","asof":"2026-08-22","tel":"064-727-8558"}},{"type":"Feature","geometry":{"type":"Point","coordinates":[126.4706,33.48442]},"properties":{"name":"새순약국","addr":"제주특별자치도 제주시 수덕로 69, 1층 (노형동)","sgg":"50110","cap":null,"type":null,"src":"safekorea","asof":"2026-08-22","tel":"064-713-5177"}},{"type":"Feature","geometry":{"type":"Point","coordinates":[126.67491,33.53657]},"properties":{"name":"함덕하나로약국","addr":"제주특별자치도 제주시 조천읍 함와로 40","sgg":"50110","cap":null,"type":null,"src":"safekorea","asof":"2026-08-22","tel":"064-784-8434"}},{"type":"Feature","geometry":{"type":"Point","coordinates":[126.48972,33.48572]},"properties":{"name":"자연약국","addr":"제주특별자치도 제주시 노연로 90, 1층 (연동)","sgg":"50110","cap":null,"type":null,"src":"safekorea","asof":"2026-08-22","tel":"064-712-1596"}},{"type":"Feature","geometry":{"type":"Point","coordinates":[126.54642,33.46911]},"properties":{"name":"아라동대한약국","addr":"제주특별자치도 제주시 아란13길 10","sgg":"50110","cap":null,"type":null,"src":"safekorea","asof":"2026-08-22","tel":"064-723-3311"}},{"type":"Feature","geometry":{"type":"Point","coordinates":[126.43305,33.49327]},"properties":{"name":"당근약국","addr":"제주특별자치도 제주시 일주서로 7356, 1층 102호 (외도이동)","sgg":"50110","cap":null,"type":null,"src":"safekorea","asof":"2026-08-22","tel":"064-803-0200"}},{"type":"Feature","geometry":{"type":"Point","coordinates":[126.50207,33.48793]},"properties":{"name":"맘꽃약국","addr":"제주특별자치도 제주시 연오로 59, 204호 (오라삼동)","sgg":"50110","cap":null,"type":null,"src":"safekorea","asof":"2026-08-22","tel":"064-747-2966"}},{"type":"Feature","geometry":{"type":"Point","coordinates":[126.26434,33.40866]},"properties":{"name":"새별약국","addr":"제주특별자치도 제주시 한림읍 동명북1길 11, 1층 102호 (한림읍)","sgg":"50110","cap":null,"type":null,"src":"safekorea","asof":"2026-08-22","tel":"064-796-7966"}},{"type":"Feature","geometry":{"type":"Point","coordinates":[126.51316,33.49921]},"properties":{"name":"혜명한약국","addr":"제주특별자치도 제주시 서광로2길 11-1, 1층 (오라일동)","sgg":"50110","cap":null,"type":null,"src":"safekorea","asof":"2026-08-22","tel":"064-759-1522"}},{"type":"Feature","geometry":{"type":"Point","coordinates":[126.52736,33.50356]},"properties":{"name":"연세익약국","addr":"제주특별자치도 제주시 중앙로 175, 1층 (이도일동)","sgg":"50110","cap":null,"type":null,"src":"safekorea","asof":"2026-08-22","tel":"064-725-9454"}},{"type":"Feature","geometry":{"type":"Point","coordinates":[126.85878,33.52083]},"properties":{"name":"세화약국","addr":"제주특별자치도 제주시 구좌읍 세화10길 1","sgg":"50110","cap":null,"type":null,"src":"safekorea","asof":"2026-08-22","tel":"064-784-8442"}},{"type":"Feature","geometry":{"type":"Point","coordinates":[126.47608,33.48855]},"properties":{"name":"한라약국","addr":"제주특별자치도 제주시 월랑로 33, 1층 (노형동, 한라빌딩)","sgg":"50110","cap":null,"type":null,"src":"safekorea","asof":"2026-08-22","tel":"064-712-7364"}},{"type":"Feature","geometry":{"type":"Point","coordinates":[126.53179,33.49613]},"properties":{"name":"센타약국","addr":"제주특별자치도 제주시 중앙로 266, 1층 102호 (이도이동, 영도 갤럭시타운)","sgg":"50110","cap":null,"type":null,"src":"safekorea","asof":"2026-08-22","tel":"064-752-3050"}},{"type":"Feature","geometry":{"type":"Point","coordinates":[126.54553,33.46907]},"properties":{"name":"아라종합약국","addr":"제주특별자치도 제주시 아란13길 20","sgg":"50110","cap":null,"type":null,"src":"safekorea","asof":"2026-08-22","tel":"064-724-7321"}},{"type":"Feature","geometry":{"type":"Point","coordinates":[126.4753,33.48866]},"properties":{"name":"초록약국","addr":"제주특별자치도 제주시 수덕로 6, 1층 (노형동)","sgg":"50110","cap":null,"type":null,"src":"safekorea","asof":"2026-08-22","tel":"064-713-7337"}},{"type":"Feature","geometry":{"type":"Point","coordinates":[126.49347,33.47936]},"properties":{"name":"더조은약국","addr":"제주특별자치도 제주시 과원로 110, 1층 104호 (연동)","sgg":"50110","cap":null,"type":null,"src":"safekorea","asof":"2026-08-22","tel":"064-713-5019"}},{"type":"Feature","geometry":{"type":"Point","coordinates":[126.51969,33.51293]},"properties":{"name":"레몬약국","addr":"제주특별자치도 제주시 관덕로 5, 호재빌딩 1층 (삼도이동)","sgg":"50110","cap":null,"type":null,"src":"safekorea","asof":"2026-08-22","tel":"0647527588"}},{"type":"Feature","geometry":{"type":"Point","coordinates":[126.54722,33.49569]},"properties":{"name":"봄여울약국","addr":"제주특별자치도 제주시 신설로7길 57, 제이힐링센터 지하 1층 (이도이동)","sgg":"50110","cap":null,"type":null,"src":"safekorea","asof":"2026-08-22","tel":"064-726-8845"}},{"type":"Feature","geometry":{"type":"Point","coordinates":[126.48056,33.48283]},"properties":{"name":"오름약국","addr":"제주특별자치도 제주시 1100로 3321, 지1층 (노형동)","sgg":"50110","cap":null,"type":null,"src":"safekorea","asof":"2026-08-22","tel":"064-745-8233"}},{"type":"Feature","geometry":{"type":"Point","coordinates":[126.53875,33.50639]},"properties":{"name":"해오름약국","addr":"제주특별자치도 제주시 동광로 107 (일도이동)","sgg":"50110","cap":null,"type":null,"src":"safekorea","asof":"2026-08-22","tel":"064-722-3755"}},{"type":"Feature","geometry":{"type":"Point","coordinates":[126.48594,33.49011]},"properties":{"name":"마음약국","addr":"제주특별자치도 제주시 도령로 73, 103, 110호 (연동, 연동 펠리체)","sgg":"50110","cap":null,"type":null,"src":"safekorea","asof":"2026-08-22","tel":"064-900-4057"}},{"type":"Feature","geometry":{"type":"Point","coordinates":[126.48539,33.48165]},"properties":{"name":"연동약국","addr":"제주특별자치도 제주시 연북로 38, 1층 (노형동, 연동크리닉)","sgg":"50110","cap":null,"type":null,"src":"safekorea","asof":"2026-08-22","tel":"064-743-7702"}},{"type":"Feature","geometry":{"type":"Point","coordinates":[126.50207,33.48793]},"properties":{"name":"아름약국","addr":"제주특별자치도 제주시 연오로 59, 1층 202-비호 (오라삼동)","sgg":"50110","cap":null,"type":null,"src":"safekorea","asof":"2026-08-22","tel":"064-805-3345"}},{"type":"Feature","geometry":{"type":"Point","coordinates":[126.52459,33.50022]},"properties":{"name":"해약국","addr":"제주특별자치도 제주시 서광로 263 (삼도일동)","sgg":"50110","cap":null,"type":null,"src":"safekorea","asof":"2026-08-22","tel":"064-725-2283"}},{"type":"Feature","geometry":{"type":"Point","coordinates":[126.52788,33.5002]},"properties":{"name":"참약국","addr":"제주특별자치도 제주시 서광로 294, 1층 (이도이동)","sgg":"50110","cap":null,"type":null,"src":"safekorea","asof":"2026-08-22","tel":"064-753-6541"}},{"type":"Feature","geometry":{"type":"Point","coordinates":[126.48324,33.48625]},"properties":{"name":"매일약국","addr":"제주특별자치도 제주시 노연로 29 (노형동)","sgg":"50110","cap":null,"type":null,"src":"safekorea","asof":"2026-08-22","tel":"064-749-8876"}},{"type":"Feature","geometry":{"type":"Point","coordinates":[126.52007,33.49956]},"properties":{"name":"오즈약국","addr":"제주특별자치도 제주시 서광로 220 (삼도일동)","sgg":"50110","cap":null,"type":null,"src":"safekorea","asof":"2026-08-22","tel":"0507-1408-2044"}},{"type":"Feature","geometry":{"type":"Point","coordinates":[126.5435,33.47458]},"properties":{"name":"다정약국","addr":"제주특별자치도 제주시 아란7길 18, 1층 101호 (아라일동)","sgg":"50110","cap":null,"type":null,"src":"safekorea","asof":"2026-08-22","tel":"064-721-8337"}},{"type":"Feature","geometry":{"type":"Point","coordinates":[126.4881,33.48659]},"properties":{"name":"보건약국","addr":"제주특별자치도 제주시 연동3길 37, 1층 (연동)","sgg":"50110","cap":null,"type":null,"src":"safekorea","asof":"2026-08-22","tel":"070-8286-8866"}},{"type":"Feature","geometry":{"type":"Point","coordinates":[126.48533,33.48916]},"properties":{"name":"올레약국","addr":"제주특별자치도 제주시 도령로 64, 1층 (연동)","sgg":"50110","cap":null,"type":null,"src":"safekorea","asof":"2026-08-22","tel":"064-713-4886"}},{"type":"Feature","geometry":{"type":"Point","coordinates":[126.56042,33.25474]},"properties":{"name":"광장약국","addr":"제주특별자치도 서귀포시 중앙로 113 (서홍동)","sgg":"50130","cap":null,"type":null,"src":"safekorea","asof":"2026-08-22","tel":"064-733-1733"}},{"type":"Feature","geometry":{"type":"Point","coordinates":[126.56182,33.25303]},"properties":{"name":"열방약국","addr":"제주특별자치도 서귀포시 일주동로 8673 (서귀동)","sgg":"50130","cap":null,"type":null,"src":"safekorea","asof":"2026-08-22","tel":"064-732-1190"}},{"type":"Feature","geometry":{"type":"Point","coordinates":[126.56815,33.24883]},"properties":{"name":"동문약국","addr":"제주특별자치도 서귀포시 중정로 109 (서귀동)","sgg":"50130","cap":null,"type":null,"src":"safekorea","asof":"2026-08-22","tel":"064-767-4889"}},{"type":"Feature","geometry":{"type":"Point","coordinates":[126.31635,33.30497]},"properties":{"name":"황금약국","addr":"제주특별자치도 서귀포시 안덕면 신화역사로304번길 38, HB1-28","sgg":"50130","cap":null,"type":null,"src":"safekorea","asof":"2026-08-22","tel":"064-909-2380"}},{"type":"Feature","geometry":{"type":"Point","coordinates":[126.32964,33.24637]},"properties":{"name":"산방산약국","addr":"제주특별자치도 서귀포시 안덕면 화순로 157","sgg":"50130","cap":null,"type":null,"src":"safekorea","asof":"2026-08-22","tel":"064-738-1598"}},{"type":"Feature","geometry":{"type":"Point","coordinates":[126.55935,33.2531]},"properties":{"name":"최고약국","addr":"제주특별자치도 서귀포시 일주동로 8696 (서홍동)","sgg":"50130","cap":null,"type":null,"src":"safekorea","asof":"2026-08-22","tel":"064-762-8696"}},{"type":"Feature","geometry":{"type":"Point","coordinates":[126.56207,33.25234]},"properties":{"name":"현강약국","addr":"제주특별자치도 서귀포시 동문로 5 (서귀동)","sgg":"50130","cap":null,"type":null,"src":"safekorea","asof":"2026-08-22","tel":"064-762-6050"}},{"type":"Feature","geometry":{"type":"Point","coordinates":[126.50529,33.25646]},"properties":{"name":"금강한약국","addr":"제주특별자치도 서귀포시 신서로 69 (강정동, 강정지예타운)","sgg":"50130","cap":null,"type":null,"src":"safekorea","asof":"2026-08-22","tel":"064-738-2880"}},{"type":"Feature","geometry":{"type":"Point","coordinates":[126.52228,33.25313]},"properties":{"name":"연이수온누리약국","addr":"제주특별자치도 서귀포시 서호남로 91, 1층 105호 (서호동, 서귀포혁신 사랑으로 부영아파트)","sgg":"50130","cap":null,"type":null,"src":"safekorea","asof":"2026-08-22","tel":"064-738-3443"}},{"type":"Feature","geometry":{"type":"Point","coordinates":[126.56131,33.25227]},"properties":{"name":"동산프라자약국","addr":"제주특별자치도 서귀포시 중앙로 86, (서귀동)","sgg":"50130","cap":null,"type":null,"src":"safekorea","asof":"2026-08-22","tel":"064-762-3532"}},{"type":"Feature","geometry":{"type":"Point","coordinates":[126.56167,33.24738]},"properties":{"name":"늘푸른약국","addr":"제주특별자치도 서귀포시 중정로 50 (서귀동, 늘푸른약국)","sgg":"50130","cap":null,"type":null,"src":"safekorea","asof":"2026-08-22","tel":"064-762-1259"}},{"type":"Feature","geometry":{"type":"Point","coordinates":[126.56169,33.25301]},"properties":{"name":"다나약국","addr":"제주특별자치도 서귀포시 일주동로 8675, (서귀동)","sgg":"50130","cap":null,"type":null,"src":"safekorea","asof":"2026-08-22","tel":"064-762-6354"}},{"type":"Feature","geometry":{"type":"Point","coordinates":[126.7179,33.27892]},"properties":{"name":"남원약국","addr":"제주특별자치도 서귀포시 남원읍 태위로 667","sgg":"50130","cap":null,"type":null,"src":"safekorea","asof":"2026-08-22","tel":"064-764-0405"}},{"type":"Feature","geometry":{"type":"Point","coordinates":[126.42303,33.25269]},"properties":{"name":"다온약국","addr":"제주특별자치도 서귀포시 중문로 7","sgg":"50130","cap":null,"type":null,"src":"safekorea","asof":"2026-08-22","tel":"064-738-4499"}},{"type":"Feature","geometry":{"type":"Point","coordinates":[126.5627,33.24828]},"properties":{"name":"종로약국","addr":"제주특별자치도 서귀포시 중앙로42번길 8, 강원청과 (서귀동)","sgg":"50130","cap":null,"type":null,"src":"safekorea","asof":"2026-08-22","tel":"064-733-0307"}},{"type":"Feature","geometry":{"type":"Point","coordinates":[126.56428,33.24791]},"properties":{"name":"동의당약국","addr":"제주특별자치도 서귀포시 이중섭로 1, (서귀동)","sgg":"50130","cap":null,"type":null,"src":"safekorea","asof":"2026-08-22","tel":"064-732-0195"}},{"type":"Feature","geometry":{"type":"Point","coordinates":[126.71437,33.27812]},"properties":{"name":"조광약국","addr":"제주특별자치도 서귀포시 남원읍 태위로 633","sgg":"50130","cap":null,"type":null,"src":"safekorea","asof":"2026-08-22","tel":"064-764-4159"}},{"type":"Feature","geometry":{"type":"Point","coordinates":[126.72028,33.27963]},"properties":{"name":"고은약국","addr":"제주특별자치도 서귀포시 남원읍 태위로700번길 3","sgg":"50130","cap":null,"type":null,"src":"safekorea","asof":"2026-08-22","tel":"064-764-8878"}},{"type":"Feature","geometry":{"type":"Point","coordinates":[126.27509,33.27926]},"properties":{"name":"노란문약국","addr":"제주특별자치도 서귀포시 대정읍 에듀시티로239번길 12","sgg":"50130","cap":null,"type":null,"src":"safekorea","asof":"2026-08-22","tel":"064-792-1103"}},{"type":"Feature","geometry":{"type":"Point","coordinates":[126.91459,33.44958]},"properties":{"name":"태양약국","addr":"제주특별자치도 서귀포시 성산읍 고성오조로  67","sgg":"50130","cap":null,"type":null,"src":"safekorea","asof":"2026-08-22","tel":"064-784-7817"}},{"type":"Feature","geometry":{"type":"Point","coordinates":[126.83286,33.32583]},"properties":{"name":"소아약국","addr":"제주특별자치도 서귀포시 표선면 표선중앙로 84 (소아약국)","sgg":"50130","cap":null,"type":null,"src":"safekorea","asof":"2026-08-22","tel":"064-787-0153"}},{"type":"Feature","geometry":{"type":"Point","coordinates":[126.50266,33.2528]},"properties":{"name":"봄봄약국","addr":"제주특별자치도 서귀포시 대청로25번길 4 (강정동)","sgg":"50130","cap":null,"type":null,"src":"safekorea","asof":"2026-08-22","tel":"064-738-8266"}},{"type":"Feature","geometry":{"type":"Point","coordinates":[126.57217,33.2503]},"properties":{"name":"서귀포스타약국","addr":"제주특별자치도 서귀포시 태평로 508, 1층 (동홍동)","sgg":"50130","cap":null,"type":null,"src":"safekorea","asof":"2026-08-22","tel":"064-733-7582"}},{"type":"Feature","geometry":{"type":"Point","coordinates":[126.71433,33.27767]},"properties":{"name":"동원약국","addr":"제주특별자치도 서귀포시 남원읍 태위로 634 ((남원읍))","sgg":"50130","cap":null,"type":null,"src":"safekorea","asof":"2026-08-22","tel":"064-764-5784"}},{"type":"Feature","geometry":{"type":"Point","coordinates":[126.42703,33.25148]},"properties":{"name":"한마음약국","addr":"제주특별자치도 서귀포시 천제연로 210-1, (중문동)","sgg":"50130","cap":null,"type":null,"src":"safekorea","asof":"2026-08-22","tel":"064-739-0381"}},{"type":"Feature","geometry":{"type":"Point","coordinates":[126.71986,33.2795]},"properties":{"name":"민생약국","addr":"제주특별자치도 서귀포시 남원읍 태위로 687","sgg":"50130","cap":null,"type":null,"src":"safekorea","asof":"2026-08-22","tel":"064-764-1079"}},{"type":"Feature","geometry":{"type":"Point","coordinates":[126.56361,33.24781]},"properties":{"name":"광진당약국","addr":"제주특별자치도 서귀포시 중정로 68","sgg":"50130","cap":null,"type":null,"src":"safekorea","asof":"2026-08-22","tel":"064-732-8275"}},{"type":"Feature","geometry":{"type":"Point","coordinates":[126.56112,33.25422]},"properties":{"name":"조약국","addr":"제주특별자치도 서귀포시 중앙로 108 (동홍동)","sgg":"50130","cap":null,"type":null,"src":"safekorea","asof":"2026-08-22","tel":"0647632215"}},{"type":"Feature","geometry":{"type":"Point","coordinates":[126.25393,33.2218]},"properties":{"name":"프라자약국","addr":"제주특별자치도 서귀포시 대정읍 신영로 109","sgg":"50130","cap":null,"type":null,"src":"safekorea","asof":"2026-08-22","tel":"064-792-5557"}},{"type":"Feature","geometry":{"type":"Point","coordinates":[126.91329,33.4471]},"properties":{"name":"동남온누리약국","addr":"제주특별자치도 서귀포시 성산읍 일출로 4, 케이빌딩","sgg":"50130","cap":null,"type":null,"src":"safekorea","asof":"2026-08-22","tel":"064-782-5417"}},{"type":"Feature","geometry":{"type":"Point","coordinates":[126.28531,33.28051]},"properties":{"name":"신통약국","addr":"제주특별자치도 서귀포시 대정읍 중산간서로 2276, B동 101호","sgg":"50130","cap":null,"type":null,"src":"safekorea","asof":"2026-08-22","tel":"064-794-7580"}},{"type":"Feature","geometry":{"type":"Point","coordinates":[126.6177,33.26348]},"properties":{"name":"하약국","addr":"제주특별자치도 서귀포시 하신상로 32, 1층 (하효동)","sgg":"50130","cap":null,"type":null,"src":"safekorea","asof":"2026-08-22","tel":"064-733-3216"}},{"type":"Feature","geometry":{"type":"Point","coordinates":[126.56442,33.25457]},"properties":{"name":"정문약국","addr":"제주특별자치도 서귀포시 일주동로 8648-12 (동홍동)","sgg":"50130","cap":null,"type":null,"src":"safekorea","asof":"2026-08-22","tel":"064-733-4457"}},{"type":"Feature","geometry":{"type":"Point","coordinates":[126.90425,33.44646]},"properties":{"name":"제주사랑약국","addr":"제주특별자치도 서귀포시 성산읍 서성일로 1177","sgg":"50130","cap":null,"type":null,"src":"safekorea","asof":"2026-08-22","tel":"064-782-3075"}},{"type":"Feature","geometry":{"type":"Point","coordinates":[126.5653,33.25428]},"properties":{"name":"부부약국","addr":"제주특별자치도 서귀포시 일주동로 8640","sgg":"50130","cap":null,"type":null,"src":"safekorea","asof":"2026-08-22","tel":"064-767-6013"}},{"type":"Feature","geometry":{"type":"Point","coordinates":[126.93331,33.46332]},"properties":{"name":"새한약국","addr":"제주특별자치도 서귀포시 성산읍 성산중앙로 39","sgg":"50130","cap":null,"type":null,"src":"safekorea","asof":"2026-08-22","tel":"064-784-3001"}},{"type":"Feature","geometry":{"type":"Point","coordinates":[126.83085,33.32433]},"properties":{"name":"은혜약국","addr":"제주특별자치도 서귀포시 표선면 표선관정로 97 (서울약국)","sgg":"50130","cap":null,"type":null,"src":"safekorea","asof":"2026-08-22","tel":"0647875242"}},{"type":"Feature","geometry":{"type":"Point","coordinates":[126.25397,33.22211]},"properties":{"name":"건강약국","addr":"제주특별자치도 서귀포시 대정읍 하모상가로 49, 1층","sgg":"50130","cap":null,"type":null,"src":"safekorea","asof":"2026-08-22","tel":"064-794-7575"}},{"type":"Feature","geometry":{"type":"Point","coordinates":[126.25423,33.22232]},"properties":{"name":"시계탑약국","addr":"제주특별자치도 서귀포시 대정읍 신영로 115","sgg":"50130","cap":null,"type":null,"src":"safekorea","asof":"2026-08-22","tel":"064-794-1763"}},{"type":"Feature","geometry":{"type":"Point","coordinates":[126.33462,33.24659]},"properties":{"name":"한양약국","addr":"제주특별자치도 서귀포시 안덕면 화순로 110,","sgg":"50130","cap":null,"type":null,"src":"safekorea","asof":"2026-08-22","tel":"064-792-7792"}},{"type":"Feature","geometry":{"type":"Point","coordinates":[126.56395,33.24846]},"properties":{"name":"유선약국","addr":"제주특별자치도 서귀포시 중정로73번길 3-1","sgg":"50130","cap":null,"type":null,"src":"safekorea","asof":"2026-08-22","tel":"064-762-3273"}},{"type":"Feature","geometry":{"type":"Point","coordinates":[126.56514,33.2501]},"properties":{"name":"은성약국","addr":"제주특별자치도 서귀포시 동문로 46, 제일산부인과 1층 (서귀동)","sgg":"50130","cap":null,"type":null,"src":"safekorea","asof":"2026-08-22","tel":"064-732-1346"}},{"type":"Feature","geometry":{"type":"Point","coordinates":[126.2517,33.22167]},"properties":{"name":"메디팜현대약국","addr":"제주특별자치도 서귀포시 대정읍 하모상가로 27","sgg":"50130","cap":null,"type":null,"src":"safekorea","asof":"2026-08-22","tel":"064-794-0719"}},{"type":"Feature","geometry":{"type":"Point","coordinates":[126.42699,33.25176]},"properties":{"name":"국민약국","addr":"제주특별자치도 서귀포시 천제연로 209 (중문동)","sgg":"50130","cap":null,"type":null,"src":"safekorea","asof":"2026-08-22","tel":"064-738-8575"}},{"type":"Feature","geometry":{"type":"Point","coordinates":[126.30986,33.23381]},"properties":{"name":"용머리약국","addr":"제주특별자치도 서귀포시 안덕면 사계남로216번길 31, B동 102호","sgg":"50130","cap":null,"type":null,"src":"safekorea","asof":"2026-08-22","tel":"070-7757-7128"}},{"type":"Feature","geometry":{"type":"Point","coordinates":[126.27922,33.27625]},"properties":{"name":"참약사바른약국","addr":"제주특별자치도 서귀포시 대정읍 영어도시로 44, 1층","sgg":"50130","cap":null,"type":null,"src":"safekorea","asof":"2026-08-22","tel":"064-805-9159"}},{"type":"Feature","geometry":{"type":"Point","coordinates":[126.56688,33.24902]},"properties":{"name":"감귤약국","addr":"제주특별자치도 서귀포시 동문로 64(서귀동)","sgg":"50130","cap":null,"type":null,"src":"safekorea","asof":"2026-08-22","tel":"064-901-2046"}},{"type":"Feature","geometry":{"type":"Point","coordinates":[126.25082,33.22098]},"properties":{"name":"모슬포약국","addr":"제주특별자치도 서귀포시 대정읍 신영로 75, 103호","sgg":"50130","cap":null,"type":null,"src":"safekorea","asof":"2026-08-22","tel":"064-792-8975"}},{"type":"Feature","geometry":{"type":"Point","coordinates":[126.42299,33.252]},"properties":{"name":"율약국","addr":"제주특별자치도 서귀포시 중문로 1 (중문동)","sgg":"50130","cap":null,"type":null,"src":"safekorea","asof":"2026-08-22","tel":"064-738-2115"}},{"type":"Feature","geometry":{"type":"Point","coordinates":[126.42545,33.25143]},"properties":{"name":"정화약국","addr":"제주특별자치도 서귀포시 중문상로 36 (중문동)","sgg":"50130","cap":null,"type":null,"src":"safekorea","asof":"2026-08-22","tel":"064-738-5550"}},{"type":"Feature","geometry":{"type":"Point","coordinates":[126.28034,33.28691]},"properties":{"name":"프라임약국","addr":"제주특별자치도 서귀포시 대정읍 에듀시티로 102, 104,105호 (한신더휴)","sgg":"50130","cap":null,"type":null,"src":"safekorea","asof":"2026-08-22","tel":"064-794-9997"}},{"type":"Feature","geometry":{"type":"Point","coordinates":[126.56353,33.24779]},"properties":{"name":"민제약국","addr":"제주특별자치도 서귀포시 중정로 66-2","sgg":"50130","cap":null,"type":null,"src":"safekorea","asof":"2026-08-22","tel":"064-732-3646"}},{"type":"Feature","geometry":{"type":"Point","coordinates":[126.83161,33.32424]},"properties":{"name":"온세상건강약국","addr":"제주특별자치도 서귀포시 표선면 표선동서로 225 (표선의원)","sgg":"50130","cap":null,"type":null,"src":"safekorea","asof":"2026-08-22","tel":"064-787-7817"}},{"type":"Feature","geometry":{"type":"Point","coordinates":[126.56382,33.24777]},"properties":{"name":"오름약국","addr":"제주특별자치도 서귀포시 중정로 70 (서귀동)","sgg":"50130","cap":null,"type":null,"src":"safekorea","asof":"2026-08-22","tel":"064-803-0550"}},{"type":"Feature","geometry":{"type":"Point","coordinates":[126.2518,33.22138]},"properties":{"name":"대정온누리약국","addr":"제주특별자치도 서귀포시 대정읍 하모중앙로 76, 1층 3호","sgg":"50130","cap":null,"type":null,"src":"safekorea","asof":"2026-08-22","tel":"0647927545"}},{"type":"Feature","geometry":{"type":"Point","coordinates":[126.91507,33.44961]},"properties":{"name":"제일약국","addr":"제주특별자치도 서귀포시 성산읍 동류암로36번길  23","sgg":"50130","cap":null,"type":null,"src":"safekorea","asof":"2026-08-22","tel":"064-783-0606"}},{"type":"Feature","geometry":{"type":"Point","coordinates":[126.25299,33.22134]},"properties":{"name":"맑은약국","addr":"제주특별자치도 서귀포시 대정읍 하모상가로 38-2, 1층","sgg":"50130","cap":null,"type":null,"src":"safekorea","asof":"2026-08-22","tel":"064-901-0788"}},{"type":"Feature","geometry":{"type":"Point","coordinates":[126.50732,33.24899]},"properties":{"name":"신세계온누리약국","addr":"제주특별자치도 서귀포시 월드컵로 8 104호 송산프라자 (강정동)","sgg":"50130","cap":null,"type":null,"src":"safekorea","asof":"2026-08-22","tel":"064-739-0813"}},{"type":"Feature","geometry":{"type":"Point","coordinates":[126.51422,33.24772]},"properties":{"name":"혁신온누리약국","addr":"제주특별자치도 서귀포시 일주동로 9159, B101호 (법환동)","sgg":"50130","cap":null,"type":null,"src":"safekorea","asof":"2026-08-22","tel":"064-739-7545"}},{"type":"Feature","geometry":{"type":"Point","coordinates":[126.61562,33.26346]},"properties":{"name":"효돈약국","addr":"제주특별자치도 서귀포시 효돈로 158 (하효동)","sgg":"50130","cap":null,"type":null,"src":"safekorea","asof":"2026-08-22","tel":"070-8064-6812"}},{"type":"Feature","geometry":{"type":"Point","coordinates":[126.50863,33.25358]},"properties":{"name":"행복온누리약국","addr":"제주특별자치도 서귀포시 신서로48번길 31, 명성 클리닉 빌딩 (강정동)","sgg":"50130","cap":null,"type":null,"src":"safekorea","asof":"2026-08-22","tel":"064-738-4831"}},{"type":"Feature","geometry":{"type":"Point","coordinates":[126.66107,33.275]},"properties":{"name":"위미약국","addr":"제주특별자치도 서귀포시 남원읍 태위로 127 (위미약국)","sgg":"50130","cap":null,"type":null,"src":"safekorea","asof":"2026-08-22","tel":"064-764-6603"}},{"type":"Feature","geometry":{"type":"Point","coordinates":[126.83243,33.32603]},"properties":{"name":"표선한사랑약국","addr":"제주특별자치도 서귀포시 표선면 표선중앙로80번길 1","sgg":"50130","cap":null,"type":null,"src":"safekorea","asof":"2026-08-22","tel":"064-787-0060"}},{"type":"Feature","geometry":{"type":"Point","coordinates":[126.56412,33.25421]},"properties":{"name":"밝은온누리약국","addr":"제주특별자치도 서귀포시 일주동로 8648-3 (동홍동)","sgg":"50130","cap":null,"type":null,"src":"safekorea","asof":"2026-08-22","tel":"064-762-1192"}}]}