{"type":"FeatureCollection", "features": [
{"type":"Feature","geometry":{"type":"Polygon","coordinates":[[[126.899469,37.480344],[126.900674,37.479326],[126.902119,37.479542],[126.906552,37.480357],[126.909724,37.480949],[126.908823,37.479443],[126.908824,37.478865],[126.90924,37.478396],[126.909485,37.478202],[126.910648,37.478101],[126.911622,37.478166],[126.911863,37.477263],[126.911938,37.476905],[126.91164,37.475519],[126.911347,37.474736],[126.910958,37.473857],[126.910721,37.47364],[126.909882,37.47326],[126.908228,37.472626],[126.908636,37.472084],[126.909007,37.471213],[126.910125,37.469073],[126.911617,37.466627],[126.9124,37.46601],[126.912436,37.465677],[126.913749,37.465282],[126.913031,37.464401],[126.912859,37.463974],[126.913963,37.458645],[126.914151,37.458093],[126.914834,37.457668],[126.918411,37.457163],[126.922468,37.457248],[126.922509,37.456947],[126.92243,37.456732],[126.922638,37.455543],[126.923056,37.454635],[126.923184,37.454428],[126.925302,37.45288],[126.927072,37.45169],[126.928749,37.450193],[126.931026,37.447821],[126.930325,37.447388],[126.930259,37.44633],[126.930513,37.445293],[126.933891,37.443547],[126.93537,37.442849],[126.937846,37.440178],[126.93727,37.438451],[126.938639,37.436049],[126.940213,37.435724],[126.941404,37.437414],[126.944919,37.437038],[126.946901,37.438046],[126.948223,37.438523],[126.951024,37.438418],[126.95259,37.439209],[126.955247,37.438594],[126.959246,37.4392],[126.959975,37.440261],[126.963021,37.440314],[126.963803,37.440768],[126.963983,37.44204],[126.964089,37.442187],[126.964112,37.442472],[126.96405,37.443047],[126.963873,37.443731],[126.963827,37.444221],[126.963993,37.44485],[126.964411,37.44558],[126.964562,37.44569],[126.965566,37.446097],[126.968108,37.446748],[126.968697,37.44679],[126.970812,37.447461],[126.973983,37.447599],[126.974057,37.447654],[126.978661,37.451899],[126.982356,37.455158],[126.986836,37.457408],[126.98862,37.458135],[126.987639,37.459402],[126.987467,37.460409],[126.987639,37.461304],[126.987921,37.462241],[126.988234,37.463873],[126.988164,37.465524],[126.987592,37.466937],[126.986863,37.46785],[126.985429,37.468976],[126.984528,37.469745],[126.983235,37.47157],[126.982538,37.472771],[126.98186,37.474698],[126.981723,37.476365],[126.979388,37.47662],[126.976919,37.476572],[126.974831,37.476255],[126.972368,37.475814],[126.970491,37.475368],[126.970187,37.476625],[126.968802,37.476654],[126.968213,37.477304],[126.967818,37.477794],[126.96682,37.478582],[126.965892,37.479223],[126.965321,37.479564],[126.964442,37.480215],[126.961345,37.483485],[126.961406,37.48382],[126.962148,37.485239],[126.962139,37.486471],[126.962067,37.487291],[126.961067,37.49113],[126.961247,37.492428],[126.961238,37.492559],[126.961199,37.493388],[126.960348,37.493851],[126.960227,37.493888],[126.959125,37.493866],[126.958949,37.49379],[126.958676,37.492931],[126.957371,37.491811],[126.956714,37.491555],[126.956106,37.491583],[126.954804,37.491178],[126.954041,37.491039],[126.953396,37.491159],[126.951247,37.492411],[126.948518,37.493677],[126.94768,37.49374],[126.947392,37.493909],[126.943388,37.492082],[126.942829,37.492237],[126.941646,37.492252],[126.939509,37.490876],[126.939147,37.491583],[126.936122,37.492405],[126.933452,37.493021],[126.931115,37.493419],[126.92987,37.494001],[126.928476,37.494788],[126.9281,37.494936],[126.927722,37.494989],[126.927366,37.494931],[126.926601,37.494126],[126.926523,37.493931],[126.925827,37.492606],[126.924881,37.490897],[126.924301,37.489965],[126.918891,37.489562],[126.915968,37.488762],[126.913324,37.487247],[126.913239,37.487205],[126.911155,37.486469],[126.909226,37.485867],[126.907767,37.485424],[126.905963,37.484989],[126.905133,37.484965],[126.903227,37.484986],[126.899469,37.480344]]]},"properties":{"code":"11620","name":"관악구","sido_code":"11","sido_name":"서울특별시"}}
]}