{"type":"FeatureCollection","features":[{"type":"Feature","geometry":{"type":"Point","coordinates":[126.68577,37.6105]},"properties":{"name":"불로지구4호공원","addr":"서구 검단로744번3길 14","sgg":null,"cap":2280,"type":"지진해일긴급대피장소 (옥외대피장소)","src":"datago_std_15025449","asof":"2020-08-21"}},{"type":"Feature","geometry":{"type":"Point","coordinates":[126.65431,37.60144]},"properties":{"name":"종다리공원","addr":"서구 검단로 449","sgg":null,"cap":2501,"type":"지진해일긴급대피장소 (옥외대피장소)","src":"datago_std_15025449","asof":"2020-08-21"}},{"type":"Feature","geometry":{"type":"Point","coordinates":[126.6787,37.59095]},"properties":{"name":"당하지구3호공원","addr":"서구 청마로148번길 15 펼치기접기","sgg":null,"cap":1819,"type":"지진해일긴급대피장소 (옥외대피장소)","src":"datago_std_15025449","asof":"2020-08-21"}},{"type":"Feature","geometry":{"type":"Point","coordinates":[126.67714,37.5649]},"properties":{"name":"중동공원","addr":"서구 서곶로 527","sgg":null,"cap":3584,"type":"지진해일긴급대피장소 (옥외대피장소)","src":"datago_std_15025449","asof":"2020-08-21"}},{"type":"Feature","geometry":{"type":"Point","coordinates":[126.6755,37.56773]},"properties":{"name":"장모루근린공원","addr":"서구 도요지로189번길 141","sgg":null,"cap":4840,"type":"지진해일긴급대피장소 (옥외대피장소)","src":"datago_std_15025449","asof":"2020-08-21"}},{"type":"Feature","geometry":{"type":"Point","coordinates":[126.67459,37.56415]},"properties":{"name":"간재울공원","addr":"서구 승학로472번길 9","sgg":null,"cap":2121,"type":"지진해일긴급대피장소 (옥외대피장소)","src":"datago_std_15025449","asof":"2020-08-21"}},{"type":"Feature","geometry":{"type":"Point","coordinates":[126.68115,37.54689]},"properties":{"name":"서곶근린공원 주차장","addr":"서구 연희동 산 50","sgg":null,"cap":91087,"type":"지진해일긴급대피장소 (옥외대피장소)","src":"datago_std_15025449","asof":"2020-08-21"}},{"type":"Feature","geometry":{"type":"Point","coordinates":[126.68433,37.5511]},"properties":{"name":"공촌공원","addr":"서구 경명대로680번길 9","sgg":null,"cap":2036,"type":"지진해일긴급대피장소 (옥외대피장소)","src":"datago_std_15025449","asof":"2020-08-21"}},{"type":"Feature","geometry":{"type":"Point","coordinates":[126.68482,37.55278]},"properties":{"name":"갈매공원","addr":"서구 경명대로683번길 6-7","sgg":null,"cap":1427,"type":"지진해일긴급대피장소 (옥외대피장소)","src":"datago_std_15025449","asof":"2020-08-21"}},{"type":"Feature","geometry":{"type":"Point","coordinates":[126.60337,37.53169]},"properties":{"name":"청라1호근린공원","addr":"서구 사렴로 71","sgg":null,"cap":8485,"type":"지진해일긴급대피장소 (옥외대피장소)","src":"datago_std_15025449","asof":"2020-08-21"}},{"type":"Feature","geometry":{"type":"Point","coordinates":[126.63955,37.55564]},"properties":{"name":"주물공단공원","addr":"서구 서곶로 527","sgg":null,"cap":12558,"type":"지진해일긴급대피장소 (옥외대피장소)","src":"datago_std_15025449","asof":"2020-08-21"}},{"type":"Feature","geometry":{"type":"Point","coordinates":[126.65745,37.60513]},"properties":{"name":"마전1공원","addr":"서구 가현로 117","sgg":null,"cap":3898,"type":"지진해일긴급대피장소 (옥외대피장소)","src":"datago_std_15025449","asof":"2020-08-21"}},{"type":"Feature","geometry":{"type":"Point","coordinates":[126.66406,37.60343]},"properties":{"name":"검단2호공원","addr":"서구 완정로156번안길 35","sgg":null,"cap":10520,"type":"지진해일긴급대피장소 (옥외대피장소)","src":"datago_std_15025449","asof":"2020-08-21"}}]}