{"type":"FeatureCollection","features":[{"type":"Feature","geometry":{"type":"Point","coordinates":[127.31731,36.49646]},"properties":{"name":"반곡고등학교 운동장","addr":"세종특별자치시 세종시 시청대로 598","sgg":"36110","cap":3172,"type":"지진옥외대피장소","src":"safekorea","asof":"2026-05-06"}},{"type":"Feature","geometry":{"type":"Point","coordinates":[127.31193,36.49995]},"properties":{"name":"반곡중학교 운동장","addr":"세종특별자치시 세종시 시청대로 480","sgg":"36110","cap":4627,"type":"지진옥외대피장소","src":"safekorea","asof":"2026-05-06"}},{"type":"Feature","geometry":{"type":"Point","coordinates":[127.3106,36.49964]},"properties":{"name":"반곡초등학교 운동장","addr":"세종특별자치시 세종시 시청대로 464","sgg":"36110","cap":4027,"type":"지진옥외대피장소","src":"safekorea","asof":"2026-05-06"}},{"type":"Feature","geometry":{"type":"Point","coordinates":[127.31231,36.49563]},"properties":{"name":"솔빛초등학교 운동장","addr":null,"sgg":"36110","cap":2078,"type":"지진옥외대피장소","src":"safekorea","asof":"2026-05-06"}},{"type":"Feature","geometry":{"type":"Point","coordinates":[127.29896,36.48796]},"properties":{"name":"글벗중학교 운동장","addr":"세종특별자치시 세종시 소담4로 33","sgg":"36110","cap":4040,"type":"지진옥외대피장소","src":"safekorea","asof":"2026-05-06"}},{"type":"Feature","geometry":{"type":"Point","coordinates":[127.29786,36.48714]},"properties":{"name":"글벗초등학교 운동장","addr":"세종특별자치시 세종시 소담로 121","sgg":"36110","cap":2757,"type":"지진옥외대피장소","src":"safekorea","asof":"2026-05-06"}},{"type":"Feature","geometry":{"type":"Point","coordinates":[127.30305,36.48195]},"properties":{"name":"소담고등학교 운동장","addr":"세종특별자치시 세종시 남세종로 326","sgg":"36110","cap":4545,"type":"지진옥외대피장소","src":"safekorea","asof":"2026-05-06"}},{"type":"Feature","geometry":{"type":"Point","coordinates":[127.30192,36.48173]},"properties":{"name":"소담중학교 운동장","addr":"세종특별자치시 세종시 남세종로 340","sgg":"36110","cap":3818,"type":"지진옥외대피장소","src":"safekorea","asof":"2026-05-06"}},{"type":"Feature","geometry":{"type":"Point","coordinates":[127.30214,36.48321]},"properties":{"name":"소담초등학교 운동장","addr":"세종특별자치시 세종시 소담1로 25","sgg":"36110","cap":3280,"type":"지진옥외대피장소","src":"safekorea","asof":"2026-05-06"}},{"type":"Feature","geometry":{"type":"Point","coordinates":[127.29534,36.48603]},"properties":{"name":"숲바람 수변공원","addr":null,"sgg":"36110","cap":6060,"type":"지진옥외대피장소","src":"safekorea","asof":"2026-05-06"}},{"type":"Feature","geometry":{"type":"Point","coordinates":[127.29165,36.48238]},"properties":{"name":"금강수변공원","addr":null,"sgg":"36110","cap":14545,"type":"지진옥외대피장소","src":"safekorea","asof":"2026-05-06"}},{"type":"Feature","geometry":{"type":"Point","coordinates":[127.28419,36.47721]},"properties":{"name":"보람고등학교 운동장","addr":"세종특별자치시 세종시 한누리대로 2176","sgg":"36110","cap":4063,"type":"지진옥외대피장소","src":"safekorea","asof":"2026-05-06"}},{"type":"Feature","geometry":{"type":"Point","coordinates":[127.29288,36.47724]},"properties":{"name":"보람중학교 운동장","addr":"세종특별자치시 세종시 남세종로 423","sgg":"36110","cap":4063,"type":"지진옥외대피장소","src":"safekorea","asof":"2026-05-06"}},{"type":"Feature","geometry":{"type":"Point","coordinates":[127.29399,36.47939]},"properties":{"name":"보람초등학교 운동장","addr":"세종특별자치시 세종시 남세종로 416","sgg":"36110","cap":3393,"type":"지진옥외대피장소","src":"safekorea","asof":"2026-05-06"}},{"type":"Feature","geometry":{"type":"Point","coordinates":[127.28267,36.47451]},"properties":{"name":"아울뜰 근린공원","addr":null,"sgg":"36110","cap":9697,"type":"지진옥외대피장소","src":"safekorea","asof":"2026-05-06"}},{"type":"Feature","geometry":{"type":"Point","coordinates":[127.2855,36.47588]},"properties":{"name":"여울초등학교 운동장","addr":"세종특별자치시 세종시 보람1길 9","sgg":"36110","cap":1070,"type":"지진옥외대피장소","src":"safekorea","asof":"2026-05-06"}},{"type":"Feature","geometry":{"type":"Point","coordinates":[127.28057,36.47004]},"properties":{"name":"금호중학교 운동장","addr":"세종특별자치시 세종시 대평로 27","sgg":"36110","cap":3229,"type":"지진옥외대피장소","src":"safekorea","asof":"2026-05-05"}},{"type":"Feature","geometry":{"type":"Point","coordinates":[127.27531,36.46913]},"properties":{"name":"대평뜰 근린공원","addr":null,"sgg":"36110","cap":13939,"type":"지진옥외대피장소","src":"safekorea","asof":"2026-05-05"}},{"type":"Feature","geometry":{"type":"Point","coordinates":[127.27952,36.46972]},"properties":{"name":"대평초등학교 운동장","addr":"세종특별자치시 세종시 대평1길 17","sgg":"36110","cap":1818,"type":"지진옥외대피장소","src":"safekorea","asof":"2026-05-05"}},{"type":"Feature","geometry":{"type":"Point","coordinates":[127.27419,36.47349]},"properties":{"name":"두레뜰 근린공원","addr":null,"sgg":"36110","cap":12121,"type":"지진옥외대피장소","src":"safekorea","asof":"2026-05-05"}},{"type":"Feature","geometry":{"type":"Point","coordinates":[127.25118,36.47564]},"properties":{"name":"나리꽃 어린이공원","addr":null,"sgg":"36110","cap":6063,"type":"지진옥외대피장소","src":"safekorea","asof":"2026-05-06"}},{"type":"Feature","geometry":{"type":"Point","coordinates":[127.25409,36.47191]},"properties":{"name":"미르초등학교 운동장","addr":"세종특별자치시 세종시 나리로 26-10","sgg":"36110","cap":2530,"type":"지진옥외대피장소","src":"safekorea","asof":"2026-05-06"}},{"type":"Feature","geometry":{"type":"Point","coordinates":[127.25168,36.47928]},"properties":{"name":"아침뜰 근린공원(1)","addr":"세종특별자치시 세종시 누리로 96","sgg":"36110","cap":9697,"type":"지진옥외대피장소","src":"safekorea","asof":"2026-08-10"}},{"type":"Feature","geometry":{"type":"Point","coordinates":[127.25457,36.4774]},"properties":{"name":"아침뜰 근린공원(2)","addr":null,"sgg":"36110","cap":9697,"type":"지진옥외대피장소","src":"safekorea","asof":"2026-05-06"}},{"type":"Feature","geometry":{"type":"Point","coordinates":[127.25896,36.47895]},"properties":{"name":"참샘초등학교 운동장","addr":"세종특별자치시 세종시 노을1로 27","sgg":"36110","cap":1978,"type":"지진옥외대피장소","src":"safekorea","asof":"2026-05-06"}},{"type":"Feature","geometry":{"type":"Point","coordinates":[127.25981,36.48022]},"properties":{"name":"초롱꽃 어린이공원","addr":null,"sgg":"36110","cap":7939,"type":"지진옥외대피장소","src":"safekorea","asof":"2026-05-06"}},{"type":"Feature","geometry":{"type":"Point","coordinates":[127.253,36.4779]},"properties":{"name":"한솔고등학교 운동장","addr":"세종특별자치시 세종시 누리로 34","sgg":"36110","cap":2082,"type":"지진옥외대피장소","src":"safekorea","asof":"2026-05-06"}},{"type":"Feature","geometry":{"type":"Point","coordinates":[127.25513,36.47546]},"properties":{"name":"한솔중학교 운동장","addr":"세종특별자치시 세종시 나리로 43","sgg":"36110","cap":1996,"type":"지진옥외대피장소","src":"safekorea","asof":"2026-05-06"}},{"type":"Feature","geometry":{"type":"Point","coordinates":[127.25257,36.47683]},"properties":{"name":"한솔초등학교 운동장","addr":"세종특별자치시 세종시 누리로 32","sgg":"36110","cap":1575,"type":"지진옥외대피장소","src":"safekorea","asof":"2026-05-06"}},{"type":"Feature","geometry":{"type":"Point","coordinates":[127.2634,36.49074]},"properties":{"name":"나성중학교 운동장","addr":"세종특별자치시 세종시 갈매로 298","sgg":"36110","cap":3647,"type":"지진옥외대피장소","src":"safekorea","asof":"2026-05-05"}},{"type":"Feature","geometry":{"type":"Point","coordinates":[127.2637,36.48997]},"properties":{"name":"나성초등학교 운동장","addr":"세종특별자치시 세종시 갈매로 294","sgg":"36110","cap":3113,"type":"지진옥외대피장소","src":"safekorea","asof":"2026-05-05"}},{"type":"Feature","geometry":{"type":"Point","coordinates":[127.25943,36.4928]},"properties":{"name":"빛가람 수변공원","addr":null,"sgg":"36110","cap":14774,"type":"지진옥외대피장소","src":"safekorea","asof":"2026-05-05"}},{"type":"Feature","geometry":{"type":"Point","coordinates":[127.25411,36.48652]},"properties":{"name":"가득뜰근린공원","addr":null,"sgg":"36110","cap":4772,"type":"지진옥외대피장소","src":"safekorea","asof":"2026-05-06"}},{"type":"Feature","geometry":{"type":"Point","coordinates":[127.24416,36.48706]},"properties":{"name":"가득초등학교 운동장","addr":"세종특별자치시 세종시 세종로 933","sgg":"36110","cap":3539,"type":"지진옥외대피장소","src":"safekorea","asof":"2026-05-06"}},{"type":"Feature","geometry":{"type":"Point","coordinates":[127.25237,36.48641]},"properties":{"name":"새뜸중학교 운동장","addr":"세종특별자치시 세종시 새롬중앙로 62-12","sgg":"36110","cap":3883,"type":"지진옥외대피장소","src":"safekorea","asof":"2026-05-06"}},{"type":"Feature","geometry":{"type":"Point","coordinates":[127.25386,36.48524]},"properties":{"name":"새뜸초등학교 운동장","addr":"세종특별자치시 세종시 새롬남로 75","sgg":"36110","cap":3818,"type":"지진옥외대피장소","src":"safekorea","asof":"2026-05-06"}},{"type":"Feature","geometry":{"type":"Point","coordinates":[127.24922,36.48611]},"properties":{"name":"새롬고등학교 운동장","addr":"세종특별자치시 세종시 새롬서로 68","sgg":"36110","cap":3852,"type":"지진옥외대피장소","src":"safekorea","asof":"2026-05-06"}},{"type":"Feature","geometry":{"type":"Point","coordinates":[127.25265,36.48944]},"properties":{"name":"새롬뜰근린공원","addr":null,"sgg":"36110","cap":15712,"type":"지진옥외대피장소","src":"safekorea","asof":"2026-05-06"}},{"type":"Feature","geometry":{"type":"Point","coordinates":[127.24951,36.48099]},"properties":{"name":"새롬중학교 운동장","addr":"세종특별자치시 세종시 어울로 41","sgg":"36110","cap":4778,"type":"지진옥외대피장소","src":"safekorea","asof":"2026-05-06"}},{"type":"Feature","geometry":{"type":"Point","coordinates":[127.24889,36.48506]},"properties":{"name":"새롬초등학교 운동장","addr":"세종특별자치시 세종시 새롬서로 56","sgg":"36110","cap":981,"type":"지진옥외대피장소","src":"safekorea","asof":"2026-05-06"}},{"type":"Feature","geometry":{"type":"Point","coordinates":[127.24561,36.49391]},"properties":{"name":"다정중학교 운동장","addr":"세종특별자치시 세종시 다정서로 52","sgg":"36110","cap":3272,"type":"지진옥외대피장소","src":"safekorea","asof":"2026-05-05"}},{"type":"Feature","geometry":{"type":"Point","coordinates":[127.24462,36.49361]},"properties":{"name":"다정초등학교 운동장","addr":"세종특별자치시 세종시 다정남로 33","sgg":"36110","cap":3030,"type":"지진옥외대피장소","src":"safekorea","asof":"2026-05-05"}},{"type":"Feature","geometry":{"type":"Point","coordinates":[127.25225,36.49452]},"properties":{"name":"달님뜰 근린공원","addr":null,"sgg":"36110","cap":17922,"type":"지진옥외대피장소","src":"safekorea","asof":"2026-05-05"}},{"type":"Feature","geometry":{"type":"Point","coordinates":[127.24742,36.49453]},"properties":{"name":"도란뜰 근린공원","addr":null,"sgg":"36110","cap":12121,"type":"지진옥외대피장소","src":"safekorea","asof":"2026-05-05"}},{"type":"Feature","geometry":{"type":"Point","coordinates":[127.24727,36.49087]},"properties":{"name":"새움중학교 운동장","addr":"세종특별자치시 세종시 다정서로 12","sgg":"36110","cap":3920,"type":"지진옥외대피장소","src":"safekorea","asof":"2026-05-05"}},{"type":"Feature","geometry":{"type":"Point","coordinates":[127.25152,36.49362]},"properties":{"name":"새움초등학교 운동장","addr":"세종특별자치시 세종시 다정남로 91","sgg":"36110","cap":2909,"type":"지진옥외대피장소","src":"safekorea","asof":"2026-05-05"}},{"type":"Feature","geometry":{"type":"Point","coordinates":[127.24537,36.49646]},"properties":{"name":"한결초등학교 운동장","addr":"세종특별자치시 세종시 다정북로 137","sgg":"36110","cap":3636,"type":"지진옥외대피장소","src":"safekorea","asof":"2026-05-05"}},{"type":"Feature","geometry":{"type":"Point","coordinates":[127.25603,36.49629]},"properties":{"name":"세종대성고등학교 운동장","addr":"세종특별자치시 세종시 다솜로 22","sgg":"36110","cap":5987,"type":"지진옥외대피장소","src":"safekorea","asof":"2026-05-06"}},{"type":"Feature","geometry":{"type":"Point","coordinates":[127.26248,36.49794]},"properties":{"name":"어진뜰 근린공원","addr":null,"sgg":"36110","cap":11012,"type":"지진옥외대피장소","src":"safekorea","asof":"2026-05-06"}},{"type":"Feature","geometry":{"type":"Point","coordinates":[127.25479,36.49767]},"properties":{"name":"어진중학교 운동장","addr":"세종특별자치시 세종시 다솜로 10","sgg":"36110","cap":5266,"type":"지진옥외대피장소","src":"safekorea","asof":"2026-05-06"}},{"type":"Feature","geometry":{"type":"Point","coordinates":[127.27124,36.50535]},"properties":{"name":"연세초등학교 운동장","addr":"세종특별자치시 세종시 다솜로 291","sgg":"36110","cap":3307,"type":"지진옥외대피장소","src":"safekorea","asof":"2026-05-06"}},{"type":"Feature","geometry":{"type":"Point","coordinates":[127.25672,36.50295]},"properties":{"name":"연양초등학교 운동장","addr":"세종특별자치시 세종시 도움3로 37","sgg":"36110","cap":3151,"type":"지진옥외대피장소","src":"safekorea","asof":"2026-05-06"}},{"type":"Feature","geometry":{"type":"Point","coordinates":[127.26896,36.50031]},"properties":{"name":"호수 제2주차장","addr":null,"sgg":"36110","cap":11707,"type":"지진옥외대피장소","src":"safekorea","asof":"2026-05-06"}},{"type":"Feature","geometry":{"type":"Point","coordinates":[127.24377,36.50008]},"properties":{"name":"다빛초등학교 운동장","addr":"세종특별자치시 세종시 달빛1로 5","sgg":"36110","cap":3224,"type":"지진옥외대피장소","src":"safekorea","asof":"2026-05-06"}},{"type":"Feature","geometry":{"type":"Point","coordinates":[127.24685,36.50367]},"properties":{"name":"제천뜰 근린공원","addr":null,"sgg":"36110","cap":14545,"type":"지진옥외대피장소","src":"safekorea","asof":"2026-08-10"}},{"type":"Feature","geometry":{"type":"Point","coordinates":[127.24565,36.50424]},"properties":{"name":"종촌고등학교 운동장","addr":"세종특별자치시 세종시 달빛1로 60","sgg":"36110","cap":4909,"type":"지진옥외대피장소","src":"safekorea","asof":"2026-05-06"}},{"type":"Feature","geometry":{"type":"Point","coordinates":[127.24549,36.5024]},"properties":{"name":"종촌중학교 운동장","addr":"세종특별자치시 세종시 도움1로 126","sgg":"36110","cap":3448,"type":"지진옥외대피장소","src":"safekorea","asof":"2026-08-10"}},{"type":"Feature","geometry":{"type":"Point","coordinates":[127.24567,36.50418]},"properties":{"name":"종촌초등학교 운동장","addr":"세종특별자치시 세종시 달빛1로 60","sgg":"36110","cap":3490,"type":"지진옥외대피장소","src":"safekorea","asof":"2026-05-06"}},{"type":"Feature","geometry":{"type":"Point","coordinates":[127.23041,36.51543]},"properties":{"name":"가락초등학교 운동장","addr":"세종특별자치시 세종시 마음로 208","sgg":"36110","cap":3155,"type":"지진옥외대피장소","src":"safekorea","asof":"2026-05-05"}},{"type":"Feature","geometry":{"type":"Point","coordinates":[127.23278,36.50979]},"properties":{"name":"고운고등학교 운동장","addr":"세종특별자치시 세종시 마음안로 93","sgg":"36110","cap":3878,"type":"지진옥외대피장소","src":"safekorea","asof":"2026-05-05"}},{"type":"Feature","geometry":{"type":"Point","coordinates":[127.2379,36.50513]},"properties":{"name":"고운중학교 운동장","addr":"세종특별자치시 세종시 만남로 65","sgg":"36110","cap":3890,"type":"지진옥외대피장소","src":"safekorea","asof":"2026-05-05"}},{"type":"Feature","geometry":{"type":"Point","coordinates":[127.23683,36.5038]},"properties":{"name":"고운초등학교 운동장","addr":"세종특별자치시 세종시 만남로 45","sgg":"36110","cap":3041,"type":"지진옥외대피장소","src":"safekorea","asof":"2026-05-05"}},{"type":"Feature","geometry":{"type":"Point","coordinates":[127.23335,36.50819]},"properties":{"name":"대롱꽃 어린이공원","addr":null,"sgg":"36110","cap":7279,"type":"지진옥외대피장소","src":"safekorea","asof":"2026-05-05"}},{"type":"Feature","geometry":{"type":"Point","coordinates":[127.22749,36.5158]},"properties":{"name":"두루고등학교 운동장","addr":"세종특별자치시 세종시 마음안1로 53","sgg":"36110","cap":3975,"type":"지진옥외대피장소","src":"safekorea","asof":"2026-05-05"}},{"type":"Feature","geometry":{"type":"Point","coordinates":[127.23892,36.51797]},"properties":{"name":"두루중학교 운동장","addr":"세종특별자치시 세종시 만남로 211","sgg":"36110","cap":3309,"type":"지진옥외대피장소","src":"safekorea","asof":"2026-05-05"}},{"type":"Feature","geometry":{"type":"Point","coordinates":[127.23821,36.51915]},"properties":{"name":"두루초등학교 운동장","addr":"세종특별자치시 세종시 만남로 223","sgg":"36110","cap":3006,"type":"지진옥외대피장소","src":"safekorea","asof":"2026-05-05"}},{"type":"Feature","geometry":{"type":"Point","coordinates":[127.24291,36.52555]},"properties":{"name":"세종누리학교 운동장","addr":null,"sgg":"36110","cap":1066,"type":"지진옥외대피장소","src":"safekorea","asof":"2026-08-10"}},{"type":"Feature","geometry":{"type":"Point","coordinates":[127.23998,36.51453]},"properties":{"name":"온빛초등학교 운동장","addr":"세종특별자치시 세종시 만남로 170","sgg":"36110","cap":2763,"type":"지진옥외대피장소","src":"safekorea","asof":"2026-05-05"}},{"type":"Feature","geometry":{"type":"Point","coordinates":[127.23159,36.50938]},"properties":{"name":"으뜸초등학교 운동장","addr":"세종특별자치시 세종시 마음로 130","sgg":"36110","cap":2909,"type":"지진옥외대피장소","src":"safekorea","asof":"2026-05-05"}},{"type":"Feature","geometry":{"type":"Point","coordinates":[127.24711,36.50889]},"properties":{"name":"나래초등학교 운동장","addr":"세종특별자치시 세종시 달빛1로 108","sgg":"36110","cap":2972,"type":"지진옥외대피장소","src":"safekorea","asof":"2026-05-06"}},{"type":"Feature","geometry":{"type":"Point","coordinates":[127.24817,36.52249]},"properties":{"name":"세종과학예술영재학교 운동장","addr":"세종특별자치시 세종시 달빛1로 265","sgg":"36110","cap":6021,"type":"지진옥외대피장소","src":"safekorea","asof":"2026-05-06"}},{"type":"Feature","geometry":{"type":"Point","coordinates":[127.24655,36.52118]},"properties":{"name":"세종국제고등학교 운동장","addr":"세종특별자치시 세종시 달빛1로 251","sgg":"36110","cap":5406,"type":"지진옥외대피장소","src":"safekorea","asof":"2026-05-06"}},{"type":"Feature","geometry":{"type":"Point","coordinates":[127.24469,36.51334]},"properties":{"name":"아름고등학교 운동장","addr":"세종특별자치시 세종시 달빛1로 151","sgg":"36110","cap":4865,"type":"지진옥외대피장소","src":"safekorea","asof":"2026-05-06"}},{"type":"Feature","geometry":{"type":"Point","coordinates":[127.24469,36.51413]},"properties":{"name":"아름중학교 운동장","addr":"세종특별자치시 세종시 달빛1로 167","sgg":"36110","cap":4296,"type":"지진옥외대피장소","src":"safekorea","asof":"2026-05-06"}},{"type":"Feature","geometry":{"type":"Point","coordinates":[127.2513,36.51418]},"properties":{"name":"아름초등학교 운동장","addr":"세종특별자치시 세종시 달빛로 174","sgg":"36110","cap":3772,"type":"지진옥외대피장소","src":"safekorea","asof":"2026-05-06"}},{"type":"Feature","geometry":{"type":"Point","coordinates":[127.25481,36.51353]},"properties":{"name":"늘봄초등학교 운동장","addr":"세종특별자치시 세종시 다솜1로 183","sgg":"36110","cap":3035,"type":"지진옥외대피장소","src":"safekorea","asof":"2026-08-10"}},{"type":"Feature","geometry":{"type":"Point","coordinates":[127.25962,36.51573]},"properties":{"name":"도담 싱싱장터 주차장","addr":"세종특별자치시 세종시 보듬6로 16","sgg":"36110","cap":12121,"type":"지진옥외대피장소","src":"safekorea","asof":"2026-05-06"}},{"type":"Feature","geometry":{"type":"Point","coordinates":[127.26354,36.51371]},"properties":{"name":"도담고등학교 운동장","addr":"세종특별자치시 세종시 보듬4로 41","sgg":"36110","cap":4322,"type":"지진옥외대피장소","src":"safekorea","asof":"2026-05-06"}},{"type":"Feature","geometry":{"type":"Point","coordinates":[127.26309,36.51529]},"properties":{"name":"도담중학교 운동장","addr":"세종특별자치시 세종시 보람로 80","sgg":"36110","cap":2814,"type":"지진옥외대피장소","src":"safekorea","asof":"2026-08-10"}},{"type":"Feature","geometry":{"type":"Point","coordinates":[127.26309,36.51178]},"properties":{"name":"도담초등학교 운동장","addr":"세종특별자치시 세종시 보람로 33","sgg":"36110","cap":4367,"type":"지진옥외대피장소","src":"safekorea","asof":"2026-05-06"}},{"type":"Feature","geometry":{"type":"Point","coordinates":[127.26846,36.50927]},"properties":{"name":"양지고등학교 운동장","addr":"세종특별자치시 세종시 갈매로 518","sgg":"36110","cap":1767,"type":"지진옥외대피장소","src":"safekorea","asof":"2026-05-06"}},{"type":"Feature","geometry":{"type":"Point","coordinates":[127.26887,36.50816]},"properties":{"name":"양지중학교 운동장","addr":"세종특별자치시 세종시 갈매로 512","sgg":"36110","cap":2832,"type":"지진옥외대피장소","src":"safekorea","asof":"2026-05-06"}},{"type":"Feature","geometry":{"type":"Point","coordinates":[127.25979,36.51828]},"properties":{"name":"양지초등학교 운동장","addr":"세종특별자치시 세종시 보듬8로 11","sgg":"36110","cap":3545,"type":"지진옥외대피장소","src":"safekorea","asof":"2026-05-06"}},{"type":"Feature","geometry":{"type":"Point","coordinates":[127.26941,36.52655]},"properties":{"name":"6-4생활권 체육공원","addr":null,"sgg":"36110","cap":12121,"type":"지진옥외대피장소","src":"safekorea","asof":"2026-05-06"}},{"type":"Feature","geometry":{"type":"Point","coordinates":[127.26826,36.52551]},"properties":{"name":"해밀초등학교 운동장","addr":"세종특별자치시 세종시 해밀1로 73","sgg":"36110","cap":4315,"type":"지진옥외대피장소","src":"safekorea","asof":"2026-05-06"}},{"type":"Feature","geometry":{"type":"Point","coordinates":[127.32327,36.49538]},"properties":{"name":"나루초등학교 운동장","addr":"세종특별자치시 세종시 집현서로 90","sgg":"36110","cap":2614,"type":"지진옥외대피장소","src":"safekorea","asof":"2026-05-06"}},{"type":"Feature","geometry":{"type":"Point","coordinates":[127.32421,36.49073]},"properties":{"name":"새나루뜰 근린공원","addr":null,"sgg":"36110","cap":32820,"type":"지진옥외대피장소","src":"safekorea","asof":"2026-05-06"}},{"type":"Feature","geometry":{"type":"Point","coordinates":[127.32253,36.49096]},"properties":{"name":"집현중학교 운동장","addr":null,"sgg":"36110","cap":3410,"type":"지진옥외대피장소","src":"safekorea","asof":"2026-05-06"}},{"type":"Feature","geometry":{"type":"Point","coordinates":[127.32007,36.48876]},"properties":{"name":"집현초등학교 운동장","addr":null,"sgg":"36110","cap":2606,"type":"지진옥외대피장소","src":"safekorea","asof":"2026-05-06"}},{"type":"Feature","geometry":{"type":"Point","coordinates":[127.29994,36.60666]},"properties":{"name":"조치원 문화정원","addr":"세종특별자치시 세종시 조치원읍 수원지길 49","sgg":"36110","cap":11389,"type":"지진옥외대피장소","src":"safekorea","asof":"2026-05-06"}},{"type":"Feature","geometry":{"type":"Point","coordinates":[127.29763,36.60665]},"properties":{"name":"세종중학교 운동장","addr":"세종특별자치시 세종시 조치원읍 새내로 160","sgg":"36110","cap":2400,"type":"지진옥외대피장소","src":"safekorea","asof":"2026-05-06"}},{"type":"Feature","geometry":{"type":"Point","coordinates":[127.30009,36.60316]},"properties":{"name":"제1호 어린이공원","addr":"세종특별자치시 세종시 조치원읍 새내14길 42","sgg":"36110","cap":2721,"type":"지진옥외대피장소","src":"safekorea","asof":"2026-05-06"}},{"type":"Feature","geometry":{"type":"Point","coordinates":[127.29866,36.60543]},"properties":{"name":"조치원교동초등학교 운동장","addr":"세종특별자치시 세종시 조치원읍 새내18길 21","sgg":"36110","cap":9046,"type":"지진옥외대피장소","src":"safekorea","asof":"2026-05-06"}},{"type":"Feature","geometry":{"type":"Point","coordinates":[127.30474,36.60074]},"properties":{"name":"조치원명동초등학교 운동장","addr":"세종특별자치시 세종시 조치원읍 조치원10길 35","sgg":"36110","cap":5835,"type":"지진옥외대피장소","src":"safekorea","asof":"2026-05-06"}},{"type":"Feature","geometry":{"type":"Point","coordinates":[127.3006,36.59505]},"properties":{"name":"제3호 어린이공원","addr":"세종특별자치시 세종시 조치원읍 산책2길 23","sgg":"36110","cap":1951,"type":"지진옥외대피장소","src":"safekorea","asof":"2026-05-06"}},{"type":"Feature","geometry":{"type":"Point","coordinates":[127.28812,36.60339]},"properties":{"name":"조치원신봉초등학교 운동장","addr":"세종특별자치시 세종시 조치원읍 서북부로 10","sgg":"36110","cap":6186,"type":"지진옥외대피장소","src":"safekorea","asof":"2026-05-06"}},{"type":"Feature","geometry":{"type":"Point","coordinates":[127.29378,36.59605]},"properties":{"name":"조치원대동초등학교 운동장","addr":"세종특별자치시 세종시 조치원읍 대동학교길 11","sgg":"36110","cap":7726,"type":"지진옥외대피장소","src":"safekorea","asof":"2026-05-06"}},{"type":"Feature","geometry":{"type":"Point","coordinates":[127.28671,36.59544]},"properties":{"name":"조치원중학교 운동장","addr":"세종특별자치시 세종시 조치원읍 대첩로 90","sgg":"36110","cap":4090,"type":"지진옥외대피장소","src":"safekorea","asof":"2026-05-06"}},{"type":"Feature","geometry":{"type":"Point","coordinates":[127.29307,36.59307]},"properties":{"name":"조치원청사 주차장","addr":null,"sgg":"36110","cap":7111,"type":"지진옥외대피장소","src":"safekorea","asof":"2026-05-06"}},{"type":"Feature","geometry":{"type":"Point","coordinates":[127.29959,36.61061]},"properties":{"name":"세종고등학교 운동장","addr":"세종특별자치시 세종시 조치원읍 조치원중고길 10","sgg":"36110","cap":9067,"type":"지진옥외대피장소","src":"safekorea","asof":"2026-05-06"}},{"type":"Feature","geometry":{"type":"Point","coordinates":[127.2875,36.60692]},"properties":{"name":"세종여자고등학교 운동장","addr":"세종특별자치시 세종시 조치원읍 봉산로 16","sgg":"36110","cap":10317,"type":"지진옥외대피장소","src":"safekorea","asof":"2026-05-06"}},{"type":"Feature","geometry":{"type":"Point","coordinates":[127.278,36.54343]},"properties":{"name":"연남초등학교 운동장","addr":"세종특별자치시 세종시 연기면 연기길 2","sgg":"36110","cap":6280,"type":"지진옥외대피장소","src":"safekorea","asof":"2026-05-06"}},{"type":"Feature","geometry":{"type":"Point","coordinates":[127.2524,36.54401]},"properties":{"name":"수왕초등학교 운동장","addr":"세종특별자치시 세종시 연기면 눌왕길 8-45","sgg":"36110","cap":5193,"type":"지진옥외대피장소","src":"safekorea","asof":"2026-05-06"}},{"type":"Feature","geometry":{"type":"Point","coordinates":[127.33075,36.55355]},"properties":{"name":"연동중학교 운동장","addr":"세종특별자치시 세종시 연동면 내판로 10-13","sgg":"36110","cap":8242,"type":"지진옥외대피장소","src":"safekorea","asof":"2026-05-06"}},{"type":"Feature","geometry":{"type":"Point","coordinates":[127.32666,36.55969]},"properties":{"name":"연동초등학교 운동장","addr":"세종특별자치시 세종시 연동면 청연로 606-36","sgg":"36110","cap":6373,"type":"지진옥외대피장소","src":"safekorea","asof":"2026-05-06"}},{"type":"Feature","geometry":{"type":"Point","coordinates":[127.36577,36.52692]},"properties":{"name":"부강중학교 운동장","addr":"세종특별자치시 세종시 부강면 부강로 25-7","sgg":"36110","cap":7037,"type":"지진옥외대피장소","src":"safekorea","asof":"2026-05-06"}},{"type":"Feature","geometry":{"type":"Point","coordinates":[127.36678,36.52705]},"properties":{"name":"부강초등학교 운동장","addr":"세종특별자치시 세종시 부강면 부강로 15","sgg":"36110","cap":7636,"type":"지진옥외대피장소","src":"safekorea","asof":"2026-05-06"}},{"type":"Feature","geometry":{"type":"Point","coordinates":[127.38273,36.52697]},"properties":{"name":"세종미래고등학교 운동장","addr":"세종특별자치시 세종시 부강면 문곡달미길 6","sgg":"36110","cap":7343,"type":"지진옥외대피장소","src":"safekorea","asof":"2026-05-06"}},{"type":"Feature","geometry":{"type":"Point","coordinates":[127.28145,36.46546]},"properties":{"name":"대평전통시장 주차장","addr":"세종특별자치시 세종시 금남면 용포로 76","sgg":"36110","cap":1636,"type":"지진옥외대피장소","src":"safekorea","asof":"2026-05-06"}},{"type":"Feature","geometry":{"type":"Point","coordinates":[127.2888,36.4433]},"properties":{"name":"감성초등학교 운동장","addr":"세종특별자치시 세종시 금남면 감성길 6","sgg":"36110","cap":6496,"type":"지진옥외대피장소","src":"safekorea","asof":"2026-05-06"}},{"type":"Feature","geometry":{"type":"Point","coordinates":[127.28713,36.47248]},"properties":{"name":"금남초등학교 운동장","addr":"세종특별자치시 세종시 금남면 금남구즉로 62","sgg":"36110","cap":5282,"type":"지진옥외대피장소","src":"safekorea","asof":"2026-05-06"}},{"type":"Feature","geometry":{"type":"Point","coordinates":[127.20684,36.49648]},"properties":{"name":"장기초등학교 운동장","addr":"세종특별자치시 세종시 장군면 장척로 398-9","sgg":"36110","cap":7666,"type":"지진옥외대피장소","src":"safekorea","asof":"2026-05-06"}},{"type":"Feature","geometry":{"type":"Point","coordinates":[127.20113,36.49442]},"properties":{"name":"장기중학교 운동장","addr":"세종특별자치시 세종시 장군면 장척로 359","sgg":"36110","cap":7374,"type":"지진옥외대피장소","src":"safekorea","asof":"2026-05-06"}},{"type":"Feature","geometry":{"type":"Point","coordinates":[127.19088,36.55007]},"properties":{"name":"의랑초등학교 운동장","addr":"세종특별자치시 세종시 장군면 태산길 50-1","sgg":"36110","cap":6804,"type":"지진옥외대피장소","src":"safekorea","asof":"2026-05-06"}},{"type":"Feature","geometry":{"type":"Point","coordinates":[127.28688,36.58543]},"properties":{"name":"세종도원초등학교 운동장","addr":"세종특별자치시 세종시 연서면 도원로 63","sgg":"36110","cap":5099,"type":"지진옥외대피장소","src":"safekorea","asof":"2026-05-06"}},{"type":"Feature","geometry":{"type":"Point","coordinates":[127.21023,36.59893]},"properties":{"name":"쌍류초등학교 운동장","addr":"세종특별자치시 세종시 연서면 벌말길 73","sgg":"36110","cap":4838,"type":"지진옥외대피장소","src":"safekorea","asof":"2026-05-06"}},{"type":"Feature","geometry":{"type":"Point","coordinates":[127.25767,36.58047]},"properties":{"name":"연서중학교 운동장","addr":"세종특별자치시 세종시 연서면 연서로 115","sgg":"36110","cap":7309,"type":"지진옥외대피장소","src":"safekorea","asof":"2026-05-06"}},{"type":"Feature","geometry":{"type":"Point","coordinates":[127.25408,36.58247]},"properties":{"name":"연서초등학교 운동장","addr":"세종특별자치시 세종시 연서면 연서로 148","sgg":"36110","cap":5809,"type":"지진옥외대피장소","src":"safekorea","asof":"2026-05-06"}},{"type":"Feature","geometry":{"type":"Point","coordinates":[127.28232,36.56386]},"properties":{"name":"연봉초등학교 운동장","addr":"세종특별자치시 세종시 연서면 당산로 357-1","sgg":"36110","cap":5658,"type":"지진옥외대피장소","src":"safekorea","asof":"2026-05-06"}},{"type":"Feature","geometry":{"type":"Point","coordinates":[127.19723,36.68111]},"properties":{"name":"전의중학교 운동장","addr":"세종특별자치시 세종시 전의면 운주산로 1260-4","sgg":"36110","cap":5288,"type":"지진옥외대피장소","src":"safekorea","asof":"2026-05-06"}},{"type":"Feature","geometry":{"type":"Point","coordinates":[127.20296,36.68036]},"properties":{"name":"전의초등학교 운동장","addr":"세종특별자치시 세종시 전의면 운주산로 1204-9","sgg":"36110","cap":5463,"type":"지진옥외대피장소","src":"safekorea","asof":"2026-05-06"}},{"type":"Feature","geometry":{"type":"Point","coordinates":[127.26565,36.65612]},"properties":{"name":"전동초등학교 운동장","addr":"세종특별자치시 세종시 전동면 하노장3길 9","sgg":"36110","cap":5976,"type":"지진옥외대피장소","src":"safekorea","asof":"2026-05-06"}},{"type":"Feature","geometry":{"type":"Point","coordinates":[127.15906,36.72079]},"properties":{"name":"소정초등학교 운동장","addr":"세종특별자치시 세종시 소정면 학교말길 10","sgg":"36110","cap":4993,"type":"지진옥외대피장소","src":"safekorea","asof":"2026-05-06"}}]}