{"type":"FeatureCollection","features":[{"type":"Feature","geometry":{"type":"Point","coordinates":[126.52714,33.51332]},"properties":{"name":"탐라문화광장","addr":null,"sgg":"50110","cap":4015,"type":"지진옥외대피장소","src":"safekorea","asof":"2025-11-10"}},{"type":"Feature","geometry":{"type":"Point","coordinates":[126.53629,33.50695]},"properties":{"name":"16호 어린이공원","addr":null,"sgg":"50110","cap":957,"type":"지진옥외대피장소","src":"safekorea","asof":"2025-11-10"}},{"type":"Feature","geometry":{"type":"Point","coordinates":[126.54755,33.50139]},"properties":{"name":"동광초등학교 운동장","addr":"제주특별자치도 제주시 태성로 6","sgg":"50110","cap":5516,"type":"지진옥외대피장소","src":"safekorea","asof":"2025-11-10"}},{"type":"Feature","geometry":{"type":"Point","coordinates":[126.5349,33.50591]},"properties":{"name":"신산공원","addr":null,"sgg":"50110","cap":12121,"type":"지진옥외대피장소","src":"safekorea","asof":"2025-07-31"}},{"type":"Feature","geometry":{"type":"Point","coordinates":[126.53819,33.50723]},"properties":{"name":"인화초등학교 운동장","addr":"제주특별자치도 제주시 신산로15길 35","sgg":"50110","cap":7282,"type":"지진옥외대피장소","src":"safekorea","asof":"2025-11-10"}},{"type":"Feature","geometry":{"type":"Point","coordinates":[126.52923,33.50972]},"properties":{"name":"일도초등학교 운동장","addr":"제주특별자치도 제주시 삼성로9길 27","sgg":"50110","cap":6659,"type":"지진옥외대피장소","src":"safekorea","asof":"2025-11-10"}},{"type":"Feature","geometry":{"type":"Point","coordinates":[126.52974,33.5024]},"properties":{"name":"광양초등학교 운동장","addr":"제주특별자치도 제주시 돈내길 5","sgg":"50110","cap":6667,"type":"지진옥외대피장소","src":"safekorea","asof":"2025-11-10"}},{"type":"Feature","geometry":{"type":"Point","coordinates":[126.52526,33.50304]},"properties":{"name":"삼성초등학교 운동장","addr":"제주특별자치도 제주시 서광로29길 35","sgg":"50110","cap":7505,"type":"지진옥외대피장소","src":"safekorea","asof":"2025-07-31"}},{"type":"Feature","geometry":{"type":"Point","coordinates":[126.53913,33.49469]},"properties":{"name":"제주제일중학교 운동장","addr":"제주특별자치도 제주시 남광로 33","sgg":"50110","cap":8211,"type":"지진옥외대피장소","src":"safekorea","asof":"2025-11-10"}},{"type":"Feature","geometry":{"type":"Point","coordinates":[126.51904,33.50607]},"properties":{"name":"삼도1동 1호 어린이공원","addr":null,"sgg":"50110","cap":2017,"type":"지진옥외대피장소","src":"safekorea","asof":"2025-11-10"}},{"type":"Feature","geometry":{"type":"Point","coordinates":[126.51588,33.50151]},"properties":{"name":"삼도1동 2호 어린이 공원","addr":null,"sgg":"50110","cap":2019,"type":"지진옥외대피장소","src":"safekorea","asof":"2025-11-10"}},{"type":"Feature","geometry":{"type":"Point","coordinates":[126.52181,33.5022]},"properties":{"name":"삼도1동 3호 어린이공원","addr":null,"sgg":"50110","cap":1987,"type":"지진옥외대피장소","src":"safekorea","asof":"2025-11-10"}},{"type":"Feature","geometry":{"type":"Point","coordinates":[126.51566,33.50264]},"properties":{"name":"제주중앙초등학교 운동장","addr":"제주특별자치도 제주시 서사로18길 40","sgg":"50110","cap":5024,"type":"지진옥외대피장소","src":"safekorea","asof":"2025-11-10"}},{"type":"Feature","geometry":{"type":"Point","coordinates":[126.52234,33.51375]},"properties":{"name":"관덕공원","addr":null,"sgg":"50110","cap":19394,"type":"지진옥외대피장소","src":"safekorea","asof":"2025-11-10"}},{"type":"Feature","geometry":{"type":"Point","coordinates":[126.52218,33.51519]},"properties":{"name":"제주북초등학교 운동장","addr":"제주특별자치도 제주시 중앙로8길 18","sgg":"50110","cap":4114,"type":"지진옥외대피장소","src":"safekorea","asof":"2025-11-10"}},{"type":"Feature","geometry":{"type":"Point","coordinates":[126.52101,33.50493]},"properties":{"name":"제주중앙여자중학교","addr":"제주특별자치도 제주시 서사로11길 8","sgg":"50110","cap":4036,"type":"지진옥외대피장소","src":"safekorea","asof":"2026-01-13"}},{"type":"Feature","geometry":{"type":"Point","coordinates":[126.54477,33.51348]},"properties":{"name":"사라봉축구장","addr":"제주특별자치도 제주시 동문로 169","sgg":"50110","cap":8655,"type":"지진옥외대피장소","src":"safekorea","asof":"2025-11-10"}},{"type":"Feature","geometry":{"type":"Point","coordinates":[126.52881,33.51561]},"properties":{"name":"산짓물공원","addr":null,"sgg":"50110","cap":9225,"type":"지진옥외대피장소","src":"safekorea","asof":"2025-11-10"}},{"type":"Feature","geometry":{"type":"Point","coordinates":[126.53353,33.51407]},"properties":{"name":"제주동초등학교 운동장","addr":null,"sgg":"50110","cap":7816,"type":"지진옥외대피장소","src":"safekorea","asof":"2025-11-10"}},{"type":"Feature","geometry":{"type":"Point","coordinates":[126.51591,33.5115]},"properties":{"name":"제주중학교 운동장","addr":"제주특별자치도 제주시 서문로 47","sgg":"50110","cap":4747,"type":"지진옥외대피장소","src":"safekorea","asof":"2025-11-10"}},{"type":"Feature","geometry":{"type":"Point","coordinates":[126.51302,33.50698]},"properties":{"name":"한천초등학교 운동장","addr":"제주특별자치도 제주시 남성로11길 22","sgg":"50110","cap":4373,"type":"지진옥외대피장소","src":"safekorea","asof":"2025-11-10"}},{"type":"Feature","geometry":{"type":"Point","coordinates":[126.51046,33.5119]},"properties":{"name":"제주서초등학교 운동장","addr":"제주특별자치도 제주시 성화로6길 51","sgg":"50110","cap":12119,"type":"지진옥외대피장소","src":"safekorea","asof":"2025-11-10"}},{"type":"Feature","geometry":{"type":"Point","coordinates":[126.50928,33.51357]},"properties":{"name":"제주대학교사범대학부설고등학교","addr":"제주특별자치도 제주시 용담로 65","sgg":"50110","cap":9267,"type":"지진옥외대피장소","src":"safekorea","asof":"2025-11-10"}},{"type":"Feature","geometry":{"type":"Point","coordinates":[126.57591,33.51899]},"properties":{"name":"동화초등학교 운동장","addr":"제주특별자치도 제주시 동화로1길 44","sgg":"50110","cap":4828,"type":"지진옥외대피장소","src":"safekorea","asof":"2025-11-10"}},{"type":"Feature","geometry":{"type":"Point","coordinates":[126.5772,33.51567]},"properties":{"name":"삼화제7근린공원","addr":null,"sgg":"50110","cap":28047,"type":"지진옥외대피장소","src":"safekorea","asof":"2025-11-10"}},{"type":"Feature","geometry":{"type":"Point","coordinates":[126.57694,33.51521]},"properties":{"name":"삼화초등학교 운동장","addr":"제주특별자치도 제주시 화삼북로2길 27","sgg":"50110","cap":3733,"type":"지진옥외대피장소","src":"safekorea","asof":"2025-11-10"}},{"type":"Feature","geometry":{"type":"Point","coordinates":[126.55129,33.51552]},"properties":{"name":"제주대학교교육대학부설초등학교 운동장","addr":"제14호(부설초등학교본관)","sgg":"50110","cap":7519,"type":"지진옥외대피장소","src":"safekorea","asof":"2025-07-31"}},{"type":"Feature","geometry":{"type":"Point","coordinates":[126.56194,33.51846]},"properties":{"name":"화북초등학교 운동장","addr":"제주특별자치도 제주시 일주동로 157","sgg":"50110","cap":15869,"type":"지진옥외대피장소","src":"safekorea","asof":"2025-07-31"}},{"type":"Feature","geometry":{"type":"Point","coordinates":[126.59821,33.5331]},"properties":{"name":"삼양축구장","addr":null,"sgg":"50110","cap":21848,"type":"지진옥외대피장소","src":"safekorea","asof":"2025-11-10"}},{"type":"Feature","geometry":{"type":"Point","coordinates":[126.5865,33.52033]},"properties":{"name":"삼양초등학교 운동장","addr":"제주특별자치도 제주시 지석14길 7","sgg":"50110","cap":16804,"type":"지진옥외대피장소","src":"safekorea","asof":"2025-11-10"}},{"type":"Feature","geometry":{"type":"Point","coordinates":[126.58011,33.51784]},"properties":{"name":"삼화제1근린공원","addr":null,"sgg":"50110","cap":18261,"type":"지진옥외대피장소","src":"safekorea","asof":"2025-11-10"}},{"type":"Feature","geometry":{"type":"Point","coordinates":[126.5868,33.51753]},"properties":{"name":"삼화제3근린공원","addr":null,"sgg":"50110","cap":13078,"type":"지진옥외대피장소","src":"safekorea","asof":"2025-11-10"}},{"type":"Feature","geometry":{"type":"Point","coordinates":[126.59371,33.49039]},"properties":{"name":"봉개초등학교 운동장","addr":"제주특별자치도 제주시 번영로 484","sgg":"50110","cap":11110,"type":"지진옥외대피장소","src":"safekorea","asof":"2025-11-10"}},{"type":"Feature","geometry":{"type":"Point","coordinates":[126.54353,33.47658]},"properties":{"name":"아라초등학교 운동장","addr":null,"sgg":"50110","cap":6836,"type":"지진옥외대피장소","src":"safekorea","asof":"2025-11-10"}},{"type":"Feature","geometry":{"type":"Point","coordinates":[126.54063,33.48276]},"properties":{"name":"제주여자고등학교(중학교)","addr":"제주특별자치도 제주시 구산로 50","sgg":"50110","cap":10762,"type":"지진옥외대피장소","src":"safekorea","asof":"2025-11-10"}},{"type":"Feature","geometry":{"type":"Point","coordinates":[126.54612,33.48609]},"properties":{"name":"아라중학교 운동장","addr":"제주특별자치도 제주시 간월동로 30","sgg":"50110","cap":5081,"type":"지진옥외대피장소","src":"safekorea","asof":"2025-11-10"}},{"type":"Feature","geometry":{"type":"Point","coordinates":[126.54539,33.4917]},"properties":{"name":"탐라중학교 운동장","addr":"제주특별자치도 제주시 신설로 56","sgg":"50110","cap":4701,"type":"지진옥외대피장소","src":"safekorea","asof":"2025-11-10"}},{"type":"Feature","geometry":{"type":"Point","coordinates":[126.51449,33.49778]},"properties":{"name":"제주종합경기장 주경기장","addr":"제주특별자치도 제주시 서광로2길 24","sgg":"50110","cap":23030,"type":"지진옥외대피장소","src":"safekorea","asof":"2025-07-31"}},{"type":"Feature","geometry":{"type":"Point","coordinates":[126.47202,33.48952]},"properties":{"name":"노형제2근린공원","addr":"제주특별자치도 제주시 정존11길 76","sgg":"50110","cap":13114,"type":"지진옥외대피장소","src":"safekorea","asof":"2025-11-10"}},{"type":"Feature","geometry":{"type":"Point","coordinates":[126.47533,33.47923]},"properties":{"name":"노형중학교 운동장","addr":null,"sgg":"50110","cap":5673,"type":"지진옥외대피장소","src":"safekorea","asof":"2025-07-31"}},{"type":"Feature","geometry":{"type":"Point","coordinates":[126.47616,33.48475]},"properties":{"name":"노형초등학교 운동장","addr":"제주특별자치도 제주시 노형로 383","sgg":"50110","cap":5022,"type":"지진옥외대피장소","src":"safekorea","asof":"2025-11-10"}},{"type":"Feature","geometry":{"type":"Point","coordinates":[126.47809,33.4931]},"properties":{"name":"월랑초등학교 운동장","addr":null,"sgg":"50110","cap":7958,"type":"지진옥외대피장소","src":"safekorea","asof":"2025-07-31"}},{"type":"Feature","geometry":{"type":"Point","coordinates":[126.48172,33.47245]},"properties":{"name":"제주고등학교 운동장","addr":"제주특별자치도 제주시 1100로 3213","sgg":"50110","cap":22538,"type":"지진옥외대피장소","src":"safekorea","asof":"2025-11-10"}},{"type":"Feature","geometry":{"type":"Point","coordinates":[126.47972,33.4802]},"properties":{"name":"제주제일고등학교 운동장","addr":"제주특별자치도 제주시 진군길 22","sgg":"50110","cap":11479,"type":"지진옥외대피장소","src":"safekorea","asof":"2025-11-10"}},{"type":"Feature","geometry":{"type":"Point","coordinates":[126.43842,33.48543]},"properties":{"name":"외도제2축구장","addr":null,"sgg":"50110","cap":23262,"type":"지진옥외대피장소","src":"safekorea","asof":"2025-11-10"}},{"type":"Feature","geometry":{"type":"Point","coordinates":[126.43572,33.48788]},"properties":{"name":"외도축구장","addr":null,"sgg":"50110","cap":17630,"type":"지진옥외대피장소","src":"safekorea","asof":"2025-11-10"}},{"type":"Feature","geometry":{"type":"Point","coordinates":[126.43441,33.4931]},"properties":{"name":"외도초등학교 운동장","addr":"제주특별자치도 제주시 일주서로 7368","sgg":"50110","cap":5873,"type":"지진옥외대피장소","src":"safekorea","asof":"2025-11-10"}},{"type":"Feature","geometry":{"type":"Point","coordinates":[126.45711,33.48642]},"properties":{"name":"이호운동장","addr":"제주특별자치도 제주시 오광로6길 58-11","sgg":"50110","cap":16398,"type":"지진옥외대피장소","src":"safekorea","asof":"2025-11-10"}},{"type":"Feature","geometry":{"type":"Point","coordinates":[126.46482,33.50402]},"properties":{"name":"43호 어린이공원","addr":null,"sgg":"50110","cap":2319,"type":"지진옥외대피장소","src":"safekorea","asof":"2025-11-10"}},{"type":"Feature","geometry":{"type":"Point","coordinates":[126.46472,33.50175]},"properties":{"name":"도리초등학교 운동장","addr":"제주특별자치도 제주시 도리로 129","sgg":"50110","cap":10667,"type":"지진옥외대피장소","src":"safekorea","asof":"2025-11-10"}},{"type":"Feature","geometry":{"type":"Point","coordinates":[126.52277,33.4919]},"properties":{"name":"시민복지타운광장","addr":"제주특별자치도 제주시 연삼로 286","sgg":"50110","cap":66666,"type":"지진옥외대피장소","src":"safekorea","asof":"2025-07-31"}},{"type":"Feature","geometry":{"type":"Point","coordinates":[126.5805,33.51696]},"properties":{"name":"삼화제2근린공원","addr":null,"sgg":"50110","cap":17710,"type":"지진옥외대피장소","src":"safekorea","asof":"2025-11-10"}},{"type":"Feature","geometry":{"type":"Point","coordinates":[126.57793,33.51291]},"properties":{"name":"삼화제4근린공원","addr":null,"sgg":"50110","cap":24799,"type":"지진옥외대피장소","src":"safekorea","asof":"2025-11-10"}},{"type":"Feature","geometry":{"type":"Point","coordinates":[126.58363,33.51583]},"properties":{"name":"삼화제5근린공원","addr":null,"sgg":"50110","cap":32784,"type":"지진옥외대피장소","src":"safekorea","asof":"2025-11-10"}},{"type":"Feature","geometry":{"type":"Point","coordinates":[126.58327,33.51384]},"properties":{"name":"삼화제6근린공원","addr":null,"sgg":"50110","cap":14223,"type":"지진옥외대피장소","src":"safekorea","asof":"2025-11-10"}},{"type":"Feature","geometry":{"type":"Point","coordinates":[126.57223,33.47446]},"properties":{"name":"제주중앙고등학교","addr":"제주특별자치도 제주시 아봉로 323","sgg":"50110","cap":12036,"type":"지진옥외대피장소","src":"safekorea","asof":"2025-11-10"}},{"type":"Feature","geometry":{"type":"Point","coordinates":[126.56708,33.47852]},"properties":{"name":"영평초등학교 운동장","addr":"제주특별자치도 제주시 아봉로 225","sgg":"50110","cap":5503,"type":"지진옥외대피장소","src":"safekorea","asof":"2025-11-10"}},{"type":"Feature","geometry":{"type":"Point","coordinates":[126.48305,33.48954]},"properties":{"name":"남녕고등학교 운동장","addr":null,"sgg":"50110","cap":9455,"type":"지진옥외대피장소","src":"safekorea","asof":"2025-11-10"}},{"type":"Feature","geometry":{"type":"Point","coordinates":[126.49612,33.49046]},"properties":{"name":"삼다공원","addr":null,"sgg":"50110","cap":19758,"type":"지진옥외대피장소","src":"safekorea","asof":"2025-11-10"}},{"type":"Feature","geometry":{"type":"Point","coordinates":[126.49147,33.49139]},"properties":{"name":"삼무공원","addr":"제주특별자치도 제주시 신대로10길 48-9","sgg":"50110","cap":27636,"type":"지진옥외대피장소","src":"safekorea","asof":"2025-11-10"}},{"type":"Feature","geometry":{"type":"Point","coordinates":[126.48417,33.49189]},"properties":{"name":"신광초등학교 운동장","addr":"제주특별자치도 제주시 성신로 25","sgg":"50110","cap":7634,"type":"지진옥외대피장소","src":"safekorea","asof":"2025-11-10"}},{"type":"Feature","geometry":{"type":"Point","coordinates":[126.49773,33.48292]},"properties":{"name":"신제주초등학교 운동장","addr":"제주특별자치도 제주시 비월길 29","sgg":"50110","cap":5405,"type":"지진옥외대피장소","src":"safekorea","asof":"2025-11-10"}},{"type":"Feature","geometry":{"type":"Point","coordinates":[126.48834,33.48236]},"properties":{"name":"연동공원","addr":"제주특별자치도 제주시 신광로12길 17","sgg":"50110","cap":24493,"type":"지진옥외대피장소","src":"safekorea","asof":"2025-11-10"}},{"type":"Feature","geometry":{"type":"Point","coordinates":[126.48107,33.4946]},"properties":{"name":"제주서중학교 운동장","addr":"제주특별자치도 제주시 일주서로 7811","sgg":"50110","cap":6107,"type":"지진옥외대피장소","src":"safekorea","asof":"2025-07-31"}},{"type":"Feature","geometry":{"type":"Point","coordinates":[126.50056,33.48624]},"properties":{"name":"제주중앙중학교 운동장","addr":"제주특별자치도 제주시 선덕로5길 37","sgg":"50110","cap":13333,"type":"지진옥외대피장소","src":"safekorea","asof":"2025-11-10"}},{"type":"Feature","geometry":{"type":"Point","coordinates":[126.4472,33.48052]},"properties":{"name":"도평초등학교 운동장","addr":"제주특별자치도 제주시 도평길 17","sgg":"50110","cap":4899,"type":"지진옥외대피장소","src":"safekorea","asof":"2025-11-10"}},{"type":"Feature","geometry":{"type":"Point","coordinates":[126.45427,33.45659]},"properties":{"name":"해안초등학교 운동장","addr":"제주특별자치도 제주시 해안마을길 76","sgg":"50110","cap":5648,"type":"지진옥외대피장소","src":"safekorea","asof":"2025-11-10"}},{"type":"Feature","geometry":{"type":"Point","coordinates":[126.29343,33.44203]},"properties":{"name":"귀덕초등학교 운동장","addr":null,"sgg":"50110","cap":6279,"type":"지진옥외대피장소","src":"safekorea","asof":"2026-01-13"}},{"type":"Feature","geometry":{"type":"Point","coordinates":[126.27032,33.42554]},"properties":{"name":"수원초등학교 운동장","addr":"제주특별자치도 제주시 한림읍 한림로 822","sgg":"50110","cap":4832,"type":"지진옥외대피장소","src":"safekorea","asof":"2026-01-13"}},{"type":"Feature","geometry":{"type":"Point","coordinates":[126.26868,33.40957]},"properties":{"name":"한림종합운동장","addr":"제주특별자치도 제주시 한림읍 한림중앙로 71-9","sgg":"50110","cap":21108,"type":"지진옥외대피장소","src":"safekorea","asof":"2025-11-07"}},{"type":"Feature","geometry":{"type":"Point","coordinates":[126.26097,33.41112]},"properties":{"name":"한림초등학교 운동장","addr":"제주특별자치도 제주시 한림읍 한림로4길 16","sgg":"50110","cap":6181,"type":"지진옥외대피장소","src":"safekorea","asof":"2025-11-07"}},{"type":"Feature","geometry":{"type":"Point","coordinates":[126.29596,33.35674]},"properties":{"name":"금악초등학교 운동장","addr":"제주특별자치도 제주시 한림읍 금악남2길 1","sgg":"50110","cap":3459,"type":"지진옥외대피장소","src":"safekorea","asof":"2025-11-07"}},{"type":"Feature","geometry":{"type":"Point","coordinates":[126.43675,33.45995]},"properties":{"name":"광령초등학교운동장","addr":"제주특별자치도 제주시 애월읍 광성로 276","sgg":"50110","cap":5727,"type":"지진옥외대피장소","src":"safekorea","asof":"2025-11-07"}},{"type":"Feature","geometry":{"type":"Point","coordinates":[126.37487,33.47332]},"properties":{"name":"구엄초등학교 운동장","addr":"제주특별자치도 제주시 애월읍 일주서로 6768","sgg":"50110","cap":7709,"type":"지진옥외대피장소","src":"safekorea","asof":"2025-11-07"}},{"type":"Feature","geometry":{"type":"Point","coordinates":[126.33261,33.46313]},"properties":{"name":"고내공원","addr":"제주특별자치도 제주시 애월읍 일주서로 6349","sgg":"50110","cap":86921,"type":"지진옥외대피장소","src":"safekorea","asof":"2025-11-07"}},{"type":"Feature","geometry":{"type":"Point","coordinates":[126.32435,33.46488]},"properties":{"name":"애월중학교 운동장","addr":null,"sgg":"50110","cap":7636,"type":"지진옥외대피장소","src":"safekorea","asof":"2025-11-07"}},{"type":"Feature","geometry":{"type":"Point","coordinates":[126.32298,33.46513]},"properties":{"name":"애월초등학교 운동장","addr":null,"sgg":"50110","cap":5152,"type":"지진옥외대피장소","src":"safekorea","asof":"2025-11-07"}},{"type":"Feature","geometry":{"type":"Point","coordinates":[126.78084,33.47081]},"properties":{"name":"송당초등학교 운동장","addr":null,"sgg":"50110","cap":4395,"type":"지진옥외대피장소","src":"safekorea","asof":"2025-11-07"}},{"type":"Feature","geometry":{"type":"Point","coordinates":[126.79782,33.55149]},"properties":{"name":"구좌중앙초등학교 운동장","addr":"제주특별자치도 제주시 구좌읍 월정7길 1","sgg":"50110","cap":4332,"type":"지진옥외대피장소","src":"safekorea","asof":"2025-11-07"}},{"type":"Feature","geometry":{"type":"Point","coordinates":[126.85398,33.52125]},"properties":{"name":"세화중학교 운동장","addr":"제주특별자치도 제주시 구좌읍 일주동로 3132","sgg":"50110","cap":7635,"type":"지진옥외대피장소","src":"safekorea","asof":"2025-11-07"}},{"type":"Feature","geometry":{"type":"Point","coordinates":[126.86333,33.52243]},"properties":{"name":"세화공원","addr":null,"sgg":"50110","cap":99861,"type":"지진옥외대피장소","src":"safekorea","asof":"2025-11-07"}},{"type":"Feature","geometry":{"type":"Point","coordinates":[126.82864,33.53868]},"properties":{"name":"한동초등학교 운동장","addr":"제주특별자치도 제주시 구좌읍 일주동로 2831","sgg":"50110","cap":2942,"type":"지진옥외대피장소","src":"safekorea","asof":"2025-11-07"}},{"type":"Feature","geometry":{"type":"Point","coordinates":[126.87843,33.5174]},"properties":{"name":"하도초등학교 운동장","addr":"제주특별자치도 제주시 구좌읍 일주동로 3378","sgg":"50110","cap":4091,"type":"지진옥외대피장소","src":"safekorea","asof":"2025-11-07"}},{"type":"Feature","geometry":{"type":"Point","coordinates":[126.89713,33.49253]},"properties":{"name":"종달초등학교 운동장","addr":"제주특별자치도 제주시 구좌읍 종달로7길 5","sgg":"50110","cap":4045,"type":"지진옥외대피장소","src":"safekorea","asof":"2025-11-07"}},{"type":"Feature","geometry":{"type":"Point","coordinates":[126.84048,33.52948]},"properties":{"name":"평대초등학교 운동장","addr":"제주특별자치도 제주시 구좌읍 일주동로 2979","sgg":"50110","cap":3653,"type":"지진옥외대피장소","src":"safekorea","asof":"2025-11-07"}},{"type":"Feature","geometry":{"type":"Point","coordinates":[126.75043,33.55512]},"properties":{"name":"김녕초등학교 운동장","addr":"제주특별자치도 제주시 구좌읍 김녕로 117","sgg":"50110","cap":5532,"type":"지진옥외대피장소","src":"safekorea","asof":"2025-11-07"}},{"type":"Feature","geometry":{"type":"Point","coordinates":[126.61933,33.53387]},"properties":{"name":"신촌초등학교 운동장","addr":"제주특별자치도 제주시 조천읍 신북로 51","sgg":"50110","cap":7686,"type":"지진옥외대피장소","src":"safekorea","asof":"2025-11-10"}},{"type":"Feature","geometry":{"type":"Point","coordinates":[126.63382,33.53547]},"properties":{"name":"조천초등학교 운동장","addr":"제주특별자치도 제주시 조천읍 신북로 195","sgg":"50110","cap":5215,"type":"지진옥외대피장소","src":"safekorea","asof":"2025-11-10"}},{"type":"Feature","geometry":{"type":"Point","coordinates":[126.67212,33.53834]},"properties":{"name":"함덕초등학교 운동장","addr":"제주특별자치도 제주시 조천읍 일주동로 1231","sgg":"50110","cap":7879,"type":"지진옥외대피장소","src":"safekorea","asof":"2025-11-10"}},{"type":"Feature","geometry":{"type":"Point","coordinates":[126.65775,33.49944]},"properties":{"name":"대흘초등학교 운동장","addr":"제주특별자치도 제주시 조천읍 중산간동로 677","sgg":"50110","cap":2567,"type":"지진옥외대피장소","src":"safekorea","asof":"2025-11-10"}},{"type":"Feature","geometry":{"type":"Point","coordinates":[126.69177,33.54789]},"properties":{"name":"북촌초등학교 운동장","addr":"제주특별자치도 제주시 조천읍 일주동로 1481","sgg":"50110","cap":4057,"type":"지진옥외대피장소","src":"safekorea","asof":"2025-11-10"}},{"type":"Feature","geometry":{"type":"Point","coordinates":[126.17743,33.30425]},"properties":{"name":"고산초등학교 운동장","addr":"제주특별자치도 제주시 한경면 고산로1길 16","sgg":"50110","cap":4069,"type":"지진옥외대피장소","src":"safekorea","asof":"2025-11-10"}},{"type":"Feature","geometry":{"type":"Point","coordinates":[126.18452,33.3013]},"properties":{"name":"한경축구장","addr":"제주특별자치도 제주시 한경면 칠전로 41","sgg":"50110","cap":8572,"type":"지진옥외대피장소","src":"safekorea","asof":"2025-11-10"}},{"type":"Feature","geometry":{"type":"Point","coordinates":[126.18415,33.34898]},"properties":{"name":"신창초등학교 운동장","addr":"제주특별자치도 제주시 한경면 두신로 72","sgg":"50110","cap":5063,"type":"지진옥외대피장소","src":"safekorea","asof":"2025-11-10"}},{"type":"Feature","geometry":{"type":"Point","coordinates":[126.25151,33.32651]},"properties":{"name":"저청초등학교 운동장","addr":"제주특별자치도 제주시 한경면 중산간서로 3591","sgg":"50110","cap":4294,"type":"지진옥외대피장소","src":"safekorea","asof":"2025-11-10"}},{"type":"Feature","geometry":{"type":"Point","coordinates":[126.29555,33.96394]},"properties":{"name":"추자초등학교 운동장","addr":"제주특별자치도 제주시 추자면 대서3길 10","sgg":"50110","cap":5589,"type":"지진옥외대피장소","src":"safekorea","asof":"2025-11-10"}},{"type":"Feature","geometry":{"type":"Point","coordinates":[126.96183,33.50989]},"properties":{"name":"우도축구장","addr":null,"sgg":"50110","cap":12067,"type":"지진옥외대피장소","src":"safekorea","asof":"2025-11-10"}},{"type":"Feature","geometry":{"type":"Point","coordinates":[126.55836,33.25121]},"properties":{"name":"서귀동 어린이공원","addr":"제주특별자치도 서귀포시 서문서로 43","sgg":"50130","cap":1818,"type":"지진옥외대피장소","src":"safekorea","asof":"2026-04-23"}},{"type":"Feature","geometry":{"type":"Point","coordinates":[126.56376,33.25282]},"properties":{"name":"서귀중앙초등학교 운동장","addr":"제주특별자치도 서귀포시 동문동로 54","sgg":"50130","cap":7030,"type":"지진옥외대피장소","src":"safekorea","asof":"2026-05-11"}},{"type":"Feature","geometry":{"type":"Point","coordinates":[126.57021,33.24751]},"properties":{"name":"서귀포중학교 운동장","addr":"제주특별자치도 서귀포시 태평로 474","sgg":"50130","cap":9697,"type":"지진옥외대피장소","src":"safekorea","asof":"2026-01-20"}},{"type":"Feature","geometry":{"type":"Point","coordinates":[126.5655,33.24415]},"properties":{"name":"서귀포초등학교 운동장","addr":"제주특별자치도 서귀포시 솔동산로11번길 17","sgg":"50130","cap":3636,"type":"지진옥외대피장소","src":"safekorea","asof":"2026-01-20"}},{"type":"Feature","geometry":{"type":"Point","coordinates":[126.50889,33.23768]},"properties":{"name":"법환초등학교 운동장","addr":"법환초등학교","sgg":"50130","cap":5455,"type":"지진옥외대피장소","src":"safekorea","asof":"2026-01-20"}},{"type":"Feature","geometry":{"type":"Point","coordinates":[126.50926,33.24613]},"properties":{"name":"제주월드컵경기장","addr":"제주특별자치도 서귀포시 월드컵로 33","sgg":"50130","cap":9212,"type":"지진옥외대피장소","src":"safekorea","asof":"2026-01-20"}},{"type":"Feature","geometry":{"type":"Point","coordinates":[126.51668,33.25204]},"properties":{"name":"삼다체육공원","addr":null,"sgg":"50130","cap":12121,"type":"지진옥외대피장소","src":"safekorea","asof":"2026-05-06"}},{"type":"Feature","geometry":{"type":"Point","coordinates":[126.51318,33.25641]},"properties":{"name":"새서귀초등학교 운동장","addr":"본관","sgg":"50130","cap":4727,"type":"지진옥외대피장소","src":"safekorea","asof":"2026-01-20"}},{"type":"Feature","geometry":{"type":"Point","coordinates":[126.53157,33.2437]},"properties":{"name":"서귀포여자고등학교 운동장","addr":"서귀포여자고등학교","sgg":"50130","cap":4242,"type":"지진옥외대피장소","src":"safekorea","asof":"2026-01-20"}},{"type":"Feature","geometry":{"type":"Point","coordinates":[126.52929,33.25376]},"properties":{"name":"서호초등학교","addr":"제주특별자치도 서귀포시 호근남로 40","sgg":"50130","cap":4000,"type":"지진옥외대피장소","src":"safekorea","asof":"2026-01-20"}},{"type":"Feature","geometry":{"type":"Point","coordinates":[126.57017,33.26024]},"properties":{"name":"동홍초등학교 운동장","addr":"제주특별자치도 서귀포시 동홍북로 17","sgg":"50130","cap":4364,"type":"지진옥외대피장소","src":"safekorea","asof":"2026-01-20"}},{"type":"Feature","geometry":{"type":"Point","coordinates":[126.56991,33.25421]},"properties":{"name":"문부공원","addr":"제주특별자치도 서귀포시 일주동로 8593","sgg":"50130","cap":19600,"type":"지진옥외대피장소","src":"safekorea","asof":"2026-01-20"}},{"type":"Feature","geometry":{"type":"Point","coordinates":[126.56279,33.25471]},"properties":{"name":"서귀중앙여자중학교 운동장","addr":"제주특별자치도 서귀포시 중앙로 120","sgg":"50130","cap":7394,"type":"지진옥외대피장소","src":"safekorea","asof":"2026-01-20"}},{"type":"Feature","geometry":{"type":"Point","coordinates":[126.56242,33.25732]},"properties":{"name":"서귀포고등학교 운동장","addr":"서귀포고등학교","sgg":"50130","cap":19394,"type":"지진옥외대피장소","src":"safekorea","asof":"2026-01-20"}},{"type":"Feature","geometry":{"type":"Point","coordinates":[126.56996,33.25125]},"properties":{"name":"태평근린공원","addr":"제주특별자치도 서귀포시 동홍중앙로7번길 19","sgg":"50130","cap":11400,"type":"지진옥외대피장소","src":"safekorea","asof":"2026-01-20"}},{"type":"Feature","geometry":{"type":"Point","coordinates":[126.55488,33.24981]},"properties":{"name":"걸매생태공원","addr":"제주특별자치도 서귀포시 서홍로 4-42","sgg":"50130","cap":21818,"type":"지진옥외대피장소","src":"safekorea","asof":"2026-04-23"}},{"type":"Feature","geometry":{"type":"Point","coordinates":[126.55869,33.26013]},"properties":{"name":"서귀북초등학교 운동장","addr":null,"sgg":"50130","cap":4242,"type":"지진옥외대피장소","src":"safekorea","asof":"2026-05-13"}},{"type":"Feature","geometry":{"type":"Point","coordinates":[126.55646,33.25427]},"properties":{"name":"서귀서초등학교 운동장","addr":null,"sgg":"50130","cap":6061,"type":"지진옥외대피장소","src":"safekorea","asof":"2026-05-13"}},{"type":"Feature","geometry":{"type":"Point","coordinates":[126.54676,33.25643]},"properties":{"name":"서귀포여자중학교 운동장","addr":null,"sgg":"50130","cap":4242,"type":"지진옥외대피장소","src":"safekorea","asof":"2026-05-13"}},{"type":"Feature","geometry":{"type":"Point","coordinates":[126.55348,33.24713]},"properties":{"name":"칠십리시공원","addr":null,"sgg":"50130","cap":18764,"type":"지진옥외대피장소","src":"safekorea","asof":"2026-04-23"}},{"type":"Feature","geometry":{"type":"Point","coordinates":[126.59594,33.2978]},"properties":{"name":"서귀포산업과학고 운동장","addr":"서귀포산업과학고등학교","sgg":"50130","cap":15515,"type":"지진옥외대피장소","src":"safekorea","asof":"2026-01-20"}},{"type":"Feature","geometry":{"type":"Point","coordinates":[126.62064,33.26531]},"properties":{"name":"효돈중학교 운동장","addr":"제주특별자치도 서귀포시 효돈로 207","sgg":"50130","cap":5455,"type":"지진옥외대피장소","src":"safekorea","asof":"2026-05-06"}},{"type":"Feature","geometry":{"type":"Point","coordinates":[126.61045,33.25888]},"properties":{"name":"서귀포축구공원","addr":"제주특별자치도 서귀포시 효돈순환로 311-29","sgg":"50130","cap":30303,"type":"지진옥외대피장소","src":"safekorea","asof":"2026-05-06"}},{"type":"Feature","geometry":{"type":"Point","coordinates":[126.61612,33.26442]},"properties":{"name":"효돈초등학교 운동장","addr":"제주특별자치도 서귀포시 효돈로 161","sgg":"50130","cap":4000,"type":"지진옥외대피장소","src":"safekorea","asof":"2026-05-06"}},{"type":"Feature","geometry":{"type":"Point","coordinates":[126.60005,33.24463]},"properties":{"name":"보목초등학교 운동장","addr":"제주특별자치도 서귀포시 마소물로8번길 9","sgg":"50130","cap":3636,"type":"지진옥외대피장소","src":"safekorea","asof":"2026-01-20"}},{"type":"Feature","geometry":{"type":"Point","coordinates":[126.58408,33.25455]},"properties":{"name":"삼성여고 운동장","addr":"삼성여자고등학교","sgg":"50130","cap":2424,"type":"지진옥외대피장소","src":"safekorea","asof":"2026-01-20"}},{"type":"Feature","geometry":{"type":"Point","coordinates":[126.58941,33.26243]},"properties":{"name":"토평동 시민축구장","addr":"제주특별자치도 서귀포시 토평남로 47-13","sgg":"50130","cap":11060,"type":"지진옥외대피장소","src":"safekorea","asof":"2026-01-20"}},{"type":"Feature","geometry":{"type":"Point","coordinates":[126.5896,33.26589]},"properties":{"name":"토평초등학교 운동장","addr":"제주특별자치도 서귀포시 토평남로 86","sgg":"50130","cap":4606,"type":"지진옥외대피장소","src":"safekorea","asof":"2026-01-20"}},{"type":"Feature","geometry":{"type":"Point","coordinates":[126.42904,33.25058]},"properties":{"name":"중문중학교 운동장","addr":"중문중학교","sgg":"50130","cap":5455,"type":"지진옥외대피장소","src":"safekorea","asof":"2026-01-20"}},{"type":"Feature","geometry":{"type":"Point","coordinates":[126.42944,33.25242]},"properties":{"name":"중문초등학교 운동장","addr":"중문초등학교","sgg":"50130","cap":6424,"type":"지진옥외대피장소","src":"safekorea","asof":"2026-01-20"}},{"type":"Feature","geometry":{"type":"Point","coordinates":[126.5035,33.25361]},"properties":{"name":"강정제1호공원","addr":"제주특별자치도 서귀포시 신서로 43","sgg":"50130","cap":14150,"type":"지진옥외대피장소","src":"safekorea","asof":"2026-05-06"}},{"type":"Feature","geometry":{"type":"Point","coordinates":[126.48621,33.23449]},"properties":{"name":"강정체육공원","addr":null,"sgg":"50130","cap":9905,"type":"지진옥외대피장소","src":"safekorea","asof":"2026-05-06"}},{"type":"Feature","geometry":{"type":"Point","coordinates":[126.47894,33.23477]},"properties":{"name":"강정초등학교 운동장","addr":"본관","sgg":"50130","cap":2182,"type":"지진옥외대피장소","src":"safekorea","asof":"2026-05-06"}},{"type":"Feature","geometry":{"type":"Point","coordinates":[126.49863,33.26015]},"properties":{"name":"강창학공원","addr":"제주특별자치도 서귀포시 중산간서로 97-1","sgg":"50130","cap":157576,"type":"지진옥외대피장소","src":"safekorea","asof":"2026-05-06"}},{"type":"Feature","geometry":{"type":"Point","coordinates":[126.50816,33.2511]},"properties":{"name":"문화공원","addr":"제주특별자치도 서귀포시 김정문화로 32","sgg":"50130","cap":14545,"type":"지진옥외대피장소","src":"safekorea","asof":"2026-05-06"}},{"type":"Feature","geometry":{"type":"Point","coordinates":[126.47731,33.24711]},"properties":{"name":"도순초등학교 운동장","addr":"본관","sgg":"50130","cap":5818,"type":"지진옥외대피장소","src":"safekorea","asof":"2026-05-06"}},{"type":"Feature","geometry":{"type":"Point","coordinates":[126.45959,33.25284]},"properties":{"name":"하원초등학교 운동장","addr":"제주특별자치도 서귀포시 월평하원로 149","sgg":"50130","cap":4000,"type":"지진옥외대피장소","src":"safekorea","asof":"2026-01-20"}},{"type":"Feature","geometry":{"type":"Point","coordinates":[126.41435,33.26508]},"properties":{"name":"색달체육공원","addr":"제주특별자치도 서귀포시 색달중앙로 118","sgg":"50130","cap":7879,"type":"지진옥외대피장소","src":"safekorea","asof":"2026-04-24"}},{"type":"Feature","geometry":{"type":"Point","coordinates":[126.39146,33.24603]},"properties":{"name":"예래초등학교 운동장","addr":"본관","sgg":"50130","cap":3152,"type":"지진옥외대피장소","src":"safekorea","asof":"2026-04-24"}},{"type":"Feature","geometry":{"type":"Point","coordinates":[126.38187,33.24445]},"properties":{"name":"예래동 체육공원 축구장","addr":"제주특별자치도 서귀포시 하예로19번길 53-12","sgg":"50130","cap":11061,"type":"지진옥외대피장소","src":"safekorea","asof":"2026-04-24"}},{"type":"Feature","geometry":{"type":"Point","coordinates":[126.26084,33.23182]},"properties":{"name":"대정고등학교 운동장","addr":"제주특별자치도 서귀포시 대정읍 일주서로2498번길 21","sgg":"50130","cap":10909,"type":"지진옥외대피장소","src":"safekorea","asof":"2026-01-20"}},{"type":"Feature","geometry":{"type":"Point","coordinates":[126.25448,33.21952]},"properties":{"name":"대정중학교 운동장","addr":"제주특별자치도 서귀포시 대정읍 비행장로 18","sgg":"50130","cap":7879,"type":"지진옥외대피장소","src":"safekorea","asof":"2026-01-20"}},{"type":"Feature","geometry":{"type":"Point","coordinates":[126.25539,33.22502]},"properties":{"name":"대정초등학교 운동장","addr":"제주특별자치도 서귀포시 대정읍 상모대서로 15","sgg":"50130","cap":5818,"type":"지진옥외대피장소","src":"safekorea","asof":"2026-01-20"}},{"type":"Feature","geometry":{"type":"Point","coordinates":[126.27037,33.169]},"properties":{"name":"가파초등학교 운동장","addr":"제주특별자치도 서귀포시 대정읍 가파로67번길 45","sgg":"50130","cap":2424,"type":"지진옥외대피장소","src":"safekorea","asof":"2026-01-20"}},{"type":"Feature","geometry":{"type":"Point","coordinates":[126.23544,33.26337]},"properties":{"name":"대정문화체육센터 운동장","addr":"제주특별자치도 서귀포시 대정읍 암반수마농로 419","sgg":"50130","cap":3767,"type":"지진옥외대피장소","src":"safekorea","asof":"2026-01-20"}},{"type":"Feature","geometry":{"type":"Point","coordinates":[126.23918,33.23206]},"properties":{"name":"대정서초등학교 운동장","addr":"제주특별자치도 서귀포시 대정읍 동일하모로 43","sgg":"50130","cap":5455,"type":"지진옥외대피장소","src":"safekorea","asof":"2026-01-20"}},{"type":"Feature","geometry":{"type":"Point","coordinates":[126.2759,33.24937]},"properties":{"name":"보성초등학교 운동장","addr":"제주특별자치도 서귀포시 대정읍 추사로55번길 6-1","sgg":"50130","cap":3152,"type":"지진옥외대피장소","src":"safekorea","asof":"2026-01-20"}},{"type":"Feature","geometry":{"type":"Point","coordinates":[126.28344,33.28768]},"properties":{"name":"한국국제고등학교 제2운동장","addr":"제주특별자치도 서귀포시 대정읍 글로벌에듀로260번길 29","sgg":"50130","cap":9208,"type":"지진옥외대피장소","src":"safekorea","asof":"2026-01-20"}},{"type":"Feature","geometry":{"type":"Point","coordinates":[126.20145,33.27254]},"properties":{"name":"무릉초등학교 운동장","addr":"제주특별자치도 서귀포시 대정읍 서삼중로 106","sgg":"50130","cap":5212,"type":"지진옥외대피장소","src":"safekorea","asof":"2026-01-20"}},{"type":"Feature","geometry":{"type":"Point","coordinates":[126.7043,33.2777]},"properties":{"name":"남원생활체육관 운동장","addr":"제주특별자치도 서귀포시 남원읍 태위로 551-27","sgg":"50130","cap":12450,"type":"지진옥외대피장소","src":"safekorea","asof":"2026-01-22"}},{"type":"Feature","geometry":{"type":"Point","coordinates":[126.71775,33.28179]},"properties":{"name":"남원중학교 운동장","addr":"제주특별자치도 서귀포시 남원읍 남한로 36","sgg":"50130","cap":4727,"type":"지진옥외대피장소","src":"safekorea","asof":"2026-01-22"}},{"type":"Feature","geometry":{"type":"Point","coordinates":[126.71566,33.27866]},"properties":{"name":"남원초등학교 운동장","addr":"제주특별자치도 서귀포시 남원읍 태위로 647","sgg":"50130","cap":3030,"type":"지진옥외대피장소","src":"safekorea","asof":"2026-01-22"}},{"type":"Feature","geometry":{"type":"Point","coordinates":[126.74294,33.28621]},"properties":{"name":"태흥초등학교 운동장","addr":"제주특별자치도 서귀포시 남원읍 태위로 915","sgg":"50130","cap":4848,"type":"지진옥외대피장소","src":"safekorea","asof":"2026-01-22"}},{"type":"Feature","geometry":{"type":"Point","coordinates":[126.71417,33.31006]},"properties":{"name":"의귀초등학교 운동장","addr":"제주특별자치도 서귀포시 남원읍 한신로 213","sgg":"50130","cap":4848,"type":"지진옥외대피장소","src":"safekorea","asof":"2026-01-22"}},{"type":"Feature","geometry":{"type":"Point","coordinates":[126.74397,33.32026]},"properties":{"name":"신흥2리 체육공원","addr":null,"sgg":"50130","cap":7030,"type":"지진옥외대피장소","src":"safekorea","asof":"2026-01-22"}},{"type":"Feature","geometry":{"type":"Point","coordinates":[126.76549,33.29983]},"properties":{"name":"흥산초등학교 운동장","addr":"제주특별자치도 서귀포시 남원읍 일주동로 6642","sgg":"50130","cap":2909,"type":"지진옥외대피장소","src":"safekorea","asof":"2026-01-22"}},{"type":"Feature","geometry":{"type":"Point","coordinates":[126.66352,33.28055]},"properties":{"name":"위미중학교 운동장","addr":"제주특별자치도 서귀포시 남원읍 위미상원북로 34","sgg":"50130","cap":7879,"type":"지진옥외대피장소","src":"safekorea","asof":"2026-01-22"}},{"type":"Feature","geometry":{"type":"Point","coordinates":[126.65369,33.27457]},"properties":{"name":"위미초등학교 운동장","addr":"제주특별자치도 서귀포시 남원읍 태위로 57","sgg":"50130","cap":5576,"type":"지진옥외대피장소","src":"safekorea","asof":"2026-01-22"}},{"type":"Feature","geometry":{"type":"Point","coordinates":[126.63098,33.26426]},"properties":{"name":"하례초등학교 운동장","addr":"제주특별자치도 서귀포시 남원읍 일주동로 8002","sgg":"50130","cap":4364,"type":"지진옥외대피장소","src":"safekorea","asof":"2026-01-22"}},{"type":"Feature","geometry":{"type":"Point","coordinates":[126.64127,33.27685]},"properties":{"name":"공천포전지훈련센터 주경기장","addr":"제주특별자치도 서귀포시 남원읍 신례로 96","sgg":"50130","cap":14060,"type":"지진옥외대피장소","src":"safekorea","asof":"2026-01-22"}},{"type":"Feature","geometry":{"type":"Point","coordinates":[126.63224,33.28429]},"properties":{"name":"신례초등학교 운동장","addr":"제주특별자치도 서귀포시 남원읍 중산간동로 7116","sgg":"50130","cap":5455,"type":"지진옥외대피장소","src":"safekorea","asof":"2026-01-22"}},{"type":"Feature","geometry":{"type":"Point","coordinates":[126.93174,33.46795]},"properties":{"name":"성산초등학교 운동장","addr":"제주특별자치도 서귀포시 성산읍 한도로 217","sgg":"50130","cap":8121,"type":"지진옥외대피장소","src":"safekorea","asof":"2026-01-22"}},{"type":"Feature","geometry":{"type":"Point","coordinates":[126.91541,33.46965]},"properties":{"name":"성산고등학교 운동장","addr":"제주특별자치도 서귀포시 성산읍 한도로 79-17","sgg":"50130","cap":24242,"type":"지진옥외대피장소","src":"safekorea","asof":"2026-01-22"}},{"type":"Feature","geometry":{"type":"Point","coordinates":[126.9061,33.46685]},"properties":{"name":"성산국민체육센터","addr":"제주특별자치도 서귀포시 성산읍 일주동로 4024","sgg":"50130","cap":18182,"type":"지진옥외대피장소","src":"safekorea","asof":"2026-01-22"}},{"type":"Feature","geometry":{"type":"Point","coordinates":[126.89544,33.47918]},"properties":{"name":"시흥초등학교 운동장","addr":"제주특별자치도 서귀포시 성산읍 시흥상동로 113","sgg":"50130","cap":8364,"type":"지진옥외대피장소","src":"safekorea","asof":"2026-01-22"}},{"type":"Feature","geometry":{"type":"Point","coordinates":[126.91381,33.4488]},"properties":{"name":"동남초등학교 운동장","addr":"제주특별자치도 서귀포시 성산읍 고성오조로 55","sgg":"50130","cap":8081,"type":"지진옥외대피장소","src":"safekorea","asof":"2026-01-22"}},{"type":"Feature","geometry":{"type":"Point","coordinates":[126.91043,33.44355]},"properties":{"name":"성산중학교 운동장","addr":"제주특별자치도 서귀포시 성산읍 일주동로 4316","sgg":"50130","cap":6061,"type":"지진옥외대피장소","src":"safekorea","asof":"2026-01-22"}},{"type":"Feature","geometry":{"type":"Point","coordinates":[126.85448,33.44584]},"properties":{"name":"수산체육공원","addr":null,"sgg":"50130","cap":14545,"type":"지진옥외대피장소","src":"safekorea","asof":"2026-01-22"}},{"type":"Feature","geometry":{"type":"Point","coordinates":[126.8858,33.4473]},"properties":{"name":"수산초등학교 운동장","addr":"제주특별자치도 서귀포시 성산읍 수시로 9","sgg":"50130","cap":6303,"type":"지진옥외대피장소","src":"safekorea","asof":"2026-01-22"}},{"type":"Feature","geometry":{"type":"Point","coordinates":[126.89862,33.39375]},"properties":{"name":"온평리 마을 운동장","addr":null,"sgg":"50130","cap":9697,"type":"지진옥외대피장소","src":"safekorea","asof":"2026-01-22"}},{"type":"Feature","geometry":{"type":"Point","coordinates":[126.89671,33.40816]},"properties":{"name":"온평초등학교 운동장","addr":"제주특별자치도 서귀포시 성산읍 일주동로 4740","sgg":"50130","cap":4606,"type":"지진옥외대피장소","src":"safekorea","asof":"2026-01-22"}},{"type":"Feature","geometry":{"type":"Point","coordinates":[126.82586,33.38806]},"properties":{"name":"삼달리 마을 운동장","addr":"제주특별자치도 서귀포시 중산간동로 4390  (성산읍)","sgg":"50130","cap":12121,"type":"지진옥외대피장소","src":"safekorea","asof":"2026-01-22"}},{"type":"Feature","geometry":{"type":"Point","coordinates":[126.81606,33.37894]},"properties":{"name":"신풍레포츠공원","addr":null,"sgg":"50130","cap":10667,"type":"지진옥외대피장소","src":"safekorea","asof":"2026-01-22"}},{"type":"Feature","geometry":{"type":"Point","coordinates":[126.85016,33.34884]},"properties":{"name":"풍천초등학교 운동장","addr":"제주특별자치도 서귀포시 성산읍 풍천로 18","sgg":"50130","cap":6485,"type":"지진옥외대피장소","src":"safekorea","asof":"2026-01-22"}},{"type":"Feature","geometry":{"type":"Point","coordinates":[126.32816,33.25619]},"properties":{"name":"안덕생활체육관 운동장","addr":"제주특별자치도 서귀포시 안덕면 화순서서로 59","sgg":"50130","cap":26667,"type":"지진옥외대피장소","src":"safekorea","asof":"2026-01-22"}},{"type":"Feature","geometry":{"type":"Point","coordinates":[126.33702,33.24881]},"properties":{"name":"안덕중학교 운동장","addr":"제주특별자치도 서귀포시 안덕면 화순로 74","sgg":"50130","cap":5800,"type":"지진옥외대피장소","src":"safekorea","asof":"2026-01-22"}},{"type":"Feature","geometry":{"type":"Point","coordinates":[126.33613,33.25063]},"properties":{"name":"안덕초등학교 운동장","addr":"제주특별자치도 서귀포시 안덕면 화순로56번길 32","sgg":"50130","cap":5212,"type":"지진옥외대피장소","src":"safekorea","asof":"2026-01-22"}},{"type":"Feature","geometry":{"type":"Point","coordinates":[126.36572,33.23677]},"properties":{"name":"구 대평분교장 운동장","addr":"제주특별자치도 서귀포시 안덕면 대평감산로 27","sgg":"50130","cap":5697,"type":"지진옥외대피장소","src":"safekorea","asof":"2026-01-22"}},{"type":"Feature","geometry":{"type":"Point","coordinates":[126.36898,33.26351]},"properties":{"name":"창천초등학교 운동장","addr":"제주특별자치도 서귀포시 안덕면 창천중앙로 12","sgg":"50130","cap":3636,"type":"지진옥외대피장소","src":"safekorea","asof":"2026-01-22"}},{"type":"Feature","geometry":{"type":"Point","coordinates":[126.29978,33.23324]},"properties":{"name":"사계초등학교 운동장","addr":"제주특별자치도 서귀포시 안덕면 산방로 346","sgg":"50130","cap":6667,"type":"지진옥외대피장소","src":"safekorea","asof":"2026-01-22"}},{"type":"Feature","geometry":{"type":"Point","coordinates":[126.30485,33.25161]},"properties":{"name":"덕수초등학교 운동장","addr":"제주특별자치도 서귀포시 안덕면 덕수서로 10","sgg":"50130","cap":3636,"type":"지진옥외대피장소","src":"safekorea","asof":"2026-01-22"}},{"type":"Feature","geometry":{"type":"Point","coordinates":[126.2967,33.29439]},"properties":{"name":"서광서리 마을운동장","addr":"제주특별자치도 서귀포시 안덕면 녹차분재로 134","sgg":"50130","cap":9697,"type":"지진옥외대피장소","src":"safekorea","asof":"2026-01-20"}},{"type":"Feature","geometry":{"type":"Point","coordinates":[126.33746,33.30665]},"properties":{"name":"동광리 축구장","addr":"제주특별자치도 서귀포시 안덕면 동광로 107","sgg":"50130","cap":8485,"type":"지진옥외대피장소","src":"safekorea","asof":"2026-01-20"}},{"type":"Feature","geometry":{"type":"Point","coordinates":[126.82792,33.33018]},"properties":{"name":"표선고등학교 운동장","addr":"제주특별자치도 서귀포시 표선면 표선중앙로 22-15","sgg":"50130","cap":11515,"type":"지진옥외대피장소","src":"safekorea","asof":"2026-01-20"}},{"type":"Feature","geometry":{"type":"Point","coordinates":[126.83109,33.33044]},"properties":{"name":"표선중학교 운동장","addr":"제주특별자치도 서귀포시 표선면 표선중앙로 31","sgg":"50130","cap":9697,"type":"지진옥외대피장소","src":"safekorea","asof":"2026-01-20"}},{"type":"Feature","geometry":{"type":"Point","coordinates":[126.83498,33.3297]},"properties":{"name":"표선초등학교 운동장","addr":"제주특별자치도 서귀포시 표선면 표선동서로 293","sgg":"50130","cap":5455,"type":"지진옥외대피장소","src":"safekorea","asof":"2026-01-20"}},{"type":"Feature","geometry":{"type":"Point","coordinates":[126.8146,33.35444]},"properties":{"name":"표선 생활체육 인조잔디구장","addr":"제주특별자치도 서귀포시 표선면 한마음초등로 399","sgg":"50130","cap":18182,"type":"지진옥외대피장소","src":"safekorea","asof":"2026-01-20"}},{"type":"Feature","geometry":{"type":"Point","coordinates":[126.7984,33.38305]},"properties":{"name":"성읍초등학교 운동장","addr":"제주특별자치도 서귀포시 표선면 성읍민속로 65","sgg":"50130","cap":8485,"type":"지진옥외대피장소","src":"safekorea","asof":"2026-01-20"}},{"type":"Feature","geometry":{"type":"Point","coordinates":[126.79993,33.3053]},"properties":{"name":"가마초등학교 운동장","addr":"제주특별자치도 서귀포시 표선면 일주동로6285번길 8","sgg":"50130","cap":9538,"type":"지진옥외대피장소","src":"safekorea","asof":"2026-01-20"}},{"type":"Feature","geometry":{"type":"Point","coordinates":[126.77778,33.31223]},"properties":{"name":"토산초등학교 운동장","addr":"제주특별자치도 서귀포시 표선면 토산중앙로 68-9","sgg":"50130","cap":6061,"type":"지진옥외대피장소","src":"safekorea","asof":"2026-01-20"}},{"type":"Feature","geometry":{"type":"Point","coordinates":[126.5128,33.50735]},"properties":{"name":"한천초등학교 운동장","addr":"제주특별자치도 제주시 남성로11길 22","sgg":"50110","cap":1263,"type":"지진해일긴급대피장소 (옥외대피장소)","src":"datago_std_15025449","asof":"2020-07-10"}},{"type":"Feature","geometry":{"type":"Point","coordinates":[126.47593,33.48506]},"properties":{"name":"노형초등학교 운동장","addr":"제주특별자치도 제주시 노형로 383","sgg":"50110","cap":1381,"type":"지진해일긴급대피장소 (옥외대피장소)","src":"datago_std_15025449","asof":"2020-07-10"}},{"type":"Feature","geometry":{"type":"Point","coordinates":[126.51576,33.50237]},"properties":{"name":"제주중앙초등학교 운동장","addr":"제주특별자치도 제주시 서사로 18길 40","sgg":"50110","cap":1381,"type":"지진해일긴급대피장소 (옥외대피장소)","src":"datago_std_15025449","asof":"2020-07-10"}},{"type":"Feature","geometry":{"type":"Point","coordinates":[126.51505,33.498]},"properties":{"name":"제주종합경기장 주경기장","addr":"제주특별자치도 제주시 서광로2길 24","sgg":"50110","cap":6340,"type":"지진해일긴급대피장소 (옥외대피장소)","src":"datago_std_15025449","asof":"2020-07-10"}},{"type":"Feature","geometry":{"type":"Point","coordinates":[126.59382,33.49003]},"properties":{"name":"봉개초등학교 운동장","addr":"제주특별자치도 제주시 번영로 484","sgg":"50110","cap":3055,"type":"지진해일긴급대피장소 (옥외대피장소)","src":"datago_std_15025449","asof":"2020-07-10"}},{"type":"Feature","geometry":{"type":"Point","coordinates":[126.58684,33.52077]},"properties":{"name":"삼양초등학교 운동장","addr":"제주특별자치도 제주시 지석14길 7","sgg":"50110","cap":4621,"type":"지진해일긴급대피장소 (옥외대피장소)","src":"datago_std_15025449","asof":"2020-07-10"}},{"type":"Feature","geometry":{"type":"Point","coordinates":[126.56172,33.51867]},"properties":{"name":"화북초등학교 운동장","addr":"제주특별자치도 제주시 일주동로 157","sgg":"50110","cap":4343,"type":"지진해일긴급대피장소 (옥외대피장소)","src":"datago_std_15025449","asof":"2020-07-10"}},{"type":"Feature","geometry":{"type":"Point","coordinates":[126.51089,33.51216]},"properties":{"name":"제주서초등학교 운동장","addr":"제주특별자치도 제주시 성화로6길 51","sgg":"50110","cap":3332,"type":"지진해일긴급대피장소 (옥외대피장소)","src":"datago_std_15025449","asof":"2020-07-10"}},{"type":"Feature","geometry":{"type":"Point","coordinates":[126.51607,33.51204]},"properties":{"name":"제주중학교 운동장","addr":"제주특별자치도 제주시 서문로 47","sgg":"50110","cap":2305,"type":"지진해일긴급대피장소 (옥외대피장소)","src":"datago_std_15025449","asof":"2020-07-10"}},{"type":"Feature","geometry":{"type":"Point","coordinates":[126.52204,33.51505]},"properties":{"name":"제주북초등학교 운동장","addr":"제주특별자치도 제주시 중앙로8길 18","sgg":"50110","cap":2248,"type":"지진해일긴급대피장소 (옥외대피장소)","src":"datago_std_15025449","asof":"2020-07-10"}},{"type":"Feature","geometry":{"type":"Point","coordinates":[126.53884,33.49512]},"properties":{"name":"제주제일중학교 운동장","addr":"제주특별자치도 제주시 남광로 33","sgg":"50110","cap":2248,"type":"지진해일긴급대피장소 (옥외대피장소)","src":"datago_std_15025449","asof":"2020-07-10"}},{"type":"Feature","geometry":{"type":"Point","coordinates":[126.52966,33.50276]},"properties":{"name":"광양초등학교 운동장","addr":"제주특별자치도 제주시 돈내길 5","sgg":"50110","cap":1833,"type":"지진해일긴급대피장소 (옥외대피장소)","src":"datago_std_15025449","asof":"2020-07-10"}},{"type":"Feature","geometry":{"type":"Point","coordinates":[126.96185,33.5099]},"properties":{"name":"우도축구장","addr":"제주특별자치도 제주시 우도면 연평리 635-3","sgg":"50110","cap":3318,"type":"지진해일긴급대피장소 (옥외대피장소)","src":"datago_std_15025449","asof":"2020-07-10"}},{"type":"Feature","geometry":{"type":"Point","coordinates":[126.29539,33.96433]},"properties":{"name":"추자초등학교 운동장","addr":"제주특별자치도 제주시 추자면대서3길 10","sgg":"50110","cap":300,"type":"지진해일긴급대피장소 (옥외대피장소)","src":"datago_std_15025449","asof":"2020-07-10"}},{"type":"Feature","geometry":{"type":"Point","coordinates":[126.18457,33.34919]},"properties":{"name":"신창초등학교 운동장","addr":"제주특별자치도 제주시 한경면두신로 72","sgg":"50110","cap":1392,"type":"지진해일긴급대피장소 (옥외대피장소)","src":"datago_std_15025449","asof":"2020-07-10"}},{"type":"Feature","geometry":{"type":"Point","coordinates":[126.63435,33.53565]},"properties":{"name":"조천초등학교 운동장","addr":"제주특별자치도 제주시 조천읍신북로 195","sgg":"50110","cap":1434,"type":"지진해일긴급대피장소 (옥외대피장소)","src":"datago_std_15025449","asof":"2020-07-10"}},{"type":"Feature","geometry":{"type":"Point","coordinates":[126.85457,33.52045]},"properties":{"name":"세화중학교 운동장","addr":"제주특별자치도 제주시 구좌읍일주동로 3132","sgg":"50110","cap":2099,"type":"지진해일긴급대피장소 (옥외대피장소)","src":"datago_std_15025449","asof":"2020-07-10"}},{"type":"Feature","geometry":{"type":"Point","coordinates":[126.32438,33.4643]},"properties":{"name":"애월 중학교 운동장","addr":"제주특별자치도 제주시 애월읍애월로15길 8","sgg":"50110","cap":2100,"type":"지진해일긴급대피장소 (옥외대피장소)","src":"datago_std_15025449","asof":"2020-07-10"}},{"type":"Feature","geometry":{"type":"Point","coordinates":[126.26854,33.40969]},"properties":{"name":"한림종합운동장","addr":"제주특별자치도 제주시 한림읍한림중앙로 71-9","sgg":"50110","cap":5804,"type":"지진해일긴급대피장소 (옥외대피장소)","src":"datago_std_15025449","asof":"2020-07-10"}},{"type":"Feature","geometry":{"type":"Point","coordinates":[126.48298,33.48949]},"properties":{"name":"남녕고등학교 운동장","addr":"제주특별자치도 제주시 연동 2288","sgg":"50110","cap":6340,"type":"지진해일긴급대피장소 (옥외대피장소)","src":"datago_std_15025449","asof":"2020-07-10"}},{"type":"Feature","geometry":{"type":"Point","coordinates":[126.54358,33.47661]},"properties":{"name":"아라초등학교 운동장","addr":"제주특별자치도 제주시 아라일동 6101","sgg":"50110","cap":1880,"type":"지진해일긴급대피장소 (옥외대피장소)","src":"datago_std_15025449","asof":"2020-07-10"}},{"type":"Feature","geometry":{"type":"Point","coordinates":[126.5335,33.51402]},"properties":{"name":"제주동초등학교 운동장","addr":"제주특별자치도 제주시 건입동 1105","sgg":"50110","cap":2149,"type":"지진해일긴급대피장소 (옥외대피장소)","src":"datago_std_15025449","asof":"2020-07-10"}},{"type":"Feature","geometry":{"type":"Point","coordinates":[126.5349,33.50589]},"properties":{"name":"신산공원","addr":"제주특별자치도 제주시 일도이동 879","sgg":"50110","cap":3350,"type":"지진해일긴급대피장소 (옥외대피장소)","src":"datago_std_15025449","asof":"2020-07-10"}},{"type":"Feature","geometry":{"type":"Point","coordinates":[126.485,33.4916]},"properties":{"name":"신광초등학교 운동장","addr":"제주특별자치도 제주시 성신로 25","sgg":"50110","cap":2204,"type":"지진해일긴급대피장소 (옥외대피장소)","src":"datago_std_15025449","asof":"2020-07-10"}},{"type":"Feature","geometry":{"type":"Point","coordinates":[126.49102,33.48218]},"properties":{"name":"연동공원","addr":"제주특별자치도 제주시 연동 1373-5","sgg":"50110","cap":7072,"type":"지진해일긴급대피장소 (옥외대피장소)","src":"datago_std_15025449","asof":"2020-07-10"}},{"type":"Feature","geometry":{"type":"Point","coordinates":[126.49253,33.49155]},"properties":{"name":"삼무공원","addr":"제주특별자치도 제주시 신대로10길 48-9","sgg":"50110","cap":7980,"type":"지진해일긴급대피장소 (옥외대피장소)","src":"datago_std_15025449","asof":"2020-07-10"}},{"type":"Feature","geometry":{"type":"Point","coordinates":[126.49612,33.49046]},"properties":{"name":"삼다공원","addr":"제주특별자치도 제주시 연동 301-9","sgg":"50110","cap":5705,"type":"지진해일긴급대피장소 (옥외대피장소)","src":"datago_std_15025449","asof":"2020-07-10"}},{"type":"Feature","geometry":{"type":"Point","coordinates":[126.56703,33.47874]},"properties":{"name":"영평초등학교 운동장","addr":"제주특별자치도 제주시 아봉로 225","sgg":"50110","cap":1589,"type":"지진해일긴급대피장소 (옥외대피장소)","src":"datago_std_15025449","asof":"2020-07-10"}},{"type":"Feature","geometry":{"type":"Point","coordinates":[126.57404,33.48589]},"properties":{"name":"영평하동운동장","addr":"제주특별자치도 제주시 영강길 142-1","sgg":"50110","cap":1357,"type":"지진해일긴급대피장소 (옥외대피장소)","src":"datago_std_15025449","asof":"2020-07-10"}},{"type":"Feature","geometry":{"type":"Point","coordinates":[126.57268,33.45303]},"properties":{"name":"첨단제1근린공원","addr":"제주특별자치도 제주시 영평동 2278","sgg":"50110","cap":4254,"type":"지진해일긴급대피장소 (옥외대피장소)","src":"datago_std_15025449","asof":"2020-07-10"}},{"type":"Feature","geometry":{"type":"Point","coordinates":[126.54509,33.49203]},"properties":{"name":"탐라중학교 운동장","addr":"제주특별자치도 제주시 신설로 56","sgg":"50110","cap":1357,"type":"지진해일긴급대피장소 (옥외대피장소)","src":"datago_std_15025449","asof":"2020-07-10"}},{"type":"Feature","geometry":{"type":"Point","coordinates":[126.5457,33.48586]},"properties":{"name":"아라중학교 운동장","addr":"제주특별자치도 제주시 간월동로 30","sgg":"50110","cap":1467,"type":"지진해일긴급대피장소 (옥외대피장소)","src":"datago_std_15025449","asof":"2020-07-10"}},{"type":"Feature","geometry":{"type":"Point","coordinates":[126.63651,33.47237]},"properties":{"name":"제주시 생활체육공원 축구장","addr":"제주특별자치도 제주시 와흘전1길 32","sgg":"50110","cap":3159,"type":"지진해일긴급대피장소 (옥외대피장소)","src":"datago_std_15025449","asof":"2020-07-10"}},{"type":"Feature","geometry":{"type":"Point","coordinates":[126.58327,33.51384]},"properties":{"name":"삼화제6근린공원","addr":"제주특별자치도 제주시 도련일동 1912-0","sgg":"50110","cap":4107,"type":"지진해일긴급대피장소 (옥외대피장소)","src":"datago_std_15025449","asof":"2020-07-10"}},{"type":"Feature","geometry":{"type":"Point","coordinates":[126.58562,33.51332]},"properties":{"name":"삼화제5근린공원","addr":"제주특별자치도 제주시 도련일동 1895-1","sgg":"50110","cap":9466,"type":"지진해일긴급대피장소 (옥외대피장소)","src":"datago_std_15025449","asof":"2020-07-10"}},{"type":"Feature","geometry":{"type":"Point","coordinates":[126.58164,33.51371]},"properties":{"name":"삼화제4근린공원","addr":"제주특별자치도 제주시 도련일동 1966","sgg":"50110","cap":7161,"type":"지진해일긴급대피장소 (옥외대피장소)","src":"datago_std_15025449","asof":"2020-07-10"}},{"type":"Feature","geometry":{"type":"Point","coordinates":[126.5805,33.51696]},"properties":{"name":"삼화제2근린공원","addr":"제주특별자치도 제주시 도련일동 2008-0","sgg":"50110","cap":5114,"type":"지진해일긴급대피장소 (옥외대피장소)","src":"datago_std_15025449","asof":"2020-07-10"}},{"type":"Feature","geometry":{"type":"Point","coordinates":[126.58187,33.51831]},"properties":{"name":"삼화제3근린공원","addr":"제주특별자치도 제주시 삼양이동 2329","sgg":"50110","cap":3776,"type":"지진해일긴급대피장소 (옥외대피장소)","src":"datago_std_15025449","asof":"2020-07-10"}},{"type":"Feature","geometry":{"type":"Point","coordinates":[126.58007,33.51777]},"properties":{"name":"삼화제1근린공원","addr":"제주특별자치도 제주시 건주로2길 22","sgg":"50110","cap":5273,"type":"지진해일긴급대피장소 (옥외대피장소)","src":"datago_std_15025449","asof":"2020-07-10"}},{"type":"Feature","geometry":{"type":"Point","coordinates":[126.59815,33.53282]},"properties":{"name":"삼양축구장","addr":"제주특별자치도 제주시 삼양일동 747-0","sgg":"50110","cap":6309,"type":"지진해일긴급대피장소 (옥외대피장소)","src":"datago_std_15025449","asof":"2020-07-10"}},{"type":"Feature","geometry":{"type":"Point","coordinates":[126.55307,33.51457]},"properties":{"name":"제주대학교교육대학부설초등학교 운동장","addr":"제주특별자치도 제주시 일주동로 61","sgg":"50110","cap":2171,"type":"지진해일긴급대피장소 (옥외대피장소)","src":"datago_std_15025449","asof":"2020-07-10"}},{"type":"Feature","geometry":{"type":"Point","coordinates":[126.577,33.51522]},"properties":{"name":"삼화초등학교 운동장","addr":"제주특별자치도 제주시 화삼북로2길 27","sgg":"50110","cap":1078,"type":"지진해일긴급대피장소 (옥외대피장소)","src":"datago_std_15025449","asof":"2020-07-10"}},{"type":"Feature","geometry":{"type":"Point","coordinates":[126.57575,33.51853]},"properties":{"name":"동화초등학교 운동장","addr":"제주특별자치도 제주시 동화로1길 44","sgg":"50110","cap":1394,"type":"지진해일긴급대피장소 (옥외대피장소)","src":"datago_std_15025449","asof":"2020-07-10"}},{"type":"Feature","geometry":{"type":"Point","coordinates":[126.57487,33.5163]},"properties":{"name":"삼화제7근린공원","addr":"제주특별자치도 제주시 화북일동 1011","sgg":"50110","cap":8099,"type":"지진해일긴급대피장소 (옥외대피장소)","src":"datago_std_15025449","asof":"2020-07-10"}},{"type":"Feature","geometry":{"type":"Point","coordinates":[126.54446,33.51372]},"properties":{"name":"사라봉축구장","addr":"제주특별자치도 제주시 동문로 169","sgg":"50110","cap":2499,"type":"지진해일긴급대피장소 (옥외대피장소)","src":"datago_std_15025449","asof":"2020-07-10"}},{"type":"Feature","geometry":{"type":"Point","coordinates":[126.52856,33.5156]},"properties":{"name":"산짓물공원","addr":"제주특별자치도 제주시 중앙로1길 34-10","sgg":"50110","cap":2664,"type":"지진해일긴급대피장소 (옥외대피장소)","src":"datago_std_15025449","asof":"2020-07-10"}},{"type":"Feature","geometry":{"type":"Point","coordinates":[126.50928,33.51345]},"properties":{"name":"제주대학교사범대학부설고등학교","addr":"제주특별자치도 제주시 용담로 65","sgg":"50110","cap":2676,"type":"지진해일긴급대피장소 (옥외대피장소)","src":"datago_std_15025449","asof":"2020-07-10"}},{"type":"Feature","geometry":{"type":"Point","coordinates":[126.46482,33.50402]},"properties":{"name":"43호 어린이공원","addr":"제주특별자치도 제주시 도두일동 2620-0","sgg":"50110","cap":670,"type":"지진해일긴급대피장소 (옥외대피장소)","src":"datago_std_15025449","asof":"2020-07-10"}},{"type":"Feature","geometry":{"type":"Point","coordinates":[126.45691,33.48639]},"properties":{"name":"이호운동장","addr":"제주특별자치도 제주시 오광로6길 58-11","sgg":"50110","cap":4735,"type":"지진해일긴급대피장소 (옥외대피장소)","src":"datago_std_15025449","asof":"2020-07-10"}},{"type":"Feature","geometry":{"type":"Point","coordinates":[126.44677,33.48082]},"properties":{"name":"도평초등학교 운동장","addr":"제주특별자치도 제주시 도평길 17","sgg":"50110","cap":1415,"type":"지진해일긴급대피장소 (옥외대피장소)","src":"datago_std_15025449","asof":"2020-07-10"}},{"type":"Feature","geometry":{"type":"Point","coordinates":[126.43626,33.48774]},"properties":{"name":"외도축구장","addr":"제주특별자치도 제주시 통물길 55","sgg":"50110","cap":5091,"type":"지진해일긴급대피장소 (옥외대피장소)","src":"datago_std_15025449","asof":"2020-07-10"}},{"type":"Feature","geometry":{"type":"Point","coordinates":[126.43654,33.48684]},"properties":{"name":"외도제2축구장","addr":"제주특별자치도 제주시 외도일동 212-1","sgg":"50110","cap":6717,"type":"지진해일긴급대피장소 (옥외대피장소)","src":"datago_std_15025449","asof":"2020-07-10"}},{"type":"Feature","geometry":{"type":"Point","coordinates":[126.45421,33.45689]},"properties":{"name":"해안초등학교 운동장","addr":"제주특별자치도 제주시 해안마을길 76","sgg":"50110","cap":1631,"type":"지진해일긴급대피장소 (옥외대피장소)","src":"datago_std_15025449","asof":"2020-07-10"}},{"type":"Feature","geometry":{"type":"Point","coordinates":[126.47945,33.47972]},"properties":{"name":"제주제일고등학교 운동장","addr":"제주특별자치도 제주시 진군길 22","sgg":"50110","cap":3315,"type":"지진해일긴급대피장소 (옥외대피장소)","src":"datago_std_15025449","asof":"2020-07-10"}},{"type":"Feature","geometry":{"type":"Point","coordinates":[126.48167,33.47237]},"properties":{"name":"제주고등학교 운동장","addr":"제주특별자치도 제주시 1100로 3213","sgg":"50110","cap":6508,"type":"지진해일긴급대피장소 (옥외대피장소)","src":"datago_std_15025449","asof":"2020-07-10"}},{"type":"Feature","geometry":{"type":"Point","coordinates":[126.47787,33.49278]},"properties":{"name":"월랑초등학교 운동장","addr":"제주특별자치도 제주시 남녕로 63","sgg":"50110","cap":2156,"type":"지진해일긴급대피장소 (옥외대피장소)","src":"datago_std_15025449","asof":"2020-07-10"}},{"type":"Feature","geometry":{"type":"Point","coordinates":[126.47583,33.47967]},"properties":{"name":"노형중학교 운동장","addr":"제주특별자치도 제주시 노형1길 28","sgg":"50110","cap":1638,"type":"지진해일긴급대피장소 (옥외대피장소)","src":"datago_std_15025449","asof":"2020-07-10"}},{"type":"Feature","geometry":{"type":"Point","coordinates":[126.47165,33.48925]},"properties":{"name":"노형제2근린공원","addr":"제주특별자치도 제주시 월광로 116","sgg":"50110","cap":3787,"type":"지진해일긴급대피장소 (옥외대피장소)","src":"datago_std_15025449","asof":"2020-07-10"}},{"type":"Feature","geometry":{"type":"Point","coordinates":[126.50049,33.48663]},"properties":{"name":"제주중앙중학교 운동장","addr":"제주특별자치도 제주시 선덕로5길 37","sgg":"50110","cap":3850,"type":"지진해일긴급대피장소 (옥외대피장소)","src":"datago_std_15025449","asof":"2020-07-10"}},{"type":"Feature","geometry":{"type":"Point","coordinates":[126.48089,33.49472]},"properties":{"name":"제주서중학교 운동장","addr":"제주특별자치도 제주시 일주서로 7811","sgg":"50110","cap":1763,"type":"지진해일긴급대피장소 (옥외대피장소)","src":"datago_std_15025449","asof":"2020-07-10"}},{"type":"Feature","geometry":{"type":"Point","coordinates":[126.49785,33.48312]},"properties":{"name":"신제주초등학교 운동장","addr":"제주특별자치도 제주시 비월길 29","sgg":"50110","cap":1509,"type":"지진해일긴급대피장소 (옥외대피장소)","src":"datago_std_15025449","asof":"2020-07-10"}},{"type":"Feature","geometry":{"type":"Point","coordinates":[126.52196,33.5061]},"properties":{"name":"삼도1동 1호 어린이공원","addr":"제주특별자치도 제주시 서사로7길 36-1","sgg":"50110","cap":582,"type":"지진해일긴급대피장소 (옥외대피장소)","src":"datago_std_15025449","asof":"2020-07-10"}},{"type":"Feature","geometry":{"type":"Point","coordinates":[126.52234,33.51375]},"properties":{"name":"관덕공원","addr":"제주특별자치도 제주시 삼도이동 43-3","sgg":"50110","cap":5600,"type":"지진해일긴급대피장소 (옥외대피장소)","src":"datago_std_15025449","asof":"2020-07-10"}},{"type":"Feature","geometry":{"type":"Point","coordinates":[126.52181,33.5022]},"properties":{"name":"삼도1동 3호 어린이공원","addr":"제주특별자치도 제주시 삼도일동 547-11","sgg":"50110","cap":574,"type":"지진해일긴급대피장소 (옥외대피장소)","src":"datago_std_15025449","asof":"2020-07-10"}},{"type":"Feature","geometry":{"type":"Point","coordinates":[126.51588,33.50151]},"properties":{"name":"삼도1동 2호 어린이 공원","addr":"제주특별자치도 제주시 삼도일동 505-0","sgg":"50110","cap":583,"type":"지진해일긴급대피장소 (옥외대피장소)","src":"datago_std_15025449","asof":"2020-07-10"}},{"type":"Feature","geometry":{"type":"Point","coordinates":[126.52847,33.50306]},"properties":{"name":"삼성초등학교 운동장","addr":"제주특별자치도 제주시 동광로1길 28","sgg":"50110","cap":2167,"type":"지진해일긴급대피장소 (옥외대피장소)","src":"datago_std_15025449","asof":"2020-07-10"}},{"type":"Feature","geometry":{"type":"Point","coordinates":[126.52969,33.50949]},"properties":{"name":"일도초등학교 운동장","addr":"제주특별자치도 제주시 삼성로9길 27","sgg":"50110","cap":1923,"type":"지진해일긴급대피장소 (옥외대피장소)","src":"datago_std_15025449","asof":"2020-07-10"}},{"type":"Feature","geometry":{"type":"Point","coordinates":[126.53838,33.50725]},"properties":{"name":"인화초등학교 운동장","addr":"제주특별자치도 제주시 신산로15길 35","sgg":"50110","cap":2103,"type":"지진해일긴급대피장소 (옥외대피장소)","src":"datago_std_15025449","asof":"2020-07-10"}},{"type":"Feature","geometry":{"type":"Point","coordinates":[126.54714,33.50172]},"properties":{"name":"동광초등학교 운동장","addr":"제주특별자치도 제주시 태성로 6","sgg":"50110","cap":1593,"type":"지진해일긴급대피장소 (옥외대피장소)","src":"datago_std_15025449","asof":"2020-07-10"}},{"type":"Feature","geometry":{"type":"Point","coordinates":[126.52813,33.51392]},"properties":{"name":"탐라문화광장","addr":"제주특별자치도 제주시 일도일동 1202-1","sgg":"50110","cap":1159,"type":"지진해일긴급대피장소 (옥외대피장소)","src":"datago_std_15025449","asof":"2020-07-10"}},{"type":"Feature","geometry":{"type":"Point","coordinates":[126.18452,33.3012]},"properties":{"name":"한경축구장","addr":"제주특별자치도 제주시 한경면 칠전로 41","sgg":"50110","cap":8572,"type":"지진해일긴급대피장소 (옥외대피장소)","src":"datago_std_15025449","asof":"2020-07-10"}},{"type":"Feature","geometry":{"type":"Point","coordinates":[126.67242,33.53883]},"properties":{"name":"함덕초등학교 운동장","addr":"제주특별자치도 제주시 조천읍 일주동로 1231","sgg":"50110","cap":2275,"type":"지진해일긴급대피장소 (옥외대피장소)","src":"datago_std_15025449","asof":"2020-07-10"}},{"type":"Feature","geometry":{"type":"Point","coordinates":[126.61917,33.53427]},"properties":{"name":"신촌초등학교 운동장","addr":"제주특별자치도 제주시 조천읍 신북로 51","sgg":"50110","cap":2219,"type":"지진해일긴급대피장소 (옥외대피장소)","src":"datago_std_15025449","asof":"2020-07-10"}},{"type":"Feature","geometry":{"type":"Point","coordinates":[126.75042,33.55543]},"properties":{"name":"김녕초등학교 운동장","addr":"제주특별자치도 제주시 구좌읍 김녕로 117","sgg":"50110","cap":1597,"type":"지진해일긴급대피장소 (옥외대피장소)","src":"datago_std_15025449","asof":"2020-07-10"}},{"type":"Feature","geometry":{"type":"Point","coordinates":[126.86477,33.51989]},"properties":{"name":"세화공원","addr":"제주특별자치도 제주시 구좌읍 상도리471-0","sgg":"50110","cap":28837,"type":"지진해일긴급대피장소 (옥외대피장소)","src":"datago_std_15025449","asof":"2020-07-10"}},{"type":"Feature","geometry":{"type":"Point","coordinates":[126.78101,33.47106]},"properties":{"name":"송당초등학교 운동장","addr":"제주특별자치도 제주시 구좌읍 중산간동로 2218-3","sgg":"50110","cap":1269,"type":"지진해일긴급대피장소 (옥외대피장소)","src":"datago_std_15025449","asof":"2020-07-10"}},{"type":"Feature","geometry":{"type":"Point","coordinates":[126.40189,33.47977]},"properties":{"name":"하귀초등학교 운동장","addr":"제주특별자치도 제주시 애월읍 하귀로 44","sgg":"50110","cap":1750,"type":"지진해일긴급대피장소 (옥외대피장소)","src":"datago_std_15025449","asof":"2020-07-10"}},{"type":"Feature","geometry":{"type":"Point","coordinates":[126.40189,33.47977]},"properties":{"name":"하귀일초등학교 운동장","addr":"제주특별자치도 제주시 애월읍 하귀로 44","sgg":"50110","cap":1103,"type":"지진해일긴급대피장소 (옥외대피장소)","src":"datago_std_15025449","asof":"2020-07-10"}},{"type":"Feature","geometry":{"type":"Point","coordinates":[126.32298,33.46513]},"properties":{"name":"애월초등학교 운동장","addr":"제주특별자치도 제주시 애월읍 애월리1753-1","sgg":"50110","cap":1488,"type":"지진해일긴급대피장소 (옥외대피장소)","src":"datago_std_15025449","asof":"2020-07-10"}},{"type":"Feature","geometry":{"type":"Point","coordinates":[126.33197,33.46299]},"properties":{"name":"고내공원","addr":"제주특별자치도 제주시 애월읍 일주서로 6349","sgg":"50110","cap":25099,"type":"지진해일긴급대피장소 (옥외대피장소)","src":"datago_std_15025449","asof":"2020-07-10"}},{"type":"Feature","geometry":{"type":"Point","coordinates":[126.37501,33.47289]},"properties":{"name":"구엄초등학교 운동장","addr":"제주특별자치도 제주시 애월읍 일주서로 6768","sgg":"50110","cap":2226,"type":"지진해일긴급대피장소 (옥외대피장소)","src":"datago_std_15025449","asof":"2020-07-10"}},{"type":"Feature","geometry":{"type":"Point","coordinates":[126.43668,33.45947]},"properties":{"name":"광령초등학교운동장","addr":"제주특별자치도 제주시 애월읍 광성로 276","sgg":"50110","cap":1654,"type":"지진해일긴급대피장소 (옥외대피장소)","src":"datago_std_15025449","asof":"2020-07-10"}},{"type":"Feature","geometry":{"type":"Point","coordinates":[126.46491,33.50179]},"properties":{"name":"도리초등학교 운동장","addr":"제주특별자치도 제주시 도리로 129","sgg":"50110","cap":2943,"type":"지진해일긴급대피장소 (옥외대피장소)","src":"datago_std_15025449","asof":"2020-07-10"}},{"type":"Feature","geometry":{"type":"Point","coordinates":[126.43441,33.49268]},"properties":{"name":"외도초등학교 운동장","addr":"제주특별자치도 제주시 일주서로 7368","sgg":"50110","cap":1615,"type":"지진해일긴급대피장소 (옥외대피장소)","src":"datago_std_15025449","asof":"2020-07-10"}}]}