{"type":"FeatureCollection","features":[{"type":"Feature","geometry":{"type":"Point","coordinates":[128.59778,35.86056]},"properties":{"name":"대구제일중학교 동편","addr":null,"sgg":"27110","cap":null,"type":"학교","src":"safekorea","asof":"2026-08-23"}},{"type":"Feature","geometry":{"type":"Point","coordinates":[128.59806,35.85806]},"properties":{"name":"대봉동 736-9번지선","addr":null,"sgg":"27110","cap":null,"type":"지자체","src":"safekorea","asof":"2026-08-23"}},{"type":"Feature","geometry":{"type":"Point","coordinates":[128.58417,35.87]},"properties":{"name":"대구 중 동산 N1지구","addr":null,"sgg":"27110","cap":null,"type":null,"src":"safekorea","asof":"2026-08-23"}},{"type":"Feature","geometry":{"type":"Point","coordinates":[128.58472,35.86944]},"properties":{"name":"대구 중 동산 N2지구","addr":null,"sgg":"27110","cap":null,"type":null,"src":"safekorea","asof":"2026-08-23"}},{"type":"Feature","geometry":{"type":"Point","coordinates":[128.71389,35.90278]},"properties":{"name":"대구 동 매여 N1지구","addr":null,"sgg":"27140","cap":null,"type":null,"src":"safekorea","asof":"2026-08-23"}},{"type":"Feature","geometry":{"type":"Point","coordinates":[128.70333,35.99278]},"properties":{"name":"팔동 00-00-04","addr":null,"sgg":"27140","cap":null,"type":"팔공산동부사무소","src":"safekorea","asof":"2026-08-23"}},{"type":"Feature","geometry":{"type":"Point","coordinates":[128.70111,35.97222]},"properties":{"name":"대구 동 도학 N3지구","addr":null,"sgg":"27140","cap":null,"type":null,"src":"safekorea","asof":"2026-08-23"}},{"type":"Feature","geometry":{"type":"Point","coordinates":[128.71944,35.95944]},"properties":{"name":"대구 동 진인 N1지구","addr":null,"sgg":"27140","cap":null,"type":null,"src":"safekorea","asof":"2026-08-23"}},{"type":"Feature","geometry":{"type":"Point","coordinates":[128.69806,35.965]},"properties":{"name":"대구 동 도학 N2지구","addr":null,"sgg":"27140","cap":null,"type":null,"src":"safekorea","asof":"2026-08-23"}},{"type":"Feature","geometry":{"type":"Point","coordinates":[128.64917,35.98361]},"properties":{"name":"대구 동 신용 N2지구","addr":null,"sgg":"27140","cap":null,"type":null,"src":"safekorea","asof":"2026-08-23"}},{"type":"Feature","geometry":{"type":"Point","coordinates":[128.64278,35.98028]},"properties":{"name":"대구 동 신용 N1지구","addr":null,"sgg":"27140","cap":null,"type":null,"src":"safekorea","asof":"2026-08-23"}},{"type":"Feature","geometry":{"type":"Point","coordinates":[128.71167,35.9575]},"properties":{"name":"대구 동 진인 N2지구","addr":null,"sgg":"27140","cap":null,"type":null,"src":"safekorea","asof":"2026-08-23"}},{"type":"Feature","geometry":{"type":"Point","coordinates":[128.65778,35.95639]},"properties":{"name":"대구 동 지묘 N2지구","addr":null,"sgg":"27140","cap":null,"type":null,"src":"safekorea","asof":"2026-08-23"}},{"type":"Feature","geometry":{"type":"Point","coordinates":[128.65139,35.95528]},"properties":{"name":"대구 동 지묘 N1지구","addr":null,"sgg":"27140","cap":null,"type":null,"src":"safekorea","asof":"2026-08-23"}},{"type":"Feature","geometry":{"type":"Point","coordinates":[128.74889,35.87694]},"properties":{"name":"대구 동 사복 N1지구","addr":null,"sgg":"27140","cap":null,"type":null,"src":"safekorea","asof":"2026-08-23"}},{"type":"Feature","geometry":{"type":"Point","coordinates":[128.64139,35.93694]},"properties":{"name":"불로봉무2","addr":null,"sgg":"27140","cap":null,"type":"대구광역시 동구","src":"safekorea","asof":"2026-08-23"}},{"type":"Feature","geometry":{"type":"Point","coordinates":[128.68028,35.93111]},"properties":{"name":"도평1","addr":null,"sgg":"27140","cap":null,"type":"대구광역시 동구","src":"safekorea","asof":"2026-08-23"}},{"type":"Feature","geometry":{"type":"Point","coordinates":[128.71056,35.93444]},"properties":{"name":"도평2","addr":null,"sgg":"27140","cap":null,"type":"대구광역시 동구","src":"safekorea","asof":"2026-08-23"}},{"type":"Feature","geometry":{"type":"Point","coordinates":[128.69,35.99194]},"properties":{"name":"팔동 00-00-05","addr":null,"sgg":"27140","cap":null,"type":"팔공산동부사무소","src":"safekorea","asof":"2026-08-23"}},{"type":"Feature","geometry":{"type":"Point","coordinates":[128.72389,35.95028]},"properties":{"name":"공산21","addr":null,"sgg":"27140","cap":null,"type":"대구광역시 동구","src":"safekorea","asof":"2026-08-23"}},{"type":"Feature","geometry":{"type":"Point","coordinates":[128.68333,35.99611]},"properties":{"name":"팔동 00-00-06","addr":null,"sgg":"27140","cap":null,"type":"팔공산국립공원동부사무소","src":"safekorea","asof":"2026-08-23"}},{"type":"Feature","geometry":{"type":"Point","coordinates":[128.70139,35.98528]},"properties":{"name":"팔동 00-00-03","addr":null,"sgg":"27140","cap":null,"type":"팔공산국립공원동부사무소","src":"safekorea","asof":"2026-08-23"}},{"type":"Feature","geometry":{"type":"Point","coordinates":[128.70028,35.98472]},"properties":{"name":"팔동 00-00-02","addr":null,"sgg":"27140","cap":null,"type":"팔공산국립공원동부사무소","src":"safekorea","asof":"2026-08-23"}},{"type":"Feature","geometry":{"type":"Point","coordinates":[128.69889,35.98417]},"properties":{"name":"팔동 00-00-01","addr":"대구광역시 동구 동화사1길 1","sgg":"27140","cap":null,"type":"팔공산국립공원동부사무소","src":"safekorea","asof":"2026-08-23"}},{"type":"Feature","geometry":{"type":"Point","coordinates":[128.67472,35.99333]},"properties":{"name":"대구 동 신무 N1지구","addr":null,"sgg":"27140","cap":null,"type":null,"src":"safekorea","asof":"2026-08-23"}},{"type":"Feature","geometry":{"type":"Point","coordinates":[128.67472,35.90167]},"properties":{"name":"대구 동 둔산 N1지구","addr":null,"sgg":"27140","cap":null,"type":null,"src":"safekorea","asof":"2026-08-23"}},{"type":"Feature","geometry":{"type":"Point","coordinates":[128.67194,35.9125]},"properties":{"name":"대구 동 둔산 N2지구","addr":null,"sgg":"27140","cap":null,"type":null,"src":"safekorea","asof":"2026-08-23"}},{"type":"Feature","geometry":{"type":"Point","coordinates":[128.66583,35.92167]},"properties":{"name":"대구 동 도 N1지구","addr":null,"sgg":"27140","cap":null,"type":null,"src":"safekorea","asof":"2026-08-23"}},{"type":"Feature","geometry":{"type":"Point","coordinates":[128.65167,35.95556]},"properties":{"name":"대구 동 지묘 N3지구","addr":null,"sgg":"27140","cap":null,"type":null,"src":"safekorea","asof":"2026-08-23"}},{"type":"Feature","geometry":{"type":"Point","coordinates":[128.67694,35.93]},"properties":{"name":"대구 동 도 N2지구","addr":null,"sgg":"27140","cap":null,"type":null,"src":"safekorea","asof":"2026-08-23"}},{"type":"Feature","geometry":{"type":"Point","coordinates":[128.54333,35.87972]},"properties":{"name":"이현공원절개지","addr":null,"sgg":"27170","cap":null,"type":"지자체","src":"safekorea","asof":"2026-08-23"}},{"type":"Feature","geometry":{"type":"Point","coordinates":[128.54667,35.87972]},"properties":{"name":"평리동 산121-1 옹벽","addr":null,"sgg":"27170","cap":null,"type":"대구광역시 서구","src":"safekorea","asof":"2026-08-23"}},{"type":"Feature","geometry":{"type":"Point","coordinates":[128.53167,35.86944]},"properties":{"name":"대구 서 이현 N1지구","addr":"서구","sgg":"27170","cap":null,"type":null,"src":"safekorea","asof":"2026-08-23"}},{"type":"Feature","geometry":{"type":"Point","coordinates":[128.56528,35.84361]},"properties":{"name":"대구 남 대명 N1지구","addr":null,"sgg":"27200","cap":null,"type":null,"src":"safekorea","asof":"2026-08-23"}},{"type":"Feature","geometry":{"type":"Point","coordinates":[128.58694,35.84889]},"properties":{"name":"가든맨션 옹벽","addr":null,"sgg":"27200","cap":null,"type":"아파트","src":"safekorea","asof":"2026-08-23"}},{"type":"Feature","geometry":{"type":"Point","coordinates":[128.58611,35.83333]},"properties":{"name":"보성 청록타운 옹벽","addr":null,"sgg":"27200","cap":null,"type":"아파트","src":"safekorea","asof":"2026-08-23"}},{"type":"Feature","geometry":{"type":"Point","coordinates":[128.58944,35.82333]},"properties":{"name":"대구 남 봉덕 N1지구","addr":null,"sgg":"27200","cap":null,"type":"대구광역시 남구","src":"safekorea","asof":"2026-08-23"}},{"type":"Feature","geometry":{"type":"Point","coordinates":[128.57389,35.83056]},"properties":{"name":"대구 남 대명 N2지구","addr":"남구","sgg":"27200","cap":null,"type":null,"src":"safekorea","asof":"2026-08-23"}},{"type":"Feature","geometry":{"type":"Point","coordinates":[128.58861,35.82917]},"properties":{"name":"대구 남 대명 N3지구","addr":null,"sgg":"27200","cap":null,"type":null,"src":"safekorea","asof":"2026-08-23"}},{"type":"Feature","geometry":{"type":"Point","coordinates":[128.57583,35.94444]},"properties":{"name":"대구 북 구암 N2지구","addr":null,"sgg":"27230","cap":null,"type":"지자체","src":"safekorea","asof":"2026-08-23"}},{"type":"Feature","geometry":{"type":"Point","coordinates":[128.58389,35.89528]},"properties":{"name":"대구 북 침산 N2지구","addr":null,"sgg":"27230","cap":null,"type":"지자체","src":"safekorea","asof":"2026-08-23"}},{"type":"Feature","geometry":{"type":"Point","coordinates":[128.54333,35.93056]},"properties":{"name":"태전 관음아파트","addr":null,"sgg":"27230","cap":null,"type":"지자체","src":"safekorea","asof":"2026-08-23"}},{"type":"Feature","geometry":{"type":"Point","coordinates":[128.58806,35.90028]},"properties":{"name":"대구 북 침산 N1지구","addr":null,"sgg":"27230","cap":null,"type":"지자체","src":"safekorea","asof":"2026-08-23"}},{"type":"Feature","geometry":{"type":"Point","coordinates":[128.555,35.92444]},"properties":{"name":"대구 북 구암 N1지구","addr":null,"sgg":"27230","cap":null,"type":"지자체","src":"safekorea","asof":"2026-08-23"}},{"type":"Feature","geometry":{"type":"Point","coordinates":[128.60083,35.92417]},"properties":{"name":"대구 북 동변 N1지구","addr":null,"sgg":"27230","cap":null,"type":"지자체","src":"safekorea","asof":"2026-08-23"}},{"type":"Feature","geometry":{"type":"Point","coordinates":[128.59444,35.91917]},"properties":{"name":"대구 북 서변 N1지구","addr":null,"sgg":"27230","cap":null,"type":"지자체","src":"safekorea","asof":"2026-08-23"}},{"type":"Feature","geometry":{"type":"Point","coordinates":[128.61361,35.90389]},"properties":{"name":"대구 북 산격 N1지구","addr":"북구","sgg":"27230","cap":null,"type":"지자체","src":"safekorea","asof":"2026-08-23"}},{"type":"Feature","geometry":{"type":"Point","coordinates":[128.61139,35.96444]},"properties":{"name":"대구 북 연경 N1지구","addr":"북구","sgg":"27230","cap":null,"type":"지자체","src":"safekorea","asof":"2026-08-23"}},{"type":"Feature","geometry":{"type":"Point","coordinates":[128.51222,35.90389]},"properties":{"name":"대구 금호5","addr":"787","sgg":"27230","cap":null,"type":"한국토지주택공사","src":"safekorea","asof":"2026-08-23"}},{"type":"Feature","geometry":{"type":"Point","coordinates":[128.56083,35.92722]},"properties":{"name":"대구 북 구암 N3지구","addr":null,"sgg":"27230","cap":null,"type":null,"src":"safekorea","asof":"2026-08-23"}},{"type":"Feature","geometry":{"type":"Point","coordinates":[128.66167,35.80556]},"properties":{"name":"대구 수성 범물 N4지구","addr":null,"sgg":"27260","cap":null,"type":null,"src":"safekorea","asof":"2026-08-23"}},{"type":"Feature","geometry":{"type":"Point","coordinates":[128.66361,35.80278]},"properties":{"name":"대구 수성 범물 N3지구","addr":null,"sgg":"27260","cap":null,"type":null,"src":"safekorea","asof":"2026-08-23"}},{"type":"Feature","geometry":{"type":"Point","coordinates":[128.66583,35.79972]},"properties":{"name":"대구 수성 범물 N2지구","addr":null,"sgg":"27260","cap":null,"type":null,"src":"safekorea","asof":"2026-08-23"}},{"type":"Feature","geometry":{"type":"Point","coordinates":[128.69361,35.84472]},"properties":{"name":"대구 수성 시지 N1지구","addr":null,"sgg":"27260","cap":null,"type":null,"src":"safekorea","asof":"2026-08-23"}},{"type":"Feature","geometry":{"type":"Point","coordinates":[128.65472,35.81667]},"properties":{"name":"대구 수성 범물 N1지구","addr":null,"sgg":"27260","cap":null,"type":null,"src":"safekorea","asof":"2026-08-23"}},{"type":"Feature","geometry":{"type":"Point","coordinates":[128.67972,35.84167]},"properties":{"name":"대구 수성 연호 N1지구","addr":null,"sgg":"27260","cap":null,"type":null,"src":"safekorea","asof":"2026-08-23"}},{"type":"Feature","geometry":{"type":"Point","coordinates":[128.64056,35.84722]},"properties":{"name":"정화여고 진입로","addr":null,"sgg":"27260","cap":null,"type":"대구광역시 수성구","src":"safekorea","asof":"2026-08-23"}},{"type":"Feature","geometry":{"type":"Point","coordinates":[128.65444,35.85444]},"properties":{"name":"담티역","addr":null,"sgg":"27260","cap":null,"type":"대구광역시 수성구","src":"safekorea","asof":"2026-08-23"}},{"type":"Feature","geometry":{"type":"Point","coordinates":[128.64722,35.82028]},"properties":{"name":"청호로","addr":null,"sgg":"27260","cap":null,"type":"대구광역시 수성구","src":"safekorea","asof":"2026-08-23"}},{"type":"Feature","geometry":{"type":"Point","coordinates":[128.67778,35.84278]},"properties":{"name":"연호역","addr":null,"sgg":"27260","cap":null,"type":"대구광역시 수성구","src":"safekorea","asof":"2026-08-23"}},{"type":"Feature","geometry":{"type":"Point","coordinates":[128.64444,35.85389]},"properties":{"name":"오성고등학교","addr":null,"sgg":"27260","cap":null,"type":"대구광역시 수성구","src":"safekorea","asof":"2026-08-23"}},{"type":"Feature","geometry":{"type":"Point","coordinates":[128.64472,35.855]},"properties":{"name":"오성중고등학교","addr":null,"sgg":"27260","cap":null,"type":"대구광역시 수성구","src":"safekorea","asof":"2026-08-23"}},{"type":"Feature","geometry":{"type":"Point","coordinates":[128.6325,35.86083]},"properties":{"name":"시민공원골프연습장","addr":null,"sgg":"27260","cap":null,"type":"대구광역시 수성구","src":"safekorea","asof":"2026-08-23"}},{"type":"Feature","geometry":{"type":"Point","coordinates":[128.64306,35.83861]},"properties":{"name":"우방신천지타운","addr":null,"sgg":"27260","cap":null,"type":"대구광역시 수성구","src":"safekorea","asof":"2026-08-23"}},{"type":"Feature","geometry":{"type":"Point","coordinates":[128.70278,35.84528]},"properties":{"name":"시지 태왕아너스","addr":null,"sgg":"27260","cap":null,"type":"대구광역시 수성구","src":"safekorea","asof":"2026-08-23"}},{"type":"Feature","geometry":{"type":"Point","coordinates":[128.70361,35.84556]},"properties":{"name":"시지 우방팔레스인근","addr":null,"sgg":"27260","cap":null,"type":"대구광역시 수성구","src":"safekorea","asof":"2026-08-23"}},{"type":"Feature","geometry":{"type":"Point","coordinates":[128.63278,35.81833]},"properties":{"name":"지산 청구호반맨션","addr":null,"sgg":"27260","cap":null,"type":"대구광역시 수성구","src":"safekorea","asof":"2026-08-23"}},{"type":"Feature","geometry":{"type":"Point","coordinates":[128.64194,35.84611]},"properties":{"name":"2차 우방타운","addr":null,"sgg":"27260","cap":null,"type":"대구광역시 수성구","src":"safekorea","asof":"2026-08-23"}},{"type":"Feature","geometry":{"type":"Point","coordinates":[128.64667,35.81361]},"properties":{"name":"미진하이츠","addr":null,"sgg":"27260","cap":null,"type":"대구광역시 수성구","src":"safekorea","asof":"2026-08-23"}},{"type":"Feature","geometry":{"type":"Point","coordinates":[128.66917,35.87111]},"properties":{"name":"팔현마을","addr":null,"sgg":"27260","cap":null,"type":"대구광역시 수성구","src":"safekorea","asof":"2026-08-23"}},{"type":"Feature","geometry":{"type":"Point","coordinates":[126.65944,35.86806]},"properties":{"name":"경부고속선 1","addr":null,"sgg":"27260","cap":null,"type":"영남본부","src":"safekorea","asof":"2026-08-23"}},{"type":"Feature","geometry":{"type":"Point","coordinates":[126.66,35.86778]},"properties":{"name":"경부고속선 2","addr":null,"sgg":"27260","cap":null,"type":"영남본부","src":"safekorea","asof":"2026-08-23"}},{"type":"Feature","geometry":{"type":"Point","coordinates":[126.66222,35.86694]},"properties":{"name":"경부고속선 3","addr":null,"sgg":"27260","cap":null,"type":"영남본부","src":"safekorea","asof":"2026-08-23"}},{"type":"Feature","geometry":{"type":"Point","coordinates":[126.66194,35.86667]},"properties":{"name":"경부고속선 4","addr":null,"sgg":"27260","cap":null,"type":"영남본부","src":"safekorea","asof":"2026-08-23"}},{"type":"Feature","geometry":{"type":"Point","coordinates":[128.66417,35.86917]},"properties":{"name":"경부고속선 5","addr":null,"sgg":"27260","cap":null,"type":"영남본부","src":"safekorea","asof":"2026-08-23"}},{"type":"Feature","geometry":{"type":"Point","coordinates":[126.68361,35.85306]},"properties":{"name":"경부고속선 6","addr":null,"sgg":"27260","cap":null,"type":"영남본부","src":"safekorea","asof":"2026-08-23"}},{"type":"Feature","geometry":{"type":"Point","coordinates":[126.68333,35.85278]},"properties":{"name":"경부고속선 7","addr":null,"sgg":"27260","cap":null,"type":"영남본부","src":"safekorea","asof":"2026-08-23"}},{"type":"Feature","geometry":{"type":"Point","coordinates":[128.64472,35.85]},"properties":{"name":"수성대학교 소운동장 서편","addr":null,"sgg":"27260","cap":null,"type":"대구광역시 수성구","src":"safekorea","asof":"2026-08-23"}},{"type":"Feature","geometry":{"type":"Point","coordinates":[128.66556,35.86944]},"properties":{"name":"경부 330km920(우)","addr":"국가철도공단","sgg":"27260","cap":null,"type":null,"src":"safekorea","asof":"2026-08-23"}},{"type":"Feature","geometry":{"type":"Point","coordinates":[128.68833,35.85444]},"properties":{"name":"경부 332km770(좌)","addr":"국가철도공단","sgg":"27260","cap":null,"type":null,"src":"safekorea","asof":"2026-08-23"}},{"type":"Feature","geometry":{"type":"Point","coordinates":[128.6325,35.86583]},"properties":{"name":"대구 수성 범어 N1지구","addr":"수성구","sgg":"27260","cap":null,"type":null,"src":"safekorea","asof":"2026-08-23"}},{"type":"Feature","geometry":{"type":"Point","coordinates":[128.63472,35.84056]},"properties":{"name":"대구 수성 황금 N1지구","addr":"수성구","sgg":"27260","cap":null,"type":null,"src":"safekorea","asof":"2026-08-23"}},{"type":"Feature","geometry":{"type":"Point","coordinates":[128.55861,35.83972]},"properties":{"name":"대구 달서 성당 N1지구","addr":null,"sgg":"27290","cap":null,"type":"달서구청","src":"safekorea","asof":"2026-08-23"}},{"type":"Feature","geometry":{"type":"Point","coordinates":[128.50833,35.86083]},"properties":{"name":"대구 달서 이곡 N2지구","addr":null,"sgg":"27290","cap":null,"type":null,"src":"safekorea","asof":"2026-08-23"}},{"type":"Feature","geometry":{"type":"Point","coordinates":[128.52111,35.86028]},"properties":{"name":"대구 달서 용산 N1지구","addr":null,"sgg":"27290","cap":null,"type":null,"src":"safekorea","asof":"2026-08-23"}},{"type":"Feature","geometry":{"type":"Point","coordinates":[128.54083,35.83083]},"properties":{"name":"허병원 옹벽","addr":null,"sgg":"27290","cap":null,"type":"지자체","src":"safekorea","asof":"2026-08-23"}},{"type":"Feature","geometry":{"type":"Point","coordinates":[128.55222,35.80611]},"properties":{"name":"장미아파트 옹벽","addr":null,"sgg":"27290","cap":null,"type":"지자체","src":"safekorea","asof":"2026-08-23"}},{"type":"Feature","geometry":{"type":"Point","coordinates":[128.51694,35.80389]},"properties":{"name":"대구수목원 옹벽","addr":null,"sgg":"27290","cap":null,"type":"지자체","src":"safekorea","asof":"2026-08-23"}},{"type":"Feature","geometry":{"type":"Point","coordinates":[128.55222,35.80611]},"properties":{"name":"한화꿈에그린 옹벽","addr":null,"sgg":"27290","cap":null,"type":"지자체","src":"safekorea","asof":"2026-08-23"}},{"type":"Feature","geometry":{"type":"Point","coordinates":[128.53667,35.82]},"properties":{"name":"월성주공5단지 옹벽","addr":"동측도로 일심교회 맞은편","sgg":"27290","cap":null,"type":"지자체","src":"safekorea","asof":"2026-08-23"}},{"type":"Feature","geometry":{"type":"Point","coordinates":[128.52333,35.80556]},"properties":{"name":"대진초등학교 석축","addr":null,"sgg":"27290","cap":null,"type":"지자체","src":"safekorea","asof":"2026-08-23"}},{"type":"Feature","geometry":{"type":"Point","coordinates":[128.51444,35.80833]},"properties":{"name":"대구 달서 대곡 N1지구","addr":null,"sgg":"27290","cap":null,"type":"대구광역시 달서구","src":"safekorea","asof":"2026-08-23"}},{"type":"Feature","geometry":{"type":"Point","coordinates":[128.55306,35.84861]},"properties":{"name":"대구 달서 두류 N1지구","addr":null,"sgg":"27290","cap":null,"type":"두류공원관리사업소","src":"safekorea","asof":"2026-08-23"}},{"type":"Feature","geometry":{"type":"Point","coordinates":[128.51333,35.86222]},"properties":{"name":"대구 달서 이곡 N1지구","addr":null,"sgg":"27290","cap":null,"type":"대구광역시 달서구","src":"safekorea","asof":"2026-08-23"}},{"type":"Feature","geometry":{"type":"Point","coordinates":[128.515,35.80417]},"properties":{"name":"대곡정부청사 서편절개지","addr":null,"sgg":"27290","cap":null,"type":"지자체","src":"safekorea","asof":"2026-08-23"}},{"type":"Feature","geometry":{"type":"Point","coordinates":[128.51556,35.84056]},"properties":{"name":"대구 달서 장 N1지구","addr":"달서구","sgg":"27290","cap":null,"type":"달서구청","src":"safekorea","asof":"2026-08-23"}},{"type":"Feature","geometry":{"type":"Point","coordinates":[128.50167,35.86056]},"properties":{"name":"대구 달서 이곡 N2지구","addr":null,"sgg":"27290","cap":null,"type":null,"src":"safekorea","asof":"2026-08-23"}},{"type":"Feature","geometry":{"type":"Point","coordinates":[128.46028,35.67528]},"properties":{"name":"대구 달성 유가 금 N1지구","addr":null,"sgg":"27710","cap":null,"type":null,"src":"safekorea","asof":"2026-08-23"}},{"type":"Feature","geometry":{"type":"Point","coordinates":[128.47806,35.69861]},"properties":{"name":"대구 달성 유가 음 N2지구","addr":null,"sgg":"27710","cap":null,"type":null,"src":"safekorea","asof":"2026-08-23"}},{"type":"Feature","geometry":{"type":"Point","coordinates":[128.50444,35.69444]},"properties":{"name":"대구 달성 유가 용 N1지구","addr":null,"sgg":"27710","cap":null,"type":null,"src":"safekorea","asof":"2026-08-23"}},{"type":"Feature","geometry":{"type":"Point","coordinates":[128.49389,35.70167]},"properties":{"name":"대구 달성 유가 양 N4지구","addr":null,"sgg":"27710","cap":null,"type":null,"src":"safekorea","asof":"2026-08-23"}},{"type":"Feature","geometry":{"type":"Point","coordinates":[128.50083,35.69694]},"properties":{"name":"대구 달성 유가 음 N1지구","addr":null,"sgg":"27710","cap":null,"type":null,"src":"safekorea","asof":"2026-08-23"}},{"type":"Feature","geometry":{"type":"Point","coordinates":[128.50056,35.69861]},"properties":{"name":"대구 달성 유가 양 N2지구","addr":null,"sgg":"27710","cap":null,"type":null,"src":"safekorea","asof":"2026-08-23"}},{"type":"Feature","geometry":{"type":"Point","coordinates":[128.47694,35.69806]},"properties":{"name":"대구 달성 유가 양 N3지구","addr":null,"sgg":"27710","cap":null,"type":null,"src":"safekorea","asof":"2026-08-23"}},{"type":"Feature","geometry":{"type":"Point","coordinates":[128.50722,35.74444]},"properties":{"name":"대구 달성 옥포 반송 N1지구","addr":null,"sgg":"27710","cap":null,"type":null,"src":"safekorea","asof":"2026-08-23"}},{"type":"Feature","geometry":{"type":"Point","coordinates":[128.55972,35.73028]},"properties":{"name":"대구 달성 가창 정대 N8지구","addr":null,"sgg":"27710","cap":null,"type":null,"src":"safekorea","asof":"2026-08-23"}},{"type":"Feature","geometry":{"type":"Point","coordinates":[128.56667,35.75389]},"properties":{"name":"대구 달성 가창 정대 N7지구","addr":null,"sgg":"27710","cap":null,"type":null,"src":"safekorea","asof":"2026-08-23"}},{"type":"Feature","geometry":{"type":"Point","coordinates":[128.56722,35.755]},"properties":{"name":"대구 달성 가창 정대 N6지구","addr":null,"sgg":"27710","cap":null,"type":null,"src":"safekorea","asof":"2026-08-23"}},{"type":"Feature","geometry":{"type":"Point","coordinates":[128.52194,35.88861]},"properties":{"name":"충청 경부95","addr":null,"sgg":"27710","cap":null,"type":"충청본부","src":"safekorea","asof":"2026-08-23"}},{"type":"Feature","geometry":{"type":"Point","coordinates":[128.53833,35.78083]},"properties":{"name":"화원본리지구","addr":null,"sgg":"27710","cap":null,"type":"달성군청","src":"safekorea","asof":"2026-08-23"}},{"type":"Feature","geometry":{"type":"Point","coordinates":[128.37361,35.69694]},"properties":{"name":"구지도동지구","addr":null,"sgg":"27710","cap":null,"type":"달성군청","src":"safekorea","asof":"2026-08-23"}},{"type":"Feature","geometry":{"type":"Point","coordinates":[128.49028,35.74694]},"properties":{"name":"옥포김흥지구","addr":null,"sgg":"27710","cap":null,"type":"달성군청","src":"safekorea","asof":"2026-08-23"}},{"type":"Feature","geometry":{"type":"Point","coordinates":[128.57778,35.76889]},"properties":{"name":"가창정대지구","addr":null,"sgg":"27710","cap":null,"type":"달성군청","src":"safekorea","asof":"2026-08-23"}},{"type":"Feature","geometry":{"type":"Point","coordinates":[128.45778,35.88139]},"properties":{"name":"다사이천지구","addr":null,"sgg":"27710","cap":null,"type":"달성군청","src":"safekorea","asof":"2026-08-23"}},{"type":"Feature","geometry":{"type":"Point","coordinates":[128.51444,35.89]},"properties":{"name":"충청 경부94","addr":null,"sgg":"27710","cap":null,"type":"충청본부","src":"safekorea","asof":"2026-08-23"}},{"type":"Feature","geometry":{"type":"Point","coordinates":[128.58028,35.77056]},"properties":{"name":"대구 달성 가창 오 N1지구","addr":null,"sgg":"27710","cap":null,"type":null,"src":"safekorea","asof":"2026-08-23"}},{"type":"Feature","geometry":{"type":"Point","coordinates":[128.57889,35.76944]},"properties":{"name":"대구 달성 가창 정대 N5지구","addr":null,"sgg":"27710","cap":null,"type":null,"src":"safekorea","asof":"2026-08-23"}},{"type":"Feature","geometry":{"type":"Point","coordinates":[128.58056,35.77222]},"properties":{"name":"대구 달성 가창 오 N2지구","addr":null,"sgg":"27710","cap":null,"type":null,"src":"safekorea","asof":"2026-08-23"}},{"type":"Feature","geometry":{"type":"Point","coordinates":[128.58972,35.78611]},"properties":{"name":"대구 달성 가창 오 N4지구","addr":null,"sgg":"27710","cap":null,"type":null,"src":"safekorea","asof":"2026-08-23"}},{"type":"Feature","geometry":{"type":"Point","coordinates":[128.58889,35.785]},"properties":{"name":"대구 달성 가창 오 N3지구","addr":null,"sgg":"27710","cap":null,"type":null,"src":"safekorea","asof":"2026-08-23"}},{"type":"Feature","geometry":{"type":"Point","coordinates":[128.43722,35.93139]},"properties":{"name":"대구 달성 하빈 기곡 N1지구","addr":null,"sgg":"27710","cap":null,"type":null,"src":"safekorea","asof":"2026-08-23"}},{"type":"Feature","geometry":{"type":"Point","coordinates":[128.44722,35.89278]},"properties":{"name":"대구 달성 하빈 감문 N1지구","addr":null,"sgg":"27710","cap":null,"type":null,"src":"safekorea","asof":"2026-08-23"}},{"type":"Feature","geometry":{"type":"Point","coordinates":[128.40944,35.90083]},"properties":{"name":"대구 달성 하빈 하산 N1지구","addr":null,"sgg":"27710","cap":null,"type":null,"src":"safekorea","asof":"2026-08-23"}},{"type":"Feature","geometry":{"type":"Point","coordinates":[128.51361,35.80333]},"properties":{"name":"화원본리지구","addr":null,"sgg":"27710","cap":null,"type":"달성군청","src":"safekorea","asof":"2026-08-23"}},{"type":"Feature","geometry":{"type":"Point","coordinates":[128.50583,35.79806]},"properties":{"name":"화원본리지구","addr":"명곡리산1-1","sgg":"27710","cap":null,"type":"달성군청","src":"safekorea","asof":"2026-08-23"}},{"type":"Feature","geometry":{"type":"Point","coordinates":[128.55889,35.73056]},"properties":{"name":"가창정대지구","addr":null,"sgg":"27710","cap":null,"type":"달성군청","src":"safekorea","asof":"2026-08-23"}},{"type":"Feature","geometry":{"type":"Point","coordinates":[128.65611,35.76139]},"properties":{"name":"가창옥분지구","addr":null,"sgg":"27710","cap":null,"type":"달성군청","src":"safekorea","asof":"2026-08-23"}},{"type":"Feature","geometry":{"type":"Point","coordinates":[128.37361,35.69528]},"properties":{"name":"구지도동지구","addr":null,"sgg":"27710","cap":null,"type":"달성군청","src":"safekorea","asof":"2026-08-23"}},{"type":"Feature","geometry":{"type":"Point","coordinates":[129.43306,36.66778]},"properties":{"name":"대구 달성 가창 정대 N4지구","addr":"달성군 가창면 정대리 427-1","sgg":"27710","cap":null,"type":"달성군청","src":"safekorea","asof":"2026-08-23"}},{"type":"Feature","geometry":{"type":"Point","coordinates":[128.65806,35.73444]},"properties":{"name":"대구 달성 가창 삼산 N1지구","addr":null,"sgg":"27710","cap":null,"type":"개인","src":"safekorea","asof":"2026-08-23"}},{"type":"Feature","geometry":{"type":"Point","coordinates":[128.66944,35.72167]},"properties":{"name":"가창삼산지구","addr":null,"sgg":"27710","cap":null,"type":"달성군청","src":"safekorea","asof":"2026-08-23"}},{"type":"Feature","geometry":{"type":"Point","coordinates":[128.65583,35.72889]},"properties":{"name":"대구 달성 가창 삼산 N3지구","addr":null,"sgg":"27710","cap":null,"type":"개인","src":"safekorea","asof":"2026-08-23"}},{"type":"Feature","geometry":{"type":"Point","coordinates":[128.66639,35.73056]},"properties":{"name":"대구 달성 가창 삼산 N4지구","addr":null,"sgg":"27710","cap":null,"type":"개인","src":"safekorea","asof":"2026-08-23"}},{"type":"Feature","geometry":{"type":"Point","coordinates":[128.67417,35.72528]},"properties":{"name":"대구 달성 가창 삼산 N5지구","addr":"가창면 삼산리 157번지 일원","sgg":"27710","cap":null,"type":"대구광역시 달성군","src":"safekorea","asof":"2026-08-23"}},{"type":"Feature","geometry":{"type":"Point","coordinates":[128.67917,35.72444]},"properties":{"name":"대구 달성 가창 삼산 N6지구","addr":"가창면 삼산리 산162번지 일원","sgg":"27710","cap":null,"type":"대구광역시 달성군","src":"safekorea","asof":"2026-08-23"}},{"type":"Feature","geometry":{"type":"Point","coordinates":[128.68,35.72528]},"properties":{"name":"대구 달성 가창 삼산 N7지구","addr":"가창면 삼산리 산 165-2번지 일원","sgg":"27710","cap":null,"type":"대구광역시 달성군","src":"safekorea","asof":"2026-08-23"}},{"type":"Feature","geometry":{"type":"Point","coordinates":[128.68028,35.72639]},"properties":{"name":"대구 달성 가창 삼산 N8지구","addr":"가창면 삼산리 산164-2번지 일원","sgg":"27710","cap":null,"type":"대구광역시 달성군","src":"safekorea","asof":"2026-08-23"}},{"type":"Feature","geometry":{"type":"Point","coordinates":[128.68028,35.72722]},"properties":{"name":"대구 달성 가창 삼산 N9지구","addr":"가창면 삼산리 산163-2번지 일원","sgg":"27710","cap":null,"type":"대구광역시 달성군","src":"safekorea","asof":"2026-08-23"}},{"type":"Feature","geometry":{"type":"Point","coordinates":[128.6625,35.74583]},"properties":{"name":"대구 달성 가창 삼산 N10지구","addr":null,"sgg":"27710","cap":null,"type":"개인","src":"safekorea","asof":"2026-08-23"}},{"type":"Feature","geometry":{"type":"Point","coordinates":[128.65556,35.74167]},"properties":{"name":"대구 달성 가창 삼산 N11지구","addr":"가창면 삼산리 657번지 일원","sgg":"27710","cap":null,"type":"대구광역시 달성군","src":"safekorea","asof":"2026-08-23"}},{"type":"Feature","geometry":{"type":"Point","coordinates":[128.68139,35.72972]},"properties":{"name":"대구 달성 가창 삼산 N12지구","addr":"가창면 삼산리 229-1번지","sgg":"27710","cap":null,"type":"대구광역시 달성군","src":"safekorea","asof":"2026-08-23"}},{"type":"Feature","geometry":{"type":"Point","coordinates":[128.67972,35.72806]},"properties":{"name":"대구 달성 가창 삼산 N13지구","addr":"가창면 삼산리 1090","sgg":"27710","cap":null,"type":"대구광역시 달성군","src":"safekorea","asof":"2026-08-23"}},{"type":"Feature","geometry":{"type":"Point","coordinates":[128.67667,35.72583]},"properties":{"name":"대구 달성 가창 삼산 N2지구","addr":"가창면 삼산리 1090","sgg":"27710","cap":null,"type":"대구광역시 달성군","src":"safekorea","asof":"2026-08-23"}},{"type":"Feature","geometry":{"type":"Point","coordinates":[128.66222,35.77861]},"properties":{"name":"대구 달성 가창 상원 N1지구","addr":null,"sgg":"27710","cap":null,"type":"개인","src":"safekorea","asof":"2026-08-23"}},{"type":"Feature","geometry":{"type":"Point","coordinates":[128.57222,35.76861]},"properties":{"name":"대구 달성 가창 정대 N1지구","addr":"가창면 정대리 산324-1번지 일원(정대리137-1)","sgg":"27710","cap":null,"type":"대구광역시 달성군","src":"safekorea","asof":"2026-08-23"}},{"type":"Feature","geometry":{"type":"Point","coordinates":[128.5775,35.75028]},"properties":{"name":"대구 달성 가창 정대 N2지구","addr":null,"sgg":"27710","cap":null,"type":"개인","src":"safekorea","asof":"2026-08-23"}},{"type":"Feature","geometry":{"type":"Point","coordinates":[128.58222,35.74611]},"properties":{"name":"대구 달성 가창 정대 N3지구","addr":"가창면 정대리 산111번지 일원(정대리 427-1)","sgg":"27710","cap":null,"type":"대구광역시 달성군","src":"safekorea","asof":"2026-08-23"}},{"type":"Feature","geometry":{"type":"Point","coordinates":[128.635,35.75583]},"properties":{"name":"대구 달성 가창 주 N1지구","addr":"가창면 주리 산 27번지 일원(주리 425-9)","sgg":"27710","cap":null,"type":"대구광역시 달성군","src":"safekorea","asof":"2026-08-23"}},{"type":"Feature","geometry":{"type":"Point","coordinates":[128.48444,35.77056]},"properties":{"name":"대구 달성 옥포 기세 N2지구","addr":null,"sgg":"27710","cap":null,"type":"대구광역시 달성군","src":"safekorea","asof":"2026-08-23"}},{"type":"Feature","geometry":{"type":"Point","coordinates":[128.505,35.69583]},"properties":{"name":"대구 달성 유가 양 N1지구","addr":"유가읍 용리 산18번지 일원","sgg":"27710","cap":null,"type":"대구광역시 달성군","src":"safekorea","asof":"2026-08-23"}},{"type":"Feature","geometry":{"type":"Point","coordinates":[128.4625,35.70278]},"properties":{"name":"대구 달성 유가 쌍계 N1지구","addr":null,"sgg":"27710","cap":null,"type":"개인","src":"safekorea","asof":"2026-08-23"}},{"type":"Feature","geometry":{"type":"Point","coordinates":[128.40972,35.90389]},"properties":{"name":"대구 달성 하빈 묘 N1지구","addr":"하빈면 묘리 산46-2번지 일원","sgg":"27710","cap":null,"type":"대구광역시 달성군","src":"safekorea","asof":"2026-08-23"}},{"type":"Feature","geometry":{"type":"Point","coordinates":[128.38278,35.69722]},"properties":{"name":"대구 달성 현풍 자모 N1지구","addr":null,"sgg":"27710","cap":null,"type":"개인, 달성군청","src":"safekorea","asof":"2026-08-23"}},{"type":"Feature","geometry":{"type":"Point","coordinates":[128.37444,35.69667]},"properties":{"name":"대구 달성 현풍 자모 N2지구","addr":"현풍읍 자모리 산95-1번지 일원","sgg":"27710","cap":null,"type":"대구광역시 달성군","src":"safekorea","asof":"2026-08-23"}},{"type":"Feature","geometry":{"type":"Point","coordinates":[128.375,35.69778]},"properties":{"name":"대구 달성 현풍 자모 N3지구","addr":"현풍읍 자모리 산95-1번지 일원","sgg":"27710","cap":null,"type":"대구광역시 달성군","src":"safekorea","asof":"2026-08-23"}},{"type":"Feature","geometry":{"type":"Point","coordinates":[128.37611,35.69889]},"properties":{"name":"대구 달성 현풍 자모 N4지구","addr":"현풍읍 자모리 산95-1번지 일원","sgg":"27710","cap":null,"type":"대구광역시 달성군","src":"safekorea","asof":"2026-08-23"}},{"type":"Feature","geometry":{"type":"Point","coordinates":[128.52306,35.88806]},"properties":{"name":"충청 경부96","addr":null,"sgg":"27710","cap":null,"type":"충청본부","src":"safekorea","asof":"2026-08-23"}},{"type":"Feature","geometry":{"type":"Point","coordinates":[128.51333,35.88833]},"properties":{"name":"충청 경부고속166","addr":null,"sgg":"27710","cap":null,"type":"충청본부","src":"safekorea","asof":"2026-08-23"}},{"type":"Feature","geometry":{"type":"Point","coordinates":[128.48667,35.79056]},"properties":{"name":"대구 달성 화원 설화 N1지구","addr":"달성군","sgg":"27710","cap":null,"type":null,"src":"safekorea","asof":"2026-08-23"}},{"type":"Feature","geometry":{"type":"Point","coordinates":[128.445,35.90056]},"properties":{"name":"대구 달성 하빈 현내 N1지구","addr":"현내리","sgg":"27710","cap":null,"type":null,"src":"safekorea","asof":"2026-08-23"}},{"type":"Feature","geometry":{"type":"Point","coordinates":[128.44667,35.89333]},"properties":{"name":"대구 달성 하빈 현내 N2지구","addr":"현내리","sgg":"27710","cap":null,"type":null,"src":"safekorea","asof":"2026-08-23"}},{"type":"Feature","geometry":{"type":"Point","coordinates":[128.49278,35.74833]},"properties":{"name":"대구 달성 옥포 김흥 N1지구","addr":"김흥리","sgg":"27710","cap":null,"type":null,"src":"safekorea","asof":"2026-08-23"}},{"type":"Feature","geometry":{"type":"Point","coordinates":[128.44944,35.865]},"properties":{"name":"대구 달성 다사 매곡 N3지구","addr":"매곡리","sgg":"27710","cap":null,"type":null,"src":"safekorea","asof":"2026-08-23"}},{"type":"Feature","geometry":{"type":"Point","coordinates":[128.44861,35.86528]},"properties":{"name":"대구 달성 다사 부곡 N1지구","addr":"부곡리","sgg":"27710","cap":null,"type":null,"src":"safekorea","asof":"2026-08-23"}},{"type":"Feature","geometry":{"type":"Point","coordinates":[128.45944,35.865]},"properties":{"name":"대구 달성 다사 매곡 N2지구","addr":"매곡리","sgg":"27710","cap":null,"type":null,"src":"safekorea","asof":"2026-08-23"}},{"type":"Feature","geometry":{"type":"Point","coordinates":[128.46056,35.86472]},"properties":{"name":"대구 달성 다사 매곡 N1지구","addr":"매곡리","sgg":"27710","cap":null,"type":null,"src":"safekorea","asof":"2026-08-23"}},{"type":"Feature","geometry":{"type":"Point","coordinates":[128.69361,36.14722]},"properties":{"name":"강원-중앙선121-경","addr":"중앙선 우보-화본간 310k700 (좌)","sgg":"27720","cap":null,"type":"강원본부","src":"safekorea","asof":"2026-08-23"}},{"type":"Feature","geometry":{"type":"Point","coordinates":[128.70361,36.10417]},"properties":{"name":"강원-중앙선123-경","addr":"중앙선 화본-봉림간 315k900 (좌)","sgg":"27720","cap":null,"type":"강원본부","src":"safekorea","asof":"2026-08-23"}},{"type":"Feature","geometry":{"type":"Point","coordinates":[128.67306,36.16972]},"properties":{"name":"강원-중앙선115-경","addr":null,"sgg":"27720","cap":null,"type":"강원본부","src":"safekorea","asof":"2026-08-23"}},{"type":"Feature","geometry":{"type":"Point","coordinates":[128.69,36.11361]},"properties":{"name":"강원-중앙선122-경","addr":"중앙선 화본-봉림간 313k800 (우)","sgg":"27720","cap":null,"type":"강원본부","src":"safekorea","asof":"2026-08-23"}},{"type":"Feature","geometry":{"type":"Point","coordinates":[128.59472,36.07722]},"properties":{"name":"고매저수지 여방수로(4772010346)","addr":null,"sgg":"27720","cap":null,"type":"경북지역본부 의성군위지사","src":"safekorea","asof":"2026-08-23"}},{"type":"Feature","geometry":{"type":"Point","coordinates":[128.50417,36.28361]},"properties":{"name":"내의저수지 여방수로(4772010107)","addr":null,"sgg":"27720","cap":null,"type":"경북지역본부 의성군위지사","src":"safekorea","asof":"2026-08-23"}},{"type":"Feature","geometry":{"type":"Point","coordinates":[128.70222,36.07417]},"properties":{"name":"백학저수지 여방수로(4772010318)","addr":null,"sgg":"27720","cap":null,"type":"경북지역본부 의성군위지사","src":"safekorea","asof":"2026-08-23"}},{"type":"Feature","geometry":{"type":"Point","coordinates":[128.73333,36.10278]},"properties":{"name":"봉림저수지 여방수로(4772010328)","addr":null,"sgg":"27720","cap":null,"type":"경북지역본부 의성군위지사","src":"safekorea","asof":"2026-08-23"}},{"type":"Feature","geometry":{"type":"Point","coordinates":[128.50167,36.20667]},"properties":{"name":"평호저수지 여방수로(4772010711)","addr":null,"sgg":"27720","cap":null,"type":"경북지역본부 의성군위지사","src":"safekorea","asof":"2026-08-23"}},{"type":"Feature","geometry":{"type":"Point","coordinates":[128.68778,36.15278]},"properties":{"name":"강원-중앙선119-경","addr":"중앙선 우보-화본간 309k100 (좌)","sgg":"27720","cap":null,"type":"강원본부","src":"safekorea","asof":"2026-08-23"}},{"type":"Feature","geometry":{"type":"Point","coordinates":[128.80889,36.14667]},"properties":{"name":"군위 삼국유사 인곡 N4지구","addr":null,"sgg":"27720","cap":null,"type":"군위군","src":"safekorea","asof":"2026-08-23"}},{"type":"Feature","geometry":{"type":"Point","coordinates":[128.80667,36.14444]},"properties":{"name":"경북 군위 삼국유사 학성 N4지구","addr":null,"sgg":"27720","cap":null,"type":null,"src":"safekorea","asof":"2026-08-23"}},{"type":"Feature","geometry":{"type":"Point","coordinates":[128.79778,36.13083]},"properties":{"name":"경북 군위 삼국유사 학성 N5지구","addr":null,"sgg":"27720","cap":null,"type":null,"src":"safekorea","asof":"2026-08-23"}},{"type":"Feature","geometry":{"type":"Point","coordinates":[128.68278,36.09083]},"properties":{"name":"경북 군위 부계 창평 N1지구","addr":null,"sgg":"27720","cap":null,"type":null,"src":"safekorea","asof":"2026-08-23"}},{"type":"Feature","geometry":{"type":"Point","coordinates":[128.64472,36.04861]},"properties":{"name":"경북 군위 부계 동산 N1지구","addr":null,"sgg":"27720","cap":null,"type":null,"src":"safekorea","asof":"2026-08-23"}},{"type":"Feature","geometry":{"type":"Point","coordinates":[128.64139,36.04528]},"properties":{"name":"경북 군위 부계 남산 N1지구","addr":null,"sgg":"27720","cap":null,"type":null,"src":"safekorea","asof":"2026-08-23"}},{"type":"Feature","geometry":{"type":"Point","coordinates":[128.64278,36.04611]},"properties":{"name":"경북 군위 부계 남산 N2지구","addr":null,"sgg":"27720","cap":null,"type":null,"src":"safekorea","asof":"2026-08-23"}},{"type":"Feature","geometry":{"type":"Point","coordinates":[128.65194,36.11056]},"properties":{"name":"경북 군위 부계 신화 N1지구","addr":null,"sgg":"27720","cap":null,"type":null,"src":"safekorea","asof":"2026-08-23"}},{"type":"Feature","geometry":{"type":"Point","coordinates":[128.64306,36.04611]},"properties":{"name":"경북 군위 부계 남산 N3지구","addr":null,"sgg":"27720","cap":null,"type":null,"src":"safekorea","asof":"2026-08-23"}},{"type":"Feature","geometry":{"type":"Point","coordinates":[128.81722,36.15639]},"properties":{"name":"경북 군위 삼국유사 인곡 N3지구","addr":null,"sgg":"27720","cap":null,"type":null,"src":"safekorea","asof":"2026-08-23"}},{"type":"Feature","geometry":{"type":"Point","coordinates":[128.84361,36.19528]},"properties":{"name":"경북 군위 삼국유사 가암 N1지구","addr":null,"sgg":"27720","cap":null,"type":null,"src":"safekorea","asof":"2026-08-23"}},{"type":"Feature","geometry":{"type":"Point","coordinates":[128.4425,36.28528]},"properties":{"name":"대구 군위 소보 위성 N1지구","addr":null,"sgg":"27720","cap":null,"type":null,"src":"safekorea","asof":"2026-08-23"}},{"type":"Feature","geometry":{"type":"Point","coordinates":[128.50389,36.30028]},"properties":{"name":"경북 군위 소보 내의 N1지구","addr":null,"sgg":"27720","cap":null,"type":null,"src":"safekorea","asof":"2026-08-23"}},{"type":"Feature","geometry":{"type":"Point","coordinates":[128.55917,36.25778]},"properties":{"name":"경북 군위 군위 대북 N1지구","addr":null,"sgg":"27720","cap":null,"type":null,"src":"safekorea","asof":"2026-08-23"}},{"type":"Feature","geometry":{"type":"Point","coordinates":[128.59972,36.24583]},"properties":{"name":"경북 군위 군위 상곡 N1지구","addr":null,"sgg":"27720","cap":null,"type":null,"src":"safekorea","asof":"2026-08-23"}},{"type":"Feature","geometry":{"type":"Point","coordinates":[128.89417,36.16]},"properties":{"name":"경북 군위 삼국유사 학암 N1지구","addr":null,"sgg":"27720","cap":null,"type":null,"src":"safekorea","asof":"2026-08-23"}},{"type":"Feature","geometry":{"type":"Point","coordinates":[128.89333,36.16194]},"properties":{"name":"경북 군위 삼국유사 학암 N2지구","addr":null,"sgg":"27720","cap":null,"type":null,"src":"safekorea","asof":"2026-08-23"}},{"type":"Feature","geometry":{"type":"Point","coordinates":[128.88972,36.16306]},"properties":{"name":"경북 군위 삼국유사 학암 N3지구","addr":null,"sgg":"27720","cap":null,"type":null,"src":"safekorea","asof":"2026-08-23"}},{"type":"Feature","geometry":{"type":"Point","coordinates":[128.88333,36.16306]},"properties":{"name":"경북 군위 삼국유사 학암 N4지구","addr":null,"sgg":"27720","cap":null,"type":null,"src":"safekorea","asof":"2026-08-23"}},{"type":"Feature","geometry":{"type":"Point","coordinates":[128.8825,36.16333]},"properties":{"name":"경북 군위 삼국유사 학암 N5지구","addr":null,"sgg":"27720","cap":null,"type":null,"src":"safekorea","asof":"2026-08-23"}},{"type":"Feature","geometry":{"type":"Point","coordinates":[128.59333,36.15417]},"properties":{"name":"경북 군위 효령 거매 N1지구","addr":null,"sgg":"27720","cap":null,"type":null,"src":"safekorea","asof":"2026-08-23"}},{"type":"Feature","geometry":{"type":"Point","coordinates":[128.47306,36.29639]},"properties":{"name":"경북 군위 소보 복성 N2지구","addr":null,"sgg":"27720","cap":null,"type":null,"src":"safekorea","asof":"2026-08-23"}},{"type":"Feature","geometry":{"type":"Point","coordinates":[128.58972,36.15528]},"properties":{"name":"경북 군위 효령 중구 N1지구","addr":null,"sgg":"27720","cap":null,"type":null,"src":"safekorea","asof":"2026-08-23"}},{"type":"Feature","geometry":{"type":"Point","coordinates":[128.63278,36.15083]},"properties":{"name":"경북 군위 우보 달산 N1지구","addr":null,"sgg":"27720","cap":null,"type":null,"src":"safekorea","asof":"2026-08-23"}},{"type":"Feature","geometry":{"type":"Point","coordinates":[128.63694,36.18472]},"properties":{"name":"경북 군위 우보 나호 N1지구","addr":null,"sgg":"27720","cap":null,"type":null,"src":"safekorea","asof":"2026-08-23"}},{"type":"Feature","geometry":{"type":"Point","coordinates":[128.6225,36.25083]},"properties":{"name":"경북 군위 군위 광현 N1지구","addr":null,"sgg":"27720","cap":null,"type":null,"src":"safekorea","asof":"2026-08-23"}},{"type":"Feature","geometry":{"type":"Point","coordinates":[128.59694,36.25194]},"properties":{"name":"경북 군위 군위 상곡 N2지구","addr":null,"sgg":"27720","cap":null,"type":null,"src":"safekorea","asof":"2026-08-23"}},{"type":"Feature","geometry":{"type":"Point","coordinates":[128.475,36.25889]},"properties":{"name":"경북 군위 소보 송원 N1지구","addr":null,"sgg":"27720","cap":null,"type":null,"src":"safekorea","asof":"2026-08-23"}},{"type":"Feature","geometry":{"type":"Point","coordinates":[128.47111,36.29472]},"properties":{"name":"경북 군위 소보 복성 N1지구","addr":null,"sgg":"27720","cap":null,"type":null,"src":"safekorea","asof":"2026-08-23"}},{"type":"Feature","geometry":{"type":"Point","coordinates":[128.53417,36.27722]},"properties":{"name":"경북 군위 군위 대흥 N5지구","addr":null,"sgg":"27720","cap":null,"type":null,"src":"safekorea","asof":"2026-08-23"}},{"type":"Feature","geometry":{"type":"Point","coordinates":[128.55417,36.25139]},"properties":{"name":"경북 군위 군위 내량 N1지구","addr":null,"sgg":"27720","cap":null,"type":null,"src":"safekorea","asof":"2026-08-23"}},{"type":"Feature","geometry":{"type":"Point","coordinates":[128.55806,36.25278]},"properties":{"name":"경북 군위 군위 대북 N2지구","addr":null,"sgg":"27720","cap":null,"type":null,"src":"safekorea","asof":"2026-08-23"}},{"type":"Feature","geometry":{"type":"Point","coordinates":[128.68028,36.16]},"properties":{"name":"강원-중앙선118-경","addr":"(중앙선 우보-화본간 307k950 (좌))","sgg":"27720","cap":null,"type":"강원본부","src":"safekorea","asof":"2026-08-23"}},{"type":"Feature","geometry":{"type":"Point","coordinates":[128.69139,36.14917]},"properties":{"name":"강원-중앙선120-경","addr":"(중앙선 우보-화본간 309k650 (좌))","sgg":"27720","cap":null,"type":"강원본부","src":"safekorea","asof":"2026-08-23"}},{"type":"Feature","geometry":{"type":"Point","coordinates":[128.67472,36.16556]},"properties":{"name":"강원-중앙선116-경","addr":"중앙선 우보-화본간 307k317 (좌)","sgg":"27720","cap":null,"type":"강원본부","src":"safekorea","asof":"2026-08-23"}},{"type":"Feature","geometry":{"type":"Point","coordinates":[128.67167,36.20167]},"properties":{"name":"강원-중앙선113-경","addr":"중앙선 탑리-우보간 302k750 (우)","sgg":"27720","cap":null,"type":"강원본부","src":"safekorea","asof":"2026-08-23"}},{"type":"Feature","geometry":{"type":"Point","coordinates":[128.67472,36.16528]},"properties":{"name":"강원-중앙선117-경","addr":"중앙선 우보-화본간 307k400 (좌)","sgg":"27720","cap":null,"type":"강원본부","src":"safekorea","asof":"2026-08-23"}},{"type":"Feature","geometry":{"type":"Point","coordinates":[128.70389,36.10417]},"properties":{"name":"강원-중앙선124-경","addr":"중앙선 화본-봉림간 315k900 (우)","sgg":"27720","cap":null,"type":"강원본부","src":"safekorea","asof":"2026-08-23"}},{"type":"Feature","geometry":{"type":"Point","coordinates":[128.52472,36.27806]},"properties":{"name":"군위 군위 대흥 N1지구","addr":null,"sgg":"27720","cap":null,"type":"경상북도 남부건설사업소","src":"safekorea","asof":"2026-08-23"}},{"type":"Feature","geometry":{"type":"Point","coordinates":[128.52694,36.27917]},"properties":{"name":"군위 군위 대흥 N2지구","addr":null,"sgg":"27720","cap":null,"type":"경상북도 남부건설사업소","src":"safekorea","asof":"2026-08-23"}},{"type":"Feature","geometry":{"type":"Point","coordinates":[128.52917,36.27917]},"properties":{"name":"군위 군위 대흥 N3지구","addr":null,"sgg":"27720","cap":null,"type":"경상북도 남부건설사업소","src":"safekorea","asof":"2026-08-23"}},{"type":"Feature","geometry":{"type":"Point","coordinates":[128.53167,36.27861]},"properties":{"name":"군위 군위 대흥 N4지구","addr":null,"sgg":"27720","cap":null,"type":"경상북도 남부건설사업소","src":"safekorea","asof":"2026-08-23"}},{"type":"Feature","geometry":{"type":"Point","coordinates":[128.81194,36.15139]},"properties":{"name":"군위 삼국유사 인곡 N1지구","addr":null,"sgg":"27720","cap":null,"type":"경상북도 남부건설사업소","src":"safekorea","asof":"2026-08-23"}},{"type":"Feature","geometry":{"type":"Point","coordinates":[128.81278,36.14361]},"properties":{"name":"군위 삼국유사 인곡 N2지구","addr":null,"sgg":"27720","cap":null,"type":"군위군","src":"safekorea","asof":"2026-08-23"}},{"type":"Feature","geometry":{"type":"Point","coordinates":[128.805,36.13306]},"properties":{"name":"군위 삼국유사 장곡 N1지구","addr":null,"sgg":"27720","cap":null,"type":"군위군","src":"safekorea","asof":"2026-08-23"}},{"type":"Feature","geometry":{"type":"Point","coordinates":[128.80417,36.12333]},"properties":{"name":"군위 삼국유사 학성 N1지구","addr":null,"sgg":"27720","cap":null,"type":"군위군","src":"safekorea","asof":"2026-08-23"}},{"type":"Feature","geometry":{"type":"Point","coordinates":[128.80389,36.12917]},"properties":{"name":"군위 삼국유사 학성 N2지구","addr":null,"sgg":"27720","cap":null,"type":"군위군","src":"safekorea","asof":"2026-08-23"}},{"type":"Feature","geometry":{"type":"Point","coordinates":[128.80361,36.1325]},"properties":{"name":"군위 삼국유사 학성 N3지구","addr":null,"sgg":"27720","cap":null,"type":"군위군","src":"safekorea","asof":"2026-08-23"}},{"type":"Feature","geometry":{"type":"Point","coordinates":[128.52389,36.2775]},"properties":{"name":"군위 소보 봉소 N1지구","addr":null,"sgg":"27720","cap":null,"type":"경상북도 남부건설사업소","src":"safekorea","asof":"2026-08-23"}},{"type":"Feature","geometry":{"type":"Point","coordinates":[128.52222,36.27639]},"properties":{"name":"군위 소보 봉소 N2지구","addr":null,"sgg":"27720","cap":null,"type":"경상북도 남부건설사업소","src":"safekorea","asof":"2026-08-23"}},{"type":"Feature","geometry":{"type":"Point","coordinates":[128.52139,36.27528]},"properties":{"name":"군위 소보 봉소 N3지구","addr":null,"sgg":"27720","cap":null,"type":"경상북도 남부건설사업소","src":"safekorea","asof":"2026-08-23"}},{"type":"Feature","geometry":{"type":"Point","coordinates":[128.52056,36.27306]},"properties":{"name":"군위 소보 봉소 N4지구","addr":null,"sgg":"27720","cap":null,"type":"경상북도 남부건설사업소","src":"safekorea","asof":"2026-08-23"}},{"type":"Feature","geometry":{"type":"Point","coordinates":[128.52028,36.27139]},"properties":{"name":"군위 소보 봉소 N5지구","addr":null,"sgg":"27720","cap":null,"type":"경상북도 남부건설사업소","src":"safekorea","asof":"2026-08-23"}},{"type":"Feature","geometry":{"type":"Point","coordinates":[128.51972,36.26944]},"properties":{"name":"군위 소보 봉소 N6지구","addr":null,"sgg":"27720","cap":null,"type":"경상북도 남부건설사업소","src":"safekorea","asof":"2026-08-23"}},{"type":"Feature","geometry":{"type":"Point","coordinates":[128.50222,36.2325]},"properties":{"name":"군위 소보 산법 N1지구","addr":null,"sgg":"27720","cap":null,"type":"군위군","src":"safekorea","asof":"2026-08-23"}},{"type":"Feature","geometry":{"type":"Point","coordinates":[128.50472,36.23139]},"properties":{"name":"군위 소보 산법 N2지구","addr":null,"sgg":"27720","cap":null,"type":"군위군","src":"safekorea","asof":"2026-08-23"}},{"type":"Feature","geometry":{"type":"Point","coordinates":[128.65528,36.19417]},"properties":{"name":"군위 우보 이화 N1지구","addr":null,"sgg":"27720","cap":null,"type":"군위군","src":"safekorea","asof":"2026-08-23"}},{"type":"Feature","geometry":{"type":"Point","coordinates":[128.65361,36.19361]},"properties":{"name":"군위 우보 이화 N2지구","addr":null,"sgg":"27720","cap":null,"type":"군위군","src":"safekorea","asof":"2026-08-23"}},{"type":"Feature","geometry":{"type":"Point","coordinates":[128.5225,36.2175]},"properties":{"name":"군위 소보 산법 N3지구","addr":null,"sgg":"27720","cap":null,"type":"군위군","src":"safekorea","asof":"2026-08-23"}},{"type":"Feature","geometry":{"type":"Point","coordinates":[128.72,36.13444]},"properties":{"name":"가곡저수지 관리도로(4772010347)","addr":null,"sgg":"27720","cap":null,"type":"경북지역본부 의성군위지사","src":"safekorea","asof":"2026-08-23"}},{"type":"Feature","geometry":{"type":"Point","coordinates":[128.49417,36.28111]},"properties":{"name":"내의지구","addr":null,"sgg":"27720","cap":null,"type":"지자체","src":"safekorea","asof":"2026-08-23"}},{"type":"Feature","geometry":{"type":"Point","coordinates":[128.62806,36.1525]},"properties":{"name":"창평지구","addr":null,"sgg":"27720","cap":null,"type":"지자체","src":"safekorea","asof":"2026-08-23"}},{"type":"Feature","geometry":{"type":"Point","coordinates":[128.62528,36.15306]},"properties":{"name":"남산지구1","addr":null,"sgg":"27720","cap":null,"type":"지자체","src":"safekorea","asof":"2026-08-23"}},{"type":"Feature","geometry":{"type":"Point","coordinates":[128.62556,36.15306]},"properties":{"name":"남산지구2","addr":null,"sgg":"27720","cap":null,"type":"지자체","src":"safekorea","asof":"2026-08-23"}},{"type":"Feature","geometry":{"type":"Point","coordinates":[128.62722,36.15278]},"properties":{"name":"가호지구1","addr":null,"sgg":"27720","cap":null,"type":"지자체","src":"safekorea","asof":"2026-08-23"}},{"type":"Feature","geometry":{"type":"Point","coordinates":[128.62667,36.15278]},"properties":{"name":"가호지구2","addr":null,"sgg":"27720","cap":null,"type":"지자체","src":"safekorea","asof":"2026-08-23"}},{"type":"Feature","geometry":{"type":"Point","coordinates":[128.62639,36.15278]},"properties":{"name":"가호지구3","addr":null,"sgg":"27720","cap":null,"type":"지자체","src":"safekorea","asof":"2026-08-23"}},{"type":"Feature","geometry":{"type":"Point","coordinates":[128.58444,36.15667]},"properties":{"name":"중구지구","addr":null,"sgg":"27720","cap":null,"type":"지자체","src":"safekorea","asof":"2026-08-23"}},{"type":"Feature","geometry":{"type":"Point","coordinates":[128.67194,36.18056]},"properties":{"name":"강원-중앙선114-경","addr":"중앙선 우보-화본간 305k620 (좌)","sgg":"27720","cap":null,"type":"강원본부","src":"safekorea","asof":"2026-08-23"}},{"type":"Feature","geometry":{"type":"Point","coordinates":[128.68611,36.155]},"properties":{"name":"중앙 308km680(좌)","addr":"국가철도공단","sgg":"27720","cap":null,"type":null,"src":"safekorea","asof":"2026-08-23"}},{"type":"Feature","geometry":{"type":"Point","coordinates":[128.6975,36.14056]},"properties":{"name":"중앙 310km690(좌)","addr":"국가철도공단","sgg":"27720","cap":null,"type":null,"src":"safekorea","asof":"2026-08-23"}},{"type":"Feature","geometry":{"type":"Point","coordinates":[128.69667,36.13667]},"properties":{"name":"중앙 311km100(좌)","addr":"국가철도공단","sgg":"27720","cap":null,"type":null,"src":"safekorea","asof":"2026-08-23"}},{"type":"Feature","geometry":{"type":"Point","coordinates":[128.76333,36.12806]},"properties":{"name":"화수지구","addr":"일원","sgg":"27720","cap":null,"type":"지자체","src":"safekorea","asof":"2026-08-23"}},{"type":"Feature","geometry":{"type":"Point","coordinates":[128.68667,36.11444]},"properties":{"name":"대구 군위 산성 운산 N1지구","addr":"군위군","sgg":"27720","cap":null,"type":null,"src":"safekorea","asof":"2026-08-23"}},{"type":"Feature","geometry":{"type":"Point","coordinates":[128.67917,36.11167]},"properties":{"name":"대구 군위 산성 운산 N2지구","addr":"군위군","sgg":"27720","cap":null,"type":null,"src":"safekorea","asof":"2026-08-23"}},{"type":"Feature","geometry":{"type":"Point","coordinates":[128.53,36.21694]},"properties":{"name":"대구 군위 소보 산법 N1지구","addr":"군위군","sgg":"27720","cap":null,"type":null,"src":"safekorea","asof":"2026-08-23"}},{"type":"Feature","geometry":{"type":"Point","coordinates":[128.5225,36.2175]},"properties":{"name":"대구 군위 소보 산법 N2지구","addr":"군위군","sgg":"27720","cap":null,"type":null,"src":"safekorea","asof":"2026-08-23"}},{"type":"Feature","geometry":{"type":"Point","coordinates":[128.45333,36.28222]},"properties":{"name":"대구 군위 소보 위성 N2지구","addr":"군위군","sgg":"27720","cap":null,"type":null,"src":"safekorea","asof":"2026-08-23"}},{"type":"Feature","geometry":{"type":"Point","coordinates":[128.67167,36.03667]},"properties":{"name":"대구 군위 부계 동산 N2지구","addr":"군위군","sgg":"27720","cap":null,"type":null,"src":"safekorea","asof":"2026-08-23"}},{"type":"Feature","geometry":{"type":"Point","coordinates":[128.72639,36.12972]},"properties":{"name":"대구 군위 산성 화전 N1지구","addr":"군위군","sgg":"27720","cap":null,"type":null,"src":"safekorea","asof":"2026-08-23"}},{"type":"Feature","geometry":{"type":"Point","coordinates":[128.64083,36.04111]},"properties":{"name":"대구 군위 부계 남산 N4지구","addr":"남산리","sgg":"27720","cap":null,"type":null,"src":"safekorea","asof":"2026-08-23"}},{"type":"Feature","geometry":{"type":"Point","coordinates":[128.64556,36.12222]},"properties":{"name":"대구 군위 효령 화계 N1지구","addr":"화계리","sgg":"27720","cap":null,"type":null,"src":"safekorea","asof":"2026-08-23"}},{"type":"Feature","geometry":{"type":"Point","coordinates":[128.65333,36.12528]},"properties":{"name":"대구 군위 효령 화계 N4지구","addr":"화계리","sgg":"27720","cap":null,"type":null,"src":"safekorea","asof":"2026-08-23"}},{"type":"Feature","geometry":{"type":"Point","coordinates":[128.65778,36.13056]},"properties":{"name":"대구 군위 효령 화계 N3지구","addr":"화계리","sgg":"27720","cap":null,"type":null,"src":"safekorea","asof":"2026-08-23"}},{"type":"Feature","geometry":{"type":"Point","coordinates":[128.65722,36.12944]},"properties":{"name":"대구 군위 효령 화계 N2지구","addr":"화계리","sgg":"27720","cap":null,"type":null,"src":"safekorea","asof":"2026-08-23"}},{"type":"Feature","geometry":{"type":"Point","coordinates":[128.66278,36.1375]},"properties":{"name":"대구 군위 우보 달산 N3지구","addr":"달산리","sgg":"27720","cap":null,"type":null,"src":"safekorea","asof":"2026-08-23"}},{"type":"Feature","geometry":{"type":"Point","coordinates":[128.66083,36.14139]},"properties":{"name":"대구 군위 우보 달산 N2지구","addr":"달산리","sgg":"27720","cap":null,"type":null,"src":"safekorea","asof":"2026-08-23"}},{"type":"Feature","geometry":{"type":"Point","coordinates":[128.62444,36.185]},"properties":{"name":"대구 군위 우보 나호 N2지구","addr":"나호리","sgg":"27720","cap":null,"type":null,"src":"safekorea","asof":"2026-08-23"}},{"type":"Feature","geometry":{"type":"Point","coordinates":[128.62,36.185]},"properties":{"name":"대구 군위 우보 나호 N3지구","addr":"나호리","sgg":"27720","cap":null,"type":null,"src":"safekorea","asof":"2026-08-23"}},{"type":"Feature","geometry":{"type":"Point","coordinates":[128.62694,36.21889]},"properties":{"name":"대구 군위 효령 노행 N1지구","addr":"노행리","sgg":"27720","cap":null,"type":null,"src":"safekorea","asof":"2026-08-23"}},{"type":"Feature","geometry":{"type":"Point","coordinates":[128.61389,36.22722]},"properties":{"name":"대구 군위 군위 용대 N1지구","addr":"용대리","sgg":"27720","cap":null,"type":null,"src":"safekorea","asof":"2026-08-23"}},{"type":"Feature","geometry":{"type":"Point","coordinates":[128.60472,36.22306]},"properties":{"name":"대구 군위 군위 용대 N2지구","addr":"용대리","sgg":"27720","cap":null,"type":null,"src":"safekorea","asof":"2026-08-23"}},{"type":"Feature","geometry":{"type":"Point","coordinates":[128.66806,36.15333]},"properties":{"name":"대구 군위 우보 달산 N4지구","addr":"달산리","sgg":"27720","cap":null,"type":null,"src":"safekorea","asof":"2026-08-23"}}]}