{"type":"FeatureCollection","features":[{"type":"Feature","geometry":{"type":"Point","coordinates":[126.66667,37.45944]},"properties":{"name":"두진아파트 인공비탈","addr":null,"sgg":"28177","cap":null,"type":"미추홀구청","src":"safekorea","asof":"2026-08-23"}},{"type":"Feature","geometry":{"type":"Point","coordinates":[126.66694,37.45583]},"properties":{"name":"임야 자연비탈2","addr":null,"sgg":"28177","cap":null,"type":"미추홀구","src":"safekorea","asof":"2026-08-23"}},{"type":"Feature","geometry":{"type":"Point","coordinates":[126.6875,37.44667]},"properties":{"name":"연흥빌라 옹벽","addr":"연흥빌라","sgg":"28177","cap":null,"type":"미추홀구청","src":"safekorea","asof":"2026-08-23"}},{"type":"Feature","geometry":{"type":"Point","coordinates":[126.66361,37.43333]},"properties":{"name":"국유지 자연비탈","addr":null,"sgg":"28177","cap":null,"type":"미추홀구","src":"safekorea","asof":"2026-08-23"}},{"type":"Feature","geometry":{"type":"Point","coordinates":[126.6725,37.43778]},"properties":{"name":"임야 인공비탈","addr":null,"sgg":"28177","cap":null,"type":"미추홀구청","src":"safekorea","asof":"2026-08-23"}},{"type":"Feature","geometry":{"type":"Point","coordinates":[126.6725,37.43778]},"properties":{"name":"토지인공비탈","addr":null,"sgg":"28177","cap":null,"type":"미추홀구","src":"safekorea","asof":"2026-08-23"}},{"type":"Feature","geometry":{"type":"Point","coordinates":[126.66194,37.45583]},"properties":{"name":"자연비탈면","addr":null,"sgg":"28177","cap":null,"type":"미추홀구","src":"safekorea","asof":"2026-08-23"}},{"type":"Feature","geometry":{"type":"Point","coordinates":[126.66472,37.44222]},"properties":{"name":"인하사대부속중 도로 콘크리트 옹벽","addr":null,"sgg":"28177","cap":null,"type":"미추홀구청","src":"safekorea","asof":"2026-08-23"}},{"type":"Feature","geometry":{"type":"Point","coordinates":[126.66861,37.46083]},"properties":{"name":"인천 미추홀 도화 N1지구","addr":null,"sgg":"28177","cap":null,"type":"미추홀구청","src":"safekorea","asof":"2026-08-23"}},{"type":"Feature","geometry":{"type":"Point","coordinates":[126.68583,37.44472]},"properties":{"name":"인천 미추홀 주안 N1지구","addr":"인천광역시 미추홀구","sgg":"28177","cap":null,"type":null,"src":"safekorea","asof":"2026-08-23"}},{"type":"Feature","geometry":{"type":"Point","coordinates":[126.68194,37.4425]},"properties":{"name":"인천 미추홀 주안 N2지구","addr":"인천광역시 미추홀구청","sgg":"28177","cap":null,"type":null,"src":"safekorea","asof":"2026-08-23"}},{"type":"Feature","geometry":{"type":"Point","coordinates":[126.68583,37.44417]},"properties":{"name":"신비마을아파트 옹벽","addr":null,"sgg":"28177","cap":null,"type":"미추홀구청","src":"safekorea","asof":"2026-08-23"}},{"type":"Feature","geometry":{"type":"Point","coordinates":[126.6925,37.45667]},"properties":{"name":"삼성맨션 옹벽","addr":"구월로8번길 28-10","sgg":"28177","cap":null,"type":"인천시청","src":"safekorea","asof":"2026-08-23"}},{"type":"Feature","geometry":{"type":"Point","coordinates":[126.68,37.43083]},"properties":{"name":"인천 미추홀 문학 N1지구","addr":null,"sgg":"28177","cap":null,"type":null,"src":"safekorea","asof":"2026-08-23"}},{"type":"Feature","geometry":{"type":"Point","coordinates":[126.65833,37.4725]},"properties":{"name":"인천 미추홀 도화 N1지구","addr":null,"sgg":"28177","cap":null,"type":null,"src":"safekorea","asof":"2026-08-23"}},{"type":"Feature","geometry":{"type":"Point","coordinates":[126.65333,37.47611]},"properties":{"name":"인천 미추홀 도화 N2지구","addr":null,"sgg":"28177","cap":null,"type":null,"src":"safekorea","asof":"2026-08-23"}},{"type":"Feature","geometry":{"type":"Point","coordinates":[126.68722,37.43611]},"properties":{"name":"인천 미추홀 문학 N2지구","addr":null,"sgg":"28177","cap":null,"type":null,"src":"safekorea","asof":"2026-08-23"}},{"type":"Feature","geometry":{"type":"Point","coordinates":[126.65111,37.42667]},"properties":{"name":"햇볕1가 급경사지","addr":"인천광역시 연수구 비류대로156번길 48","sgg":"28185","cap":null,"type":"연수구청","src":"safekorea","asof":"2026-08-23"}},{"type":"Feature","geometry":{"type":"Point","coordinates":[126.66417,37.41444]},"properties":{"name":"청량터널 급경사지","addr":null,"sgg":"28185","cap":null,"type":"연수구청","src":"safekorea","asof":"2026-08-23"}},{"type":"Feature","geometry":{"type":"Point","coordinates":[126.69639,37.42806]},"properties":{"name":"고섭재길 급경사지","addr":"인천광역시 연수구 넘말로29번길 27","sgg":"28185","cap":null,"type":"연수구청","src":"safekorea","asof":"2026-08-23"}},{"type":"Feature","geometry":{"type":"Point","coordinates":[126.69694,37.42722]},"properties":{"name":"학나래길 급경사지","addr":"인천광역시 연수구 학나래로 71","sgg":"28185","cap":null,"type":"연수구청","src":"safekorea","asof":"2026-08-23"}},{"type":"Feature","geometry":{"type":"Point","coordinates":[126.68472,37.41889]},"properties":{"name":"대학공원(舊 배수지공원) 급경사지","addr":"인천광역시 연수구 함박뫼로 162","sgg":"28185","cap":null,"type":"연수구청","src":"safekorea","asof":"2026-08-23"}},{"type":"Feature","geometry":{"type":"Point","coordinates":[126.66167,37.42944]},"properties":{"name":"앵고개길 급경사지","addr":null,"sgg":"28185","cap":null,"type":"연수구청","src":"safekorea","asof":"2026-08-23"}},{"type":"Feature","geometry":{"type":"Point","coordinates":[126.66611,37.41944]},"properties":{"name":"청릉로 급경사지","addr":"인천광역시 연수구 청능말로22번길 29","sgg":"28185","cap":null,"type":"연수구청","src":"safekorea","asof":"2026-08-23"}},{"type":"Feature","geometry":{"type":"Point","coordinates":[128.64889,37.42889]},"properties":{"name":"점말2로 급경사지","addr":null,"sgg":"28185","cap":null,"type":"연수구청","src":"safekorea","asof":"2026-08-23"}},{"type":"Feature","geometry":{"type":"Point","coordinates":[126.68389,37.42694]},"properties":{"name":"함박순환로 급경사지1","addr":null,"sgg":"28185","cap":null,"type":"연수구청","src":"safekorea","asof":"2026-08-23"}},{"type":"Feature","geometry":{"type":"Point","coordinates":[126.67944,37.42667]},"properties":{"name":"함박순환로 급경사지2","addr":null,"sgg":"28185","cap":null,"type":"연수구청","src":"safekorea","asof":"2026-08-23"}},{"type":"Feature","geometry":{"type":"Point","coordinates":[126.66028,37.41556]},"properties":{"name":"동춘동 산14-7 급경사지","addr":"인천광역시 연수구 청량로94번길 75","sgg":"28185","cap":null,"type":"연수구 공원녹지과","src":"safekorea","asof":"2026-08-23"}},{"type":"Feature","geometry":{"type":"Point","coordinates":[126.66861,37.43028]},"properties":{"name":"인천반석 급경사지","addr":"인천시 청학동 산 16-2","sgg":"28185","cap":null,"type":"북부지방산림청","src":"safekorea","asof":"2026-08-23"}},{"type":"Feature","geometry":{"type":"Point","coordinates":[126.64889,37.42972]},"properties":{"name":"송도2공원 급경사지(옥련 N1지구)","addr":null,"sgg":"28185","cap":null,"type":"연수구청","src":"safekorea","asof":"2026-08-23"}},{"type":"Feature","geometry":{"type":"Point","coordinates":[126.6625,37.43083]},"properties":{"name":"청학동 산 30-2 급경사지(청학 N1지구)","addr":null,"sgg":"28185","cap":null,"type":"연수구청","src":"safekorea","asof":"2026-08-23"}},{"type":"Feature","geometry":{"type":"Point","coordinates":[126.66556,37.40556]},"properties":{"name":"인천 연수 동춘 N2지구","addr":null,"sgg":"28185","cap":null,"type":null,"src":"safekorea","asof":"2026-08-23"}},{"type":"Feature","geometry":{"type":"Point","coordinates":[126.66472,37.40278]},"properties":{"name":"인천 연수 동춘 N3지구","addr":null,"sgg":"28185","cap":null,"type":null,"src":"safekorea","asof":"2026-08-23"}},{"type":"Feature","geometry":{"type":"Point","coordinates":[126.66444,37.4025]},"properties":{"name":"인천 연수 동춘 N4지구","addr":null,"sgg":"28185","cap":null,"type":null,"src":"safekorea","asof":"2026-08-23"}},{"type":"Feature","geometry":{"type":"Point","coordinates":[126.64694,37.43083]},"properties":{"name":"인천 연수 옥련 N2지구","addr":null,"sgg":"28185","cap":null,"type":null,"src":"safekorea","asof":"2026-08-23"}},{"type":"Feature","geometry":{"type":"Point","coordinates":[126.65917,37.42389]},"properties":{"name":"인천 연수 청학 N3지구","addr":null,"sgg":"28185","cap":null,"type":null,"src":"safekorea","asof":"2026-08-23"}},{"type":"Feature","geometry":{"type":"Point","coordinates":[126.72861,37.47]},"properties":{"name":"석경사(상천불사) 절개지","addr":null,"sgg":"28200","cap":null,"type":"서울국유림관리소","src":"safekorea","asof":"2026-08-23"}},{"type":"Feature","geometry":{"type":"Point","coordinates":[126.69444,37.40833]},"properties":{"name":"수인선2","addr":null,"sgg":"28200","cap":null,"type":"수도권본부","src":"safekorea","asof":"2026-08-23"}},{"type":"Feature","geometry":{"type":"Point","coordinates":[126.69667,37.40694]},"properties":{"name":"수인선1","addr":null,"sgg":"28200","cap":null,"type":"수도권본부","src":"safekorea","asof":"2026-08-23"}},{"type":"Feature","geometry":{"type":"Point","coordinates":[126.73417,37.46611]},"properties":{"name":"인천 남동 만수 N1지구","addr":null,"sgg":"28200","cap":null,"type":null,"src":"safekorea","asof":"2026-08-23"}},{"type":"Feature","geometry":{"type":"Point","coordinates":[126.75889,37.44]},"properties":{"name":"인천교통공사 운연차량 급경사지","addr":"인천교통공사 운연차량기지","sgg":"28200","cap":null,"type":"인천교통공사","src":"safekorea","asof":"2026-08-23"}},{"type":"Feature","geometry":{"type":"Point","coordinates":[126.75528,37.44639]},"properties":{"name":"인천 남동 장수 N1지구","addr":"인천광역시 남동구청","sgg":"28200","cap":null,"type":null,"src":"safekorea","asof":"2026-08-23"}},{"type":"Feature","geometry":{"type":"Point","coordinates":[126.75028,37.44667]},"properties":{"name":"인천 남동 장수 N2지구","addr":"인천광역시 남동구청","sgg":"28200","cap":null,"type":null,"src":"safekorea","asof":"2026-08-23"}},{"type":"Feature","geometry":{"type":"Point","coordinates":[126.73,37.43917]},"properties":{"name":"인천 남동 수산 N1지구","addr":"인천광역시 남동구청","sgg":"28200","cap":null,"type":null,"src":"safekorea","asof":"2026-08-23"}},{"type":"Feature","geometry":{"type":"Point","coordinates":[126.72,37.43917]},"properties":{"name":"인천 남동 수산 N2지구","addr":"인천광역시 남동구청","sgg":"28200","cap":null,"type":null,"src":"safekorea","asof":"2026-08-23"}},{"type":"Feature","geometry":{"type":"Point","coordinates":[126.725,37.40778]},"properties":{"name":"인천 남동 논현 N1지구","addr":null,"sgg":"28200","cap":null,"type":null,"src":"safekorea","asof":"2026-08-23"}},{"type":"Feature","geometry":{"type":"Point","coordinates":[126.75194,37.42306]},"properties":{"name":"인천 남동 서창 N1지구","addr":null,"sgg":"28200","cap":null,"type":null,"src":"safekorea","asof":"2026-08-23"}},{"type":"Feature","geometry":{"type":"Point","coordinates":[126.71111,37.47528]},"properties":{"name":"인천 남동 간석 N1지구","addr":null,"sgg":"28200","cap":null,"type":null,"src":"safekorea","asof":"2026-08-23"}},{"type":"Feature","geometry":{"type":"Point","coordinates":[126.75278,37.42583]},"properties":{"name":"인천 남동 서창 N2지구","addr":null,"sgg":"28200","cap":null,"type":null,"src":"safekorea","asof":"2026-08-23"}},{"type":"Feature","geometry":{"type":"Point","coordinates":[126.72278,37.46778]},"properties":{"name":"인천 남동 간석 N5지구","addr":null,"sgg":"28200","cap":null,"type":null,"src":"safekorea","asof":"2026-08-23"}},{"type":"Feature","geometry":{"type":"Point","coordinates":[126.72222,37.46917]},"properties":{"name":"인천 남동 간석 N3지구","addr":null,"sgg":"28200","cap":null,"type":null,"src":"safekorea","asof":"2026-08-23"}},{"type":"Feature","geometry":{"type":"Point","coordinates":[126.70694,37.4825]},"properties":{"name":"수도권 경인선1","addr":null,"sgg":"28237","cap":null,"type":"수도권본부","src":"safekorea","asof":"2026-08-23"}},{"type":"Feature","geometry":{"type":"Point","coordinates":[126.70694,37.48278]},"properties":{"name":"수도권 경인선2","addr":null,"sgg":"28237","cap":null,"type":"수도권본부","src":"safekorea","asof":"2026-08-23"}},{"type":"Feature","geometry":{"type":"Point","coordinates":[126.70611,37.48139]},"properties":{"name":"백운빌라 인공비탈면 및 옹벽","addr":null,"sgg":"28237","cap":null,"type":"부평구청","src":"safekorea","asof":"2026-08-23"}},{"type":"Feature","geometry":{"type":"Point","coordinates":[126.70194,37.48972]},"properties":{"name":"청하아파트","addr":null,"sgg":"28237","cap":null,"type":"부평구","src":"safekorea","asof":"2026-08-23"}},{"type":"Feature","geometry":{"type":"Point","coordinates":[126.69639,37.50333]},"properties":{"name":"재원아파트 옹벽","addr":null,"sgg":"28237","cap":null,"type":"부평구","src":"safekorea","asof":"2026-08-23"}},{"type":"Feature","geometry":{"type":"Point","coordinates":[126.69722,37.50917]},"properties":{"name":"원적산터널","addr":"인천광역시 부평구청","sgg":"28237","cap":null,"type":"기업","src":"safekorea","asof":"2026-08-23"}},{"type":"Feature","geometry":{"type":"Point","coordinates":[126.70194,37.48333]},"properties":{"name":"아트센터삼거리 인근 인공비탈면","addr":"인천광역시청","sgg":"28237","cap":null,"type":"기업","src":"safekorea","asof":"2026-08-23"}},{"type":"Feature","geometry":{"type":"Point","coordinates":[126.71444,37.47667]},"properties":{"name":"인천가족공원 주차장 인근 사면","addr":"인천광역시청","sgg":"28237","cap":null,"type":"인천광역시청","src":"safekorea","asof":"2026-08-23"}},{"type":"Feature","geometry":{"type":"Point","coordinates":[126.71556,37.47667]},"properties":{"name":"인천가족공원 묘원상가 인접 도로사면","addr":"인천광역시청","sgg":"28237","cap":null,"type":"인천광역시청","src":"safekorea","asof":"2026-08-23"}},{"type":"Feature","geometry":{"type":"Point","coordinates":[126.69361,37.50306]},"properties":{"name":"명신여고 체육관 뒤 인공비탈면","addr":null,"sgg":"28237","cap":null,"type":"부평구","src":"safekorea","asof":"2026-08-23"}},{"type":"Feature","geometry":{"type":"Point","coordinates":[126.6925,37.50417]},"properties":{"name":"부평샬레아넬리스아파트","addr":null,"sgg":"28237","cap":null,"type":"부평구","src":"safekorea","asof":"2026-08-23"}},{"type":"Feature","geometry":{"type":"Point","coordinates":[126.70167,37.49]},"properties":{"name":"청원유치원 뒤 옹벽","addr":null,"sgg":"28237","cap":null,"type":"부평구","src":"safekorea","asof":"2026-08-23"}},{"type":"Feature","geometry":{"type":"Point","coordinates":[126.6925,37.5075]},"properties":{"name":"원적산공원 옹벽 및 인공비탈면","addr":null,"sgg":"28237","cap":null,"type":"인천광역시청","src":"safekorea","asof":"2026-08-23"}},{"type":"Feature","geometry":{"type":"Point","coordinates":[126.76139,37.56111]},"properties":{"name":"인천 계양 동양 N1지구","addr":null,"sgg":"28245","cap":null,"type":null,"src":"safekorea","asof":"2026-08-23"}},{"type":"Feature","geometry":{"type":"Point","coordinates":[126.71639,37.54222]},"properties":{"name":"인천 계양 계산 N1지구","addr":null,"sgg":"28245","cap":null,"type":null,"src":"safekorea","asof":"2026-08-23"}},{"type":"Feature","geometry":{"type":"Point","coordinates":[126.74444,37.56444]},"properties":{"name":"귤현차량 급경사지","addr":null,"sgg":"28245","cap":null,"type":"인천교통공사","src":"safekorea","asof":"2026-08-23"}},{"type":"Feature","geometry":{"type":"Point","coordinates":[126.75333,37.56333]},"properties":{"name":"양지말어린이공원 절개지","addr":null,"sgg":"28245","cap":null,"type":"계양구","src":"safekorea","asof":"2026-08-23"}},{"type":"Feature","geometry":{"type":"Point","coordinates":[126.71972,37.54694]},"properties":{"name":"인천 계양 계산 N2지구","addr":"인천광역시 계양구청","sgg":"28245","cap":null,"type":null,"src":"safekorea","asof":"2026-08-23"}},{"type":"Feature","geometry":{"type":"Point","coordinates":[126.71722,37.53639]},"properties":{"name":"인천 계양 효성 N1지구","addr":"인천광역시 계양구청","sgg":"28245","cap":null,"type":null,"src":"safekorea","asof":"2026-08-23"}},{"type":"Feature","geometry":{"type":"Point","coordinates":[126.71972,37.56417]},"properties":{"name":"인천 계양 다남 N1지구","addr":"인천광역시 계양구청","sgg":"28245","cap":null,"type":null,"src":"safekorea","asof":"2026-08-23"}},{"type":"Feature","geometry":{"type":"Point","coordinates":[126.73611,37.54861]},"properties":{"name":"인천 계양 임학 N1지구","addr":"인천광역시 계양구청","sgg":"28245","cap":null,"type":null,"src":"safekorea","asof":"2026-08-23"}},{"type":"Feature","geometry":{"type":"Point","coordinates":[126.74611,37.56556]},"properties":{"name":"인천 계양 귤현  N1지구","addr":null,"sgg":"28245","cap":null,"type":null,"src":"safekorea","asof":"2026-08-23"}},{"type":"Feature","geometry":{"type":"Point","coordinates":[126.71528,37.53944]},"properties":{"name":"인천 계양 계산 N3지구","addr":null,"sgg":"28245","cap":null,"type":null,"src":"safekorea","asof":"2026-08-23"}},{"type":"Feature","geometry":{"type":"Point","coordinates":[126.71556,37.53861]},"properties":{"name":"인천 계양 계산 N4지구","addr":null,"sgg":"28245","cap":null,"type":null,"src":"safekorea","asof":"2026-08-23"}},{"type":"Feature","geometry":{"type":"Point","coordinates":[126.71667,37.54028]},"properties":{"name":"인천 계양 계산 N5지구","addr":null,"sgg":"28245","cap":null,"type":null,"src":"safekorea","asof":"2026-08-23"}},{"type":"Feature","geometry":{"type":"Point","coordinates":[126.71111,37.57167]},"properties":{"name":"인천 계양 목상 N1지구","addr":null,"sgg":"28245","cap":null,"type":null,"src":"safekorea","asof":"2026-08-23"}},{"type":"Feature","geometry":{"type":"Point","coordinates":[126.69861,37.52944]},"properties":{"name":"인천 계양 효성 N1지구","addr":null,"sgg":"28245","cap":null,"type":null,"src":"safekorea","asof":"2026-08-23"}},{"type":"Feature","geometry":{"type":"Point","coordinates":[126.72972,37.54778]},"properties":{"name":"인천 계양 계산 N6지구","addr":null,"sgg":"28245","cap":null,"type":null,"src":"safekorea","asof":"2026-08-23"}},{"type":"Feature","geometry":{"type":"Point","coordinates":[126.23417,37.65639]},"properties":{"name":"아차도리 산12","addr":"군도19호선","sgg":"28710","cap":null,"type":"강화군","src":"safekorea","asof":"2026-08-23"}},{"type":"Feature","geometry":{"type":"Point","coordinates":[126.47639,37.61583]},"properties":{"name":"인천 강화 길상 선두 N1지구","addr":"인천광역시 강화군청","sgg":"28710","cap":null,"type":null,"src":"safekorea","asof":"2026-08-23"}},{"type":"Feature","geometry":{"type":"Point","coordinates":[126.47694,37.61556]},"properties":{"name":"인천 강화 길상 선두 N2지구","addr":"인천광역시 강화군청","sgg":"28710","cap":null,"type":null,"src":"safekorea","asof":"2026-08-23"}},{"type":"Feature","geometry":{"type":"Point","coordinates":[126.49917,37.61083]},"properties":{"name":"인천 강화 길상 선두 N3지구","addr":"인천광역시 강화군청","sgg":"28710","cap":null,"type":null,"src":"safekorea","asof":"2026-08-23"}},{"type":"Feature","geometry":{"type":"Point","coordinates":[126.48667,37.60583]},"properties":{"name":"인천 강화 길상 선두 N4지구","addr":"인천광역시 강화군청","sgg":"28710","cap":null,"type":null,"src":"safekorea","asof":"2026-08-23"}},{"type":"Feature","geometry":{"type":"Point","coordinates":[126.50056,37.59889]},"properties":{"name":"인천 강화 길상 선두 N5지구","addr":"인천광역시 강화군청","sgg":"28710","cap":null,"type":null,"src":"safekorea","asof":"2026-08-23"}},{"type":"Feature","geometry":{"type":"Point","coordinates":[126.48667,37.63139]},"properties":{"name":"인천 강화 길상 온수 N1지구","addr":"인천광역시 강화군청","sgg":"28710","cap":null,"type":null,"src":"safekorea","asof":"2026-08-23"}},{"type":"Feature","geometry":{"type":"Point","coordinates":[126.37444,37.63472]},"properties":{"name":"인천 강화 화도 내 N1지구","addr":"인천광역시 강화군청","sgg":"28710","cap":null,"type":null,"src":"safekorea","asof":"2026-08-23"}},{"type":"Feature","geometry":{"type":"Point","coordinates":[126.44806,37.59583]},"properties":{"name":"인천 강화 화도 동막 N1지구","addr":"인천광역시 강화군청","sgg":"28710","cap":null,"type":null,"src":"safekorea","asof":"2026-08-23"}},{"type":"Feature","geometry":{"type":"Point","coordinates":[126.40194,37.60556]},"properties":{"name":"인천 강화 화도 여차 N1지구","addr":"인천광역시 강화군청","sgg":"28710","cap":null,"type":null,"src":"safekorea","asof":"2026-08-23"}},{"type":"Feature","geometry":{"type":"Point","coordinates":[126.40111,37.60444]},"properties":{"name":"인천 강화 화도 여차 N2지구","addr":"인천광역시 강화군청","sgg":"28710","cap":null,"type":null,"src":"safekorea","asof":"2026-08-23"}},{"type":"Feature","geometry":{"type":"Point","coordinates":[126.40111,37.60417]},"properties":{"name":"인천 강화 화도 여차 N3지구","addr":"인천광역시 강화군청","sgg":"28710","cap":null,"type":null,"src":"safekorea","asof":"2026-08-23"}},{"type":"Feature","geometry":{"type":"Point","coordinates":[126.4025,37.60361]},"properties":{"name":"인천 강화 화도 여차 N4지구","addr":"인천광역시 강화군청","sgg":"28710","cap":null,"type":null,"src":"safekorea","asof":"2026-08-23"}},{"type":"Feature","geometry":{"type":"Point","coordinates":[126.40222,37.61861]},"properties":{"name":"인천 강화 화도 장화 N1지구","addr":"장화리","sgg":"28710","cap":null,"type":null,"src":"safekorea","asof":"2026-08-23"}},{"type":"Feature","geometry":{"type":"Point","coordinates":[126.38611,37.61111]},"properties":{"name":"인천 강화 화도 여차 N1지구","addr":"여차리","sgg":"28710","cap":null,"type":null,"src":"safekorea","asof":"2026-08-23"}},{"type":"Feature","geometry":{"type":"Point","coordinates":[126.38361,37.61222]},"properties":{"name":"인천 강화 화도 여차 N2지구","addr":"장화리","sgg":"28710","cap":null,"type":null,"src":"safekorea","asof":"2026-08-23"}},{"type":"Feature","geometry":{"type":"Point","coordinates":[126.3875,37.60972]},"properties":{"name":"인천 강화 화도 여차 N3지구","addr":"여차리","sgg":"28710","cap":null,"type":null,"src":"safekorea","asof":"2026-08-23"}},{"type":"Feature","geometry":{"type":"Point","coordinates":[126.40056,37.60222]},"properties":{"name":"인천 강화 화도 여차 N4지구","addr":"여차리","sgg":"28710","cap":null,"type":null,"src":"safekorea","asof":"2026-08-23"}},{"type":"Feature","geometry":{"type":"Point","coordinates":[126.405,37.60333]},"properties":{"name":"인천 강화 화도 여차 N5지구","addr":"여차리","sgg":"28710","cap":null,"type":null,"src":"safekorea","asof":"2026-08-23"}},{"type":"Feature","geometry":{"type":"Point","coordinates":[126.47556,37.64444]},"properties":{"name":"인천 강화 길상 온수 N1지구","addr":"온수리","sgg":"28710","cap":null,"type":null,"src":"safekorea","asof":"2026-08-23"}},{"type":"Feature","geometry":{"type":"Point","coordinates":[126.47722,37.63778]},"properties":{"name":"인천 강화 길상 온수 N2지구","addr":"온수리","sgg":"28710","cap":null,"type":null,"src":"safekorea","asof":"2026-08-23"}},{"type":"Feature","geometry":{"type":"Point","coordinates":[126.50722,37.62778]},"properties":{"name":"인천 강화 길상 초지 N1지구","addr":"초지리","sgg":"28710","cap":null,"type":null,"src":"safekorea","asof":"2026-08-23"}},{"type":"Feature","geometry":{"type":"Point","coordinates":[126.49306,37.62556]},"properties":{"name":"인천 강화 길상 장흥 N1지구","addr":"장흥리","sgg":"28710","cap":null,"type":null,"src":"safekorea","asof":"2026-08-23"}},{"type":"Feature","geometry":{"type":"Point","coordinates":[125.985,37.18861]},"properties":{"name":"인천 옹진 덕적 굴업 N1지구","addr":"인천광역시 옹진군청","sgg":"28720","cap":null,"type":null,"src":"safekorea","asof":"2026-08-23"}},{"type":"Feature","geometry":{"type":"Point","coordinates":[125.98472,37.18944]},"properties":{"name":"인천 옹진 덕적 굴업 N2지구","addr":"인천광역시 옹진군청","sgg":"28720","cap":null,"type":null,"src":"safekorea","asof":"2026-08-23"}},{"type":"Feature","geometry":{"type":"Point","coordinates":[125.98361,37.19]},"properties":{"name":"인천 옹진 덕적 굴업 N3지구","addr":"인천광역시 옹진군청","sgg":"28720","cap":null,"type":null,"src":"safekorea","asof":"2026-08-23"}},{"type":"Feature","geometry":{"type":"Point","coordinates":[125.95194,37.08583]},"properties":{"name":"인천 옹진 덕적 백아 N1지구","addr":"인천광역시 옹진군청","sgg":"28720","cap":null,"type":null,"src":"safekorea","asof":"2026-08-23"}},{"type":"Feature","geometry":{"type":"Point","coordinates":[125.95139,37.085]},"properties":{"name":"인천 옹진 덕적 백아 N2지구","addr":"인천광역시 옹진군청","sgg":"28720","cap":null,"type":null,"src":"safekorea","asof":"2026-08-23"}},{"type":"Feature","geometry":{"type":"Point","coordinates":[125.95194,37.08444]},"properties":{"name":"인천 옹진 덕적 백아 N3지구","addr":"인천광역시 옹진군청","sgg":"28720","cap":null,"type":null,"src":"safekorea","asof":"2026-08-23"}},{"type":"Feature","geometry":{"type":"Point","coordinates":[125.95167,37.08306]},"properties":{"name":"인천 옹진 덕적 백아 N4지구","addr":"인천광역시 옹진군청","sgg":"28720","cap":null,"type":null,"src":"safekorea","asof":"2026-08-23"}},{"type":"Feature","geometry":{"type":"Point","coordinates":[125.95111,37.08111]},"properties":{"name":"인천 옹진 덕적 백아 N5지구","addr":"인천광역시 옹진군청","sgg":"28720","cap":null,"type":null,"src":"safekorea","asof":"2026-08-23"}},{"type":"Feature","geometry":{"type":"Point","coordinates":[125.95194,37.07972]},"properties":{"name":"인천 옹진 덕적 백아 N6지구","addr":"인천광역시 옹진군청","sgg":"28720","cap":null,"type":null,"src":"safekorea","asof":"2026-08-23"}},{"type":"Feature","geometry":{"type":"Point","coordinates":[125.95222,37.07917]},"properties":{"name":"인천 옹진 덕적 백아 N7지구","addr":"인천광역시 옹진군청","sgg":"28720","cap":null,"type":null,"src":"safekorea","asof":"2026-08-23"}},{"type":"Feature","geometry":{"type":"Point","coordinates":[125.95222,37.07861]},"properties":{"name":"인천 옹진 덕적 백아 N8지구","addr":"인천광역시 옹진군청","sgg":"28720","cap":null,"type":null,"src":"safekorea","asof":"2026-08-23"}},{"type":"Feature","geometry":{"type":"Point","coordinates":[126.11806,37.25222]},"properties":{"name":"인천 옹진 덕적 북 N1지구","addr":"인천광역시 옹진군청","sgg":"28720","cap":null,"type":null,"src":"safekorea","asof":"2026-08-23"}},{"type":"Feature","geometry":{"type":"Point","coordinates":[126.11611,37.24917]},"properties":{"name":"인천 옹진 덕적 북 N2지구","addr":"인천광역시 옹진군청","sgg":"28720","cap":null,"type":null,"src":"safekorea","asof":"2026-08-23"}},{"type":"Feature","geometry":{"type":"Point","coordinates":[126.12778,37.23833]},"properties":{"name":"인천 옹진 덕적 진 N1지구","addr":"인천광역시 옹진군청","sgg":"28720","cap":null,"type":null,"src":"safekorea","asof":"2026-08-23"}},{"type":"Feature","geometry":{"type":"Point","coordinates":[126.11083,37.22333]},"properties":{"name":"인천 옹진 덕적 서포 N1지구","addr":"인천광역시 옹진군청","sgg":"28720","cap":null,"type":null,"src":"safekorea","asof":"2026-08-23"}},{"type":"Feature","geometry":{"type":"Point","coordinates":[126.32833,37.5425]},"properties":{"name":"인천 옹진 북도 장봉 N1지구","addr":"인천광역시 옹진군청","sgg":"28720","cap":null,"type":null,"src":"safekorea","asof":"2026-08-23"}},{"type":"Feature","geometry":{"type":"Point","coordinates":[126.32889,37.54222]},"properties":{"name":"인천 옹진 북도 장봉 N2지구","addr":"인천광역시 옹진군청","sgg":"28720","cap":null,"type":null,"src":"safekorea","asof":"2026-08-23"}},{"type":"Feature","geometry":{"type":"Point","coordinates":[126.33444,37.52694]},"properties":{"name":"인천 옹진 북도 장봉 N3지구","addr":"인천광역시 옹진군청","sgg":"28720","cap":null,"type":null,"src":"safekorea","asof":"2026-08-23"}},{"type":"Feature","geometry":{"type":"Point","coordinates":[126.37944,37.535]},"properties":{"name":"인천 옹진 북도 장봉 N5지구","addr":"인천광역시 옹진군청","sgg":"28720","cap":null,"type":null,"src":"safekorea","asof":"2026-08-23"}},{"type":"Feature","geometry":{"type":"Point","coordinates":[126.41417,37.53611]},"properties":{"name":"인천 옹진 북도 모도 N1지구","addr":"인천광역시 옹진군청","sgg":"28720","cap":null,"type":null,"src":"safekorea","asof":"2026-08-23"}},{"type":"Feature","geometry":{"type":"Point","coordinates":[126.46111,37.52083]},"properties":{"name":"인천 옹진 북도 신도 N1지구","addr":"인천광역시 옹진군청","sgg":"28720","cap":null,"type":null,"src":"safekorea","asof":"2026-08-23"}},{"type":"Feature","geometry":{"type":"Point","coordinates":[126.37861,37.53417]},"properties":{"name":"인천 옹진 북도 장봉 N4지구","addr":"인천광역시 옹진군청","sgg":"28720","cap":null,"type":null,"src":"safekorea","asof":"2026-08-23"}},{"type":"Feature","geometry":{"type":"Point","coordinates":[126.44444,37.53167]},"properties":{"name":"인천 웅진 북도 신도 N4지구","addr":"인천광역시 옹진군청","sgg":"28720","cap":null,"type":null,"src":"safekorea","asof":"2026-08-23"}},{"type":"Feature","geometry":{"type":"Point","coordinates":[126.43944,37.53]},"properties":{"name":"인천 웅진 북도 신도 N5지구","addr":"인천광역시 옹진군청","sgg":"28720","cap":null,"type":null,"src":"safekorea","asof":"2026-08-23"}},{"type":"Feature","geometry":{"type":"Point","coordinates":[126.43167,37.525]},"properties":{"name":"인천 웅진 북도 신도 N6지구","addr":"인천광역시 옹진군청","sgg":"28720","cap":null,"type":null,"src":"safekorea","asof":"2026-08-23"}},{"type":"Feature","geometry":{"type":"Point","coordinates":[126.37944,37.535]},"properties":{"name":"인천 옹진 북도 장봉 N7지구","addr":"장봉리","sgg":"28720","cap":null,"type":null,"src":"safekorea","asof":"2026-08-23"}},{"type":"Feature","geometry":{"type":"Point","coordinates":[126.37944,37.53583]},"properties":{"name":"인천 옹진 북도 장봉 N8지구","addr":"장봉리","sgg":"28720","cap":null,"type":null,"src":"safekorea","asof":"2026-08-23"}},{"type":"Feature","geometry":{"type":"Point","coordinates":[126.37889,37.53472]},"properties":{"name":"인천 옹진 북도 장봉 N9지구","addr":"장봉리","sgg":"28720","cap":null,"type":null,"src":"safekorea","asof":"2026-08-23"}},{"type":"Feature","geometry":{"type":"Point","coordinates":[126.43278,37.51833]},"properties":{"name":"인천 옹진 북도 신도 N2지구","addr":"신도리","sgg":"28720","cap":null,"type":null,"src":"safekorea","asof":"2026-08-23"}},{"type":"Feature","geometry":{"type":"Point","coordinates":[126.41306,37.53722]},"properties":{"name":"인천 옹진 북도 모도 N2지구","addr":"모도리","sgg":"28720","cap":null,"type":null,"src":"safekorea","asof":"2026-08-23"}},{"type":"Feature","geometry":{"type":"Point","coordinates":[126.41361,37.53722]},"properties":{"name":"인천 옹진 북도 모도 N3지구","addr":"모도리","sgg":"28720","cap":null,"type":null,"src":"safekorea","asof":"2026-08-23"}},{"type":"Feature","geometry":{"type":"Point","coordinates":[126.42806,37.53111]},"properties":{"name":"인천 옹진 북도 시도 N1지구","addr":"시도리","sgg":"28720","cap":null,"type":null,"src":"safekorea","asof":"2026-08-23"}},{"type":"Feature","geometry":{"type":"Point","coordinates":[126.33778,37.55]},"properties":{"name":"인천 옹진 북도 장봉 N6지구","addr":"장봉리","sgg":"28720","cap":null,"type":null,"src":"safekorea","asof":"2026-08-23"}},{"type":"Feature","geometry":{"type":"Point","coordinates":[126.46056,37.2825]},"properties":{"name":"인천 옹진 영흥 내 N1지구","addr":"내리","sgg":"28720","cap":null,"type":null,"src":"safekorea","asof":"2026-08-23"}},{"type":"Feature","geometry":{"type":"Point","coordinates":[126.44778,37.24528]},"properties":{"name":"인천 옹진 영흥 외 N1지구","addr":"외리","sgg":"28720","cap":null,"type":null,"src":"safekorea","asof":"2026-08-23"}},{"type":"Feature","geometry":{"type":"Point","coordinates":[126.46528,37.23944]},"properties":{"name":"인천 옹진 영흥 외 N2지구","addr":"외리","sgg":"28720","cap":null,"type":null,"src":"safekorea","asof":"2026-08-23"}},{"type":"Feature","geometry":{"type":"Point","coordinates":[126.515,37.23306]},"properties":{"name":"인천 옹진 영흥 선재 N1지구","addr":"선재리","sgg":"28720","cap":null,"type":null,"src":"safekorea","asof":"2026-08-23"}}]}