{"type":"FeatureCollection","features":[{"type":"Feature","geometry":{"type":"Point","coordinates":[127.46389,36.33528]},"properties":{"name":"동구9","addr":null,"sgg":"30110","cap":null,"type":"지자체","src":"safekorea","asof":"2026-08-23"}},{"type":"Feature","geometry":{"type":"Point","coordinates":[127.45167,36.33111]},"properties":{"name":"대동3지구","addr":null,"sgg":"30110","cap":null,"type":"개인","src":"safekorea","asof":"2026-08-23"}},{"type":"Feature","geometry":{"type":"Point","coordinates":[127.45056,36.33]},"properties":{"name":"동구12","addr":"대동연립","sgg":"30110","cap":null,"type":"아파트","src":"safekorea","asof":"2026-08-23"}},{"type":"Feature","geometry":{"type":"Point","coordinates":[127.45194,36.33333]},"properties":{"name":"동구14","addr":null,"sgg":"30110","cap":null,"type":"지자체","src":"safekorea","asof":"2026-08-23"}},{"type":"Feature","geometry":{"type":"Point","coordinates":[127.45333,36.33694]},"properties":{"name":"동구15","addr":"우송대학교","sgg":"30110","cap":null,"type":"학교","src":"safekorea","asof":"2026-08-23"}},{"type":"Feature","geometry":{"type":"Point","coordinates":[127.47917,36.33306]},"properties":{"name":"동구27","addr":null,"sgg":"30110","cap":null,"type":"지자체","src":"safekorea","asof":"2026-08-23"}},{"type":"Feature","geometry":{"type":"Point","coordinates":[127.47083,36.34194]},"properties":{"name":"효평2지구","addr":null,"sgg":"30110","cap":null,"type":"지자체","src":"safekorea","asof":"2026-08-23"}},{"type":"Feature","geometry":{"type":"Point","coordinates":[127.50778,36.36528]},"properties":{"name":"동구30","addr":null,"sgg":"30110","cap":null,"type":"지자체","src":"safekorea","asof":"2026-08-23"}},{"type":"Feature","geometry":{"type":"Point","coordinates":[127.49972,36.33444]},"properties":{"name":"동구31","addr":null,"sgg":"30110","cap":null,"type":"지자체","src":"safekorea","asof":"2026-08-23"}},{"type":"Feature","geometry":{"type":"Point","coordinates":[127.4775,36.34389]},"properties":{"name":"동구32","addr":null,"sgg":"30110","cap":null,"type":"지자체","src":"safekorea","asof":"2026-08-23"}},{"type":"Feature","geometry":{"type":"Point","coordinates":[127.45556,36.27472]},"properties":{"name":"동구34","addr":null,"sgg":"30110","cap":null,"type":"지자체","src":"safekorea","asof":"2026-08-23"}},{"type":"Feature","geometry":{"type":"Point","coordinates":[127.45,36.22361]},"properties":{"name":"동구41","addr":null,"sgg":"30110","cap":null,"type":"인구정책과","src":"safekorea","asof":"2026-08-23"}},{"type":"Feature","geometry":{"type":"Point","coordinates":[127.75222,36.52056]},"properties":{"name":"동구44","addr":null,"sgg":"30110","cap":null,"type":"지자체","src":"safekorea","asof":"2026-08-23"}},{"type":"Feature","geometry":{"type":"Point","coordinates":[127.49167,36.33667]},"properties":{"name":"충청 경부37","addr":"경부선174.210-174.290(상,우)","sgg":"30110","cap":null,"type":"충청본부","src":"safekorea","asof":"2026-08-23"}},{"type":"Feature","geometry":{"type":"Point","coordinates":[127.48611,36.33472]},"properties":{"name":"충청 경부36","addr":"경부선(대전-세천)173.570-174.050(상,우)","sgg":"30110","cap":null,"type":"충청본부","src":"safekorea","asof":"2026-08-23"}},{"type":"Feature","geometry":{"type":"Point","coordinates":[127.45306,36.35167]},"properties":{"name":"동구16","addr":"명석고등학교","sgg":"30110","cap":null,"type":"학교","src":"safekorea","asof":"2026-08-23"}},{"type":"Feature","geometry":{"type":"Point","coordinates":[127.45444,36.34528]},"properties":{"name":"동구17","addr":"동대전중학교","sgg":"30110","cap":null,"type":"학교","src":"safekorea","asof":"2026-08-23"}},{"type":"Feature","geometry":{"type":"Point","coordinates":[127.45361,36.34472]},"properties":{"name":"동구18","addr":"동아공업고등학교","sgg":"30110","cap":null,"type":"학교","src":"safekorea","asof":"2026-08-23"}},{"type":"Feature","geometry":{"type":"Point","coordinates":[127.45444,36.34972]},"properties":{"name":"동구19","addr":"대전보건대학","sgg":"30110","cap":null,"type":"학교","src":"safekorea","asof":"2026-08-23"}},{"type":"Feature","geometry":{"type":"Point","coordinates":[127.45528,36.35139]},"properties":{"name":"동구20","addr":"대전폴리텍대학","sgg":"30110","cap":null,"type":"학교","src":"safekorea","asof":"2026-08-23"}},{"type":"Feature","geometry":{"type":"Point","coordinates":[127.43361,36.33694]},"properties":{"name":"동구22","addr":"계룡공업고등학교","sgg":"30110","cap":null,"type":"학교","src":"safekorea","asof":"2026-08-23"}},{"type":"Feature","geometry":{"type":"Point","coordinates":[127.435,36.33806]},"properties":{"name":"동구23","addr":null,"sgg":"30110","cap":null,"type":"개인","src":"safekorea","asof":"2026-08-23"}},{"type":"Feature","geometry":{"type":"Point","coordinates":[127.44222,36.3125]},"properties":{"name":"대전 동구 천동 N1지구","addr":"동춘종합건설","sgg":"30110","cap":null,"type":"개인","src":"safekorea","asof":"2026-08-23"}},{"type":"Feature","geometry":{"type":"Point","coordinates":[127.44611,36.31167]},"properties":{"name":"동구3","addr":"헤민어린이집","sgg":"30110","cap":null,"type":"어린이집","src":"safekorea","asof":"2026-08-23"}},{"type":"Feature","geometry":{"type":"Point","coordinates":[127.45139,36.32194]},"properties":{"name":"동구4","addr":"에벤에셀의 집","sgg":"30110","cap":null,"type":"개인","src":"safekorea","asof":"2026-08-23"}},{"type":"Feature","geometry":{"type":"Point","coordinates":[127.45389,36.2725]},"properties":{"name":"동구 36","addr":null,"sgg":"30110","cap":null,"type":"지자체","src":"safekorea","asof":"2026-08-23"}},{"type":"Feature","geometry":{"type":"Point","coordinates":[127.44111,36.22333]},"properties":{"name":"대전 동 하소 N3지구","addr":null,"sgg":"30110","cap":null,"type":null,"src":"safekorea","asof":"2026-08-23"}},{"type":"Feature","geometry":{"type":"Point","coordinates":[127.45556,36.33472]},"properties":{"name":"대전 동 용운 N4지구","addr":null,"sgg":"30110","cap":null,"type":"대전 동구청","src":"safekorea","asof":"2026-08-23"}},{"type":"Feature","geometry":{"type":"Point","coordinates":[127.46417,36.32528]},"properties":{"name":"대전 동 용운 N3지구","addr":null,"sgg":"30110","cap":null,"type":null,"src":"safekorea","asof":"2026-08-23"}},{"type":"Feature","geometry":{"type":"Point","coordinates":[127.46667,36.32944]},"properties":{"name":"대전 동 용운 N2지구","addr":null,"sgg":"30110","cap":null,"type":null,"src":"safekorea","asof":"2026-08-23"}},{"type":"Feature","geometry":{"type":"Point","coordinates":[127.46472,36.32417]},"properties":{"name":"대전 동 용운 N1지구","addr":null,"sgg":"30110","cap":null,"type":null,"src":"safekorea","asof":"2026-08-23"}},{"type":"Feature","geometry":{"type":"Point","coordinates":[127.49556,36.35167]},"properties":{"name":"대전 동 신상 N1지구","addr":null,"sgg":"30110","cap":null,"type":null,"src":"safekorea","asof":"2026-08-23"}},{"type":"Feature","geometry":{"type":"Point","coordinates":[127.47444,36.34889]},"properties":{"name":"대전 동 비룡 N1지구","addr":null,"sgg":"30110","cap":null,"type":null,"src":"safekorea","asof":"2026-08-23"}},{"type":"Feature","geometry":{"type":"Point","coordinates":[127.44,36.22222]},"properties":{"name":"대전 동 하소 N2지구","addr":null,"sgg":"30110","cap":null,"type":null,"src":"safekorea","asof":"2026-08-23"}},{"type":"Feature","geometry":{"type":"Point","coordinates":[127.47306,36.32139]},"properties":{"name":"경부 171km750(우)","addr":"국가철도공단","sgg":"30110","cap":null,"type":null,"src":"safekorea","asof":"2026-08-23"}},{"type":"Feature","geometry":{"type":"Point","coordinates":[127.48417,36.33417]},"properties":{"name":"경부 173km570(중)","addr":"국가철도공단","sgg":"30110","cap":null,"type":null,"src":"safekorea","asof":"2026-08-23"}},{"type":"Feature","geometry":{"type":"Point","coordinates":[127.49167,36.33722]},"properties":{"name":"경부 174km330(좌)","addr":"국가철도공단","sgg":"30110","cap":null,"type":null,"src":"safekorea","asof":"2026-08-23"}},{"type":"Feature","geometry":{"type":"Point","coordinates":[127.49667,36.33861]},"properties":{"name":"경부 174km840(좌)","addr":"국가철도공단","sgg":"30110","cap":null,"type":null,"src":"safekorea","asof":"2026-08-23"}},{"type":"Feature","geometry":{"type":"Point","coordinates":[127.48861,36.27833]},"properties":{"name":"대전 동구 낭월 N1지구","addr":null,"sgg":"30110","cap":null,"type":"대전 동구청","src":"safekorea","asof":"2026-08-23"}},{"type":"Feature","geometry":{"type":"Point","coordinates":[127.43139,36.20361]},"properties":{"name":"대전 동구 하소 N1지구","addr":null,"sgg":"30110","cap":null,"type":"대전 동구청","src":"safekorea","asof":"2026-08-23"}},{"type":"Feature","geometry":{"type":"Point","coordinates":[127.47111,36.27917]},"properties":{"name":"대전 동구 낭월 N2지구","addr":null,"sgg":"30110","cap":null,"type":"대전 동구청","src":"safekorea","asof":"2026-08-23"}},{"type":"Feature","geometry":{"type":"Point","coordinates":[127.49472,36.35444]},"properties":{"name":"대전 동 신상 N3지구","addr":null,"sgg":"30110","cap":null,"type":null,"src":"safekorea","asof":"2026-08-23"}},{"type":"Feature","geometry":{"type":"Point","coordinates":[127.49361,36.35417]},"properties":{"name":"대전 동 신상 N4지구","addr":null,"sgg":"30110","cap":null,"type":null,"src":"safekorea","asof":"2026-08-23"}},{"type":"Feature","geometry":{"type":"Point","coordinates":[127.49806,36.34778]},"properties":{"name":"대전 동 신상 N2지구","addr":null,"sgg":"30110","cap":null,"type":null,"src":"safekorea","asof":"2026-08-23"}},{"type":"Feature","geometry":{"type":"Point","coordinates":[127.4625,36.33194]},"properties":{"name":"대전 동 용운 N5지구","addr":null,"sgg":"30110","cap":null,"type":null,"src":"safekorea","asof":"2026-08-23"}},{"type":"Feature","geometry":{"type":"Point","coordinates":[127.45889,36.31361]},"properties":{"name":"대전 동 판암 N1지구","addr":null,"sgg":"30110","cap":null,"type":null,"src":"safekorea","asof":"2026-08-23"}},{"type":"Feature","geometry":{"type":"Point","coordinates":[127.45111,36.27111]},"properties":{"name":"대전 동 소호 N1지구","addr":null,"sgg":"30110","cap":null,"type":null,"src":"safekorea","asof":"2026-08-23"}},{"type":"Feature","geometry":{"type":"Point","coordinates":[127.45139,36.27056]},"properties":{"name":"대전 동 소호 N2지구","addr":null,"sgg":"30110","cap":null,"type":null,"src":"safekorea","asof":"2026-08-23"}},{"type":"Feature","geometry":{"type":"Point","coordinates":[127.45028,36.26472]},"properties":{"name":"대전 동 소호 N3지구","addr":null,"sgg":"30110","cap":null,"type":null,"src":"safekorea","asof":"2026-08-23"}},{"type":"Feature","geometry":{"type":"Point","coordinates":[127.48278,36.26528]},"properties":{"name":"대전 동 구도 N1지구","addr":null,"sgg":"30110","cap":null,"type":null,"src":"safekorea","asof":"2026-08-23"}},{"type":"Feature","geometry":{"type":"Point","coordinates":[127.4725,36.24444]},"properties":{"name":"대전 동 삼괴 N1지구","addr":null,"sgg":"30110","cap":null,"type":null,"src":"safekorea","asof":"2026-08-23"}},{"type":"Feature","geometry":{"type":"Point","coordinates":[127.47944,36.24917]},"properties":{"name":"대전 동 삼괴 N2지구","addr":null,"sgg":"30110","cap":null,"type":null,"src":"safekorea","asof":"2026-08-23"}},{"type":"Feature","geometry":{"type":"Point","coordinates":[127.45722,36.34667]},"properties":{"name":"대전 동 가양 N1지구","addr":null,"sgg":"30110","cap":null,"type":null,"src":"safekorea","asof":"2026-08-23"}},{"type":"Feature","geometry":{"type":"Point","coordinates":[127.3825,36.28528]},"properties":{"name":"중구1","addr":null,"sgg":"30140","cap":null,"type":"지자체","src":"safekorea","asof":"2026-08-23"}},{"type":"Feature","geometry":{"type":"Point","coordinates":[127.37861,36.275]},"properties":{"name":"중구2","addr":null,"sgg":"30140","cap":null,"type":"지자체","src":"safekorea","asof":"2026-08-23"}},{"type":"Feature","geometry":{"type":"Point","coordinates":[127.39139,36.29083]},"properties":{"name":"중구3","addr":null,"sgg":"30140","cap":null,"type":"지자체","src":"safekorea","asof":"2026-08-23"}},{"type":"Feature","geometry":{"type":"Point","coordinates":[127.40694,36.29722]},"properties":{"name":"중구4","addr":null,"sgg":"30140","cap":null,"type":"지자체","src":"safekorea","asof":"2026-08-23"}},{"type":"Feature","geometry":{"type":"Point","coordinates":[127.39389,36.2825]},"properties":{"name":"중구5","addr":null,"sgg":"30140","cap":null,"type":"지자체","src":"safekorea","asof":"2026-08-23"}},{"type":"Feature","geometry":{"type":"Point","coordinates":[127.39639,36.27889]},"properties":{"name":"중구6","addr":null,"sgg":"30140","cap":null,"type":"지자체","src":"safekorea","asof":"2026-08-23"}},{"type":"Feature","geometry":{"type":"Point","coordinates":[127.39722,36.27806]},"properties":{"name":"중구7","addr":null,"sgg":"30140","cap":null,"type":"지자체","src":"safekorea","asof":"2026-08-23"}},{"type":"Feature","geometry":{"type":"Point","coordinates":[127.40111,36.27361]},"properties":{"name":"중구8","addr":null,"sgg":"30140","cap":null,"type":"지자체","src":"safekorea","asof":"2026-08-23"}},{"type":"Feature","geometry":{"type":"Point","coordinates":[127.4025,36.27194]},"properties":{"name":"중구9","addr":null,"sgg":"30140","cap":null,"type":"지자체","src":"safekorea","asof":"2026-08-23"}},{"type":"Feature","geometry":{"type":"Point","coordinates":[127.40278,36.26639]},"properties":{"name":"중구10","addr":null,"sgg":"30140","cap":null,"type":"지자체","src":"safekorea","asof":"2026-08-23"}},{"type":"Feature","geometry":{"type":"Point","coordinates":[127.40139,36.25333]},"properties":{"name":"중구12","addr":null,"sgg":"30140","cap":null,"type":"지자체","src":"safekorea","asof":"2026-08-23"}},{"type":"Feature","geometry":{"type":"Point","coordinates":[127.40833,36.24861]},"properties":{"name":"중구13","addr":null,"sgg":"30140","cap":null,"type":"지자체","src":"safekorea","asof":"2026-08-23"}},{"type":"Feature","geometry":{"type":"Point","coordinates":[127.41722,36.24333]},"properties":{"name":"중구14","addr":null,"sgg":"30140","cap":null,"type":"지자체","src":"safekorea","asof":"2026-08-23"}},{"type":"Feature","geometry":{"type":"Point","coordinates":[127.42139,36.24222]},"properties":{"name":"중구15","addr":null,"sgg":"30140","cap":null,"type":"지자체","src":"safekorea","asof":"2026-08-23"}},{"type":"Feature","geometry":{"type":"Point","coordinates":[127.43306,36.24417]},"properties":{"name":"중구16","addr":null,"sgg":"30140","cap":null,"type":"지자체","src":"safekorea","asof":"2026-08-23"}},{"type":"Feature","geometry":{"type":"Point","coordinates":[127.43417,36.24583]},"properties":{"name":"중구17","addr":null,"sgg":"30140","cap":null,"type":"지자체","src":"safekorea","asof":"2026-08-23"}},{"type":"Feature","geometry":{"type":"Point","coordinates":[127.45417,36.29556]},"properties":{"name":"중구18","addr":null,"sgg":"30140","cap":null,"type":"지자체","src":"safekorea","asof":"2026-08-23"}},{"type":"Feature","geometry":{"type":"Point","coordinates":[127.455,36.29389]},"properties":{"name":"중구19","addr":null,"sgg":"30140","cap":null,"type":"지자체","src":"safekorea","asof":"2026-08-23"}},{"type":"Feature","geometry":{"type":"Point","coordinates":[127.40667,36.33306]},"properties":{"name":"중구21","addr":null,"sgg":"30140","cap":null,"type":"학교","src":"safekorea","asof":"2026-08-23"}},{"type":"Feature","geometry":{"type":"Point","coordinates":[127.39639,36.30194]},"properties":{"name":"중구22","addr":null,"sgg":"30140","cap":null,"type":"지자체","src":"safekorea","asof":"2026-08-23"}},{"type":"Feature","geometry":{"type":"Point","coordinates":[127.39722,36.30222]},"properties":{"name":"중구23","addr":null,"sgg":"30140","cap":null,"type":"지자체","src":"safekorea","asof":"2026-08-23"}},{"type":"Feature","geometry":{"type":"Point","coordinates":[127.41444,36.305]},"properties":{"name":"중구24","addr":null,"sgg":"30140","cap":null,"type":"지자체","src":"safekorea","asof":"2026-08-23"}},{"type":"Feature","geometry":{"type":"Point","coordinates":[127.42139,36.31056]},"properties":{"name":"중구25","addr":null,"sgg":"30140","cap":null,"type":"지자체","src":"safekorea","asof":"2026-08-23"}},{"type":"Feature","geometry":{"type":"Point","coordinates":[127.42333,36.31333]},"properties":{"name":"중구26","addr":null,"sgg":"30140","cap":null,"type":"지자체","src":"safekorea","asof":"2026-08-23"}},{"type":"Feature","geometry":{"type":"Point","coordinates":[127.41583,36.31222]},"properties":{"name":"중구27","addr":null,"sgg":"30140","cap":null,"type":"지자체","src":"safekorea","asof":"2026-08-23"}},{"type":"Feature","geometry":{"type":"Point","coordinates":[127.41528,36.31333]},"properties":{"name":"대전 중 문화 N2지구","addr":null,"sgg":"30140","cap":null,"type":null,"src":"safekorea","asof":"2026-08-23"}},{"type":"Feature","geometry":{"type":"Point","coordinates":[127.40417,36.30583]},"properties":{"name":"대전 중 문화 N3지구","addr":null,"sgg":"30140","cap":null,"type":null,"src":"safekorea","asof":"2026-08-23"}},{"type":"Feature","geometry":{"type":"Point","coordinates":[127.38694,36.29833]},"properties":{"name":"대전 중 사정 N1지구","addr":null,"sgg":"30140","cap":null,"type":null,"src":"safekorea","asof":"2026-08-23"}},{"type":"Feature","geometry":{"type":"Point","coordinates":[127.38861,36.29278]},"properties":{"name":"대전 중 사정 N2지구","addr":null,"sgg":"30140","cap":null,"type":null,"src":"safekorea","asof":"2026-08-23"}},{"type":"Feature","geometry":{"type":"Point","coordinates":[127.43556,36.30806]},"properties":{"name":"대전 중 석교 N1지구","addr":null,"sgg":"30140","cap":null,"type":null,"src":"safekorea","asof":"2026-08-23"}},{"type":"Feature","geometry":{"type":"Point","coordinates":[127.415,36.22444]},"properties":{"name":"대전 중 어남 N1지구","addr":null,"sgg":"30140","cap":null,"type":null,"src":"safekorea","asof":"2026-08-23"}},{"type":"Feature","geometry":{"type":"Point","coordinates":[127.405,36.24028]},"properties":{"name":"대전 중 정생 N1지구","addr":null,"sgg":"30140","cap":null,"type":"대전 중구청","src":"safekorea","asof":"2026-08-23"}},{"type":"Feature","geometry":{"type":"Point","coordinates":[127.40667,36.25111]},"properties":{"name":"대전 중 정생 N2지구","addr":null,"sgg":"30140","cap":null,"type":"공원녹지과","src":"safekorea","asof":"2026-08-23"}},{"type":"Feature","geometry":{"type":"Point","coordinates":[127.41417,36.3125]},"properties":{"name":"대전 중 문화 N1지구","addr":null,"sgg":"30140","cap":null,"type":null,"src":"safekorea","asof":"2026-08-23"}},{"type":"Feature","geometry":{"type":"Point","coordinates":[127.40083,36.335]},"properties":{"name":"충청 호남1","addr":null,"sgg":"30140","cap":null,"type":"충청본부","src":"safekorea","asof":"2026-08-23"}},{"type":"Feature","geometry":{"type":"Point","coordinates":[127.44694,36.2975]},"properties":{"name":"중구30","addr":null,"sgg":"30140","cap":null,"type":"지자체","src":"safekorea","asof":"2026-08-23"}},{"type":"Feature","geometry":{"type":"Point","coordinates":[127.41972,36.30889]},"properties":{"name":"중구32","addr":null,"sgg":"30140","cap":null,"type":"지자체","src":"safekorea","asof":"2026-08-23"}},{"type":"Feature","geometry":{"type":"Point","coordinates":[127.39056,36.28694]},"properties":{"name":"중구33","addr":"뿌리공원","sgg":"30140","cap":null,"type":"지자체","src":"safekorea","asof":"2026-08-23"}},{"type":"Feature","geometry":{"type":"Point","coordinates":[127.39361,36.30194]},"properties":{"name":"중구35","addr":null,"sgg":"30140","cap":null,"type":"지자체","src":"safekorea","asof":"2026-08-23"}},{"type":"Feature","geometry":{"type":"Point","coordinates":[127.39972,36.29444]},"properties":{"name":"중구36","addr":null,"sgg":"30140","cap":null,"type":"지자체","src":"safekorea","asof":"2026-08-23"}},{"type":"Feature","geometry":{"type":"Point","coordinates":[127.40611,36.34139]},"properties":{"name":"충청 대전1","addr":null,"sgg":"30140","cap":null,"type":"충청본부","src":"safekorea","asof":"2026-08-23"}},{"type":"Feature","geometry":{"type":"Point","coordinates":[127.39,36.29639]},"properties":{"name":"대전 중 사정 N3지구","addr":null,"sgg":"30140","cap":null,"type":null,"src":"safekorea","asof":"2026-08-23"}},{"type":"Feature","geometry":{"type":"Point","coordinates":[127.38889,36.29694]},"properties":{"name":"대전 중 사정 N4지구","addr":null,"sgg":"30140","cap":null,"type":null,"src":"safekorea","asof":"2026-08-23"}},{"type":"Feature","geometry":{"type":"Point","coordinates":[127.38694,36.29667]},"properties":{"name":"대전 중 사정 N5지구","addr":null,"sgg":"30140","cap":null,"type":null,"src":"safekorea","asof":"2026-08-23"}},{"type":"Feature","geometry":{"type":"Point","coordinates":[127.39944,36.29222]},"properties":{"name":"대전 중 사정 N6지구","addr":null,"sgg":"30140","cap":null,"type":null,"src":"safekorea","asof":"2026-08-23"}},{"type":"Feature","geometry":{"type":"Point","coordinates":[127.395,36.29]},"properties":{"name":"대전 중 사정 N7지구","addr":null,"sgg":"30140","cap":null,"type":null,"src":"safekorea","asof":"2026-08-23"}},{"type":"Feature","geometry":{"type":"Point","coordinates":[127.41917,36.31056]},"properties":{"name":"대전 중 대사 N1지구","addr":null,"sgg":"30140","cap":null,"type":null,"src":"safekorea","asof":"2026-08-23"}},{"type":"Feature","geometry":{"type":"Point","coordinates":[127.43194,36.24972]},"properties":{"name":"대전 중 금 N1지구","addr":null,"sgg":"30140","cap":null,"type":null,"src":"safekorea","asof":"2026-08-23"}},{"type":"Feature","geometry":{"type":"Point","coordinates":[127.37333,36.33667]},"properties":{"name":"서구13","addr":"GS내동주유소 인근","sgg":"30170","cap":null,"type":"지자체","src":"safekorea","asof":"2026-08-23"}},{"type":"Feature","geometry":{"type":"Point","coordinates":[127.3525,36.28556]},"properties":{"name":"서구16","addr":"고릿골구름다리 옆 벌곡길","sgg":"30170","cap":null,"type":"지자체","src":"safekorea","asof":"2026-08-23"}},{"type":"Feature","geometry":{"type":"Point","coordinates":[127.35222,36.28611]},"properties":{"name":"서구17","addr":"고릿골구름다리~LG저유소 벌곡길","sgg":"30170","cap":null,"type":"지자체","src":"safekorea","asof":"2026-08-23"}},{"type":"Feature","geometry":{"type":"Point","coordinates":[127.34306,36.25417]},"properties":{"name":"서구19","addr":"기성파출소 옆 벌곡길","sgg":"30170","cap":null,"type":"지자체","src":"safekorea","asof":"2026-08-23"}},{"type":"Feature","geometry":{"type":"Point","coordinates":[127.42,36.3675]},"properties":{"name":"충청 호남2","addr":null,"sgg":"30170","cap":null,"type":"충청본부","src":"safekorea","asof":"2026-08-23"}},{"type":"Feature","geometry":{"type":"Point","coordinates":[127.36667,36.30972]},"properties":{"name":"충청 호남3","addr":null,"sgg":"30170","cap":null,"type":"충청본부","src":"safekorea","asof":"2026-08-23"}},{"type":"Feature","geometry":{"type":"Point","coordinates":[127.36417,36.30889]},"properties":{"name":"충청 호남5","addr":null,"sgg":"30170","cap":null,"type":"충청본부","src":"safekorea","asof":"2026-08-23"}},{"type":"Feature","geometry":{"type":"Point","coordinates":[127.36417,36.30833]},"properties":{"name":"충청 호남6","addr":null,"sgg":"30170","cap":null,"type":"충청본부","src":"safekorea","asof":"2026-08-23"}},{"type":"Feature","geometry":{"type":"Point","coordinates":[127.36167,36.3075]},"properties":{"name":"충청 호남7","addr":null,"sgg":"30170","cap":null,"type":"충청본부","src":"safekorea","asof":"2026-08-23"}},{"type":"Feature","geometry":{"type":"Point","coordinates":[127.36056,36.30611]},"properties":{"name":"충청 호남8","addr":null,"sgg":"30170","cap":null,"type":"충청본부","src":"safekorea","asof":"2026-08-23"}},{"type":"Feature","geometry":{"type":"Point","coordinates":[127.35778,36.295]},"properties":{"name":"충청 호남9","addr":null,"sgg":"30170","cap":null,"type":"충청본부","src":"safekorea","asof":"2026-08-23"}},{"type":"Feature","geometry":{"type":"Point","coordinates":[127.34861,36.28167]},"properties":{"name":"충청 호남10","addr":null,"sgg":"30170","cap":null,"type":"충청본부","src":"safekorea","asof":"2026-08-23"}},{"type":"Feature","geometry":{"type":"Point","coordinates":[127.345,36.27167]},"properties":{"name":"충청 호남12","addr":null,"sgg":"30170","cap":null,"type":"충청본부","src":"safekorea","asof":"2026-08-23"}},{"type":"Feature","geometry":{"type":"Point","coordinates":[127.34611,36.26889]},"properties":{"name":"충청 호남13","addr":null,"sgg":"30170","cap":null,"type":"충청본부","src":"safekorea","asof":"2026-08-23"}},{"type":"Feature","geometry":{"type":"Point","coordinates":[127.34556,36.26639]},"properties":{"name":"충청 호남14","addr":null,"sgg":"30170","cap":null,"type":"충청본부","src":"safekorea","asof":"2026-08-23"}},{"type":"Feature","geometry":{"type":"Point","coordinates":[127.34167,36.26167]},"properties":{"name":"충청 호남15","addr":null,"sgg":"30170","cap":null,"type":"충청본부","src":"safekorea","asof":"2026-08-23"}},{"type":"Feature","geometry":{"type":"Point","coordinates":[127.34028,36.25806]},"properties":{"name":"충청 호남16","addr":null,"sgg":"30170","cap":null,"type":"충청본부","src":"safekorea","asof":"2026-08-23"}},{"type":"Feature","geometry":{"type":"Point","coordinates":[127.33417,36.25]},"properties":{"name":"충청 호남18","addr":null,"sgg":"30170","cap":null,"type":"충청본부","src":"safekorea","asof":"2026-08-23"}},{"type":"Feature","geometry":{"type":"Point","coordinates":[127.33528,36.25028]},"properties":{"name":"충청 호남17","addr":null,"sgg":"30170","cap":null,"type":"충청본부","src":"safekorea","asof":"2026-08-23"}},{"type":"Feature","geometry":{"type":"Point","coordinates":[127.32611,36.25083]},"properties":{"name":"충청 호남20","addr":"호남선 22.530-22.572 상우","sgg":"30170","cap":null,"type":"충청본부","src":"safekorea","asof":"2026-08-23"}},{"type":"Feature","geometry":{"type":"Point","coordinates":[127.32639,36.25028]},"properties":{"name":"충청 호남19","addr":null,"sgg":"30170","cap":null,"type":"충청본부","src":"safekorea","asof":"2026-08-23"}},{"type":"Feature","geometry":{"type":"Point","coordinates":[127.30222,36.25833]},"properties":{"name":"충청 호남21","addr":null,"sgg":"30170","cap":null,"type":"충청본부","src":"safekorea","asof":"2026-08-23"}},{"type":"Feature","geometry":{"type":"Point","coordinates":[127.29222,36.26389]},"properties":{"name":"충청 호남24","addr":null,"sgg":"30170","cap":null,"type":"충청본부","src":"safekorea","asof":"2026-08-23"}},{"type":"Feature","geometry":{"type":"Point","coordinates":[127.29222,36.26361]},"properties":{"name":"충청 호남25","addr":null,"sgg":"30170","cap":null,"type":"충청본부","src":"safekorea","asof":"2026-08-23"}},{"type":"Feature","geometry":{"type":"Point","coordinates":[127.34833,36.28167]},"properties":{"name":"충청 호남11","addr":null,"sgg":"30170","cap":null,"type":"충청본부","src":"safekorea","asof":"2026-08-23"}},{"type":"Feature","geometry":{"type":"Point","coordinates":[127.35694,36.24222]},"properties":{"name":"대전 서 산직 N2지구","addr":null,"sgg":"30170","cap":null,"type":null,"src":"safekorea","asof":"2026-08-23"}},{"type":"Feature","geometry":{"type":"Point","coordinates":[127.35528,36.24139]},"properties":{"name":"대전 서 산직 N1 지구","addr":null,"sgg":"30170","cap":null,"type":null,"src":"safekorea","asof":"2026-08-23"}},{"type":"Feature","geometry":{"type":"Point","coordinates":[127.37056,36.33389]},"properties":{"name":"대전 서 내 N1지구","addr":null,"sgg":"30170","cap":null,"type":null,"src":"safekorea","asof":"2026-08-23"}},{"type":"Feature","geometry":{"type":"Point","coordinates":[127.34694,36.23278]},"properties":{"name":"대전 서 산직 N4지구","addr":null,"sgg":"30170","cap":null,"type":"대전 서구","src":"safekorea","asof":"2026-08-23"}},{"type":"Feature","geometry":{"type":"Point","coordinates":[127.335,36.22333]},"properties":{"name":"대전 서 장안 N1지구","addr":null,"sgg":"30170","cap":null,"type":null,"src":"safekorea","asof":"2026-08-23"}},{"type":"Feature","geometry":{"type":"Point","coordinates":[127.345,36.23361]},"properties":{"name":"대전 서 산직 N3지구","addr":null,"sgg":"30170","cap":null,"type":"대전 서구","src":"safekorea","asof":"2026-08-23"}},{"type":"Feature","geometry":{"type":"Point","coordinates":[127.36139,36.29278]},"properties":{"name":"대전 서구 정림 N3지구","addr":null,"sgg":"30170","cap":null,"type":"국공유지","src":"safekorea","asof":"2026-08-23"}},{"type":"Feature","geometry":{"type":"Point","coordinates":[127.3625,36.29556]},"properties":{"name":"대전 서 정림 N2지구","addr":null,"sgg":"30170","cap":null,"type":"국공유지","src":"safekorea","asof":"2026-08-23"}},{"type":"Feature","geometry":{"type":"Point","coordinates":[127.36778,36.30639]},"properties":{"name":"서구50 (정림 N1지구)","addr":null,"sgg":"30170","cap":null,"type":"대전 서구청","src":"safekorea","asof":"2026-08-23"}},{"type":"Feature","geometry":{"type":"Point","coordinates":[127.345,36.22667]},"properties":{"name":"서구47","addr":"호숫가가든","sgg":"30170","cap":null,"type":"지자체","src":"safekorea","asof":"2026-08-23"}},{"type":"Feature","geometry":{"type":"Point","coordinates":[127.29611,36.26444]},"properties":{"name":"충청 호남23","addr":null,"sgg":"30170","cap":null,"type":"충청본부","src":"safekorea","asof":"2026-08-23"}},{"type":"Feature","geometry":{"type":"Point","coordinates":[127.29611,36.26417]},"properties":{"name":"충청 호남22","addr":null,"sgg":"30170","cap":null,"type":"충청본부","src":"safekorea","asof":"2026-08-23"}},{"type":"Feature","geometry":{"type":"Point","coordinates":[127.36028,36.315]},"properties":{"name":"서구9","addr":"장묘사업소","sgg":"30170","cap":null,"type":"지자체","src":"safekorea","asof":"2026-08-23"}},{"type":"Feature","geometry":{"type":"Point","coordinates":[127.29917,36.26333]},"properties":{"name":"호남 22km015(좌)","addr":"국가철도공단","sgg":"30170","cap":null,"type":null,"src":"safekorea","asof":"2026-08-23"}},{"type":"Feature","geometry":{"type":"Point","coordinates":[127.36528,36.34389]},"properties":{"name":"대전 서 갈마 N1지구","addr":null,"sgg":"30170","cap":null,"type":null,"src":"safekorea","asof":"2026-08-23"}},{"type":"Feature","geometry":{"type":"Point","coordinates":[127.37139,36.34194]},"properties":{"name":"대전 서 갈마 N7지구","addr":null,"sgg":"30170","cap":null,"type":null,"src":"safekorea","asof":"2026-08-23"}},{"type":"Feature","geometry":{"type":"Point","coordinates":[127.34694,36.32667]},"properties":{"name":"대전 서 도안 N1지구","addr":null,"sgg":"30170","cap":null,"type":null,"src":"safekorea","asof":"2026-08-23"}},{"type":"Feature","geometry":{"type":"Point","coordinates":[127.38639,36.45472]},"properties":{"name":"대전 유성 금고 N2지구","addr":null,"sgg":"30200","cap":null,"type":null,"src":"safekorea","asof":"2026-08-23"}},{"type":"Feature","geometry":{"type":"Point","coordinates":[127.38639,36.45333]},"properties":{"name":"대전 유성 금고 N3지구","addr":null,"sgg":"30200","cap":null,"type":null,"src":"safekorea","asof":"2026-08-23"}},{"type":"Feature","geometry":{"type":"Point","coordinates":[127.38667,36.45083]},"properties":{"name":"대전 유성 봉산 N1지구","addr":null,"sgg":"30200","cap":null,"type":null,"src":"safekorea","asof":"2026-08-23"}},{"type":"Feature","geometry":{"type":"Point","coordinates":[127.36278,36.38833]},"properties":{"name":"대전 유성 장 N1지구","addr":null,"sgg":"30200","cap":null,"type":null,"src":"safekorea","asof":"2026-08-23"}},{"type":"Feature","geometry":{"type":"Point","coordinates":[127.38361,36.4075]},"properties":{"name":"대전 유성 화암 N1지구","addr":null,"sgg":"30200","cap":null,"type":null,"src":"safekorea","asof":"2026-08-23"}},{"type":"Feature","geometry":{"type":"Point","coordinates":[127.37694,36.38167]},"properties":{"name":"대전 유성 가정 N1지구","addr":null,"sgg":"30200","cap":null,"type":null,"src":"safekorea","asof":"2026-08-23"}},{"type":"Feature","geometry":{"type":"Point","coordinates":[127.37111,36.37028]},"properties":{"name":"대전 유성 구성 N1지구","addr":null,"sgg":"30200","cap":null,"type":null,"src":"safekorea","asof":"2026-08-23"}},{"type":"Feature","geometry":{"type":"Point","coordinates":[127.36833,36.37083]},"properties":{"name":"대전 유성 구성 N2지구","addr":null,"sgg":"30200","cap":null,"type":null,"src":"safekorea","asof":"2026-08-23"}},{"type":"Feature","geometry":{"type":"Point","coordinates":[127.36806,36.37139]},"properties":{"name":"대전 유성 구성 N3지구","addr":null,"sgg":"30200","cap":null,"type":null,"src":"safekorea","asof":"2026-08-23"}},{"type":"Feature","geometry":{"type":"Point","coordinates":[127.38667,36.45333]},"properties":{"name":"대전 유성 금고 N1지구","addr":null,"sgg":"30200","cap":null,"type":null,"src":"safekorea","asof":"2026-08-23"}},{"type":"Feature","geometry":{"type":"Point","coordinates":[127.38083,36.4375]},"properties":{"name":"대전 유성 송강 N1지구","addr":null,"sgg":"30200","cap":null,"type":"국공유지","src":"safekorea","asof":"2026-08-23"}},{"type":"Feature","geometry":{"type":"Point","coordinates":[127.30722,36.36944]},"properties":{"name":"대전 유성 노은 N1지구","addr":null,"sgg":"30200","cap":null,"type":"건설관리본부","src":"safekorea","asof":"2026-08-23"}},{"type":"Feature","geometry":{"type":"Point","coordinates":[127.31194,36.36694]},"properties":{"name":"대전 유성 노은 N2지구","addr":null,"sgg":"30200","cap":null,"type":"건설관리본부","src":"safekorea","asof":"2026-08-23"}},{"type":"Feature","geometry":{"type":"Point","coordinates":[127.30278,36.34778]},"properties":{"name":"대전 유성 덕명 N1지구","addr":null,"sgg":"30200","cap":null,"type":"한밭대학교","src":"safekorea","asof":"2026-08-23"}},{"type":"Feature","geometry":{"type":"Point","coordinates":[127.39444,36.37806]},"properties":{"name":"대전 유성 도룡 N1지구","addr":null,"sgg":"30200","cap":null,"type":"대전 건설관리본부 시설정비과","src":"safekorea","asof":"2026-08-23"}},{"type":"Feature","geometry":{"type":"Point","coordinates":[127.37,36.45278]},"properties":{"name":"대전 유성 둔곡 N1지구","addr":null,"sgg":"30200","cap":null,"type":"대전 건설관리본부시설정비과","src":"safekorea","asof":"2026-08-23"}},{"type":"Feature","geometry":{"type":"Point","coordinates":[127.32389,36.34611]},"properties":{"name":"대전 유성 복용 N1지구","addr":null,"sgg":"30200","cap":null,"type":"대전 건설관리본부재난안전과","src":"safekorea","asof":"2026-08-23"}},{"type":"Feature","geometry":{"type":"Point","coordinates":[127.38,36.38556]},"properties":{"name":"도룡동 산27-21번지","addr":null,"sgg":"30200","cap":null,"type":"개인","src":"safekorea","asof":"2026-08-23"}},{"type":"Feature","geometry":{"type":"Point","coordinates":[127.30639,36.40722]},"properties":{"name":"외삼동 421번지","addr":null,"sgg":"30200","cap":null,"type":"대전교통공사","src":"safekorea","asof":"2026-08-23"}},{"type":"Feature","geometry":{"type":"Point","coordinates":[127.32667,36.385]},"properties":{"name":"하기동 542번지(송림마을 4단지)","addr":null,"sgg":"30200","cap":null,"type":"대전충남지역본부","src":"safekorea","asof":"2026-08-23"}},{"type":"Feature","geometry":{"type":"Point","coordinates":[127.28306,36.34028]},"properties":{"name":"계룡12-18-01","addr":null,"sgg":"30200","cap":null,"type":"계룡산국립공원사무소","src":"safekorea","asof":"2026-08-23"}},{"type":"Feature","geometry":{"type":"Point","coordinates":[127.345,36.3375]},"properties":{"name":"대전 유성 원신흥 N1지구","addr":null,"sgg":"30200","cap":null,"type":null,"src":"safekorea","asof":"2026-08-23"}},{"type":"Feature","geometry":{"type":"Point","coordinates":[127.34611,36.33694]},"properties":{"name":"대전 유성 원신흥 N2지구","addr":null,"sgg":"30200","cap":null,"type":null,"src":"safekorea","asof":"2026-08-23"}},{"type":"Feature","geometry":{"type":"Point","coordinates":[127.36333,36.46806]},"properties":{"name":"대전 유성 둔곡 N2지구","addr":null,"sgg":"30200","cap":null,"type":null,"src":"safekorea","asof":"2026-08-23"}},{"type":"Feature","geometry":{"type":"Point","coordinates":[127.36472,36.465]},"properties":{"name":"대전 유성 둔곡 N3지구","addr":null,"sgg":"30200","cap":null,"type":null,"src":"safekorea","asof":"2026-08-23"}},{"type":"Feature","geometry":{"type":"Point","coordinates":[127.36611,36.45222]},"properties":{"name":"대전 유성 둔곡 N4지구","addr":null,"sgg":"30200","cap":null,"type":null,"src":"safekorea","asof":"2026-08-23"}},{"type":"Feature","geometry":{"type":"Point","coordinates":[127.385,36.42889]},"properties":{"name":"대전 유성 송강 N2지구","addr":null,"sgg":"30200","cap":null,"type":null,"src":"safekorea","asof":"2026-08-23"}},{"type":"Feature","geometry":{"type":"Point","coordinates":[127.37944,36.42222]},"properties":{"name":"대전 유성 덕진 N1지구","addr":null,"sgg":"30200","cap":null,"type":null,"src":"safekorea","asof":"2026-08-23"}},{"type":"Feature","geometry":{"type":"Point","coordinates":[127.37944,36.42333]},"properties":{"name":"대전 유성 덕진 N2지구","addr":null,"sgg":"30200","cap":null,"type":null,"src":"safekorea","asof":"2026-08-23"}},{"type":"Feature","geometry":{"type":"Point","coordinates":[127.37972,36.42361]},"properties":{"name":"대전 유성 송강 N3지구","addr":null,"sgg":"30200","cap":null,"type":null,"src":"safekorea","asof":"2026-08-23"}},{"type":"Feature","geometry":{"type":"Point","coordinates":[127.38,36.42556]},"properties":{"name":"대전 유성 송강 N4지구","addr":null,"sgg":"30200","cap":null,"type":null,"src":"safekorea","asof":"2026-08-23"}},{"type":"Feature","geometry":{"type":"Point","coordinates":[127.42056,36.42056]},"properties":{"name":"충청 경부23","addr":"경부선 155.720-155.950(상,좌)","sgg":"30230","cap":null,"type":"충청본부","src":"safekorea","asof":"2026-08-23"}},{"type":"Feature","geometry":{"type":"Point","coordinates":[127.41389,36.39444]},"properties":{"name":"충청 경부고속81","addr":null,"sgg":"30230","cap":null,"type":"충청본부","src":"safekorea","asof":"2026-08-23"}},{"type":"Feature","geometry":{"type":"Point","coordinates":[127.41583,36.38417]},"properties":{"name":"충청 경부33","addr":"경부선160.250-160.340(하,좌)","sgg":"30230","cap":null,"type":"충청본부","src":"safekorea","asof":"2026-08-23"}},{"type":"Feature","geometry":{"type":"Point","coordinates":[127.41722,36.35639]},"properties":{"name":"충청 경부35","addr":"경부선163.560-163.800(하,좌)","sgg":"30230","cap":null,"type":"충청본부","src":"safekorea","asof":"2026-08-23"}},{"type":"Feature","geometry":{"type":"Point","coordinates":[127.42056,36.42056]},"properties":{"name":"충청 경부22","addr":"경부선 155.720-155.950(상,우)","sgg":"30230","cap":null,"type":"충청본부","src":"safekorea","asof":"2026-08-23"}},{"type":"Feature","geometry":{"type":"Point","coordinates":[127.41583,36.38389]},"properties":{"name":"충청 경부31","addr":"경부선159.020-159.160(상,우)","sgg":"30230","cap":null,"type":"충청본부","src":"safekorea","asof":"2026-08-23"}},{"type":"Feature","geometry":{"type":"Point","coordinates":[127.41833,36.38139]},"properties":{"name":"충청 경부34","addr":"경부선160.400-160.650(하,좌)","sgg":"30230","cap":null,"type":"충청본부","src":"safekorea","asof":"2026-08-23"}},{"type":"Feature","geometry":{"type":"Point","coordinates":[127.41583,36.4275]},"properties":{"name":"충청 경부고속80","addr":null,"sgg":"30230","cap":null,"type":"충청본부","src":"safekorea","asof":"2026-08-23"}},{"type":"Feature","geometry":{"type":"Point","coordinates":[127.41639,36.43167]},"properties":{"name":"충청 경부고속78","addr":null,"sgg":"30230","cap":null,"type":"충청본부","src":"safekorea","asof":"2026-08-23"}},{"type":"Feature","geometry":{"type":"Point","coordinates":[127.42361,36.41694]},"properties":{"name":"충청 경부26","addr":"경부선 156.200-156.530(하,좌)","sgg":"30230","cap":null,"type":"충청본부","src":"safekorea","asof":"2026-08-23"}},{"type":"Feature","geometry":{"type":"Point","coordinates":[127.415,36.38472]},"properties":{"name":"충청 경부29","addr":"경부선158.850-159.005(하,좌)","sgg":"30230","cap":null,"type":"충청본부","src":"safekorea","asof":"2026-08-23"}},{"type":"Feature","geometry":{"type":"Point","coordinates":[127.41528,36.38417]},"properties":{"name":"충청 경부30","addr":"경부선159.010-159.160(하,좌)","sgg":"30230","cap":null,"type":"충청본부","src":"safekorea","asof":"2026-08-23"}},{"type":"Feature","geometry":{"type":"Point","coordinates":[127.41528,36.38944]},"properties":{"name":"충청 경부32","addr":"경부선159.510-159.600(하,좌)","sgg":"30230","cap":null,"type":"충청본부","src":"safekorea","asof":"2026-08-23"}},{"type":"Feature","geometry":{"type":"Point","coordinates":[127.4225,36.43]},"properties":{"name":"충청 경부19","addr":"경부선 153.970-154.150(상,우)","sgg":"30230","cap":null,"type":"충청본부","src":"safekorea","asof":"2026-08-23"}},{"type":"Feature","geometry":{"type":"Point","coordinates":[127.42222,36.42944]},"properties":{"name":"충청 경부20","addr":"경부선 155.160-155.360(상,우)","sgg":"30230","cap":null,"type":"충청본부","src":"safekorea","asof":"2026-08-23"}},{"type":"Feature","geometry":{"type":"Point","coordinates":[127.45583,36.44917]},"properties":{"name":"대전 대덕 삼정 N2지구","addr":null,"sgg":"30230","cap":null,"type":null,"src":"safekorea","asof":"2026-08-23"}},{"type":"Feature","geometry":{"type":"Point","coordinates":[127.41972,36.39111]},"properties":{"name":"대전 대덕 신대 N1지구","addr":null,"sgg":"30230","cap":null,"type":null,"src":"safekorea","asof":"2026-08-23"}},{"type":"Feature","geometry":{"type":"Point","coordinates":[127.43778,36.44611]},"properties":{"name":"대전 대덕 신탄진 N4지구","addr":null,"sgg":"30230","cap":null,"type":null,"src":"safekorea","asof":"2026-08-23"}},{"type":"Feature","geometry":{"type":"Point","coordinates":[127.43667,36.44806]},"properties":{"name":"대전 대덕 신탄진 N2지구","addr":null,"sgg":"30230","cap":null,"type":null,"src":"safekorea","asof":"2026-08-23"}},{"type":"Feature","geometry":{"type":"Point","coordinates":[127.40639,36.36028]},"properties":{"name":"대전 대덕 오정 N1지구","addr":null,"sgg":"30230","cap":null,"type":"건설과","src":"safekorea","asof":"2026-08-23"}},{"type":"Feature","geometry":{"type":"Point","coordinates":[127.41528,36.44528]},"properties":{"name":"대전 대덕 목상 N1지구","addr":null,"sgg":"30230","cap":null,"type":"대덕구","src":"safekorea","asof":"2026-08-23"}},{"type":"Feature","geometry":{"type":"Point","coordinates":[127.43056,36.40694]},"properties":{"name":"대전 대덕 와 N1지구","addr":null,"sgg":"30230","cap":null,"type":null,"src":"safekorea","asof":"2026-08-23"}},{"type":"Feature","geometry":{"type":"Point","coordinates":[127.42833,36.40389]},"properties":{"name":"대전 대덕 와 N2지구","addr":null,"sgg":"30230","cap":null,"type":null,"src":"safekorea","asof":"2026-08-23"}},{"type":"Feature","geometry":{"type":"Point","coordinates":[127.4425,36.44222]},"properties":{"name":"대전 대덕 용호 N1지구","addr":null,"sgg":"30230","cap":null,"type":null,"src":"safekorea","asof":"2026-08-23"}},{"type":"Feature","geometry":{"type":"Point","coordinates":[127.41667,36.37528]},"properties":{"name":"대전 대덕 읍내 N1지구","addr":null,"sgg":"30230","cap":null,"type":null,"src":"safekorea","asof":"2026-08-23"}},{"type":"Feature","geometry":{"type":"Point","coordinates":[127.44778,36.44861]},"properties":{"name":"대전 대덕 용호 N2지구","addr":null,"sgg":"30230","cap":null,"type":null,"src":"safekorea","asof":"2026-08-23"}},{"type":"Feature","geometry":{"type":"Point","coordinates":[127.45639,36.44944]},"properties":{"name":"대전 대덕 삼정 N3지구","addr":null,"sgg":"30230","cap":null,"type":null,"src":"safekorea","asof":"2026-08-23"}},{"type":"Feature","geometry":{"type":"Point","coordinates":[127.4275,36.44028]},"properties":{"name":"경부 153km480(우)","addr":"국가철도공단","sgg":"30230","cap":null,"type":null,"src":"safekorea","asof":"2026-08-23"}},{"type":"Feature","geometry":{"type":"Point","coordinates":[127.42361,36.41694]},"properties":{"name":"경부 156km200(좌)","addr":"국가철도공단","sgg":"30230","cap":null,"type":null,"src":"safekorea","asof":"2026-08-23"}},{"type":"Feature","geometry":{"type":"Point","coordinates":[127.41556,36.39278]},"properties":{"name":"경부 159km200(좌)","addr":"국가철도공단","sgg":"30230","cap":null,"type":null,"src":"safekorea","asof":"2026-08-23"}},{"type":"Feature","geometry":{"type":"Point","coordinates":[127.415,36.38472]},"properties":{"name":"경부 160km030(우)","addr":"국가철도공단","sgg":"30230","cap":null,"type":null,"src":"safekorea","asof":"2026-08-23"}},{"type":"Feature","geometry":{"type":"Point","coordinates":[127.41528,36.385]},"properties":{"name":"경부 160km050(좌)","addr":"국가철도공단","sgg":"30230","cap":null,"type":null,"src":"safekorea","asof":"2026-08-23"}},{"type":"Feature","geometry":{"type":"Point","coordinates":[127.41583,36.38333]},"properties":{"name":"경부 160km090(우)","addr":"국가철도공단","sgg":"30230","cap":null,"type":null,"src":"safekorea","asof":"2026-08-23"}},{"type":"Feature","geometry":{"type":"Point","coordinates":[127.41611,36.38333]},"properties":{"name":"경부 160km090(좌)","addr":"국가철도공단","sgg":"30230","cap":null,"type":null,"src":"safekorea","asof":"2026-08-23"}},{"type":"Feature","geometry":{"type":"Point","coordinates":[127.41639,36.38306]},"properties":{"name":"경부 160km200(좌)","addr":"국가철도공단","sgg":"30230","cap":null,"type":null,"src":"safekorea","asof":"2026-08-23"}},{"type":"Feature","geometry":{"type":"Point","coordinates":[127.41861,36.38111]},"properties":{"name":"경부 160km530(우)","addr":"국가철도공단","sgg":"30230","cap":null,"type":null,"src":"safekorea","asof":"2026-08-23"}},{"type":"Feature","geometry":{"type":"Point","coordinates":[127.45944,36.35333]},"properties":{"name":"대전 대덕 비래 N1지구","addr":null,"sgg":"30230","cap":null,"type":"대덕구","src":"safekorea","asof":"2026-08-23"}},{"type":"Feature","geometry":{"type":"Point","coordinates":[127.46556,36.44694]},"properties":{"name":"대전 대덕 삼정 N1지구","addr":null,"sgg":"30230","cap":null,"type":"대덕구","src":"safekorea","asof":"2026-08-23"}},{"type":"Feature","geometry":{"type":"Point","coordinates":[127.40944,36.42694]},"properties":{"name":"대전 대덕 신일 N1지구","addr":null,"sgg":"30230","cap":null,"type":"대덕구","src":"safekorea","asof":"2026-08-23"}},{"type":"Feature","geometry":{"type":"Point","coordinates":[127.43917,36.45222]},"properties":{"name":"대전 대덕 신탄진 N1지구","addr":null,"sgg":"30230","cap":null,"type":"대덕구","src":"safekorea","asof":"2026-08-23"}},{"type":"Feature","geometry":{"type":"Point","coordinates":[127.43778,36.44694]},"properties":{"name":"06-05-신탄진동-20","addr":"달송1길","sgg":"30230","cap":null,"type":"대전광역시 교육청","src":"safekorea","asof":"2026-08-23"}},{"type":"Feature","geometry":{"type":"Point","coordinates":[127.41611,36.43111]},"properties":{"name":"충청 경부고속79","addr":null,"sgg":"30230","cap":null,"type":"충청본부","src":"safekorea","asof":"2026-08-23"}},{"type":"Feature","geometry":{"type":"Point","coordinates":[127.42639,36.41111]},"properties":{"name":"충청 경부27","addr":"경부선156.620-156.755(하,좌)","sgg":"30230","cap":null,"type":"충청본부","src":"safekorea","asof":"2026-08-23"}},{"type":"Feature","geometry":{"type":"Point","coordinates":[127.42611,36.41111]},"properties":{"name":"충청 경부28","addr":"경부선156.950-157.080(하,좌)","sgg":"30230","cap":null,"type":"충청본부","src":"safekorea","asof":"2026-08-23"}},{"type":"Feature","geometry":{"type":"Point","coordinates":[127.42056,36.42056]},"properties":{"name":"충청 경부25","addr":"경부선 155.850-156.000(하,좌)","sgg":"30230","cap":null,"type":"충청본부","src":"safekorea","asof":"2026-08-23"}},{"type":"Feature","geometry":{"type":"Point","coordinates":[127.40167,36.36556]},"properties":{"name":"대전 대덕 대화 N1지구","addr":null,"sgg":"30230","cap":null,"type":null,"src":"safekorea","asof":"2026-08-23"}},{"type":"Feature","geometry":{"type":"Point","coordinates":[127.4025,36.36139]},"properties":{"name":"대전 대덕 대화 N2지구","addr":null,"sgg":"30230","cap":null,"type":null,"src":"safekorea","asof":"2026-08-23"}}]}