{"type":"FeatureCollection","features":[{"type":"Feature","geometry":{"type":"Point","coordinates":[127.28361,36.65556]},"properties":{"name":"종합시험선6","addr":null,"sgg":"36110","cap":null,"type":"충청본부","src":"safekorea","asof":"2026-08-23"}},{"type":"Feature","geometry":{"type":"Point","coordinates":[127.27,36.66361]},"properties":{"name":"충청 경부고속55","addr":"117km600~117km700(하좌)","sgg":"36110","cap":null,"type":"충청본부","src":"safekorea","asof":"2026-08-23"}},{"type":"Feature","geometry":{"type":"Point","coordinates":[127.41167,36.47083]},"properties":{"name":"충청 경부고속73","addr":null,"sgg":"36110","cap":null,"type":"충청본부","src":"safekorea","asof":"2026-08-23"}},{"type":"Feature","geometry":{"type":"Point","coordinates":[127.24722,36.51861]},"properties":{"name":"세종 아름 N1지구","addr":"아름동 867 건너편","sgg":"36110","cap":null,"type":"세종특별자치시청","src":"safekorea","asof":"2026-08-23"}},{"type":"Feature","geometry":{"type":"Point","coordinates":[127.41194,36.46972]},"properties":{"name":"충청 경부고속74","addr":null,"sgg":"36110","cap":null,"type":"충청본부","src":"safekorea","asof":"2026-08-23"}},{"type":"Feature","geometry":{"type":"Point","coordinates":[127.23389,36.51111]},"properties":{"name":"세종 고운 N1지구","addr":"고운고등학교 맞은편","sgg":"36110","cap":null,"type":"세종특별자치시청","src":"safekorea","asof":"2026-08-23"}},{"type":"Feature","geometry":{"type":"Point","coordinates":[127.27806,36.65833]},"properties":{"name":"종합시험선7","addr":null,"sgg":"36110","cap":null,"type":"충청본부","src":"safekorea","asof":"2026-08-23"}},{"type":"Feature","geometry":{"type":"Point","coordinates":[127.27556,36.66]},"properties":{"name":"종합시험선8","addr":null,"sgg":"36110","cap":null,"type":"충청본부","src":"safekorea","asof":"2026-08-23"}},{"type":"Feature","geometry":{"type":"Point","coordinates":[127.27028,36.66306]},"properties":{"name":"종합시험선9","addr":null,"sgg":"36110","cap":null,"type":"충청본부","src":"safekorea","asof":"2026-08-23"}},{"type":"Feature","geometry":{"type":"Point","coordinates":[127.26889,36.66361]},"properties":{"name":"종합시험선10","addr":null,"sgg":"36110","cap":null,"type":"충청본부","src":"safekorea","asof":"2026-08-23"}},{"type":"Feature","geometry":{"type":"Point","coordinates":[127.25944,36.66889]},"properties":{"name":"종합시험선11","addr":null,"sgg":"36110","cap":null,"type":"충청본부","src":"safekorea","asof":"2026-08-23"}},{"type":"Feature","geometry":{"type":"Point","coordinates":[127.25528,36.67083]},"properties":{"name":"종합시험선12","addr":null,"sgg":"36110","cap":null,"type":"충청본부","src":"safekorea","asof":"2026-08-23"}},{"type":"Feature","geometry":{"type":"Point","coordinates":[127.24722,36.66722]},"properties":{"name":"종합시험선13","addr":null,"sgg":"36110","cap":null,"type":"충청본부","src":"safekorea","asof":"2026-08-23"}},{"type":"Feature","geometry":{"type":"Point","coordinates":[127.29111,36.47333]},"properties":{"name":"세종 보람 N1지구","addr":null,"sgg":"36110","cap":null,"type":"한국토지주택공사","src":"safekorea","asof":"2026-08-23"}},{"type":"Feature","geometry":{"type":"Point","coordinates":[127.23639,36.49667]},"properties":{"name":"세종 다정 N1지구","addr":null,"sgg":"36110","cap":null,"type":"한국토지주택공사","src":"safekorea","asof":"2026-08-23"}},{"type":"Feature","geometry":{"type":"Point","coordinates":[127.31444,36.47444]},"properties":{"name":"충청 호남고속8","addr":null,"sgg":"36110","cap":null,"type":"충청본부","src":"safekorea","asof":"2026-08-23"}},{"type":"Feature","geometry":{"type":"Point","coordinates":[127.33861,36.49361]},"properties":{"name":"충청 호남고속6","addr":null,"sgg":"36110","cap":null,"type":"충청본부","src":"safekorea","asof":"2026-08-23"}},{"type":"Feature","geometry":{"type":"Point","coordinates":[127.32861,36.48361]},"properties":{"name":"충청 호남고속7","addr":null,"sgg":"36110","cap":null,"type":"충청본부","src":"safekorea","asof":"2026-08-23"}},{"type":"Feature","geometry":{"type":"Point","coordinates":[127.26083,36.66861]},"properties":{"name":"충청 경부고속53","addr":"116km350~116km550(상우)","sgg":"36110","cap":null,"type":"충청본부","src":"safekorea","asof":"2026-08-23"}},{"type":"Feature","geometry":{"type":"Point","coordinates":[127.1975,36.70306]},"properties":{"name":"충청 경부고속46","addr":"109km680~109km780(상우)","sgg":"36110","cap":null,"type":"충청본부","src":"safekorea","asof":"2026-08-23"}},{"type":"Feature","geometry":{"type":"Point","coordinates":[127.205,36.69917]},"properties":{"name":"충청 경부고속48","addr":"110km500~110km650(상우)","sgg":"36110","cap":null,"type":"충청본부","src":"safekorea","asof":"2026-08-23"}},{"type":"Feature","geometry":{"type":"Point","coordinates":[127.3325,36.54583]},"properties":{"name":"충청 경부17","addr":"경부선 136.900-137.100(상,좌)","sgg":"36110","cap":null,"type":"충청본부","src":"safekorea","asof":"2026-08-23"}},{"type":"Feature","geometry":{"type":"Point","coordinates":[127.27917,36.65861]},"properties":{"name":"충청 경부고속56","addr":"118km500~118km540(하좌)","sgg":"36110","cap":null,"type":"충청본부","src":"safekorea","asof":"2026-08-23"}},{"type":"Feature","geometry":{"type":"Point","coordinates":[127.1975,36.70306]},"properties":{"name":"충청 경부고속47","addr":"109km660~109km780(하좌)","sgg":"36110","cap":null,"type":"충청본부","src":"safekorea","asof":"2026-08-23"}},{"type":"Feature","geometry":{"type":"Point","coordinates":[127.25639,36.67111]},"properties":{"name":"충청 경부고속52","addr":"116km040~116km300(하좌)","sgg":"36110","cap":null,"type":"충청본부","src":"safekorea","asof":"2026-08-23"}},{"type":"Feature","geometry":{"type":"Point","coordinates":[127.21194,36.69528]},"properties":{"name":"충청 경부고속50","addr":"111km305~111km405(상우)","sgg":"36110","cap":null,"type":"충청본부","src":"safekorea","asof":"2026-08-23"}},{"type":"Feature","geometry":{"type":"Point","coordinates":[127.26056,36.66861]},"properties":{"name":"충청 경부고속54","addr":"116km350~116km550(하좌)","sgg":"36110","cap":null,"type":"충청본부","src":"safekorea","asof":"2026-08-23"}},{"type":"Feature","geometry":{"type":"Point","coordinates":[127.16306,36.69028]},"properties":{"name":"충청 경부13","addr":"경부선 111.600-111.700(하,좌)","sgg":"36110","cap":null,"type":"충청본부","src":"safekorea","asof":"2026-08-23"}},{"type":"Feature","geometry":{"type":"Point","coordinates":[127.22528,36.65778]},"properties":{"name":"충청 경부15","addr":"경부선 118.655-118.730(하,좌)","sgg":"36110","cap":null,"type":"충청본부","src":"safekorea","asof":"2026-08-23"}},{"type":"Feature","geometry":{"type":"Point","coordinates":[127.33222,36.54583]},"properties":{"name":"충청 경부16","addr":"경부선 136.900-137.100(상,우)","sgg":"36110","cap":null,"type":"충청본부","src":"safekorea","asof":"2026-08-23"}},{"type":"Feature","geometry":{"type":"Point","coordinates":[127.30694,36.51361]},"properties":{"name":"세종지구","addr":null,"sgg":"36110","cap":null,"type":"한국토지주택공사","src":"safekorea","asof":"2026-08-23"}},{"type":"Feature","geometry":{"type":"Point","coordinates":[127.155,36.69972]},"properties":{"name":"충청 경부12","addr":"경부선 109.300-109.400(하,좌)","sgg":"36110","cap":null,"type":"충청본부","src":"safekorea","asof":"2026-08-23"}},{"type":"Feature","geometry":{"type":"Point","coordinates":[127.35083,36.51861]},"properties":{"name":"충청 호남고속4","addr":null,"sgg":"36110","cap":null,"type":"충청본부","src":"safekorea","asof":"2026-08-23"}},{"type":"Feature","geometry":{"type":"Point","coordinates":[127.25667,36.48028]},"properties":{"name":"한솔뜰 근린공원","addr":"세종특별자치시 세종시 노을3로 60","sgg":"36110","cap":null,"type":"지자체","src":"safekorea","asof":"2026-08-23"}},{"type":"Feature","geometry":{"type":"Point","coordinates":[127.25167,36.52139]},"properties":{"name":"오가낭뜰 근린공원","addr":null,"sgg":"36110","cap":null,"type":"지자체","src":"safekorea","asof":"2026-08-23"}},{"type":"Feature","geometry":{"type":"Point","coordinates":[127.23889,36.52028]},"properties":{"name":"주택지사면","addr":null,"sgg":"36110","cap":null,"type":"한국토지주택공사","src":"safekorea","asof":"2026-08-23"}},{"type":"Feature","geometry":{"type":"Point","coordinates":[127.26861,36.49667]},"properties":{"name":"안뜰 근린공원(근1-18)","addr":null,"sgg":"36110","cap":null,"type":"지자체","src":"safekorea","asof":"2026-08-23"}},{"type":"Feature","geometry":{"type":"Point","coordinates":[127.39389,36.53139]},"properties":{"name":"충청 경부고속72","addr":null,"sgg":"36110","cap":null,"type":"충청본부","src":"safekorea","asof":"2026-08-23"}},{"type":"Feature","geometry":{"type":"Point","coordinates":[127.36028,36.49028]},"properties":{"name":"박산지구-1","addr":null,"sgg":"36110","cap":null,"type":"충남지역본부 세종대전금산지사","src":"safekorea","asof":"2026-08-23"}},{"type":"Feature","geometry":{"type":"Point","coordinates":[127.29,36.4275]},"properties":{"name":"세종 금남 두만 N1지구","addr":null,"sgg":"36110","cap":null,"type":null,"src":"safekorea","asof":"2026-08-23"}},{"type":"Feature","geometry":{"type":"Point","coordinates":[127.20528,36.71083]},"properties":{"name":"세종 전의 관정 N1지구","addr":null,"sgg":"36110","cap":null,"type":null,"src":"safekorea","asof":"2026-08-23"}},{"type":"Feature","geometry":{"type":"Point","coordinates":[127.39056,36.53417]},"properties":{"name":"세종 부강 문곡 N1지구","addr":null,"sgg":"36110","cap":null,"type":null,"src":"safekorea","asof":"2026-08-23"}},{"type":"Feature","geometry":{"type":"Point","coordinates":[127.40361,36.52917]},"properties":{"name":"세종 부강 문곡 N2지구","addr":null,"sgg":"36110","cap":null,"type":null,"src":"safekorea","asof":"2026-08-23"}},{"type":"Feature","geometry":{"type":"Point","coordinates":[127.27167,36.60306]},"properties":{"name":"세종 조치원 봉산 N1지구","addr":null,"sgg":"36110","cap":null,"type":null,"src":"safekorea","asof":"2026-08-23"}},{"type":"Feature","geometry":{"type":"Point","coordinates":[127.3625,36.54056]},"properties":{"name":"세종 부강 갈산 N1지구","addr":null,"sgg":"36110","cap":null,"type":null,"src":"safekorea","asof":"2026-08-23"}},{"type":"Feature","geometry":{"type":"Point","coordinates":[127.3675,36.54278]},"properties":{"name":"세종 부강 갈산 N2지구","addr":null,"sgg":"36110","cap":null,"type":null,"src":"safekorea","asof":"2026-08-23"}},{"type":"Feature","geometry":{"type":"Point","coordinates":[127.35278,36.50361]},"properties":{"name":"세종 금남 부용 N1지구","addr":null,"sgg":"36110","cap":null,"type":null,"src":"safekorea","asof":"2026-08-23"}},{"type":"Feature","geometry":{"type":"Point","coordinates":[127.37556,36.49556]},"properties":{"name":"세종 부강 금호 N3지구","addr":null,"sgg":"36110","cap":null,"type":null,"src":"safekorea","asof":"2026-08-23"}},{"type":"Feature","geometry":{"type":"Point","coordinates":[127.25222,36.515]},"properties":{"name":"세종 도담 N1지구","addr":null,"sgg":"36110","cap":null,"type":null,"src":"safekorea","asof":"2026-08-23"}},{"type":"Feature","geometry":{"type":"Point","coordinates":[127.24667,36.51861]},"properties":{"name":"세종 아름 N1지구","addr":null,"sgg":"36110","cap":null,"type":null,"src":"safekorea","asof":"2026-08-23"}},{"type":"Feature","geometry":{"type":"Point","coordinates":[127.25444,36.51306]},"properties":{"name":"세종 도담 N2지구","addr":null,"sgg":"36110","cap":null,"type":null,"src":"safekorea","asof":"2026-08-23"}},{"type":"Feature","geometry":{"type":"Point","coordinates":[127.25389,36.51167]},"properties":{"name":"세종 도담 N3지구","addr":null,"sgg":"36110","cap":null,"type":null,"src":"safekorea","asof":"2026-08-23"}},{"type":"Feature","geometry":{"type":"Point","coordinates":[127.23417,36.51028]},"properties":{"name":"세종 고운 N3지구","addr":null,"sgg":"36110","cap":null,"type":null,"src":"safekorea","asof":"2026-08-23"}},{"type":"Feature","geometry":{"type":"Point","coordinates":[127.23583,36.49722]},"properties":{"name":"세종 다정 N1지구","addr":null,"sgg":"36110","cap":null,"type":null,"src":"safekorea","asof":"2026-08-23"}},{"type":"Feature","geometry":{"type":"Point","coordinates":[127.29056,36.47361]},"properties":{"name":"세종 보람 N1지구","addr":null,"sgg":"36110","cap":null,"type":null,"src":"safekorea","asof":"2026-08-23"}},{"type":"Feature","geometry":{"type":"Point","coordinates":[127.31667,36.47778]},"properties":{"name":"세종 금남 황용 N1지구","addr":null,"sgg":"36110","cap":null,"type":null,"src":"safekorea","asof":"2026-08-23"}},{"type":"Feature","geometry":{"type":"Point","coordinates":[127.31361,36.47722]},"properties":{"name":"세종 금남 황용 N2지구","addr":null,"sgg":"36110","cap":null,"type":null,"src":"safekorea","asof":"2026-08-23"}},{"type":"Feature","geometry":{"type":"Point","coordinates":[127.32694,36.475]},"properties":{"name":"세종 금남 황용 N4지구","addr":null,"sgg":"36110","cap":null,"type":null,"src":"safekorea","asof":"2026-08-23"}},{"type":"Feature","geometry":{"type":"Point","coordinates":[127.33194,36.47444]},"properties":{"name":"세종 금남 황용 N3지구","addr":null,"sgg":"36110","cap":null,"type":null,"src":"safekorea","asof":"2026-08-23"}},{"type":"Feature","geometry":{"type":"Point","coordinates":[127.37611,36.49639]},"properties":{"name":"세종 부강 금호 N2지구","addr":null,"sgg":"36110","cap":null,"type":null,"src":"safekorea","asof":"2026-08-23"}},{"type":"Feature","geometry":{"type":"Point","coordinates":[127.25167,36.4475]},"properties":{"name":"세종 금남 원봉 N1지구","addr":null,"sgg":"36110","cap":null,"type":null,"src":"safekorea","asof":"2026-08-23"}},{"type":"Feature","geometry":{"type":"Point","coordinates":[127.3575,36.46806]},"properties":{"name":"세종 금남 달전 N1지구","addr":null,"sgg":"36110","cap":null,"type":"세종특별자치시","src":"safekorea","asof":"2026-08-23"}},{"type":"Feature","geometry":{"type":"Point","coordinates":[127.37694,36.49778]},"properties":{"name":"세종 부강 금호 N4지구","addr":null,"sgg":"36110","cap":null,"type":null,"src":"safekorea","asof":"2026-08-23"}},{"type":"Feature","geometry":{"type":"Point","coordinates":[127.19444,36.53028]},"properties":{"name":"평기1지구","addr":null,"sgg":"36110","cap":null,"type":"세종특별자치시","src":"safekorea","asof":"2026-08-23"}},{"type":"Feature","geometry":{"type":"Point","coordinates":[127.15167,36.70694]},"properties":{"name":"경부 109km330(좌)","addr":"국가철도공단","sgg":"36110","cap":null,"type":"충청본부","src":"safekorea","asof":"2026-08-23"}},{"type":"Feature","geometry":{"type":"Point","coordinates":[127.15528,36.69944]},"properties":{"name":"경부 110km150(좌)","addr":"국가철도공단","sgg":"36110","cap":null,"type":null,"src":"safekorea","asof":"2026-08-23"}},{"type":"Feature","geometry":{"type":"Point","coordinates":[127.15944,36.69472]},"properties":{"name":"경부 110km750(좌)","addr":"국가철도공단","sgg":"36110","cap":null,"type":null,"src":"safekorea","asof":"2026-08-23"}},{"type":"Feature","geometry":{"type":"Point","coordinates":[127.16444,36.68889]},"properties":{"name":"경부 111km390(좌)","addr":"국가철도공단","sgg":"36110","cap":null,"type":"충청본부","src":"safekorea","asof":"2026-08-23"}},{"type":"Feature","geometry":{"type":"Point","coordinates":[127.21833,36.65917]},"properties":{"name":"경부 117km720(중)","addr":"국가철도공단","sgg":"36110","cap":null,"type":null,"src":"safekorea","asof":"2026-08-23"}},{"type":"Feature","geometry":{"type":"Point","coordinates":[127.22083,36.65778]},"properties":{"name":"경부 117km880(중)","addr":"국가철도공단","sgg":"36110","cap":null,"type":null,"src":"safekorea","asof":"2026-08-23"}},{"type":"Feature","geometry":{"type":"Point","coordinates":[127.2225,36.6575]},"properties":{"name":"경부 118km020(중)","addr":"국가철도공단","sgg":"36110","cap":null,"type":null,"src":"safekorea","asof":"2026-08-23"}},{"type":"Feature","geometry":{"type":"Point","coordinates":[127.22333,36.6575]},"properties":{"name":"경부 118km100(좌)","addr":"국가철도공단","sgg":"36110","cap":null,"type":null,"src":"safekorea","asof":"2026-08-23"}},{"type":"Feature","geometry":{"type":"Point","coordinates":[127.37306,36.52944]},"properties":{"name":"경부 140km030(좌)","addr":"국가철도공단","sgg":"36110","cap":null,"type":null,"src":"safekorea","asof":"2026-08-23"}},{"type":"Feature","geometry":{"type":"Point","coordinates":[127.37389,36.52333]},"properties":{"name":"경부 141km600(좌)","addr":"국가철도공단","sgg":"36110","cap":null,"type":null,"src":"safekorea","asof":"2026-08-23"}},{"type":"Feature","geometry":{"type":"Point","coordinates":[127.37722,36.51917]},"properties":{"name":"경부 142km310(좌)","addr":"국가철도공단","sgg":"36110","cap":null,"type":null,"src":"safekorea","asof":"2026-08-23"}},{"type":"Feature","geometry":{"type":"Point","coordinates":[127.37917,36.51639]},"properties":{"name":"경부 142km610(우)","addr":"국가철도공단","sgg":"36110","cap":null,"type":null,"src":"safekorea","asof":"2026-08-23"}},{"type":"Feature","geometry":{"type":"Point","coordinates":[127.37639,36.51944]},"properties":{"name":"경부 142km150(우)","addr":"국가철도공단","sgg":"36110","cap":null,"type":null,"src":"safekorea","asof":"2026-08-23"}},{"type":"Feature","geometry":{"type":"Point","coordinates":[127.38556,36.50722]},"properties":{"name":"경부 143km890(좌)","addr":"국가철도공단","sgg":"36110","cap":null,"type":null,"src":"safekorea","asof":"2026-08-23"}},{"type":"Feature","geometry":{"type":"Point","coordinates":[127.38722,36.50306]},"properties":{"name":"경부 144km350(좌)","addr":"국가철도공단","sgg":"36110","cap":null,"type":null,"src":"safekorea","asof":"2026-08-23"}},{"type":"Feature","geometry":{"type":"Point","coordinates":[127.23778,36.47139]},"properties":{"name":"세종 가람 N1지구","addr":null,"sgg":"36110","cap":null,"type":"한국토지주택공사 세종특별본부","src":"safekorea","asof":"2026-08-23"}},{"type":"Feature","geometry":{"type":"Point","coordinates":[127.23194,36.50111]},"properties":{"name":"세종 고운 N1지구","addr":null,"sgg":"36110","cap":null,"type":"한국토지주택공사 세종특별본부","src":"safekorea","asof":"2026-08-23"}},{"type":"Feature","geometry":{"type":"Point","coordinates":[127.2325,36.50306]},"properties":{"name":"세종 고운 N2지구","addr":null,"sgg":"36110","cap":null,"type":"한국토지주택공사 세종특별본부","src":"safekorea","asof":"2026-08-23"}},{"type":"Feature","geometry":{"type":"Point","coordinates":[127.29861,36.51944]},"properties":{"name":"세종 연기 세종 N1지구","addr":null,"sgg":"36110","cap":null,"type":"지자체","src":"safekorea","asof":"2026-08-23"}},{"type":"Feature","geometry":{"type":"Point","coordinates":[127.36833,36.51444]},"properties":{"name":"세종 부강 금호 N1지구","addr":null,"sgg":"36110","cap":null,"type":"지자체","src":"safekorea","asof":"2026-08-23"}},{"type":"Feature","geometry":{"type":"Point","coordinates":[127.36833,36.51583]},"properties":{"name":"세종 부강 부강 N1지구","addr":null,"sgg":"36110","cap":null,"type":"지자체","src":"safekorea","asof":"2026-08-23"}},{"type":"Feature","geometry":{"type":"Point","coordinates":[127.18389,36.72]},"properties":{"name":"세종 소정 대곡 N1지구","addr":null,"sgg":"36110","cap":null,"type":"지자체","src":"safekorea","asof":"2026-08-23"}},{"type":"Feature","geometry":{"type":"Point","coordinates":[127.16917,36.7275]},"properties":{"name":"세종 소정 대곡 N2지구","addr":null,"sgg":"36110","cap":null,"type":"지자체","src":"safekorea","asof":"2026-08-23"}},{"type":"Feature","geometry":{"type":"Point","coordinates":[127.20917,36.44222]},"properties":{"name":"세종 장군 금암 N1지구","addr":null,"sgg":"36110","cap":null,"type":"지자체","src":"safekorea","asof":"2026-08-23"}},{"type":"Feature","geometry":{"type":"Point","coordinates":[127.21028,36.44361]},"properties":{"name":"세종 장군 금암 N2지구","addr":null,"sgg":"36110","cap":null,"type":"지자체","src":"safekorea","asof":"2026-08-23"}},{"type":"Feature","geometry":{"type":"Point","coordinates":[127.21028,36.44917]},"properties":{"name":"세종 장군 금암 N3지구","addr":null,"sgg":"36110","cap":null,"type":"지자체","src":"safekorea","asof":"2026-08-23"}},{"type":"Feature","geometry":{"type":"Point","coordinates":[127.28917,36.66306]},"properties":{"name":"세종 전동 심중 N1지구","addr":null,"sgg":"36110","cap":null,"type":"지자체","src":"safekorea","asof":"2026-08-23"}},{"type":"Feature","geometry":{"type":"Point","coordinates":[127.30472,36.67389]},"properties":{"name":"세종 전동 심중 N2지구","addr":null,"sgg":"36110","cap":null,"type":"지자체","src":"safekorea","asof":"2026-08-23"}},{"type":"Feature","geometry":{"type":"Point","coordinates":[127.16389,36.63694]},"properties":{"name":"세종 전의 양곡 N1지구","addr":null,"sgg":"36110","cap":null,"type":"지자체","src":"safekorea","asof":"2026-08-23"}},{"type":"Feature","geometry":{"type":"Point","coordinates":[127.35861,36.49083]},"properties":{"name":"박산지구-2","addr":null,"sgg":"36110","cap":null,"type":"충남지역본부 세종대전금산지사","src":"safekorea","asof":"2026-08-23"}},{"type":"Feature","geometry":{"type":"Point","coordinates":[127.35722,36.49167]},"properties":{"name":"박산지구-3","addr":null,"sgg":"36110","cap":null,"type":"충남지역본부 세종대전금산지사","src":"safekorea","asof":"2026-08-23"}},{"type":"Feature","geometry":{"type":"Point","coordinates":[127.20972,36.675]},"properties":{"name":"충청 경부14","addr":"경부선 116.000-116.200(하,좌)","sgg":"36110","cap":null,"type":"충청본부","src":"safekorea","asof":"2026-08-23"}},{"type":"Feature","geometry":{"type":"Point","coordinates":[127.33389,36.54444]},"properties":{"name":"충청 경부18","addr":"경부선 137.100-137.130(하,좌)","sgg":"36110","cap":null,"type":"충청본부","src":"safekorea","asof":"2026-08-23"}},{"type":"Feature","geometry":{"type":"Point","coordinates":[127.25639,36.67111]},"properties":{"name":"충청 경부고속51","addr":"116km040~116km300(상우)","sgg":"36110","cap":null,"type":"한국철도시설공단 충청본부","src":"safekorea","asof":"2026-08-23"}},{"type":"Feature","geometry":{"type":"Point","coordinates":[127.20472,36.69917]},"properties":{"name":"충청 경부고속49","addr":"110km495~110km650(하좌)","sgg":"36110","cap":null,"type":"충청본부","src":"safekorea","asof":"2026-08-23"}},{"type":"Feature","geometry":{"type":"Point","coordinates":[127.35861,36.54389]},"properties":{"name":"충청 호남고속3","addr":null,"sgg":"36110","cap":null,"type":"충청본부","src":"safekorea","asof":"2026-08-23"}},{"type":"Feature","geometry":{"type":"Point","coordinates":[127.34889,36.51278]},"properties":{"name":"충청 호남고속5","addr":null,"sgg":"36110","cap":null,"type":"충청본부","src":"safekorea","asof":"2026-08-23"}},{"type":"Feature","geometry":{"type":"Point","coordinates":[127.28778,36.44361]},"properties":{"name":"세종 금남 감성 N1지구","addr":"도로관리사업소","sgg":"36110","cap":null,"type":null,"src":"safekorea","asof":"2026-08-23"}},{"type":"Feature","geometry":{"type":"Point","coordinates":[127.31917,36.44056]},"properties":{"name":"세종 금남 금천 N1지구","addr":"도로관리사업소","sgg":"36110","cap":null,"type":null,"src":"safekorea","asof":"2026-08-23"}},{"type":"Feature","geometry":{"type":"Point","coordinates":[127.32167,36.44222]},"properties":{"name":"세종 금남 금천 N2지구","addr":"도로관리사업소","sgg":"36110","cap":null,"type":null,"src":"safekorea","asof":"2026-08-23"}},{"type":"Feature","geometry":{"type":"Point","coordinates":[127.25417,36.41194]},"properties":{"name":"세종 금남 성강 N1지구","addr":"금남면","sgg":"36110","cap":null,"type":null,"src":"safekorea","asof":"2026-08-23"}},{"type":"Feature","geometry":{"type":"Point","coordinates":[127.25139,36.42167]},"properties":{"name":"세종 금남 성강 N2지구","addr":"금남면","sgg":"36110","cap":null,"type":null,"src":"safekorea","asof":"2026-08-23"}},{"type":"Feature","geometry":{"type":"Point","coordinates":[127.25,36.42389]},"properties":{"name":"세종 금남 성강 N3지구","addr":"금남면","sgg":"36110","cap":null,"type":null,"src":"safekorea","asof":"2026-08-23"}},{"type":"Feature","geometry":{"type":"Point","coordinates":[127.24806,36.4275]},"properties":{"name":"세종 금남 성강 N4지구","addr":"금남면","sgg":"36110","cap":null,"type":null,"src":"safekorea","asof":"2026-08-23"}},{"type":"Feature","geometry":{"type":"Point","coordinates":[127.25111,36.40694]},"properties":{"name":"세종 금남 성강 N5지구","addr":"금남면","sgg":"36110","cap":null,"type":null,"src":"safekorea","asof":"2026-08-23"}},{"type":"Feature","geometry":{"type":"Point","coordinates":[127.33167,36.4575]},"properties":{"name":"세종 금남 영대 N1지구","addr":"도로관리사업소","sgg":"36110","cap":null,"type":null,"src":"safekorea","asof":"2026-08-23"}},{"type":"Feature","geometry":{"type":"Point","coordinates":[127.29722,36.44028]},"properties":{"name":"세종 금남 축산 N1지구","addr":"도로관리사업소","sgg":"36110","cap":null,"type":null,"src":"safekorea","asof":"2026-08-23"}},{"type":"Feature","geometry":{"type":"Point","coordinates":[127.32278,36.47278]},"properties":{"name":"세종 금남 황용 N5지구","addr":"금남면","sgg":"36110","cap":null,"type":null,"src":"safekorea","asof":"2026-08-23"}},{"type":"Feature","geometry":{"type":"Point","coordinates":[127.3825,36.51417]},"properties":{"name":"세종 부강 등곡 N1지구","addr":"도로관리사업소","sgg":"36110","cap":null,"type":null,"src":"safekorea","asof":"2026-08-23"}},{"type":"Feature","geometry":{"type":"Point","coordinates":[127.38583,36.50917]},"properties":{"name":"세종 부강 등곡 N2지구","addr":"부강면","sgg":"36110","cap":null,"type":null,"src":"safekorea","asof":"2026-08-23"}},{"type":"Feature","geometry":{"type":"Point","coordinates":[127.38944,36.51194]},"properties":{"name":"세종 부강 등곡 N3지구","addr":"부강면","sgg":"36110","cap":null,"type":null,"src":"safekorea","asof":"2026-08-23"}},{"type":"Feature","geometry":{"type":"Point","coordinates":[127.38194,36.50194]},"properties":{"name":"세종 부강 등곡 N4지구","addr":"도로관리사업소","sgg":"36110","cap":null,"type":null,"src":"safekorea","asof":"2026-08-23"}},{"type":"Feature","geometry":{"type":"Point","coordinates":[127.37611,36.52722]},"properties":{"name":"세종 부강 문곡 N10지구","addr":"부강면","sgg":"36110","cap":null,"type":null,"src":"safekorea","asof":"2026-08-23"}},{"type":"Feature","geometry":{"type":"Point","coordinates":[127.37722,36.52722]},"properties":{"name":"세종 부강 문곡 N11지구","addr":"부강면","sgg":"36110","cap":null,"type":null,"src":"safekorea","asof":"2026-08-23"}},{"type":"Feature","geometry":{"type":"Point","coordinates":[127.38389,36.52917]},"properties":{"name":"세종 부강 문곡 N12지구","addr":"부강면","sgg":"36110","cap":null,"type":null,"src":"safekorea","asof":"2026-08-23"}},{"type":"Feature","geometry":{"type":"Point","coordinates":[127.39306,36.5275]},"properties":{"name":"세종 부강 문곡 N13지구","addr":"부강면","sgg":"36110","cap":null,"type":null,"src":"safekorea","asof":"2026-08-23"}},{"type":"Feature","geometry":{"type":"Point","coordinates":[127.38306,36.52889]},"properties":{"name":"세종 부강 문곡 N14지구","addr":"부강면","sgg":"36110","cap":null,"type":null,"src":"safekorea","asof":"2026-08-23"}},{"type":"Feature","geometry":{"type":"Point","coordinates":[127.38889,36.53778]},"properties":{"name":"세종 부강 문곡 N15지구","addr":"부강면","sgg":"36110","cap":null,"type":null,"src":"safekorea","asof":"2026-08-23"}},{"type":"Feature","geometry":{"type":"Point","coordinates":[127.38861,36.54028]},"properties":{"name":"세종 부강 문곡 N16지구","addr":"부강면","sgg":"36110","cap":null,"type":null,"src":"safekorea","asof":"2026-08-23"}},{"type":"Feature","geometry":{"type":"Point","coordinates":[127.38806,36.54]},"properties":{"name":"세종 부강 문곡 N17지구","addr":"부강면","sgg":"36110","cap":null,"type":null,"src":"safekorea","asof":"2026-08-23"}},{"type":"Feature","geometry":{"type":"Point","coordinates":[127.37833,36.52778]},"properties":{"name":"세종 부강 문곡 N18지구","addr":"부강면","sgg":"36110","cap":null,"type":null,"src":"safekorea","asof":"2026-08-23"}},{"type":"Feature","geometry":{"type":"Point","coordinates":[127.37556,36.52667]},"properties":{"name":"세종 부강 문곡 N3지구","addr":"도로관리사업소","sgg":"36110","cap":null,"type":null,"src":"safekorea","asof":"2026-08-23"}},{"type":"Feature","geometry":{"type":"Point","coordinates":[127.39389,36.52667]},"properties":{"name":"세종 부강 문곡 N4지구","addr":"부강면","sgg":"36110","cap":null,"type":null,"src":"safekorea","asof":"2026-08-23"}},{"type":"Feature","geometry":{"type":"Point","coordinates":[127.37833,36.52722]},"properties":{"name":"세종 부강 문곡 N5지구","addr":"도로관리사업소","sgg":"36110","cap":null,"type":null,"src":"safekorea","asof":"2026-08-23"}},{"type":"Feature","geometry":{"type":"Point","coordinates":[127.40417,36.52694]},"properties":{"name":"세종 부강 문곡 N6지구","addr":"부강면","sgg":"36110","cap":null,"type":null,"src":"safekorea","asof":"2026-08-23"}},{"type":"Feature","geometry":{"type":"Point","coordinates":[127.40667,36.52917]},"properties":{"name":"세종 부강 문곡 N7지구","addr":"도로관리사업소","sgg":"36110","cap":null,"type":null,"src":"safekorea","asof":"2026-08-23"}},{"type":"Feature","geometry":{"type":"Point","coordinates":[127.40694,36.5275]},"properties":{"name":"세종 부강 문곡 N8지구","addr":"부강면","sgg":"36110","cap":null,"type":null,"src":"safekorea","asof":"2026-08-23"}},{"type":"Feature","geometry":{"type":"Point","coordinates":[127.40778,36.52861]},"properties":{"name":"세종 부강 문곡 N9지구","addr":"부강면","sgg":"36110","cap":null,"type":null,"src":"safekorea","asof":"2026-08-23"}},{"type":"Feature","geometry":{"type":"Point","coordinates":[127.37528,36.52417]},"properties":{"name":"세종 부강 부강 N4지구","addr":"도로관리사업소","sgg":"36110","cap":null,"type":null,"src":"safekorea","asof":"2026-08-23"}},{"type":"Feature","geometry":{"type":"Point","coordinates":[127.37139,36.54778]},"properties":{"name":"세종 부강 행산 N1지구","addr":"부강면","sgg":"36110","cap":null,"type":null,"src":"safekorea","asof":"2026-08-23"}},{"type":"Feature","geometry":{"type":"Point","coordinates":[127.27444,36.50611]},"properties":{"name":"세종 세종 N1지구","addr":"한국토지주택공사","sgg":"36110","cap":null,"type":null,"src":"safekorea","asof":"2026-08-23"}},{"type":"Feature","geometry":{"type":"Point","coordinates":[127.26833,36.49417]},"properties":{"name":"세종 세종 N2지구","addr":"세종시 시설관리공단","sgg":"36110","cap":null,"type":null,"src":"safekorea","asof":"2026-08-23"}},{"type":"Feature","geometry":{"type":"Point","coordinates":[127.16944,36.73056]},"properties":{"name":"세종 소정 대곡 N3지구","addr":"소정면","sgg":"36110","cap":null,"type":null,"src":"safekorea","asof":"2026-08-23"}},{"type":"Feature","geometry":{"type":"Point","coordinates":[127.24417,36.60806]},"properties":{"name":"세종 연서 고복 N1지구","addr":"한국농어촌공사","sgg":"36110","cap":null,"type":null,"src":"safekorea","asof":"2026-08-23"}},{"type":"Feature","geometry":{"type":"Point","coordinates":[127.24111,36.61111]},"properties":{"name":"세종 연서 고복 N2지구","addr":"도로관리사업소","sgg":"36110","cap":null,"type":null,"src":"safekorea","asof":"2026-08-23"}},{"type":"Feature","geometry":{"type":"Point","coordinates":[127.23944,36.61083]},"properties":{"name":"세종 연서 고복 N4지구","addr":"도로관리사업소","sgg":"36110","cap":null,"type":null,"src":"safekorea","asof":"2026-08-23"}},{"type":"Feature","geometry":{"type":"Point","coordinates":[127.24778,36.57667]},"properties":{"name":"세종 연서 기룡 N1지구","addr":"연서면","sgg":"36110","cap":null,"type":"지자체","src":"safekorea","asof":"2026-08-23"}},{"type":"Feature","geometry":{"type":"Point","coordinates":[127.26167,36.58528]},"properties":{"name":"세종 연서 성제 N1지구","addr":"연서면","sgg":"36110","cap":null,"type":"지자체","src":"safekorea","asof":"2026-08-23"}},{"type":"Feature","geometry":{"type":"Point","coordinates":[127.22889,36.59361]},"properties":{"name":"세종 연서 신대 N1지구","addr":"도로관리사업소","sgg":"36110","cap":null,"type":null,"src":"safekorea","asof":"2026-08-23"}},{"type":"Feature","geometry":{"type":"Point","coordinates":[127.22833,36.59417]},"properties":{"name":"세종 연서 용암 N1지구","addr":"도로관리사업소","sgg":"36110","cap":null,"type":null,"src":"safekorea","asof":"2026-08-23"}},{"type":"Feature","geometry":{"type":"Point","coordinates":[127.22639,36.60056]},"properties":{"name":"세종 연서 용암 N2지구","addr":"한국농어촌공사","sgg":"36110","cap":null,"type":null,"src":"safekorea","asof":"2026-08-23"}},{"type":"Feature","geometry":{"type":"Point","coordinates":[127.235,36.60444]},"properties":{"name":"세종 연서 용암 N3지구","addr":"도로관리사업소","sgg":"36110","cap":null,"type":null,"src":"safekorea","asof":"2026-08-23"}},{"type":"Feature","geometry":{"type":"Point","coordinates":[127.20806,36.44056]},"properties":{"name":"세종 장군 금암 N4지구","addr":"도로관리사업소","sgg":"36110","cap":null,"type":null,"src":"safekorea","asof":"2026-08-23"}},{"type":"Feature","geometry":{"type":"Point","coordinates":[127.20583,36.43972]},"properties":{"name":"세종 장군 금암 N5지구","addr":"장군면","sgg":"36110","cap":null,"type":null,"src":"safekorea","asof":"2026-08-23"}},{"type":"Feature","geometry":{"type":"Point","coordinates":[127.21583,36.51389]},"properties":{"name":"세종 장군 대교 N3지구","addr":"장군면","sgg":"36110","cap":null,"type":null,"src":"safekorea","asof":"2026-08-23"}},{"type":"Feature","geometry":{"type":"Point","coordinates":[127.21833,36.49917]},"properties":{"name":"세종 장군 봉안 N1지구","addr":"장군면","sgg":"36110","cap":null,"type":null,"src":"safekorea","asof":"2026-08-23"}},{"type":"Feature","geometry":{"type":"Point","coordinates":[127.23861,36.47583]},"properties":{"name":"세종 장군 산학 N1지구","addr":"도로관리사업소","sgg":"36110","cap":null,"type":null,"src":"safekorea","asof":"2026-08-23"}},{"type":"Feature","geometry":{"type":"Point","coordinates":[127.20306,36.54056]},"properties":{"name":"세종 장군 용현 N1지구","addr":"도로관리사업소","sgg":"36110","cap":null,"type":null,"src":"safekorea","asof":"2026-08-23"}},{"type":"Feature","geometry":{"type":"Point","coordinates":[127.27,36.66056]},"properties":{"name":"세종 전동 노장 N1지구","addr":"산업입지과","sgg":"36110","cap":null,"type":null,"src":"safekorea","asof":"2026-08-23"}},{"type":"Feature","geometry":{"type":"Point","coordinates":[127.26972,36.65917]},"properties":{"name":"세종 전동 노장 N2지구","addr":"산업입지과","sgg":"36110","cap":null,"type":null,"src":"safekorea","asof":"2026-08-23"}},{"type":"Feature","geometry":{"type":"Point","coordinates":[127.26889,36.66139]},"properties":{"name":"세종 전동 노장 N3지구","addr":"산업입지과","sgg":"36110","cap":null,"type":null,"src":"safekorea","asof":"2026-08-23"}},{"type":"Feature","geometry":{"type":"Point","coordinates":[127.26806,36.65944]},"properties":{"name":"세종 전동 노장 N4지구","addr":"산업입지과","sgg":"36110","cap":null,"type":null,"src":"safekorea","asof":"2026-08-23"}},{"type":"Feature","geometry":{"type":"Point","coordinates":[127.26694,36.66]},"properties":{"name":"세종 전동 노장 N5지구","addr":"산업입지과","sgg":"36110","cap":null,"type":null,"src":"safekorea","asof":"2026-08-23"}},{"type":"Feature","geometry":{"type":"Point","coordinates":[127.27278,36.66667]},"properties":{"name":"세종 전동 노장 N6지구","addr":"도로관리사업소","sgg":"36110","cap":null,"type":null,"src":"safekorea","asof":"2026-08-23"}},{"type":"Feature","geometry":{"type":"Point","coordinates":[127.27389,36.66472]},"properties":{"name":"세종 전동 노장 N7지구","addr":"도로관리사업소","sgg":"36110","cap":null,"type":null,"src":"safekorea","asof":"2026-08-23"}},{"type":"Feature","geometry":{"type":"Point","coordinates":[127.27056,36.67306]},"properties":{"name":"세종 전동 노장 N8지구","addr":"도로관리사업소","sgg":"36110","cap":null,"type":null,"src":"safekorea","asof":"2026-08-23"}},{"type":"Feature","geometry":{"type":"Point","coordinates":[127.26278,36.65639]},"properties":{"name":"세종 전동 노장 N9지구","addr":"도로관리사업소","sgg":"36110","cap":null,"type":null,"src":"safekorea","asof":"2026-08-23"}},{"type":"Feature","geometry":{"type":"Point","coordinates":[127.26944,36.62056]},"properties":{"name":"세종 전동 송곡 N1지구","addr":"도로관리사업소","sgg":"36110","cap":null,"type":null,"src":"safekorea","asof":"2026-08-23"}},{"type":"Feature","geometry":{"type":"Point","coordinates":[127.26861,36.62139]},"properties":{"name":"세종 전동 송곡 N2지구","addr":"도로관리사업소","sgg":"36110","cap":null,"type":null,"src":"safekorea","asof":"2026-08-23"}},{"type":"Feature","geometry":{"type":"Point","coordinates":[127.26806,36.62278]},"properties":{"name":"세종 전동 송곡 N3지구","addr":"도로관리사업소","sgg":"36110","cap":null,"type":null,"src":"safekorea","asof":"2026-08-23"}},{"type":"Feature","geometry":{"type":"Point","coordinates":[127.21944,36.6275]},"properties":{"name":"세종 전동 송정 N1지구","addr":"도로관리사업소","sgg":"36110","cap":null,"type":null,"src":"safekorea","asof":"2026-08-23"}},{"type":"Feature","geometry":{"type":"Point","coordinates":[127.21222,36.71833]},"properties":{"name":"세종 전의 관정 N3지구","addr":"도로관리사업소","sgg":"36110","cap":null,"type":null,"src":"safekorea","asof":"2026-08-23"}},{"type":"Feature","geometry":{"type":"Point","coordinates":[127.21278,36.70583]},"properties":{"name":"세종 전의 관정 N4지구","addr":"도로관리사업소","sgg":"36110","cap":null,"type":null,"src":"safekorea","asof":"2026-08-23"}},{"type":"Feature","geometry":{"type":"Point","coordinates":[127.2125,36.70722]},"properties":{"name":"세종 전의 관정 N5지구","addr":"도로관리사업소","sgg":"36110","cap":null,"type":null,"src":"safekorea","asof":"2026-08-23"}},{"type":"Feature","geometry":{"type":"Point","coordinates":[127.29139,36.58833]},"properties":{"name":"세종 조치원 번암 N1지구","addr":"조치원읍","sgg":"36110","cap":null,"type":null,"src":"safekorea","asof":"2026-08-23"}},{"type":"Feature","geometry":{"type":"Point","coordinates":[127.27028,36.61861]},"properties":{"name":"세종 조치원 봉산 N2지구","addr":"도로관리사업소","sgg":"36110","cap":null,"type":null,"src":"safekorea","asof":"2026-08-23"}},{"type":"Feature","geometry":{"type":"Point","coordinates":[127.28861,36.61722]},"properties":{"name":"세종 조치원 신안 N1지구","addr":"조치원읍","sgg":"36110","cap":null,"type":null,"src":"safekorea","asof":"2026-08-23"}},{"type":"Feature","geometry":{"type":"Point","coordinates":[127.28833,36.61889]},"properties":{"name":"세종 조치원 신안 N2지구","addr":"조치원읍","sgg":"36110","cap":null,"type":null,"src":"safekorea","asof":"2026-08-23"}},{"type":"Feature","geometry":{"type":"Point","coordinates":[127.285,36.61694]},"properties":{"name":"세종 조치원 신안 N3지구","addr":"조치원읍","sgg":"36110","cap":null,"type":null,"src":"safekorea","asof":"2026-08-23"}},{"type":"Feature","geometry":{"type":"Point","coordinates":[127.27944,36.63333]},"properties":{"name":"세종 조치원 신안 N4지구","addr":"도로관리사업소","sgg":"36110","cap":null,"type":null,"src":"safekorea","asof":"2026-08-23"}},{"type":"Feature","geometry":{"type":"Point","coordinates":[127.28,36.63361]},"properties":{"name":"세종 조치원 신안 N5지구","addr":"도로관리사업소","sgg":"36110","cap":null,"type":null,"src":"safekorea","asof":"2026-08-23"}},{"type":"Feature","geometry":{"type":"Point","coordinates":[127.28611,36.59694]},"properties":{"name":"세종 조치원 신흥 N1지구","addr":"시설관리사업소(체육시설과)","sgg":"36110","cap":null,"type":null,"src":"safekorea","asof":"2026-08-23"}},{"type":"Feature","geometry":{"type":"Point","coordinates":[127.29028,36.58833]},"properties":{"name":"세종 조치원 죽림 N1지구","addr":"조치원읍","sgg":"36110","cap":null,"type":null,"src":"safekorea","asof":"2026-08-23"}},{"type":"Feature","geometry":{"type":"Point","coordinates":[127.29333,36.59944]},"properties":{"name":"세종 조치원 침산 N1지구","addr":"조치원읍","sgg":"36110","cap":null,"type":null,"src":"safekorea","asof":"2026-08-23"}},{"type":"Feature","geometry":{"type":"Point","coordinates":[127.27556,36.53417]},"properties":{"name":"세종 한별 N1지구","addr":"한국토지주택공사","sgg":"36110","cap":null,"type":null,"src":"safekorea","asof":"2026-08-23"}},{"type":"Feature","geometry":{"type":"Point","coordinates":[127.20917,36.52972]},"properties":{"name":"세종진천","addr":null,"sgg":"36110","cap":null,"type":"시군구1","src":"safekorea","asof":"2026-08-23"}},{"type":"Feature","geometry":{"type":"Point","coordinates":[127.2225,36.53222]},"properties":{"name":"세종진천1","addr":null,"sgg":"36110","cap":null,"type":"세종진천","src":"safekorea","asof":"2026-08-23"}},{"type":"Feature","geometry":{"type":"Point","coordinates":[127.32556,36.57333]},"properties":{"name":"세종시스템101101010","addr":null,"sgg":"36110","cap":null,"type":"지자체","src":"safekorea","asof":"2026-08-23"}},{"type":"Feature","geometry":{"type":"Point","coordinates":[127.22222,36.57056]},"properties":{"name":"세종시스템1231231","addr":null,"sgg":"36110","cap":null,"type":"지자체","src":"safekorea","asof":"2026-08-23"}},{"type":"Feature","geometry":{"type":"Point","coordinates":[127.26889,36.48194]},"properties":{"name":"세종시스템101101010","addr":null,"sgg":"36110","cap":null,"type":"세종테스트11","src":"safekorea","asof":"2026-08-23"}},{"type":"Feature","geometry":{"type":"Point","coordinates":[127.23306,36.59056]},"properties":{"name":"세종 연서 신대 N3지구","addr":"신대리","sgg":"36110","cap":null,"type":null,"src":"safekorea","asof":"2026-08-23"}},{"type":"Feature","geometry":{"type":"Point","coordinates":[127.23278,36.59083]},"properties":{"name":"세종 연서 신대 N2지구","addr":"신대리","sgg":"36110","cap":null,"type":null,"src":"safekorea","asof":"2026-08-23"}},{"type":"Feature","geometry":{"type":"Point","coordinates":[127.23194,36.59111]},"properties":{"name":"세종 연서 신대 N4지구","addr":"신대리","sgg":"36110","cap":null,"type":null,"src":"safekorea","asof":"2026-08-23"}},{"type":"Feature","geometry":{"type":"Point","coordinates":[127.29,36.45167]},"properties":{"name":"세종 금남 발산 N1지구","addr":"발산리","sgg":"36110","cap":null,"type":null,"src":"safekorea","asof":"2026-08-23"}},{"type":"Feature","geometry":{"type":"Point","coordinates":[127.28861,36.45222]},"properties":{"name":"세종 금남 발산 N2지구","addr":"발산리","sgg":"36110","cap":null,"type":null,"src":"safekorea","asof":"2026-08-23"}},{"type":"Feature","geometry":{"type":"Point","coordinates":[127.27861,36.46583]},"properties":{"name":"세종 금남 용포 N1지구","addr":"용포리","sgg":"36110","cap":null,"type":null,"src":"safekorea","asof":"2026-08-23"}},{"type":"Feature","geometry":{"type":"Point","coordinates":[127.27889,36.465]},"properties":{"name":"세종 금남 용포 N2지구","addr":"용포리","sgg":"36110","cap":null,"type":null,"src":"safekorea","asof":"2026-08-23"}},{"type":"Feature","geometry":{"type":"Point","coordinates":[127.27889,36.46444]},"properties":{"name":"세종 금남 용포 N3지구","addr":"용포리","sgg":"36110","cap":null,"type":null,"src":"safekorea","asof":"2026-08-23"}},{"type":"Feature","geometry":{"type":"Point","coordinates":[127.27889,36.46389]},"properties":{"name":"세종 금남 용포 N4지구","addr":"용포리","sgg":"36110","cap":null,"type":null,"src":"safekorea","asof":"2026-08-23"}},{"type":"Feature","geometry":{"type":"Point","coordinates":[127.28,36.46389]},"properties":{"name":"세종 금남 용포 N5지구","addr":"용포리","sgg":"36110","cap":null,"type":null,"src":"safekorea","asof":"2026-08-23"}},{"type":"Feature","geometry":{"type":"Point","coordinates":[127.28056,36.46583]},"properties":{"name":"세종 금남 용포 N6지구","addr":"용포리","sgg":"36110","cap":null,"type":null,"src":"safekorea","asof":"2026-08-23"}},{"type":"Feature","geometry":{"type":"Point","coordinates":[127.28444,36.465]},"properties":{"name":"세종 금남 용포 N7지구","addr":"용포리","sgg":"36110","cap":null,"type":null,"src":"safekorea","asof":"2026-08-23"}},{"type":"Feature","geometry":{"type":"Point","coordinates":[127.25278,36.44833]},"properties":{"name":"세종 금남 원봉 N2지구","addr":"원봉리","sgg":"36110","cap":null,"type":null,"src":"safekorea","asof":"2026-08-23"}},{"type":"Feature","geometry":{"type":"Point","coordinates":[127.25361,36.44861]},"properties":{"name":"세종 금남 원봉 N3지구","addr":"원봉리","sgg":"36110","cap":null,"type":null,"src":"safekorea","asof":"2026-08-23"}},{"type":"Feature","geometry":{"type":"Point","coordinates":[127.24972,36.44722]},"properties":{"name":"세종 금남 원봉 N4지구","addr":"원봉리","sgg":"36110","cap":null,"type":null,"src":"safekorea","asof":"2026-08-23"}},{"type":"Feature","geometry":{"type":"Point","coordinates":[127.24917,36.44694]},"properties":{"name":"세종 금남 원봉 N5지구","addr":"원봉리","sgg":"36110","cap":null,"type":null,"src":"safekorea","asof":"2026-08-23"}},{"type":"Feature","geometry":{"type":"Point","coordinates":[127.24472,36.44111]},"properties":{"name":"세종 금남 원봉 N6지구","addr":"원봉리","sgg":"36110","cap":null,"type":null,"src":"safekorea","asof":"2026-08-23"}},{"type":"Feature","geometry":{"type":"Point","coordinates":[127.24194,36.43778]},"properties":{"name":"세종 금남 도남 N2지구","addr":"도남리","sgg":"36110","cap":null,"type":null,"src":"safekorea","asof":"2026-08-23"}},{"type":"Feature","geometry":{"type":"Point","coordinates":[127.24333,36.44028]},"properties":{"name":"세종 금남 도남 N1지구","addr":"도남리","sgg":"36110","cap":null,"type":null,"src":"safekorea","asof":"2026-08-23"}},{"type":"Feature","geometry":{"type":"Point","coordinates":[127.23417,36.43944]},"properties":{"name":"세종 금남 도남 N3지구","addr":"도남리","sgg":"36110","cap":null,"type":null,"src":"safekorea","asof":"2026-08-23"}},{"type":"Feature","geometry":{"type":"Point","coordinates":[127.21139,36.44778]},"properties":{"name":"세종 장군 금암 N7지구","addr":"금암리","sgg":"36110","cap":null,"type":null,"src":"safekorea","asof":"2026-08-23"}},{"type":"Feature","geometry":{"type":"Point","coordinates":[127.22694,36.45278]},"properties":{"name":"세종 장군 금암 N6지구","addr":"금암리","sgg":"36110","cap":null,"type":null,"src":"safekorea","asof":"2026-08-23"}},{"type":"Feature","geometry":{"type":"Point","coordinates":[127.22611,36.49]},"properties":{"name":"세종 장군 산학 N2지구","addr":"산학리","sgg":"36110","cap":null,"type":null,"src":"safekorea","asof":"2026-08-23"}},{"type":"Feature","geometry":{"type":"Point","coordinates":[127.22194,36.44611]},"properties":{"name":"세종 장군 금암 N8지구","addr":"금암리","sgg":"36110","cap":null,"type":null,"src":"safekorea","asof":"2026-08-23"}},{"type":"Feature","geometry":{"type":"Point","coordinates":[127.22056,36.44639]},"properties":{"name":"세종 장군 금암 N9지구","addr":"금암리","sgg":"36110","cap":null,"type":null,"src":"safekorea","asof":"2026-08-23"}},{"type":"Feature","geometry":{"type":"Point","coordinates":[127.21472,36.45972]},"properties":{"name":"세종 장군 금암 N10지구","addr":"금암리","sgg":"36110","cap":null,"type":null,"src":"safekorea","asof":"2026-08-23"}},{"type":"Feature","geometry":{"type":"Point","coordinates":[127.2325,36.44417]},"properties":{"name":"세종 금남 도남 N4지구","addr":"도남리","sgg":"36110","cap":null,"type":null,"src":"safekorea","asof":"2026-08-23"}},{"type":"Feature","geometry":{"type":"Point","coordinates":[127.26417,36.48611]},"properties":{"name":"세종나성동","addr":null,"sgg":"36110","cap":null,"type":"행정안전부","src":"safekorea","asof":"2026-08-23"}}]}