{"type":"FeatureCollection","features":[{"type":"Feature","geometry":{"type":"Point","coordinates":[126.53167,33.51583]},"properties":{"name":"복신미륵지구","addr":null,"sgg":"50110","cap":null,"type":"지자체","src":"safekorea","asof":"2026-08-23"}},{"type":"Feature","geometry":{"type":"Point","coordinates":[126.53889,33.51833]},"properties":{"name":"사장밭지구","addr":null,"sgg":"50110","cap":null,"type":"제주특별자치도","src":"safekorea","asof":"2026-08-23"}},{"type":"Feature","geometry":{"type":"Point","coordinates":[126.35306,33.44278]},"properties":{"name":"상가지구","addr":null,"sgg":"50110","cap":null,"type":"지자체","src":"safekorea","asof":"2026-08-23"}},{"type":"Feature","geometry":{"type":"Point","coordinates":[126.37472,33.48167]},"properties":{"name":"구엄지구","addr":null,"sgg":"50110","cap":null,"type":"지자체","src":"safekorea","asof":"2026-08-23"}},{"type":"Feature","geometry":{"type":"Point","coordinates":[126.31083,33.46]},"properties":{"name":"곽지지구","addr":null,"sgg":"50110","cap":null,"type":"지자체","src":"safekorea","asof":"2026-08-23"}},{"type":"Feature","geometry":{"type":"Point","coordinates":[126.16556,33.31056]},"properties":{"name":"고산3지구(고산지구)","addr":null,"sgg":"50110","cap":null,"type":"지자체","src":"safekorea","asof":"2026-08-23"}},{"type":"Feature","geometry":{"type":"Point","coordinates":[126.54139,33.51833]},"properties":{"name":"사라봉 지구","addr":null,"sgg":"50110","cap":null,"type":"지자체","src":"safekorea","asof":"2026-08-23"}},{"type":"Feature","geometry":{"type":"Point","coordinates":[126.59444,33.53083]},"properties":{"name":"삼양화력발전소지구","addr":null,"sgg":"50110","cap":null,"type":"지자체","src":"safekorea","asof":"2026-08-23"}},{"type":"Feature","geometry":{"type":"Point","coordinates":[126.59056,33.47611]},"properties":{"name":"용강지구","addr":null,"sgg":"50110","cap":null,"type":"지자체","src":"safekorea","asof":"2026-08-23"}},{"type":"Feature","geometry":{"type":"Point","coordinates":[126.16778,33.29917]},"properties":{"name":"고산1지구","addr":null,"sgg":"50110","cap":null,"type":"지자체","src":"safekorea","asof":"2026-08-23"}},{"type":"Feature","geometry":{"type":"Point","coordinates":[126.16278,33.28639]},"properties":{"name":"고산2지구","addr":null,"sgg":"50110","cap":null,"type":"지자체","src":"safekorea","asof":"2026-08-23"}},{"type":"Feature","geometry":{"type":"Point","coordinates":[126.54417,33.52]},"properties":{"name":"제주 제주 건입 N1지구","addr":null,"sgg":"50110","cap":null,"type":"지자체","src":"safekorea","asof":"2026-08-23"}},{"type":"Feature","geometry":{"type":"Point","coordinates":[126.31222,33.9525]},"properties":{"name":"묵리예초지구","addr":null,"sgg":"50110","cap":null,"type":"지자체","src":"safekorea","asof":"2026-08-23"}},{"type":"Feature","geometry":{"type":"Point","coordinates":[126.32833,33.95028]},"properties":{"name":"예초지구","addr":null,"sgg":"50110","cap":null,"type":"지자체","src":"safekorea","asof":"2026-08-23"}},{"type":"Feature","geometry":{"type":"Point","coordinates":[126.96694,33.49778]},"properties":{"name":"연평지구","addr":null,"sgg":"50110","cap":null,"type":"지자체","src":"safekorea","asof":"2026-08-23"}},{"type":"Feature","geometry":{"type":"Point","coordinates":[126.51139,33.50722]},"properties":{"name":"한담지구","addr":null,"sgg":"50110","cap":null,"type":"지자체","src":"safekorea","asof":"2026-08-23"}},{"type":"Feature","geometry":{"type":"Point","coordinates":[126.5925,33.52667]},"properties":{"name":"삼양한전아파트지구","addr":null,"sgg":"50110","cap":null,"type":"지자체","src":"safekorea","asof":"2026-08-23"}},{"type":"Feature","geometry":{"type":"Point","coordinates":[126.5425,33.51917]},"properties":{"name":"제주 제주 건입 N2지구","addr":null,"sgg":"50110","cap":null,"type":"지자체","src":"safekorea","asof":"2026-08-23"}},{"type":"Feature","geometry":{"type":"Point","coordinates":[126.48972,33.46361]},"properties":{"name":"제주 제주 연 N1지구","addr":null,"sgg":"50110","cap":null,"type":"지자체","src":"safekorea","asof":"2026-08-23"}},{"type":"Feature","geometry":{"type":"Point","coordinates":[126.49167,33.46361]},"properties":{"name":"제주 제주 연 N1지구","addr":null,"sgg":"50110","cap":null,"type":"제주특별자치도","src":"safekorea","asof":"2026-08-23"}},{"type":"Feature","geometry":{"type":"Point","coordinates":[126.54417,33.52]},"properties":{"name":"제주 제주 건입 N1지구","addr":null,"sgg":"50110","cap":null,"type":"제주특별자치도","src":"safekorea","asof":"2026-08-23"}},{"type":"Feature","geometry":{"type":"Point","coordinates":[126.54278,33.51917]},"properties":{"name":"제주 제주 건입 N2지구","addr":null,"sgg":"50110","cap":null,"type":"제주특별자치도","src":"safekorea","asof":"2026-08-23"}},{"type":"Feature","geometry":{"type":"Point","coordinates":[126.52722,33.51028]},"properties":{"name":"남수각지구","addr":null,"sgg":"50110","cap":null,"type":"지자체","src":"safekorea","asof":"2026-08-23"}},{"type":"Feature","geometry":{"type":"Point","coordinates":[126.59278,33.49417]},"properties":{"name":"봉개지구","addr":"대기고등학교 뒷편","sgg":"50110","cap":null,"type":"지자체","src":"safekorea","asof":"2026-08-23"}},{"type":"Feature","geometry":{"type":"Point","coordinates":[126.95806,33.49278]},"properties":{"name":"돌칸이지구","addr":null,"sgg":"50110","cap":null,"type":"제주시청","src":"safekorea","asof":"2026-08-23"}},{"type":"Feature","geometry":{"type":"Point","coordinates":[126.46639,33.50861]},"properties":{"name":"제주 도두일 N1지구","addr":null,"sgg":"50110","cap":null,"type":"제주특별자치도","src":"safekorea","asof":"2026-08-23"}},{"type":"Feature","geometry":{"type":"Point","coordinates":[126.31667,33.94056]},"properties":{"name":"제주 제주 추자 묵 N1지구","addr":null,"sgg":"50110","cap":null,"type":"제주특별자치도","src":"safekorea","asof":"2026-08-23"}},{"type":"Feature","geometry":{"type":"Point","coordinates":[126.30472,33.95278]},"properties":{"name":"묵리1지구","addr":null,"sgg":"50110","cap":null,"type":"지자체","src":"safekorea","asof":"2026-08-23"}},{"type":"Feature","geometry":{"type":"Point","coordinates":[126.29806,33.96]},"properties":{"name":"영흥지구","addr":null,"sgg":"50110","cap":null,"type":"지자체","src":"safekorea","asof":"2026-08-23"}},{"type":"Feature","geometry":{"type":"Point","coordinates":[126.32306,33.95167]},"properties":{"name":"제주 제주 추자 예초 N1 지구","addr":"예초리","sgg":"50110","cap":null,"type":null,"src":"safekorea","asof":"2026-08-23"}},{"type":"Feature","geometry":{"type":"Point","coordinates":[126.55778,33.52139]},"properties":{"name":"제주 제주 화북일 N1 지구(별도봉)","addr":null,"sgg":"50110","cap":null,"type":null,"src":"safekorea","asof":"2026-08-23"}},{"type":"Feature","geometry":{"type":"Point","coordinates":[126.52639,33.51028]},"properties":{"name":"제주 제주 이도일 N1 지구(남수각3)","addr":null,"sgg":"50110","cap":null,"type":null,"src":"safekorea","asof":"2026-08-23"}},{"type":"Feature","geometry":{"type":"Point","coordinates":[126.49528,33.40778]},"properties":{"name":"제주 제주 노형 N1 지구(천왕사)","addr":null,"sgg":"50110","cap":null,"type":null,"src":"safekorea","asof":"2026-08-23"}},{"type":"Feature","geometry":{"type":"Point","coordinates":[126.51083,33.51556]},"properties":{"name":"제주 제주 용담이 N1 지구(용두암)","addr":null,"sgg":"50110","cap":null,"type":null,"src":"safekorea","asof":"2026-08-23"}},{"type":"Feature","geometry":{"type":"Point","coordinates":[126.43833,33.45028]},"properties":{"name":"제주 제주 애월 광령 N1 지구(제4광령교)","addr":"광령리","sgg":"50110","cap":null,"type":null,"src":"safekorea","asof":"2026-08-23"}},{"type":"Feature","geometry":{"type":"Point","coordinates":[126.1675,33.29778]},"properties":{"name":"제주 제주 한경 고산 N1지구","addr":"고산리","sgg":"50110","cap":null,"type":null,"src":"safekorea","asof":"2026-08-23"}},{"type":"Feature","geometry":{"type":"Point","coordinates":[126.35667,33.47861]},"properties":{"name":"제주 제주 애월 신엄 N1지구","addr":"신엄리","sgg":"50110","cap":null,"type":null,"src":"safekorea","asof":"2026-08-23"}},{"type":"Feature","geometry":{"type":"Point","coordinates":[126.36139,33.47889]},"properties":{"name":"제주 제주 애월 신엄 N2지구","addr":"신엄리","sgg":"50110","cap":null,"type":null,"src":"safekorea","asof":"2026-08-23"}},{"type":"Feature","geometry":{"type":"Point","coordinates":[126.41694,33.47889]},"properties":{"name":"제주 제주 애월 하귀1 N2지구","addr":"하귀1리","sgg":"50110","cap":null,"type":null,"src":"safekorea","asof":"2026-08-23"}},{"type":"Feature","geometry":{"type":"Point","coordinates":[126.42,33.48611]},"properties":{"name":"제주 제주 애월 하귀1 N1지구","addr":"하귀1리","sgg":"50110","cap":null,"type":null,"src":"safekorea","asof":"2026-08-23"}},{"type":"Feature","geometry":{"type":"Point","coordinates":[126.515,33.51444]},"properties":{"name":"제주 제주 용담일 N1지구","addr":null,"sgg":"50110","cap":null,"type":null,"src":"safekorea","asof":"2026-08-23"}},{"type":"Feature","geometry":{"type":"Point","coordinates":[126.74694,33.5425]},"properties":{"name":"제주 제주 구좌 김녕 N1지구","addr":"김녕리","sgg":"50110","cap":null,"type":null,"src":"safekorea","asof":"2026-08-23"}},{"type":"Feature","geometry":{"type":"Point","coordinates":[126.73611,33.48722]},"properties":{"name":"제주 제주 구좌 덕천 N1지구","addr":"덕천리","sgg":"50110","cap":null,"type":null,"src":"safekorea","asof":"2026-08-23"}},{"type":"Feature","geometry":{"type":"Point","coordinates":[126.37917,33.23611]},"properties":{"name":"하예지구","addr":null,"sgg":"50130","cap":null,"type":"지자체","src":"safekorea","asof":"2026-08-23"}},{"type":"Feature","geometry":{"type":"Point","coordinates":[126.59806,33.32639]},"properties":{"name":"하례1지구","addr":null,"sgg":"50130","cap":null,"type":"서귀포시","src":"safekorea","asof":"2026-08-23"}},{"type":"Feature","geometry":{"type":"Point","coordinates":[126.35972,33.24889]},"properties":{"name":"대평지구","addr":null,"sgg":"50130","cap":null,"type":"지자체","src":"safekorea","asof":"2026-08-23"}},{"type":"Feature","geometry":{"type":"Point","coordinates":[126.31389,33.23639]},"properties":{"name":"산방산지구","addr":null,"sgg":"50130","cap":null,"type":"지자체","src":"safekorea","asof":"2026-08-23"}},{"type":"Feature","geometry":{"type":"Point","coordinates":[126.92917,33.45861]},"properties":{"name":"분토왓로지구","addr":null,"sgg":"50130","cap":null,"type":"지자체","src":"safekorea","asof":"2026-08-23"}},{"type":"Feature","geometry":{"type":"Point","coordinates":[126.56806,33.24306]},"properties":{"name":"송산3지구","addr":null,"sgg":"50130","cap":null,"type":"국가","src":"safekorea","asof":"2026-08-23"}},{"type":"Feature","geometry":{"type":"Point","coordinates":[126.6125,33.2375]},"properties":{"name":"송산4지구","addr":null,"sgg":"50130","cap":null,"type":"국가","src":"safekorea","asof":"2026-08-23"}},{"type":"Feature","geometry":{"type":"Point","coordinates":[126.55972,33.23972]},"properties":{"name":"서홍지구","addr":null,"sgg":"50130","cap":null,"type":"지자체","src":"safekorea","asof":"2026-08-23"}},{"type":"Feature","geometry":{"type":"Point","coordinates":[126.60694,33.26667]},"properties":{"name":"효돈지구","addr":null,"sgg":"50130","cap":null,"type":"지자체","src":"safekorea","asof":"2026-08-23"}},{"type":"Feature","geometry":{"type":"Point","coordinates":[126.58139,33.30056]},"properties":{"name":"영천1지구","addr":null,"sgg":"50130","cap":null,"type":"지자체","src":"safekorea","asof":"2026-08-23"}},{"type":"Feature","geometry":{"type":"Point","coordinates":[126.60917,33.27806]},"properties":{"name":"영천2지구","addr":null,"sgg":"50130","cap":null,"type":"지자체","src":"safekorea","asof":"2026-08-23"}},{"type":"Feature","geometry":{"type":"Point","coordinates":[126.93917,33.40806]},"properties":{"name":"나폴리지구","addr":null,"sgg":"50130","cap":null,"type":"지자체","src":"safekorea","asof":"2026-08-23"}},{"type":"Feature","geometry":{"type":"Point","coordinates":[126.37889,33.23667]},"properties":{"name":"제주 서귀포 하예 N1지구","addr":null,"sgg":"50130","cap":null,"type":null,"src":"safekorea","asof":"2026-08-23"}},{"type":"Feature","geometry":{"type":"Point","coordinates":[126.53944,33.25306]},"properties":{"name":"제주 서귀포 호근 N1지구","addr":null,"sgg":"50130","cap":null,"type":null,"src":"safekorea","asof":"2026-08-23"}},{"type":"Feature","geometry":{"type":"Point","coordinates":[126.49917,33.26167]},"properties":{"name":"제주 서귀포 강정 N1지구","addr":null,"sgg":"50130","cap":null,"type":null,"src":"safekorea","asof":"2026-08-23"}},{"type":"Feature","geometry":{"type":"Point","coordinates":[126.77111,33.32]},"properties":{"name":"토산망","addr":null,"sgg":"50130","cap":null,"type":"제주특별자치도 서귀포시","src":"safekorea","asof":"2026-08-23"}},{"type":"Feature","geometry":{"type":"Point","coordinates":[126.31417,33.23667]},"properties":{"name":"제주 서귀포 안덕 사계 N1지구","addr":null,"sgg":"50130","cap":null,"type":"제주특별자치도","src":"safekorea","asof":"2026-08-23"}},{"type":"Feature","geometry":{"type":"Point","coordinates":[126.35222,33.25194]},"properties":{"name":"월라봉지구","addr":null,"sgg":"50130","cap":null,"type":"서귀포시","src":"safekorea","asof":"2026-08-23"}},{"type":"Feature","geometry":{"type":"Point","coordinates":[126.56167,33.24083]},"properties":{"name":"송산1지구","addr":null,"sgg":"50130","cap":null,"type":"지자체","src":"safekorea","asof":"2026-08-23"}},{"type":"Feature","geometry":{"type":"Point","coordinates":[126.56972,33.23889]},"properties":{"name":"송산2지구","addr":null,"sgg":"50130","cap":null,"type":"국가","src":"safekorea","asof":"2026-08-23"}},{"type":"Feature","geometry":{"type":"Point","coordinates":[126.7075,33.29556]},"properties":{"name":"남원지구","addr":null,"sgg":"50130","cap":null,"type":"지자체","src":"safekorea","asof":"2026-08-23"}},{"type":"Feature","geometry":{"type":"Point","coordinates":[126.60083,33.32583]},"properties":{"name":"하례2지구","addr":null,"sgg":"50130","cap":null,"type":"서귀포시","src":"safekorea","asof":"2026-08-23"}},{"type":"Feature","geometry":{"type":"Point","coordinates":[126.88222,33.47333]},"properties":{"name":"시흥지구","addr":null,"sgg":"50130","cap":null,"type":"지자체","src":"safekorea","asof":"2026-08-23"}},{"type":"Feature","geometry":{"type":"Point","coordinates":[126.54944,33.24194]},"properties":{"name":"삼매봉지구","addr":null,"sgg":"50130","cap":null,"type":"지자체","src":"safekorea","asof":"2026-08-23"}},{"type":"Feature","geometry":{"type":"Point","coordinates":[126.31444,33.23361]},"properties":{"name":"용머리해안","addr":null,"sgg":"50130","cap":null,"type":"서귀포","src":"safekorea","asof":"2026-08-23"}},{"type":"Feature","geometry":{"type":"Point","coordinates":[126.54694,33.23917]},"properties":{"name":"외돌개","addr":null,"sgg":"50130","cap":null,"type":"서귀포시","src":"safekorea","asof":"2026-08-23"}},{"type":"Feature","geometry":{"type":"Point","coordinates":[126.32889,33.24111]},"properties":{"name":"화순항","addr":null,"sgg":"50130","cap":null,"type":"서귀포시","src":"safekorea","asof":"2026-08-23"}},{"type":"Feature","geometry":{"type":"Point","coordinates":[126.315,33.23472]},"properties":{"name":"제주 서귀포 안덕 사계 N1 지구(용머리해안)","addr":"사계리","sgg":"50130","cap":null,"type":null,"src":"safekorea","asof":"2026-08-23"}},{"type":"Feature","geometry":{"type":"Point","coordinates":[126.54722,33.23944]},"properties":{"name":"제주 서귀포 서홍 N1 지구(외돌개)","addr":null,"sgg":"50130","cap":null,"type":null,"src":"safekorea","asof":"2026-08-23"}},{"type":"Feature","geometry":{"type":"Point","coordinates":[126.33056,33.24139]},"properties":{"name":"제주 서귀포 안덕 화순 N1 지구(화순항)","addr":"화순리","sgg":"50130","cap":null,"type":null,"src":"safekorea","asof":"2026-08-23"}},{"type":"Feature","geometry":{"type":"Point","coordinates":[126.57389,33.24417]},"properties":{"name":"제주 서귀포 동홍 N1 지구(정방폭포)","addr":null,"sgg":"50130","cap":null,"type":null,"src":"safekorea","asof":"2026-08-23"}},{"type":"Feature","geometry":{"type":"Point","coordinates":[126.5775,33.24528]},"properties":{"name":"제주 서귀포 동홍 N2 지구(소라의성)","addr":null,"sgg":"50130","cap":null,"type":null,"src":"safekorea","asof":"2026-08-23"}},{"type":"Feature","geometry":{"type":"Point","coordinates":[126.70556,33.27389]},"properties":{"name":"제주 서귀포 남원 남원 N1 지구(남원큰엉)","addr":"남원리","sgg":"50130","cap":null,"type":null,"src":"safekorea","asof":"2026-08-23"}},{"type":"Feature","geometry":{"type":"Point","coordinates":[126.2925,33.2025]},"properties":{"name":"제주 서귀포 대정 상모 N1 지구(송악산)","addr":"상모리","sgg":"50130","cap":null,"type":null,"src":"safekorea","asof":"2026-08-23"}},{"type":"Feature","geometry":{"type":"Point","coordinates":[126.93361,33.42806]},"properties":{"name":"제주 서귀포 성산 고성 N1 지구(섭지코지)","addr":"고성리","sgg":"50130","cap":null,"type":null,"src":"safekorea","asof":"2026-08-23"}},{"type":"Feature","geometry":{"type":"Point","coordinates":[126.35306,33.25056]},"properties":{"name":"제주 서귀포 안덕 감산 N1 지구(월라봉)","addr":"감산리","sgg":"50130","cap":null,"type":null,"src":"safekorea","asof":"2026-08-23"}},{"type":"Feature","geometry":{"type":"Point","coordinates":[126.56361,33.24]},"properties":{"name":"제주 서귀포 서귀 N2지구","addr":null,"sgg":"50130","cap":null,"type":null,"src":"safekorea","asof":"2026-08-23"}},{"type":"Feature","geometry":{"type":"Point","coordinates":[126.56167,33.24361]},"properties":{"name":"제주 서귀포 서귀 N1지구","addr":null,"sgg":"50130","cap":null,"type":null,"src":"safekorea","asof":"2026-08-23"}},{"type":"Feature","geometry":{"type":"Point","coordinates":[126.54917,33.25]},"properties":{"name":"제주 서귀포 서홍 N2지구","addr":null,"sgg":"50130","cap":null,"type":null,"src":"safekorea","asof":"2026-08-23"}},{"type":"Feature","geometry":{"type":"Point","coordinates":[126.56167,33.26806]},"properties":{"name":"제주 서귀포 동홍 N3지구","addr":null,"sgg":"50130","cap":null,"type":null,"src":"safekorea","asof":"2026-08-23"}},{"type":"Feature","geometry":{"type":"Point","coordinates":[126.55083,33.27222]},"properties":{"name":"제주 서귀포 서홍 N3지구","addr":null,"sgg":"50130","cap":null,"type":null,"src":"safekorea","asof":"2026-08-23"}},{"type":"Feature","geometry":{"type":"Point","coordinates":[126.28417,33.20556]},"properties":{"name":"제주 서귀포 대정 상모 N1지구","addr":"상모리","sgg":"50130","cap":null,"type":null,"src":"safekorea","asof":"2026-08-23"}},{"type":"Feature","geometry":{"type":"Point","coordinates":[126.41861,33.24472]},"properties":{"name":"제주 서귀포 중문 N1지구","addr":null,"sgg":"50130","cap":null,"type":null,"src":"safekorea","asof":"2026-08-23"}},{"type":"Feature","geometry":{"type":"Point","coordinates":[126.41417,33.24444]},"properties":{"name":"제주 서귀포 색달 N2지구","addr":null,"sgg":"50130","cap":null,"type":null,"src":"safekorea","asof":"2026-08-23"}},{"type":"Feature","geometry":{"type":"Point","coordinates":[126.57306,33.24472]},"properties":{"name":"정방폭포","addr":null,"sgg":"50130","cap":null,"type":"서귀포시","src":"safekorea","asof":"2026-08-23"}},{"type":"Feature","geometry":{"type":"Point","coordinates":[126.57722,33.245]},"properties":{"name":"소라의성","addr":null,"sgg":"50130","cap":null,"type":"서귀포시","src":"safekorea","asof":"2026-08-23"}},{"type":"Feature","geometry":{"type":"Point","coordinates":[126.70528,33.27417]},"properties":{"name":"남원큰엉","addr":null,"sgg":"50130","cap":null,"type":"서귀포시","src":"safekorea","asof":"2026-08-23"}},{"type":"Feature","geometry":{"type":"Point","coordinates":[126.29222,33.2025]},"properties":{"name":"송악산","addr":null,"sgg":"50130","cap":null,"type":"서귀포시","src":"safekorea","asof":"2026-08-23"}},{"type":"Feature","geometry":{"type":"Point","coordinates":[126.93306,33.42778]},"properties":{"name":"섭지코지","addr":null,"sgg":"50130","cap":null,"type":"서귀포시","src":"safekorea","asof":"2026-08-23"}},{"type":"Feature","geometry":{"type":"Point","coordinates":[126.56333,33.23972]},"properties":{"name":"서귀 N2지구","addr":null,"sgg":"50130","cap":null,"type":"서귀포","src":"safekorea","asof":"2026-08-23"}},{"type":"Feature","geometry":{"type":"Point","coordinates":[126.56167,33.24361]},"properties":{"name":"서귀 N1지구","addr":null,"sgg":"50130","cap":null,"type":"서귀포시","src":"safekorea","asof":"2026-08-23"}},{"type":"Feature","geometry":{"type":"Point","coordinates":[126.54889,33.24972]},"properties":{"name":"서홍 N2지구","addr":null,"sgg":"50130","cap":null,"type":"서귀포시","src":"safekorea","asof":"2026-08-23"}},{"type":"Feature","geometry":{"type":"Point","coordinates":[126.56083,33.26861]},"properties":{"name":"동홍 N3지구","addr":null,"sgg":"50130","cap":null,"type":"서귀포시","src":"safekorea","asof":"2026-08-23"}},{"type":"Feature","geometry":{"type":"Point","coordinates":[126.55111,33.27167]},"properties":{"name":"서홍 N3지구","addr":null,"sgg":"50130","cap":null,"type":"서귀포시","src":"safekorea","asof":"2026-08-23"}},{"type":"Feature","geometry":{"type":"Point","coordinates":[126.28417,33.20528]},"properties":{"name":"상모 N1지구","addr":null,"sgg":"50130","cap":null,"type":"서귀포시","src":"safekorea","asof":"2026-08-23"}},{"type":"Feature","geometry":{"type":"Point","coordinates":[126.41944,33.245]},"properties":{"name":"중문 N1지구","addr":null,"sgg":"50130","cap":null,"type":"서귀포시","src":"safekorea","asof":"2026-08-23"}},{"type":"Feature","geometry":{"type":"Point","coordinates":[126.41417,33.24444]},"properties":{"name":"색달 N2지구","addr":null,"sgg":"50130","cap":null,"type":"서귀포시","src":"safekorea","asof":"2026-08-23"}}]}